PathFileType	4	(X/Y/Z)	 P5 -65r2 02.trc
DataRate	CameraRate	NumFrames	NumMarkers	Units	OrigDataRate	OrigDataStartFrame	OrigNumFrames
200	200	82	38	m	200	1	82
Frame#	Time	RASIS			LASIS			RPSIS			LPSIS			RThighRear1			RThighFront1			RThighRear2			RThighFront2			RKneeLat			RKneeMed			RShankRear1			RShankFront1			RShankRear2			RShankFront2			RAnkleLat			RAnkleMed			RM5			RM1			RMid			RHeel			LThighRear1			LThighFront1			LThighRear2			LThighFront2			LKneeLat			LKneeMed			LShankRear1			LShankFront1			LShankRear2			LShankFront2			LAnkleLat			LAnkleMed			LM5			LM1			LMid			LHeel			RShoulder			LShoulder			
		X1	Y1	Z1	X2	Y2	Z2	X3	Y3	Z3	X4	Y4	Z4	X5	Y5	Z5	X6	Y6	Z6	X7	Y7	Z7	X8	Y8	Z8	X9	Y9	Z9	X10	Y10	Z10	X11	Y11	Z11	X12	Y12	Z12	X13	Y13	Z13	X14	Y14	Z14	X15	Y15	Z15	X16	Y16	Z16	X17	Y17	Z17	X18	Y18	Z18	X19	Y19	Z19	X20	Y20	Z20	X21	Y21	Z21	X22	Y22	Z22	X23	Y23	Z23	X24	Y24	Z24	X25	Y25	Z25	X26	Y26	Z26	X27	Y27	Z27	X28	Y28	Z28	X29	Y29	Z29	X30	Y30	Z30	X31	Y31	Z31	X32	Y32	Z32	X33	Y33	Z33	X34	Y34	Z34	X35	Y35	Z35	X36	Y36	Z36	X37	Y37	Z37	X38	Y38	Z38	
1	0.0000	-1.488388	0.881529	-0.260503	-1.478032	0.897272	-0.473730	-1.655408	0.948949	-0.335353	-1.651499	0.949307	-0.434473	-1.641715	0.708801	-0.196044	-1.592085	0.698517	-0.195708	-1.648185	0.662758	-0.194127	-1.601164	0.648850	-0.194418	-1.687475	0.435061	-0.219011	-1.680809	0.419946	-0.330724	-1.824491	0.454794	-0.217487	-1.813542	0.404497	-0.223641	-1.863428	0.443616	-0.224682	-1.851915	0.397898	-0.233287	-2.083279	0.405664	-0.278456	-2.069251	0.373452	-0.357965	-2.145755	0.294211	-0.233274	-2.134927	0.256801	-0.335029	-2.118646	0.204021	-0.269433	-2.116062	0.454885	-0.339836	-1.496470	0.733619	-0.552548	-1.459283	0.753196	-0.532078	-1.483764	0.696464	-0.551603	-1.443920	0.718679	-0.539428	-1.360741	0.494201	-0.506591	-1.365859	0.494528	-0.401872	-1.402132	0.359831	-0.522045	-1.357393	0.361207	-0.505024	-1.403073	0.311646	-0.514378	-1.362981	0.312408	-0.500828	-1.401263	0.096998	-0.458783	-1.385290	0.110166	-0.373430	-1.292509	0.039551	-0.478503	-1.278570	0.033628	-0.365235	-1.201858	0.048149	-0.422123	-1.466971	0.072396	-0.411417	-1.362364	1.354460	-0.223342	-1.381061	1.356093	-0.519653	
2	0.0050	-1.472849	0.880068	-0.261107	-1.463574	0.896745	-0.474419	-1.640587	0.947551	-0.334440	-1.636903	0.948798	-0.433675	-1.622156	0.706236	-0.195943	-1.572290	0.697172	-0.195544	-1.627332	0.660222	-0.193811	-1.580026	0.647518	-0.194132	-1.660233	0.432703	-0.218576	-1.653423	0.417735	-0.330663	-1.796543	0.452884	-0.216620	-1.785882	0.402404	-0.223193	-1.835601	0.442000	-0.223729	-1.824438	0.396260	-0.232590	-2.055988	0.405839	-0.277032	-2.042334	0.373636	-0.356689	-2.117683	0.294301	-0.231487	-2.107704	0.256761	-0.333317	-2.090587	0.204049	-0.267929	-2.089400	0.455199	-0.338247	-1.483851	0.732232	-0.553160	-1.446194	0.751515	-0.533303	-1.471578	0.694970	-0.552208	-1.431346	0.716772	-0.540660	-1.350187	0.491280	-0.507588	-1.355488	0.491556	-0.402601	-1.394163	0.358065	-0.522246	-1.349575	0.358387	-0.505222	-1.396445	0.310159	-0.514480	-1.356519	0.309955	-0.500802	-1.400957	0.096771	-0.458093	-1.384880	0.109767	-0.372619	-1.292550	0.039519	-0.478646	-1.278411	0.033659	-0.365269	-1.201938	0.047984	-0.422102	-1.466929	0.071996	-0.410944	-1.347769	1.353476	-0.222524	-1.365363	1.354216	-0.519648	
3	0.0100	-1.457110	0.878613	-0.261713	-1.448905	0.896229	-0.475115	-1.625567	0.946158	-0.333534	-1.622096	0.948305	-0.432881	-1.602301	0.703690	-0.195861	-1.552200	0.695874	-0.195400	-1.606151	0.657716	-0.193512	-1.558565	0.646244	-0.193871	-1.632518	0.430419	-0.218183	-1.625587	0.415621	-0.330656	-1.768149	0.450989	-0.215773	-1.757759	0.400320	-0.222775	-1.807336	0.440387	-0.222782	-1.796504	0.394618	-0.231914	-2.028310	0.405914	-0.275574	-2.015023	0.373741	-0.355390	-2.089162	0.294231	-0.229681	-2.080022	0.256575	-0.331593	-2.062025	0.203923	-0.266433	-2.062396	0.455417	-0.336604	-1.471071	0.730827	-0.553772	-1.432937	0.749801	-0.534529	-1.459245	0.693453	-0.552813	-1.418618	0.714824	-0.541895	-1.339580	0.488283	-0.508575	-1.345073	0.488512	-0.403326	-1.386163	0.356247	-0.522440	-1.341732	0.355504	-0.505414	-1.389797	0.308628	-0.514574	-1.350043	0.307447	-0.500767	-1.400673	0.096532	-0.457390	-1.384486	0.109358	-0.371793	-1.292601	0.039497	-0.478790	-1.278259	0.033690	-0.365308	-1.202025	0.047830	-0.422087	-1.466918	0.071566	-0.410459	-1.332976	1.352504	-0.221683	-1.349435	1.352341	-0.519623	
4	0.0150	-1.441188	0.877186	-0.262314	-1.434027	0.895734	-0.475812	-1.610357	0.944791	-0.332644	-1.607082	0.947840	-0.432099	-1.582163	0.701203	-0.195805	-1.531833	0.694665	-0.195287	-1.584655	0.655288	-0.193243	-1.536796	0.645076	-0.193651	-1.604340	0.428274	-0.217854	-1.597322	0.413677	-0.330722	-1.739325	0.449132	-0.214965	-1.729173	0.398277	-0.222406	-1.778648	0.438787	-0.221854	-1.768114	0.392987	-0.231276	-2.000248	0.405821	-0.274091	-1.987316	0.373709	-0.354079	-2.060162	0.293922	-0.227877	-2.051840	0.256173	-0.329882	-2.032906	0.203578	-0.264974	-2.035069	0.455461	-0.334909	-1.458143	0.729415	-0.554373	-1.419528	0.748058	-0.535739	-1.446783	0.691925	-0.553410	-1.405756	0.712839	-0.543115	-1.328978	0.485220	-0.509540	-1.334676	0.485407	-0.404038	-1.378182	0.354384	-0.522623	-1.333917	0.352573	-0.505596	-1.383171	0.307061	-0.514657	-1.343596	0.304901	-0.500721	-1.400414	0.096289	-0.456676	-1.384111	0.108946	-0.370957	-1.292663	0.039484	-0.478931	-1.278121	0.033716	-0.365353	-1.202119	0.047690	-0.422079	-1.466941	0.071112	-0.409963	-1.318004	1.351566	-0.220813	-1.333286	1.350495	-0.519564	
5	0.0200	-1.425095	0.875809	-0.262902	-1.418933	0.895269	-0.476500	-1.594960	0.943472	-0.331781	-1.591853	0.947421	-0.431338	-1.561749	0.698819	-0.195785	-1.511198	0.693590	-0.195215	-1.562848	0.652985	-0.193014	-1.514729	0.644066	-0.193486	-1.575697	0.426340	-0.217613	-1.568636	0.411979	-0.330883	-1.710076	0.447336	-0.214214	-1.700114	0.396304	-0.222105	-1.749539	0.437213	-0.220961	-1.739254	0.391383	-0.230694	-1.971791	0.405489	-0.272592	-1.959196	0.373482	-0.352765	-2.030636	0.293290	-0.226096	-2.023098	0.255484	-0.328206	-2.003155	0.202949	-0.263584	-2.007423	0.455248	-0.333163	-1.445073	0.728006	-0.554955	-1.405975	0.746291	-0.536918	-1.434200	0.690398	-0.553988	-1.392771	0.710823	-0.544305	-1.318438	0.482102	-0.510465	-1.324357	0.482256	-0.404723	-1.370267	0.352491	-0.522790	-1.326176	0.349610	-0.505762	-1.376605	0.305473	-0.514724	-1.337217	0.302331	-0.500662	-1.400181	0.096052	-0.455956	-1.383753	0.108540	-0.370117	-1.292736	0.039478	-0.479066	-1.278000	0.033735	-0.365403	-1.202223	0.047568	-0.422076	-1.466999	0.070645	-0.409459	-1.302863	1.350684	-0.219908	-1.316915	1.348705	-0.519459	
6	0.0250	-1.408832	0.874507	-0.263467	-1.403609	0.894846	-0.477171	-1.579372	0.942221	-0.330957	-1.576397	0.947062	-0.430607	-1.541057	0.696580	-0.195808	-1.490298	0.692696	-0.195196	-1.540726	0.650858	-0.192839	-1.492366	0.643265	-0.193391	-1.546584	0.424685	-0.217482	-1.539534	0.410602	-0.331160	-1.680400	0.445627	-0.213539	-1.670566	0.394432	-0.221890	-1.720001	0.435676	-0.220119	-1.709902	0.389821	-0.230187	-1.942915	0.404845	-0.271086	-1.930634	0.372998	-0.351461	-2.000522	0.292252	-0.224361	-1.993720	0.254435	-0.326593	-1.972685	0.201975	-0.262293	-1.979445	0.454690	-0.331370	-1.431859	0.726611	-0.555506	-1.392281	0.744504	-0.538047	-1.421502	0.688884	-0.554536	-1.379670	0.708779	-0.545445	-1.308012	0.478942	-0.511337	-1.314169	0.479074	-0.405369	-1.362461	0.350580	-0.522933	-1.318555	0.346634	-0.505908	-1.370138	0.303877	-0.514770	-1.330945	0.299758	-0.500586	-1.399975	0.095829	-0.455233	-1.383412	0.108150	-0.369278	-1.292822	0.039477	-0.479190	-1.277902	0.033740	-0.365458	-1.202338	0.047464	-0.422079	-1.467093	0.070176	-0.408951	-1.287557	1.349878	-0.218961	-1.300318	1.346999	-0.519291	
7	0.0300	-1.392398	0.873303	-0.264000	-1.388038	0.894473	-0.477815	-1.563583	0.941061	-0.330180	-1.560697	0.946779	-0.429915	-1.520082	0.694530	-0.195883	-1.469134	0.692029	-0.195240	-1.518286	0.648954	-0.192727	-1.469707	0.642725	-0.193380	-1.516994	0.423380	-0.217480	-1.510019	0.409621	-0.331571	-1.650292	0.444026	-0.212957	-1.640508	0.392694	-0.221779	-1.690025	0.434186	-0.219342	-1.680034	0.388319	-0.229773	-1.913589	0.403817	-0.269585	-1.901592	0.372194	-0.350181	-1.969750	0.290730	-0.222695	-1.963625	0.252961	-0.325068	-1.941401	0.200596	-0.261135	-1.951118	0.453699	-0.329535	-1.418495	0.725242	-0.556015	-1.378442	0.742702	-0.539110	-1.408687	0.687395	-0.555044	-1.366456	0.706715	-0.546517	-1.297746	0.475757	-0.512138	-1.304163	0.475882	-0.405964	-1.354806	0.348672	-0.523048	-1.311094	0.343667	-0.506029	-1.363801	0.302290	-0.514790	-1.324811	0.297203	-0.500491	-1.399794	0.095634	-0.454513	-1.383084	0.107787	-0.368447	-1.292921	0.039479	-0.479300	-1.277831	0.033727	-0.365516	-1.202465	0.047380	-0.422085	-1.467222	0.069720	-0.408441	-1.272087	1.349173	-0.217966	-1.283485	1.345406	-0.519047	
8	0.0350	-1.375786	0.872220	-0.264492	-1.372197	0.894159	-0.478422	-1.547580	0.940014	-0.329461	-1.544731	0.946587	-0.429270	-1.498820	0.692711	-0.196016	-1.447704	0.691632	-0.195355	-1.495521	0.647321	-0.192690	-1.446752	0.642494	-0.193467	-1.486923	0.422491	-0.217627	-1.480095	0.409106	-0.332131	-1.619748	0.442556	-0.212486	-1.609920	0.391119	-0.221787	-1.659601	0.432751	-0.218647	-1.649625	0.386892	-0.229468	-1.883774	0.402334	-0.268104	-1.872030	0.371012	-0.348941	-1.938245	0.288652	-0.221126	-1.932726	0.251000	-0.323660	-1.909205	0.198765	-0.260140	-1.922415	0.452187	-0.327668	-1.404970	0.723911	-0.556473	-1.364452	0.740891	-0.540088	-1.395751	0.685946	-0.555500	-1.353126	0.704636	-0.547503	-1.287683	0.472567	-0.512855	-1.294385	0.472700	-0.406492	-1.347338	0.346785	-0.523129	-1.303831	0.340732	-0.506117	-1.357626	0.300734	-0.514779	-1.318848	0.294691	-0.500375	-1.399635	0.095480	-0.453801	-1.382765	0.107463	-0.367631	-1.293033	0.039480	-0.479391	-1.277790	0.033690	-0.365577	-1.202606	0.047318	-0.422092	-1.467380	0.069295	-0.407933	-1.256452	1.348588	-0.216914	-1.266407	1.343954	-0.518711	
9	0.0400	-1.358991	0.871282	-0.264934	-1.356064	0.893914	-0.478980	-1.531349	0.939100	-0.328809	-1.528477	0.946500	-0.428681	-1.477266	0.691163	-0.196214	-1.426008	0.691546	-0.195551	-1.472430	0.646003	-0.192737	-1.423501	0.642618	-0.193662	-1.456375	0.422080	-0.217937	-1.449773	0.409119	-0.332853	-1.588766	0.441235	-0.212141	-1.578789	0.389737	-0.221929	-1.628721	0.431379	-0.218048	-1.618656	0.385554	-0.229288	-1.853431	0.400330	-0.266659	-1.841902	0.369394	-0.347755	-1.905932	0.285953	-0.219679	-1.900938	0.248498	-0.322397	-1.876004	0.196439	-0.259341	-1.893303	0.450072	-0.325779	-1.391274	0.722629	-0.556869	-1.350304	0.739077	-0.540965	-1.382687	0.684550	-0.555894	-1.339678	0.702551	-0.548384	-1.277861	0.469394	-0.513471	-1.284873	0.469553	-0.406942	-1.340087	0.344946	-0.523169	-1.296796	0.337859	-0.506169	-1.351637	0.299232	-0.514733	-1.313079	0.292247	-0.500235	-1.399492	0.095383	-0.453101	-1.382448	0.107191	-0.366836	-1.293156	0.039477	-0.479460	-1.277784	0.033625	-0.365637	-1.202761	0.047275	-0.422098	-1.467562	0.068922	-0.407432	-1.240650	1.348147	-0.215801	-1.249071	1.342669	-0.518271	
10	0.0450	-1.342003	0.870510	-0.265314	-1.339619	0.893743	-0.479479	-1.514875	0.938338	-0.328232	-1.511916	0.946532	-0.428154	-1.455420	0.689923	-0.196479	-1.404050	0.691808	-0.195834	-1.449015	0.645042	-0.192875	-1.399962	0.643138	-0.193975	-1.425365	0.422201	-0.218424	-1.419071	0.409715	-0.333745	-1.557353	0.440082	-0.211934	-1.547109	0.388574	-0.222217	-1.597385	0.430075	-0.217559	-1.587113	0.384321	-0.229246	-1.822522	0.397746	-0.265266	-1.811169	0.367290	-0.346642	-1.872740	0.282582	-0.218381	-1.868182	0.245413	-0.321307	-1.841711	0.193591	-0.258768	-1.863750	0.447273	-0.323883	-1.377393	0.721410	-0.557192	-1.335988	0.737269	-0.541724	-1.369487	0.683222	-0.556215	-1.326107	0.700470	-0.549143	-1.268308	0.466265	-0.513974	-1.275659	0.466471	-0.407301	-1.333081	0.343180	-0.523164	-1.290016	0.335077	-0.506179	-1.345855	0.297809	-0.514649	-1.307525	0.289903	-0.500070	-1.399359	0.095358	-0.452420	-1.382124	0.106986	-0.366070	-1.293290	0.039465	-0.479502	-1.277812	0.033527	-0.365696	-1.202931	0.047252	-0.422100	-1.467757	0.068624	-0.406944	-1.224679	1.347869	-0.214620	-1.231470	1.341579	-0.517714	
11	0.0500	-1.324815	0.869923	-0.265626	-1.322841	0.893654	-0.479908	-1.498146	0.937746	-0.327737	-1.495027	0.946695	-0.427696	-1.433285	0.689025	-0.196816	-1.381836	0.692451	-0.196207	-1.425283	0.644471	-0.193111	-1.376145	0.644087	-0.194412	-1.393918	0.422901	-0.219096	-1.388019	0.410939	-0.334811	-1.525527	0.439108	-0.211878	-1.514885	0.387654	-0.222658	-1.565599	0.428843	-0.217193	-1.554996	0.383205	-0.229352	-1.791012	0.394532	-0.263945	-1.779793	0.364654	-0.345619	-1.838607	0.278499	-0.217260	-1.834387	0.241716	-0.320419	-1.806253	0.190206	-0.258449	-1.833724	0.443721	-0.321997	-1.363314	0.720266	-0.557434	-1.321496	0.735475	-0.542348	-1.356142	0.681978	-0.556452	-1.312408	0.698403	-0.549762	-1.259051	0.463210	-0.514353	-1.266768	0.463485	-0.407557	-1.326339	0.341520	-0.523108	-1.283510	0.332420	-0.506144	-1.340294	0.296494	-0.514522	-1.302200	0.287690	-0.499877	-1.399222	0.095424	-0.451765	-1.381782	0.106863	-0.365343	-1.293432	0.039439	-0.479513	-1.277878	0.033391	-0.365750	-1.203116	0.047246	-0.422095	-1.467952	0.068429	-0.406473	-1.208540	1.347771	-0.213367	-1.213598	1.340706	-0.517029	
12	0.0550	-1.307421	0.869540	-0.265859	-1.305715	0.893652	-0.480256	-1.481149	0.937340	-0.327327	-1.477797	0.946999	-0.427311	-1.410871	0.688495	-0.197224	-1.359380	0.693499	-0.196674	-1.401250	0.644322	-0.193448	-1.352069	0.645493	-0.194977	-1.362075	0.424216	-0.219958	-1.356656	0.412825	-0.336052	-1.493313	0.438324	-0.211980	-1.482137	0.386998	-0.223259	-1.533382	0.427683	-0.216961	-1.522314	0.382216	-0.229616	-1.758871	0.390645	-0.262716	-1.747742	0.361450	-0.344705	-1.803479	0.273681	-0.216342	-1.799495	0.237391	-0.319758	-1.769571	0.186284	-0.258411	-1.803191	0.439353	-0.320141	-1.349026	0.719212	-0.557586	-1.306822	0.733705	-0.542826	-1.342643	0.680833	-0.556597	-1.298577	0.696364	-0.550226	-1.250106	0.460262	-0.514597	-1.258219	0.460630	-0.407699	-1.319877	0.339998	-0.522999	-1.277292	0.329924	-0.506060	-1.334964	0.295319	-0.514350	-1.297112	0.285642	-0.499658	-1.399071	0.095600	-0.451143	-1.381408	0.106838	-0.364662	-1.293578	0.039396	-0.479489	-1.277979	0.033216	-0.365797	-1.203313	0.047252	-0.422078	-1.468129	0.068366	-0.406027	-1.192233	1.347870	-0.212039	-1.195452	1.340075	-0.516207	
13	0.0600	-1.289818	0.869374	-0.266005	-1.288232	0.893740	-0.480512	-1.463878	0.937134	-0.327007	-1.460215	0.947452	-0.427001	-1.388195	0.688357	-0.197702	-1.336700	0.694969	-0.197234	-1.376940	0.644615	-0.193888	-1.327758	0.647373	-0.195671	-1.329890	0.426170	-0.221010	-1.325036	0.415390	-0.337461	-1.460749	0.437734	-0.212245	-1.448895	0.386621	-0.224022	-1.500761	0.426595	-0.216871	-1.489090	0.381365	-0.230043	-1.726076	0.386053	-0.261601	-1.714995	0.357650	-0.343918	-1.767314	0.268118	-0.215653	-1.763462	0.232436	-0.319350	-1.731624	0.181839	-0.258676	-1.772124	0.434118	-0.318339	-1.334519	0.718260	-0.557640	-1.291958	0.731972	-0.543143	-1.328984	0.679806	-0.556640	-1.284610	0.694368	-0.550523	-1.241483	0.457459	-0.514700	-1.250019	0.457942	-0.407720	-1.313701	0.338650	-0.522834	-1.271367	0.327626	-0.505925	-1.329869	0.294317	-0.514132	-1.292264	0.283796	-0.499412	-1.398886	0.095906	-0.450563	-1.380986	0.106929	-0.364038	-1.293724	0.039330	-0.479427	-1.278113	0.033001	-0.365834	-1.203521	0.047266	-0.422046	-1.468269	0.068467	-0.405613	-1.175764	1.348179	-0.210634	-1.177034	1.339703	-0.515240	
14	0.0650	-1.272003	0.869438	-0.266059	-1.270386	0.893923	-0.480668	-1.446326	0.937137	-0.326776	-1.442274	0.948059	-0.426769	-1.365278	0.688627	-0.198248	-1.313821	0.696873	-0.197886	-1.352383	0.645366	-0.194430	-1.303244	0.649737	-0.196492	-1.297432	0.428776	-0.222246	-1.293223	0.418642	-0.339030	-1.427885	0.437338	-0.212676	-1.415205	0.386533	-0.224945	-1.467775	0.425574	-0.216931	-1.455361	0.380656	-0.230635	-1.692611	0.380739	-0.260620	-1.681536	0.353236	-0.343276	-1.730084	0.261820	-0.215219	-1.726259	0.226867	-0.319218	-1.692391	0.176903	-0.259264	-1.740495	0.427980	-0.316614	-1.319786	0.717425	-0.557590	-1.276903	0.730290	-0.543292	-1.315157	0.678913	-0.556576	-1.270505	0.692432	-0.550640	-1.233187	0.454839	-0.514656	-1.242171	0.455461	-0.407611	-1.307811	0.337513	-0.522611	-1.265734	0.325568	-0.505738	-1.325004	0.293522	-0.513867	-1.287649	0.282188	-0.499141	-1.398650	0.096362	-0.450032	-1.380495	0.107154	-0.363481	-1.293866	0.039239	-0.479324	-1.278275	0.032745	-0.365857	-1.203736	0.047281	-0.421994	-1.468347	0.068766	-0.405239	-1.159139	1.348708	-0.209150	-1.158354	1.339607	-0.514123	
15	0.0700	-1.253977	0.869739	-0.266014	-1.252176	0.894202	-0.480716	-1.428494	0.937357	-0.326633	-1.423974	0.948826	-0.426612	-1.342150	0.689311	-0.198857	-1.290771	0.699210	-0.198624	-1.327619	0.646580	-0.195070	-1.278566	0.652582	-0.197433	-1.264783	0.432031	-0.223660	-1.261292	0.422570	-0.340742	-1.394780	0.437131	-0.213271	-1.381128	0.386738	-0.226024	-1.434472	0.424612	-0.217144	-1.421177	0.380093	-0.231391	-1.658467	0.374694	-0.259794	-1.647359	0.348201	-0.342798	-1.691776	0.254811	-0.215061	-1.687874	0.220714	-0.319384	-1.651869	0.171522	-0.260190	-1.708281	0.420912	-0.314993	-1.304823	0.716723	-0.557433	-1.261656	0.728673	-0.543265	-1.301159	0.678171	-0.556399	-1.256262	0.690576	-0.550571	-1.225212	0.452443	-0.514464	-1.234665	0.453227	-0.407370	-1.302202	0.336626	-0.522329	-1.260384	0.323787	-0.505500	-1.320360	0.292970	-0.513558	-1.283257	0.280856	-0.498849	-1.398340	0.096990	-0.449561	-1.379914	0.107532	-0.363001	-1.293996	0.039119	-0.479178	-1.278460	0.032451	-0.365863	-1.203956	0.047290	-0.421919	-1.468337	0.069300	-0.404913	-1.142368	1.349466	-0.207589	-1.139422	1.339799	-0.512853	
16	0.0750	-1.235745	0.870283	-0.265867	-1.233609	0.894579	-0.480648	-1.410384	0.937798	-0.326575	-1.405320	0.949752	-0.426527	-1.318846	0.690412	-0.199521	-1.267587	0.701974	-0.199441	-1.302692	0.648253	-0.195804	-1.253768	0.655898	-0.198487	-1.232035	0.435921	-0.225238	-1.229327	0.427150	-0.342579	-1.361503	0.437100	-0.214025	-1.346733	0.387237	-0.227251	-1.400913	0.423698	-0.217511	-1.386599	0.379676	-0.232307	-1.623641	0.367924	-0.259145	-1.612467	0.342549	-0.342498	-1.652387	0.247133	-0.215201	-1.648311	0.214024	-0.319864	-1.610078	0.165757	-0.261465	-1.675464	0.412904	-0.313501	-1.289627	0.716166	-0.557164	-1.246219	0.727139	-0.543059	-1.286986	0.677597	-0.556104	-1.241881	0.688820	-0.550309	-1.217544	0.450312	-0.514126	-1.227485	0.451280	-0.406994	-1.296857	0.336027	-0.521991	-1.255299	0.322325	-0.505214	-1.315920	0.292696	-0.513205	-1.279069	0.279837	-0.498540	-1.397930	0.097811	-0.449160	-1.379219	0.108081	-0.362609	-1.294108	0.038969	-0.478987	-1.278658	0.032126	-0.365849	-1.204174	0.047282	-0.421817	-1.468207	0.070105	-0.404646	-1.125461	1.350454	-0.205953	-1.120254	1.340287	-0.511430	
17	0.0800	-1.217310	0.871070	-0.265614	-1.214696	0.895054	-0.480461	-1.392001	0.938460	-0.326594	-1.386322	0.950838	-0.426507	-1.295404	0.691921	-0.200234	-1.244304	0.705146	-0.200328	-1.277654	0.650374	-0.196622	-1.228898	0.659661	-0.199640	-1.199290	0.440417	-0.226962	-1.197419	0.432343	-0.344518	-1.328129	0.437229	-0.214931	-1.312104	0.388021	-0.228613	-1.367161	0.422821	-0.218032	-1.351700	0.379402	-0.233376	-1.588140	0.360447	-0.258691	-1.576868	0.336293	-0.342391	-1.611933	0.238842	-0.215655	-1.607590	0.206856	-0.320673	-1.567055	0.159682	-0.263096	-1.642027	0.403960	-0.312166	-1.274201	0.715770	-0.556782	-1.230595	0.725704	-0.542672	-1.272638	0.677209	-0.555692	-1.227366	0.687186	-0.549855	-1.210164	0.448487	-0.513646	-1.220605	0.449659	-0.406485	-1.291756	0.335754	-0.521599	-1.250455	0.321221	-0.504884	-1.311661	0.292734	-0.512814	-1.275058	0.279167	-0.498219	-1.397393	0.098847	-0.448837	-1.378381	0.108822	-0.362316	-1.294194	0.038790	-0.478751	-1.278858	0.031777	-0.365813	-1.204384	0.047249	-0.421684	-1.467925	0.071219	-0.404445	-1.108434	1.351675	-0.204246	-1.100872	1.341076	-0.509855	
18	0.0850	-1.198682	0.872095	-0.265255	-1.195452	0.895629	-0.480150	-1.373356	0.939341	-0.326683	-1.366995	0.952081	-0.426544	-1.271866	0.693824	-0.200983	-1.220964	0.708701	-0.201272	-1.252558	0.652919	-0.197515	-1.204008	0.663840	-0.200879	-1.166657	0.445474	-0.228814	-1.165666	0.438097	-0.346534	-1.294742	0.437496	-0.215978	-1.277330	0.389077	-0.230099	-1.333290	0.421962	-0.218702	-1.316560	0.379262	-0.234586	-1.551975	0.352292	-0.258451	-1.540581	0.329461	-0.342489	-1.570438	0.230011	-0.216437	-1.565749	0.199286	-0.321821	-1.522855	0.153384	-0.265084	-1.607958	0.394097	-0.311014	-1.258548	0.715549	-0.556289	-1.214792	0.724387	-0.542107	-1.258114	0.677023	-0.555161	-1.212718	0.685696	-0.549208	-1.203043	0.447009	-0.513032	-1.213990	0.448401	-0.405847	-1.286869	0.335843	-0.521156	-1.245819	0.320509	-0.504514	-1.307553	0.293118	-0.512389	-1.271193	0.278878	-0.497892	-1.396699	0.100119	-0.448604	-1.377372	0.109775	-0.362132	-1.294246	0.038583	-0.478470	-1.279049	0.031416	-0.365753	-1.204580	0.047179	-0.421519	-1.467456	0.072681	-0.404321	-1.091299	1.353124	-0.202471	-1.081299	1.342165	-0.508131	
19	0.0900	-1.179868	0.873353	-0.264791	-1.175899	0.896303	-0.479716	-1.354460	0.940433	-0.326830	-1.347356	0.953474	-0.426628	-1.248277	0.696097	-0.201760	-1.197609	0.712603	-0.202259	-1.227462	0.655860	-0.198470	-1.179151	0.668392	-0.202185	-1.134247	0.451038	-0.230771	-1.134163	0.444345	-0.348598	-1.261426	0.437874	-0.217152	-1.242507	0.390383	-0.231690	-1.299375	0.421103	-0.219514	-1.281267	0.379248	-0.235926	-1.515164	0.343502	-0.258438	-1.503630	0.322088	-0.342802	-1.527940	0.220723	-0.217557	-1.522836	0.191398	-0.323314	-1.477551	0.146959	-0.267427	-1.573247	0.383349	-0.310068	-1.242674	0.715514	-0.555686	-1.198818	0.723205	-0.541371	-1.243417	0.677054	-0.554514	-1.197943	0.684372	-0.548376	-1.196145	0.445913	-0.512295	-1.207597	0.447540	-0.405087	-1.282158	0.336326	-0.520670	-1.241353	0.320225	-0.504114	-1.303559	0.293877	-0.511937	-1.267436	0.279001	-0.497568	-1.395818	0.101647	-0.448471	-1.376162	0.110958	-0.362067	-1.294255	0.038355	-0.478147	-1.279215	0.031057	-0.365666	-1.204754	0.047064	-0.421319	-1.466762	0.074527	-0.404284	-1.074071	1.354794	-0.200636	-1.061560	1.343549	-0.506265	
20	0.0950	-1.160879	0.874832	-0.264224	-1.156061	0.897075	-0.479160	-1.335327	0.941726	-0.327022	-1.327428	0.955012	-0.426745	-1.224683	0.698710	-0.202550	-1.174280	0.716810	-0.203273	-1.202422	0.659156	-0.199473	-1.154379	0.673266	-0.203540	-1.102172	0.457042	-0.232806	-1.103010	0.451010	-0.350680	-1.228266	0.438329	-0.218437	-1.207734	0.391916	-0.233368	-1.265494	0.420223	-0.220458	-1.245911	0.379344	-0.237377	-1.477728	0.334128	-0.258665	-1.466046	0.314219	-0.343337	-1.484490	0.211070	-0.219022	-1.478917	0.183289	-0.325152	-1.431231	0.140511	-0.270114	-1.537888	0.371762	-0.309352	-1.226589	0.715679	-0.554978	-1.182681	0.722179	-0.540472	-1.228548	0.677315	-0.553756	-1.183046	0.683238	-0.547367	-1.189427	0.445233	-0.511449	-1.201376	0.447105	-0.404215	-1.277582	0.337232	-0.520145	-1.237012	0.320395	-0.503690	-1.299639	0.295038	-0.511466	-1.263742	0.279561	-0.497255	-1.394716	0.103450	-0.448447	-1.374718	0.112392	-0.362132	-1.294213	0.038111	-0.477783	-1.279338	0.030717	-0.365554	-1.204896	0.046891	-0.421086	-1.465805	0.076793	-0.404341	-1.056767	1.356675	-0.198747	-1.041684	1.345220	-0.504264	
21	0.1000	-1.141726	0.876516	-0.263560	-1.135964	0.897944	-0.478485	-1.315973	0.943207	-0.327246	-1.307237	0.956683	-0.426881	-1.201129	0.701626	-0.203342	-1.151017	0.721272	-0.204299	-1.177496	0.662762	-0.200508	-1.129744	0.678404	-0.204921	-1.070543	0.463407	-0.234894	-1.072300	0.458006	-0.352749	-1.195347	0.438827	-0.219816	-1.173112	0.393642	-0.235113	-1.231723	0.419299	-0.221523	-1.210585	0.379534	-0.238924	-1.439696	0.324233	-0.259140	-1.427864	0.305909	-0.344096	-1.440146	0.201157	-0.220831	-1.434066	0.175061	-0.327334	-1.383996	0.134146	-0.273133	-1.501879	0.359396	-0.308883	-1.210302	0.716052	-0.554172	-1.166393	0.721323	-0.539425	-1.213512	0.677818	-0.552894	-1.168030	0.682312	-0.546194	-1.182841	0.444995	-0.510511	-1.195269	0.447119	-0.403245	-1.273092	0.338586	-0.519591	-1.232744	0.321044	-0.503254	-1.295746	0.296624	-0.510984	-1.260065	0.280580	-0.496963	-1.393362	0.105547	-0.448542	-1.373009	0.114094	-0.362333	-1.294108	0.037865	-0.477384	-1.279402	0.030418	-0.365416	-1.204998	0.046654	-0.420820	-1.464548	0.079512	-0.404501	-1.039399	1.358753	-0.196810	-1.021697	1.347164	-0.502138	
22	0.1050	-1.122420	0.878387	-0.262804	-1.115640	0.898908	-0.477698	-1.296416	0.944858	-0.327485	-1.286810	0.958477	-0.427021	-1.177657	0.704799	-0.204121	-1.127858	0.725931	-0.205317	-1.152737	0.666623	-0.201558	-1.105292	0.683739	-0.206306	-1.039463	0.470047	-0.237007	-1.042122	0.465236	-0.354775	-1.162751	0.439327	-0.221270	-1.138741	0.395527	-0.236903	-1.198141	0.418307	-0.222694	-1.175383	0.379797	-0.240546	-1.401101	0.313885	-0.259871	-1.389124	0.297220	-0.345080	-1.394979	0.191090	-0.222982	-1.388370	0.166820	-0.329848	-1.335958	0.127975	-0.276465	-1.465223	0.346321	-0.308678	-1.193825	0.716643	-0.553274	-1.149965	0.720655	-0.538242	-1.198313	0.678570	-0.551936	-1.152901	0.681615	-0.544873	-1.176332	0.445221	-0.509498	-1.189213	0.447598	-0.402190	-1.268632	0.340406	-0.519016	-1.228494	0.322189	-0.502817	-1.291830	0.298651	-0.510501	-1.256352	0.282073	-0.496700	-1.391723	0.107955	-0.448763	-1.371004	0.116082	-0.362680	-1.293932	0.037632	-0.476954	-1.279386	0.030184	-0.365255	-1.205049	0.046344	-0.420525	-1.462952	0.082714	-0.404772	-1.021982	1.361011	-0.194836	-1.001630	1.349363	-0.499897	
23	0.1100	-1.102971	0.880424	-0.261964	-1.095119	0.899965	-0.476806	-1.276675	0.946660	-0.327724	-1.266175	0.960381	-0.427148	-1.154309	0.708181	-0.204875	-1.104838	0.730726	-0.206309	-1.128196	0.670681	-0.202606	-1.081070	0.689200	-0.207671	-1.009029	0.476870	-0.239117	-1.012556	0.472602	-0.356727	-1.130554	0.439789	-0.222779	-1.104715	0.397529	-0.238718	-1.164818	0.417222	-0.223956	-1.140395	0.380111	-0.242223	-1.361978	0.303161	-0.260856	-1.349873	0.288219	-0.346286	-1.349065	0.180979	-0.225466	-1.341924	0.158675	-0.332684	-1.287238	0.122106	-0.280088	-1.427927	0.332620	-0.308750	-1.177170	0.717457	-0.552294	-1.133407	0.720189	-0.536944	-1.182955	0.679578	-0.550892	-1.137662	0.681162	-0.543423	-1.169840	0.445925	-0.508431	-1.183140	0.448551	-0.401069	-1.264146	0.342702	-0.518430	-1.224203	0.323839	-0.502390	-1.287836	0.301133	-0.510027	-1.252548	0.284048	-0.496476	-1.389769	0.110689	-0.449119	-1.368673	0.118370	-0.363178	-1.293675	0.037430	-0.476502	-1.279269	0.030041	-0.365074	-1.205039	0.045957	-0.420207	-1.460981	0.086424	-0.405159	-1.004528	1.363429	-0.192830	-0.981510	1.351796	-0.497554	
24	0.1150	-1.083392	0.882600	-0.261050	-1.074432	0.901111	-0.475818	-1.256767	0.948589	-0.327946	-1.245363	0.962379	-0.427244	-1.131123	0.711719	-0.205590	-1.081987	0.735592	-0.207256	-1.103919	0.674872	-0.203633	-1.057115	0.694713	-0.208993	-0.979327	0.483776	-0.241198	-0.983674	0.479998	-0.358578	-1.098826	0.440171	-0.224324	-1.071124	0.399606	-0.240535	-1.131823	0.416020	-0.225293	-1.105707	0.380453	-0.243933	-1.322370	0.292143	-0.262096	-1.310159	0.278979	-0.347708	-1.302491	0.170935	-0.228270	-1.294833	0.150735	-0.335821	-1.237966	0.116643	-0.283972	-1.390004	0.318384	-0.309106	-1.160352	0.718497	-0.551243	-1.116731	0.719935	-0.535550	-1.167443	0.680844	-0.549773	-1.122317	0.680966	-0.541866	-1.163303	0.447111	-0.507332	-1.176977	0.449976	-0.399900	-1.259571	0.345481	-0.517844	-1.219810	0.325998	-0.501986	-1.283709	0.304073	-0.509573	-1.248598	0.286507	-0.496302	-1.387471	0.113762	-0.449613	-1.365985	0.120973	-0.363830	-1.293327	0.037283	-0.476036	-1.279030	0.030021	-0.364880	-1.204959	0.045491	-0.419874	-1.458602	0.090666	-0.405666	-0.987048	1.365984	-0.190802	-0.961364	1.354439	-0.495122	
25	0.1200	-1.063694	0.884891	-0.260072	-1.053612	0.902344	-0.474747	-1.236713	0.950623	-0.328134	-1.224403	0.964458	-0.427293	-1.108131	0.715356	-0.206253	-1.059333	0.740460	-0.208141	-1.079947	0.679130	-0.204622	-1.033461	0.700199	-0.210248	-0.950431	0.490668	-0.243225	-0.955536	0.487322	-0.360302	-1.067628	0.440430	-0.225885	-1.038052	0.401713	-0.242334	-1.099218	0.414676	-0.226687	-1.071400	0.380795	-0.245656	-1.282324	0.280915	-0.263582	-1.270036	0.269577	-0.349334	-1.255352	0.161065	-0.231375	-1.247208	0.143101	-0.339238	-1.188279	0.111682	-0.288087	-1.351475	0.303713	-0.309750	-1.143382	0.719761	-0.550132	-1.099945	0.719901	-0.534082	-1.151780	0.682365	-0.548594	-1.106868	0.681036	-0.540225	-1.156656	0.448776	-0.506223	-1.170650	0.451865	-0.398705	-1.254844	0.348738	-0.517268	-1.215251	0.328658	-0.501618	-1.279390	0.307470	-0.509148	-1.244444	0.289444	-0.496185	-1.384801	0.117185	-0.450249	-1.362917	0.123902	-0.364640	-1.292879	0.037219	-0.475568	-1.278648	0.030154	-0.364680	-1.204799	0.044948	-0.419538	-1.455782	0.095454	-0.406297	-0.969550	1.368652	-0.188761	-0.941218	1.357265	-0.492616	
26	0.1250	-1.043887	0.887267	-0.259041	-1.032690	0.903658	-0.473605	-1.216531	0.952733	-0.328272	-1.203326	0.966598	-0.427277	-1.085362	0.719032	-0.206851	-1.036896	0.745263	-0.208944	-1.056312	0.683387	-0.205555	-1.010135	0.705582	-0.211413	-0.922401	0.497445	-0.245172	-0.928188	0.494471	-0.361877	-1.037014	0.440525	-0.227443	-1.005571	0.403803	-0.244095	-1.067058	0.413169	-0.228122	-1.037549	0.381113	-0.247370	-1.241892	0.269564	-0.265306	-1.229565	0.260091	-0.351153	-1.207749	0.151473	-0.234760	-1.199168	0.135872	-0.342908	-1.138315	0.107308	-0.292397	-1.312369	0.288712	-0.310682	-1.126275	0.721245	-0.548974	-1.083060	0.720093	-0.532562	-1.135970	0.684134	-0.547368	-1.091314	0.681376	-0.538525	-1.149832	0.450905	-0.505127	-1.164083	0.454197	-0.397504	-1.249899	0.352463	-0.516712	-1.210463	0.331807	-0.501297	-1.274822	0.311317	-0.508763	-1.240030	0.292847	-0.496135	-1.381737	0.120968	-0.451030	-1.359443	0.127166	-0.365607	-1.292321	0.037269	-0.475109	-1.278101	0.030474	-0.364484	-1.204548	0.044335	-0.419212	-1.452494	0.100801	-0.407051	-0.952041	1.371406	-0.186712	-0.921096	1.360242	-0.490048	
27	0.1300	-1.023982	0.889698	-0.257970	-1.011697	0.905048	-0.472405	-1.196241	0.954893	-0.328346	-1.182160	0.968782	-0.427183	-1.062840	0.722687	-0.207375	-1.014694	0.749932	-0.209650	-1.033041	0.687575	-0.206416	-0.987158	0.710784	-0.212466	-0.895284	0.504009	-0.247019	-0.901665	0.501347	-0.363283	-1.007028	0.440417	-0.228983	-0.973747	0.405830	-0.245798	-1.035393	0.411479	-0.229581	-1.004221	0.381379	-0.249056	-1.201133	0.258178	-0.267254	-1.188809	0.250597	-0.353149	-1.159791	0.142252	-0.238397	-1.150837	0.129133	-0.346798	-1.088221	0.103595	-0.296863	-1.272725	0.273489	-0.311898	-1.109041	0.722941	-0.547782	-1.066081	0.720509	-0.531016	-1.120016	0.686140	-0.546109	-1.075655	0.681984	-0.536792	-1.142763	0.453477	-0.504065	-1.157202	0.456941	-0.396321	-1.244672	0.356636	-0.516187	-1.205384	0.335419	-0.501037	-1.269947	0.315597	-0.508427	-1.235301	0.296694	-0.496158	-1.378257	0.125118	-0.451954	-1.355545	0.130772	-0.366729	-1.291644	0.037471	-0.474675	-1.277369	0.031017	-0.364303	-1.204198	0.043665	-0.418912	-1.448711	0.106712	-0.407926	-0.934529	1.374216	-0.184664	-0.901021	1.363340	-0.487435	
28	0.1350	-1.003989	0.892154	-0.256869	-0.990661	0.906506	-0.471162	-1.175860	0.957072	-0.328342	-1.160934	0.970990	-0.426996	-1.040583	0.726264	-0.207812	-0.992738	0.754400	-0.210243	-1.010157	0.691628	-0.207190	-0.964545	0.715734	-0.213389	-0.869110	0.510269	-0.248747	-0.875988	0.507858	-0.364507	-0.977704	0.440072	-0.230489	-0.942632	0.407748	-0.247428	-1.004265	0.409587	-0.231048	-0.971474	0.381567	-0.250696	-1.160114	0.246841	-0.269409	-1.147837	0.241171	-0.355304	-1.111595	0.133487	-0.242256	-1.102344	0.122961	-0.350876	-1.038141	0.100601	-0.301447	-1.232592	0.258157	-0.313387	-1.091693	0.724835	-0.546570	-1.049015	0.721147	-0.529465	-1.103920	0.688367	-0.544834	-1.059888	0.682855	-0.535052	-1.135383	0.456456	-0.503059	-1.149932	0.460059	-0.395175	-1.239099	0.361231	-0.515705	-1.199954	0.339466	-0.500847	-1.264709	0.320288	-0.508150	-1.230203	0.300958	-0.496261	-1.374345	0.129640	-0.453019	-1.351207	0.134723	-0.368003	-1.290837	0.037864	-0.474280	-1.276431	0.031817	-0.364152	-1.203740	0.042954	-0.418659	-1.444415	0.113186	-0.408918	-0.917015	1.377054	-0.182624	-0.881012	1.366525	-0.484789	
29	0.1400	-0.983920	0.894604	-0.255752	-0.969609	0.908024	-0.469889	-1.155407	0.959242	-0.328250	-1.139675	0.973202	-0.426706	-1.018605	0.729705	-0.208156	-0.971036	0.758606	-0.210709	-0.987671	0.695482	-0.207862	-0.942303	0.720362	-0.214163	-0.843894	0.516139	-0.250341	-0.851164	0.513921	-0.365538	-0.949069	0.439458	-0.231948	-0.912270	0.409516	-0.248970	-0.973707	0.407481	-0.232509	-0.939358	0.381653	-0.252272	-1.118907	0.235635	-0.271753	-1.106726	0.231886	-0.357598	-1.063285	0.125251	-0.246303	-1.053824	0.117415	-0.355104	-0.988224	0.098364	-0.306104	-1.192031	0.242828	-0.315140	-1.074239	0.726911	-0.545350	-1.031865	0.721995	-0.527933	-1.087684	0.690792	-0.543556	-1.044008	0.683974	-0.533330	-1.127627	0.459800	-0.502129	-1.142203	0.463501	-0.394090	-1.233117	0.366211	-0.515273	-1.194115	0.343906	-0.500739	-1.259054	0.325360	-0.507939	-1.224688	0.305603	-0.496449	-1.369987	0.134537	-0.454220	-1.346416	0.139019	-0.369421	-1.289890	0.038491	-0.473941	-1.275268	0.032911	-0.364048	-1.203165	0.042227	-0.418476	-1.439588	0.120217	-0.410020	-0.899503	1.379887	-0.180596	-0.861088	1.369762	-0.482127	
30	0.1450	-0.963784	0.897018	-0.254630	-0.948565	0.909591	-0.468602	-1.134900	0.961374	-0.328060	-1.118409	0.975398	-0.426302	-0.996916	0.732954	-0.208398	-0.949591	0.762491	-0.211036	-0.965591	0.699077	-0.208422	-0.920435	0.724605	-0.214774	-0.819636	0.521540	-0.251789	-0.827187	0.519462	-0.366369	-0.921138	0.438550	-0.233352	-0.882694	0.411092	-0.250413	-0.943747	0.405150	-0.233950	-0.907916	0.381614	-0.253772	-1.077596	0.224638	-0.274262	-1.065558	0.222811	-0.360009	-1.014992	0.117604	-0.250502	-1.005413	0.112541	-0.359443	-0.938618	0.096907	-0.310792	-1.151118	0.227613	-0.317139	-1.056689	0.729145	-0.544136	-1.014634	0.723040	-0.526442	-1.071306	0.693390	-0.542290	-1.028010	0.685324	-0.531652	-1.119432	0.463457	-0.501294	-1.133947	0.467209	-0.393086	-1.226667	0.371534	-0.514903	-1.187813	0.348693	-0.500722	-1.252930	0.330780	-0.507802	-1.218708	0.310589	-0.496726	-1.365174	0.139810	-0.455549	-1.341164	0.143660	-0.370975	-1.288791	0.039400	-0.473679	-1.273862	0.034331	-0.364008	-1.202465	0.041512	-0.418386	-1.434218	0.127792	-0.411222	-0.881994	1.382684	-0.178585	-0.841266	1.373017	-0.479460	
31	0.1500	-0.943592	0.899365	-0.253513	-0.927551	0.911196	-0.467314	-1.114357	0.963437	-0.327766	-1.097158	0.977556	-0.425780	-0.975519	0.735962	-0.208533	-0.928403	0.766004	-0.211216	-0.943918	0.702358	-0.208858	-0.898938	0.728407	-0.215210	-0.796322	0.526406	-0.253080	-0.804040	0.524421	-0.367000	-0.893919	0.437328	-0.234691	-0.853925	0.412441	-0.251748	-0.914409	0.402590	-0.235361	-0.877180	0.381428	-0.255183	-1.036271	0.213920	-0.276914	-1.024421	0.214006	-0.362518	-0.966855	0.110589	-0.254813	-0.957255	0.108367	-0.363852	-0.889472	0.096232	-0.315467	-1.109941	0.212620	-0.319367	-1.039048	0.731512	-0.542939	-0.997322	0.724263	-0.525012	-1.054785	0.696129	-0.541051	-1.011885	0.686880	-0.530041	-1.110739	0.467366	-0.500571	-1.125103	0.471117	-0.392183	-1.219692	0.377153	-0.514602	-1.180999	0.353774	-0.500804	-1.246290	0.336505	-0.507745	-1.212221	0.315870	-0.497094	-1.359897	0.145458	-0.456996	-1.335446	0.148638	-0.372655	-1.287528	0.040637	-0.473513	-1.272197	0.036110	-0.364054	-1.201631	0.040845	-0.418419	-1.428295	0.135892	-0.412513	-0.864490	1.385414	-0.176596	-0.821560	1.376255	-0.476802	
32	0.1550	-0.923355	0.901619	-0.252413	-0.906588	0.912824	-0.466036	-1.093792	0.965404	-0.327365	-1.075946	0.979653	-0.425136	-0.954415	0.738682	-0.208557	-0.907467	0.769100	-0.211241	-0.922647	0.705278	-0.209163	-0.877804	0.731723	-0.215462	-0.773924	0.530681	-0.254211	-0.781692	0.528749	-0.367432	-0.867412	0.435781	-0.235961	-0.825974	0.413532	-0.252968	-0.885706	0.399797	-0.236734	-0.847177	0.381076	-0.256498	-0.995031	0.203548	-0.279685	-0.983411	0.205527	-0.365100	-0.919019	0.104236	-0.259198	-0.909493	0.104903	-0.368292	-0.840933	0.096319	-0.320086	-1.068601	0.197952	-0.321805	-1.021321	0.733981	-0.541772	-0.979925	0.725639	-0.523660	-1.038119	0.698971	-0.539851	-0.995623	0.688613	-0.528517	-1.101494	0.471459	-0.499974	-1.115614	0.475151	-0.391398	-1.212141	0.383012	-0.514378	-1.173627	0.359090	-0.500992	-1.239090	0.342489	-0.507773	-1.205190	0.321392	-0.497555	-1.354154	0.151478	-0.458550	-1.329261	0.153946	-0.374449	-1.286085	0.042252	-0.473463	-1.270257	0.038278	-0.364207	-1.200655	0.040267	-0.418604	-1.421814	0.144493	-0.413879	-0.846989	1.388044	-0.174630	-0.801983	1.379442	-0.474165	
33	0.1600	-0.903083	0.903751	-0.251338	-0.885692	0.914460	-0.464782	-1.073224	0.967248	-0.326854	-1.054792	0.981668	-0.424369	-0.933601	0.741075	-0.208469	-0.886779	0.771741	-0.211106	-0.901768	0.707796	-0.209333	-0.857022	0.734512	-0.215523	-0.752400	0.534322	-0.255178	-0.760104	0.532409	-0.367671	-0.841610	0.433900	-0.237161	-0.798843	0.414338	-0.254069	-0.857651	0.396776	-0.238062	-0.817924	0.380544	-0.257708	-0.953985	0.193576	-0.282549	-0.942632	0.197420	-0.367735	-0.871634	0.098558	-0.263617	-0.862275	0.102140	-0.372720	-0.793146	0.097129	-0.324609	-1.027215	0.183707	-0.324430	-1.003511	0.736515	-0.540644	-0.962442	0.727140	-0.522403	-1.021304	0.701877	-0.538703	-0.979215	0.690485	-0.527098	-1.091645	0.475664	-0.499517	-1.105430	0.479234	-0.390749	-1.203965	0.389052	-0.514238	-1.165658	0.364577	-0.501289	-1.231288	0.348682	-0.507890	-1.197580	0.327102	-0.498108	-1.347939	0.157865	-0.460198	-1.322607	0.159571	-0.376344	-1.284445	0.044296	-0.473551	-1.268026	0.040860	-0.364492	-1.199527	0.039825	-0.418972	-1.414772	0.153567	-0.415302	-0.829492	1.390543	-0.172689	-0.782545	1.382544	-0.471560	
34	0.1650	-0.882789	0.905737	-0.250294	-0.864876	0.916086	-0.463559	-1.052667	0.968942	-0.326236	-1.033713	0.983577	-0.423485	-0.913070	0.743107	-0.208267	-0.866328	0.773899	-0.210811	-0.881266	0.709879	-0.209365	-0.836576	0.736748	-0.215392	-0.731699	0.537298	-0.255983	-0.739227	0.535381	-0.367729	-0.816500	0.431687	-0.238291	-0.772526	0.414837	-0.255051	-0.830250	0.393535	-0.239341	-0.789433	0.379819	-0.258813	-0.913251	0.184053	-0.285482	-0.902191	0.189722	-0.370401	-0.824856	0.093552	-0.268029	-0.815750	0.100051	-0.377099	-0.746256	0.098604	-0.328997	-0.985913	0.169975	-0.327221	-0.985616	0.739078	-0.539565	-0.944864	0.728733	-0.521252	-1.004332	0.704803	-0.537617	-0.962646	0.692459	-0.525800	-1.081146	0.479900	-0.499208	-1.094507	0.483284	-0.390249	-1.195121	0.395211	-0.514188	-1.157056	0.370167	-0.501701	-1.222848	0.355030	-0.508098	-1.189363	0.332942	-0.498753	-1.341252	0.164611	-0.461925	-1.315488	0.165499	-0.378324	-1.282587	0.046816	-0.473799	-1.265489	0.043881	-0.364932	-1.198233	0.039569	-0.419556	-1.407165	0.163080	-0.416767	-0.811996	1.392879	-0.170773	-0.763257	1.385531	-0.468997	
35	0.1700	-0.862485	0.907556	-0.249287	-0.844152	0.917682	-0.462375	-1.032135	0.970463	-0.325515	-1.012725	0.985358	-0.422488	-0.892813	0.744752	-0.207954	-0.846105	0.775552	-0.210355	-0.861124	0.711502	-0.209258	-0.816447	0.738412	-0.215070	-0.711759	0.539592	-0.256629	-0.719003	0.537657	-0.367616	-0.792063	0.429150	-0.239352	-0.747008	0.415015	-0.255917	-0.803505	0.390085	-0.240569	-0.761708	0.378890	-0.259810	-0.872952	0.175017	-0.288459	-0.862203	0.182462	-0.373080	-0.778845	0.089201	-0.272395	-0.770065	0.098592	-0.381391	-0.700400	0.100666	-0.333213	-0.944835	0.156835	-0.330153	-0.967635	0.741628	-0.538543	-0.927184	0.730381	-0.520217	-0.987197	0.707701	-0.536603	-0.945902	0.694489	-0.524636	-1.069957	0.484089	-0.499057	-1.082809	0.487217	-0.389911	-1.185569	0.401424	-0.514234	-1.147790	0.375792	-0.502230	-1.213738	0.361479	-0.508401	-1.180513	0.338852	-0.499489	-1.334090	0.171708	-0.463714	-1.307905	0.171712	-0.380375	-1.280485	0.049859	-0.474228	-1.262631	0.047356	-0.365553	-1.196761	0.039552	-0.420389	-1.398994	0.172994	-0.418252	-0.794501	1.395024	-0.168883	-0.744125	1.388372	-0.466483	
36	0.1750	-0.842180	0.909186	-0.248321	-0.823527	0.919228	-0.461237	-1.011643	0.971790	-0.324698	-0.991842	0.986987	-0.421389	-0.872818	0.745989	-0.207531	-0.826098	0.776691	-0.209741	-0.841318	0.712648	-0.209014	-0.796616	0.739495	-0.214561	-0.692510	0.541199	-0.257122	-0.699371	0.539241	-0.367348	-0.768279	0.426303	-0.240350	-0.722266	0.414862	-0.256669	-0.777416	0.386444	-0.241747	-0.734750	0.377752	-0.260704	-0.833220	0.166497	-0.291457	-0.822790	0.175659	-0.375754	-0.733763	0.085472	-0.276679	-0.725369	0.097704	-0.385561	-0.655715	0.103223	-0.337226	-0.904135	0.144360	-0.333206	-0.949562	0.744121	-0.537583	-0.909391	0.732047	-0.519304	-0.969890	0.710523	-0.535666	-0.928969	0.696530	-0.523612	-1.058042	0.488147	-0.499069	-1.070305	0.490950	-0.389745	-1.175276	0.407624	-0.514378	-1.137832	0.381382	-0.502876	-1.203927	0.367970	-0.508798	-1.171006	0.344773	-0.500311	-1.326447	0.179144	-0.465549	-1.299858	0.178190	-0.382481	-1.278109	0.053466	-0.474859	-1.259435	0.051298	-0.366381	-1.195090	0.039831	-0.421503	-1.390254	0.183267	-0.419740	-0.777005	1.396948	-0.167017	-0.725155	1.391039	-0.464026	
37	0.1800	-0.821889	0.910610	-0.247397	-0.803008	0.920701	-0.460148	-0.991203	0.972902	-0.323794	-0.971074	0.988443	-0.420198	-0.853071	0.746807	-0.207004	-0.806295	0.777312	-0.208975	-0.821826	0.713310	-0.208638	-0.777059	0.740000	-0.213872	-0.673877	0.542126	-0.257469	-0.680262	0.540151	-0.366941	-0.745119	0.423165	-0.241290	-0.698274	0.414373	-0.257314	-0.751979	0.382629	-0.242875	-0.708553	0.376402	-0.261499	-0.794190	0.158512	-0.294455	-0.784073	0.169321	-0.378408	-0.689773	0.082321	-0.280846	-0.681807	0.097311	-0.389579	-0.612331	0.106167	-0.341008	-0.863972	0.132610	-0.336356	-0.931388	0.746512	-0.536691	-0.891473	0.733688	-0.518516	-0.952398	0.713218	-0.534814	-0.911829	0.698532	-0.522736	-1.045368	0.491993	-0.499246	-1.056973	0.494401	-0.389756	-1.164210	0.413746	-0.514625	-1.127161	0.386869	-0.503639	-1.193389	0.374448	-0.509289	-1.160824	0.350645	-0.501218	-1.318317	0.186907	-0.467412	-1.291346	0.184910	-0.384626	-1.275424	0.057677	-0.475713	-1.255882	0.055715	-0.367439	-1.193198	0.040462	-0.422931	-1.380942	0.193855	-0.421208	-0.759506	1.398625	-0.165172	-0.706349	1.393507	-0.461631	
38	0.1850	-0.801621	0.911814	-0.246514	-0.782597	0.922079	-0.459107	-0.970827	0.973784	-0.322813	-0.950429	0.989704	-0.418931	-0.833558	0.747199	-0.206379	-0.786683	0.777420	-0.208065	-0.802621	0.713488	-0.208137	-0.757754	0.739936	-0.213013	-0.655780	0.542394	-0.257681	-0.661606	0.540416	-0.366414	-0.722556	0.419762	-0.242179	-0.674999	0.413550	-0.257860	-0.727190	0.378665	-0.243958	-0.683107	0.374838	-0.262201	-0.756004	0.151072	-0.297433	-0.746179	0.163449	-0.381029	-0.647036	0.079692	-0.284865	-0.639521	0.097327	-0.393417	-0.570370	0.109380	-0.344538	-0.824513	0.121634	-0.339583	-0.913102	0.748757	-0.535870	-0.873416	0.735264	-0.517852	-0.934709	0.715737	-0.534051	-0.894463	0.700447	-0.522007	-1.031910	0.495548	-0.499589	-1.042794	0.497493	-0.389951	-1.152345	0.419725	-0.514976	-1.115755	0.392185	-0.504516	-1.182099	0.380854	-0.509874	-1.149947	0.356413	-0.502205	-1.309689	0.194979	-0.469288	-1.282365	0.191847	-0.386797	-1.272387	0.062523	-0.476806	-1.251949	0.060605	-0.368751	-1.191056	0.041500	-0.424700	-1.371051	0.204713	-0.422637	-0.742001	1.400031	-0.163345	-0.687710	1.395752	-0.459302	
39	0.1900	-0.781387	0.912787	-0.245669	-0.762293	0.923339	-0.458115	-0.950524	0.974421	-0.321768	-0.929914	0.990749	-0.417602	-0.814260	0.747167	-0.205661	-0.767246	0.777029	-0.207019	-0.783675	0.713191	-0.207519	-0.738675	0.739325	-0.211998	-0.638136	0.542032	-0.257768	-0.643332	0.540073	-0.365784	-0.700561	0.416124	-0.243023	-0.652404	0.412398	-0.258318	-0.703040	0.374576	-0.245000	-0.658400	0.373064	-0.262820	-0.718799	0.144180	-0.300374	-0.709235	0.158036	-0.383606	-0.605709	0.077520	-0.288709	-0.598649	0.097656	-0.397053	-0.529948	0.112734	-0.347797	-0.785930	0.111470	-0.342866	-0.894692	0.750812	-0.535120	-0.855203	0.736733	-0.517307	-0.916807	0.718031	-0.533377	-0.876852	0.702226	-0.521425	-1.017644	0.498740	-0.500097	-1.027757	0.500152	-0.390329	-1.139656	0.425500	-0.515433	-1.103595	0.397267	-0.505504	-1.170034	0.387137	-0.510550	-1.138359	0.362022	-0.503269	-1.300546	0.203342	-0.471159	-1.272904	0.198974	-0.388978	-1.268948	0.068027	-0.478155	-1.247610	0.065965	-0.370340	-1.188628	0.042997	-0.426837	-1.360569	0.215789	-0.424008	-0.724486	1.401144	-0.161533	-0.669234	1.397755	-0.457042	
40	0.1950	-0.761198	0.913518	-0.244859	-0.742093	0.924457	-0.457168	-0.930303	0.974804	-0.320673	-0.909531	0.991558	-0.416230	-0.795160	0.746721	-0.204858	-0.747972	0.776160	-0.205850	-0.764958	0.712433	-0.206794	-0.719797	0.738194	-0.210840	-0.620863	0.541079	-0.257741	-0.625369	0.539171	-0.365069	-0.679102	0.412285	-0.243830	-0.630452	0.410928	-0.258696	-0.679521	0.370390	-0.246005	-0.634417	0.371084	-0.263367	-0.682717	0.137828	-0.303263	-0.673365	0.153063	-0.386133	-0.565944	0.075735	-0.292353	-0.559319	0.098195	-0.400469	-0.491172	0.116100	-0.350776	-0.748393	0.102145	-0.346188	-0.876140	0.752633	-0.534442	-0.836816	0.738054	-0.516876	-0.898676	0.720053	-0.532794	-0.858975	0.703821	-0.520982	-1.002551	0.501499	-0.500765	-1.011855	0.502316	-0.390889	-1.126120	0.431013	-0.515994	-1.090665	0.402058	-0.506599	-1.157173	0.393243	-0.511314	-1.126041	0.367421	-0.504404	-1.290865	0.211974	-0.473009	-1.262949	0.206261	-0.391156	-1.265051	0.074205	-0.479773	-1.242834	0.071781	-0.372224	-1.185869	0.045001	-0.429365	-1.349480	0.227036	-0.425303	-0.706958	1.401945	-0.159731	-0.650919	1.399499	-0.454852	
41	0.2000	-0.741062	0.914003	-0.244076	-0.721992	0.925410	-0.456260	-0.910169	0.974923	-0.319542	-0.889281	0.992115	-0.414832	-0.776239	0.745873	-0.203980	-0.728845	0.774839	-0.204570	-0.746442	0.711237	-0.205974	-0.701096	0.736577	-0.209558	-0.603878	0.539580	-0.257612	-0.607645	0.537762	-0.364287	-0.658149	0.408281	-0.244606	-0.609102	0.409153	-0.259008	-0.656625	0.366135	-0.246980	-0.611140	0.368906	-0.263854	-0.647892	0.132001	-0.306088	-0.638693	0.148510	-0.388605	-0.527882	0.074259	-0.295780	-0.521652	0.098839	-0.403653	-0.454138	0.119344	-0.353469	-0.712070	0.093672	-0.349532	-0.857427	0.754182	-0.533834	-0.818236	0.739189	-0.516548	-0.880296	0.721762	-0.532299	-0.840811	0.705190	-0.520672	-0.986613	0.503767	-0.501587	-0.995083	0.503928	-0.391626	-1.111719	0.436212	-0.516659	-1.076948	0.406504	-0.507793	-1.143493	0.399125	-0.512164	-1.112975	0.372567	-0.505605	-1.280617	0.220852	-0.474825	-1.252476	0.213676	-0.393319	-1.260630	0.081064	-0.481670	-1.237582	0.078035	-0.374420	-1.182729	0.047551	-0.432302	-1.337762	0.238401	-0.426505	-0.689410	1.402420	-0.157935	-0.632757	1.400969	-0.452731	
42	0.2050	-0.720987	0.914238	-0.243312	-0.701981	0.926178	-0.455385	-0.890127	0.974776	-0.318387	-0.869160	0.992403	-0.413427	-0.757477	0.744643	-0.203035	-0.709849	0.773100	-0.203193	-0.728095	0.709630	-0.205070	-0.682546	0.734515	-0.208168	-0.587102	0.537588	-0.257393	-0.590094	0.535904	-0.363453	-0.637670	0.404151	-0.245357	-0.588313	0.407091	-0.259265	-0.634339	0.361839	-0.247930	-0.588549	0.366538	-0.264291	-0.614453	0.126681	-0.308840	-0.605334	0.144347	-0.391019	-0.491656	0.073017	-0.298975	-0.485759	0.099483	-0.406599	-0.418932	0.122340	-0.355877	-0.677122	0.086056	-0.352882	-0.838532	0.755422	-0.533292	-0.799441	0.740105	-0.516311	-0.861645	0.723118	-0.531890	-0.822336	0.706294	-0.520482	-0.969815	0.505494	-0.502554	-0.977443	0.504944	-0.392532	-1.096431	0.441048	-0.517425	-1.062425	0.410560	-0.509079	-1.128972	0.404738	-0.513093	-1.099142	0.377417	-0.506868	-1.269765	0.229946	-0.476593	-1.241457	0.221187	-0.395458	-1.255613	0.088597	-0.483852	-1.231810	0.084701	-0.376939	-1.179143	0.050681	-0.435660	-1.325385	0.249833	-0.427601	-0.671836	1.402557	-0.156139	-0.614738	1.402156	-0.450678	
43	0.2100	-0.700977	0.914222	-0.242558	-0.682049	0.926740	-0.454531	-0.870178	0.974361	-0.317224	-0.849163	0.992411	-0.412031	-0.738853	0.743057	-0.202033	-0.690970	0.770978	-0.201733	-0.709889	0.707646	-0.204096	-0.664122	0.732052	-0.206690	-0.570461	0.535159	-0.257096	-0.572654	0.533657	-0.362582	-0.617637	0.399932	-0.246089	-0.568044	0.404763	-0.259478	-0.612655	0.357532	-0.248859	-0.566624	0.363993	-0.264693	-0.582519	0.121842	-0.311511	-0.573397	0.140543	-0.393374	-0.457381	0.071932	-0.301928	-0.451737	0.100022	-0.409303	-0.385626	0.124966	-0.358006	-0.643702	0.079289	-0.356225	-0.819431	0.756323	-0.532810	-0.780409	0.740770	-0.516149	-0.842703	0.724091	-0.531562	-0.803526	0.707097	-0.520398	-0.952146	0.506639	-0.503654	-0.958934	0.505330	-0.393595	-1.080239	0.445483	-0.518287	-1.047077	0.414188	-0.510449	-1.113587	0.410045	-0.514098	-1.084517	0.381938	-0.508185	-1.258264	0.239225	-0.478302	-1.229854	0.228760	-0.397562	-1.249920	0.096788	-0.486321	-1.225465	0.091747	-0.379790	-1.175041	0.054413	-0.439444	-1.312316	0.261279	-0.428579	-0.654227	1.402349	-0.154339	-0.596848	1.403052	-0.448690	
44	0.2150	-0.681036	0.913959	-0.241802	-0.662183	0.927079	-0.453691	-0.850320	0.973681	-0.316065	-0.829282	0.992130	-0.410661	-0.720346	0.741143	-0.200983	-0.672192	0.768515	-0.200204	-0.691794	0.705321	-0.203065	-0.645799	0.729237	-0.205142	-0.553886	0.532351	-0.256731	-0.555267	0.531084	-0.361688	-0.598021	0.395665	-0.246804	-0.548258	0.402190	-0.259658	-0.591559	0.353241	-0.249772	-0.545345	0.361281	-0.265071	-0.552199	0.117454	-0.314097	-0.542982	0.137062	-0.395674	-0.425160	0.070931	-0.304635	-0.419670	0.100363	-0.411770	-0.354281	0.127110	-0.359869	-0.611947	0.073354	-0.359548	-0.800098	0.756861	-0.532384	-0.761115	0.741161	-0.516046	-0.823442	0.724654	-0.531307	-0.784356	0.707574	-0.520404	-0.933591	0.507175	-0.504874	-0.939562	0.505068	-0.394800	-1.063124	0.449482	-0.519238	-1.030883	0.417358	-0.511889	-1.097313	0.415011	-0.515171	-1.069075	0.386103	-0.509551	-1.246062	0.248654	-0.479944	-1.217622	0.236359	-0.399625	-1.243462	0.105609	-0.489076	-1.218486	0.099136	-0.382976	-1.170340	0.058758	-0.443654	-1.298514	0.272688	-0.429432	-0.636571	1.401792	-0.152528	-0.579071	1.403655	-0.446762	
45	0.2200	-0.661164	0.913453	-0.241033	-0.642367	0.927182	-0.452851	-0.830549	0.972742	-0.314922	-0.809504	0.991552	-0.409334	-0.701935	0.738933	-0.199893	-0.653497	0.765753	-0.198622	-0.673781	0.702695	-0.201989	-0.627554	0.726118	-0.203545	-0.537317	0.529223	-0.256309	-0.537884	0.528244	-0.360782	-0.578797	0.391387	-0.247503	-0.528916	0.399396	-0.259817	-0.571041	0.348994	-0.250672	-0.524690	0.358417	-0.265438	-0.523586	0.113487	-0.316594	-0.514176	0.133869	-0.397921	-0.395074	0.069947	-0.307095	-0.389627	0.100418	-0.414006	-0.324939	0.128677	-0.361481	-0.581980	0.068225	-0.362839	-0.780506	0.757018	-0.532003	-0.741535	0.741260	-0.515983	-0.803839	0.724791	-0.531118	-0.764803	0.707705	-0.520480	-0.914140	0.507087	-0.506197	-0.919328	0.504149	-0.396129	-1.045065	0.453020	-0.520273	-1.013822	0.420047	-0.513389	-1.080125	0.419609	-0.516305	-1.052789	0.389889	-0.510957	-1.233100	0.258194	-0.481513	-1.204709	0.243948	-0.401641	-1.236145	0.115020	-0.492110	-1.210806	0.106823	-0.386494	-1.164950	0.063714	-0.448281	-1.283931	0.284007	-0.430156	-0.618857	1.400890	-0.150701	-0.561386	1.403965	-0.444889	
46	0.2250	-0.641358	0.912712	-0.240238	-0.622585	0.927038	-0.451999	-0.810859	0.971555	-0.313805	-0.789816	0.990678	-0.408060	-0.683598	0.736461	-0.198772	-0.634871	0.762736	-0.197001	-0.655824	0.699809	-0.200882	-0.609363	0.722748	-0.201915	-0.520700	0.525833	-0.255838	-0.520461	0.525198	-0.359872	-0.559942	0.387134	-0.248188	-0.509986	0.396406	-0.259965	-0.551088	0.344815	-0.251560	-0.504639	0.355416	-0.265803	-0.496758	0.109906	-0.319001	-0.487053	0.130927	-0.400120	-0.367185	0.068921	-0.309314	-0.361657	0.100113	-0.416023	-0.297633	0.129586	-0.362865	-0.553905	0.063869	-0.366089	-0.760626	0.756783	-0.531659	-0.721644	0.741055	-0.515940	-0.783866	0.724491	-0.530984	-0.744840	0.707477	-0.520607	-0.893782	0.506372	-0.507603	-0.898237	0.502580	-0.397559	-1.026043	0.456080	-0.521380	-0.995866	0.422244	-0.514934	-1.061995	0.423818	-0.517492	-1.035626	0.393281	-0.512395	-1.219314	0.267801	-0.483002	-1.191056	0.251491	-0.403606	-1.227871	0.124967	-0.495410	-1.202348	0.114760	-0.390337	-1.158768	0.069267	-0.453308	-1.268517	0.295185	-0.430749	-0.601070	1.399649	-0.148854	-0.543771	1.403986	-0.443067	
47	0.2300	-0.621615	0.911746	-0.239405	-0.602817	0.926639	-0.451122	-0.791238	0.970132	-0.312721	-0.770201	0.989510	-0.406852	-0.665315	0.733765	-0.197629	-0.616296	0.759509	-0.195354	-0.637897	0.696708	-0.199754	-0.591206	0.719175	-0.200272	-0.503992	0.522237	-0.255329	-0.502965	0.521999	-0.358967	-0.541436	0.382938	-0.248856	-0.491437	0.393245	-0.260109	-0.531690	0.340727	-0.252438	-0.485174	0.352293	-0.266178	-0.471776	0.106680	-0.321319	-0.461672	0.128202	-0.402274	-0.341534	0.067802	-0.311298	-0.335795	0.099388	-0.417835	-0.272375	0.129776	-0.364045	-0.527806	0.060243	-0.369287	-0.740429	0.756154	-0.531340	-0.701417	0.740543	-0.515896	-0.763496	0.723755	-0.530893	-0.724442	0.706890	-0.520763	-0.872506	0.505040	-0.509072	-0.876293	0.500383	-0.399065	-1.006038	0.458653	-0.522549	-0.976991	0.423945	-0.516507	-1.042895	0.427621	-0.518722	-1.017552	0.396271	-0.513854	-1.204634	0.277430	-0.484411	-1.176598	0.258950	-0.405517	-1.218535	0.135385	-0.498961	-1.193028	0.122893	-0.394490	-1.151688	0.075389	-0.458711	-1.252217	0.306170	-0.431216	-0.583193	1.398082	-0.146980	-0.526201	1.403726	-0.441286	
48	0.2350	-0.601927	0.910569	-0.238519	-0.583043	0.925985	-0.450208	-0.771675	0.968490	-0.311676	-0.750640	0.988055	-0.405716	-0.647065	0.730882	-0.196469	-0.597756	0.756115	-0.193693	-0.619978	0.693432	-0.198617	-0.573063	0.715449	-0.198629	-0.487161	0.518487	-0.254787	-0.485372	0.518698	-0.358072	-0.523261	0.378832	-0.249505	-0.473245	0.389938	-0.260258	-0.512834	0.336752	-0.253304	-0.466275	0.349064	-0.266570	-0.448679	0.103775	-0.323549	-0.438076	0.125661	-0.404390	-0.318140	0.066549	-0.313060	-0.312056	0.098198	-0.419462	-0.249163	0.129208	-0.365047	-0.503740	0.057303	-0.372424	-0.719887	0.755136	-0.531034	-0.680831	0.739728	-0.515829	-0.742703	0.722590	-0.530833	-0.703587	0.705950	-0.520925	-0.850302	0.503116	-0.510578	-0.853499	0.497588	-0.400620	-0.985030	0.460736	-0.523766	-0.957166	0.425155	-0.518091	-1.022796	0.431009	-0.519984	-0.998531	0.398856	-0.515324	-1.188988	0.287031	-0.485740	-1.161268	0.266288	-0.407372	-1.208035	0.146200	-0.502742	-1.182760	0.131163	-0.398934	-1.143594	0.082037	-0.464456	-1.234974	0.316912	-0.431563	-0.565209	1.396206	-0.145076	-0.508648	1.403199	-0.439541	
49	0.2400	-0.582284	0.909195	-0.237570	-0.563244	0.925077	-0.449243	-0.752155	0.966650	-0.310672	-0.731113	0.986326	-0.404657	-0.628829	0.727851	-0.195300	-0.579236	0.752596	-0.192030	-0.602045	0.690027	-0.197478	-0.554917	0.711617	-0.197002	-0.470186	0.514632	-0.254221	-0.467666	0.515340	-0.357192	-0.505405	0.374842	-0.250130	-0.455388	0.386511	-0.260418	-0.494511	0.332907	-0.254157	-0.447926	0.345745	-0.266986	-0.427488	0.101161	-0.325692	-0.416290	0.123277	-0.406471	-0.296996	0.065136	-0.314613	-0.290435	0.096519	-0.420921	-0.227982	0.127864	-0.365900	-0.481745	0.054996	-0.375490	-0.698974	0.753743	-0.530727	-0.659862	0.738622	-0.515716	-0.721461	0.721014	-0.530789	-0.682253	0.704671	-0.521070	-0.827161	0.500635	-0.512094	-0.829860	0.494244	-0.402192	-0.963001	0.462337	-0.525017	-0.936364	0.425886	-0.519666	-1.001672	0.433979	-0.521265	-0.978528	0.401040	-0.516791	-1.172304	0.296551	-0.486989	-1.144995	0.273468	-0.409170	-1.196265	0.157324	-0.506728	-1.171451	0.139507	-0.403643	-1.134368	0.089156	-0.470505	-1.216733	0.327363	-0.431801	-0.547099	1.394045	-0.143138	-0.491083	1.402420	-0.437824	
50	0.2450	-0.562675	0.907642	-0.236545	-0.543401	0.923923	-0.448215	-0.732661	0.964635	-0.309711	-0.711598	0.984341	-0.403677	-0.610589	0.724709	-0.194125	-0.560722	0.748993	-0.190375	-0.584083	0.686533	-0.196346	-0.536752	0.707722	-0.195403	-0.453054	0.510713	-0.253635	-0.449843	0.511964	-0.356329	-0.487859	0.370990	-0.250726	-0.437850	0.382988	-0.260592	-0.476710	0.329208	-0.254993	-0.430113	0.342355	-0.267430	-0.408203	0.098809	-0.327750	-0.396321	0.121026	-0.408521	-0.278074	0.063544	-0.315974	-0.270910	0.094339	-0.422234	-0.208796	0.125747	-0.366633	-0.461831	0.053270	-0.378476	-0.677663	0.751999	-0.530406	-0.638491	0.737247	-0.515537	-0.699748	0.719053	-0.530746	-0.660420	0.703080	-0.521174	-0.803077	0.497644	-0.513592	-0.805378	0.490405	-0.403748	-0.939933	0.463470	-0.526283	-0.914557	0.426159	-0.521212	-0.979496	0.436533	-0.522552	-0.957507	0.402832	-0.518242	-1.154513	0.305934	-0.488164	-1.127712	0.280453	-0.410912	-1.183125	0.168661	-0.510889	-1.159007	0.147862	-0.408585	-1.123892	0.096679	-0.476808	-1.197441	0.337473	-0.431944	-0.528844	1.391625	-0.141161	-0.473477	1.401408	-0.436128	
51	0.2500	-0.543087	0.905928	-0.235434	-0.523494	0.922536	-0.447113	-0.713177	0.962471	-0.308790	-0.692075	0.982122	-0.402772	-0.592332	0.721494	-0.192948	-0.542200	0.745345	-0.188734	-0.566078	0.682989	-0.195227	-0.518556	0.703804	-0.193840	-0.435769	0.506770	-0.253036	-0.431910	0.508602	-0.355485	-0.470619	0.367297	-0.251286	-0.420624	0.379393	-0.260784	-0.459424	0.325669	-0.255808	-0.412823	0.338910	-0.267906	-0.390804	0.096696	-0.329725	-0.378158	0.118888	-0.410543	-0.261325	0.061768	-0.317160	-0.253439	0.091667	-0.423423	-0.191558	0.122884	-0.367275	-0.443984	0.052069	-0.381373	-0.655934	0.749933	-0.530054	-0.616701	0.735630	-0.515268	-0.677542	0.716743	-0.530687	-0.638072	0.701209	-0.521213	-0.778046	0.494200	-0.515040	-0.780062	0.486140	-0.405252	-0.915815	0.464155	-0.527547	-0.891721	0.426003	-0.522705	-0.956248	0.438680	-0.523830	-0.935435	0.404247	-0.519659	-1.135548	0.315124	-0.489268	-1.109350	0.287209	-0.412596	-1.168522	0.180110	-0.515192	-1.145338	0.156160	-0.413725	-1.112047	0.104525	-0.483310	-1.177050	0.347197	-0.432009	-0.510425	1.388979	-0.139143	-0.455801	1.400188	-0.434443	
52	0.2550	-0.523506	0.904077	-0.234226	-0.503507	0.920934	-0.445926	-0.693683	0.960188	-0.307904	-0.672524	0.979696	-0.401937	-0.574044	0.718243	-0.191772	-0.523660	0.741686	-0.187115	-0.548020	0.679434	-0.194124	-0.500322	0.699899	-0.192321	-0.418343	0.502833	-0.252427	-0.413882	0.505279	-0.354662	-0.453683	0.363778	-0.251804	-0.403704	0.375749	-0.260995	-0.442645	0.322300	-0.256597	-0.396049	0.335428	-0.268415	-0.375249	0.094799	-0.331619	-0.361774	0.116850	-0.412537	-0.246676	0.059814	-0.318191	-0.237962	0.088529	-0.424508	-0.176207	0.119321	-0.367854	-0.428166	0.051337	-0.384172	-0.633770	0.747582	-0.529657	-0.594480	0.733805	-0.514890	-0.654830	0.714125	-0.530594	-0.615200	0.699099	-0.521165	-0.752069	0.490370	-0.516406	-0.753919	0.481524	-0.406669	-0.890638	0.464420	-0.528788	-0.867836	0.425451	-0.524122	-0.931911	0.440433	-0.525082	-0.912285	0.405304	-0.521026	-1.115351	0.324063	-0.490309	-1.089853	0.293701	-0.414223	-1.152371	0.191561	-0.519601	-1.130354	0.164332	-0.419020	-1.098724	0.112608	-0.489952	-1.155520	0.356490	-0.432016	-0.491826	1.386145	-0.137081	-0.438027	1.398785	-0.432764	
53	0.2600	-0.503919	0.902110	-0.232915	-0.483426	0.919139	-0.444646	-0.674165	0.957816	-0.307045	-0.652926	0.977095	-0.401164	-0.555717	0.714990	-0.190598	-0.505094	0.738047	-0.185522	-0.529907	0.675903	-0.193040	-0.482045	0.696037	-0.190850	-0.400799	0.498929	-0.251812	-0.395785	0.502015	-0.353860	-0.437057	0.360444	-0.252274	-0.387094	0.372079	-0.261227	-0.426369	0.319107	-0.257354	-0.379783	0.331928	-0.268955	-0.361479	0.093101	-0.333433	-0.347123	0.114903	-0.414504	-0.234035	0.057698	-0.319086	-0.224404	0.084964	-0.425509	-0.162665	0.115123	-0.368395	-0.414316	0.051018	-0.386862	-0.611160	0.744992	-0.529197	-0.571822	0.731815	-0.514381	-0.631601	0.711249	-0.530450	-0.591799	0.696798	-0.521006	-0.725152	0.486228	-0.517656	-0.726964	0.476639	-0.407960	-0.864403	0.464299	-0.529985	-0.842888	0.424544	-0.525440	-0.906478	0.441810	-0.526293	-0.888037	0.406027	-0.522324	-1.093878	0.332693	-0.491293	-1.069168	0.299896	-0.415794	-1.134600	0.202903	-0.524077	-1.113978	0.172311	-0.424424	-1.083819	0.120830	-0.496667	-1.132822	0.365311	-0.431987	-0.473032	1.383162	-0.134976	-0.420131	1.397229	-0.431082	
54	0.2650	-0.484315	0.900052	-0.231494	-0.463243	0.917177	-0.443264	-0.654606	0.955388	-0.306203	-0.633266	0.974353	-0.400441	-0.537348	0.711768	-0.189425	-0.486499	0.734457	-0.183958	-0.511740	0.672427	-0.191976	-0.463728	0.692247	-0.189432	-0.383172	0.495079	-0.251196	-0.377656	0.498825	-0.353079	-0.420750	0.357303	-0.252689	-0.370801	0.368402	-0.261477	-0.410593	0.316098	-0.258073	-0.364022	0.328427	-0.269525	-0.349419	0.091585	-0.335167	-0.334143	0.113044	-0.416440	-0.223294	0.055444	-0.319864	-0.212674	0.081026	-0.426444	-0.150845	0.110371	-0.368921	-0.402351	0.051059	-0.389436	-0.588101	0.742211	-0.528659	-0.548727	0.729705	-0.513725	-0.607854	0.708170	-0.530236	-0.567872	0.694359	-0.520715	-0.697311	0.481853	-0.518755	-0.699215	0.471572	-0.409090	-0.837117	0.463828	-0.531115	-0.816874	0.423326	-0.526633	-0.879950	0.442834	-0.527443	-0.862681	0.406441	-0.523534	-1.071094	0.340957	-0.492229	-1.047259	0.305767	-0.417307	-1.115154	0.214020	-0.528582	-1.096140	0.180030	-0.429888	-1.067246	0.129090	-0.503387	-1.108940	0.373620	-0.431944	-0.454032	1.380074	-0.132826	-0.402094	1.395551	-0.429393	
55	0.2700	-0.464683	0.897929	-0.229959	-0.442951	0.915080	-0.441778	-0.634995	0.952938	-0.305368	-0.613534	0.971509	-0.399755	-0.518937	0.708607	-0.188254	-0.467876	0.730940	-0.182424	-0.493526	0.669036	-0.190930	-0.445377	0.688550	-0.188065	-0.365508	0.491297	-0.250582	-0.359539	0.495715	-0.352319	-0.404777	0.354360	-0.253044	-0.354841	0.364740	-0.261744	-0.395317	0.313275	-0.258749	-0.348766	0.324942	-0.270121	-0.338975	0.090243	-0.336822	-0.322760	0.111274	-0.418342	-0.214329	0.053082	-0.320543	-0.202666	0.076780	-0.427331	-0.140650	0.105159	-0.369452	-0.392172	0.051406	-0.391882	-0.564597	0.739293	-0.528028	-0.525205	0.727525	-0.512905	-0.583595	0.704946	-0.529936	-0.543430	0.691840	-0.520272	-0.668570	0.477328	-0.519671	-0.670699	0.466414	-0.410022	-0.808803	0.463051	-0.532156	-0.789800	0.421844	-0.527676	-0.852342	0.443530	-0.528516	-0.836218	0.406577	-0.524636	-1.046984	0.348800	-0.493124	-1.024104	0.311284	-0.418762	-1.093999	0.224801	-0.533072	-1.076788	0.187423	-0.435362	-1.048934	0.137284	-0.510039	-1.083875	0.381382	-0.431910	-0.434821	1.376927	-0.130632	-0.383901	1.393787	-0.427691	
56	0.2750	-0.445019	0.895766	-0.228309	-0.422554	0.912881	-0.440182	-0.615325	0.950500	-0.304527	-0.593723	0.968603	-0.399089	-0.500491	0.705536	-0.187083	-0.449230	0.727518	-0.180920	-0.475281	0.665754	-0.189901	-0.427005	0.684965	-0.186749	-0.347859	0.487597	-0.249973	-0.341488	0.492690	-0.351581	-0.389155	0.351615	-0.253334	-0.339232	0.361111	-0.262024	-0.380543	0.310638	-0.259375	-0.334018	0.321493	-0.270738	-0.330044	0.089064	-0.338397	-0.312883	0.109598	-0.420203	-0.207002	0.050650	-0.321141	-0.194265	0.072300	-0.428182	-0.131974	0.099591	-0.370003	-0.383661	0.052011	-0.394195	-0.540663	0.736297	-0.527289	-0.501274	0.725328	-0.511907	-0.558842	0.701640	-0.529531	-0.518496	0.689300	-0.519660	-0.638965	0.472739	-0.520370	-0.641455	0.461255	-0.410722	-0.779493	0.462012	-0.533084	-0.761690	0.420148	-0.528548	-0.823682	0.443927	-0.529491	-0.808665	0.406465	-0.525609	-1.021554	0.356172	-0.493986	-0.999698	0.316424	-0.420158	-1.071122	0.235137	-0.537507	-1.055888	0.194429	-0.440792	-1.028835	0.145306	-0.516553	-1.057645	0.388566	-0.431909	-0.415400	1.373766	-0.128398	-0.365544	1.391969	-0.425972	
57	0.2800	-0.425321	0.893592	-0.226544	-0.402060	0.910618	-0.438477	-0.595595	0.948108	-0.303665	-0.573837	0.965677	-0.398426	-0.482026	0.702580	-0.185909	-0.430575	0.724208	-0.179446	-0.457026	0.662605	-0.188887	-0.408631	0.681507	-0.185480	-0.330288	0.483984	-0.249372	-0.323561	0.489751	-0.350865	-0.373908	0.349068	-0.253556	-0.323998	0.357532	-0.262314	-0.366276	0.308188	-0.259948	-0.319784	0.318095	-0.271368	-0.322509	0.088043	-0.339891	-0.304413	0.108025	-0.422018	-0.201168	0.048188	-0.321674	-0.187346	0.067664	-0.429010	-0.124702	0.093777	-0.370586	-0.376686	0.052830	-0.396364	-0.516326	0.733279	-0.526430	-0.476963	0.723169	-0.510721	-0.533624	0.698316	-0.529007	-0.493104	0.686800	-0.518865	-0.608547	0.468170	-0.520823	-0.611531	0.456183	-0.411160	-0.749237	0.460758	-0.533878	-0.732582	0.418289	-0.529225	-0.794017	0.444058	-0.530352	-0.780058	0.406140	-0.526435	-0.994829	0.363025	-0.494822	-0.974059	0.321166	-0.421492	-1.046536	0.244923	-0.541847	-1.033430	0.200991	-0.446125	-1.006927	0.153054	-0.522858	-1.030289	0.395145	-0.431963	-0.395777	1.370640	-0.126126	-0.347024	1.390135	-0.424233	
58	0.2850	-0.405595	0.891431	-0.224669	-0.381486	0.908327	-0.436664	-0.575811	0.945795	-0.302770	-0.553885	0.962774	-0.397749	-0.463560	0.699760	-0.184730	-0.411929	0.721025	-0.178000	-0.438788	0.659606	-0.187884	-0.390282	0.678185	-0.184256	-0.312863	0.480463	-0.248782	-0.305825	0.486895	-0.350171	-0.359062	0.346714	-0.253707	-0.309169	0.354019	-0.262610	-0.352523	0.305921	-0.260463	-0.306074	0.314766	-0.272006	-0.316248	0.087176	-0.341302	-0.297242	0.106565	-0.423778	-0.196675	0.045738	-0.322155	-0.181777	0.062954	-0.429821	-0.118716	0.087829	-0.371209	-0.371109	0.053821	-0.398385	-0.491625	0.730299	-0.525439	-0.452313	0.721101	-0.509338	-0.507982	0.695037	-0.528348	-0.467299	0.684401	-0.517872	-0.577381	0.463703	-0.521002	-0.580988	0.451285	-0.411308	-0.718103	0.459337	-0.534516	-0.702531	0.416318	-0.529688	-0.763410	0.443955	-0.531081	-0.750450	0.405635	-0.527095	-0.966861	0.369319	-0.495637	-0.947228	0.325495	-0.422761	-1.020285	0.254065	-0.546053	-1.009428	0.207056	-0.451309	-0.983220	0.160431	-0.528885	-1.001870	0.401099	-0.432092	-0.375970	1.367595	-0.123822	-0.328352	1.388318	-0.422472	
59	0.2900	-0.385855	0.889310	-0.222688	-0.360858	0.906048	-0.434747	-0.555987	0.943591	-0.301827	-0.533884	0.959934	-0.397041	-0.445123	0.697096	-0.183544	-0.393320	0.717979	-0.176580	-0.420604	0.656774	-0.186887	-0.371992	0.675008	-0.183070	-0.295656	0.477037	-0.248206	-0.288350	0.484117	-0.349500	-0.344648	0.344547	-0.253788	-0.294777	0.350589	-0.262905	-0.339295	0.303834	-0.260917	-0.292898	0.311521	-0.272643	-0.311132	0.086459	-0.342629	-0.291257	0.105230	-0.425475	-0.193368	0.043341	-0.322597	-0.177421	0.058252	-0.430623	-0.113895	0.081858	-0.371875	-0.366782	0.054947	-0.400251	-0.466611	0.727414	-0.524308	-0.427377	0.719175	-0.507755	-0.481971	0.691863	-0.527544	-0.441141	0.682159	-0.516676	-0.545548	0.459417	-0.520885	-0.549905	0.446640	-0.411145	-0.686177	0.457797	-0.534980	-0.671616	0.414286	-0.529920	-0.731947	0.443654	-0.531662	-0.719916	0.404984	-0.527573	-0.937728	0.375017	-0.496439	-0.919271	0.329397	-0.423962	-0.992441	0.262479	-0.550087	-0.983925	0.212582	-0.456295	-0.957753	0.167347	-0.534570	-0.972472	0.406413	-0.432314	-0.356006	1.364674	-0.121492	-0.309548	1.386554	-0.420690	
60	0.2950	-0.366122	0.887254	-0.220611	-0.340212	0.903819	-0.432734	-0.536146	0.941526	-0.300825	-0.513865	0.957199	-0.396285	-0.426750	0.694604	-0.182349	-0.374781	0.715080	-0.175183	-0.402516	0.654120	-0.185894	-0.353801	0.671981	-0.181919	-0.278744	0.473707	-0.247647	-0.271209	0.481413	-0.348853	-0.330698	0.342561	-0.253800	-0.280856	0.347256	-0.263196	-0.326602	0.301923	-0.261308	-0.280269	0.308377	-0.273272	-0.307031	0.085891	-0.343869	-0.286336	0.104031	-0.427098	-0.191090	0.041036	-0.323010	-0.174140	0.053635	-0.431419	-0.110115	0.075970	-0.372584	-0.363555	0.056175	-0.401958	-0.441349	0.724678	-0.523030	-0.402223	0.717438	-0.505972	-0.455662	0.688854	-0.526585	-0.414702	0.680129	-0.515270	-0.513150	0.455382	-0.520454	-0.518374	0.442320	-0.410654	-0.653565	0.456184	-0.535254	-0.639934	0.412240	-0.529906	-0.699732	0.443188	-0.532082	-0.688554	0.404221	-0.527854	-0.907533	0.380095	-0.497229	-0.890280	0.332865	-0.425092	-0.963110	0.270094	-0.553916	-0.956996	0.217530	-0.461035	-0.930601	0.173722	-0.539857	-0.942204	0.411076	-0.432645	-0.335923	1.361920	-0.119143	-0.290644	1.384874	-0.418889	
61	0.3000	-0.346427	0.885286	-0.218448	-0.319594	0.901676	-0.430634	-0.516322	0.939625	-0.299752	-0.493865	0.954604	-0.395465	-0.408487	0.692297	-0.181143	-0.356355	0.712335	-0.173809	-0.384574	0.651654	-0.184901	-0.335757	0.669106	-0.180798	-0.262206	0.470472	-0.247107	-0.254476	0.478776	-0.348231	-0.317245	0.340746	-0.253746	-0.267442	0.344032	-0.263477	-0.314460	0.300180	-0.261636	-0.268204	0.305348	-0.273885	-0.303814	0.085468	-0.345022	-0.282362	0.102982	-0.428640	-0.189690	0.038859	-0.323402	-0.171797	0.049177	-0.432208	-0.107256	0.070264	-0.373333	-0.361278	0.057477	-0.403504	-0.415918	0.722141	-0.521605	-0.376928	0.715935	-0.503993	-0.429140	0.686060	-0.525466	-0.388071	0.678357	-0.513654	-0.480305	0.451663	-0.519697	-0.486505	0.438389	-0.409824	-0.620393	0.454542	-0.535323	-0.607606	0.410225	-0.529638	-0.666894	0.442592	-0.532330	-0.656486	0.403377	-0.527929	-0.876408	0.384533	-0.498011	-0.860374	0.335897	-0.426145	-0.932428	0.276851	-0.557512	-0.928745	0.221874	-0.465487	-0.901877	0.179487	-0.544695	-0.911198	0.415089	-0.433094	-0.315769	1.359368	-0.116785	-0.271683	1.383308	-0.417071	
62	0.3050	-0.326811	0.883426	-0.216212	-0.299059	0.899654	-0.428458	-0.496560	0.937910	-0.298599	-0.473933	0.952183	-0.394569	-0.390385	0.690183	-0.179926	-0.338092	0.709747	-0.172455	-0.366836	0.649382	-0.183906	-0.317916	0.666384	-0.179701	-0.246121	0.467333	-0.246589	-0.238225	0.476202	-0.347636	-0.304325	0.339095	-0.253630	-0.254573	0.340931	-0.263744	-0.302881	0.298601	-0.261901	-0.256716	0.302446	-0.274474	-0.301355	0.085188	-0.346086	-0.279215	0.102090	-0.430091	-0.189020	0.036841	-0.323780	-0.170257	0.044942	-0.432989	-0.105198	0.064827	-0.374117	-0.359802	0.058829	-0.404889	-0.390413	0.719845	-0.520031	-0.351586	0.714701	-0.501825	-0.402503	0.683529	-0.524184	-0.361349	0.676884	-0.511833	-0.447150	0.448314	-0.518608	-0.454426	0.434899	-0.408654	-0.586808	0.452914	-0.535178	-0.574774	0.408281	-0.529112	-0.633580	0.441900	-0.532396	-0.623854	0.402484	-0.527789	-0.844510	0.388323	-0.498786	-0.829697	0.338495	-0.427118	-0.900565	0.282711	-0.560847	-0.899312	0.225596	-0.469615	-0.871730	0.184589	-0.549042	-0.879610	0.418457	-0.433671	-0.295606	1.357052	-0.114427	-0.252719	1.381883	-0.415241	
63	0.3100	-0.307326	0.881693	-0.213919	-0.278673	0.897784	-0.426221	-0.476915	0.936397	-0.297361	-0.454130	0.949964	-0.393587	-0.372502	0.688269	-0.178699	-0.320050	0.707319	-0.171120	-0.349362	0.647307	-0.182906	-0.300338	0.663815	-0.178626	-0.230564	0.464289	-0.246094	-0.222528	0.473687	-0.347068	-0.291972	0.337596	-0.253457	-0.242283	0.337963	-0.263992	-0.291882	0.297177	-0.262106	-0.245821	0.299684	-0.275033	-0.299531	0.085047	-0.347061	-0.276777	0.101365	-0.431444	-0.188940	0.035008	-0.324148	-0.169392	0.040988	-0.433760	-0.103824	0.059736	-0.374925	-0.358988	0.060209	-0.406114	-0.364938	0.717829	-0.518314	-0.326301	0.713765	-0.499483	-0.375864	0.681299	-0.522741	-0.334651	0.675742	-0.509816	-0.413840	0.445379	-0.517190	-0.422280	0.431890	-0.407147	-0.552978	0.451337	-0.534815	-0.541602	0.406445	-0.528326	-0.599960	0.441142	-0.532277	-0.590825	0.401569	-0.527433	-0.812023	0.391465	-0.499553	-0.798420	0.340667	-0.428007	-0.867721	0.287649	-0.563903	-0.868866	0.228687	-0.473388	-0.840343	0.188988	-0.552867	-0.847615	0.421192	-0.434377	-0.275504	1.354998	-0.112080	-0.233820	1.380621	-0.413406	
64	0.3150	-0.288033	0.880103	-0.211585	-0.258512	0.896091	-0.423937	-0.457451	0.935099	-0.296034	-0.434526	0.947972	-0.392512	-0.354906	0.686558	-0.177462	-0.302294	0.705051	-0.169806	-0.332221	0.645430	-0.181901	-0.283090	0.661396	-0.177570	-0.215610	0.461343	-0.245624	-0.207455	0.471231	-0.346529	-0.280219	0.336242	-0.253234	-0.230607	0.335138	-0.264217	-0.281478	0.295902	-0.262252	-0.235534	0.297072	-0.275555	-0.298229	0.085039	-0.347946	-0.274939	0.100811	-0.432692	-0.189322	0.033379	-0.324510	-0.169077	0.037358	-0.434515	-0.103025	0.055051	-0.375749	-0.358700	0.061601	-0.407183	-0.339611	0.716120	-0.516462	-0.301189	0.713148	-0.496982	-0.349350	0.679400	-0.521144	-0.308103	0.674953	-0.507615	-0.380547	0.442890	-0.515451	-0.390225	0.429391	-0.405316	-0.519084	0.449844	-0.534232	-0.508273	0.404746	-0.527288	-0.566220	0.440349	-0.531971	-0.557584	0.400659	-0.526861	-0.779150	0.393969	-0.500312	-0.766735	0.342425	-0.428808	-0.834123	0.291659	-0.566664	-0.837606	0.231150	-0.476783	-0.807935	0.192661	-0.556150	-0.815409	0.423316	-0.435211	-0.255544	1.353225	-0.109758	-0.215059	1.379540	-0.411573	
65	0.3200	-0.269003	0.878667	-0.209229	-0.238657	0.894596	-0.421625	-0.438243	0.934024	-0.294620	-0.415198	0.946223	-0.391342	-0.337666	0.685049	-0.176219	-0.284893	0.702944	-0.168512	-0.315484	0.643749	-0.180893	-0.266242	0.659127	-0.176531	-0.201326	0.458496	-0.245181	-0.193069	0.468832	-0.346019	-0.269097	0.335023	-0.252970	-0.219576	0.332465	-0.264416	-0.271682	0.294768	-0.262344	-0.225868	0.294619	-0.276034	-0.297341	0.085158	-0.348742	-0.273594	0.100430	-0.433831	-0.190047	0.031966	-0.324865	-0.169199	0.034087	-0.435250	-0.102699	0.050819	-0.376577	-0.358817	0.062991	-0.408101	-0.314560	0.714738	-0.514488	-0.276376	0.712861	-0.494344	-0.323096	0.677852	-0.519401	-0.281842	0.674529	-0.505249	-0.347456	0.440866	-0.513408	-0.358433	0.427416	-0.403180	-0.485328	0.448463	-0.533434	-0.474985	0.403209	-0.526008	-0.532564	0.439547	-0.531481	-0.524336	0.399776	-0.526080	-0.746116	0.395855	-0.501060	-0.734855	0.343786	-0.429519	-0.800024	0.294753	-0.569120	-0.805759	0.232998	-0.479782	-0.774755	0.195601	-0.558880	-0.783203	0.424856	-0.436168	-0.235818	1.351748	-0.107471	-0.196523	1.378653	-0.409752	
66	0.3250	-0.250316	0.877395	-0.206871	-0.219199	0.893316	-0.419303	-0.419376	0.933173	-0.293122	-0.396234	0.944729	-0.390078	-0.320858	0.683740	-0.174974	-0.267923	0.700995	-0.167242	-0.299223	0.642261	-0.179882	-0.249867	0.657005	-0.175509	-0.187774	0.455753	-0.244767	-0.179427	0.466494	-0.345540	-0.258634	0.333929	-0.252671	-0.209216	0.329952	-0.264586	-0.262505	0.293767	-0.262388	-0.216833	0.292333	-0.276467	-0.296774	0.085395	-0.349451	-0.272647	0.100219	-0.434856	-0.191010	0.030774	-0.325215	-0.169654	0.031197	-0.435959	-0.102749	0.047071	-0.377398	-0.359228	0.064367	-0.408874	-0.289921	0.713693	-0.512406	-0.251993	0.712906	-0.491593	-0.297247	0.676665	-0.517528	-0.256012	0.674472	-0.502740	-0.314764	0.439316	-0.511086	-0.327085	0.425968	-0.400765	-0.451919	0.447215	-0.532430	-0.441953	0.401853	-0.524504	-0.499208	0.438759	-0.530815	-0.491299	0.398939	-0.525101	-0.713160	0.397153	-0.501792	-0.703008	0.344774	-0.430138	-0.765696	0.296958	-0.571267	-0.773575	0.234255	-0.482379	-0.741077	0.197815	-0.561059	-0.751218	0.425848	-0.437237	-0.216422	1.350571	-0.105233	-0.178305	1.377966	-0.407952	
67	0.3300	-0.232056	0.876291	-0.204531	-0.200233	0.892260	-0.416991	-0.400939	0.932544	-0.291549	-0.377725	0.943493	-0.388725	-0.304560	0.682625	-0.173732	-0.251461	0.699203	-0.165998	-0.283514	0.640958	-0.178872	-0.234040	0.655027	-0.174505	-0.175006	0.453119	-0.244381	-0.166580	0.464221	-0.345093	-0.248851	0.332953	-0.252347	-0.199550	0.327606	-0.264726	-0.253959	0.292891	-0.262388	-0.208438	0.290219	-0.276851	-0.296441	0.085739	-0.350076	-0.272010	0.100172	-0.435767	-0.192119	0.029804	-0.325559	-0.170349	0.028698	-0.436635	-0.103089	0.043821	-0.378200	-0.359834	0.065719	-0.409512	-0.265835	0.712988	-0.510237	-0.228178	0.713276	-0.488758	-0.271955	0.675842	-0.515542	-0.230763	0.674774	-0.500115	-0.282676	0.438236	-0.508516	-0.296370	0.425035	-0.398107	-0.419077	0.446119	-0.531236	-0.409399	0.400690	-0.522796	-0.466376	0.438005	-0.529984	-0.458700	0.398164	-0.523940	-0.680531	0.397901	-0.502505	-0.671434	0.345414	-0.430665	-0.731427	0.298321	-0.573108	-0.741320	0.234955	-0.484573	-0.707198	0.199330	-0.562701	-0.719686	0.426333	-0.438406	-0.197462	1.349693	-0.103058	-0.160501	1.377482	-0.406183	
68	0.3350	-0.214315	0.875355	-0.202228	-0.181856	0.891430	-0.414709	-0.383026	0.932128	-0.289911	-0.359768	0.942514	-0.387292	-0.288851	0.681695	-0.172500	-0.235587	0.697563	-0.164784	-0.268429	0.639834	-0.177868	-0.218835	0.653191	-0.173521	-0.163067	0.450599	-0.244024	-0.154566	0.462019	-0.344677	-0.239767	0.332086	-0.252006	-0.190593	0.325430	-0.264835	-0.246047	0.292133	-0.262350	-0.200685	0.288281	-0.277184	-0.296271	0.086179	-0.350619	-0.271605	0.100280	-0.436563	-0.193296	0.029049	-0.325894	-0.171201	0.026590	-0.437274	-0.103643	0.041072	-0.378972	-0.360552	0.067040	-0.410024	-0.242444	0.712613	-0.508003	-0.205070	0.713954	-0.485868	-0.247372	0.675372	-0.513464	-0.206247	0.675417	-0.497403	-0.251400	0.437608	-0.505736	-0.266479	0.424594	-0.395244	-0.387023	0.445184	-0.529870	-0.377551	0.399725	-0.520914	-0.434295	0.437302	-0.529004	-0.426773	0.397464	-0.522616	-0.648483	0.398145	-0.503193	-0.640379	0.345737	-0.431101	-0.697511	0.298900	-0.574649	-0.709275	0.235138	-0.486372	-0.673428	0.200185	-0.563829	-0.688839	0.426359	-0.439657	-0.179042	1.349106	-0.100957	-0.143213	1.377197	-0.404458	
69	0.3400	-0.197186	0.874586	-0.199983	-0.164166	0.890824	-0.412475	-0.365735	0.931914	-0.288223	-0.342460	0.941785	-0.385794	-0.273807	0.680938	-0.171285	-0.220379	0.696072	-0.163605	-0.254039	0.638878	-0.176876	-0.204323	0.651494	-0.172561	-0.151990	0.448201	-0.243697	-0.143419	0.459897	-0.344293	-0.231392	0.331320	-0.251657	-0.182355	0.323429	-0.264913	-0.238772	0.291484	-0.262281	-0.193574	0.286519	-0.277465	-0.296202	0.086701	-0.351085	-0.271367	0.100530	-0.437247	-0.194477	0.028496	-0.326220	-0.172140	0.024862	-0.437871	-0.104341	0.038811	-0.379705	-0.361312	0.068322	-0.410422	-0.219890	0.712552	-0.505728	-0.182806	0.714915	-0.482956	-0.223651	0.675239	-0.511320	-0.182612	0.676372	-0.494636	-0.221142	0.437407	-0.502787	-0.237604	0.424611	-0.392221	-0.355978	0.444415	-0.528356	-0.346636	0.398959	-0.518886	-0.403191	0.436663	-0.527893	-0.395749	0.396846	-0.521155	-0.617268	0.397937	-0.503852	-0.610088	0.345777	-0.431448	-0.664247	0.298769	-0.575902	-0.677725	0.234857	-0.487792	-0.640082	0.200430	-0.564477	-0.658904	0.425978	-0.440972	-0.161272	1.348794	-0.098944	-0.126542	1.377104	-0.402787	
70	0.3450	-0.180764	0.873978	-0.197815	-0.147258	0.890433	-0.410311	-0.349162	0.931883	-0.286503	-0.325896	0.941291	-0.384245	-0.259504	0.680344	-0.170095	-0.205911	0.694726	-0.162468	-0.240411	0.638078	-0.175901	-0.190571	0.649933	-0.171628	-0.141798	0.445933	-0.243399	-0.133157	0.457864	-0.343940	-0.223731	0.330650	-0.251306	-0.174837	0.321603	-0.264960	-0.232131	0.290936	-0.262186	-0.187101	0.284934	-0.277695	-0.296185	0.087290	-0.351479	-0.271239	0.100907	-0.437824	-0.195611	0.028130	-0.326534	-0.173108	0.023495	-0.438421	-0.105127	0.037015	-0.380390	-0.362058	0.069559	-0.410718	-0.198309	0.712782	-0.503438	-0.161519	0.716127	-0.480054	-0.200937	0.675415	-0.509136	-0.160003	0.677606	-0.491849	-0.192101	0.437597	-0.499716	-0.209928	0.425042	-0.389086	-0.326154	0.443812	-0.526722	-0.316873	0.398385	-0.516749	-0.373283	0.436096	-0.526673	-0.365856	0.396316	-0.519583	-0.587132	0.397334	-0.504477	-0.580803	0.345570	-0.431709	-0.631925	0.298011	-0.576885	-0.646954	0.234167	-0.488854	-0.607477	0.200129	-0.564686	-0.630103	0.425245	-0.442329	-0.144254	1.348737	-0.097031	-0.110586	1.377187	-0.401180	
71	0.3500	-0.165138	0.873520	-0.195741	-0.131224	0.890243	-0.408234	-0.333400	0.932016	-0.284769	-0.310167	0.941013	-0.382665	-0.246009	0.679896	-0.168940	-0.192253	0.693518	-0.161377	-0.227603	0.637424	-0.174951	-0.177641	0.648506	-0.170729	-0.132501	0.443802	-0.243129	-0.123792	0.455931	-0.343618	-0.216782	0.330067	-0.250962	-0.168035	0.319953	-0.264979	-0.226117	0.290481	-0.262072	-0.181254	0.283522	-0.277876	-0.296183	0.087931	-0.351806	-0.271175	0.101391	-0.438298	-0.196660	0.027930	-0.326833	-0.174059	0.022461	-0.438922	-0.105951	0.035649	-0.381021	-0.362747	0.070746	-0.410923	-0.177830	0.713271	-0.501161	-0.141331	0.717553	-0.477197	-0.179368	0.675869	-0.506940	-0.138554	0.679077	-0.489076	-0.164466	0.438133	-0.496574	-0.183623	0.425835	-0.385889	-0.297752	0.443369	-0.524997	-0.288471	0.397993	-0.514537	-0.344777	0.435606	-0.525370	-0.337308	0.395875	-0.517929	-0.558305	0.396400	-0.505063	-0.552749	0.345154	-0.431891	-0.600824	0.296717	-0.577619	-0.617235	0.233129	-0.489586	-0.575917	0.199354	-0.564507	-0.602642	0.424220	-0.443705	-0.128089	1.348907	-0.095226	-0.095438	1.377431	-0.399650	
72	0.3550	-0.150393	0.873201	-0.193777	-0.116146	0.890235	-0.406260	-0.318535	0.932291	-0.283044	-0.295357	0.940930	-0.381074	-0.233382	0.679580	-0.167828	-0.179467	0.692442	-0.160340	-0.215667	0.636901	-0.174034	-0.165584	0.647209	-0.169868	-0.124099	0.441815	-0.242886	-0.115321	0.454106	-0.343327	-0.210533	0.329566	-0.250630	-0.161936	0.318476	-0.264971	-0.220716	0.290111	-0.261945	-0.176018	0.282279	-0.278012	-0.296168	0.088607	-0.352073	-0.271140	0.101963	-0.438677	-0.197597	0.027874	-0.327115	-0.174956	0.021729	-0.439371	-0.106774	0.034672	-0.381594	-0.363350	0.071878	-0.411051	-0.158567	0.713982	-0.498924	-0.122354	0.719148	-0.474417	-0.159069	0.676561	-0.504762	-0.118384	0.680736	-0.486351	-0.138407	0.438965	-0.493410	-0.158845	0.426933	-0.382681	-0.270953	0.443077	-0.523214	-0.261621	0.397767	-0.512290	-0.317858	0.435196	-0.524009	-0.310299	0.395521	-0.516226	-0.530998	0.395197	-0.505606	-0.526138	0.344567	-0.432000	-0.571202	0.294985	-0.578126	-0.588827	0.231810	-0.490023	-0.545691	0.198182	-0.563994	-0.576707	0.422962	-0.445079	-0.112866	1.349275	-0.093541	-0.081183	1.377813	-0.398205	
73	0.3600	-0.136604	0.873007	-0.191938	-0.102094	0.890385	-0.404405	-0.304642	0.932682	-0.281347	-0.281539	0.941015	-0.379496	-0.221674	0.679378	-0.166768	-0.167605	0.691493	-0.159361	-0.204642	0.636496	-0.173156	-0.154442	0.646040	-0.169050	-0.116581	0.439979	-0.242670	-0.107733	0.452400	-0.343065	-0.204969	0.329140	-0.250315	-0.156520	0.317168	-0.264941	-0.215910	0.289817	-0.261809	-0.171372	0.281199	-0.278105	-0.296121	0.089304	-0.352285	-0.271109	0.102601	-0.438970	-0.198407	0.027939	-0.327378	-0.175773	0.021261	-0.439769	-0.107565	0.034039	-0.382105	-0.363848	0.072950	-0.411114	-0.140619	0.714875	-0.496753	-0.104683	0.720866	-0.471744	-0.140145	0.677449	-0.502629	-0.099599	0.682535	-0.483708	-0.114072	0.440038	-0.490276	-0.135730	0.428275	-0.379513	-0.245915	0.442921	-0.521405	-0.236490	0.397690	-0.510046	-0.292691	0.434864	-0.522618	-0.285003	0.395251	-0.514504	-0.505396	0.393790	-0.506103	-0.501153	0.343847	-0.432044	-0.543288	0.292914	-0.578436	-0.561964	0.230274	-0.490200	-0.517059	0.196695	-0.563206	-0.552459	0.421531	-0.446428	-0.098665	1.349808	-0.091981	-0.067895	1.378310	-0.396854	
74	0.3650	-0.123836	0.872921	-0.190234	-0.089129	0.890669	-0.402680	-0.291787	0.933163	-0.279702	-0.268774	0.941239	-0.377951	-0.210924	0.679275	-0.165768	-0.156707	0.690664	-0.158446	-0.194558	0.636195	-0.172325	-0.144247	0.644994	-0.168281	-0.109924	0.438299	-0.242479	-0.101005	0.450822	-0.342831	-0.200064	0.328782	-0.250022	-0.151760	0.316023	-0.264891	-0.211676	0.289591	-0.261671	-0.167291	0.280272	-0.278161	-0.296033	0.090005	-0.352449	-0.271062	0.103285	-0.439186	-0.199084	0.028101	-0.327620	-0.176495	0.021018	-0.440115	-0.108301	0.033698	-0.382553	-0.364233	0.073959	-0.411125	-0.124067	0.715908	-0.494674	-0.088394	0.722662	-0.469207	-0.122684	0.678487	-0.500569	-0.082279	0.684421	-0.481179	-0.091581	0.441295	-0.487219	-0.114387	0.429796	-0.376433	-0.222766	0.442884	-0.519605	-0.213215	0.397740	-0.507841	-0.269409	0.434608	-0.521224	-0.261562	0.395058	-0.512796	-0.481655	0.392242	-0.506552	-0.477950	0.343033	-0.432032	-0.517279	0.290602	-0.578575	-0.536847	0.228588	-0.490157	-0.490250	0.194973	-0.562203	-0.530031	0.419984	-0.447732	-0.085549	1.350470	-0.090552	-0.055632	1.378898	-0.395604	
75	0.3700	-0.112139	0.872927	-0.188674	-0.077292	0.891059	-0.401096	-0.280019	0.933708	-0.278128	-0.257108	0.941574	-0.376462	-0.201156	0.679252	-0.164835	-0.146801	0.689946	-0.157599	-0.185432	0.635982	-0.171547	-0.135015	0.644068	-0.167565	-0.104095	0.436778	-0.242312	-0.095106	0.449377	-0.342624	-0.195789	0.328486	-0.249753	-0.147624	0.315033	-0.264825	-0.207986	0.289425	-0.261534	-0.163745	0.279488	-0.278184	-0.295899	0.090696	-0.352572	-0.270990	0.103991	-0.439336	-0.199627	0.028336	-0.327841	-0.177112	0.020960	-0.440412	-0.108968	0.033599	-0.382939	-0.364504	0.074898	-0.411094	-0.108967	0.717036	-0.492709	-0.073541	0.724487	-0.466829	-0.106748	0.679629	-0.498607	-0.066487	0.686345	-0.478791	-0.071027	0.442679	-0.484284	-0.094897	0.431435	-0.373484	-0.201603	0.442950	-0.517844	-0.191902	0.397895	-0.505711	-0.248112	0.434420	-0.519854	-0.240087	0.394933	-0.511130	-0.459892	0.390614	-0.506952	-0.456652	0.342161	-0.431973	-0.493333	0.288143	-0.578572	-0.513645	0.226814	-0.489936	-0.465453	0.193098	-0.561044	-0.509520	0.418376	-0.448973	-0.073568	1.351225	-0.089258	-0.044439	1.379549	-0.394460	
76	0.3750	-0.101545	0.873005	-0.187264	-0.066610	0.891527	-0.399659	-0.269371	0.934293	-0.276644	-0.246568	0.941991	-0.375048	-0.192383	0.679293	-0.163975	-0.137897	0.689331	-0.156826	-0.177265	0.635844	-0.170829	-0.126750	0.643255	-0.166908	-0.099051	0.435417	-0.242166	-0.089994	0.448071	-0.342443	-0.192106	0.328246	-0.249511	-0.144073	0.314189	-0.264747	-0.204807	0.289309	-0.261401	-0.160699	0.278836	-0.278181	-0.295724	0.091363	-0.352659	-0.270889	0.104701	-0.439428	-0.200044	0.028620	-0.328038	-0.177623	0.021047	-0.440661	-0.109555	0.033690	-0.383266	-0.364668	0.075766	-0.411033	-0.095355	0.718217	-0.490878	-0.060157	0.726296	-0.464632	-0.092377	0.680831	-0.496767	-0.052255	0.688256	-0.476567	-0.052465	0.444135	-0.481511	-0.077311	0.433131	-0.370705	-0.182489	0.443096	-0.516153	-0.172623	0.398132	-0.503686	-0.228867	0.434293	-0.518531	-0.220651	0.394868	-0.509535	-0.440188	0.388960	-0.507303	-0.437343	0.341263	-0.431876	-0.471562	0.285628	-0.578458	-0.492483	0.225013	-0.489578	-0.442810	0.191145	-0.559788	-0.490992	0.416758	-0.450133	-0.062750	1.352038	-0.088100	-0.034342	1.380238	-0.393426	
77	0.3800	-0.092071	0.873140	-0.186006	-0.057090	0.892046	-0.398373	-0.259855	0.934894	-0.275266	-0.237165	0.942461	-0.373726	-0.184600	0.679383	-0.163194	-0.129995	0.688812	-0.156127	-0.170047	0.635767	-0.170173	-0.119442	0.642551	-0.166311	-0.094745	0.434215	-0.242041	-0.085620	0.446905	-0.342285	-0.188975	0.328056	-0.249298	-0.141063	0.313480	-0.264662	-0.202102	0.289236	-0.261276	-0.158116	0.278304	-0.278156	-0.295512	0.091995	-0.352718	-0.270758	0.105396	-0.439475	-0.200347	0.028934	-0.328213	-0.178032	0.021242	-0.440867	-0.110059	0.033924	-0.383537	-0.364737	0.076558	-0.410951	-0.083239	0.719411	-0.489197	-0.048249	0.728049	-0.462630	-0.079581	0.682051	-0.495066	-0.039593	0.690112	-0.474529	-0.035919	0.445610	-0.478934	-0.061646	0.434828	-0.368130	-0.165447	0.443303	-0.514556	-0.155409	0.398427	-0.501794	-0.211701	0.434220	-0.517277	-0.203290	0.394853	-0.508033	-0.422583	0.387332	-0.507605	-0.420067	0.340369	-0.431752	-0.452037	0.283135	-0.578259	-0.473444	0.223237	-0.489121	-0.422419	0.189184	-0.558490	-0.474472	0.415175	-0.451201	-0.053107	1.352877	-0.087076	-0.025349	1.380941	-0.392503	
78	0.3850	-0.083713	0.873313	-0.184899	-0.048721	0.892591	-0.397239	-0.251469	0.935490	-0.274007	-0.228890	0.942958	-0.372512	-0.177789	0.679507	-0.162494	-0.123075	0.688380	-0.155506	-0.163753	0.635739	-0.169585	-0.113068	0.641948	-0.165777	-0.091118	0.433168	-0.241934	-0.081929	0.445881	-0.342149	-0.186349	0.327909	-0.249112	-0.138549	0.312894	-0.264573	-0.199833	0.289197	-0.261162	-0.155955	0.277878	-0.278115	-0.295274	0.092582	-0.352754	-0.270604	0.106059	-0.439485	-0.200550	0.029259	-0.328365	-0.178345	0.021510	-0.441032	-0.110481	0.034254	-0.383757	-0.364726	0.077273	-0.410857	-0.072604	0.720580	-0.487678	-0.037800	0.729710	-0.460835	-0.068345	0.683248	-0.493520	-0.028483	0.691871	-0.472688	-0.021374	0.447057	-0.476580	-0.047884	0.436476	-0.365782	-0.150466	0.443552	-0.513077	-0.140256	0.398758	-0.500056	-0.196605	0.434189	-0.516112	-0.188001	0.394876	-0.506646	-0.407078	0.385772	-0.507861	-0.404832	0.339506	-0.431611	-0.434777	0.280735	-0.578003	-0.456562	0.221534	-0.488602	-0.404324	0.187276	-0.557196	-0.459951	0.413666	-0.452166	-0.044628	1.353712	-0.086184	-0.017450	1.381635	-0.391691	
79	0.3900	-0.076450	0.873510	-0.183942	-0.041472	0.893136	-0.396253	-0.244188	0.936062	-0.272877	-0.221717	0.943459	-0.371417	-0.171916	0.679651	-0.161877	-0.117106	0.688025	-0.154960	-0.158345	0.635746	-0.169064	-0.107589	0.641440	-0.165307	-0.088110	0.432270	-0.241845	-0.078862	0.444994	-0.342033	-0.184181	0.327798	-0.248953	-0.136480	0.312419	-0.264483	-0.197957	0.289185	-0.261058	-0.154175	0.277545	-0.278064	-0.295020	0.093116	-0.352772	-0.270431	0.106677	-0.439468	-0.200670	0.029580	-0.328495	-0.178574	0.021821	-0.441163	-0.110824	0.034643	-0.383931	-0.364652	0.077910	-0.410758	-0.063408	0.721694	-0.486328	-0.028767	0.731249	-0.459251	-0.058627	0.684391	-0.492138	-0.018881	0.693503	-0.471055	-0.008782	0.448436	-0.474468	-0.035977	0.438034	-0.363681	-0.137497	0.443825	-0.511732	-0.127120	0.399106	-0.498490	-0.183530	0.434193	-0.515049	-0.174743	0.394928	-0.505389	-0.393632	0.384315	-0.508074	-0.391603	0.338695	-0.431460	-0.419759	0.278486	-0.577712	-0.441829	0.219941	-0.488055	-0.388521	0.185472	-0.555950	-0.447380	0.412262	-0.453023	-0.037286	1.354516	-0.085418	-0.010616	1.382300	-0.390987	
80	0.3950	-0.070242	0.873716	-0.183126	-0.035296	0.893663	-0.395412	-0.237971	0.936595	-0.271881	-0.215601	0.943943	-0.370447	-0.166934	0.679804	-0.161341	-0.112039	0.687738	-0.154490	-0.153773	0.635778	-0.168611	-0.102956	0.641018	-0.164899	-0.085658	0.431513	-0.241770	-0.076354	0.444240	-0.341936	-0.182421	0.327718	-0.248821	-0.134807	0.312041	-0.264397	-0.196432	0.289193	-0.260967	-0.152732	0.277291	-0.278006	-0.294762	0.093592	-0.352777	-0.270249	0.107239	-0.439433	-0.200724	0.029884	-0.328604	-0.178732	0.022148	-0.441264	-0.111096	0.035055	-0.384065	-0.364533	0.078468	-0.410659	-0.055587	0.722726	-0.485150	-0.021088	0.732642	-0.457879	-0.050361	0.685451	-0.490925	-0.010719	0.694981	-0.469632	0.001939	0.449715	-0.472609	-0.025846	0.439468	-0.361836	-0.126455	0.444104	-0.510534	-0.115922	0.399453	-0.497106	-0.172395	0.434222	-0.514100	-0.163438	0.394999	-0.504271	-0.382168	0.382989	-0.508248	-0.380309	0.337952	-0.431308	-0.406914	0.276432	-0.577409	-0.429190	0.218489	-0.487509	-0.374957	0.183812	-0.554786	-0.436681	0.410988	-0.453769	-0.031031	1.355268	-0.084772	-0.004800	1.382920	-0.390388	
81	0.4000	-0.065031	0.873920	-0.182445	-0.030129	0.894154	-0.394707	-0.232757	0.937078	-0.271021	-0.210480	0.944394	-0.369606	-0.162783	0.679956	-0.160886	-0.107817	0.687511	-0.154091	-0.149978	0.635827	-0.168225	-0.099108	0.640673	-0.164553	-0.083694	0.430886	-0.241709	-0.074342	0.443611	-0.341856	-0.181019	0.327663	-0.248712	-0.133479	0.311746	-0.264316	-0.195215	0.289215	-0.260889	-0.151585	0.277103	-0.277947	-0.294510	0.094008	-0.352772	-0.270066	0.107737	-0.439387	-0.200729	0.030161	-0.328694	-0.178831	0.022470	-0.441338	-0.111305	0.035463	-0.384165	-0.364386	0.078949	-0.410566	-0.049058	0.723656	-0.484142	-0.014678	0.733873	-0.456712	-0.043458	0.686408	-0.489883	-0.003907	0.696289	-0.468416	0.010899	0.450867	-0.471006	-0.017383	0.440752	-0.360249	-0.117227	0.444376	-0.509489	-0.106552	0.399784	-0.495907	-0.163086	0.434266	-0.513271	-0.153976	0.395080	-0.503299	-0.372575	0.381813	-0.508386	-0.370846	0.337290	-0.431161	-0.396132	0.274605	-0.577110	-0.418553	0.217198	-0.486987	-0.363534	0.182328	-0.553730	-0.427741	0.409860	-0.454406	-0.025801	1.355950	-0.084236	0.000058	1.383482	-0.389886	
82	0.4050	-0.060746	0.874112	-0.181888	-0.025894	0.894596	-0.394129	-0.228474	0.937502	-0.270295	-0.206279	0.944801	-0.368894	-0.159395	0.680100	-0.160507	-0.104368	0.687335	-0.153761	-0.146889	0.635883	-0.167903	-0.095977	0.640398	-0.164265	-0.082154	0.430379	-0.241660	-0.072759	0.443097	-0.341791	-0.179924	0.327628	-0.248625	-0.132446	0.311523	-0.264243	-0.194263	0.289245	-0.260824	-0.150691	0.276968	-0.277890	-0.294273	0.094362	-0.352763	-0.269889	0.108168	-0.439335	-0.200700	0.030406	-0.328766	-0.178885	0.022771	-0.441392	-0.111460	0.035845	-0.384238	-0.364227	0.079354	-0.410482	-0.043716	0.724472	-0.483299	-0.009435	0.734934	-0.455742	-0.037810	0.687248	-0.489006	0.001663	0.697416	-0.467399	0.018235	0.451877	-0.469656	-0.010457	0.441872	-0.358914	-0.109673	0.444630	-0.508599	-0.098873	0.400087	-0.494893	-0.155463	0.434320	-0.512563	-0.146219	0.395164	-0.502473	-0.364712	0.380796	-0.508492	-0.363081	0.336715	-0.431025	-0.387270	0.273024	-0.576830	-0.409785	0.216081	-0.486508	-0.354115	0.181036	-0.552800	-0.420424	0.408887	-0.454936	-0.021515	1.356552	-0.083800	0.004035	1.383976	-0.389476	
