PathFileType	4	(X/Y/Z)	 P5 -65r2 03.trc
DataRate	CameraRate	NumFrames	NumMarkers	Units	OrigDataRate	OrigDataStartFrame	OrigNumFrames
200	200	83	38	m	200	1	83
Frame#	Time	RASIS			LASIS			RPSIS			LPSIS			RThighRear1			RThighFront1			RThighRear2			RThighFront2			RKneeLat			RKneeMed			RShankRear1			RShankFront1			RShankRear2			RShankFront2			RAnkleLat			RAnkleMed			RM5			RM1			RMid			RHeel			LThighRear1			LThighFront1			LThighRear2			LThighFront2			LKneeLat			LKneeMed			LShankRear1			LShankFront1			LShankRear2			LShankFront2			LAnkleLat			LAnkleMed			LM5			LM1			LMid			LHeel			RShoulder			LShoulder			
		X1	Y1	Z1	X2	Y2	Z2	X3	Y3	Z3	X4	Y4	Z4	X5	Y5	Z5	X6	Y6	Z6	X7	Y7	Z7	X8	Y8	Z8	X9	Y9	Z9	X10	Y10	Z10	X11	Y11	Z11	X12	Y12	Z12	X13	Y13	Z13	X14	Y14	Z14	X15	Y15	Z15	X16	Y16	Z16	X17	Y17	Z17	X18	Y18	Z18	X19	Y19	Z19	X20	Y20	Z20	X21	Y21	Z21	X22	Y22	Z22	X23	Y23	Z23	X24	Y24	Z24	X25	Y25	Z25	X26	Y26	Z26	X27	Y27	Z27	X28	Y28	Z28	X29	Y29	Z29	X30	Y30	Z30	X31	Y31	Z31	X32	Y32	Z32	X33	Y33	Z33	X34	Y34	Z34	X35	Y35	Z35	X36	Y36	Z36	X37	Y37	Z37	X38	Y38	Z38	
1	0.0000	-1.440519	0.881502	-0.259923	-1.452247	0.908452	-0.470570	-1.610910	0.956826	-0.311786	-1.615577	0.964193	-0.410701	-1.582523	0.700323	-0.194096	-1.531642	0.692872	-0.196121	-1.585017	0.653436	-0.194014	-1.536396	0.642754	-0.196857	-1.608135	0.423148	-0.231748	-1.606022	0.418823	-0.347205	-1.740897	0.444959	-0.222513	-1.732705	0.395908	-0.233689	-1.781133	0.436878	-0.226402	-1.772361	0.392476	-0.242330	-2.004241	0.415032	-0.275602	-1.994746	0.398136	-0.359974	-2.078686	0.300762	-0.254516	-2.069446	0.285075	-0.362347	-2.057842	0.218515	-0.311453	-2.034038	0.477704	-0.324100	-1.472631	0.753493	-0.545613	-1.434565	0.771827	-0.526296	-1.460175	0.716268	-0.546478	-1.419976	0.737540	-0.534778	-1.340146	0.508997	-0.513731	-1.344573	0.507532	-0.408465	-1.391418	0.377431	-0.534151	-1.346576	0.374625	-0.516470	-1.396684	0.329318	-0.527544	-1.356555	0.326463	-0.514079	-1.410185	0.109533	-0.478738	-1.392587	0.123378	-0.394304	-1.298723	0.037528	-0.486079	-1.285865	0.037626	-0.373154	-1.209806	0.053829	-0.426932	-1.470849	0.082658	-0.431098	-1.329968	1.360847	-0.245745	-1.364233	1.353885	-0.546863	
2	0.0050	-1.425559	0.878640	-0.260218	-1.437970	0.906205	-0.470940	-1.596440	0.953916	-0.311339	-1.601175	0.961857	-0.410299	-1.563379	0.697135	-0.193762	-1.512347	0.690979	-0.195662	-1.564452	0.650437	-0.193323	-1.515674	0.641024	-0.196239	-1.580795	0.420676	-0.230543	-1.578665	0.416470	-0.346414	-1.713016	0.442964	-0.221296	-1.705119	0.393697	-0.232798	-1.753304	0.435092	-0.225445	-1.744871	0.390686	-0.241284	-1.976808	0.415170	-0.274406	-1.967481	0.397812	-0.358743	-2.050359	0.300728	-0.252320	-2.041854	0.284295	-0.360005	-2.029449	0.218067	-0.308662	-2.007167	0.477649	-0.323209	-1.459742	0.749775	-0.545768	-1.421293	0.767821	-0.526804	-1.447768	0.712425	-0.546446	-1.407189	0.733255	-0.535156	-1.329568	0.503880	-0.513105	-1.334429	0.502873	-0.407789	-1.383400	0.373985	-0.533173	-1.338880	0.370038	-0.515366	-1.389986	0.326272	-0.526676	-1.350212	0.322417	-0.512846	-1.409950	0.108185	-0.477411	-1.392770	0.121715	-0.392719	-1.298769	0.037515	-0.486027	-1.286086	0.037247	-0.372753	-1.209984	0.053414	-0.426511	-1.471381	0.081157	-0.430242	-1.317008	1.359015	-0.245490	-1.348505	1.350532	-0.547281	
3	0.0100	-1.410410	0.875747	-0.260514	-1.423500	0.903933	-0.471318	-1.581788	0.950969	-0.310886	-1.586582	0.959498	-0.409892	-1.543943	0.693948	-0.193436	-1.492765	0.689118	-0.195216	-1.543563	0.647457	-0.192641	-1.494637	0.639346	-0.195640	-1.552983	0.418295	-0.229359	-1.550868	0.414213	-0.345650	-1.684690	0.440988	-0.220072	-1.677071	0.391507	-0.231911	-1.725039	0.433312	-0.224465	-1.716927	0.388898	-0.240239	-1.948996	0.415204	-0.273158	-1.939840	0.397408	-0.357466	-2.021590	0.300530	-0.250100	-2.013820	0.283375	-0.357643	-2.000563	0.217466	-0.305875	-1.979971	0.477493	-0.322240	-1.446690	0.746015	-0.545923	-1.407852	0.763762	-0.527309	-1.435208	0.708534	-0.546417	-1.394241	0.728909	-0.535533	-1.318893	0.498663	-0.512481	-1.324176	0.498110	-0.407123	-1.375315	0.370464	-0.532197	-1.331132	0.365364	-0.514259	-1.383234	0.323165	-0.525808	-1.343831	0.318296	-0.511607	-1.409732	0.106835	-0.476076	-1.392963	0.120053	-0.391126	-1.298817	0.037513	-0.485972	-1.286306	0.036877	-0.372359	-1.210167	0.053008	-0.426095	-1.471937	0.079641	-0.429374	-1.303861	1.357160	-0.245224	-1.332552	1.347142	-0.547693	
4	0.0150	-1.395087	0.872845	-0.260805	-1.408838	0.901648	-0.471702	-1.566963	0.948005	-0.310431	-1.571805	0.957135	-0.409482	-1.524227	0.690799	-0.193121	-1.472916	0.687333	-0.194791	-1.522365	0.644541	-0.191977	-1.473304	0.637766	-0.195071	-1.524712	0.416077	-0.228216	-1.522653	0.412125	-0.344928	-1.655936	0.439059	-0.218851	-1.648563	0.389371	-0.231041	-1.696355	0.431550	-0.223465	-1.688531	0.387129	-0.239205	-1.920817	0.415066	-0.271854	-1.911832	0.396869	-0.356142	-1.992353	0.300086	-0.247870	-1.985308	0.282250	-0.355277	-1.971136	0.216653	-0.303123	-1.952476	0.477156	-0.321179	-1.433493	0.742232	-0.546076	-1.394261	0.759666	-0.527806	-1.422512	0.704617	-0.546390	-1.381153	0.724519	-0.535905	-1.308173	0.493367	-0.511867	-1.313858	0.493256	-0.406476	-1.367206	0.366886	-0.531236	-1.323375	0.360623	-0.513163	-1.376466	0.320015	-0.524951	-1.337447	0.314121	-0.510374	-1.409534	0.105500	-0.474748	-1.393159	0.118413	-0.389540	-1.298867	0.037522	-0.485913	-1.286524	0.036517	-0.371977	-1.210355	0.052616	-0.425688	-1.472513	0.078128	-0.428502	-1.290534	1.355297	-0.244943	-1.316385	1.343741	-0.548088	
5	0.0200	-1.379596	0.869957	-0.261086	-1.393980	0.899361	-0.472085	-1.551970	0.945042	-0.309977	-1.556839	0.954783	-0.409072	-1.504235	0.687732	-0.192823	-1.452807	0.685667	-0.194394	-1.500862	0.641738	-0.191340	-1.451686	0.636335	-0.194543	-1.495985	0.414096	-0.227130	-1.494033	0.410281	-0.344264	-1.626763	0.437203	-0.217643	-1.619587	0.387325	-0.230198	-1.667256	0.429823	-0.222448	-1.659673	0.385398	-0.238193	-1.892265	0.414681	-0.270492	-1.883446	0.396134	-0.354772	-1.962605	0.299312	-0.245646	-1.956268	0.280850	-0.352925	-1.941100	0.215562	-0.300433	-1.924693	0.476554	-0.320013	-1.420160	0.738449	-0.546222	-1.380532	0.755548	-0.528289	-1.409696	0.700697	-0.546364	-1.367941	0.720102	-0.536266	-1.297457	0.488015	-0.511271	-1.303518	0.488324	-0.405858	-1.359115	0.363270	-0.530300	-1.315650	0.355842	-0.512090	-1.369717	0.316842	-0.524115	-1.331097	0.309917	-0.509160	-1.409357	0.104199	-0.473439	-1.393354	0.116818	-0.387980	-1.298920	0.037540	-0.485848	-1.286740	0.036168	-0.371611	-1.210548	0.052243	-0.425294	-1.473109	0.076639	-0.427636	-1.277029	1.353447	-0.244642	-1.300007	1.340354	-0.548455	
6	0.0250	-1.363938	0.867108	-0.261348	-1.378911	0.897085	-0.472463	-1.536804	0.942100	-0.309528	-1.541674	0.952459	-0.408667	-1.483965	0.684786	-0.192545	-1.432443	0.684163	-0.194030	-1.479054	0.639093	-0.190739	-1.429787	0.635104	-0.194066	-1.466801	0.412425	-0.226119	-1.465014	0.408756	-0.343671	-1.597171	0.435446	-0.216458	-1.590128	0.385402	-0.229392	-1.637740	0.428142	-0.221419	-1.630335	0.383723	-0.237215	-1.863321	0.413974	-0.269071	-1.854663	0.395140	-0.353358	-1.932290	0.298126	-0.243441	-1.926631	0.279105	-0.350605	-1.910371	0.214133	-0.297835	-1.896617	0.475596	-0.318733	-1.406696	0.734686	-0.546361	-1.366671	0.751422	-0.528753	-1.396767	0.696796	-0.546341	-1.354615	0.715674	-0.536613	-1.286794	0.482630	-0.510701	-1.293199	0.483332	-0.405280	-1.351083	0.359638	-0.529402	-1.308000	0.351045	-0.511054	-1.363019	0.313667	-0.523312	-1.324813	0.305709	-0.507982	-1.409202	0.102952	-0.472166	-1.393540	0.115289	-0.386463	-1.298977	0.037565	-0.485776	-1.286952	0.035831	-0.371268	-1.210747	0.051893	-0.424915	-1.473720	0.075198	-0.426785	-1.263342	1.351629	-0.244313	-1.283416	1.337007	-0.548780	
7	0.0300	-1.348105	0.864321	-0.261585	-1.363612	0.894831	-0.472828	-1.521454	0.939202	-0.309086	-1.526293	0.950184	-0.408268	-1.463414	0.682005	-0.192291	-1.411824	0.682866	-0.193706	-1.456937	0.636657	-0.190180	-1.407609	0.634121	-0.193649	-1.437159	0.411139	-0.225197	-1.435601	0.407622	-0.343163	-1.567158	0.433813	-0.215309	-1.560168	0.383636	-0.228634	-1.607799	0.426520	-0.220383	-1.600494	0.382122	-0.236279	-1.833958	0.412871	-0.267595	-1.825452	0.393823	-0.351904	-1.901339	0.296449	-0.241272	-1.896321	0.276947	-0.348336	-1.878860	0.212310	-0.295355	-1.868236	0.474191	-0.317335	-1.393102	0.730965	-0.546488	-1.352680	0.747305	-0.529190	-1.383731	0.692938	-0.546319	-1.341184	0.711252	-0.536942	-1.276231	0.477240	-0.510164	-1.282942	0.478296	-0.404749	-1.343148	0.356014	-0.528552	-1.300462	0.346262	-0.510069	-1.356408	0.310517	-0.522552	-1.318630	0.301525	-0.506851	-1.409069	0.101778	-0.470943	-1.393712	0.113847	-0.385007	-1.299040	0.037591	-0.485696	-1.287160	0.035504	-0.370951	-1.210952	0.051571	-0.424554	-1.474343	0.073826	-0.425958	-1.249465	1.349866	-0.243952	-1.266606	1.333730	-0.549052	
8	0.0350	-1.332090	0.861623	-0.261789	-1.348060	0.892611	-0.473174	-1.505907	0.936369	-0.308655	-1.510676	0.947974	-0.407879	-1.442575	0.679430	-0.192064	-1.390950	0.681819	-0.193426	-1.434508	0.634474	-0.189672	-1.385154	0.633435	-0.193298	-1.407061	0.410306	-0.224379	-1.405800	0.406947	-0.342749	-1.536721	0.432328	-0.214206	-1.529690	0.382058	-0.227934	-1.577427	0.424969	-0.219347	-1.570129	0.380612	-0.235396	-1.804142	0.411298	-0.266068	-1.795775	0.392121	-0.350418	-1.869683	0.294208	-0.239155	-1.865256	0.274315	-0.346136	-1.846472	0.210042	-0.293019	-1.839529	0.472248	-0.315816	-1.379376	0.727310	-0.546600	-1.338560	0.743212	-0.529597	-1.370590	0.689148	-0.546298	-1.327652	0.706855	-0.537249	-1.265813	0.471873	-0.509669	-1.272787	0.473241	-0.404274	-1.335348	0.352427	-0.527763	-1.293075	0.341526	-0.509149	-1.349912	0.307416	-0.521845	-1.312577	0.297394	-0.505783	-1.408957	0.100697	-0.469786	-1.393863	0.112513	-0.383631	-1.299109	0.037616	-0.485605	-1.287365	0.035187	-0.370664	-1.211162	0.051279	-0.424211	-1.474973	0.072548	-0.425166	-1.235390	1.348180	-0.243551	-1.249569	1.330551	-0.549257	
9	0.0400	-1.315878	0.859041	-0.261952	-1.332230	0.890438	-0.473491	-1.490144	0.933625	-0.308240	-1.494800	0.945849	-0.407505	-1.421444	0.677101	-0.191864	-1.369821	0.681064	-0.193193	-1.411767	0.632589	-0.189218	-1.362424	0.633091	-0.193019	-1.376516	0.409988	-0.223675	-1.375623	0.406793	-0.342439	-1.505865	0.431012	-0.213159	-1.498681	0.380700	-0.227302	-1.546620	0.423497	-0.218318	-1.539224	0.379209	-0.234576	-1.773839	0.409187	-0.264498	-1.765595	0.389974	-0.348907	-1.837248	0.291340	-0.237107	-1.833356	0.271152	-0.344025	-1.813115	0.207287	-0.290851	-1.810467	0.469682	-0.314182	-1.365512	0.723743	-0.546695	-1.324308	0.739160	-0.529968	-1.357346	0.685453	-0.546276	-1.314023	0.702501	-0.537531	-1.255585	0.466564	-0.509222	-1.262773	0.468190	-0.403863	-1.327719	0.348907	-0.527045	-1.285872	0.336873	-0.508306	-1.343564	0.304395	-0.521200	-1.306683	0.293351	-0.504792	-1.408861	0.099728	-0.468709	-1.393984	0.111307	-0.382352	-1.299185	0.037635	-0.485504	-1.287566	0.034876	-0.370409	-1.211377	0.051021	-0.423888	-1.475603	0.071389	-0.424421	-1.221106	1.346597	-0.243106	-1.232296	1.327500	-0.549382	
10	0.0450	-1.299458	0.856602	-0.262064	-1.316096	0.888326	-0.473771	-1.474149	0.930995	-0.307845	-1.478640	0.943828	-0.407148	-1.400022	0.675058	-0.191694	-1.348441	0.680636	-0.193007	-1.388717	0.631044	-0.188824	-1.339428	0.633128	-0.192816	-1.345543	0.410241	-0.223095	-1.345087	0.407215	-0.342236	-1.474597	0.429884	-0.212181	-1.467140	0.379588	-0.226744	-1.515379	0.422112	-0.217307	-1.507767	0.377928	-0.233826	-1.743013	0.406476	-0.262897	-1.734873	0.387326	-0.347385	-1.803967	0.287791	-0.235144	-1.800543	0.267412	-0.342021	-1.778705	0.204015	-0.288873	-1.781022	0.466410	-0.312441	-1.351506	0.720289	-0.546770	-1.309923	0.735165	-0.530298	-1.343996	0.681878	-0.546253	-1.300298	0.698211	-0.537783	-1.245586	0.461348	-0.508830	-1.252940	0.463175	-0.403522	-1.320294	0.345488	-0.526408	-1.278884	0.332341	-0.507553	-1.337388	0.301487	-0.520627	-1.300973	0.289431	-0.503891	-1.408776	0.098890	-0.467727	-1.394066	0.110249	-0.381189	-1.299269	0.037640	-0.485392	-1.287764	0.034570	-0.370190	-1.211598	0.050798	-0.423585	-1.476224	0.070375	-0.423734	-1.206605	1.345141	-0.242610	-1.214780	1.324610	-0.549416	
11	0.0500	-1.282816	0.854334	-0.262119	-1.299633	0.886285	-0.474004	-1.457902	0.928502	-0.307473	-1.462175	0.941930	-0.406812	-1.378311	0.673334	-0.191553	-1.326817	0.680569	-0.192871	-1.365369	0.629875	-0.188493	-1.316177	0.633580	-0.192689	-1.314174	0.411111	-0.222644	-1.314221	0.408254	-0.342145	-1.442938	0.428957	-0.211279	-1.435071	0.378744	-0.226269	-1.483715	0.420818	-0.216323	-1.475761	0.376781	-0.233155	-1.711631	0.403113	-0.261279	-1.703573	0.384129	-0.345866	-1.769776	0.283522	-0.233284	-1.766747	0.263058	-0.340144	-1.743167	0.200207	-0.287104	-1.751162	0.462358	-0.310608	-1.337353	0.716971	-0.546821	-1.295400	0.731248	-0.530583	-1.330541	0.678451	-0.546226	-1.286482	0.694006	-0.538003	-1.235855	0.456268	-0.508499	-1.243322	0.458231	-0.403255	-1.313102	0.342209	-0.525860	-1.272138	0.327973	-0.506903	-1.331410	0.298725	-0.520134	-1.295467	0.285674	-0.503093	-1.408695	0.098202	-0.466854	-1.394099	0.109356	-0.380157	-1.299362	0.037626	-0.485267	-1.287960	0.034264	-0.370008	-1.211825	0.050609	-0.423299	-1.476825	0.069534	-0.423117	-1.191881	1.343837	-0.242058	-1.197016	1.321910	-0.549347	
12	0.0550	-1.265942	0.852262	-0.262107	-1.282822	0.884331	-0.474181	-1.441388	0.926171	-0.307127	-1.445383	0.940173	-0.406499	-1.356323	0.671963	-0.191439	-1.304962	0.680889	-0.192780	-1.341739	0.629112	-0.188226	-1.292689	0.634476	-0.192637	-1.282452	0.412631	-0.222324	-1.283064	0.409944	-0.342163	-1.410916	0.428241	-0.210465	-1.402497	0.378188	-0.225881	-1.451647	0.419616	-0.215377	-1.443215	0.375780	-0.232568	-1.679665	0.399052	-0.259663	-1.671663	0.380341	-0.344368	-1.734623	0.278509	-0.231546	-1.731909	0.258068	-0.338411	-1.706441	0.195859	-0.285560	-1.720856	0.457462	-0.308704	-1.323046	0.713815	-0.546846	-1.280740	0.727426	-0.530819	-1.316980	0.675199	-0.546195	-1.272577	0.689910	-0.538187	-1.226426	0.451366	-0.508232	-1.233954	0.453396	-0.403065	-1.306168	0.339110	-0.525408	-1.265657	0.323813	-0.506364	-1.325649	0.296148	-0.519729	-1.290183	0.282120	-0.502410	-1.408606	0.097682	-0.466105	-1.394071	0.108646	-0.379274	-1.299464	0.037587	-0.485131	-1.288153	0.033955	-0.369863	-1.212055	0.050452	-0.423030	-1.477391	0.068892	-0.422584	-1.176929	1.342712	-0.241446	-1.179004	1.319431	-0.549164	
13	0.0600	-1.248827	0.850412	-0.262023	-1.265642	0.882476	-0.474293	-1.424593	0.924026	-0.306811	-1.428247	0.938575	-0.406214	-1.334073	0.670970	-0.191352	-1.282893	0.681618	-0.192733	-1.317851	0.628781	-0.188022	-1.268990	0.635833	-0.192658	-1.250435	0.414822	-0.222137	-1.251665	0.412303	-0.342288	-1.378572	0.427741	-0.209745	-1.369449	0.377933	-0.225584	-1.419206	0.418507	-0.214480	-1.410156	0.374932	-0.232071	-1.647092	0.394262	-0.258069	-1.639118	0.375931	-0.342908	-1.698469	0.272742	-0.229946	-1.695983	0.252433	-0.336842	-1.668485	0.190980	-0.284254	-1.690074	0.451672	-0.306754	-1.308582	0.710845	-0.546842	-1.265940	0.723721	-0.531002	-1.303312	0.672152	-0.546155	-1.258586	0.685948	-0.538333	-1.217326	0.446688	-0.508033	-1.224866	0.448715	-0.402951	-1.299514	0.336235	-0.525058	-1.259456	0.319909	-0.505947	-1.320120	0.293793	-0.519416	-1.285132	0.278813	-0.501853	-1.408496	0.097349	-0.465492	-1.393968	0.108135	-0.378555	-1.299575	0.037516	-0.484981	-1.288343	0.033642	-0.369755	-1.212290	0.050324	-0.422775	-1.477904	0.068478	-0.422145	-1.161749	1.341789	-0.240769	-1.160747	1.317203	-0.548857	
14	0.0650	-1.231462	0.848807	-0.261859	-1.248081	0.880733	-0.474330	-1.407504	0.922090	-0.306528	-1.410753	0.937154	-0.405957	-1.311584	0.670376	-0.191288	-1.260633	0.682768	-0.192725	-1.293737	0.628899	-0.187880	-1.245109	0.637661	-0.192745	-1.218194	0.417691	-0.222077	-1.220084	0.415337	-0.342513	-1.345955	0.427457	-0.209127	-1.335974	0.377985	-0.225380	-1.386432	0.417486	-0.213644	-1.376620	0.374241	-0.231667	-1.613896	0.388723	-0.256520	-1.605920	0.370876	-0.341509	-1.661284	0.266230	-0.228502	-1.658936	0.246158	-0.335453	-1.629273	0.185594	-0.283198	-1.658790	0.444947	-0.304788	-1.293958	0.708086	-0.546804	-1.251000	0.720154	-0.531130	-1.289536	0.669337	-0.546105	-1.244513	0.682144	-0.538436	-1.208577	0.442285	-0.507903	-1.216083	0.444236	-0.402914	-1.293154	0.333627	-0.524813	-1.253546	0.316311	-0.505656	-1.314834	0.291702	-0.519201	-1.280318	0.275796	-0.501431	-1.408347	0.097219	-0.465027	-1.393774	0.107838	-0.378013	-1.299694	0.037407	-0.484819	-1.288529	0.033321	-0.369682	-1.212526	0.050219	-0.422530	-1.478346	0.068321	-0.421814	-1.146341	1.341092	-0.240025	-1.142250	1.315255	-0.548417	
15	0.0700	-1.213845	0.847469	-0.261611	-1.230129	0.879115	-0.474283	-1.390113	0.920382	-0.306279	-1.392891	0.935924	-0.405730	-1.288883	0.670195	-0.191243	-1.238210	0.684344	-0.192750	-1.269434	0.629476	-0.187795	-1.221082	0.639962	-0.192891	-1.185812	0.421233	-0.222140	-1.188393	0.419035	-0.342825	-1.313126	0.427381	-0.208615	-1.302132	0.378346	-0.225268	-1.353374	0.416546	-0.212879	-1.342657	0.373710	-0.231357	-1.580068	0.382426	-0.255040	-1.572057	0.365166	-0.340193	-1.623055	0.258994	-0.227232	-1.620752	0.239266	-0.334262	-1.588801	0.179741	-0.282398	-1.626978	0.437265	-0.302840	-1.279171	0.705560	-0.546732	-1.235922	0.716747	-0.531198	-1.275653	0.666781	-0.546040	-1.230362	0.678525	-0.538495	-1.200194	0.438207	-0.507841	-1.207625	0.440008	-0.402947	-1.287095	0.331333	-0.524675	-1.247931	0.313067	-0.505498	-1.309792	0.289915	-0.519085	-1.275741	0.273116	-0.501150	-1.408137	0.097309	-0.464721	-1.393468	0.107769	-0.377660	-1.299819	0.037254	-0.484646	-1.288710	0.032991	-0.369644	-1.212761	0.050129	-0.422293	-1.478690	0.068452	-0.421604	-1.130713	1.340642	-0.239211	-1.123524	1.313611	-0.547838	
16	0.0750	-1.195973	0.846415	-0.261274	-1.211784	0.877634	-0.474146	-1.372416	0.918921	-0.306065	-1.374656	0.934898	-0.405533	-1.266005	0.670436	-0.191212	-1.215654	0.686344	-0.192800	-1.244987	0.630512	-0.187764	-1.196951	0.642727	-0.193086	-1.153381	0.425425	-0.222315	-1.156670	0.423374	-0.343214	-1.280155	0.427501	-0.208212	-1.267993	0.379011	-0.225248	-1.320091	0.415675	-0.212194	-1.308329	0.373336	-0.231142	-1.545604	0.375378	-0.253656	-1.537525	0.358803	-0.338981	-1.583782	0.251075	-0.226151	-1.581429	0.231792	-0.333282	-1.547082	0.173471	-0.281859	-1.594615	0.428616	-0.300945	-1.264218	0.703292	-0.546620	-1.220708	0.713522	-0.531205	-1.261660	0.664511	-0.545958	-1.216136	0.675117	-0.538505	-1.192184	0.434503	-0.507846	-1.199504	0.436086	-0.403046	-1.281337	0.329400	-0.524643	-1.242604	0.310228	-0.505473	-1.304992	0.288473	-0.519069	-1.271391	0.270816	-0.501015	-1.407843	0.097635	-0.464583	-1.393030	0.107942	-0.377505	-1.299948	0.037053	-0.484462	-1.288882	0.032654	-0.369637	-1.212995	0.050046	-0.422059	-1.478911	0.068899	-0.421526	-1.114873	1.340456	-0.238325	-1.104584	1.312296	-0.547114	
17	0.0800	-1.177849	0.845659	-0.260847	-1.193047	0.876301	-0.473912	-1.354411	0.917724	-0.305887	-1.356046	0.934090	-0.405366	-1.242987	0.671097	-0.191191	-1.193001	0.688755	-0.192866	-1.220442	0.632000	-0.187778	-1.172760	0.645936	-0.193318	-1.121002	0.430232	-0.222590	-1.125000	0.428317	-0.343662	-1.247117	0.427800	-0.207921	-1.233639	0.379970	-0.225315	-1.286649	0.414859	-0.211600	-1.273705	0.373113	-0.231018	-1.510507	0.367596	-0.252394	-1.502326	0.351798	-0.337896	-1.543478	0.242527	-0.225274	-1.540982	0.223786	-0.332528	-1.504149	0.166851	-0.281580	-1.561683	0.419008	-0.299141	-1.249099	0.701302	-0.546467	-1.205359	0.710501	-0.531149	-1.247558	0.662550	-0.545852	-1.201836	0.671947	-0.538463	-1.184543	0.431224	-0.507912	-1.191726	0.432523	-0.403201	-1.275872	0.327872	-0.524714	-1.237552	0.307842	-0.505581	-1.300422	0.287415	-0.519153	-1.267251	0.268941	-0.501030	-1.407436	0.098212	-0.464622	-1.392437	0.108368	-0.377558	-1.300077	0.036802	-0.484268	-1.289042	0.032312	-0.369660	-1.213222	0.049957	-0.421824	-1.478976	0.069694	-0.421592	-1.098831	1.340551	-0.237367	-1.085447	1.311329	-0.546242	
18	0.0850	-1.159476	0.845213	-0.260329	-1.173924	0.875127	-0.473576	-1.336099	0.916801	-0.305743	-1.337067	0.933507	-0.405225	-1.219869	0.672173	-0.191172	-1.170286	0.691558	-0.192941	-1.195852	0.633924	-0.187831	-1.148554	0.649561	-0.193576	-1.088779	0.435604	-0.222952	-1.093472	0.433813	-0.344152	-1.214092	0.428252	-0.207739	-1.199157	0.381203	-0.225464	-1.253117	0.414082	-0.211102	-1.238865	0.373033	-0.230983	-1.474788	0.359114	-0.251281	-1.466472	0.344177	-0.336961	-1.502169	0.233418	-0.224617	-1.499440	0.215312	-0.332010	-1.460053	0.159957	-0.281562	-1.528165	0.408464	-0.297466	-1.233811	0.699608	-0.546269	-1.189878	0.707705	-0.531025	-1.233342	0.660920	-0.545719	-1.187466	0.669041	-0.538365	-1.177259	0.428417	-0.508034	-1.184286	0.429373	-0.403402	-1.270684	0.326793	-0.524883	-1.232755	0.305954	-0.505819	-1.296061	0.286780	-0.519334	-1.263297	0.267530	-0.501193	-1.406886	0.099056	-0.464842	-1.391660	0.109058	-0.377823	-1.300201	0.036500	-0.484067	-1.289184	0.031970	-0.369709	-1.213441	0.049850	-0.421585	-1.478852	0.070865	-0.421812	-1.082599	1.340938	-0.236337	-1.066132	1.310726	-0.545217	
19	0.0900	-1.140862	0.845081	-0.259720	-1.154428	0.874121	-0.473135	-1.317487	0.916162	-0.305633	-1.317726	0.933157	-0.405110	-1.196692	0.673647	-0.191149	-1.147547	0.694725	-0.193013	-1.171267	0.636260	-0.187912	-1.124380	0.653566	-0.193844	-1.056819	0.441479	-0.223385	-1.062176	0.439799	-0.344665	-1.181163	0.428831	-0.207664	-1.164641	0.382688	-0.225687	-1.219569	0.413324	-0.210707	-1.203892	0.373083	-0.231031	-1.438461	0.349973	-0.250340	-1.429977	0.335977	-0.336195	-1.459896	0.223826	-0.224192	-1.456847	0.206448	-0.331740	-1.414862	0.152874	-0.281800	-1.494050	0.397023	-0.295958	-1.218353	0.698228	-0.546023	-1.174266	0.705154	-0.530833	-1.219009	0.659642	-0.545552	-1.173023	0.666421	-0.538208	-1.170308	0.426125	-0.508204	-1.177171	0.426687	-0.403636	-1.265744	0.326202	-0.525144	-1.228180	0.304604	-0.506180	-1.291883	0.286600	-0.519605	-1.259495	0.266621	-0.501503	-1.406157	0.100179	-0.465248	-1.390671	0.110025	-0.378304	-1.300316	0.036149	-0.483859	-1.289300	0.031638	-0.369782	-1.213646	0.049711	-0.421338	-1.478502	0.072443	-0.422196	-1.066193	1.341624	-0.235235	-1.046660	1.310498	-0.544040	
20	0.0950	-1.122014	0.845266	-0.259022	-1.134575	0.873291	-0.472587	-1.298583	0.915809	-0.305552	-1.298035	0.933043	-0.405015	-1.173500	0.675498	-0.191116	-1.124820	0.698219	-0.193072	-1.146741	0.638975	-0.188012	-1.100284	0.657903	-0.194109	-1.025227	0.447785	-0.223871	-1.031202	0.446201	-0.345179	-1.148412	0.429501	-0.207690	-1.130186	0.384396	-0.225975	-1.186080	0.412564	-0.210418	-1.168874	0.373247	-0.231155	-1.401548	0.340229	-0.249597	-1.392864	0.327245	-0.335616	-1.416708	0.213841	-0.224009	-1.413260	0.197280	-0.331724	-1.368659	0.145694	-0.282286	-1.459328	0.384739	-0.294653	-1.202722	0.697175	-0.545725	-1.158523	0.702867	-0.530570	-1.204554	0.658729	-0.545347	-1.158506	0.664110	-0.537986	-1.163656	0.424387	-0.508411	-1.170357	0.424514	-0.403889	-1.261019	0.326134	-0.525486	-1.223788	0.303829	-0.506655	-1.287851	0.286907	-0.519963	-1.255807	0.266247	-0.501954	-1.405214	0.101595	-0.465842	-1.389440	0.111276	-0.379000	-1.300413	0.035754	-0.483648	-1.289382	0.031325	-0.369874	-1.213834	0.049527	-0.421080	-1.477886	0.074455	-0.422751	-1.049626	1.342611	-0.234063	-1.027053	1.310653	-0.542712	
21	0.1000	-1.102943	0.845763	-0.258241	-1.114385	0.872643	-0.471933	-1.279397	0.915744	-0.305499	-1.278010	0.933166	-0.404935	-1.150334	0.677695	-0.191066	-1.102139	0.701999	-0.193108	-1.122324	0.642028	-0.188119	-1.076310	0.662521	-0.194356	-0.994104	0.454438	-0.224393	-1.000636	0.452936	-0.345673	-1.115920	0.430226	-0.207811	-1.095891	0.386293	-0.226318	-1.152724	0.411777	-0.210237	-1.133900	0.373506	-0.231347	-1.364072	0.329946	-0.249070	-1.355162	0.318039	-0.335240	-1.372668	0.203559	-0.224078	-1.368749	0.187902	-0.331967	-1.321541	0.138515	-0.283014	-1.423996	0.371682	-0.293584	-1.186916	0.696459	-0.545374	-1.142650	0.700860	-0.530235	-1.189967	0.658193	-0.545098	-1.143909	0.662128	-0.537695	-1.157258	0.423233	-0.508644	-1.163810	0.422895	-0.404145	-1.256463	0.326618	-0.525899	-1.219532	0.303656	-0.507234	-1.283920	0.287726	-0.520397	-1.252183	0.266433	-0.502539	-1.404018	0.103316	-0.466624	-1.387934	0.112822	-0.379909	-1.300485	0.035325	-0.483436	-1.289420	0.031046	-0.369985	-1.213999	0.049282	-0.420810	-1.476963	0.076929	-0.423484	-1.032912	1.343897	-0.232823	-1.007334	1.311192	-0.541236	
22	0.1050	-1.083661	0.846564	-0.257380	-1.093882	0.872182	-0.471173	-1.259944	0.915960	-0.305467	-1.257670	0.933523	-0.404865	-1.127233	0.680204	-0.190991	-1.079538	0.706016	-0.193112	-1.098064	0.645373	-0.188224	-1.052498	0.667359	-0.194570	-0.963545	0.461350	-0.224932	-0.970559	0.459915	-0.346126	-1.083763	0.430967	-0.208018	-1.061848	0.388342	-0.226704	-1.119572	0.410939	-0.210161	-1.099057	0.373841	-0.231598	-1.326066	0.319199	-0.248778	-1.316904	0.308425	-0.335079	-1.327848	0.193080	-0.224406	-1.323395	0.178417	-0.332473	-1.273616	0.131434	-0.283973	-1.388054	0.357934	-0.292779	-1.170930	0.696086	-0.544966	-1.126645	0.699146	-0.529825	-1.175241	0.658041	-0.544798	-1.129225	0.660488	-0.537332	-1.151060	0.422686	-0.508891	-1.157487	0.421867	-0.404388	-1.252022	0.327676	-0.526370	-1.215357	0.304108	-0.507903	-1.280039	0.289075	-0.520898	-1.248571	0.267200	-0.503247	-1.402529	0.105355	-0.467591	-1.386119	0.114672	-0.381026	-1.300522	0.034875	-0.483227	-1.289402	0.030821	-0.370112	-1.214137	0.048965	-0.420527	-1.475690	0.079890	-0.424398	-1.016067	1.345475	-0.231516	-0.987524	1.312111	-0.539614	
23	0.1100	-1.064182	0.847655	-0.256447	-1.073092	0.871909	-0.470313	-1.240239	0.916449	-0.305452	-1.237037	0.934109	-0.404798	-1.104234	0.682982	-0.190886	-1.057044	0.710216	-0.193072	-1.074003	0.648958	-0.188314	-1.028884	0.672355	-0.194736	-0.933636	0.468423	-0.225469	-0.941043	0.467044	-0.346517	-1.052013	0.431681	-0.208300	-1.028148	0.390502	-0.227123	-1.086692	0.410025	-0.210189	-1.064431	0.374227	-0.231896	-1.287565	0.308067	-0.248735	-1.278131	0.298479	-0.335143	-1.282328	0.182509	-0.224999	-1.277290	0.168928	-0.333244	-1.225005	0.124549	-0.285153	-1.351509	0.343587	-0.292264	-1.154760	0.696056	-0.544498	-1.110504	0.697736	-0.529338	-1.160363	0.658273	-0.544442	-1.114443	0.659202	-0.536891	-1.144997	0.422760	-0.509138	-1.151333	0.421455	-0.404603	-1.247636	0.329321	-0.526886	-1.211200	0.305195	-0.508646	-1.276149	0.290967	-0.521455	-1.244909	0.268560	-0.504065	-1.400708	0.107722	-0.468739	-1.383963	0.116832	-0.382342	-1.300513	0.034421	-0.483025	-1.289315	0.030671	-0.370254	-1.214243	0.048564	-0.420232	-1.474025	0.083360	-0.425495	-0.999101	1.347331	-0.230147	-0.967644	1.313401	-0.537854	
24	0.1150	-1.044521	0.849019	-0.255449	-1.052044	0.871825	-0.469358	-1.220301	0.917197	-0.305447	-1.216135	0.934916	-0.404725	-1.081372	0.685983	-0.190744	-1.034684	0.714541	-0.192979	-1.050182	0.652726	-0.188379	-1.005500	0.677441	-0.194841	-0.904450	0.475561	-0.225987	-0.912152	0.474226	-0.346828	-1.020731	0.432326	-0.208648	-0.994876	0.392729	-0.227560	-1.054147	0.409011	-0.210316	-1.030102	0.374642	-0.232232	-1.248608	0.296637	-0.248951	-1.238887	0.288280	-0.335436	-1.236197	0.171948	-0.225859	-1.230536	0.159542	-0.334276	-1.175834	0.117955	-0.286541	-1.314377	0.328746	-0.292057	-1.138399	0.696367	-0.543968	-1.094222	0.696635	-0.528774	-1.145319	0.658885	-0.544024	-1.099550	0.658277	-0.536369	-1.138996	0.423458	-0.509373	-1.145285	0.421676	-0.404772	-1.243236	0.331560	-0.527432	-1.206993	0.306919	-0.509445	-1.272185	0.293406	-0.522058	-1.241134	0.270515	-0.504979	-1.398515	0.110428	-0.470059	-1.381432	0.119311	-0.383847	-1.300447	0.033987	-0.482835	-1.289145	0.030622	-0.370410	-1.214310	0.048069	-0.419928	-1.471925	0.087361	-0.426773	-0.982028	1.349449	-0.228718	-0.947713	1.315049	-0.535963	
25	0.1200	-1.024691	0.850634	-0.254394	-1.030770	0.871928	-0.468314	-1.200150	0.918186	-0.305447	-1.194991	0.935930	-0.404641	-1.058676	0.689157	-0.190560	-1.012478	0.718934	-0.192826	-1.026633	0.656619	-0.188407	-0.982372	0.682549	-0.194871	-0.876048	0.482665	-0.226470	-0.883938	0.481365	-0.347040	-0.989973	0.432861	-0.209048	-0.962107	0.394981	-0.228005	-1.021991	0.407874	-0.210535	-0.996146	0.375061	-0.232594	-1.209244	0.285000	-0.249431	-1.199225	0.277913	-0.335960	-1.189554	0.161497	-0.226987	-1.183243	0.150361	-0.335566	-1.126239	0.111740	-0.288125	-1.276678	0.313522	-0.292172	-1.121841	0.697010	-0.543376	-1.077794	0.695845	-0.528130	-1.130095	0.659865	-0.543540	-1.084531	0.657712	-0.535761	-1.132979	0.424771	-0.509581	-1.139271	0.422535	-0.404881	-1.238747	0.334386	-0.527994	-1.202665	0.309272	-0.510284	-1.268079	0.296388	-0.522691	-1.237178	0.273059	-0.505972	-1.395912	0.113481	-0.471543	-1.378494	0.122114	-0.385526	-1.300309	0.033600	-0.482663	-1.288874	0.030702	-0.370582	-1.214333	0.047476	-0.419620	-1.469348	0.091908	-0.428229	-0.964856	1.351805	-0.227232	-0.927751	1.317034	-0.533948	
26	0.1250	-1.004711	0.852474	-0.253291	-1.009299	0.872214	-0.467189	-1.179806	0.919394	-0.305445	-1.173632	0.937138	-0.404538	-1.036170	0.692452	-0.190328	-0.990445	0.723332	-0.192604	-1.003383	0.660575	-0.188389	-0.959520	0.687608	-0.194817	-0.848479	0.489638	-0.226901	-0.856444	0.488366	-0.347139	-0.959786	0.433247	-0.209488	-0.929911	0.397214	-0.228445	-0.990275	0.406592	-0.210839	-0.962630	0.375459	-0.232972	-1.169523	0.273246	-0.250178	-1.159202	0.267467	-0.336713	-1.142504	0.151251	-0.228382	-1.135529	0.141486	-0.337108	-1.076360	0.105981	-0.289893	-1.238444	0.298031	-0.292617	-1.105079	0.697970	-0.542718	-1.061210	0.695363	-0.527407	-1.114674	0.661197	-0.542985	-1.069368	0.657503	-0.535066	-1.126859	0.426679	-0.509749	-1.133214	0.424023	-0.404917	-1.234092	0.337786	-0.528556	-1.198139	0.312234	-0.511142	-1.263758	0.299901	-0.523344	-1.232972	0.276177	-0.507026	-1.392864	0.116892	-0.473177	-1.375119	0.125246	-0.387364	-1.300084	0.033294	-0.482514	-1.288485	0.030944	-0.370772	-1.214305	0.046785	-0.419315	-1.466256	0.097015	-0.429855	-0.947593	1.354373	-0.225692	-0.907772	1.319332	-0.531819	
27	0.1300	-0.984597	0.854510	-0.252149	-0.987667	0.872675	-0.465992	-1.159292	0.920796	-0.305434	-1.152090	0.938522	-0.404408	-1.013875	0.695813	-0.190044	-0.968596	0.727676	-0.192307	-0.980453	0.664533	-0.188315	-0.936959	0.692552	-0.194667	-0.821775	0.496387	-0.227268	-0.829698	0.495139	-0.347111	-0.930207	0.433447	-0.209958	-0.898344	0.399384	-0.228869	-0.959042	0.405146	-0.211217	-0.929617	0.375813	-0.233354	-1.129507	0.261468	-0.251189	-1.118883	0.257029	-0.337689	-1.095159	0.141299	-0.230040	-1.087520	0.133009	-0.338894	-1.026342	0.100748	-0.291833	-1.199719	0.282396	-0.293394	-1.088105	0.699227	-0.541995	-1.044463	0.695180	-0.526605	-1.099040	0.662857	-0.542357	-1.054041	0.657638	-0.534280	-1.120546	0.429147	-0.509864	-1.127028	0.426120	-0.404866	-1.229187	0.341733	-0.529104	-1.193339	0.315774	-0.512001	-1.259146	0.303925	-0.524003	-1.228444	0.279843	-0.508122	-1.389336	0.120666	-0.474947	-1.371280	0.128713	-0.389341	-1.299756	0.033106	-0.482397	-1.287961	0.031383	-0.370982	-1.214219	0.045999	-0.419022	-1.462610	0.102691	-0.431641	-0.930244	1.357121	-0.224103	-0.887793	1.321916	-0.529587	
28	0.1350	-0.964366	0.856711	-0.250977	-0.965904	0.873303	-0.464734	-1.138633	0.922364	-0.305410	-1.130393	0.940061	-0.404244	-0.991807	0.699187	-0.189704	-0.946941	0.731908	-0.191930	-0.957859	0.668432	-0.188179	-0.914700	0.697315	-0.194414	-0.795955	0.502826	-0.227559	-0.803717	0.501601	-0.346947	-0.901262	0.433427	-0.210445	-0.867457	0.401450	-0.229266	-0.928327	0.403522	-0.211661	-0.897159	0.376099	-0.233730	-1.089261	0.249756	-0.252457	-1.078342	0.246687	-0.338878	-1.047639	0.131718	-0.231955	-1.039349	0.125013	-0.340914	-0.976334	0.096094	-0.293932	-1.160555	0.266739	-0.294498	-1.070912	0.700758	-0.541207	-1.027544	0.695283	-0.525724	-1.083175	0.664815	-0.541651	-1.038531	0.658099	-0.533402	-1.113950	0.432132	-0.509917	-1.120625	0.428790	-0.404721	-1.223950	0.346193	-0.529624	-1.188188	0.319850	-0.512843	-1.254169	0.308430	-0.524654	-1.223526	0.284024	-0.509241	-1.385298	0.124812	-0.476836	-1.366950	0.132517	-0.391436	-1.299307	0.033081	-0.482320	-1.287281	0.032056	-0.371219	-1.214069	0.045131	-0.418754	-1.458376	0.108940	-0.433572	-0.912815	1.360014	-0.222466	-0.867825	1.324752	-0.527263	
29	0.1400	-0.944036	0.859043	-0.249783	-0.944044	0.874085	-0.463424	-1.117851	0.924068	-0.305365	-1.108574	0.941732	-0.404042	-0.969980	0.702519	-0.189307	-0.925486	0.735971	-0.191467	-0.935609	0.672214	-0.187973	-0.892745	0.701838	-0.194053	-0.771023	0.508877	-0.227766	-0.778507	0.507677	-0.346642	-0.872973	0.433159	-0.210939	-0.837286	0.403375	-0.229627	-0.898160	0.401707	-0.212160	-0.865303	0.376296	-0.234093	-1.048861	0.238198	-0.253972	-1.037657	0.236526	-0.340270	-1.000069	0.122579	-0.234119	-0.991155	0.117568	-0.343156	-0.926487	0.092061	-0.296178	-1.121019	0.251181	-0.295921	-1.053493	0.702532	-0.540355	-1.010441	0.695653	-0.524765	-1.067063	0.667035	-0.540868	-1.022815	0.658862	-0.532434	-1.106976	0.435575	-0.509897	-1.113913	0.431985	-0.404473	-1.218296	0.351121	-0.530103	-1.182609	0.324411	-0.513650	-1.248750	0.313378	-0.525286	-1.218150	0.288676	-0.510363	-1.380724	0.129335	-0.478827	-1.362109	0.136661	-0.393628	-1.298715	0.033265	-0.482291	-1.286424	0.033002	-0.371489	-1.213844	0.044198	-0.418525	-1.453525	0.115763	-0.435631	-0.895308	1.363016	-0.220785	-0.847881	1.327806	-0.524860	
30	0.1450	-0.923625	0.861473	-0.248575	-0.922118	0.875008	-0.462072	-1.096973	0.925875	-0.305295	-1.086664	0.943511	-0.403797	-0.948399	0.705759	-0.188850	-0.904232	0.739815	-0.190917	-0.913708	0.675825	-0.187691	-0.871097	0.706064	-0.193577	-0.746970	0.514471	-0.227880	-0.754060	0.513300	-0.346191	-0.845349	0.432622	-0.211431	-0.807860	0.405123	-0.229946	-0.868564	0.399693	-0.212705	-0.834087	0.376386	-0.234435	-1.008390	0.226875	-0.255720	-0.996916	0.226624	-0.341849	-0.952584	0.113936	-0.236521	-0.943082	0.110734	-0.345607	-0.876953	0.088673	-0.298562	-1.081190	0.235840	-0.297649	-1.035842	0.704513	-0.539439	-0.993145	0.696266	-0.523731	-1.050687	0.669475	-0.540006	-1.006873	0.659895	-0.531375	-1.099535	0.439409	-0.509799	-1.106802	0.435642	-0.404120	-1.212144	0.356462	-0.530532	-1.176528	0.329396	-0.514407	-1.242818	0.318725	-0.525888	-1.212250	0.293747	-0.511471	-1.375591	0.134241	-0.480897	-1.356738	0.141145	-0.395892	-1.297958	0.033712	-0.482321	-1.285368	0.034258	-0.371799	-1.213534	0.043225	-0.418354	-1.448030	0.123155	-0.437798	-0.877723	1.366085	-0.219063	-0.827970	1.331037	-0.522389	
31	0.1500	-0.903153	0.863965	-0.247360	-0.900157	0.876055	-0.460690	-1.076023	0.927753	-0.305197	-1.064696	0.945369	-0.403506	-0.927070	0.708858	-0.188333	-0.883180	0.743392	-0.190278	-0.892153	0.679214	-0.187332	-0.849750	0.709946	-0.192987	-0.723774	0.519549	-0.227899	-0.730360	0.518416	-0.345595	-0.818394	0.431798	-0.211915	-0.779199	0.406663	-0.230216	-0.839558	0.397477	-0.213286	-0.803542	0.376350	-0.234749	-0.967939	0.215864	-0.257684	-0.956217	0.217054	-0.343599	-0.905323	0.105836	-0.239151	-0.895280	0.104555	-0.348251	-0.827887	0.085938	-0.301072	-1.041162	0.220830	-0.299664	-1.017955	0.706661	-0.538463	-0.975646	0.697094	-0.522626	-1.034033	0.672088	-0.539068	-0.990684	0.661164	-0.530230	-1.091539	0.443555	-0.509617	-1.099199	0.439689	-0.403662	-1.205413	0.362155	-0.530899	-1.169876	0.334735	-0.515100	-1.236302	0.324419	-0.526449	-1.205767	0.299179	-0.512546	-1.369879	0.139533	-0.483026	-1.350820	0.145969	-0.398204	-1.297011	0.034476	-0.482421	-1.284090	0.035866	-0.372161	-1.213128	0.042245	-0.418258	-1.441867	0.131106	-0.440049	-0.860061	1.369180	-0.217301	-0.808101	1.334406	-0.519863	
32	0.1550	-0.882636	0.866486	-0.246144	-0.878190	0.877208	-0.459286	-1.055027	0.929668	-0.305066	-1.042700	0.947279	-0.403166	-0.905993	0.711773	-0.187755	-0.862328	0.746662	-0.189550	-0.870941	0.682337	-0.186892	-0.828698	0.713440	-0.192281	-0.701401	0.524064	-0.227822	-0.707380	0.522981	-0.344860	-0.792105	0.430677	-0.212383	-0.751311	0.407969	-0.230435	-0.811154	0.395059	-0.213897	-0.773692	0.376174	-0.235033	-0.927610	0.205233	-0.259846	-0.915662	0.207883	-0.345503	-0.858429	0.098309	-0.241994	-0.847901	0.099057	-0.351074	-0.779441	0.083847	-0.303700	-1.001041	0.206258	-0.301946	-0.999827	0.708933	-0.537431	-0.957935	0.698102	-0.521454	-1.017088	0.674823	-0.538057	-0.974227	0.662627	-0.529004	-1.082903	0.447927	-0.509350	-1.091016	0.444039	-0.403100	-1.198029	0.368129	-0.531199	-1.162588	0.340352	-0.515717	-1.229136	0.330403	-0.526960	-1.198644	0.304907	-0.513573	-1.363572	0.145215	-0.485191	-1.344345	0.151129	-0.400539	-1.295846	0.035615	-0.482602	-1.282565	0.037862	-0.372585	-1.212610	0.041298	-0.418262	-1.435018	0.139603	-0.442357	-0.842322	1.372258	-0.215502	-0.788282	1.337869	-0.517295	
33	0.1600	-0.862094	0.869000	-0.244932	-0.856247	0.878446	-0.457871	-1.034010	0.931586	-0.304902	-1.020708	0.949209	-0.402777	-0.885168	0.714463	-0.187119	-0.841669	0.749590	-0.188733	-0.850061	0.685155	-0.186371	-0.807931	0.716515	-0.191463	-0.679809	0.527982	-0.227648	-0.685086	0.526963	-0.343991	-0.766473	0.429255	-0.212834	-0.724200	0.409018	-0.230600	-0.783362	0.392445	-0.214528	-0.744555	0.375847	-0.235284	-0.887513	0.195041	-0.262186	-0.875364	0.199165	-0.347543	-0.812052	0.091374	-0.245034	-0.801102	0.094254	-0.354058	-0.731768	0.082377	-0.306436	-0.960945	0.192219	-0.304470	-0.981457	0.711282	-0.536347	-0.940004	0.699254	-0.520221	-0.999840	0.677625	-0.536977	-0.957484	0.664237	-0.527703	-1.073550	0.452430	-0.508998	-1.082168	0.448597	-0.402443	-1.189920	0.374311	-0.531425	-1.154603	0.346166	-0.516250	-1.221259	0.336614	-0.527414	-1.190832	0.310862	-0.514536	-1.356657	0.151288	-0.487367	-1.337301	0.156623	-0.402871	-1.294431	0.037188	-0.482878	-1.280766	0.040284	-0.373083	-1.211962	0.040432	-0.418389	-1.427466	0.148626	-0.444694	-0.824504	1.375276	-0.213667	-0.768520	1.341385	-0.514698	
34	0.1650	-0.841545	0.871476	-0.243729	-0.834351	0.879747	-0.456453	-1.012997	0.933474	-0.304703	-0.998750	0.951130	-0.402342	-0.864588	0.716894	-0.186425	-0.821200	0.752148	-0.187830	-0.829501	0.687635	-0.185771	-0.787436	0.719143	-0.190535	-0.658946	0.531280	-0.227382	-0.663437	0.530343	-0.342999	-0.741487	0.427534	-0.213265	-0.697860	0.409794	-0.230713	-0.756188	0.389644	-0.215177	-0.716146	0.375357	-0.235502	-0.847763	0.185339	-0.264682	-0.835440	0.190947	-0.349702	-0.766346	0.085037	-0.248254	-0.755040	0.090139	-0.357186	-0.685018	0.081486	-0.309273	-0.921006	0.178801	-0.307212	-0.962844	0.713657	-0.535215	-0.921846	0.700510	-0.518935	-0.982282	0.680436	-0.535833	-0.940439	0.665946	-0.526335	-1.063410	0.456968	-0.508567	-1.072576	0.453262	-0.401699	-1.181022	0.380622	-0.531576	-1.145867	0.352090	-0.516694	-1.212615	0.342988	-0.527805	-1.182284	0.316971	-0.515424	-1.349123	0.157752	-0.489531	-1.329680	0.162443	-0.405175	-1.292730	0.039253	-0.483260	-1.278663	0.043164	-0.373671	-1.211161	0.039702	-0.418664	-1.419197	0.158151	-0.447028	-0.806606	1.378192	-0.211798	-0.748820	1.344908	-0.512084	
35	0.1700	-0.821006	0.873882	-0.242537	-0.812528	0.881088	-0.455039	-0.992011	0.935300	-0.304469	-0.976855	0.953010	-0.401862	-0.844249	0.719037	-0.185677	-0.800914	0.754316	-0.186846	-0.809246	0.689752	-0.185094	-0.767201	0.721306	-0.189505	-0.638756	0.533946	-0.227030	-0.642385	0.533110	-0.341898	-0.717129	0.425522	-0.213679	-0.672280	0.410283	-0.230778	-0.729639	0.386667	-0.215838	-0.688473	0.374699	-0.235690	-0.808487	0.176167	-0.267313	-0.796015	0.183264	-0.351962	-0.721467	0.079292	-0.251637	-0.709873	0.086693	-0.360441	-0.639338	0.081121	-0.312203	-0.881367	0.166079	-0.310146	-0.943989	0.716009	-0.534043	-0.903453	0.701826	-0.517602	-0.964406	0.683198	-0.534634	-0.923075	0.667700	-0.524911	-1.052420	0.461438	-0.508061	-1.062166	0.457928	-0.400880	-1.171276	0.386980	-0.531650	-1.136335	0.358039	-0.517046	-1.203155	0.349457	-0.528130	-1.172964	0.323161	-0.516229	-1.340960	0.164607	-0.491658	-1.321475	0.168582	-0.407428	-1.290704	0.041867	-0.483762	-1.276225	0.046532	-0.374361	-1.210181	0.039166	-0.419115	-1.410201	0.168152	-0.449327	-0.788628	1.380964	-0.209895	-0.729188	1.348397	-0.509465	
36	0.1750	-0.800494	0.876191	-0.241359	-0.790798	0.882444	-0.453637	-0.971076	0.937034	-0.304201	-0.955049	0.954817	-0.401342	-0.824141	0.720869	-0.184878	-0.780802	0.756080	-0.185784	-0.789280	0.691487	-0.184347	-0.747211	0.722996	-0.188381	-0.619175	0.535979	-0.226600	-0.621880	0.535268	-0.340703	-0.693383	0.423234	-0.214077	-0.647444	0.410476	-0.230799	-0.703715	0.383530	-0.216510	-0.661539	0.373866	-0.235854	-0.769813	0.167556	-0.270057	-0.757218	0.176138	-0.354308	-0.677571	0.074122	-0.255162	-0.665758	0.083879	-0.363805	-0.594871	0.081213	-0.315220	-0.842177	0.154114	-0.313245	-0.924894	0.718284	-0.532838	-0.884822	0.703158	-0.516233	-0.946207	0.685850	-0.533388	-0.905381	0.669447	-0.523441	-1.040525	0.465740	-0.507490	-1.050873	0.462483	-0.400001	-1.160633	0.393304	-0.531650	-1.125964	0.363925	-0.517305	-1.192834	0.355953	-0.528387	-1.162836	0.329357	-0.516942	-1.332160	0.171849	-0.493726	-1.312679	0.175029	-0.409609	-1.288309	0.045084	-0.484397	-1.273417	0.050415	-0.375171	-1.208988	0.038889	-0.419769	-1.400466	0.178595	-0.451556	-0.770566	1.383553	-0.207959	-0.709629	1.351810	-0.506851	
37	0.1800	-0.780024	0.878377	-0.240195	-0.769180	0.883791	-0.452252	-0.950211	0.938647	-0.303902	-0.933359	0.956520	-0.400787	-0.804256	0.722373	-0.184033	-0.760859	0.757433	-0.184651	-0.769585	0.692829	-0.183533	-0.727450	0.724211	-0.187172	-0.600139	0.537391	-0.226103	-0.601870	0.536828	-0.339433	-0.670227	0.420685	-0.214465	-0.623331	0.410370	-0.230785	-0.678420	0.380250	-0.217193	-0.635348	0.372854	-0.235999	-0.731877	0.159524	-0.272894	-0.719181	0.169582	-0.356725	-0.634815	0.069502	-0.258808	-0.622848	0.081648	-0.367259	-0.551756	0.081686	-0.318317	-0.803596	0.142954	-0.316486	-0.905564	0.720432	-0.531606	-0.865949	0.704461	-0.514837	-0.927683	0.688335	-0.532104	-0.887344	0.671133	-0.521939	-1.027680	0.469776	-0.506866	-1.038639	0.466820	-0.399079	-1.149046	0.399515	-0.531579	-1.114721	0.369665	-0.517477	-1.181615	0.362411	-0.528574	-1.151874	0.335488	-0.517560	-1.322713	0.179473	-0.495712	-1.303282	0.181772	-0.411695	-1.285495	0.048955	-0.485178	-1.270200	0.054830	-0.376114	-1.207543	0.038939	-0.420653	-1.389983	0.189446	-0.453684	-0.752423	1.385922	-0.205990	-0.690145	1.355106	-0.504253	
38	0.1850	-0.759611	0.880416	-0.239044	-0.747690	0.885103	-0.450888	-0.929437	0.940114	-0.303573	-0.911805	0.958087	-0.400204	-0.784583	0.723538	-0.183146	-0.741075	0.758373	-0.183454	-0.750140	0.693772	-0.182662	-0.707902	0.724954	-0.185890	-0.581582	0.538198	-0.225550	-0.582302	0.537812	-0.338106	-0.647643	0.417899	-0.214850	-0.599919	0.409964	-0.230746	-0.653754	0.376847	-0.217890	-0.609897	0.371662	-0.236134	-0.694816	0.152082	-0.275805	-0.682039	0.163597	-0.359201	-0.593352	0.065397	-0.262556	-0.581294	0.079939	-0.370788	-0.510123	0.082452	-0.321487	-0.765783	0.132634	-0.319843	-0.886001	0.722403	-0.530357	-0.846829	0.705692	-0.513425	-0.908833	0.690596	-0.530795	-0.868956	0.672705	-0.520417	-1.013849	0.473450	-0.506200	-1.025415	0.470831	-0.398131	-1.136480	0.405535	-0.531442	-1.102576	0.375178	-0.517565	-1.169464	0.368765	-0.528695	-1.140053	0.341485	-0.518082	-1.312605	0.187470	-0.497594	-1.293274	0.188796	-0.413669	-1.282205	0.053522	-0.486115	-1.266530	0.059791	-0.377207	-1.205798	0.039384	-0.421795	-1.378740	0.200664	-0.455675	-0.734195	1.388036	-0.203987	-0.670739	1.358248	-0.501681	
39	0.1900	-0.739266	0.882287	-0.237907	-0.726341	0.886354	-0.449549	-0.908769	0.941411	-0.303217	-0.890409	0.959491	-0.399601	-0.765109	0.724358	-0.182224	-0.721442	0.758906	-0.182202	-0.730927	0.694317	-0.181742	-0.688551	0.725237	-0.184548	-0.563439	0.538428	-0.224957	-0.563123	0.538247	-0.336745	-0.625610	0.414900	-0.215239	-0.577182	0.409259	-0.230693	-0.629719	0.373341	-0.218604	-0.585185	0.370289	-0.236272	-0.658767	0.145228	-0.278772	-0.645924	0.158173	-0.361727	-0.553332	0.061766	-0.266381	-0.541238	0.078679	-0.374373	-0.470096	0.083421	-0.324725	-0.728904	0.123175	-0.323296	-0.866212	0.724150	-0.529098	-0.827461	0.706807	-0.512006	-0.889657	0.692581	-0.529471	-0.850209	0.674113	-0.518890	-0.999002	0.476675	-0.505508	-1.011161	0.474417	-0.397176	-1.122902	0.411293	-0.531245	-1.089506	0.380390	-0.517579	-1.156355	0.374955	-0.528750	-1.127353	0.347284	-0.518509	-1.301822	0.195831	-0.499353	-1.282641	0.196084	-0.415516	-1.278380	0.058821	-0.487221	-1.262359	0.065305	-0.378465	-1.203698	0.040290	-0.423220	-1.366724	0.212209	-0.457498	-0.715885	1.389866	-0.201950	-0.651413	1.361199	-0.499142	
40	0.1950	-0.718999	0.883974	-0.236781	-0.705142	0.887521	-0.448238	-0.888221	0.942519	-0.302838	-0.869185	0.960703	-0.398984	-0.745822	0.724833	-0.181271	-0.701952	0.759041	-0.180903	-0.711924	0.694471	-0.180783	-0.669380	0.725076	-0.183158	-0.545644	0.538113	-0.224337	-0.544282	0.538167	-0.335371	-0.604110	0.411715	-0.215641	-0.555095	0.408261	-0.230639	-0.606315	0.369754	-0.219340	-0.561206	0.368735	-0.236425	-0.623865	0.138956	-0.281779	-0.610968	0.153291	-0.364295	-0.514897	0.058564	-0.270263	-0.502814	0.077790	-0.377999	-0.431790	0.084499	-0.328024	-0.693120	0.114583	-0.326825	-0.846198	0.725629	-0.527838	-0.807842	0.707768	-0.510592	-0.870155	0.694242	-0.528143	-0.831096	0.675312	-0.517371	-0.983120	0.479374	-0.504804	-0.995844	0.477486	-0.396232	-1.108288	0.416722	-0.530997	-1.075493	0.385233	-0.517527	-1.142263	0.380926	-0.528743	-1.113758	0.352827	-0.518844	-1.290345	0.204542	-0.500972	-1.271364	0.203615	-0.417221	-1.273950	0.064880	-0.488504	-1.257633	0.071371	-0.379901	-1.201181	0.041722	-0.424949	-1.353920	0.224034	-0.459123	-0.697491	1.391384	-0.199879	-0.632167	1.363929	-0.496642	
41	0.2000	-0.698819	0.885463	-0.235665	-0.684099	0.888579	-0.446955	-0.867803	0.943420	-0.302440	-0.848147	0.961697	-0.398361	-0.726707	0.724967	-0.180295	-0.682596	0.758793	-0.179566	-0.693110	0.694244	-0.179796	-0.650374	0.724494	-0.181737	-0.528139	0.537291	-0.223707	-0.525733	0.537611	-0.334007	-0.583123	0.408371	-0.216066	-0.533631	0.406977	-0.230601	-0.583544	0.366105	-0.220105	-0.537955	0.367001	-0.236607	-0.590242	0.133246	-0.284812	-0.577296	0.148921	-0.366901	-0.478180	0.055742	-0.274178	-0.466145	0.077187	-0.381649	-0.395306	0.085591	-0.331377	-0.658589	0.106851	-0.330411	-0.825965	0.726804	-0.526584	-0.787969	0.708539	-0.509191	-0.850328	0.695538	-0.526825	-0.811612	0.676260	-0.515873	-0.966188	0.481480	-0.504103	-0.979441	0.479956	-0.395315	-1.092618	0.421764	-0.530705	-1.060520	0.389651	-0.517421	-1.127170	0.386627	-0.528680	-1.099252	0.358063	-0.519093	-1.278149	0.213584	-0.502435	-1.259419	0.211366	-0.418774	-1.268843	0.071713	-0.489971	-1.252294	0.077978	-0.381528	-1.198172	0.043739	-0.427004	-1.340307	0.236092	-0.460523	-0.679013	1.392570	-0.197772	-0.613000	1.366408	-0.494188	
42	0.2050	-0.678731	0.886741	-0.234555	-0.663214	0.889506	-0.445700	-0.847523	0.944101	-0.302025	-0.827302	0.962451	-0.397740	-0.707751	0.724768	-0.179302	-0.663363	0.758179	-0.178203	-0.674466	0.693652	-0.178792	-0.631515	0.723514	-0.180300	-0.510866	0.536000	-0.223084	-0.507432	0.536619	-0.332675	-0.562634	0.404897	-0.216525	-0.512762	0.405415	-0.230593	-0.561406	0.362414	-0.220906	-0.515425	0.365087	-0.236832	-0.558020	0.128075	-0.287860	-0.545027	0.145029	-0.369541	-0.443301	0.053252	-0.278105	-0.431342	0.076783	-0.385307	-0.360737	0.086608	-0.334778	-0.625459	0.099962	-0.334039	-0.805514	0.727640	-0.525344	-0.767839	0.709090	-0.507814	-0.830175	0.696433	-0.525526	-0.791751	0.676922	-0.514409	-0.948201	0.482937	-0.503419	-0.961934	0.481760	-0.394441	-1.075877	0.426371	-0.530379	-1.044576	0.393596	-0.517271	-1.111059	0.392017	-0.528564	-1.083821	0.362950	-0.519262	-1.265205	0.222937	-0.503729	-1.246776	0.219312	-0.420168	-1.262977	0.079326	-0.491628	-1.246274	0.085111	-0.383356	-1.194590	0.046392	-0.429399	-1.325863	0.248332	-0.461673	-0.660451	1.393404	-0.195630	-0.593907	1.368613	-0.491783	
43	0.2100	-0.658737	0.887800	-0.233449	-0.642486	0.890283	-0.444471	-0.827383	0.944553	-0.301595	-0.806655	0.962946	-0.397128	-0.688938	0.724250	-0.178298	-0.644244	0.757222	-0.176825	-0.655970	0.692715	-0.177782	-0.612787	0.722165	-0.178861	-0.493774	0.534283	-0.222485	-0.489340	0.535235	-0.331397	-0.542627	0.401319	-0.217027	-0.492465	0.403586	-0.230631	-0.539903	0.358699	-0.221751	-0.493608	0.362997	-0.237118	-0.527314	0.123413	-0.290913	-0.514269	0.141573	-0.372215	-0.410367	0.051043	-0.282021	-0.398501	0.076492	-0.388961	-0.328159	0.087464	-0.338216	-0.593870	0.093886	-0.337697	-0.784844	0.728112	-0.524124	-0.747448	0.709395	-0.506466	-0.809696	0.696902	-0.524257	-0.771508	0.677271	-0.512989	-0.929155	0.483708	-0.502765	-0.943316	0.482844	-0.393624	-1.058054	0.430503	-0.530025	-1.027648	0.397029	-0.517089	-1.093914	0.397059	-0.528402	-1.067452	0.367452	-0.519359	-1.251476	0.232573	-0.504845	-1.233399	0.227424	-0.421398	-1.256267	0.087709	-0.493476	-1.239503	0.092743	-0.385393	-1.190343	0.049720	-0.432146	-1.310559	0.260701	-0.462553	-0.641803	1.393876	-0.193449	-0.574884	1.370523	-0.489430	
44	0.2150	-0.638836	0.888634	-0.232342	-0.621910	0.890892	-0.443268	-0.807384	0.944770	-0.301154	-0.786205	0.963166	-0.396531	-0.670252	0.723427	-0.177292	-0.625229	0.755942	-0.175441	-0.637603	0.691454	-0.176780	-0.594176	0.720476	-0.177438	-0.476818	0.532182	-0.221927	-0.471424	0.533501	-0.330196	-0.523089	0.397665	-0.217581	-0.472714	0.401501	-0.230734	-0.519034	0.354977	-0.222647	-0.472497	0.360732	-0.237480	-0.498228	0.119226	-0.293963	-0.485122	0.138507	-0.374923	-0.379471	0.049070	-0.285905	-0.367702	0.076231	-0.392594	-0.297634	0.088084	-0.341685	-0.563947	0.088584	-0.341372	-0.763953	0.728203	-0.522930	-0.726790	0.709437	-0.505153	-0.788886	0.696927	-0.523028	-0.750877	0.677287	-0.511622	-0.909054	0.483766	-0.502153	-0.923581	0.483174	-0.392872	-1.039140	0.434132	-0.529651	-1.009728	0.399927	-0.516886	-1.075722	0.401725	-0.528197	-1.050129	0.371544	-0.519391	-1.236920	0.242462	-0.505776	-1.219245	0.235672	-0.422461	-1.248622	0.096841	-0.495516	-1.231903	0.100839	-0.387644	-1.185331	0.053755	-0.435250	-1.294364	0.273147	-0.463149	-0.623068	1.393978	-0.191231	-0.555923	1.372124	-0.487130	
45	0.2200	-0.619025	0.889240	-0.231230	-0.601477	0.891318	-0.442085	-0.787519	0.944749	-0.300703	-0.765947	0.963098	-0.395953	-0.651678	0.722318	-0.176290	-0.606306	0.754366	-0.174062	-0.619346	0.689893	-0.175795	-0.575664	0.718476	-0.176044	-0.459959	0.529739	-0.221426	-0.453658	0.531459	-0.329090	-0.504009	0.393959	-0.218196	-0.453487	0.399171	-0.230915	-0.498799	0.351263	-0.223603	-0.452083	0.358296	-0.237933	-0.470848	0.115476	-0.297004	-0.457668	0.135782	-0.377668	-0.350684	0.047288	-0.289737	-0.339009	0.075922	-0.396196	-0.269211	0.088403	-0.345173	-0.535797	0.084009	-0.345055	-0.742836	0.727902	-0.521764	-0.705857	0.709204	-0.503879	-0.767740	0.696499	-0.521845	-0.729851	0.676961	-0.510314	-0.887902	0.483104	-0.501589	-0.902733	0.482730	-0.392192	-1.019128	0.437239	-0.529264	-0.990805	0.402275	-0.516669	-1.056472	0.405996	-0.527955	-1.031837	0.375211	-0.519366	-1.221491	0.252567	-0.506518	-1.204267	0.244020	-0.423359	-1.239946	0.106686	-0.497742	-1.223392	0.109357	-0.390109	-1.179447	0.058510	-0.438710	-1.277242	0.285612	-0.463450	-0.604241	1.393709	-0.188974	-0.537015	1.373403	-0.484883	
46	0.2250	-0.599297	0.889618	-0.230110	-0.581176	0.891548	-0.440920	-0.767780	0.944492	-0.300242	-0.745870	0.962738	-0.395397	-0.633198	0.720943	-0.175297	-0.587463	0.752517	-0.172699	-0.601179	0.688058	-0.174841	-0.557236	0.716197	-0.174694	-0.443167	0.526993	-0.220999	-0.436020	0.529149	-0.328098	-0.485377	0.390223	-0.218879	-0.434765	0.396609	-0.231192	-0.479197	0.347569	-0.224626	-0.432356	0.355690	-0.238492	-0.445249	0.112125	-0.300031	-0.431976	0.133351	-0.380451	-0.324060	0.045660	-0.293495	-0.312464	0.075496	-0.399752	-0.242917	0.088368	-0.348671	-0.509511	0.080108	-0.348738	-0.721484	0.727208	-0.520629	-0.684642	0.708694	-0.502643	-0.746251	0.695621	-0.520715	-0.708421	0.676291	-0.509067	-0.865708	0.481730	-0.501079	-0.880780	0.481511	-0.391586	-0.998014	0.439816	-0.528869	-0.970869	0.404072	-0.516446	-1.036150	0.409860	-0.527680	-1.012558	0.378445	-0.519292	-1.205135	0.262848	-0.507068	-1.188412	0.252434	-0.424092	-1.230141	0.117192	-0.500147	-1.213881	0.118247	-0.392787	-1.172575	0.063986	-0.442519	-1.259152	0.298040	-0.463452	-0.585320	1.393073	-0.186677	-0.518146	1.374357	-0.482687	
47	0.2300	-0.579643	0.889769	-0.228976	-0.560990	0.891577	-0.439766	-0.748155	0.944005	-0.299770	-0.725960	0.962082	-0.394866	-0.614795	0.719323	-0.174321	-0.568689	0.750420	-0.171362	-0.583085	0.685975	-0.173926	-0.538879	0.713668	-0.173402	-0.426415	0.523981	-0.220661	-0.418496	0.526608	-0.327238	-0.467184	0.386478	-0.219637	-0.416530	0.393829	-0.231578	-0.460227	0.343906	-0.225721	-0.413309	0.352921	-0.239171	-0.421483	0.109132	-0.303040	-0.408099	0.131164	-0.383276	-0.299632	0.044150	-0.297162	-0.288091	0.074894	-0.403251	-0.218767	0.087940	-0.352165	-0.485158	0.076824	-0.352412	-0.699885	0.726128	-0.519524	-0.663133	0.707912	-0.501443	-0.724408	0.694304	-0.519638	-0.686580	0.675286	-0.507882	-0.842481	0.479668	-0.500625	-0.857731	0.479536	-0.391052	-0.975796	0.441867	-0.528467	-0.949909	0.405326	-0.516222	-1.014746	0.413313	-0.527372	-0.992275	0.381247	-0.519174	-1.187795	0.273258	-0.507430	-1.171620	0.260872	-0.424667	-1.219106	0.128296	-0.502721	-1.203281	0.127451	-0.395671	-1.164597	0.070167	-0.446662	-1.240054	0.310372	-0.463156	-0.566296	1.392078	-0.184339	-0.499303	1.374983	-0.480539	
48	0.2350	-0.560050	0.889697	-0.227824	-0.540901	0.891397	-0.438618	-0.728627	0.943297	-0.299285	-0.706198	0.961133	-0.394358	-0.596455	0.717481	-0.173366	-0.549970	0.748101	-0.170059	-0.565049	0.683672	-0.173061	-0.520577	0.710918	-0.172179	-0.409689	0.520738	-0.220424	-0.401078	0.523869	-0.326523	-0.449424	0.382741	-0.220473	-0.398765	0.390843	-0.232085	-0.441885	0.340284	-0.226894	-0.394930	0.349992	-0.239980	-0.399588	0.106460	-0.306026	-0.386069	0.129177	-0.386143	-0.277411	0.042733	-0.300720	-0.265893	0.074068	-0.406681	-0.196754	0.087096	-0.355642	-0.462785	0.074097	-0.356070	-0.678026	0.724677	-0.518447	-0.641319	0.706872	-0.500274	-0.702198	0.692570	-0.518617	-0.664317	0.673964	-0.506754	-0.818232	0.476958	-0.500224	-0.833603	0.476841	-0.390582	-0.952471	0.443407	-0.528060	-0.927915	0.406059	-0.515998	-0.992249	0.416359	-0.527035	-0.970967	0.383626	-0.519017	-1.169413	0.283746	-0.507607	-1.153834	0.269296	-0.425089	-1.206741	0.139919	-0.505447	-1.191499	0.136903	-0.398749	-1.155389	0.077021	-0.451116	-1.219905	0.322549	-0.462570	-0.547164	1.390740	-0.181962	-0.480469	1.375288	-0.478437	
49	0.2400	-0.540505	0.889408	-0.226647	-0.520889	0.891011	-0.437467	-0.709176	0.942380	-0.298786	-0.686561	0.959900	-0.393871	-0.578161	0.715441	-0.172438	-0.531296	0.745583	-0.168799	-0.547055	0.681174	-0.172253	-0.502319	0.707974	-0.171036	-0.392978	0.517294	-0.220299	-0.383765	0.520963	-0.325965	-0.432093	0.379029	-0.221390	-0.381458	0.387666	-0.232723	-0.424168	0.336710	-0.228146	-0.377210	0.346910	-0.240929	-0.379579	0.104072	-0.308986	-0.365903	0.127347	-0.389053	-0.257386	0.041386	-0.304153	-0.245855	0.072982	-0.410032	-0.176854	0.085827	-0.359089	-0.442416	0.071866	-0.359703	-0.655890	0.722882	-0.517393	-0.619187	0.705594	-0.499126	-0.679607	0.690451	-0.517647	-0.641621	0.672353	-0.505675	-0.792972	0.473655	-0.499868	-0.808413	0.473478	-0.390165	-0.928041	0.444456	-0.527645	-0.904875	0.406299	-0.515772	-0.968648	0.419008	-0.526667	-0.948613	0.385599	-0.518821	-1.149930	0.294254	-0.507605	-1.134990	0.277661	-0.425366	-1.192950	0.151972	-0.508308	-1.178443	0.146533	-0.402007	-1.144828	0.084498	-0.455852	-1.198665	0.334511	-0.461706	-0.527913	1.389078	-0.179544	-0.461627	1.375280	-0.476374	
50	0.2450	-0.520992	0.888911	-0.225441	-0.500931	0.890420	-0.436307	-0.689781	0.941271	-0.298266	-0.667025	0.958397	-0.393402	-0.559899	0.713228	-0.171540	-0.512655	0.742889	-0.167587	-0.529092	0.678510	-0.171508	-0.484093	0.704864	-0.169980	-0.376279	0.513678	-0.220296	-0.366558	0.517916	-0.325572	-0.415186	0.375354	-0.222388	-0.364599	0.384312	-0.233500	-0.407069	0.333191	-0.229478	-0.360137	0.343684	-0.242024	-0.361453	0.101933	-0.311916	-0.347597	0.125637	-0.392005	-0.239523	0.040093	-0.307447	-0.227940	0.071613	-0.413294	-0.159029	0.084139	-0.362489	-0.424050	0.070071	-0.363304	-0.633459	0.720775	-0.516355	-0.596723	0.704108	-0.497988	-0.656619	0.687987	-0.516723	-0.618483	0.670490	-0.504635	-0.766715	0.469828	-0.499546	-0.782182	0.469516	-0.389785	-0.902506	0.445048	-0.527220	-0.880780	0.406087	-0.515539	-0.943937	0.421277	-0.526265	-0.925195	0.387191	-0.518587	-1.129288	0.304724	-0.507435	-1.115031	0.285925	-0.425507	-1.177638	0.164351	-0.511281	-1.164023	0.156264	-0.405423	-1.132793	0.092534	-0.460831	-1.176294	0.346198	-0.460583	-0.508535	1.387118	-0.177087	-0.442757	1.374973	-0.474346	
51	0.2500	-0.501494	0.888216	-0.224199	-0.481004	0.889633	-0.435127	-0.670419	0.939989	-0.297723	-0.647561	0.956644	-0.392945	-0.541655	0.710865	-0.170675	-0.494036	0.740043	-0.166428	-0.511148	0.675706	-0.170832	-0.465890	0.701611	-0.169017	-0.359599	0.509913	-0.220421	-0.349469	0.514751	-0.325351	-0.398703	0.371728	-0.223465	-0.348181	0.380798	-0.234420	-0.390584	0.329731	-0.230890	-0.343702	0.340323	-0.243267	-0.345184	0.100013	-0.314811	-0.331127	0.124017	-0.394994	-0.223770	0.038846	-0.310590	-0.212090	0.069954	-0.416455	-0.143219	0.082053	-0.365827	-0.407667	0.068654	-0.366862	-0.610714	0.718397	-0.515323	-0.573915	0.702450	-0.496846	-0.633218	0.685226	-0.515836	-0.594894	0.668420	-0.503617	-0.739475	0.465556	-0.499243	-0.754937	0.465037	-0.389421	-0.875872	0.445221	-0.526778	-0.855619	0.405467	-0.515290	-0.918111	0.423187	-0.525828	-0.900694	0.388428	-0.518312	-1.107433	0.315091	-0.507108	-1.093901	0.294042	-0.425520	-1.160722	0.176946	-0.514341	-1.148154	0.166017	-0.408974	-1.119167	0.101048	-0.466010	-1.152761	0.357552	-0.459227	-0.489019	1.384889	-0.174591	-0.423841	1.374387	-0.472347	
52	0.2550	-0.481994	0.887335	-0.222915	-0.461085	0.888661	-0.433920	-0.651065	0.938557	-0.297148	-0.628140	0.954663	-0.392491	-0.523420	0.708377	-0.169844	-0.475431	0.737066	-0.165327	-0.493218	0.672787	-0.170227	-0.447704	0.698238	-0.168150	-0.342948	0.506023	-0.220678	-0.332511	0.511488	-0.325303	-0.382641	0.368160	-0.224617	-0.332197	0.377140	-0.235484	-0.374703	0.326335	-0.232377	-0.327893	0.336839	-0.244658	-0.330731	0.098287	-0.317665	-0.316451	0.122463	-0.398015	-0.210051	0.037639	-0.313570	-0.198233	0.068007	-0.419507	-0.129351	0.079603	-0.369087	-0.393220	0.067561	-0.370367	-0.587638	0.715796	-0.514286	-0.550751	0.700663	-0.495682	-0.609389	0.682225	-0.514974	-0.570845	0.666194	-0.502605	-0.711269	0.460929	-0.498938	-0.726706	0.460137	-0.389049	-0.848148	0.445021	-0.526310	-0.829389	0.404493	-0.515014	-0.891169	0.424765	-0.525348	-0.875097	0.389345	-0.517990	-1.084321	0.325288	-0.506636	-1.071551	0.301967	-0.425415	-1.142126	0.189637	-0.517459	-1.130760	0.175707	-0.412632	-1.103843	0.109946	-0.471337	-1.128040	0.368513	-0.457664	-0.469355	1.382424	-0.172060	-0.404860	1.373544	-0.470370	
53	0.2600	-0.462476	0.886284	-0.221581	-0.441149	0.887521	-0.432675	-0.631695	0.937000	-0.296537	-0.608734	0.952484	-0.392032	-0.505186	0.705788	-0.169049	-0.456832	0.733977	-0.164283	-0.475297	0.669779	-0.169693	-0.429530	0.694767	-0.167379	-0.326345	0.502025	-0.221068	-0.315704	0.508143	-0.325428	-0.367002	0.364660	-0.225838	-0.316647	0.373356	-0.236689	-0.359419	0.323009	-0.233934	-0.312698	0.333246	-0.246192	-0.318030	0.096733	-0.320473	-0.303511	0.120956	-0.401058	-0.198274	0.036473	-0.316380	-0.186276	0.065790	-0.422441	-0.117338	0.076833	-0.372250	-0.380643	0.066743	-0.373807	-0.564214	0.713024	-0.513231	-0.527224	0.698794	-0.494477	-0.585120	0.679045	-0.514123	-0.546333	0.663870	-0.501577	-0.682117	0.456045	-0.498608	-0.697523	0.454917	-0.388643	-0.819350	0.444497	-0.525805	-0.802087	0.403222	-0.514695	-0.863116	0.426041	-0.524819	-0.848394	0.389978	-0.517615	-1.059915	0.335247	-0.506033	-1.047943	0.309656	-0.425203	-1.121789	0.202298	-0.520606	-1.111774	0.185250	-0.416363	-1.086726	0.119124	-0.476755	-1.102115	0.379026	-0.455929	-0.449533	1.379760	-0.169494	-0.385796	1.372473	-0.468411	
54	0.2650	-0.442926	0.885077	-0.220192	-0.421178	0.886231	-0.431382	-0.612287	0.935344	-0.295882	-0.589314	0.950141	-0.391557	-0.486948	0.703124	-0.168289	-0.438237	0.730798	-0.163298	-0.457384	0.666705	-0.169229	-0.411368	0.691217	-0.166703	-0.309813	0.497937	-0.221588	-0.299069	0.504731	-0.325722	-0.351789	0.361235	-0.227119	-0.301531	0.369467	-0.238029	-0.344722	0.319757	-0.235551	-0.298108	0.329561	-0.247860	-0.307004	0.095333	-0.323225	-0.292231	0.119487	-0.404112	-0.188331	0.035352	-0.319012	-0.176114	0.063329	-0.425247	-0.107078	0.073797	-0.375302	-0.369852	0.066155	-0.377168	-0.540430	0.710141	-0.512142	-0.503329	0.696896	-0.493212	-0.560402	0.675754	-0.513267	-0.521357	0.661510	-0.500511	-0.652045	0.451007	-0.498227	-0.667426	0.449489	-0.388172	-0.789500	0.443704	-0.525251	-0.773722	0.401715	-0.514316	-0.833968	0.427047	-0.524233	-0.820585	0.390366	-0.517175	-1.034192	0.344899	-0.505316	-1.023049	0.317064	-0.424891	-1.099665	0.214801	-0.523748	-1.091143	0.194562	-0.420131	-1.067736	0.128467	-0.482202	-1.074986	0.389036	-0.454056	-0.429545	1.376938	-0.166897	-0.366636	1.371204	-0.466462	
55	0.2700	-0.423332	0.883733	-0.218741	-0.401154	0.884815	-0.430032	-0.592823	0.933619	-0.295175	-0.569856	0.947668	-0.391056	-0.468705	0.700408	-0.167561	-0.419645	0.727548	-0.162368	-0.439485	0.663591	-0.168831	-0.393222	0.687609	-0.166118	-0.293381	0.493776	-0.222234	-0.282633	0.501263	-0.326176	-0.337004	0.357891	-0.228450	-0.286849	0.365491	-0.239493	-0.330604	0.316585	-0.237218	-0.284111	0.325802	-0.249651	-0.297557	0.094073	-0.325913	-0.282521	0.118050	-0.407162	-0.180098	0.034281	-0.321461	-0.167629	0.060661	-0.427918	-0.098458	0.070557	-0.378225	-0.360742	0.065760	-0.380436	-0.516280	0.707206	-0.511005	-0.479067	0.695022	-0.491864	-0.535233	0.672419	-0.512387	-0.495926	0.659180	-0.499383	-0.621084	0.445919	-0.497766	-0.636464	0.443967	-0.387608	-0.758628	0.442697	-0.524634	-0.744309	0.400032	-0.513858	-0.803748	0.427819	-0.523581	-0.791679	0.390550	-0.516658	-1.007144	0.354176	-0.504499	-0.996859	0.324151	-0.424488	-1.075729	0.227018	-0.526852	-1.068833	0.203558	-0.423900	-1.046815	0.137855	-0.487613	-1.046664	0.398493	-0.452086	-0.409388	1.374001	-0.164274	-0.347367	1.369769	-0.464518	
56	0.2750	-0.403686	0.882270	-0.217222	-0.381065	0.883296	-0.428616	-0.573286	0.931853	-0.294410	-0.550340	0.945107	-0.390516	-0.450461	0.697665	-0.166864	-0.401060	0.724245	-0.161491	-0.421608	0.660460	-0.168493	-0.375101	0.683959	-0.165616	-0.277085	0.489556	-0.222996	-0.266426	0.497753	-0.326780	-0.322652	0.354636	-0.229819	-0.272608	0.361453	-0.241069	-0.317053	0.313498	-0.238922	-0.270696	0.321990	-0.251548	-0.289584	0.092946	-0.328526	-0.274278	0.116648	-0.410190	-0.173440	0.033270	-0.323726	-0.160690	0.057828	-0.430447	-0.091356	0.067176	-0.381004	-0.353197	0.065527	-0.383595	-0.491764	0.704284	-0.509803	-0.454448	0.693229	-0.490414	-0.509619	0.669113	-0.511464	-0.470053	0.656944	-0.498168	-0.589277	0.440888	-0.497196	-0.604691	0.438466	-0.386919	-0.726777	0.441533	-0.523940	-0.713873	0.398237	-0.513300	-0.772491	0.428390	-0.522853	-0.761699	0.390568	-0.516052	-0.978782	0.363012	-0.503599	-0.969380	0.330877	-0.424004	-1.049979	0.238821	-0.529884	-1.044829	0.212158	-0.427628	-1.023926	0.147165	-0.492920	-1.017180	0.407348	-0.450057	-0.389061	1.370991	-0.161629	-0.327984	1.368206	-0.462575	
57	0.2800	-0.383988	0.880710	-0.215629	-0.360903	0.881703	-0.427125	-0.553668	0.930077	-0.293579	-0.530751	0.942497	-0.389927	-0.432227	0.694918	-0.166193	-0.382492	0.720910	-0.160660	-0.403766	0.657333	-0.168209	-0.357017	0.680286	-0.165188	-0.260961	0.485294	-0.223865	-0.250480	0.494209	-0.327519	-0.308740	0.351476	-0.231212	-0.258814	0.357375	-0.242739	-0.304062	0.310503	-0.240649	-0.257853	0.318148	-0.253533	-0.282966	0.091946	-0.331053	-0.267388	0.115288	-0.413178	-0.168213	0.032328	-0.325805	-0.155161	0.054880	-0.432828	-0.085643	0.063724	-0.383625	-0.347088	0.065430	-0.386630	-0.466891	0.701437	-0.508521	-0.429487	0.691573	-0.488842	-0.483574	0.665905	-0.510478	-0.443762	0.654868	-0.496842	-0.556673	0.436016	-0.496488	-0.572172	0.433099	-0.386074	-0.694002	0.440267	-0.523153	-0.682457	0.396389	-0.512621	-0.740249	0.428796	-0.522038	-0.730682	0.390462	-0.515342	-0.949138	0.371345	-0.502632	-0.940637	0.337205	-0.423445	-1.022436	0.250089	-0.532810	-1.019138	0.220286	-0.431274	-0.999061	0.156273	-0.498056	-0.986584	0.415561	-0.448010	-0.368569	1.367953	-0.158967	-0.308486	1.366551	-0.460629	
58	0.2850	-0.364240	0.879074	-0.213958	-0.340670	0.880064	-0.425553	-0.533967	0.928321	-0.292678	-0.511081	0.939880	-0.389278	-0.414018	0.692189	-0.165543	-0.363956	0.717560	-0.159871	-0.385980	0.654234	-0.167969	-0.338990	0.676607	-0.164825	-0.245053	0.481003	-0.224826	-0.234828	0.490642	-0.328377	-0.295276	0.348418	-0.232616	-0.245475	0.353282	-0.244485	-0.291620	0.307607	-0.242383	-0.245574	0.314299	-0.255583	-0.277578	0.091070	-0.333482	-0.261730	0.113981	-0.416104	-0.164268	0.031463	-0.327699	-0.150899	0.051869	-0.435055	-0.081185	0.060266	-0.386076	-0.342275	0.065450	-0.389525	-0.441682	0.698727	-0.507144	-0.404214	0.690107	-0.487131	-0.457124	0.662863	-0.509411	-0.417089	0.653014	-0.495385	-0.523336	0.431401	-0.495613	-0.538983	0.427975	-0.385047	-0.660372	0.438954	-0.522258	-0.650115	0.394546	-0.511799	-0.707087	0.429071	-0.521128	-0.698680	0.390269	-0.514515	-0.918267	0.379117	-0.501614	-0.910682	0.343105	-0.422818	-0.993150	0.260708	-0.535598	-0.991794	0.227872	-0.434798	-0.972240	0.165059	-0.502953	-0.954945	0.423094	-0.445984	-0.347922	1.364933	-0.156295	-0.288882	1.364842	-0.458675	
59	0.2900	-0.344455	0.877383	-0.212206	-0.320374	0.878409	-0.423893	-0.514189	0.926613	-0.291700	-0.491331	0.937299	-0.388558	-0.395854	0.689502	-0.164910	-0.345473	0.714214	-0.159114	-0.368273	0.651183	-0.167763	-0.321045	0.672940	-0.164515	-0.229405	0.476701	-0.225864	-0.219505	0.487063	-0.329334	-0.282268	0.345469	-0.234014	-0.232601	0.349199	-0.246283	-0.279720	0.304819	-0.244107	-0.233850	0.310470	-0.257676	-0.273290	0.090317	-0.335803	-0.257178	0.112741	-0.418946	-0.161454	0.030685	-0.329412	-0.147759	0.048848	-0.437125	-0.077846	0.056867	-0.388347	-0.338616	0.065575	-0.392263	-0.416168	0.696212	-0.505659	-0.378667	0.688881	-0.485265	-0.430309	0.660050	-0.508244	-0.390079	0.651439	-0.493775	-0.489343	0.427134	-0.494543	-0.505214	0.423195	-0.383813	-0.625975	0.437645	-0.521242	-0.616922	0.392762	-0.510816	-0.673090	0.429247	-0.520114	-0.665768	0.390024	-0.513556	-0.886247	0.386276	-0.500561	-0.879587	0.348547	-0.422130	-0.962200	0.270574	-0.538217	-0.962860	0.234854	-0.438160	-0.943518	0.173410	-0.507549	-0.922354	0.429918	-0.444016	-0.327141	1.361973	-0.153620	-0.269185	1.363117	-0.456714	
60	0.2950	-0.324652	0.875662	-0.210370	-0.300033	0.876768	-0.422141	-0.494349	0.924980	-0.290644	-0.471513	0.934793	-0.387758	-0.377765	0.686877	-0.164288	-0.327070	0.710892	-0.158384	-0.350678	0.648200	-0.167582	-0.303211	0.669303	-0.164246	-0.214065	0.472404	-0.226960	-0.204548	0.483482	-0.330369	-0.269726	0.342636	-0.235391	-0.220204	0.345152	-0.248112	-0.268353	0.302147	-0.245802	-0.222672	0.306685	-0.259784	-0.269968	0.089690	-0.338001	-0.253600	0.111586	-0.421683	-0.159617	0.030000	-0.330948	-0.145596	0.045867	-0.439034	-0.075490	0.053586	-0.390430	-0.335964	0.065795	-0.394830	-0.390396	0.693946	-0.504055	-0.352898	0.687941	-0.483234	-0.403183	0.657525	-0.506961	-0.362795	0.650196	-0.491998	-0.454789	0.423295	-0.493257	-0.470967	0.418849	-0.382349	-0.590912	0.436386	-0.520093	-0.582970	0.391086	-0.509655	-0.638360	0.429354	-0.518987	-0.632038	0.389759	-0.512454	-0.853184	0.392781	-0.499486	-0.847452	0.353510	-0.421385	-0.929695	0.279598	-0.540639	-0.932424	0.241178	-0.441322	-0.912982	0.181220	-0.511784	-0.888928	0.436010	-0.442141	-0.306253	1.359114	-0.150951	-0.249422	1.361412	-0.454744	
61	0.3000	-0.304859	0.873931	-0.208450	-0.279675	0.875168	-0.420297	-0.474472	0.923448	-0.289505	-0.451649	0.932401	-0.386872	-0.359784	0.684335	-0.163671	-0.308781	0.707613	-0.157672	-0.333230	0.645306	-0.167413	-0.285527	0.665713	-0.164003	-0.199080	0.468130	-0.228097	-0.189994	0.479912	-0.331460	-0.257661	0.339926	-0.236732	-0.208295	0.341167	-0.249944	-0.257515	0.299599	-0.247452	-0.212035	0.302973	-0.261882	-0.267479	0.089189	-0.340067	-0.250869	0.110533	-0.424292	-0.158609	0.029414	-0.332313	-0.144268	0.042978	-0.440781	-0.073981	0.050477	-0.392319	-0.334173	0.066105	-0.397212	-0.364426	0.691977	-0.502324	-0.326970	0.687323	-0.481032	-0.375812	0.655337	-0.505550	-0.335308	0.649327	-0.490041	-0.419782	0.419954	-0.491734	-0.436360	0.415016	-0.380641	-0.555307	0.435218	-0.518801	-0.548373	0.389559	-0.508301	-0.603020	0.429419	-0.517743	-0.597604	0.389502	-0.511198	-0.819208	0.398596	-0.498402	-0.814400	0.357977	-0.420590	-0.895777	0.287704	-0.542838	-0.900610	0.246800	-0.444249	-0.880757	0.188399	-0.515606	-0.854800	0.441356	-0.440391	-0.285295	1.356395	-0.148296	-0.229627	1.359762	-0.452766	
62	0.3050	-0.285117	0.872214	-0.206450	-0.259339	0.873639	-0.418361	-0.454597	0.922038	-0.288285	-0.431771	0.930157	-0.385896	-0.341954	0.681895	-0.163054	-0.290649	0.704395	-0.156969	-0.315972	0.642518	-0.167246	-0.268034	0.662187	-0.163776	-0.184499	0.463897	-0.229253	-0.175880	0.476365	-0.332584	-0.246086	0.337346	-0.238020	-0.196887	0.337270	-0.251757	-0.247198	0.297184	-0.249040	-0.201931	0.299358	-0.263943	-0.265695	0.088818	-0.341991	-0.248856	0.109599	-0.426753	-0.158286	0.028930	-0.333515	-0.143636	0.040223	-0.442367	-0.073189	0.047583	-0.394013	-0.333101	0.066505	-0.399397	-0.338332	0.690343	-0.500462	-0.300962	0.687059	-0.478656	-0.348281	0.653528	-0.504001	-0.307709	0.648866	-0.487898	-0.384450	0.417166	-0.489962	-0.401526	0.411760	-0.378679	-0.519300	0.434176	-0.517358	-0.513263	0.388217	-0.506744	-0.567212	0.429466	-0.516377	-0.562604	0.389280	-0.509782	-0.784473	0.403697	-0.497323	-0.780580	0.361938	-0.419749	-0.860618	0.294833	-0.544795	-0.867568	0.251690	-0.446910	-0.847002	0.194868	-0.518969	-0.820130	0.445949	-0.438792	-0.264316	1.353850	-0.145666	-0.209843	1.358199	-0.450783	
63	0.3100	-0.265471	0.870533	-0.204372	-0.239075	0.872203	-0.416337	-0.434770	0.920770	-0.286986	-0.411927	0.928093	-0.384826	-0.324323	0.679574	-0.162432	-0.272721	0.701257	-0.156270	-0.298951	0.639853	-0.167070	-0.250782	0.658744	-0.163551	-0.170373	0.459727	-0.230410	-0.162241	0.472856	-0.333717	-0.235012	0.334905	-0.239243	-0.185994	0.333486	-0.253524	-0.237400	0.294912	-0.250549	-0.192357	0.295866	-0.265942	-0.264489	0.088577	-0.343763	-0.247438	0.108799	-0.429048	-0.158513	0.028548	-0.334563	-0.143571	0.037642	-0.443793	-0.072989	0.044941	-0.395511	-0.332611	0.066995	-0.401378	-0.312204	0.689077	-0.498468	-0.274966	0.687171	-0.476110	-0.320690	0.652131	-0.502307	-0.280099	0.648837	-0.485568	-0.348937	0.414973	-0.487933	-0.366610	0.409131	-0.376459	-0.483049	0.433290	-0.515760	-0.477794	0.387089	-0.504980	-0.531098	0.429516	-0.514889	-0.527194	0.389110	-0.508201	-0.749159	0.408071	-0.496258	-0.746166	0.365388	-0.418867	-0.824419	0.300946	-0.546492	-0.833480	0.255828	-0.449280	-0.811913	0.200567	-0.521839	-0.785094	0.449793	-0.437366	-0.243375	1.351508	-0.143070	-0.190127	1.356753	-0.448800	
64	0.3150	-0.245981	0.868906	-0.202224	-0.218942	0.870885	-0.414233	-0.415050	0.919658	-0.285612	-0.392171	0.926233	-0.383663	-0.306945	0.677387	-0.161801	-0.255051	0.698216	-0.155568	-0.282222	0.637327	-0.166876	-0.233824	0.655401	-0.163318	-0.156749	0.455638	-0.231547	-0.149115	0.469398	-0.334838	-0.224454	0.332608	-0.240387	-0.175627	0.329839	-0.255223	-0.228116	0.292789	-0.251965	-0.183309	0.292520	-0.267853	-0.263746	0.088468	-0.345376	-0.246501	0.108148	-0.431160	-0.159162	0.028266	-0.335466	-0.143951	0.035266	-0.445062	-0.073266	0.042579	-0.396818	-0.332576	0.067577	-0.403148	-0.286146	0.688199	-0.496346	-0.249084	0.687670	-0.473403	-0.293151	0.651165	-0.500469	-0.252594	0.649253	-0.483057	-0.313403	0.413400	-0.485647	-0.331776	0.407161	-0.373984	-0.446731	0.432582	-0.514009	-0.442139	0.386195	-0.503008	-0.494857	0.429584	-0.513281	-0.491552	0.389010	-0.506455	-0.713468	0.411714	-0.495217	-0.711353	0.368330	-0.417949	-0.787411	0.306023	-0.547919	-0.798556	0.259206	-0.451338	-0.775717	0.205452	-0.524190	-0.749889	0.452900	-0.436128	-0.222538	1.349395	-0.140519	-0.170542	1.355447	-0.446820	
65	0.3200	-0.226714	0.867353	-0.200017	-0.199011	0.869702	-0.412056	-0.395508	0.918713	-0.284169	-0.372575	0.924598	-0.382411	-0.289880	0.675348	-0.161156	-0.237700	0.695291	-0.154857	-0.265841	0.634952	-0.166654	-0.217219	0.652174	-0.163067	-0.143672	0.451653	-0.232646	-0.136535	0.466008	-0.335925	-0.214422	0.330462	-0.241442	-0.165799	0.326351	-0.256831	-0.219345	0.290822	-0.253275	-0.174781	0.289341	-0.269655	-0.263356	0.088487	-0.346827	-0.245936	0.107655	-0.433076	-0.160120	0.028081	-0.336236	-0.144664	0.033120	-0.446181	-0.073910	0.040512	-0.397938	-0.332877	0.068252	-0.404703	-0.260274	0.687722	-0.494104	-0.223432	0.688557	-0.470550	-0.265792	0.650641	-0.498489	-0.225320	0.650115	-0.480375	-0.278026	0.412458	-0.483110	-0.297195	0.405865	-0.371266	-0.410537	0.432065	-0.512108	-0.406489	0.385547	-0.500835	-0.458687	0.429685	-0.511559	-0.455874	0.388990	-0.504550	-0.677620	0.414637	-0.494209	-0.676356	0.370773	-0.417000	-0.749848	0.310062	-0.549069	-0.763031	0.261830	-0.453072	-0.738673	0.209500	-0.526010	-0.714725	0.455291	-0.435091	-0.201887	1.347529	-0.138025	-0.151164	1.354302	-0.444852	
66	0.3250	-0.207743	0.865891	-0.197760	-0.179362	0.868668	-0.409820	-0.376221	0.917942	-0.282665	-0.353215	0.923202	-0.381075	-0.273192	0.673466	-0.160496	-0.220732	0.692496	-0.154135	-0.249869	0.632740	-0.166400	-0.201028	0.649080	-0.162790	-0.131187	0.447792	-0.233690	-0.124534	0.462702	-0.336958	-0.204929	0.328472	-0.242397	-0.156522	0.323041	-0.258330	-0.211085	0.289018	-0.254467	-0.166772	0.286348	-0.271328	-0.263224	0.088634	-0.348113	-0.245647	0.107327	-0.434788	-0.161283	0.027985	-0.336884	-0.145610	0.031221	-0.447153	-0.074825	0.038749	-0.398882	-0.333411	0.069020	-0.406044	-0.234715	0.687645	-0.491754	-0.198134	0.689824	-0.467571	-0.238751	0.650558	-0.496376	-0.198415	0.651410	-0.477539	-0.242995	0.412142	-0.480338	-0.263052	0.405241	-0.368322	-0.374670	0.431749	-0.510066	-0.371050	0.385150	-0.498472	-0.422796	0.429826	-0.509732	-0.420370	0.389056	-0.502495	-0.641852	0.416859	-0.493238	-0.641404	0.372733	-0.416025	-0.712005	0.313083	-0.549942	-0.727162	0.263721	-0.454473	-0.701067	0.212704	-0.527294	-0.679823	0.456998	-0.434257	-0.181507	1.345923	-0.135598	-0.132074	1.353332	-0.442904	
67	0.3300	-0.189152	0.864532	-0.195470	-0.160083	0.867795	-0.407540	-0.357278	0.917346	-0.281112	-0.334181	0.922052	-0.379666	-0.256951	0.671751	-0.159821	-0.204218	0.689846	-0.153399	-0.234370	0.630699	-0.166107	-0.185317	0.646133	-0.162483	-0.119331	0.444075	-0.234664	-0.113142	0.459497	-0.337920	-0.195987	0.326641	-0.243246	-0.147804	0.319928	-0.259703	-0.203336	0.287379	-0.255536	-0.159277	0.283556	-0.272857	-0.263265	0.088900	-0.349233	-0.245548	0.107166	-0.436290	-0.162563	0.027970	-0.337421	-0.146702	0.029576	-0.447989	-0.075923	0.037289	-0.399659	-0.334083	0.069882	-0.407175	-0.209605	0.687960	-0.489313	-0.173323	0.691452	-0.464490	-0.212175	0.650902	-0.494144	-0.172023	0.653117	-0.474573	-0.208507	0.412429	-0.477351	-0.229537	0.405270	-0.365177	-0.339344	0.431635	-0.507897	-0.336038	0.385002	-0.495935	-0.387403	0.430014	-0.507811	-0.385264	0.389212	-0.500303	-0.606410	0.418411	-0.492311	-0.606740	0.374232	-0.415032	-0.674175	0.315123	-0.550544	-0.691224	0.264908	-0.455542	-0.663205	0.215079	-0.528054	-0.645412	0.458061	-0.433627	-0.161495	1.344584	-0.133250	-0.113363	1.352549	-0.440984	
68	0.3350	-0.171029	0.863288	-0.193162	-0.141265	0.867087	-0.405232	-0.338770	0.916924	-0.279521	-0.315567	0.921151	-0.378193	-0.241226	0.670206	-0.159129	-0.188227	0.687354	-0.152649	-0.219406	0.628837	-0.165773	-0.170150	0.643347	-0.162140	-0.108141	0.440522	-0.235555	-0.102386	0.456408	-0.338798	-0.187603	0.324972	-0.243986	-0.139652	0.317024	-0.260938	-0.196094	0.285908	-0.256475	-0.152293	0.280978	-0.274230	-0.263404	0.089280	-0.350192	-0.245566	0.107170	-0.437581	-0.163884	0.028028	-0.337859	-0.147864	0.028188	-0.448695	-0.077129	0.036123	-0.400283	-0.334817	0.070833	-0.408103	-0.185086	0.688647	-0.486800	-0.149135	0.693411	-0.461336	-0.186218	0.651650	-0.491810	-0.146293	0.655203	-0.471504	-0.174770	0.413286	-0.474177	-0.196845	0.405919	-0.361862	-0.304778	0.431716	-0.505617	-0.301678	0.385093	-0.493250	-0.352734	0.430251	-0.505813	-0.350786	0.389456	-0.497992	-0.571548	0.419335	-0.491432	-0.572612	0.375298	-0.414025	-0.636659	0.316239	-0.550884	-0.655504	0.265436	-0.456286	-0.625409	0.216655	-0.528309	-0.611726	0.458526	-0.433195	-0.141951	1.343511	-0.130991	-0.095123	1.351955	-0.439103	
69	0.3400	-0.153463	0.862168	-0.190854	-0.123007	0.866546	-0.402918	-0.320797	0.916669	-0.277907	-0.297472	0.920492	-0.376672	-0.226088	0.668834	-0.158424	-0.172831	0.685031	-0.151886	-0.205044	0.627155	-0.165398	-0.155593	0.640733	-0.161763	-0.097646	0.437151	-0.236355	-0.092287	0.453451	-0.339581	-0.179786	0.323467	-0.244613	-0.132072	0.314342	-0.262026	-0.189360	0.284604	-0.257282	-0.145815	0.278623	-0.275439	-0.263582	0.089762	-0.350994	-0.245639	0.107332	-0.438664	-0.165184	0.028148	-0.338210	-0.149035	0.027051	-0.449283	-0.078379	0.035235	-0.400767	-0.335548	0.071868	-0.408837	-0.161302	0.689677	-0.484239	-0.125708	0.695666	-0.458142	-0.161033	0.652768	-0.489397	-0.121375	0.657624	-0.468364	-0.141990	0.414663	-0.470852	-0.165171	0.407137	-0.358413	-0.271191	0.431982	-0.503249	-0.268197	0.385406	-0.490443	-0.319015	0.430535	-0.503756	-0.317169	0.389783	-0.495585	-0.537520	0.419682	-0.490604	-0.539270	0.375964	-0.413013	-0.599763	0.316501	-0.550979	-0.620294	0.265358	-0.456719	-0.588008	0.217482	-0.528093	-0.578994	0.458450	-0.432950	-0.122979	1.342699	-0.128832	-0.077452	1.351550	-0.437271	
70	0.3450	-0.136547	0.861176	-0.188566	-0.105406	0.866167	-0.400616	-0.303457	0.916571	-0.276284	-0.279998	0.920066	-0.375118	-0.211606	0.667634	-0.157709	-0.158102	0.682883	-0.151115	-0.191344	0.625655	-0.164983	-0.141710	0.638301	-0.161350	-0.087869	0.433978	-0.237055	-0.082866	0.450641	-0.340260	-0.172540	0.322124	-0.245129	-0.125065	0.311888	-0.262962	-0.183129	0.283465	-0.257957	-0.139839	0.276494	-0.276480	-0.263753	0.090334	-0.351646	-0.245718	0.107641	-0.439546	-0.166415	0.028318	-0.338484	-0.150164	0.026153	-0.449762	-0.079620	0.034602	-0.401127	-0.336224	0.072978	-0.409390	-0.138395	0.691014	-0.481656	-0.103177	0.698171	-0.454942	-0.136775	0.654215	-0.486931	-0.097415	0.660329	-0.465189	-0.110372	0.416502	-0.467414	-0.134704	0.408865	-0.354873	-0.238799	0.432417	-0.500816	-0.235820	0.385922	-0.487546	-0.286468	0.430864	-0.501660	-0.284643	0.390184	-0.493109	-0.504573	0.419510	-0.489829	-0.506959	0.376270	-0.412003	-0.563789	0.315996	-0.550847	-0.585887	0.264738	-0.456861	-0.551333	0.217620	-0.527446	-0.547438	0.457894	-0.432876	-0.104685	1.342137	-0.126783	-0.060446	1.351328	-0.435500	
71	0.3500	-0.120370	0.860315	-0.186318	-0.088561	0.865944	-0.398348	-0.286848	0.916616	-0.274670	-0.263245	0.919856	-0.373550	-0.197848	0.666603	-0.156988	-0.144106	0.680917	-0.150339	-0.178365	0.624334	-0.164531	-0.128560	0.636058	-0.160905	-0.078828	0.431017	-0.237653	-0.074135	0.447992	-0.340833	-0.165865	0.320941	-0.245538	-0.118630	0.309666	-0.263746	-0.177397	0.282487	-0.258506	-0.134357	0.274594	-0.277354	-0.263879	0.090982	-0.352160	-0.245768	0.108083	-0.440238	-0.167541	0.028528	-0.338694	-0.151213	0.025478	-0.450143	-0.080811	0.034199	-0.401378	-0.336810	0.074152	-0.409779	-0.116502	0.692613	-0.479078	-0.081674	0.700874	-0.451770	-0.113590	0.655942	-0.484439	-0.074553	0.663262	-0.462015	-0.080113	0.418735	-0.463909	-0.105626	0.411030	-0.351284	-0.207806	0.433000	-0.498347	-0.204761	0.386614	-0.484596	-0.255304	0.431232	-0.499549	-0.253428	0.390650	-0.490591	-0.472946	0.418885	-0.489108	-0.475915	0.376255	-0.411004	-0.529030	0.314820	-0.550515	-0.552566	0.263645	-0.456737	-0.515707	0.217144	-0.526418	-0.517267	0.456923	-0.432956	-0.087172	1.341806	-0.124853	-0.044198	1.351277	-0.433799	
72	0.3550	-0.105020	0.859582	-0.184131	-0.072562	0.865865	-0.396137	-0.271063	0.916788	-0.273081	-0.247310	0.919843	-0.371984	-0.184874	0.665733	-0.156266	-0.130907	0.679135	-0.149564	-0.166160	0.623188	-0.164049	-0.116196	0.634008	-0.160435	-0.070530	0.428277	-0.238148	-0.066102	0.445516	-0.341298	-0.159760	0.319912	-0.245844	-0.112761	0.307677	-0.264381	-0.172158	0.281662	-0.258933	-0.129360	0.272918	-0.278066	-0.263939	0.091690	-0.352545	-0.245761	0.108640	-0.440753	-0.168536	0.028765	-0.338849	-0.152156	0.025005	-0.450439	-0.081919	0.033996	-0.401537	-0.337281	0.075375	-0.410020	-0.095752	0.694425	-0.476534	-0.061318	0.703722	-0.448664	-0.091615	0.657895	-0.481951	-0.052920	0.666359	-0.458881	-0.051397	0.421286	-0.460382	-0.078102	0.413555	-0.347695	-0.178405	0.433707	-0.495872	-0.175224	0.387452	-0.481631	-0.225720	0.431630	-0.497445	-0.223732	0.391168	-0.488063	-0.442857	0.417876	-0.488442	-0.446354	0.375964	-0.410023	-0.495762	0.313077	-0.550009	-0.520603	0.262156	-0.456379	-0.481438	0.216139	-0.525065	-0.488674	0.455608	-0.433167	-0.070537	1.341686	-0.123048	-0.028799	1.351383	-0.432179	
73	0.3600	-0.090575	0.858975	-0.182024	-0.057495	0.865914	-0.394003	-0.256188	0.917069	-0.271534	-0.232283	0.920001	-0.370441	-0.172738	0.665015	-0.155551	-0.118560	0.677537	-0.148798	-0.154774	0.622210	-0.163542	-0.104667	0.632153	-0.159943	-0.062980	0.425768	-0.238542	-0.058770	0.443221	-0.341659	-0.154218	0.319031	-0.246056	-0.107450	0.305917	-0.264873	-0.167404	0.280982	-0.259247	-0.124837	0.271461	-0.278623	-0.263917	0.092441	-0.352817	-0.245684	0.109291	-0.441107	-0.169388	0.029020	-0.338958	-0.152975	0.024709	-0.450659	-0.082924	0.033962	-0.401618	-0.337623	0.076631	-0.410132	-0.076259	0.696398	-0.474054	-0.042218	0.706657	-0.445657	-0.070973	0.660017	-0.479498	-0.032630	0.669555	-0.455823	-0.024387	0.424076	-0.456880	-0.052281	0.416355	-0.344150	-0.150764	0.434513	-0.493420	-0.147391	0.388405	-0.478689	-0.197892	0.432051	-0.495375	-0.195740	0.391725	-0.485557	-0.414503	0.416556	-0.487830	-0.418474	0.375445	-0.409071	-0.464233	0.310877	-0.549358	-0.490245	0.260349	-0.455821	-0.448809	0.214694	-0.523449	-0.461827	0.454018	-0.433488	-0.054872	1.341753	-0.121375	-0.014327	1.351626	-0.430650	
74	0.3650	-0.077104	0.858486	-0.180016	-0.043435	0.866076	-0.391966	-0.242300	0.917437	-0.270044	-0.218241	0.920304	-0.368939	-0.161487	0.664439	-0.154850	-0.107110	0.676121	-0.148048	-0.144247	0.621389	-0.163020	-0.094008	0.630493	-0.159440	-0.056170	0.423492	-0.238841	-0.052134	0.441116	-0.341920	-0.149230	0.318289	-0.246182	-0.102683	0.304379	-0.265234	-0.163124	0.280436	-0.259459	-0.120776	0.270213	-0.279038	-0.263810	0.093219	-0.352988	-0.245530	0.110014	-0.441321	-0.170091	0.029282	-0.339031	-0.153662	0.024566	-0.450815	-0.083811	0.034065	-0.401638	-0.337834	0.077902	-0.410135	-0.058121	0.698479	-0.471663	-0.024464	0.709621	-0.442782	-0.051769	0.662248	-0.477110	-0.013779	0.672787	-0.452879	0.000774	0.427025	-0.453451	-0.028286	0.419344	-0.340697	-0.125030	0.435389	-0.491022	-0.121418	0.389441	-0.475808	-0.171970	0.432486	-0.493362	-0.169615	0.392306	-0.483104	-0.388052	0.414997	-0.487273	-0.392443	0.374742	-0.408154	-0.434664	0.308331	-0.548595	-0.461711	0.258306	-0.455100	-0.418075	0.212904	-0.521633	-0.436868	0.452226	-0.433895	-0.040254	1.341977	-0.119838	-0.000852	1.351986	-0.429220	
75	0.3700	-0.064663	0.858107	-0.178124	-0.030443	0.866330	-0.390044	-0.229461	0.917874	-0.268626	-0.205252	0.920723	-0.367496	-0.151155	0.663991	-0.154169	-0.096595	0.674881	-0.147323	-0.134604	0.620714	-0.162491	-0.084249	0.629023	-0.158933	-0.050087	0.421451	-0.239053	-0.046182	0.439205	-0.342091	-0.144779	0.317677	-0.246234	-0.098442	0.303053	-0.265475	-0.159302	0.280011	-0.259581	-0.117159	0.269162	-0.279324	-0.263620	0.094006	-0.353073	-0.245300	0.110786	-0.441413	-0.170647	0.029544	-0.339075	-0.154218	0.024549	-0.450918	-0.084574	0.034275	-0.401610	-0.337918	0.079168	-0.410049	-0.041416	0.700612	-0.469388	-0.008129	0.712557	-0.440067	-0.034085	0.664531	-0.474815	0.003555	0.675992	-0.450081	0.023972	0.430053	-0.450139	-0.006215	0.422436	-0.337378	-0.101317	0.436310	-0.488708	-0.097435	0.390528	-0.473027	-0.148074	0.432924	-0.491429	-0.145486	0.392897	-0.480736	-0.363639	0.413272	-0.486768	-0.368397	0.373903	-0.407282	-0.407237	0.305548	-0.547750	-0.435186	0.256105	-0.454254	-0.389449	0.210862	-0.519683	-0.413906	0.450300	-0.434364	-0.026749	1.342331	-0.118439	0.011570	1.352439	-0.427897	
76	0.3750	-0.053296	0.857826	-0.176362	-0.018565	0.866656	-0.388254	-0.217720	0.918356	-0.267293	-0.193365	0.921230	-0.366128	-0.141765	0.663658	-0.153517	-0.087036	0.673809	-0.146630	-0.125861	0.620171	-0.161965	-0.075404	0.627738	-0.158430	-0.044709	0.419642	-0.239185	-0.040898	0.437488	-0.342181	-0.140848	0.317183	-0.246224	-0.094707	0.301928	-0.265611	-0.155923	0.279695	-0.259626	-0.113969	0.268292	-0.279497	-0.263355	0.094786	-0.353088	-0.245002	0.111584	-0.441404	-0.171065	0.029797	-0.339097	-0.154647	0.024632	-0.450977	-0.085214	0.034562	-0.401546	-0.337886	0.080410	-0.409892	-0.026200	0.702746	-0.467251	0.006738	0.715413	-0.437538	-0.017980	0.666811	-0.472642	0.019321	0.679110	-0.447457	0.045126	0.433084	-0.446987	0.013865	0.425551	-0.334233	-0.079708	0.437247	-0.486505	-0.075534	0.391633	-0.470379	-0.126290	0.433357	-0.489598	-0.123451	0.393486	-0.478481	-0.341363	0.411449	-0.486314	-0.346437	0.372972	-0.406462	-0.382093	0.302633	-0.546856	-0.410816	0.253822	-0.453322	-0.363103	0.208659	-0.517662	-0.393017	0.448307	-0.434872	-0.014406	1.342783	-0.117181	0.022899	1.352961	-0.426685	
77	0.3800	-0.043028	0.857632	-0.174744	-0.007832	0.867034	-0.386607	-0.207105	0.918866	-0.266058	-0.182613	0.921796	-0.364849	-0.133326	0.663423	-0.152901	-0.078446	0.672896	-0.145976	-0.118024	0.619747	-0.161451	-0.067479	0.626628	-0.157941	-0.040008	0.418059	-0.239250	-0.036257	0.435965	-0.342203	-0.137411	0.316794	-0.246162	-0.091452	0.300987	-0.265658	-0.152965	0.279473	-0.259608	-0.111183	0.267586	-0.279574	-0.263030	0.095543	-0.353047	-0.244647	0.112386	-0.441316	-0.171359	0.030037	-0.339103	-0.154961	0.024789	-0.451003	-0.085735	0.034898	-0.401459	-0.337755	0.081609	-0.409686	-0.012503	0.704833	-0.465271	0.020111	0.718140	-0.435215	-0.003486	0.669035	-0.470611	0.033493	0.682087	-0.445032	0.064188	0.436048	-0.444031	0.031918	0.428613	-0.331296	-0.060251	0.438177	-0.484438	-0.055775	0.392728	-0.467895	-0.106668	0.433775	-0.487887	-0.103569	0.394058	-0.476364	-0.321282	0.409592	-0.485910	-0.326625	0.371989	-0.405699	-0.359326	0.299684	-0.545941	-0.388705	0.251528	-0.452341	-0.339162	0.206381	-0.515628	-0.374241	0.446306	-0.435398	-0.003255	1.343304	-0.116061	0.033111	1.353528	-0.425588	
78	0.3850	-0.033868	0.857511	-0.173277	0.001746	0.867444	-0.385114	-0.197631	0.919383	-0.264929	-0.173011	0.922393	-0.363671	-0.125835	0.663271	-0.152326	-0.070819	0.672129	-0.145368	-0.111082	0.619426	-0.160958	-0.060462	0.625684	-0.157474	-0.035948	0.416692	-0.239259	-0.032229	0.434632	-0.342169	-0.134443	0.316498	-0.246062	-0.088648	0.300214	-0.265634	-0.150406	0.279331	-0.259541	-0.108779	0.267028	-0.279575	-0.262659	0.096263	-0.352965	-0.244252	0.113172	-0.441168	-0.171545	0.030257	-0.339097	-0.155171	0.024997	-0.451003	-0.086147	0.035260	-0.401359	-0.337545	0.082747	-0.409446	-0.000331	0.706830	-0.463464	0.031987	0.720699	-0.433111	0.009391	0.671159	-0.468743	0.046070	0.684880	-0.442824	0.081145	0.438884	-0.441301	0.047944	0.431554	-0.328594	-0.042954	0.439076	-0.482527	-0.038178	0.393786	-0.465600	-0.089220	0.434171	-0.486312	-0.085861	0.394603	-0.474407	-0.303416	0.407759	-0.485554	-0.308984	0.370994	-0.405000	-0.338985	0.296788	-0.545034	-0.368908	0.249285	-0.451346	-0.317699	0.204107	-0.513637	-0.357581	0.444352	-0.435923	0.006693	1.343866	-0.115076	0.042201	1.354117	-0.424609	
79	0.3900	-0.025808	0.857452	-0.171966	0.010177	0.867867	-0.383780	-0.189289	0.919891	-0.263912	-0.164553	0.922997	-0.362604	-0.119273	0.663188	-0.151799	-0.064137	0.671497	-0.144812	-0.105016	0.619193	-0.160495	-0.054333	0.624893	-0.157037	-0.032488	0.415528	-0.239224	-0.028778	0.433480	-0.342092	-0.131912	0.316281	-0.245935	-0.086264	0.299591	-0.265555	-0.148220	0.279253	-0.259438	-0.106729	0.266596	-0.279515	-0.262261	0.096936	-0.352854	-0.243832	0.113922	-0.440979	-0.171641	0.030455	-0.339085	-0.155295	0.025236	-0.450984	-0.086461	0.035628	-0.401252	-0.337277	0.083808	-0.409188	0.010337	0.708699	-0.461840	0.042389	0.723053	-0.431236	0.020673	0.673145	-0.467051	0.057077	0.687450	-0.440845	0.096022	0.441539	-0.438821	0.061975	0.434317	-0.326148	-0.027791	0.439926	-0.480789	-0.022724	0.394785	-0.463514	-0.073921	0.434539	-0.484884	-0.070309	0.395111	-0.472627	-0.287744	0.405998	-0.485244	-0.293497	0.370019	-0.404369	-0.321070	0.294019	-0.544158	-0.351437	0.247147	-0.450369	-0.298734	0.201905	-0.511735	-0.343005	0.442493	-0.436430	0.015447	1.344444	-0.114222	0.050181	1.354707	-0.423746	
80	0.3950	-0.018821	0.857439	-0.170815	0.017488	0.868286	-0.382607	-0.182054	0.920375	-0.263011	-0.157214	0.923586	-0.361653	-0.113609	0.663157	-0.151323	-0.058369	0.670984	-0.144312	-0.099790	0.619032	-0.160067	-0.049056	0.624240	-0.156634	-0.029582	0.414554	-0.239156	-0.025863	0.432502	-0.341984	-0.129784	0.316131	-0.245792	-0.084266	0.299100	-0.265436	-0.146378	0.279226	-0.259311	-0.105005	0.266274	-0.279413	-0.261852	0.097551	-0.352725	-0.243405	0.114622	-0.440767	-0.171665	0.030630	-0.339069	-0.155349	0.025487	-0.450954	-0.086690	0.035984	-0.401147	-0.336972	0.084780	-0.408927	0.019546	0.710413	-0.460404	0.051363	0.725180	-0.429593	0.030409	0.674961	-0.465545	0.066567	0.689769	-0.439101	0.108876	0.443971	-0.436607	0.074074	0.436856	-0.323973	-0.014699	0.440711	-0.479235	-0.009358	0.395707	-0.461651	-0.060710	0.434874	-0.483611	-0.056859	0.395575	-0.471035	-0.274205	0.404352	-0.484976	-0.280108	0.369091	-0.403807	-0.305536	0.291440	-0.543334	-0.336257	0.245161	-0.449436	-0.282239	0.199832	-0.509964	-0.330444	0.440765	-0.436906	0.023035	1.345013	-0.113492	0.057083	1.355278	-0.422997	
81	0.4000	-0.012862	0.857461	-0.169820	0.023724	0.868687	-0.381594	-0.175882	0.920824	-0.262227	-0.150951	0.924142	-0.360820	-0.108799	0.663166	-0.150902	-0.053471	0.670576	-0.143870	-0.095362	0.618930	-0.159680	-0.044586	0.623712	-0.156272	-0.027180	0.413752	-0.239067	-0.023439	0.431683	-0.341858	-0.128023	0.316033	-0.245642	-0.082615	0.298722	-0.265294	-0.144849	0.279236	-0.259172	-0.103578	0.266041	-0.279283	-0.261449	0.098102	-0.352590	-0.242986	0.115260	-0.440547	-0.171637	0.030780	-0.339051	-0.155350	0.025736	-0.450917	-0.086849	0.036316	-0.401048	-0.336650	0.085652	-0.408675	0.027364	0.711950	-0.459158	0.058979	0.727061	-0.428178	0.038672	0.676586	-0.464229	0.074614	0.691821	-0.437593	0.119799	0.446150	-0.434667	0.084337	0.439136	-0.322072	-0.003583	0.441418	-0.477870	0.002011	0.396537	-0.460017	-0.049489	0.435171	-0.482498	-0.045420	0.395989	-0.469637	-0.262705	0.402852	-0.484748	-0.268726	0.368234	-0.403316	-0.292293	0.289096	-0.542579	-0.323290	0.243359	-0.448572	-0.268135	0.197932	-0.508353	-0.319799	0.439197	-0.437341	0.029504	1.345555	-0.112879	0.062955	1.355815	-0.422358	
82	0.4050	-0.007872	0.857507	-0.168978	0.028948	0.869059	-0.380735	-0.170713	0.921229	-0.261558	-0.145704	0.924651	-0.360107	-0.104787	0.663202	-0.150536	-0.049384	0.670259	-0.143487	-0.091675	0.618872	-0.159339	-0.040867	0.623293	-0.155953	-0.025230	0.413105	-0.238966	-0.021459	0.431012	-0.341724	-0.126590	0.315977	-0.245495	-0.081277	0.298439	-0.265141	-0.143603	0.279273	-0.259030	-0.102416	0.265881	-0.279140	-0.261067	0.098584	-0.352456	-0.242590	0.115827	-0.440331	-0.171574	0.030905	-0.339034	-0.155314	0.025970	-0.450878	-0.086952	0.036614	-0.400958	-0.336329	0.086419	-0.408439	0.033881	0.713296	-0.458097	0.065325	0.728691	-0.426983	0.045557	0.678008	-0.463102	0.081312	0.693596	-0.436313	0.128912	0.448058	-0.433000	0.092883	0.441138	-0.320446	0.005685	0.442041	-0.476695	0.011503	0.397269	-0.458613	-0.040134	0.435430	-0.481542	-0.035869	0.396350	-0.468435	-0.253116	0.401519	-0.484558	-0.259227	0.367464	-0.402896	-0.281212	0.287021	-0.541905	-0.312420	0.241764	-0.447791	-0.256302	0.196237	-0.506923	-0.310942	0.437811	-0.437727	0.034920	1.346054	-0.112372	0.067860	1.356305	-0.421823	
83	0.4100	-0.003777	0.857567	-0.168279	0.033234	0.869391	-0.380023	-0.166470	0.921583	-0.260999	-0.141396	0.925102	-0.359507	-0.101507	0.663254	-0.150225	-0.046043	0.670019	-0.143163	-0.088667	0.618848	-0.159044	-0.037835	0.622967	-0.155679	-0.023678	0.412593	-0.238862	-0.019873	0.430472	-0.341592	-0.125447	0.315951	-0.245356	-0.080212	0.298233	-0.264988	-0.142606	0.279325	-0.258894	-0.101489	0.265777	-0.278995	-0.260717	0.098997	-0.352330	-0.242229	0.116317	-0.440129	-0.171489	0.031007	-0.339018	-0.155254	0.026182	-0.450840	-0.087011	0.036873	-0.400880	-0.336025	0.087077	-0.408227	0.039202	0.714446	-0.457213	0.070505	0.730069	-0.425997	0.051176	0.679220	-0.462157	0.086776	0.695097	-0.435251	0.136360	0.449688	-0.431601	0.099856	0.442850	-0.319083	0.013254	0.442576	-0.475707	0.019267	0.397896	-0.457432	-0.032492	0.435650	-0.480740	-0.028057	0.396658	-0.467423	-0.245284	0.400366	-0.484401	-0.251463	0.366791	-0.402542	-0.272132	0.285231	-0.541318	-0.303495	0.240389	-0.447106	-0.246579	0.194767	-0.505688	-0.303722	0.436615	-0.438060	0.039362	1.346500	-0.111961	0.071874	1.356738	-0.421383	
