PathFileType	4	(X/Y/Z)	 P5 250r2 02.trc
DataRate	CameraRate	NumFrames	NumMarkers	Units	OrigDataRate	OrigDataStartFrame	OrigNumFrames
200	200	80	38	m	200	1	80
Frame#	Time	RASIS			LASIS			RPSIS			LPSIS			RThighRear1			RThighFront1			RThighRear2			RThighFront2			RKneeLat			RKneeMed			RShankRear1			RShankFront1			RShankRear2			RShankFront2			RAnkleLat			RAnkleMed			RM5			RM1			RMid			RHeel			LThighRear1			LThighFront1			LThighRear2			LThighFront2			LKneeLat			LKneeMed			LShankRear1			LShankFront1			LShankRear2			LShankFront2			LAnkleLat			LAnkleMed			LM5			LM1			LMid			LHeel			RShoulder			LShoulder			
		X1	Y1	Z1	X2	Y2	Z2	X3	Y3	Z3	X4	Y4	Z4	X5	Y5	Z5	X6	Y6	Z6	X7	Y7	Z7	X8	Y8	Z8	X9	Y9	Z9	X10	Y10	Z10	X11	Y11	Z11	X12	Y12	Z12	X13	Y13	Z13	X14	Y14	Z14	X15	Y15	Z15	X16	Y16	Z16	X17	Y17	Z17	X18	Y18	Z18	X19	Y19	Z19	X20	Y20	Z20	X21	Y21	Z21	X22	Y22	Z22	X23	Y23	Z23	X24	Y24	Z24	X25	Y25	Z25	X26	Y26	Z26	X27	Y27	Z27	X28	Y28	Z28	X29	Y29	Z29	X30	Y30	Z30	X31	Y31	Z31	X32	Y32	Z32	X33	Y33	Z33	X34	Y34	Z34	X35	Y35	Z35	X36	Y36	Z36	X37	Y37	Z37	X38	Y38	Z38	
1	0.0000	-1.486857	0.863823	-0.213462	-1.475844	0.896051	-0.426017	-1.649132	0.942651	-0.275409	-1.644016	0.951408	-0.373049	-1.632106	0.682259	-0.160620	-1.581567	0.674058	-0.161140	-1.635992	0.635911	-0.162874	-1.587900	0.624137	-0.164379	-1.663470	0.408615	-0.208492	-1.662195	0.408270	-0.322181	-1.797966	0.423114	-0.195071	-1.787847	0.376542	-0.209820	-1.837415	0.412898	-0.200917	-1.826871	0.369818	-0.220123	-2.061979	0.384027	-0.251892	-2.049738	0.375289	-0.337749	-2.143336	0.267998	-0.247554	-2.128681	0.263220	-0.356044	-2.121611	0.191606	-0.310401	-2.090072	0.450344	-0.294813	-1.495781	0.749836	-0.517057	-1.457599	0.767717	-0.496924	-1.482403	0.712895	-0.519787	-1.442318	0.734623	-0.507196	-1.357990	0.505037	-0.495283	-1.361079	0.498137	-0.390072	-1.405808	0.372924	-0.518724	-1.359989	0.371035	-0.503087	-1.408947	0.324436	-0.514921	-1.367722	0.322453	-0.502333	-1.417013	0.103329	-0.470661	-1.400737	0.115149	-0.385454	-1.314201	0.036330	-0.482405	-1.295595	0.037669	-0.368880	-1.222310	0.050318	-0.426556	-1.481910	0.078731	-0.421032	-1.341930	1.332806	-0.179504	-1.348118	1.325160	-0.481979	
2	0.0050	-1.471531	0.862340	-0.212463	-1.460513	0.894642	-0.425181	-1.634116	0.940937	-0.274580	-1.628780	0.950262	-0.372265	-1.612955	0.680224	-0.159271	-1.562265	0.673305	-0.159294	-1.615489	0.633993	-0.161022	-1.567190	0.623471	-0.162153	-1.636089	0.407129	-0.205184	-1.633818	0.406293	-0.319133	-1.769953	0.422080	-0.192635	-1.759983	0.375100	-0.206964	-1.809405	0.411844	-0.198757	-1.799042	0.368595	-0.217368	-2.034183	0.383441	-0.250132	-2.021648	0.374106	-0.335894	-2.113861	0.266843	-0.244616	-2.099168	0.261079	-0.353045	-2.091053	0.190221	-0.306749	-2.063165	0.449261	-0.293616	-1.481404	0.747049	-0.515956	-1.443000	0.764637	-0.495907	-1.468623	0.710030	-0.518521	-1.428194	0.731195	-0.506080	-1.346708	0.500804	-0.493437	-1.350792	0.494203	-0.388133	-1.396932	0.370180	-0.516885	-1.351610	0.367148	-0.500802	-1.401457	0.322004	-0.513118	-1.360700	0.318941	-0.499968	-1.416600	0.102747	-0.468733	-1.400922	0.113879	-0.383207	-1.314315	0.036494	-0.482268	-1.295515	0.037357	-0.368557	-1.222417	0.049781	-0.426105	-1.482592	0.077556	-0.419447	-1.327526	1.331647	-0.178028	-1.331916	1.323034	-0.481096	
3	0.0100	-1.456010	0.860869	-0.211445	-1.444966	0.893223	-0.424329	-1.618902	0.939222	-0.273751	-1.613329	0.949117	-0.371479	-1.593528	0.678222	-0.157907	-1.542693	0.672614	-0.157433	-1.594683	0.632123	-0.159148	-1.546182	0.622883	-0.159910	-1.608259	0.405750	-0.201834	-1.605000	0.404433	-0.316054	-1.741515	0.421083	-0.190160	-1.731669	0.373697	-0.204072	-1.780977	0.410816	-0.196545	-1.770766	0.367390	-0.214581	-2.006004	0.382751	-0.248339	-1.993164	0.372829	-0.334007	-2.083931	0.265530	-0.241645	-2.069186	0.258788	-0.350014	-2.059981	0.188690	-0.303061	-2.035925	0.448061	-0.292387	-1.466852	0.744228	-0.514830	-1.428217	0.761513	-0.494866	-1.454680	0.707129	-0.517230	-1.413899	0.727717	-0.504941	-1.335343	0.496491	-0.491559	-1.340416	0.490184	-0.386167	-1.388001	0.367388	-0.515027	-1.343194	0.363197	-0.498491	-1.393929	0.319536	-0.511296	-1.353659	0.315378	-0.497579	-1.416219	0.102175	-0.466803	-1.401123	0.112616	-0.380958	-1.314445	0.036660	-0.482127	-1.295437	0.037047	-0.368238	-1.222527	0.049267	-0.425663	-1.483309	0.076376	-0.417854	-1.312923	1.330498	-0.176518	-1.315478	1.320910	-0.480176	
4	0.0150	-1.440309	0.859437	-0.210403	-1.429206	0.891807	-0.423455	-1.603503	0.937530	-0.272925	-1.597667	0.947991	-0.370693	-1.573843	0.676296	-0.156527	-1.522872	0.672030	-0.155560	-1.573591	0.630350	-0.157256	-1.524898	0.622425	-0.157656	-1.580000	0.404550	-0.198450	-1.575770	0.402768	-0.312951	-1.712679	0.420146	-0.187646	-1.702916	0.372366	-0.201150	-1.752157	0.409828	-0.194277	-1.742053	0.366221	-0.211766	-1.977453	0.381898	-0.246508	-1.964296	0.371409	-0.332083	-2.053523	0.263990	-0.238642	-2.038707	0.256293	-0.346954	-2.028354	0.186964	-0.299345	-2.008372	0.446672	-0.291116	-1.452144	0.741393	-0.513676	-1.413273	0.758361	-0.493794	-1.440596	0.704214	-0.515912	-1.399457	0.724205	-0.503770	-1.323946	0.492117	-0.489652	-1.329994	0.486099	-0.384181	-1.379060	0.364568	-0.513159	-1.334787	0.359207	-0.496166	-1.386400	0.317053	-0.509464	-1.346636	0.311790	-0.495180	-1.415870	0.101631	-0.464890	-1.401331	0.111383	-0.378728	-1.314591	0.036824	-0.481981	-1.295361	0.036738	-0.367929	-1.222642	0.048783	-0.425237	-1.484054	0.075221	-0.416267	-1.298138	1.329385	-0.174968	-1.298812	1.318818	-0.479205	
5	0.0200	-1.424436	0.858071	-0.209331	-1.413230	0.890410	-0.422551	-1.587918	0.935886	-0.272104	-1.581791	0.946903	-0.369907	-1.553908	0.674493	-0.155131	-1.502815	0.671600	-0.153680	-1.552222	0.628725	-0.155348	-1.503351	0.622147	-0.155398	-1.551325	0.403599	-0.195038	-1.546152	0.401376	-0.309829	-1.683462	0.419294	-0.185093	-1.673725	0.371140	-0.198201	-1.722960	0.408896	-0.191945	-1.712900	0.365110	-0.208925	-1.948521	0.380819	-0.244633	-1.935032	0.369792	-0.330115	-2.022597	0.262156	-0.235607	-2.007685	0.253541	-0.343866	-1.996115	0.184995	-0.295604	-1.980511	0.445017	-0.289793	-1.437292	0.738564	-0.512484	-1.398181	0.755194	-0.492682	-1.426383	0.701303	-0.514561	-1.384884	0.720674	-0.502559	-1.312564	0.487704	-0.487718	-1.319565	0.481966	-0.382177	-1.370149	0.361743	-0.511291	-1.326429	0.355206	-0.493838	-1.378903	0.314579	-0.507632	-1.339666	0.308203	-0.492784	-1.415550	0.101136	-0.463016	-1.401536	0.110203	-0.376541	-1.314757	0.036980	-0.481830	-1.295290	0.036427	-0.367632	-1.222765	0.048335	-0.424832	-1.484816	0.074120	-0.414703	-1.283179	1.328338	-0.173372	-1.281918	1.316790	-0.478166	
6	0.0250	-1.408391	0.856800	-0.208220	-1.397027	0.889046	-0.421605	-1.572144	0.934316	-0.271289	-1.565688	0.945872	-0.369120	-1.533723	0.672857	-0.153717	-1.482526	0.671372	-0.151794	-1.530578	0.627301	-0.153424	-1.481549	0.622105	-0.153141	-1.522240	0.402971	-0.191604	-1.516161	0.400336	-0.306692	-1.653874	0.418550	-0.182498	-1.644090	0.370054	-0.195228	-1.693389	0.408031	-0.189544	-1.683298	0.364076	-0.206058	-1.919190	0.379448	-0.242705	-1.905352	0.367925	-0.328096	-1.991100	0.259957	-0.232540	-1.976059	0.250478	-0.340751	-1.963191	0.182735	-0.291842	-1.952333	0.443015	-0.288408	-1.422303	0.735761	-0.511249	-1.382947	0.752028	-0.491520	-1.412052	0.698419	-0.513172	-1.370191	0.717143	-0.501302	-1.301239	0.483276	-0.485757	-1.309166	0.477805	-0.380163	-1.361302	0.358937	-0.509431	-1.318157	0.351220	-0.491518	-1.371469	0.312139	-0.505809	-1.332780	0.304649	-0.490405	-1.415255	0.100712	-0.461201	-1.401724	0.109102	-0.374421	-1.314943	0.037125	-0.481672	-1.295225	0.036113	-0.367350	-1.222895	0.047928	-0.424453	-1.485582	0.073107	-0.413177	-1.268048	1.327386	-0.171721	-1.264793	1.314858	-0.477043	
7	0.0300	-1.392168	0.855654	-0.207060	-1.380579	0.887731	-0.420607	-1.556168	0.932845	-0.270482	-1.549341	0.944918	-0.368333	-1.513286	0.671437	-0.152281	-1.462008	0.671393	-0.149906	-1.508657	0.626127	-0.151483	-1.459494	0.622351	-0.150891	-1.492752	0.402734	-0.188153	-1.485810	0.399722	-0.303543	-1.623921	0.417935	-0.179860	-1.614000	0.369140	-0.192230	-1.663447	0.407246	-0.187066	-1.653230	0.363137	-0.203163	-1.889431	0.377720	-0.240716	-1.875224	0.365754	-0.326018	-1.958968	0.257328	-0.229438	-1.943758	0.247053	-0.337607	-1.929501	0.180143	-0.288060	-1.923818	0.440585	-0.286948	-1.407177	0.733005	-0.509961	-1.367573	0.748878	-0.490299	-1.397604	0.695584	-0.511740	-1.355383	0.713626	-0.499988	-1.290011	0.478859	-0.483772	-1.298831	0.473640	-0.378141	-1.352554	0.356177	-0.507587	-1.310003	0.347283	-0.489216	-1.364125	0.309761	-0.504004	-1.326004	0.301159	-0.488056	-1.414976	0.100382	-0.459463	-1.401880	0.108102	-0.372388	-1.315150	0.037253	-0.481507	-1.295171	0.035791	-0.367087	-1.223037	0.047568	-0.424104	-1.486334	0.072216	-0.411707	-1.252746	1.326561	-0.170008	-1.247426	1.313055	-0.475818	
8	0.0350	-1.375759	0.854661	-0.205843	-1.363866	0.886480	-0.419544	-1.539976	0.931499	-0.269682	-1.532730	0.944062	-0.367545	-1.492593	0.670275	-0.150819	-1.441259	0.671708	-0.148014	-1.486459	0.625252	-0.149525	-1.437189	0.622933	-0.148649	-1.462867	0.402955	-0.184690	-1.455115	0.399604	-0.300383	-1.593608	0.417470	-0.177177	-1.583446	0.368429	-0.189211	-1.633134	0.406550	-0.184505	-1.622684	0.362314	-0.200238	-1.859209	0.375574	-0.238659	-1.844611	0.363225	-0.323873	-1.926130	0.254209	-0.226299	-1.910708	0.243220	-0.334430	-1.894959	0.177181	-0.284258	-1.894938	0.437646	-0.285403	-1.391910	0.730316	-0.508614	-1.352059	0.745757	-0.489007	-1.383040	0.692819	-0.510257	-1.340464	0.710141	-0.498608	-1.278915	0.474480	-0.481765	-1.288594	0.469495	-0.376116	-1.343932	0.353492	-0.505769	-1.301996	0.343425	-0.486944	-1.356893	0.307475	-0.502226	-1.319360	0.297766	-0.485750	-1.414702	0.100168	-0.457822	-1.401989	0.107229	-0.370464	-1.315377	0.037358	-0.481334	-1.295129	0.035457	-0.366844	-1.223192	0.047254	-0.423788	-1.487055	0.071484	-0.410307	-1.237269	1.325893	-0.168226	-1.229808	1.311414	-0.474475	
9	0.0400	-1.359152	0.853849	-0.204558	-1.346868	0.885308	-0.418403	-1.523550	0.930304	-0.268889	-1.515832	0.943323	-0.366752	-1.471639	0.669415	-0.149327	-1.420279	0.672359	-0.146119	-1.463980	0.624724	-0.147549	-1.414634	0.623899	-0.146418	-1.432599	0.403691	-0.181218	-1.424094	0.400043	-0.297212	-1.562943	0.417170	-0.174446	-1.552423	0.367948	-0.186171	-1.602450	0.405949	-0.181858	-1.591648	0.361621	-0.197281	-1.828487	0.372950	-0.236524	-1.813474	0.360291	-0.321651	-1.892519	0.250549	-0.223118	-1.876833	0.238942	-0.331219	-1.859484	0.173823	-0.280435	-1.865661	0.434124	-0.283762	-1.376496	0.727715	-0.507198	-1.336402	0.742682	-0.487635	-1.368357	0.690146	-0.508720	-1.325435	0.706706	-0.497155	-1.267981	0.470172	-0.479737	-1.278484	0.465400	-0.374092	-1.335462	0.350912	-0.503985	-1.294158	0.339684	-0.484712	-1.349792	0.305309	-0.500484	-1.312866	0.294507	-0.483500	-1.414419	0.100094	-0.456295	-1.402031	0.106505	-0.368671	-1.315624	0.037437	-0.481153	-1.295101	0.035108	-0.366622	-1.223362	0.046987	-0.423506	-1.487722	0.070948	-0.408995	-1.221614	1.325414	-0.166365	-1.211926	1.309968	-0.472997	
10	0.0450	-1.342335	0.853244	-0.203196	-1.329564	0.884232	-0.417171	-1.506872	0.929285	-0.268100	-1.498626	0.942721	-0.365952	-1.450422	0.668895	-0.147800	-1.399068	0.673383	-0.144221	-1.441223	0.624582	-0.145552	-1.391835	0.625287	-0.144199	-1.401969	0.404995	-0.177743	-1.392775	0.401093	-0.294032	-1.531943	0.417050	-0.171666	-1.520932	0.367720	-0.183109	-1.571403	0.405447	-0.179121	-1.560118	0.361074	-0.194287	-1.797228	0.369798	-0.234303	-1.781774	0.356908	-0.319345	-1.858067	0.246306	-0.219891	-1.842064	0.234189	-0.327967	-1.823001	0.170050	-0.276588	-1.835950	0.429947	-0.282014	-1.360929	0.725225	-0.505708	-1.320596	0.739669	-0.486174	-1.353551	0.687590	-0.507121	-1.310293	0.703340	-0.495620	-1.257237	0.465967	-0.477693	-1.268528	0.461387	-0.372075	-1.327164	0.348470	-0.502243	-1.286507	0.336096	-0.482530	-1.342837	0.303296	-0.498787	-1.306533	0.291418	-0.481320	-1.414109	0.100182	-0.454899	-1.401988	0.105955	-0.367026	-1.315887	0.037485	-0.480964	-1.295089	0.034741	-0.366424	-1.223549	0.046766	-0.423259	-1.488310	0.070645	-0.407786	-1.205778	1.325153	-0.164422	-1.193773	1.308746	-0.471370	
11	0.0500	-1.325296	0.852870	-0.201747	-1.311935	0.883266	-0.415835	-1.489927	0.928465	-0.267313	-1.481093	0.942275	-0.365143	-1.428944	0.668750	-0.146233	-1.377630	0.674809	-0.142318	-1.418195	0.624862	-0.143534	-1.368801	0.627129	-0.141994	-1.371011	0.406904	-0.174269	-1.361193	0.402793	-0.290842	-1.500627	0.417117	-0.168837	-1.488987	0.367767	-0.180028	-1.540005	0.405045	-0.176292	-1.528101	0.360685	-0.191254	-1.765397	0.366072	-0.231988	-1.749477	0.353039	-0.316947	-1.822716	0.241453	-0.216614	-1.806338	0.228944	-0.324670	-1.785445	0.165858	-0.272714	-1.805769	0.425054	-0.280151	-1.345201	0.722866	-0.504136	-1.304638	0.736734	-0.484616	-1.338617	0.685174	-0.505458	-1.295040	0.700060	-0.493996	-1.246703	0.461902	-0.475636	-1.258749	0.457490	-0.370068	-1.319053	0.346200	-0.500550	-1.279056	0.332701	-0.480409	-1.336036	0.301469	-0.497144	-1.300368	0.288538	-0.479221	-1.413748	0.100453	-0.453649	-1.401837	0.105598	-0.365545	-1.316160	0.037498	-0.480766	-1.295095	0.034350	-0.366249	-1.223753	0.046587	-0.423047	-1.488789	0.070614	-0.406693	-1.189761	1.325140	-0.162389	-1.175342	1.307780	-0.469580	
12	0.0550	-1.308024	0.852749	-0.200201	-1.293967	0.882425	-0.414384	-1.472697	0.927865	-0.266524	-1.463216	0.942000	-0.364319	-1.407210	0.669007	-0.144620	-1.355972	0.676664	-0.140407	-1.394906	0.625593	-0.141492	-1.345545	0.629451	-0.139802	-1.339767	0.409448	-0.170801	-1.329393	0.405170	-0.287641	-1.469026	0.417376	-0.165959	-1.456610	0.368101	-0.176927	-1.508278	0.404740	-0.173371	-1.495611	0.360462	-0.188178	-1.732964	0.361739	-0.229572	-1.716553	0.348656	-0.314448	-1.786417	0.235974	-0.213280	-1.769604	0.223202	-0.321324	-1.746766	0.161254	-0.268810	-1.775083	0.419394	-0.278163	-1.329306	0.720661	-0.502478	-1.288526	0.733895	-0.482952	-1.323550	0.682920	-0.503725	-1.279674	0.696889	-0.492277	-1.236399	0.458016	-0.473570	-1.249170	0.453747	-0.368076	-1.311139	0.344139	-0.498916	-1.271812	0.329539	-0.478357	-1.329394	0.299862	-0.495563	-1.294371	0.285905	-0.477215	-1.413312	0.100929	-0.452557	-1.401554	0.105457	-0.364245	-1.316438	0.037476	-0.480560	-1.295120	0.033935	-0.366098	-1.223975	0.046441	-0.422868	-1.489129	0.070890	-0.405732	-1.173563	1.325401	-0.160263	-1.156632	1.307095	-0.467618	
13	0.0600	-1.290511	0.852900	-0.198553	-1.275649	0.881722	-0.412807	-1.455172	0.927504	-0.265729	-1.444984	0.941912	-0.363476	-1.385231	0.669690	-0.142959	-1.334106	0.678961	-0.138487	-1.371377	0.626794	-0.139424	-1.322085	0.632265	-0.137621	-1.308293	0.412642	-0.167345	-1.297434	0.408237	-0.284430	-1.437181	0.417826	-0.163031	-1.423836	0.368732	-0.173808	-1.476251	0.404525	-0.170360	-1.462677	0.360413	-0.185055	-1.699907	0.356773	-0.227049	-1.682980	0.343738	-0.311841	-1.749130	0.229871	-0.209884	-1.731824	0.216971	-0.317920	-1.706932	0.156260	-0.264870	-1.743857	0.412926	-0.276044	-1.313238	0.718630	-0.500727	-1.272256	0.731170	-0.481177	-1.308346	0.680853	-0.501919	-1.264196	0.693847	-0.490459	-1.226334	0.454349	-0.471500	-1.239805	0.450199	-0.366103	-1.303428	0.342323	-0.497345	-1.264773	0.326652	-0.476385	-1.322911	0.298508	-0.494051	-1.288536	0.283558	-0.475314	-1.412772	0.101629	-0.451634	-1.401116	0.105549	-0.363138	-1.316711	0.037417	-0.480348	-1.295164	0.033495	-0.365969	-1.224215	0.046322	-0.422720	-1.489296	0.071511	-0.404915	-1.157188	1.325957	-0.158042	-1.137646	1.306716	-0.465474	
14	0.0650	-1.272750	0.853335	-0.196794	-1.256976	0.881171	-0.411095	-1.437343	0.927398	-0.264922	-1.426389	0.942025	-0.362608	-1.363024	0.670811	-0.141242	-1.312048	0.681709	-0.136555	-1.347631	0.628477	-0.137330	-1.298447	0.635578	-0.135452	-1.276657	0.416485	-0.163906	-1.265381	0.411992	-0.281208	-1.405138	0.418461	-0.160057	-1.390712	0.369661	-0.170671	-1.443963	0.404391	-0.167263	-1.429339	0.360537	-0.181882	-1.666207	0.351163	-0.224411	-1.648741	0.338275	-0.309120	-1.710831	0.223160	-0.206421	-1.692975	0.210272	-0.314454	-1.665927	0.150910	-0.260890	-1.712062	0.405622	-0.273785	-1.296993	0.716795	-0.498882	-1.255831	0.728577	-0.479287	-1.293003	0.678994	-0.500039	-1.248607	0.690955	-0.488536	-1.216515	0.450943	-0.469430	-1.230667	0.446890	-0.364154	-1.295918	0.340788	-0.495844	-1.257935	0.324082	-0.474500	-1.316581	0.297441	-0.492615	-1.282852	0.281537	-0.473525	-1.412095	0.102571	-0.450889	-1.400495	0.105892	-0.362233	-1.316968	0.037323	-0.480130	-1.295226	0.033030	-0.365864	-1.224472	0.046220	-0.422597	-1.489251	0.072510	-0.404255	-1.140644	1.326829	-0.155725	-1.118391	1.306663	-0.463142	
15	0.0700	-1.254739	0.854065	-0.194922	-1.237948	0.880785	-0.409239	-1.419203	0.927559	-0.264096	-1.407430	0.942349	-0.361708	-1.340610	0.672379	-0.139467	-1.289818	0.684905	-0.134607	-1.323698	0.630646	-0.135206	-1.274660	0.639381	-0.133290	-1.244935	0.420965	-0.160492	-1.233310	0.416417	-0.277976	-1.372955	0.419267	-0.157038	-1.357298	0.370886	-0.167517	-1.411460	0.404325	-0.164085	-1.395646	0.360835	-0.178657	-1.631854	0.344906	-0.221654	-1.613831	0.332268	-0.306279	-1.671508	0.215874	-0.202884	-1.653048	0.203141	-0.310917	-1.623754	0.145253	-0.256864	-1.679670	0.397468	-0.271381	-1.280568	0.715176	-0.496940	-1.239250	0.726135	-0.477277	-1.277518	0.677367	-0.498084	-1.232910	0.688236	-0.486507	-1.206942	0.447841	-0.467366	-1.221762	0.443862	-0.362231	-1.288605	0.339572	-0.494418	-1.251285	0.321869	-0.472708	-1.310391	0.296693	-0.491261	-1.277300	0.279879	-0.471859	-1.411245	0.103771	-0.450329	-1.399664	0.106501	-0.361538	-1.317196	0.037199	-0.479909	-1.295304	0.032544	-0.365780	-1.224742	0.046121	-0.422496	-1.488957	0.073920	-0.403763	-1.123938	1.328032	-0.153312	-1.098880	1.306952	-0.460621	
16	0.0750	-1.236475	0.855096	-0.192932	-1.218569	0.880572	-0.407236	-1.400752	0.927996	-0.263243	-1.388109	0.942892	-0.360769	-1.318015	0.674392	-0.137630	-1.267440	0.688537	-0.132639	-1.299616	0.633293	-0.133053	-1.250757	0.643658	-0.131134	-1.213215	0.426054	-0.157108	-1.201306	0.421478	-0.274732	-1.340695	0.420228	-0.153978	-1.323663	0.372396	-0.164347	-1.378795	0.404309	-0.160832	-1.361660	0.361301	-0.175376	-1.596845	0.338014	-0.218773	-1.578250	0.325728	-0.303313	-1.631163	0.208060	-0.199267	-1.612051	0.195627	-0.307304	-1.580435	0.139351	-0.252784	-1.646658	0.388464	-0.268826	-1.263965	0.713791	-0.494899	-1.222519	0.723864	-0.475146	-1.261889	0.675993	-0.496051	-1.217108	0.685713	-0.484371	-1.197609	0.445085	-0.465313	-1.213092	0.441162	-0.360339	-1.281473	0.338709	-0.493069	-1.244804	0.320053	-0.471017	-1.304325	0.296296	-0.489993	-1.271858	0.278619	-0.470321	-1.410187	0.105244	-0.449957	-1.398594	0.107392	-0.361057	-1.317379	0.037051	-0.479688	-1.295393	0.032043	-0.365719	-1.225022	0.046013	-0.422410	-1.488371	0.075771	-0.403448	-1.107083	1.329575	-0.150805	-1.079131	1.307595	-0.457910	
17	0.0800	-1.217962	0.856428	-0.190824	-1.198851	0.880543	-0.405083	-1.381992	0.928715	-0.262356	-1.368437	0.943659	-0.359782	-1.295268	0.676840	-0.135728	-1.244942	0.692585	-0.130647	-1.275423	0.636401	-0.130868	-1.226776	0.648382	-0.128979	-1.181589	0.431710	-0.153762	-1.169459	0.427127	-0.271477	-1.308427	0.421321	-0.150879	-1.289884	0.374176	-0.161161	-1.346026	0.404326	-0.157510	-1.327449	0.361924	-0.172039	-1.561185	0.330509	-0.215762	-1.542007	0.318675	-0.300215	-1.589812	0.199783	-0.195562	-1.570007	0.187791	-0.303605	-1.536012	0.133279	-0.248643	-1.613007	0.378625	-0.266116	-1.247184	0.712659	-0.492760	-1.205642	0.721781	-0.472895	-1.246117	0.674890	-0.493943	-1.201205	0.683407	-0.482125	-1.188502	0.442713	-0.463274	-1.204650	0.438833	-0.358478	-1.274506	0.338233	-0.491800	-1.238466	0.318670	-0.469429	-1.298360	0.296278	-0.488815	-1.266495	0.277791	-0.468916	-1.408879	0.107002	-0.449776	-1.397255	0.108574	-0.360794	-1.317499	0.036888	-0.479470	-1.295489	0.031535	-0.365678	-1.225305	0.045883	-0.422334	-1.487453	0.078089	-0.403319	-1.090092	1.331464	-0.148208	-1.059164	1.308599	-0.455010	
18	0.0850	-1.199203	0.858059	-0.188599	-1.178808	0.880704	-0.402780	-1.362929	0.929715	-0.261424	-1.348426	0.944652	-0.358738	-1.272403	0.679704	-0.133758	-1.222351	0.697019	-0.128628	-1.251163	0.639945	-0.128651	-1.202756	0.653512	-0.126822	-1.150156	0.437879	-0.150459	-1.137862	0.433302	-0.268212	-1.276224	0.422519	-0.147746	-1.256045	0.376203	-0.157960	-1.313217	0.404353	-0.154129	-1.293091	0.362693	-0.168643	-1.524882	0.322428	-0.212618	-1.505118	0.311141	-0.296982	-1.547483	0.191118	-0.191763	-1.526953	0.179706	-0.299814	-1.490542	0.127120	-0.244435	-1.578700	0.367978	-0.263244	-1.230227	0.711796	-0.490524	-1.188627	0.719907	-0.470525	-1.230202	0.674075	-0.491760	-1.185206	0.681341	-0.479773	-1.179603	0.440765	-0.461254	-1.196424	0.436918	-0.356649	-1.267678	0.338173	-0.490610	-1.232242	0.317755	-0.467948	-1.292469	0.296664	-0.487729	-1.261178	0.277422	-0.467648	-1.407283	0.109057	-0.449785	-1.395620	0.110061	-0.360746	-1.317535	0.036724	-0.479258	-1.295585	0.031035	-0.365658	-1.225587	0.045717	-0.422262	-1.486159	0.080897	-0.403383	-1.072978	1.333699	-0.145526	-1.039004	1.309968	-0.451928	
19	0.0900	-1.180205	0.859978	-0.186260	-1.158461	0.881061	-0.400329	-1.343574	0.930993	-0.260438	-1.328094	0.945869	-0.357629	-1.249454	0.682959	-0.131719	-1.199700	0.701799	-0.126576	-1.226883	0.643888	-0.126401	-1.178739	0.659003	-0.124657	-1.119013	0.444492	-0.147207	-1.106609	0.439928	-0.264938	-1.244159	0.423790	-0.144583	-1.222236	0.378452	-0.154743	-1.280433	0.404367	-0.150695	-1.258665	0.363591	-0.165190	-1.487954	0.313815	-0.209336	-1.467607	0.303168	-0.293608	-1.504217	0.182154	-0.187863	-1.482940	0.171455	-0.295922	-1.444099	0.120969	-0.240151	-1.543729	0.356566	-0.260207	-1.213099	0.711214	-0.488194	-1.171480	0.718256	-0.468038	-1.214144	0.673564	-0.489504	-1.169115	0.679533	-0.477315	-1.170883	0.439273	-0.459256	-1.188394	0.435455	-0.354853	-1.260959	0.338557	-0.489498	-1.226095	0.317335	-0.466572	-1.286617	0.297478	-0.486734	-1.255868	0.277538	-0.466516	-1.405357	0.111416	-0.449980	-1.393657	0.111859	-0.360910	-1.317467	0.036575	-0.479057	-1.295672	0.030558	-0.365660	-1.225856	0.045503	-0.422187	-1.484449	0.084215	-0.403642	-1.055758	1.336274	-0.142763	-1.018677	1.311697	-0.448670	
20	0.0950	-1.160975	0.862172	-0.183812	-1.137832	0.881618	-0.397736	-1.323937	0.932541	-0.259389	-1.307464	0.947307	-0.356444	-1.226458	0.686570	-0.129609	-1.177017	0.706880	-0.124488	-1.202627	0.648190	-0.124117	-1.154765	0.664797	-0.122481	-1.088259	0.451474	-0.144010	-1.075793	0.446920	-0.261657	-1.212305	0.425100	-0.141393	-1.188547	0.380890	-0.151511	-1.247739	0.404344	-0.147216	-1.224254	0.364598	-0.161678	-1.450423	0.304726	-0.205912	-1.429504	0.294805	-0.290091	-1.460065	0.172988	-0.183853	-1.438032	0.163128	-0.291922	-1.396771	0.114924	-0.235783	-1.508085	0.344444	-0.257000	-1.195805	0.710924	-0.485772	-1.154210	0.716845	-0.465440	-1.197944	0.673369	-0.487178	-1.152935	0.678002	-0.474755	-1.162313	0.438266	-0.457281	-1.180535	0.434479	-0.353088	-1.254314	0.339407	-0.488460	-1.219984	0.317435	-0.465302	-1.280769	0.298737	-0.485829	-1.250523	0.278158	-0.465519	-1.403063	0.114088	-0.450355	-1.391341	0.113978	-0.361279	-1.317269	0.036463	-0.478872	-1.295740	0.030125	-0.365684	-1.226104	0.045228	-0.422103	-1.482283	0.088058	-0.404100	-1.038446	1.339179	-0.139927	-0.998213	1.313781	-0.445245	
21	0.1000	-1.141524	0.864625	-0.181262	-1.116949	0.882374	-0.395009	-1.304036	0.934346	-0.258265	-1.286559	0.948957	-0.355175	-1.203450	0.690496	-0.127429	-1.154334	0.712208	-0.122358	-1.178441	0.652797	-0.121800	-1.130875	0.670830	-0.120286	-1.057988	0.458738	-0.140874	-1.045504	0.454184	-0.258368	-1.180733	0.426411	-0.138180	-1.155068	0.383483	-0.148263	-1.215199	0.404259	-0.143699	-1.189942	0.365694	-0.158108	-1.412316	0.295227	-0.202344	-1.390844	0.286110	-0.286426	-1.415090	0.163726	-0.179728	-1.392304	0.154821	-0.287806	-1.348658	0.109088	-0.231324	-1.471770	0.331679	-0.253618	-1.178352	0.710933	-0.483263	-1.136824	0.715686	-0.462735	-1.181604	0.673496	-0.484785	-1.136672	0.676764	-0.472096	-1.153852	0.437765	-0.455330	-1.172813	0.434019	-0.351350	-1.247700	0.340739	-0.487491	-1.213864	0.318071	-0.464132	-1.274884	0.300454	-0.485009	-1.245098	0.279295	-0.464653	-1.400362	0.117078	-0.450903	-1.388644	0.116421	-0.361844	-1.316917	0.036410	-0.478708	-1.295775	0.029761	-0.365732	-1.226318	0.044884	-0.422006	-1.479622	0.092436	-0.404756	-1.021058	1.342396	-0.137025	-0.977640	1.316206	-0.441666	
22	0.1050	-1.121862	0.867313	-0.178619	-1.095841	0.883328	-0.392158	-1.283886	0.936393	-0.257057	-1.265409	0.950808	-0.353813	-1.180465	0.694692	-0.125179	-1.131680	0.717724	-0.120182	-1.154369	0.657655	-0.119448	-1.107105	0.677034	-0.118068	-1.028287	0.466192	-0.137804	-1.015825	0.461620	-0.255075	-1.149509	0.427685	-0.134947	-1.121886	0.386191	-0.144997	-1.182876	0.404086	-0.140151	-1.155811	0.366855	-0.154482	-1.373667	0.285389	-0.198628	-1.351668	0.277147	-0.282610	-1.369363	0.154477	-0.175481	-1.345842	0.146632	-0.283567	-1.299872	0.103567	-0.226766	-1.434787	0.318349	-0.250059	-1.160744	0.711244	-0.480672	-1.119330	0.714791	-0.459932	-1.165126	0.673949	-0.482327	-1.120327	0.675829	-0.469343	-1.145458	0.437786	-0.453403	-1.165189	0.434098	-0.349636	-1.241075	0.342564	-0.486583	-1.207689	0.319253	-0.463056	-1.268917	0.302637	-0.484271	-1.239545	0.280956	-0.463910	-1.397220	0.120388	-0.451613	-1.385542	0.119195	-0.362592	-1.316386	0.036445	-0.478571	-1.295763	0.029492	-0.365807	-1.226484	0.044467	-0.421890	-1.476432	0.097356	-0.405607	-1.003605	1.345903	-0.134063	-0.956988	1.318956	-0.437944	
23	0.1100	-1.102001	0.870212	-0.175892	-1.074537	0.884476	-0.389196	-1.263507	0.938661	-0.255757	-1.244041	0.952846	-0.352350	-1.157537	0.699104	-0.122859	-1.109080	0.723363	-0.117957	-1.130452	0.662700	-0.117061	-1.083490	0.683334	-0.115822	-0.999234	0.473738	-0.134802	-0.986830	0.469124	-0.251779	-1.118695	0.428881	-0.131697	-1.089085	0.388975	-0.141713	-1.150827	0.403803	-0.136576	-1.121939	0.368055	-0.150801	-1.334513	0.275292	-0.194762	-1.312024	0.267986	-0.278642	-1.322964	0.145353	-0.171107	-1.298740	0.138662	-0.279200	-1.250532	0.098462	-0.222105	-1.397148	0.304539	-0.246319	-1.142990	0.711857	-0.478004	-1.101735	0.714165	-0.457038	-1.148509	0.674728	-0.479810	-1.103903	0.675207	-0.466503	-1.137082	0.438336	-0.451497	-1.157617	0.434728	-0.347941	-1.234390	0.344885	-0.485726	-1.201407	0.320984	-0.462067	-1.262823	0.305288	-0.483605	-1.233817	0.283140	-0.463281	-1.393605	0.124021	-0.452471	-1.382013	0.122300	-0.363509	-1.315650	0.036599	-0.478465	-1.295687	0.029352	-0.365910	-1.226588	0.043973	-0.421755	-1.472682	0.102817	-0.406646	-0.986102	1.349675	-0.131050	-0.936285	1.322008	-0.434094	
24	0.1150	-1.081955	0.873292	-0.173093	-1.053069	0.885810	-0.386136	-1.242921	0.941126	-0.254357	-1.222486	0.955054	-0.350779	-1.134695	0.703676	-0.120473	-1.086561	0.729061	-0.115677	-1.106727	0.667868	-0.114639	-1.060063	0.689653	-0.113540	-0.970900	0.481280	-0.131870	-0.958584	0.476591	-0.248483	-1.088343	0.429963	-0.128433	-1.056740	0.391792	-0.138409	-1.119105	0.403387	-0.132980	-1.088400	0.369270	-0.147068	-1.294898	0.265018	-0.190744	-1.271962	0.258700	-0.274520	-1.275982	0.136464	-0.166600	-1.251101	0.131009	-0.274700	-1.200767	0.093871	-0.217334	-1.358872	0.290346	-0.242394	-1.125095	0.712766	-0.475265	-1.084047	0.713812	-0.454063	-1.131755	0.675828	-0.477236	-1.087399	0.674900	-0.463582	-1.128672	0.439411	-0.449611	-1.150048	0.435913	-0.346256	-1.227594	0.347701	-0.484911	-1.194969	0.323257	-0.461154	-1.256555	0.308404	-0.483002	-1.227866	0.285841	-0.462755	-1.389489	0.127978	-0.453461	-1.378040	0.125740	-0.364578	-1.314682	0.036908	-0.478397	-1.295529	0.029375	-0.366046	-1.226613	0.043407	-0.421598	-1.468346	0.108818	-0.407865	-0.968558	1.353679	-0.127991	-0.915560	1.325337	-0.430130	
25	0.1200	-1.061736	0.876524	-0.170233	-1.031468	0.887322	-0.382995	-1.222149	0.943762	-0.252850	-1.200777	0.957412	-0.349094	-1.111970	0.708351	-0.118021	-1.064143	0.734749	-0.113340	-1.083227	0.673091	-0.112182	-1.036849	0.695915	-0.111219	-0.943340	0.488718	-0.129010	-0.931140	0.483918	-0.245189	-1.058500	0.430891	-0.125156	-1.024922	0.394601	-0.135083	-1.087757	0.402819	-0.129366	-1.055261	0.370475	-0.143285	-1.254871	0.254651	-0.186573	-1.231541	0.249364	-0.270244	-1.228514	0.127917	-0.161959	-1.203035	0.123766	-0.270064	-1.150708	0.089884	-0.212450	-1.319985	0.275869	-0.238285	-1.107067	0.713962	-0.472464	-1.066269	0.713732	-0.451017	-1.114865	0.677237	-0.474610	-1.070815	0.674909	-0.460587	-1.120175	0.441000	-0.447738	-1.142426	0.437649	-0.344575	-1.220636	0.351000	-0.484124	-1.188324	0.326059	-0.460306	-1.250064	0.311973	-0.482451	-1.221646	0.289043	-0.462318	-1.384852	0.132258	-0.454567	-1.373606	0.129513	-0.365778	-1.313458	0.037408	-0.478372	-1.295268	0.029599	-0.366219	-1.226541	0.042777	-0.421420	-1.463403	0.115348	-0.409248	-0.950983	1.357880	-0.124894	-0.894839	1.328915	-0.426069	
26	0.1250	-1.041359	0.879873	-0.167325	-1.009767	0.888998	-0.379789	-1.201214	0.946538	-0.251231	-1.178944	0.959900	-0.347291	-1.089384	0.713067	-0.115506	-1.041845	0.740358	-0.110942	-1.059981	0.678302	-0.109689	-1.013872	0.702043	-0.108852	-0.916597	0.495958	-0.126219	-0.904537	0.491004	-0.241899	-1.029203	0.431633	-0.121869	-0.993688	0.397362	-0.131734	-1.056825	0.402080	-0.125737	-1.022582	0.371643	-0.139456	-1.214488	0.244279	-0.182251	-1.190822	0.240056	-0.265814	-1.180662	0.119811	-0.157182	-1.154658	0.117019	-0.265292	-1.100494	0.086582	-0.207453	-1.280525	0.261213	-0.233989	-1.088912	0.715430	-0.469606	-1.048406	0.713920	-0.447910	-1.097838	0.678940	-0.471937	-1.054147	0.675226	-0.457526	-1.111533	0.443082	-0.445876	-1.134692	0.439920	-0.342890	-1.213463	0.354764	-0.483352	-1.181420	0.329366	-0.459509	-1.243303	0.315979	-0.481940	-1.215112	0.292724	-0.461953	-1.379675	0.136860	-0.455768	-1.368700	0.133618	-0.367088	-1.311952	0.038141	-0.478395	-1.294881	0.030063	-0.366433	-1.226352	0.042098	-0.421225	-1.457837	0.122396	-0.410781	-0.933384	1.362240	-0.121765	-0.874146	1.332707	-0.421925	
27	0.1300	-1.020838	0.883306	-0.164382	-0.987994	0.890823	-0.376534	-1.180139	0.949424	-0.249496	-1.157017	0.962491	-0.345367	-1.066961	0.717765	-0.112931	-1.019682	0.745824	-0.108481	-1.037012	0.683432	-0.107160	-0.991148	0.707964	-0.106434	-0.890702	0.502909	-0.123497	-0.878803	0.497757	-0.238615	-1.000481	0.432158	-0.118571	-0.963090	0.400035	-0.128361	-1.026344	0.401157	-0.122093	-0.990417	0.372753	-0.135585	-1.173811	0.233986	-0.177779	-1.149874	0.230850	-0.261235	-1.132537	0.112237	-0.152272	-1.106094	0.110847	-0.260384	-1.050265	0.084030	-0.202345	-1.240538	0.246486	-0.229511	-1.070637	0.717152	-0.466699	-1.030462	0.714365	-0.444755	-1.080676	0.680915	-0.469220	-1.037394	0.675839	-0.454407	-1.102688	0.445626	-0.444016	-1.126784	0.442697	-0.341192	-1.206021	0.358968	-0.482580	-1.174209	0.333148	-0.458748	-1.236225	0.320400	-0.481453	-1.208221	0.296855	-0.461644	-1.373948	0.141781	-0.457043	-1.363316	0.138052	-0.368485	-1.310142	0.039149	-0.478471	-1.294344	0.030808	-0.366694	-1.226027	0.041392	-0.421018	-1.451641	0.129942	-0.412442	-0.915766	1.366716	-0.118610	-0.853503	1.336681	-0.417714	
28	0.1350	-1.000189	0.886786	-0.161417	-0.966180	0.892781	-0.373249	-1.158948	0.952385	-0.247645	-1.135028	0.965161	-0.343323	-1.044717	0.722386	-0.110300	-0.997669	0.751083	-0.105955	-1.014338	0.688418	-0.104593	-0.968691	0.713608	-0.103961	-0.865669	0.509490	-0.120839	-0.853951	0.504090	-0.235341	-0.972354	0.432439	-0.115263	-0.933166	0.402582	-0.124962	-0.996341	0.400041	-0.118435	-0.958809	0.373782	-0.131677	-1.132909	0.223855	-0.173162	-1.108771	0.221819	-0.256510	-1.084257	0.105272	-0.147233	-1.057468	0.105313	-0.255347	-1.000164	0.082280	-0.197128	-1.200082	0.231794	-0.224853	-1.052247	0.719103	-0.463751	-1.012437	0.715055	-0.441563	-1.063377	0.683136	-0.466465	-1.020548	0.676732	-0.451241	-1.093584	0.448590	-0.442154	-1.118641	0.445944	-0.339471	-1.198260	0.363580	-0.481792	-1.166645	0.337364	-0.458009	-1.228787	0.325207	-0.480977	-1.200934	0.301400	-0.461372	-1.367665	0.147020	-0.458369	-1.357448	0.142812	-0.369944	-1.308006	0.040475	-0.478604	-1.293631	0.031875	-0.367006	-1.225545	0.040687	-0.420807	-1.444808	0.137966	-0.414206	-0.898134	1.371265	-0.115431	-0.832930	1.340797	-0.413452	
29	0.1400	-0.979427	0.890279	-0.158441	-0.944350	0.894850	-0.369949	-1.137664	0.955389	-0.245678	-1.113004	0.967883	-0.341161	-1.022667	0.726873	-0.107616	-0.975813	0.756076	-0.103363	-0.991971	0.693199	-0.101988	-0.946510	0.718912	-0.101430	-0.841501	0.515625	-0.118241	-0.829979	0.509930	-0.232078	-0.944834	0.432455	-0.111945	-0.903947	0.404972	-0.121536	-0.966840	0.398725	-0.114765	-0.927795	0.374710	-0.127735	-1.091858	0.213962	-0.168405	-1.067592	0.213031	-0.251646	-1.035943	0.098981	-0.142071	-1.008914	0.100470	-0.250187	-0.950334	0.081365	-0.191811	-1.159228	0.217245	-0.220022	-1.033750	0.721255	-0.460771	-0.994332	0.715969	-0.438347	-1.045942	0.685573	-0.463675	-1.003604	0.677883	-0.448036	-1.084162	0.451925	-0.440282	-1.110196	0.449611	-0.337719	-1.190128	0.368559	-0.480973	-1.158684	0.341968	-0.457275	-1.220945	0.330366	-0.480494	-1.193216	0.306316	-0.461117	-1.360827	0.152572	-0.459721	-1.351095	0.147891	-0.371438	-1.305523	0.042163	-0.478797	-1.292714	0.033305	-0.367373	-1.224881	0.040017	-0.420600	-1.437342	0.146442	-0.416045	-0.880489	1.375842	-0.112233	-0.812445	1.345019	-0.409154	
30	0.1450	-0.958568	0.893750	-0.155465	-0.922530	0.897010	-0.366652	-1.116311	0.958400	-0.243598	-1.090973	0.970628	-0.338883	-1.000821	0.731174	-0.104882	-0.954123	0.760750	-0.100704	-0.969918	0.697719	-0.099344	-0.924608	0.723821	-0.098836	-0.818185	0.521252	-0.115694	-0.806875	0.515213	-0.228827	-0.917925	0.432191	-0.108618	-0.875451	0.407173	-0.118084	-0.937858	0.397208	-0.111081	-0.897406	0.375521	-0.123765	-1.050744	0.204381	-0.163519	-1.026426	0.204549	-0.246653	-0.987728	0.093412	-0.136799	-0.960568	0.096355	-0.244914	-0.900919	0.081300	-0.186402	-1.118061	0.202942	-0.215028	-1.015149	0.723576	-0.457766	-0.976146	0.717087	-0.435118	-1.028371	0.688189	-0.460854	-0.986554	0.679264	-0.444803	-1.074368	0.455574	-0.438393	-1.101387	0.453642	-0.335927	-1.181578	0.373860	-0.480107	-1.150285	0.346906	-0.456531	-1.212660	0.335836	-0.479988	-1.185036	0.311557	-0.460859	-1.353439	0.158433	-0.461072	-1.344261	0.153281	-0.372940	-1.302675	0.044257	-0.479051	-1.291562	0.035137	-0.367801	-1.224014	0.039423	-0.420411	-1.429249	0.155340	-0.417927	-0.862833	1.380399	-0.109019	-0.792062	1.349306	-0.404834	
31	0.1500	-0.937628	0.897166	-0.152501	-0.900743	0.899236	-0.363371	-1.094912	0.961385	-0.241409	-1.068961	0.973368	-0.336497	-0.979188	0.735241	-0.102100	-0.932602	0.765060	-0.097979	-0.948184	0.701928	-0.096661	-0.902986	0.728286	-0.096178	-0.795696	0.526320	-0.113192	-0.784611	0.519890	-0.225590	-0.891625	0.431639	-0.105282	-0.847689	0.409161	-0.114604	-0.909407	0.395492	-0.107384	-0.867662	0.376200	-0.119772	-1.009659	0.195175	-0.158513	-0.985363	0.196429	-0.241544	-0.939745	0.088596	-0.131429	-0.912568	0.092987	-0.239544	-0.852063	0.082079	-0.180916	-1.076676	0.188982	-0.209885	-0.996449	0.726030	-0.454744	-0.957877	0.718380	-0.431887	-1.010662	0.690945	-0.458009	-0.969390	0.680843	-0.441552	-1.064149	0.459470	-0.436482	-1.092151	0.457967	-0.334088	-1.172565	0.379431	-0.479179	-1.141412	0.352120	-0.455761	-1.203895	0.341575	-0.479442	-1.176365	0.317070	-0.460579	-1.345509	0.164600	-0.462396	-1.336948	0.158974	-0.374423	-1.299445	0.046799	-0.479366	-1.290144	0.037405	-0.368291	-1.222917	0.038952	-0.420253	-1.420539	0.164629	-0.419816	-0.845166	1.384890	-0.105789	-0.771795	1.353618	-0.400505	
32	0.1550	-0.916624	0.900493	-0.149558	-0.879009	0.901502	-0.360121	-1.073490	0.964308	-0.239119	-1.046991	0.976072	-0.334010	-0.957771	0.739030	-0.099275	-0.911253	0.768967	-0.095189	-0.926765	0.705785	-0.093935	-0.881639	0.732269	-0.093453	-0.773998	0.530787	-0.110726	-0.763148	0.523924	-0.222367	-0.865925	0.430794	-0.101937	-0.820660	0.410913	-0.111099	-0.881496	0.393582	-0.103676	-0.838578	0.376734	-0.115763	-0.968705	0.186400	-0.153403	-0.944505	0.188719	-0.236333	-0.892138	0.084546	-0.125980	-0.865057	0.090371	-0.234092	-0.803906	0.083674	-0.175369	-1.035184	0.175459	-0.204610	-0.977655	0.728579	-0.451713	-0.939522	0.719819	-0.428667	-0.992814	0.693797	-0.455141	-0.952100	0.682583	-0.438293	-1.053452	0.463543	-0.434541	-1.082424	0.462513	-0.332194	-1.163045	0.385216	-0.478174	-1.132032	0.357546	-0.454950	-1.194616	0.347535	-0.478839	-1.167180	0.322799	-0.460257	-1.337051	0.171066	-0.463665	-1.329162	0.164959	-0.375858	-1.295817	0.049828	-0.479743	-1.288426	0.040143	-0.368848	-1.221565	0.038654	-0.420140	-1.411226	0.174273	-0.421672	-0.827488	1.389270	-0.102544	-0.751653	1.357916	-0.396181	
33	0.1600	-0.895572	0.903702	-0.146643	-0.857344	0.903783	-0.356912	-1.052065	0.967139	-0.236735	-1.025084	0.978714	-0.331431	-0.936572	0.742505	-0.096410	-0.890077	0.772440	-0.092336	-0.905655	0.709253	-0.091167	-0.860561	0.735743	-0.090662	-0.753044	0.534628	-0.108285	-0.742436	0.527292	-0.219158	-0.840811	0.429661	-0.098583	-0.794357	0.412414	-0.107570	-0.854131	0.391491	-0.099956	-0.810163	0.377115	-0.111745	-0.927989	0.178103	-0.148207	-0.903954	0.181459	-0.231039	-0.845050	0.081257	-0.120472	-0.818178	0.088491	-0.228580	-0.756587	0.086040	-0.169780	-0.993707	0.162458	-0.199223	-0.958769	0.731181	-0.448680	-0.921076	0.721369	-0.425468	-0.974825	0.696701	-0.452257	-0.934675	0.684446	-0.435037	-1.042232	0.467717	-0.432566	-1.072148	0.467197	-0.330241	-1.152978	0.391156	-0.477080	-1.122113	0.363115	-0.454084	-1.184793	0.353665	-0.478162	-1.157458	0.328686	-0.459874	-1.328078	0.177826	-0.464851	-1.320908	0.171224	-0.377217	-1.291774	0.053380	-0.480177	-1.286372	0.043377	-0.369471	-1.219928	0.038584	-0.420089	-1.401327	0.184237	-0.423454	-0.809797	1.393493	-0.099284	-0.731645	1.362162	-0.391871	
34	0.1650	-0.874488	0.906764	-0.143763	-0.835763	0.906052	-0.353754	-1.030658	0.969846	-0.234267	-1.003258	0.981262	-0.328772	-0.915589	0.745637	-0.093506	-0.869071	0.775458	-0.089421	-0.884844	0.712308	-0.088356	-0.839741	0.738687	-0.087804	-0.732777	0.537830	-0.105859	-0.722418	0.529988	-0.215963	-0.816265	0.428248	-0.095222	-0.768766	0.413652	-0.104019	-0.827311	0.389231	-0.096227	-0.782421	0.377336	-0.107723	-0.887629	0.170319	-0.142944	-0.863822	0.174677	-0.225681	-0.798632	0.078705	-0.114928	-0.772076	0.087315	-0.223031	-0.710242	0.089108	-0.164171	-0.952381	0.150053	-0.193749	-0.939792	0.733795	-0.445653	-0.902534	0.722996	-0.422299	-0.956693	0.699609	-0.449359	-0.917101	0.686389	-0.431793	-1.030444	0.471913	-0.430552	-1.061266	0.471933	-0.328223	-1.142329	0.397187	-0.475883	-1.111628	0.368759	-0.453150	-1.174395	0.359913	-0.477396	-1.147182	0.334671	-0.459412	-1.318604	0.184872	-0.465925	-1.312190	0.177752	-0.378471	-1.287303	0.057486	-0.480663	-1.283944	0.047128	-0.370160	-1.217977	0.038798	-0.420116	-1.390857	0.194480	-0.425119	-0.792091	1.397517	-0.096006	-0.711777	1.366317	-0.387586	
35	0.1700	-0.853387	0.909655	-0.140921	-0.814277	0.908280	-0.350654	-1.009286	0.972402	-0.231726	-0.981529	0.983691	-0.326045	-0.894818	0.748403	-0.090566	-0.848232	0.778007	-0.086449	-0.864317	0.714931	-0.085500	-0.819166	0.741095	-0.084879	-0.713134	0.540391	-0.103437	-0.703025	0.532017	-0.212779	-0.792265	0.426571	-0.091855	-0.743865	0.414617	-0.100450	-0.801039	0.386818	-0.092492	-0.755350	0.377392	-0.103707	-0.847746	0.163074	-0.137639	-0.824223	0.168394	-0.220285	-0.753036	0.076851	-0.109375	-0.726896	0.086796	-0.217472	-0.665003	0.092791	-0.158567	-0.911350	0.138312	-0.188216	-0.920726	0.736375	-0.442638	-0.883888	0.724662	-0.419169	-0.938414	0.702472	-0.446451	-0.899366	0.688369	-0.428571	-1.018045	0.476052	-0.428496	-1.049723	0.476631	-0.326137	-1.131062	0.403247	-0.474573	-1.100554	0.374407	-0.452137	-1.163398	0.366225	-0.476525	-1.136334	0.340693	-0.458855	-1.308645	0.192196	-0.466860	-1.303009	0.184527	-0.379593	-1.282385	0.062172	-0.481195	-1.281100	0.051412	-0.370911	-1.215678	0.039355	-0.420237	-1.379830	0.204964	-0.426620	-0.774367	1.401302	-0.092709	-0.692051	1.370345	-0.383334	
36	0.1750	-0.832285	0.912353	-0.138121	-0.792894	0.910441	-0.347617	-0.987968	0.974779	-0.229125	-0.959911	0.985974	-0.323263	-0.874252	0.750788	-0.087593	-0.827556	0.780084	-0.083423	-0.844059	0.717112	-0.082598	-0.798822	0.742968	-0.081891	-0.694047	0.542322	-0.101009	-0.684185	0.533396	-0.209606	-0.768788	0.424649	-0.088485	-0.719628	0.415309	-0.096868	-0.775311	0.384273	-0.088755	-0.728945	0.377281	-0.099703	-0.808468	0.156383	-0.132317	-0.785276	0.162620	-0.214877	-0.708415	0.075638	-0.103841	-0.682781	0.086870	-0.211930	-0.620996	0.096986	-0.152994	-0.870769	0.127291	-0.182657	-0.901568	0.738878	-0.439641	-0.865130	0.726328	-0.416086	-0.919983	0.705241	-0.443539	-0.881456	0.690340	-0.425379	-1.004999	0.480052	-0.426395	-1.037469	0.481201	-0.323981	-1.119145	0.409269	-0.473141	-1.088866	0.379989	-0.451035	-1.151776	0.372546	-0.475535	-1.124900	0.346692	-0.458187	-1.298210	0.199787	-0.467627	-1.293365	0.191530	-0.380556	-1.277003	0.067458	-0.481763	-1.277796	0.056236	-0.371720	-1.212995	0.040309	-0.420467	-1.368260	0.215647	-0.427912	-0.756621	1.404810	-0.089390	-0.672469	1.374213	-0.379124	
37	0.1800	-0.811196	0.914838	-0.135363	-0.771619	0.912507	-0.344646	-0.966716	0.976956	-0.226474	-0.938413	0.988085	-0.320441	-0.853881	0.752784	-0.084590	-0.807035	0.781693	-0.080346	-0.824048	0.718849	-0.079652	-0.778689	0.744317	-0.078841	-0.675440	0.543644	-0.098563	-0.665821	0.534156	-0.206440	-0.745809	0.422505	-0.085114	-0.696024	0.415725	-0.093277	-0.750125	0.381617	-0.085022	-0.703198	0.377002	-0.095719	-0.769925	0.150250	-0.127007	-0.747101	0.157353	-0.209485	-0.664922	0.074994	-0.098358	-0.639869	0.087457	-0.206436	-0.578341	0.101574	-0.147481	-0.830798	0.117033	-0.177107	-0.882315	0.741262	-0.436666	-0.846249	0.727958	-0.413055	-0.901393	0.707869	-0.440623	-0.863353	0.692258	-0.422226	-0.991270	0.483837	-0.424247	-1.024455	0.485553	-0.321755	-1.106549	0.415193	-0.471578	-1.076543	0.385438	-0.449834	-1.139504	0.378823	-0.474413	-1.112862	0.352610	-0.457395	-1.287306	0.207634	-0.468199	-1.283250	0.198739	-0.381334	-1.271134	0.073353	-0.482354	-1.273985	0.061597	-0.372576	-1.209888	0.041714	-0.420817	-1.356155	0.226488	-0.428949	-0.738850	1.408007	-0.086045	-0.653029	1.377891	-0.374960	
38	0.1850	-0.790131	0.917094	-0.132648	-0.750453	0.914454	-0.341740	-0.945542	0.978912	-0.223788	-0.917041	0.990002	-0.317591	-0.833694	0.754389	-0.081557	-0.786661	0.782845	-0.077224	-0.804262	0.720149	-0.076660	-0.758750	0.745162	-0.075733	-0.657239	0.544388	-0.096089	-0.647851	0.534337	-0.203278	-0.723301	0.420167	-0.081746	-0.673020	0.415869	-0.089684	-0.725477	0.378870	-0.081299	-0.678098	0.376555	-0.091766	-0.732249	0.144668	-0.121740	-0.709819	0.152584	-0.204141	-0.622707	0.074838	-0.092956	-0.598298	0.088469	-0.201022	-0.537151	0.106424	-0.142056	-0.791603	0.107573	-0.171602	-0.862961	0.743485	-0.433718	-0.827235	0.729513	-0.410081	-0.882636	0.710311	-0.437709	-0.845042	0.694080	-0.419119	-0.976825	0.487333	-0.422052	-1.010638	0.489603	-0.319458	-1.093243	0.420954	-0.469879	-1.063562	0.390688	-0.448527	-1.126560	0.385002	-0.473147	-1.100205	0.358391	-0.456467	-1.275934	0.215722	-0.468550	-1.272653	0.206129	-0.381903	-1.264755	0.079862	-0.482954	-1.269615	0.067489	-0.373471	-1.206311	0.043617	-0.421298	-1.343518	0.237444	-0.429685	-0.721046	1.410864	-0.082670	-0.633727	1.381349	-0.370847	
39	0.1900	-0.769100	0.919109	-0.129971	-0.729394	0.916256	-0.338898	-0.924456	0.980631	-0.221078	-0.895800	0.991702	-0.314727	-0.813677	0.755607	-0.078498	-0.766425	0.783559	-0.074061	-0.784677	0.721025	-0.073624	-0.738983	0.745529	-0.072571	-0.639365	0.544594	-0.093580	-0.630193	0.533986	-0.200117	-0.701239	0.417664	-0.078386	-0.650581	0.415749	-0.086096	-0.701364	0.376057	-0.077596	-0.653631	0.375943	-0.087853	-0.695573	0.139622	-0.116549	-0.673549	0.148293	-0.198878	-0.581916	0.075078	-0.087668	-0.558195	0.089806	-0.195720	-0.497530	0.111396	-0.136749	-0.753350	0.098931	-0.166184	-0.843497	0.745508	-0.430798	-0.808073	0.730958	-0.407166	-0.863699	0.712523	-0.434797	-0.826504	0.695764	-0.416063	-0.961634	0.490472	-0.419807	-0.995976	0.493268	-0.317091	-1.079200	0.426497	-0.468040	-1.049903	0.395680	-0.447109	-1.112917	0.391033	-0.471727	-1.086911	0.363983	-0.455392	-1.264088	0.224031	-0.468657	-1.261553	0.213673	-0.382241	-1.257834	0.086977	-0.483547	-1.264633	0.073891	-0.374389	-1.202216	0.046059	-0.421916	-1.330345	0.248473	-0.430079	-0.703203	1.413355	-0.079260	-0.614557	1.384563	-0.366789	
40	0.1950	-0.748113	0.920874	-0.127328	-0.708437	0.917892	-0.336115	-0.903462	0.982100	-0.218355	-0.874688	0.993169	-0.311864	-0.793814	0.756451	-0.075414	-0.746315	0.783859	-0.070863	-0.765265	0.721495	-0.070546	-0.719365	0.745451	-0.069361	-0.621745	0.544306	-0.091026	-0.612767	0.533158	-0.196953	-0.679597	0.415028	-0.075040	-0.628669	0.415371	-0.082520	-0.677780	0.373200	-0.073920	-0.629783	0.375167	-0.083989	-0.660026	0.135088	-0.111466	-0.638409	0.144455	-0.193728	-0.542688	0.075614	-0.082526	-0.519683	0.091362	-0.190562	-0.459574	0.116348	-0.131591	-0.716204	0.091120	-0.160891	-0.823911	0.747297	-0.427910	-0.788748	0.732261	-0.404311	-0.844570	0.714466	-0.431891	-0.807718	0.697273	-0.413062	-0.945668	0.493193	-0.417514	-0.980432	0.496475	-0.314655	-1.064392	0.431766	-0.466056	-1.035541	0.400358	-0.445573	-1.098552	0.396869	-0.470145	-1.072957	0.369337	-0.454162	-1.251752	0.232542	-0.468496	-1.249924	0.221342	-0.382324	-1.250336	0.094683	-0.484111	-1.258978	0.080780	-0.375314	-1.197547	0.049072	-0.422671	-1.316624	0.259532	-0.430091	-0.685313	1.415459	-0.075813	-0.595509	1.387512	-0.362787	
41	0.2000	-0.727174	0.922381	-0.124716	-0.687575	0.919342	-0.333386	-0.882563	0.983309	-0.215631	-0.853704	0.994385	-0.309012	-0.774088	0.756935	-0.072308	-0.726317	0.783775	-0.067635	-0.745998	0.721585	-0.067429	-0.699873	0.744968	-0.066108	-0.604303	0.543574	-0.088422	-0.595493	0.531912	-0.193784	-0.658350	0.412290	-0.071713	-0.607247	0.414746	-0.078967	-0.654720	0.370321	-0.070284	-0.606538	0.374231	-0.080185	-0.625732	0.131036	-0.106526	-0.604510	0.141035	-0.188726	-0.505153	0.076346	-0.077559	-0.482872	0.093028	-0.185579	-0.423367	0.121134	-0.126609	-0.680326	0.084137	-0.155764	-0.804190	0.748819	-0.425052	-0.769243	0.733391	-0.401515	-0.825232	0.716106	-0.428992	-0.788664	0.698573	-0.410117	-0.928901	0.495443	-0.415171	-0.963972	0.499160	-0.312150	-1.048790	0.436713	-0.463925	-1.020451	0.404675	-0.443915	-1.083435	0.402466	-0.468392	-1.058319	0.374411	-0.452769	-1.238903	0.241229	-0.468046	-1.237731	0.229104	-0.382136	-1.242219	0.102954	-0.484627	-1.252589	0.088118	-0.376224	-1.192243	0.052675	-0.423559	-1.302336	0.270579	-0.429684	-0.667365	1.417162	-0.072322	-0.576572	1.390179	-0.358841	
42	0.2050	-0.706286	0.923627	-0.122125	-0.666796	0.920587	-0.330704	-0.861758	0.984253	-0.212915	-0.832840	0.995337	-0.306182	-0.754477	0.757080	-0.069184	-0.706418	0.783340	-0.064382	-0.726848	0.721322	-0.064277	-0.680482	0.744121	-0.062818	-0.586970	0.542450	-0.085764	-0.578295	0.530309	-0.190606	-0.637476	0.409481	-0.068413	-0.586280	0.413885	-0.075444	-0.632181	0.367440	-0.066697	-0.583881	0.373138	-0.076452	-0.592807	0.127429	-0.101762	-0.571958	0.137995	-0.183906	-0.469430	0.077171	-0.072799	-0.447863	0.094694	-0.180803	-0.388982	0.125611	-0.121833	-0.645868	0.077974	-0.150845	-0.784317	0.750048	-0.422224	-0.749538	0.734325	-0.398774	-0.805666	0.717413	-0.426099	-0.769317	0.699635	-0.407231	-0.911305	0.497181	-0.412777	-0.946564	0.501269	-0.309578	-1.032366	0.441295	-0.461647	-1.004606	0.408590	-0.442131	-1.067538	0.407783	-0.466461	-1.042970	0.379167	-0.451206	-1.225509	0.250064	-0.467289	-1.224932	0.236925	-0.381657	-1.233433	0.111752	-0.485068	-1.245398	0.095863	-0.377098	-1.186237	0.056880	-0.424571	-1.287452	0.281570	-0.428830	-0.649346	1.418453	-0.068784	-0.557730	1.392550	-0.354951	
43	0.2100	-0.685448	0.924614	-0.119549	-0.646087	0.921615	-0.328059	-0.841041	0.984930	-0.210216	-0.812085	0.996017	-0.303385	-0.734962	0.756910	-0.066043	-0.686600	0.782590	-0.061110	-0.707784	0.720738	-0.061095	-0.661168	0.742954	-0.059499	-0.569681	0.540988	-0.083049	-0.561106	0.528412	-0.187418	-0.616953	0.406632	-0.065146	-0.565732	0.412801	-0.071964	-0.610156	0.364577	-0.063172	-0.561795	0.371890	-0.072801	-0.561360	0.124225	-0.097205	-0.540850	0.135290	-0.179301	-0.435625	0.077991	-0.068272	-0.414743	0.096252	-0.176261	-0.356481	0.129646	-0.117287	-0.612972	0.072609	-0.146170	-0.764270	0.750963	-0.419423	-0.729613	0.735042	-0.396084	-0.785850	0.718365	-0.423212	-0.749654	0.700436	-0.404399	-0.892857	0.498375	-0.410332	-0.928181	0.502760	-0.306938	-1.015089	0.445475	-0.459221	-0.987976	0.412069	-0.440216	-1.050830	0.412786	-0.464348	-1.026878	0.383573	-0.449467	-1.211525	0.259013	-0.466209	-1.211477	0.244770	-0.380873	-1.223922	0.121032	-0.485410	-1.237335	0.103965	-0.377908	-1.179456	0.061681	-0.425690	-1.271936	0.292462	-0.427502	-0.631242	1.419326	-0.065195	-0.538967	1.394616	-0.351115	
44	0.2150	-0.664658	0.925342	-0.116980	-0.625430	0.922414	-0.325442	-0.820403	0.985341	-0.207539	-0.791428	0.996416	-0.300626	-0.715518	0.756451	-0.062890	-0.666847	0.781563	-0.057825	-0.688778	0.719868	-0.057887	-0.641905	0.741512	-0.056158	-0.552376	0.539240	-0.080279	-0.543861	0.526279	-0.184219	-0.596761	0.403771	-0.061922	-0.545571	0.411504	-0.068536	-0.588640	0.361749	-0.059721	-0.540264	0.370491	-0.069244	-0.531486	0.121380	-0.092887	-0.511271	0.132877	-0.174942	-0.403827	0.078712	-0.064001	-0.383585	0.097603	-0.171978	-0.325911	0.133114	-0.112997	-0.581766	0.068015	-0.141776	-0.744026	0.751548	-0.416645	-0.709444	0.735526	-0.393436	-0.765758	0.718945	-0.420331	-0.729650	0.700960	-0.401620	-0.873531	0.499003	-0.407832	-0.908799	0.503605	-0.304228	-0.996928	0.449225	-0.456646	-0.970529	0.415088	-0.438166	-1.033276	0.417443	-0.462049	-1.010005	0.387603	-0.447547	-1.196901	0.268040	-0.464793	-1.197307	0.252600	-0.379772	-1.213623	0.130735	-0.485624	-1.228325	0.112365	-0.378626	-1.171821	0.067062	-0.426892	-1.255742	0.303214	-0.425683	-0.613036	1.419784	-0.061551	-0.520265	1.396372	-0.347331	
45	0.2200	-0.643907	0.925817	-0.114407	-0.604809	0.922977	-0.322844	-0.799833	0.985491	-0.204890	-0.770852	0.996533	-0.297913	-0.696123	0.755731	-0.059729	-0.647140	0.780295	-0.054532	-0.669799	0.718744	-0.054663	-0.622669	0.739838	-0.052803	-0.535006	0.537257	-0.077455	-0.526506	0.523969	-0.181009	-0.576883	0.400925	-0.058748	-0.525765	0.410009	-0.065171	-0.567627	0.358971	-0.056356	-0.519271	0.368943	-0.065792	-0.503266	0.118850	-0.088835	-0.483296	0.130708	-0.170859	-0.374111	0.079252	-0.060008	-0.354444	0.098653	-0.167978	-0.297305	0.135907	-0.108983	-0.552360	0.064155	-0.137695	-0.723561	0.751795	-0.413884	-0.689007	0.735769	-0.390824	-0.745364	0.719144	-0.417452	-0.709277	0.701195	-0.398886	-0.853305	0.499059	-0.405273	-0.888397	0.503791	-0.301445	-0.977854	0.452521	-0.453922	-0.952231	0.417630	-0.435977	-1.014840	0.421731	-0.459559	-0.992314	0.391238	-0.445441	-1.181576	0.277103	-0.463032	-1.182361	0.260377	-0.378343	-1.202464	0.140796	-0.485682	-1.218293	0.121001	-0.379221	-1.163247	0.072990	-0.428147	-1.238821	0.313783	-0.423362	-0.594709	1.419833	-0.057850	-0.501601	1.397819	-0.343594	
46	0.2250	-0.623188	0.926048	-0.111823	-0.584204	0.923300	-0.320254	-0.779317	0.985388	-0.202272	-0.750339	0.996368	-0.295249	-0.676754	0.754779	-0.056565	-0.627459	0.778823	-0.051236	-0.650820	0.717403	-0.051429	-0.603434	0.737976	-0.049442	-0.517527	0.535084	-0.074583	-0.508997	0.521535	-0.177792	-0.557304	0.398116	-0.055632	-0.506290	0.408327	-0.061882	-0.547111	0.356256	-0.053090	-0.498802	0.367251	-0.062456	-0.476767	0.116591	-0.085075	-0.456984	0.128739	-0.167076	-0.346529	0.079538	-0.056309	-0.327361	0.099322	-0.164280	-0.270684	0.137934	-0.105263	-0.524847	0.060988	-0.133953	-0.702847	0.751700	-0.411134	-0.668278	0.735769	-0.388234	-0.724641	0.718959	-0.414573	-0.688510	0.701140	-0.396189	-0.832156	0.498545	-0.402651	-0.866959	0.503317	-0.298586	-0.957835	0.455352	-0.451050	-0.933046	0.419689	-0.433643	-0.995488	0.425630	-0.456877	-0.973763	0.394467	-0.443144	-1.165485	0.286157	-0.460919	-1.166571	0.268060	-0.376579	-1.190373	0.151139	-0.485554	-1.207161	0.129802	-0.379662	-1.153647	0.079421	-0.429420	-1.221115	0.324126	-0.420535	-0.576242	1.419483	-0.054088	-0.482954	1.398958	-0.339901	
47	0.2300	-0.602487	0.926042	-0.109217	-0.563593	0.923384	-0.317662	-0.758835	0.985043	-0.199685	-0.729870	0.995926	-0.292636	-0.657385	0.753624	-0.053401	-0.607785	0.777182	-0.047944	-0.631813	0.715878	-0.048194	-0.584179	0.735965	-0.046084	-0.499904	0.532766	-0.071670	-0.491298	0.519022	-0.174570	-0.538013	0.395364	-0.052583	-0.487120	0.406470	-0.058680	-0.527087	0.353613	-0.049934	-0.478842	0.365418	-0.059249	-0.452038	0.114559	-0.081626	-0.432382	0.126926	-0.163616	-0.321116	0.079511	-0.052918	-0.302359	0.099544	-0.160898	-0.246053	0.139125	-0.101852	-0.499297	0.058465	-0.130573	-0.681856	0.751268	-0.408385	-0.647232	0.735528	-0.385657	-0.703558	0.718396	-0.411688	-0.667324	0.700798	-0.393520	-0.810065	0.497478	-0.399957	-0.844474	0.502198	-0.295645	-0.936841	0.457709	-0.448030	-0.912938	0.421265	-0.431158	-0.975181	0.429127	-0.454002	-0.954308	0.397282	-0.440653	-1.148557	0.295154	-0.458450	-1.149867	0.275610	-0.374475	-1.177268	0.161681	-0.485210	-1.194851	0.138697	-0.379913	-1.142929	0.086297	-0.430666	-1.202566	0.334201	-0.417209	-0.557612	1.418753	-0.050265	-0.464300	1.399800	-0.336247	
48	0.2350	-0.581793	0.925813	-0.106581	-0.542956	0.923234	-0.315059	-0.738371	0.984472	-0.197128	-0.709424	0.995214	-0.290073	-0.637995	0.752294	-0.050244	-0.588099	0.775404	-0.044660	-0.612756	0.714200	-0.044966	-0.564882	0.733840	-0.042738	-0.482114	0.530337	-0.068727	-0.473387	0.516472	-0.171350	-0.518999	0.392687	-0.049609	-0.468238	0.404451	-0.055577	-0.507548	0.351051	-0.046899	-0.459379	0.363448	-0.056181	-0.429110	0.112715	-0.078505	-0.409520	0.125230	-0.160499	-0.297885	0.079127	-0.049843	-0.279441	0.099268	-0.157842	-0.223401	0.139431	-0.098761	-0.475761	0.056536	-0.127572	-0.660560	0.750508	-0.405630	-0.625845	0.735056	-0.383078	-0.682087	0.717469	-0.408792	-0.645693	0.700182	-0.390866	-0.787014	0.495885	-0.397184	-0.820934	0.500463	-0.292613	-0.914845	0.459596	-0.444861	-0.891871	0.422368	-0.428516	-0.953887	0.432214	-0.450931	-0.933906	0.399683	-0.437963	-1.130718	0.304042	-0.455626	-1.132181	0.282987	-0.372028	-1.163071	0.172331	-0.484622	-1.181290	0.147608	-0.379942	-1.131002	0.093547	-0.431840	-1.183112	0.343968	-0.413394	-0.538798	1.417665	-0.046381	-0.445617	1.400355	-0.332629	
49	0.2400	-0.561088	0.925374	-0.103908	-0.522273	0.922857	-0.312436	-0.717903	0.983690	-0.194599	-0.688981	0.994246	-0.287558	-0.618564	0.750818	-0.047098	-0.568383	0.773518	-0.041391	-0.593628	0.712401	-0.041757	-0.545526	0.731633	-0.039412	-0.464142	0.527829	-0.065764	-0.455253	0.513917	-0.168139	-0.500258	0.390097	-0.046718	-0.449630	0.402281	-0.052584	-0.488490	0.348575	-0.043995	-0.440401	0.361345	-0.053262	-0.407996	0.111025	-0.075724	-0.388410	0.123615	-0.157736	-0.276830	0.078357	-0.047087	-0.258593	0.098461	-0.155120	-0.202706	0.138830	-0.095997	-0.454262	0.055147	-0.124960	-0.638932	0.749439	-0.402859	-0.604094	0.734369	-0.380483	-0.660201	0.716197	-0.405879	-0.623597	0.699311	-0.388214	-0.762991	0.493804	-0.394321	-0.796340	0.498154	-0.289482	-0.891822	0.461020	-0.441542	-0.869814	0.423015	-0.425709	-0.931572	0.434889	-0.447666	-0.912518	0.401677	-0.435071	-1.111899	0.312768	-0.452453	-1.113444	0.290152	-0.369241	-1.147700	0.182995	-0.483761	-1.166406	0.156460	-0.379714	-1.117777	0.101090	-0.432888	-1.162698	0.353384	-0.409113	-0.519778	1.416247	-0.042435	-0.426881	1.400640	-0.329041	
50	0.2450	-0.540360	0.924741	-0.101189	-0.501527	0.922266	-0.309786	-0.697412	0.982718	-0.192093	-0.668520	0.993036	-0.285087	-0.599073	0.749222	-0.043971	-0.548621	0.771550	-0.038141	-0.574413	0.710507	-0.038575	-0.526096	0.729371	-0.036116	-0.445985	0.525268	-0.062796	-0.436896	0.511384	-0.164948	-0.481786	0.387604	-0.043919	-0.431287	0.399971	-0.049712	-0.469906	0.346189	-0.041231	-0.421898	0.359115	-0.050502	-0.388691	0.109458	-0.073290	-0.369052	0.122052	-0.155336	-0.257921	0.077189	-0.044650	-0.239783	0.097105	-0.152733	-0.183929	0.137320	-0.093565	-0.434804	0.054244	-0.122741	-0.616950	0.748083	-0.400062	-0.581961	0.733489	-0.377859	-0.637875	0.714607	-0.402942	-0.601018	0.698208	-0.385550	-0.737988	0.491283	-0.391358	-0.770699	0.495327	-0.286243	-0.867756	0.461998	-0.438074	-0.846739	0.423230	-0.422731	-0.908212	0.437157	-0.444207	-0.890106	0.403275	-0.431973	-1.092030	0.321277	-0.448937	-1.093597	0.297066	-0.366117	-1.131079	0.193573	-0.482602	-1.150135	0.165173	-0.379197	-1.103169	0.108836	-0.433755	-1.141269	0.362412	-0.404393	-0.500531	1.414529	-0.038429	-0.408072	1.400675	-0.325479	
51	0.2500	-0.519592	0.923930	-0.098419	-0.480701	0.921477	-0.307103	-0.676880	0.981577	-0.189606	-0.648025	0.991605	-0.282655	-0.579508	0.747529	-0.040867	-0.528801	0.769522	-0.034916	-0.555099	0.708543	-0.035431	-0.506582	0.727075	-0.032857	-0.427649	0.522672	-0.059838	-0.418329	0.508890	-0.161786	-0.463586	0.385216	-0.041217	-0.413206	0.397534	-0.046972	-0.451793	0.343895	-0.038615	-0.403865	0.356765	-0.047910	-0.371172	0.107990	-0.071204	-0.351425	0.120519	-0.153303	-0.241110	0.075626	-0.042527	-0.222962	0.095205	-0.150677	-0.167020	0.134927	-0.091462	-0.417364	0.053770	-0.120912	-0.594591	0.746469	-0.397228	-0.559432	0.732442	-0.375190	-0.615091	0.712732	-0.399973	-0.577943	0.696905	-0.382860	-0.712004	0.488379	-0.388282	-0.744028	0.492046	-0.282883	-0.842635	0.462553	-0.434455	-0.822624	0.423043	-0.419573	-0.883786	0.439026	-0.440557	-0.866641	0.404494	-0.428665	-1.071050	0.329513	-0.445092	-1.072586	0.303694	-0.362664	-1.113139	0.203965	-0.481121	-1.132421	0.173673	-0.378361	-1.087099	0.116689	-0.434386	-1.118781	0.371012	-0.399269	-0.481041	1.412548	-0.034368	-0.389172	1.400483	-0.321941	
52	0.2550	-0.498774	0.922960	-0.095595	-0.459785	0.920510	-0.304382	-0.656290	0.980290	-0.187129	-0.627481	0.989975	-0.280256	-0.559860	0.745764	-0.037792	-0.508914	0.767452	-0.031721	-0.535683	0.706532	-0.032333	-0.486980	0.724764	-0.029645	-0.409153	0.520055	-0.056907	-0.399578	0.506448	-0.158668	-0.445662	0.382936	-0.038620	-0.395388	0.394980	-0.044373	-0.434149	0.341694	-0.036151	-0.386296	0.354303	-0.045492	-0.355397	0.106602	-0.069463	-0.335496	0.118998	-0.151634	-0.226328	0.073686	-0.040710	-0.208065	0.092778	-0.148947	-0.151914	0.131698	-0.089684	-0.401900	0.053673	-0.119463	-0.571844	0.744631	-0.394348	-0.536499	0.731260	-0.372463	-0.591835	0.710612	-0.396966	-0.554367	0.695440	-0.380127	-0.685047	0.485157	-0.385080	-0.716352	0.488387	-0.279392	-0.816457	0.462713	-0.430686	-0.797458	0.422491	-0.416228	-0.858286	0.440512	-0.436718	-0.842103	0.405354	-0.425147	-1.048911	0.337421	-0.440933	-1.050372	0.310002	-0.358891	-1.093819	0.214069	-0.479300	-1.113222	0.181884	-0.377179	-1.069501	0.124548	-0.434723	-1.095201	0.379150	-0.393785	-0.461293	1.410342	-0.030255	-0.370169	1.400090	-0.318423	
53	0.2600	-0.477895	0.921849	-0.092712	-0.438772	0.919385	-0.301621	-0.635631	0.978884	-0.184656	-0.606877	0.988171	-0.277881	-0.540125	0.743946	-0.034753	-0.488956	0.765354	-0.028561	-0.516164	0.704491	-0.029291	-0.467291	0.722449	-0.026487	-0.390526	0.517426	-0.054020	-0.380680	0.504062	-0.155606	-0.428025	0.380766	-0.036133	-0.377843	0.392324	-0.041923	-0.416972	0.339585	-0.033845	-0.369191	0.351738	-0.043254	-0.341310	0.105283	-0.068057	-0.321215	0.117481	-0.150322	-0.213490	0.071402	-0.039187	-0.195010	0.089861	-0.147529	-0.138537	0.127700	-0.088222	-0.388346	0.053898	-0.118380	-0.548701	0.742607	-0.391414	-0.513160	0.729979	-0.369665	-0.568101	0.708289	-0.393913	-0.530293	0.693851	-0.377337	-0.657138	0.481685	-0.381742	-0.687710	0.484432	-0.275760	-0.789234	0.462511	-0.426767	-0.771240	0.421615	-0.412691	-0.831714	0.441632	-0.432695	-0.816484	0.405881	-0.421418	-1.025578	0.344948	-0.436481	-1.026929	0.315960	-0.354813	-1.073075	0.223789	-0.477122	-1.092512	0.189737	-0.375625	-1.050324	0.132311	-0.434712	-1.070511	0.386791	-0.387986	-0.441279	1.407953	-0.026098	-0.351053	1.399525	-0.314925	
54	0.2650	-0.456953	0.920618	-0.089770	-0.417663	0.918129	-0.298818	-0.614896	0.977384	-0.182180	-0.586209	0.986222	-0.275524	-0.520307	0.742094	-0.031755	-0.468931	0.763239	-0.025442	-0.496554	0.702438	-0.026314	-0.447525	0.720140	-0.023391	-0.371806	0.514789	-0.051194	-0.361683	0.501733	-0.152617	-0.410688	0.378704	-0.033762	-0.360584	0.389576	-0.039629	-0.400265	0.337567	-0.031699	-0.352553	0.349082	-0.041200	-0.328837	0.104024	-0.066972	-0.308520	0.115963	-0.149353	-0.202493	0.068817	-0.037941	-0.183703	0.086502	-0.146410	-0.126803	0.123021	-0.087064	-0.376618	0.054397	-0.117641	-0.525165	0.740440	-0.388416	-0.489424	0.728635	-0.366784	-0.543895	0.705810	-0.390807	-0.505733	0.692183	-0.374478	-0.628306	0.478037	-0.378255	-0.658151	0.480268	-0.271977	-0.760990	0.461986	-0.422699	-0.743986	0.420458	-0.408956	-0.804090	0.442410	-0.428494	-0.789792	0.406104	-0.417479	-1.001033	0.352043	-0.431758	-1.002250	0.321541	-0.350447	-1.050877	0.233030	-0.474578	-1.070279	0.197165	-0.373683	-1.029533	0.139876	-0.434303	-1.044710	0.393906	-0.381924	-0.420999	1.405425	-0.021904	-0.331822	1.398817	-0.311445	
55	0.2700	-0.435948	0.919286	-0.086770	-0.396465	0.916769	-0.295974	-0.594085	0.975816	-0.179693	-0.565479	0.984159	-0.273175	-0.500415	0.740225	-0.028804	-0.448848	0.761117	-0.022369	-0.476868	0.700385	-0.023409	-0.427698	0.717842	-0.020365	-0.353042	0.512146	-0.048447	-0.342646	0.499457	-0.149715	-0.393670	0.376750	-0.031510	-0.343630	0.386751	-0.037496	-0.384031	0.335638	-0.029715	-0.336385	0.346348	-0.039332	-0.317896	0.102824	-0.066192	-0.297335	0.114448	-0.148711	-0.193221	0.065983	-0.036954	-0.174039	0.082766	-0.145570	-0.116618	0.117761	-0.086193	-0.366615	0.055122	-0.117221	-0.501249	0.738173	-0.385351	-0.465311	0.727268	-0.363813	-0.519233	0.703227	-0.387644	-0.480711	0.690482	-0.371538	-0.598600	0.474289	-0.374609	-0.627740	0.475984	-0.268034	-0.731767	0.461178	-0.418485	-0.715726	0.419067	-0.405020	-0.775447	0.442873	-0.424123	-0.762050	0.406052	-0.413332	-0.975279	0.358661	-0.426791	-0.976349	0.326722	-0.345813	-1.027220	0.241704	-0.471662	-1.046537	0.204111	-0.371338	-1.007118	0.147146	-0.433450	-1.017816	0.400468	-0.375656	-0.400458	1.402802	-0.017683	-0.312483	1.397998	-0.307986	
56	0.2750	-0.414891	0.917876	-0.083716	-0.375195	0.915332	-0.293094	-0.573206	0.974208	-0.177189	-0.544698	0.982013	-0.270828	-0.480470	0.738354	-0.025905	-0.428725	0.758994	-0.019348	-0.457134	0.698345	-0.020583	-0.407834	0.715558	-0.017416	-0.334291	0.509496	-0.045797	-0.323637	0.497224	-0.146915	-0.376996	0.374899	-0.029382	-0.327009	0.383863	-0.035529	-0.368278	0.333796	-0.027891	-0.320698	0.343550	-0.037651	-0.308390	0.101685	-0.065693	-0.287574	0.112942	-0.148372	-0.185547	0.062960	-0.036206	-0.165902	0.078722	-0.144988	-0.107882	0.112035	-0.085591	-0.358222	0.056030	-0.117088	-0.476979	0.735851	-0.382214	-0.440851	0.725920	-0.360743	-0.494145	0.700588	-0.384420	-0.455265	0.688793	-0.368507	-0.568082	0.470516	-0.370799	-0.596557	0.471670	-0.263928	-0.701623	0.460132	-0.414129	-0.686508	0.417490	-0.400884	-0.745840	0.443050	-0.419593	-0.733303	0.405761	-0.408985	-0.948344	0.364760	-0.421611	-0.949263	0.331484	-0.340936	-1.002121	0.249734	-0.468375	-1.021320	0.210523	-0.368584	-0.983092	0.154030	-0.432115	-0.989872	0.406455	-0.369238	-0.379675	1.400129	-0.013447	-0.293049	1.397101	-0.304549	
57	0.2800	-0.393798	0.916407	-0.080613	-0.353877	0.913848	-0.290183	-0.552276	0.972586	-0.174661	-0.523886	0.979817	-0.268477	-0.460500	0.736495	-0.023064	-0.408589	0.756874	-0.016385	-0.437387	0.696327	-0.017842	-0.387967	0.713287	-0.014550	-0.315620	0.506835	-0.043258	-0.304731	0.495026	-0.144233	-0.360692	0.373146	-0.027380	-0.310749	0.380926	-0.033729	-0.353016	0.332038	-0.026226	-0.305504	0.340704	-0.036155	-0.300215	0.100615	-0.065450	-0.279143	0.111457	-0.148311	-0.179334	0.059813	-0.035675	-0.159168	0.074451	-0.144639	-0.100486	0.105962	-0.085236	-0.351311	0.057080	-0.117211	-0.452396	0.733522	-0.379003	-0.416089	0.724629	-0.357573	-0.468674	0.697946	-0.381133	-0.429445	0.687163	-0.365379	-0.536832	0.466793	-0.366819	-0.564698	0.467415	-0.259655	-0.670638	0.458893	-0.409639	-0.656404	0.415775	-0.396550	-0.715343	0.442973	-0.414916	-0.703617	0.405263	-0.404447	-0.920281	0.370305	-0.416250	-0.921053	0.335813	-0.335842	-0.975623	0.257049	-0.464727	-0.994689	0.216357	-0.365422	-0.957495	0.160443	-0.430270	-0.960944	0.411850	-0.362729	-0.358676	1.397452	-0.009209	-0.273545	1.396156	-0.301139	
58	0.2850	-0.372697	0.914902	-0.077469	-0.332548	0.912346	-0.287247	-0.531322	0.970976	-0.172105	-0.503072	0.977604	-0.266114	-0.440543	0.734660	-0.020286	-0.388474	0.754761	-0.013486	-0.417671	0.694340	-0.015192	-0.368141	0.711031	-0.011773	-0.297102	0.504162	-0.040846	-0.286011	0.492852	-0.141681	-0.344791	0.371486	-0.025505	-0.294887	0.377958	-0.032097	-0.338258	0.330363	-0.024717	-0.290819	0.337827	-0.034841	-0.293261	0.099620	-0.065434	-0.271941	0.110009	-0.148499	-0.174440	0.056608	-0.035336	-0.153711	0.070034	-0.144498	-0.094319	0.099669	-0.085104	-0.345747	0.058238	-0.117553	-0.427551	0.731229	-0.375721	-0.391083	0.723434	-0.354302	-0.442880	0.695350	-0.377785	-0.403317	0.685635	-0.362151	-0.504949	0.463189	-0.362670	-0.532276	0.463303	-0.255218	-0.638911	0.457505	-0.405023	-0.625505	0.413970	-0.392026	-0.684052	0.442676	-0.410106	-0.673081	0.404594	-0.399729	-0.891172	0.375269	-0.410745	-0.891808	0.339701	-0.330561	-0.947800	0.263594	-0.460730	-0.966734	0.221580	-0.361858	-0.930400	0.166313	-0.427897	-0.931123	0.416643	-0.356189	-0.337501	1.394812	-0.004984	-0.254004	1.395197	-0.297763	
59	0.2900	-0.351625	0.913379	-0.074295	-0.311254	0.910855	-0.284297	-0.510383	0.969402	-0.169520	-0.482294	0.975407	-0.263737	-0.420646	0.732860	-0.017576	-0.368428	0.752658	-0.010657	-0.398039	0.692392	-0.012636	-0.348405	0.708788	-0.009092	-0.278816	0.501473	-0.038574	-0.267563	0.490691	-0.139273	-0.329328	0.369914	-0.023759	-0.279460	0.374974	-0.030631	-0.324020	0.328767	-0.023358	-0.276662	0.334939	-0.033701	-0.287413	0.098712	-0.065617	-0.265862	0.108615	-0.148903	-0.170720	0.053409	-0.035165	-0.149399	0.065557	-0.144537	-0.089269	0.093280	-0.085169	-0.341389	0.059472	-0.118076	-0.402515	0.729017	-0.372373	-0.365905	0.722369	-0.350933	-0.416839	0.692847	-0.374378	-0.376962	0.684249	-0.358825	-0.472553	0.459769	-0.358356	-0.499421	0.459409	-0.250625	-0.606564	0.456013	-0.400294	-0.593925	0.412120	-0.387322	-0.652086	0.442193	-0.405183	-0.641806	0.403789	-0.394848	-0.861124	0.379632	-0.405132	-0.861644	0.343144	-0.325128	-0.918756	0.269326	-0.456406	-0.937572	0.226168	-0.357908	-0.901912	0.171580	-0.424987	-0.900526	0.420828	-0.349675	-0.316201	1.392250	-0.000788	-0.234470	1.394250	-0.294427	
60	0.2950	-0.330630	0.911858	-0.071102	-0.290052	0.909403	-0.281343	-0.489506	0.967888	-0.166904	-0.461605	0.973256	-0.261343	-0.400867	0.731105	-0.014939	-0.348505	0.750569	-0.007905	-0.378554	0.690489	-0.010180	-0.328822	0.706559	-0.006511	-0.260844	0.498770	-0.036453	-0.249477	0.488533	-0.137019	-0.314341	0.368425	-0.022141	-0.264512	0.371992	-0.029326	-0.310322	0.327251	-0.022143	-0.263053	0.332057	-0.032730	-0.282557	0.097901	-0.065966	-0.260797	0.107292	-0.149491	-0.168027	0.050279	-0.035139	-0.146099	0.061100	-0.144730	-0.085220	0.086915	-0.085404	-0.338094	0.060754	-0.118744	-0.377371	0.726925	-0.368966	-0.340641	0.721465	-0.347476	-0.390641	0.690482	-0.370919	-0.350475	0.683041	-0.355405	-0.439781	0.456591	-0.353887	-0.466281	0.455803	-0.245885	-0.573739	0.454461	-0.395467	-0.561800	0.410268	-0.382456	-0.619587	0.441558	-0.400168	-0.609930	0.402881	-0.389826	-0.830274	0.383383	-0.399452	-0.830703	0.346144	-0.319577	-0.888626	0.274216	-0.451783	-0.907348	0.230107	-0.353596	-0.872166	0.176199	-0.421548	-0.869293	0.424407	-0.343242	-0.294842	1.389803	0.003360	-0.215000	1.393345	-0.291140	
61	0.3000	-0.309773	0.910358	-0.067904	-0.269008	0.908015	-0.278398	-0.468753	0.966454	-0.164260	-0.441064	0.971182	-0.258933	-0.381270	0.729404	-0.012380	-0.328768	0.748496	-0.005236	-0.359284	0.688637	-0.007825	-0.309457	0.704343	-0.004037	-0.243272	0.496051	-0.034490	-0.231842	0.486372	-0.134927	-0.299873	0.367014	-0.020649	-0.250087	0.369031	-0.028179	-0.297185	0.325812	-0.021066	-0.250017	0.329203	-0.031918	-0.278578	0.097196	-0.066450	-0.256637	0.106059	-0.150229	-0.166218	0.047275	-0.035233	-0.143683	0.056742	-0.145047	-0.082059	0.080687	-0.085781	-0.335719	0.062062	-0.119519	-0.352217	0.724988	-0.365512	-0.315393	0.720749	-0.343941	-0.364392	0.688293	-0.367418	-0.323968	0.682043	-0.351901	-0.406789	0.453705	-0.349277	-0.433018	0.452543	-0.241016	-0.540599	0.452889	-0.390562	-0.529291	0.408454	-0.377447	-0.586717	0.440805	-0.395084	-0.577611	0.401904	-0.384686	-0.798787	0.386521	-0.393744	-0.799151	0.348708	-0.313946	-0.857576	0.278251	-0.446896	-0.876236	0.233395	-0.348954	-0.841332	0.180136	-0.417596	-0.837592	0.427388	-0.336944	-0.273500	1.387506	0.007443	-0.195656	1.392506	-0.287913	
62	0.3050	-0.289121	0.908897	-0.064718	-0.248199	0.906714	-0.275477	-0.448194	0.965118	-0.161593	-0.420743	0.969210	-0.256508	-0.361932	0.727766	-0.009903	-0.309290	0.746445	-0.002658	-0.340308	0.686842	-0.005574	-0.290388	0.702143	-0.001673	-0.226186	0.493322	-0.032691	-0.214749	0.484203	-0.133004	-0.285964	0.365676	-0.019283	-0.236228	0.366108	-0.027182	-0.284630	0.324450	-0.020119	-0.237577	0.326396	-0.031254	-0.275364	0.096607	-0.067038	-0.253275	0.104932	-0.151081	-0.165154	0.044447	-0.035424	-0.142024	0.052552	-0.145463	-0.079674	0.074699	-0.086273	-0.334126	0.063375	-0.120366	-0.327165	0.723238	-0.362025	-0.290273	0.720241	-0.340345	-0.338215	0.686314	-0.363888	-0.297563	0.681277	-0.348326	-0.373752	0.451151	-0.344546	-0.399808	0.449676	-0.236040	-0.507325	0.451335	-0.385601	-0.496574	0.406712	-0.372321	-0.553660	0.439967	-0.389958	-0.545030	0.400887	-0.379456	-0.766852	0.389054	-0.388051	-0.767181	0.350846	-0.308277	-0.825800	0.281434	-0.441786	-0.844437	0.236040	-0.344020	-0.809610	0.183377	-0.413163	-0.805610	0.429786	-0.330827	-0.252263	1.385385	0.011440	-0.176514	1.391753	-0.284758	
63	0.3100	-0.268754	0.907488	-0.061561	-0.227711	0.905520	-0.272595	-0.427910	0.963894	-0.158910	-0.400722	0.967364	-0.254076	-0.342932	0.726198	-0.007515	-0.290152	0.744422	-0.000178	-0.321706	0.685111	-0.003429	-0.271694	0.699962	0.000576	-0.209672	0.490589	-0.031061	-0.198284	0.482023	-0.131253	-0.272657	0.364409	-0.018039	-0.222980	0.363243	-0.026327	-0.272683	0.323164	-0.019293	-0.225757	0.323655	-0.030726	-0.272807	0.096139	-0.067700	-0.250605	0.103925	-0.152016	-0.164702	0.041836	-0.035692	-0.141000	0.048594	-0.145952	-0.077959	0.069039	-0.086853	-0.333181	0.064676	-0.121252	-0.302339	0.721699	-0.358523	-0.265406	0.719955	-0.336706	-0.312242	0.684570	-0.360343	-0.271395	0.680761	-0.344699	-0.340858	0.448959	-0.339720	-0.366841	0.447236	-0.230984	-0.474116	0.449831	-0.380610	-0.463847	0.405072	-0.367109	-0.520614	0.439075	-0.384820	-0.512386	0.399859	-0.374170	-0.734679	0.390998	-0.382413	-0.735003	0.352578	-0.302609	-0.793518	0.283783	-0.436498	-0.812175	0.238059	-0.338840	-0.777228	0.185921	-0.408293	-0.773551	0.431625	-0.324937	-0.231231	1.383465	0.015333	-0.157656	1.391104	-0.281687	
64	0.3150	-0.248759	0.906148	-0.058452	-0.207636	0.904449	-0.269768	-0.407991	0.962795	-0.156222	-0.381087	0.965664	-0.251642	-0.324357	0.724707	-0.005219	-0.271438	0.742432	0.002198	-0.303567	0.683450	-0.001393	-0.253462	0.697807	0.002706	-0.193812	0.487860	-0.029599	-0.182528	0.479835	-0.129676	-0.259993	0.363209	-0.016914	-0.210386	0.360453	-0.025605	-0.261366	0.321954	-0.018579	-0.214581	0.321000	-0.030321	-0.270806	0.095797	-0.068409	-0.248528	0.103050	-0.153000	-0.164739	0.039476	-0.036014	-0.140498	0.044918	-0.146489	-0.076812	0.063781	-0.087496	-0.332760	0.065953	-0.122147	-0.277871	0.720388	-0.355026	-0.240924	0.719898	-0.333049	-0.286617	0.683081	-0.356803	-0.245610	0.680503	-0.341039	-0.308307	0.447148	-0.334828	-0.334315	0.445244	-0.225879	-0.441182	0.448407	-0.375618	-0.431321	0.403560	-0.361845	-0.487794	0.438157	-0.379702	-0.479894	0.398845	-0.368863	-0.702496	0.392379	-0.376871	-0.702846	0.353923	-0.296987	-0.760974	0.285330	-0.431082	-0.779693	0.239480	-0.333466	-0.744438	0.187782	-0.403039	-0.741637	0.432934	-0.319311	-0.210510	1.381763	0.019100	-0.139171	1.390572	-0.278712	
65	0.3200	-0.229232	0.904886	-0.055409	-0.188071	0.903512	-0.267012	-0.388531	0.961828	-0.153540	-0.361934	0.964125	-0.249217	-0.306299	0.723300	-0.003021	-0.253238	0.740485	0.004463	-0.285976	0.681864	0.000534	-0.235779	0.695684	0.004714	-0.178682	0.485148	-0.028304	-0.167555	0.477645	-0.128271	-0.248009	0.362075	-0.015904	-0.198485	0.357756	-0.025003	-0.250701	0.320820	-0.017968	-0.204071	0.318449	-0.030026	-0.269268	0.095581	-0.069138	-0.246949	0.102315	-0.154005	-0.165151	0.037388	-0.036374	-0.140413	0.041565	-0.147052	-0.076135	0.058983	-0.088177	-0.332746	0.067193	-0.123025	-0.253902	0.719319	-0.351556	-0.216966	0.720069	-0.329398	-0.261491	0.681859	-0.353288	-0.220358	0.680506	-0.337373	-0.276307	0.445726	-0.329906	-0.302434	0.443710	-0.220761	-0.408743	0.447086	-0.370656	-0.399217	0.402194	-0.356568	-0.455424	0.437240	-0.374638	-0.447780	0.397866	-0.363572	-0.670548	0.393232	-0.371465	-0.670952	0.354908	-0.291451	-0.728429	0.286123	-0.425592	-0.747252	0.240342	-0.327955	-0.711514	0.188989	-0.397466	-0.710098	0.433748	-0.313983	-0.190216	1.380289	0.022724	-0.121153	1.390165	-0.275847	
66	0.3250	-0.210269	0.903712	-0.052452	-0.169117	0.902717	-0.264345	-0.369632	0.960999	-0.150880	-0.343358	0.962758	-0.246813	-0.288848	0.721982	-0.000927	-0.235645	0.738589	0.006610	-0.269025	0.680358	0.002350	-0.218734	0.693604	0.006597	-0.164353	0.482468	-0.027171	-0.153432	0.475461	-0.127034	-0.236741	0.361005	-0.015002	-0.187311	0.355169	-0.024513	-0.240710	0.319763	-0.017450	-0.194245	0.316017	-0.029827	-0.268107	0.095489	-0.069865	-0.245782	0.101723	-0.155004	-0.165837	0.035586	-0.036754	-0.140648	0.038562	-0.147622	-0.075840	0.054685	-0.088875	-0.333037	0.068389	-0.123864	-0.230577	0.718494	-0.348138	-0.193677	0.720463	-0.325780	-0.237019	0.680908	-0.349821	-0.195793	0.680761	-0.333728	-0.245071	0.444691	-0.324991	-0.271401	0.442629	-0.215670	-0.377024	0.445886	-0.365759	-0.367763	0.400988	-0.351318	-0.423731	0.436345	-0.369663	-0.416276	0.396941	-0.358340	-0.639083	0.393598	-0.366233	-0.639566	0.355563	-0.286044	-0.696155	0.286222	-0.420086	-0.715121	0.240689	-0.322367	-0.678743	0.189585	-0.391647	-0.679170	0.434109	-0.308978	-0.170467	1.379050	0.026185	-0.103697	1.389887	-0.273105	
67	0.3300	-0.191973	0.902635	-0.049600	-0.150875	0.902069	-0.261781	-0.351395	0.960308	-0.148258	-0.325460	0.961569	-0.244444	-0.272097	0.720757	0.001060	-0.218748	0.736753	0.008634	-0.252797	0.678940	0.004055	-0.202412	0.691576	0.008353	-0.150885	0.479836	-0.026194	-0.140213	0.473295	-0.125960	-0.226218	0.360000	-0.014205	-0.176894	0.352708	-0.024121	-0.231407	0.318782	-0.017016	-0.185118	0.313720	-0.029709	-0.267247	0.095516	-0.070569	-0.244948	0.101276	-0.155974	-0.166705	0.034073	-0.037141	-0.141118	0.035928	-0.148182	-0.075847	0.050910	-0.089569	-0.333540	0.069533	-0.124644	-0.208039	0.717911	-0.344795	-0.171196	0.721065	-0.322225	-0.213356	0.680223	-0.346427	-0.172068	0.681256	-0.330132	-0.214810	0.444030	-0.320125	-0.241420	0.441982	-0.210647	-0.346248	0.444822	-0.360960	-0.337185	0.399949	-0.346140	-0.392945	0.435491	-0.364812	-0.385615	0.396085	-0.353206	-0.608353	0.393527	-0.361210	-0.608937	0.355919	-0.280806	-0.664431	0.285698	-0.414619	-0.683574	0.240573	-0.316766	-0.646417	0.189622	-0.385662	-0.649087	0.434063	-0.304317	-0.151381	1.378043	0.029467	-0.086900	1.389739	-0.270499	
68	0.3350	-0.174443	0.901658	-0.046872	-0.133443	0.901566	-0.259337	-0.333922	0.959752	-0.145693	-0.308335	0.960559	-0.242126	-0.256132	0.719628	0.002934	-0.202636	0.734989	0.010528	-0.237376	0.677612	0.005646	-0.186895	0.689612	0.009979	-0.138330	0.477271	-0.025364	-0.127942	0.471162	-0.125039	-0.216463	0.359058	-0.013505	-0.167256	0.350386	-0.023816	-0.222806	0.317877	-0.016656	-0.176702	0.311570	-0.029660	-0.266622	0.095652	-0.071236	-0.244375	0.100968	-0.156896	-0.167681	0.032845	-0.037522	-0.141747	0.033667	-0.148718	-0.076081	0.047665	-0.090245	-0.334177	0.070619	-0.125354	-0.186428	0.717561	-0.341555	-0.149662	0.721856	-0.318761	-0.190652	0.679795	-0.343129	-0.149332	0.681970	-0.326616	-0.185729	0.443721	-0.315349	-0.212684	0.441744	-0.205733	-0.316632	0.443900	-0.356297	-0.307706	0.399080	-0.341076	-0.363288	0.434693	-0.360120	-0.356025	0.395307	-0.348212	-0.578605	0.393073	-0.356427	-0.579308	0.356013	-0.275775	-0.633533	0.284630	-0.409248	-0.652880	0.240053	-0.311215	-0.614832	0.189163	-0.379594	-0.620077	0.433662	-0.300014	-0.133076	1.377264	0.032555	-0.070855	1.389714	-0.268039	
69	0.3400	-0.157776	0.900784	-0.044284	-0.116914	0.901203	-0.257026	-0.317309	0.959327	-0.143203	-0.292076	0.959725	-0.239875	-0.241035	0.718597	0.004690	-0.187392	0.733306	0.012289	-0.222836	0.676379	0.007124	-0.172260	0.687725	0.011476	-0.126725	0.474790	-0.024671	-0.116651	0.469077	-0.124261	-0.207493	0.358181	-0.012897	-0.158410	0.348216	-0.023585	-0.214914	0.317049	-0.016362	-0.168999	0.309577	-0.029665	-0.266175	0.095885	-0.071852	-0.244003	0.100792	-0.157754	-0.168699	0.031889	-0.037888	-0.142473	0.031773	-0.149219	-0.076479	0.044943	-0.090887	-0.334881	0.071645	-0.125982	-0.165879	0.717429	-0.338440	-0.129205	0.722811	-0.315418	-0.169051	0.679606	-0.339953	-0.127725	0.682875	-0.323210	-0.158022	0.443734	-0.310707	-0.185374	0.441877	-0.200972	-0.288381	0.443123	-0.351803	-0.279536	0.398379	-0.336171	-0.334969	0.433964	-0.355621	-0.327724	0.394616	-0.343400	-0.550076	0.392293	-0.351913	-0.550909	0.355881	-0.270987	-0.603728	0.283105	-0.404029	-0.623301	0.239191	-0.305776	-0.584272	0.188278	-0.373528	-0.592355	0.432959	-0.296079	-0.115662	1.376699	0.035436	-0.055650	1.389806	-0.265736	
70	0.3450	-0.142060	0.900014	-0.041852	-0.101373	0.900971	-0.254860	-0.301648	0.959023	-0.140807	-0.276769	0.959060	-0.237708	-0.226880	0.717665	0.006325	-0.173090	0.731714	0.013914	-0.209242	0.675245	0.008489	-0.158572	0.685928	0.012844	-0.116098	0.472414	-0.024104	-0.106357	0.467059	-0.123616	-0.199314	0.357370	-0.012372	-0.150363	0.346206	-0.023419	-0.207731	0.316297	-0.016124	-0.162008	0.307747	-0.029713	-0.265857	0.096203	-0.072408	-0.243780	0.100737	-0.158536	-0.169707	0.031185	-0.038230	-0.143242	0.030231	-0.149677	-0.076986	0.042721	-0.091484	-0.335600	0.072605	-0.126524	-0.146511	0.717493	-0.335474	-0.109942	0.723901	-0.312224	-0.148682	0.679633	-0.336923	-0.107372	0.683941	-0.319943	-0.131864	0.444031	-0.306239	-0.159652	0.442335	-0.196405	-0.261682	0.442489	-0.347512	-0.252871	0.397837	-0.331466	-0.308182	0.433310	-0.351346	-0.300909	0.394015	-0.338806	-0.522982	0.391247	-0.347693	-0.523955	0.355560	-0.266472	-0.575268	0.281211	-0.399012	-0.595081	0.238051	-0.300510	-0.555008	0.187042	-0.367548	-0.566118	0.432010	-0.292512	-0.099241	1.376332	0.038099	-0.041365	1.390001	-0.263598	
71	0.3500	-0.127375	0.899346	-0.039589	-0.086893	0.900860	-0.252850	-0.287017	0.958830	-0.138524	-0.262489	0.958554	-0.235641	-0.213727	0.716832	0.007836	-0.159794	0.730223	0.015399	-0.196648	0.674211	0.009740	-0.145887	0.684231	0.014083	-0.106461	0.470160	-0.023648	-0.097065	0.465124	-0.123091	-0.191927	0.356625	-0.011925	-0.143112	0.344364	-0.023304	-0.201252	0.315620	-0.015935	-0.155721	0.306086	-0.029792	-0.265630	0.096590	-0.072899	-0.243661	0.100789	-0.159234	-0.170666	0.030708	-0.038545	-0.144011	0.029018	-0.150086	-0.077555	0.040967	-0.092030	-0.336292	0.073499	-0.126978	-0.128430	0.717729	-0.332679	-0.091976	0.725094	-0.309203	-0.129659	0.679849	-0.334060	-0.088384	0.685133	-0.316842	-0.107408	0.444571	-0.301986	-0.135661	0.443067	-0.192068	-0.236700	0.441993	-0.343457	-0.227879	0.397443	-0.327000	-0.283096	0.432737	-0.347325	-0.275759	0.393504	-0.334466	-0.497517	0.389997	-0.343785	-0.498634	0.355089	-0.262258	-0.548381	0.279041	-0.394246	-0.568440	0.236697	-0.295471	-0.527286	0.185532	-0.361735	-0.541538	0.430869	-0.289312	-0.083902	1.376144	0.040539	-0.028067	1.390287	-0.261632	
72	0.3550	-0.113788	0.898776	-0.037504	-0.073535	0.900854	-0.251004	-0.273484	0.958735	-0.136370	-0.249296	0.958191	-0.233690	-0.201628	0.716096	0.009221	-0.147553	0.728839	0.016746	-0.185096	0.673279	0.010878	-0.134246	0.682646	0.015196	-0.097812	0.468046	-0.023293	-0.088765	0.463289	-0.122673	-0.185320	0.355946	-0.011547	-0.136642	0.342694	-0.023232	-0.195465	0.315017	-0.015787	-0.150121	0.304595	-0.029892	-0.265463	0.097029	-0.073321	-0.243610	0.100933	-0.159845	-0.171546	0.030431	-0.038827	-0.144747	0.028104	-0.150443	-0.078148	0.039639	-0.092518	-0.336928	0.074323	-0.127346	-0.111723	0.718108	-0.330074	-0.075389	0.726357	-0.306378	-0.112076	0.680223	-0.331383	-0.070851	0.686413	-0.313932	-0.084783	0.445307	-0.297982	-0.113512	0.444020	-0.187998	-0.213568	0.441624	-0.339663	-0.204704	0.397184	-0.322809	-0.259850	0.432245	-0.343582	-0.252421	0.393081	-0.330411	-0.473845	0.388602	-0.340204	-0.475106	0.354503	-0.258366	-0.523263	0.276684	-0.389772	-0.543569	0.235193	-0.290711	-0.501322	0.183825	-0.356164	-0.518758	0.429593	-0.286470	-0.069720	1.376110	0.042751	-0.015811	1.390646	-0.259842	
73	0.3600	-0.101349	0.898298	-0.035606	-0.061343	0.900937	-0.249326	-0.261098	0.958724	-0.134362	-0.237237	0.957956	-0.231868	-0.190614	0.715454	0.010477	-0.136404	0.727571	0.017954	-0.174610	0.672448	0.011905	-0.123676	0.681182	0.016186	-0.090137	0.466085	-0.023024	-0.081435	0.461571	-0.122349	-0.179476	0.355333	-0.011232	-0.130934	0.341198	-0.023194	-0.190349	0.314485	-0.015673	-0.145187	0.303273	-0.030004	-0.265333	0.097503	-0.073675	-0.243601	0.101151	-0.160369	-0.172329	0.030322	-0.039076	-0.145426	0.027456	-0.150748	-0.078734	0.038688	-0.092946	-0.337487	0.075079	-0.127633	-0.096455	0.718601	-0.327673	-0.060242	0.727656	-0.303767	-0.096002	0.680723	-0.328909	-0.054839	0.687744	-0.311234	-0.064084	0.446192	-0.294258	-0.093291	0.445135	-0.184222	-0.192393	0.441370	-0.336154	-0.183458	0.397042	-0.318922	-0.238554	0.431833	-0.340136	-0.231012	0.392742	-0.326666	-0.452096	0.387120	-0.336958	-0.453495	0.353839	-0.254811	-0.500077	0.274226	-0.385623	-0.520623	0.233601	-0.286271	-0.477297	0.181994	-0.350900	-0.497887	0.428233	-0.283973	-0.056750	1.376205	0.044734	-0.004637	1.391060	-0.258229	
74	0.3650	-0.090092	0.897905	-0.033898	-0.050342	0.901093	-0.247820	-0.249893	0.958781	-0.132511	-0.226342	0.957831	-0.230189	-0.180703	0.714900	0.011606	-0.126365	0.726421	0.019026	-0.165203	0.671716	0.012822	-0.114190	0.679846	0.017057	-0.083407	0.464289	-0.022828	-0.075038	0.459981	-0.122104	-0.174366	0.354787	-0.010972	-0.125956	0.339874	-0.023180	-0.185879	0.314021	-0.015586	-0.140889	0.302116	-0.030121	-0.265223	0.097995	-0.073964	-0.243612	0.101424	-0.160806	-0.173005	0.030349	-0.039290	-0.146033	0.027035	-0.151002	-0.079290	0.038061	-0.093314	-0.337960	0.075764	-0.127846	-0.082666	0.719177	-0.325487	-0.046575	0.728957	-0.301384	-0.081482	0.681314	-0.326651	-0.040388	0.689089	-0.308764	-0.045373	0.447178	-0.290839	-0.075048	0.446358	-0.180764	-0.173240	0.441217	-0.332948	-0.164216	0.396999	-0.315362	-0.219281	0.431497	-0.337003	-0.211610	0.392479	-0.323249	-0.432360	0.385604	-0.334050	-0.433892	0.353129	-0.251603	-0.478943	0.271746	-0.381826	-0.499718	0.231977	-0.282186	-0.455349	0.180110	-0.346000	-0.479001	0.426839	-0.281805	-0.045029	1.376403	0.046491	0.005432	1.391513	-0.256793	
75	0.3700	-0.080032	0.897589	-0.032381	-0.040539	0.901302	-0.246485	-0.239884	0.958891	-0.130829	-0.216620	0.957796	-0.228660	-0.171897	0.714431	0.012609	-0.117438	0.725393	0.019966	-0.156867	0.671080	0.013633	-0.105780	0.678643	0.017816	-0.077582	0.462667	-0.022693	-0.069529	0.458532	-0.121926	-0.169955	0.354305	-0.010761	-0.121671	0.338718	-0.023184	-0.182021	0.313622	-0.015522	-0.137192	0.301116	-0.030236	-0.265123	0.098490	-0.074193	-0.243628	0.101735	-0.161163	-0.173570	0.030481	-0.039470	-0.146560	0.026802	-0.151208	-0.079800	0.037703	-0.093623	-0.338342	0.076380	-0.127993	-0.070373	0.719805	-0.323524	-0.034398	0.730228	-0.299239	-0.068533	0.681964	-0.324616	-0.027512	0.690413	-0.306533	-0.028678	0.448220	-0.287743	-0.058800	0.447636	-0.177640	-0.156143	0.441147	-0.330057	-0.147016	0.397035	-0.312145	-0.202065	0.431231	-0.334190	-0.194259	0.392284	-0.320174	-0.414690	0.384102	-0.331478	-0.416343	0.352403	-0.248746	-0.459939	0.269315	-0.378400	-0.480928	0.230371	-0.278481	-0.435569	0.178236	-0.341509	-0.462134	0.425455	-0.279947	-0.034570	1.376678	0.048028	0.014391	1.391984	-0.255531	
76	0.3750	-0.071164	0.897342	-0.031052	-0.031923	0.901548	-0.245318	-0.231064	0.959039	-0.129321	-0.208064	0.957832	-0.227287	-0.164178	0.714039	0.013488	-0.109608	0.724487	0.020780	-0.149580	0.670535	0.014341	-0.098426	0.677575	0.018467	-0.072611	0.461223	-0.022606	-0.064850	0.457231	-0.121803	-0.166198	0.353886	-0.010592	-0.118032	0.337722	-0.023200	-0.178736	0.313284	-0.015476	-0.134055	0.300266	-0.030346	-0.265026	0.098973	-0.074367	-0.243641	0.102068	-0.161446	-0.174027	0.030689	-0.039619	-0.147003	0.026720	-0.151370	-0.080254	0.037561	-0.093878	-0.338637	0.076926	-0.128085	-0.059563	0.720456	-0.321786	-0.023699	0.731442	-0.297337	-0.057146	0.682642	-0.322810	-0.016199	0.691684	-0.304547	-0.013988	0.449275	-0.284980	-0.044528	0.448918	-0.174858	-0.141094	0.441145	-0.327488	-0.131857	0.397132	-0.309281	-0.186902	0.431027	-0.331701	-0.178959	0.392148	-0.317445	-0.399094	0.382657	-0.329234	-0.400858	0.351688	-0.246237	-0.443098	0.266996	-0.375355	-0.464281	0.228828	-0.275172	-0.418003	0.176425	-0.337460	-0.447283	0.424120	-0.278374	-0.025367	1.377005	0.049354	0.022255	1.392459	-0.254436	
77	0.3800	-0.063462	0.897154	-0.029906	-0.024463	0.901814	-0.244314	-0.223408	0.959210	-0.127990	-0.200645	0.957920	-0.226075	-0.157512	0.713718	0.014249	-0.102841	0.723700	0.021474	-0.143305	0.670075	0.014951	-0.092091	0.676642	0.019018	-0.068432	0.459959	-0.022557	-0.060938	0.456081	-0.121724	-0.163047	0.353527	-0.010459	-0.114990	0.336879	-0.023223	-0.175981	0.313001	-0.015443	-0.131433	0.299555	-0.030446	-0.264929	0.099432	-0.074493	-0.243644	0.102405	-0.161664	-0.174385	0.030943	-0.039739	-0.147364	0.026751	-0.151493	-0.080647	0.037582	-0.094083	-0.338851	0.077406	-0.128131	-0.050202	0.721105	-0.320271	-0.014440	0.732575	-0.295675	-0.047284	0.683318	-0.321230	-0.006409	0.692877	-0.302808	-0.001260	0.450307	-0.282553	-0.032182	0.450162	-0.172421	-0.128049	0.441194	-0.325239	-0.118701	0.397272	-0.306771	-0.173753	0.430878	-0.329531	-0.165676	0.392061	-0.315062	-0.385543	0.381303	-0.327305	-0.387404	0.351004	-0.244066	-0.428407	0.264838	-0.372690	-0.449762	0.227383	-0.272264	-0.402649	0.174725	-0.333871	-0.434409	0.422866	-0.277063	-0.017390	1.377360	0.050482	0.029053	1.392920	-0.253500	
78	0.3850	-0.056882	0.897016	-0.028935	-0.018108	0.902086	-0.243463	-0.216870	0.959393	-0.126835	-0.194317	0.958043	-0.225023	-0.151849	0.713459	0.014897	-0.097089	0.723029	0.022057	-0.137988	0.669695	0.015469	-0.086722	0.675841	0.019478	-0.064979	0.458870	-0.022537	-0.057721	0.455083	-0.121678	-0.160448	0.353225	-0.010356	-0.112487	0.336178	-0.023249	-0.173708	0.312770	-0.015420	-0.129277	0.298971	-0.030534	-0.264832	0.099856	-0.074579	-0.243637	0.102734	-0.161824	-0.174654	0.031222	-0.039833	-0.147650	0.026862	-0.151583	-0.080977	0.037718	-0.094243	-0.338995	0.077820	-0.128141	-0.042229	0.721728	-0.318973	-0.006559	0.733608	-0.294249	-0.038883	0.683970	-0.319872	0.001924	0.693968	-0.301311	0.009587	0.451283	-0.280459	-0.021677	0.451333	-0.170322	-0.116931	0.441278	-0.323303	-0.107475	0.397437	-0.304609	-0.162539	0.430775	-0.327672	-0.154336	0.392013	-0.313016	-0.373967	0.380065	-0.325675	-0.375912	0.350370	-0.242220	-0.415810	0.262879	-0.370400	-0.437315	0.226065	-0.269753	-0.389458	0.173170	-0.330748	-0.423436	0.421718	-0.275987	-0.010591	1.377722	0.051424	0.034835	1.393356	-0.252714	
79	0.3900	-0.051363	0.896919	-0.028126	-0.012792	0.902350	-0.242755	-0.211390	0.959576	-0.125853	-0.189017	0.958185	-0.224125	-0.147124	0.713256	0.015439	-0.092287	0.722467	0.022537	-0.133564	0.669386	0.015902	-0.082253	0.675167	0.019855	-0.062176	0.457951	-0.022535	-0.055124	0.454233	-0.121656	-0.158343	0.352975	-0.010278	-0.110466	0.335604	-0.023275	-0.171865	0.312583	-0.015405	-0.127536	0.298499	-0.030610	-0.264736	0.100238	-0.074634	-0.243619	0.103042	-0.161938	-0.174847	0.031503	-0.039905	-0.147867	0.027023	-0.151646	-0.081246	0.037928	-0.094364	-0.339082	0.078172	-0.128127	-0.035563	0.722306	-0.317881	0.000027	0.734527	-0.293048	-0.031858	0.684576	-0.318726	0.008887	0.694942	-0.300047	0.018660	0.452178	-0.278685	-0.012903	0.452400	-0.168548	-0.107628	0.441384	-0.321668	-0.098073	0.397613	-0.302782	-0.153153	0.430708	-0.326108	-0.144835	0.391995	-0.311292	-0.364262	0.378965	-0.324321	-0.366278	0.349799	-0.240677	-0.405211	0.261145	-0.368468	-0.426843	0.224894	-0.267628	-0.378339	0.171786	-0.328086	-0.414255	0.420695	-0.275119	-0.004900	1.378074	0.052197	0.039663	1.393756	-0.252065	
80	0.3950	-0.046827	0.896854	-0.027466	-0.008436	0.902596	-0.242179	-0.206888	0.959750	-0.125034	-0.184668	0.958334	-0.223377	-0.143262	0.713099	0.015883	-0.088359	0.722006	0.022926	-0.129957	0.669140	0.016256	-0.078608	0.674610	0.020158	-0.059949	0.457191	-0.022547	-0.053071	0.453526	-0.121651	-0.156672	0.352772	-0.010220	-0.108868	0.335145	-0.023299	-0.170403	0.312437	-0.015395	-0.126159	0.298128	-0.030673	-0.264644	0.100572	-0.074663	-0.243592	0.103322	-0.162013	-0.174978	0.031771	-0.039958	-0.148027	0.027208	-0.151687	-0.081459	0.038174	-0.094454	-0.339123	0.078466	-0.128095	-0.030102	0.722826	-0.316982	0.005418	0.735324	-0.292057	-0.026104	0.685121	-0.317780	0.014587	0.695789	-0.299002	0.026095	0.452973	-0.277216	-0.005722	0.453346	-0.167081	-0.100004	0.441500	-0.320316	-0.090358	0.397788	-0.301269	-0.145457	0.430669	-0.324819	-0.137038	0.391998	-0.309869	-0.356294	0.378012	-0.323219	-0.358368	0.349299	-0.239416	-0.396479	0.259651	-0.366873	-0.418215	0.223881	-0.265867	-0.369160	0.170587	-0.325866	-0.406732	0.419806	-0.274434	-0.000236	1.378401	0.052819	0.043612	1.394112	-0.251541	
