PathFileType	4	(X/Y/Z)	 P5 250r2 05.trc
DataRate	CameraRate	NumFrames	NumMarkers	Units	OrigDataRate	OrigDataStartFrame	OrigNumFrames
200	200	83	38	m	200	1	83
Frame#	Time	RASIS			LASIS			RPSIS			LPSIS			RThighRear1			RThighFront1			RThighRear2			RThighFront2			RKneeLat			RKneeMed			RShankRear1			RShankFront1			RShankRear2			RShankFront2			RAnkleLat			RAnkleMed			RM5			RM1			RMid			RHeel			LThighRear1			LThighFront1			LThighRear2			LThighFront2			LKneeLat			LKneeMed			LShankRear1			LShankFront1			LShankRear2			LShankFront2			LAnkleLat			LAnkleMed			LM5			LM1			LMid			LHeel			RShoulder			LShoulder			
		X1	Y1	Z1	X2	Y2	Z2	X3	Y3	Z3	X4	Y4	Z4	X5	Y5	Z5	X6	Y6	Z6	X7	Y7	Z7	X8	Y8	Z8	X9	Y9	Z9	X10	Y10	Z10	X11	Y11	Z11	X12	Y12	Z12	X13	Y13	Z13	X14	Y14	Z14	X15	Y15	Z15	X16	Y16	Z16	X17	Y17	Z17	X18	Y18	Z18	X19	Y19	Z19	X20	Y20	Z20	X21	Y21	Z21	X22	Y22	Z22	X23	Y23	Z23	X24	Y24	Z24	X25	Y25	Z25	X26	Y26	Z26	X27	Y27	Z27	X28	Y28	Z28	X29	Y29	Z29	X30	Y30	Z30	X31	Y31	Z31	X32	Y32	Z32	X33	Y33	Z33	X34	Y34	Z34	X35	Y35	Z35	X36	Y36	Z36	X37	Y37	Z37	X38	Y38	Z38	
1	0.0000	-1.513869	0.869510	-0.239316	-1.507454	0.892180	-0.450435	-1.674833	0.952800	-0.300584	-1.672553	0.956107	-0.399069	-1.671591	0.696029	-0.186494	-1.622410	0.683944	-0.188277	-1.680117	0.650827	-0.190746	-1.633656	0.634983	-0.193628	-1.732030	0.428447	-0.243546	-1.729709	0.429274	-0.356130	-1.868715	0.452851	-0.236017	-1.859359	0.405524	-0.248660	-1.908319	0.442565	-0.245503	-1.898410	0.399766	-0.259674	-2.132372	0.417129	-0.301167	-2.115561	0.403442	-0.384331	-2.215860	0.303021	-0.297982	-2.189397	0.292908	-0.403542	-2.188018	0.224288	-0.353374	-2.157705	0.481767	-0.347982	-1.529334	0.743496	-0.533787	-1.492192	0.760928	-0.511918	-1.517485	0.707322	-0.536857	-1.477185	0.726542	-0.521995	-1.396617	0.499184	-0.506288	-1.405312	0.492607	-0.399950	-1.437007	0.366354	-0.531842	-1.393121	0.365615	-0.511680	-1.438962	0.317786	-0.527772	-1.399768	0.317001	-0.510595	-1.443483	0.097850	-0.480238	-1.430637	0.108767	-0.394173	-1.333360	0.038585	-0.494483	-1.323581	0.034955	-0.380233	-1.241808	0.050197	-0.437562	-1.510282	0.071354	-0.435389	-1.366927	1.341990	-0.214249	-1.374310	1.339898	-0.513675	
2	0.0050	-1.498036	0.868312	-0.238078	-1.491865	0.890989	-0.449595	-1.659604	0.951274	-0.299201	-1.657132	0.955152	-0.397783	-1.652352	0.693756	-0.184684	-1.602881	0.682838	-0.186063	-1.659665	0.648468	-0.188534	-1.612816	0.633781	-0.191080	-1.705147	0.425796	-0.240134	-1.702050	0.426289	-0.353112	-1.840716	0.451453	-0.233317	-1.832034	0.403618	-0.245943	-1.880406	0.441863	-0.242657	-1.871156	0.398668	-0.256794	-2.104542	0.419209	-0.299001	-2.087930	0.405111	-0.382210	-2.187991	0.305508	-0.294954	-2.162400	0.294711	-0.400623	-2.160702	0.226321	-0.350188	-2.129816	0.483931	-0.346097	-1.515212	0.741481	-0.532952	-1.477721	0.758712	-0.511550	-1.503804	0.705183	-0.535886	-1.463147	0.724118	-0.521580	-1.384551	0.495897	-0.505630	-1.393241	0.489448	-0.399270	-1.428003	0.364467	-0.530752	-1.384316	0.362572	-0.510662	-1.431445	0.316224	-0.526651	-1.392394	0.314362	-0.509461	-1.442858	0.097872	-0.479007	-1.430209	0.108411	-0.392784	-1.333297	0.038533	-0.494583	-1.323442	0.034941	-0.380236	-1.242300	0.049851	-0.436952	-1.510380	0.071056	-0.434679	-1.352107	1.340951	-0.213370	-1.358259	1.337180	-0.513442	
3	0.0100	-1.481994	0.867115	-0.236831	-1.476055	0.889797	-0.448747	-1.644164	0.949753	-0.297822	-1.641487	0.954208	-0.396499	-1.632834	0.691502	-0.182854	-1.583070	0.681776	-0.183822	-1.638903	0.646137	-0.186288	-1.591667	0.632633	-0.188499	-1.677807	0.423204	-0.236656	-1.673929	0.423366	-0.350040	-1.812287	0.450084	-0.230567	-1.804264	0.401739	-0.243165	-1.852068	0.441177	-0.239766	-1.843461	0.397577	-0.253869	-2.076329	0.421237	-0.296809	-2.059902	0.406716	-0.380060	-2.159696	0.307896	-0.291870	-2.134966	0.296387	-0.397642	-2.132914	0.228237	-0.346924	-2.101581	0.486033	-0.344202	-1.500917	0.739432	-0.532104	-1.463069	0.756446	-0.511165	-1.489964	0.703010	-0.534903	-1.448942	0.721636	-0.521146	-1.372434	0.492523	-0.504944	-1.381120	0.486206	-0.398567	-1.418973	0.362525	-0.529645	-1.375495	0.359463	-0.509621	-1.423914	0.314616	-0.525512	-1.385016	0.311666	-0.508305	-1.442273	0.097886	-0.477763	-1.429812	0.108044	-0.391380	-1.333251	0.038487	-0.494680	-1.323308	0.034925	-0.380239	-1.242793	0.049522	-0.436352	-1.510520	0.070732	-0.433954	-1.337088	1.339931	-0.212462	-1.341974	1.334458	-0.513176	
4	0.0150	-1.465761	0.865941	-0.235574	-1.460031	0.888618	-0.447885	-1.628521	0.948259	-0.296457	-1.625622	0.953295	-0.395224	-1.613050	0.689308	-0.181005	-1.562997	0.680801	-0.181556	-1.617844	0.643882	-0.184011	-1.570228	0.631586	-0.185888	-1.650015	0.420740	-0.233113	-1.645357	0.420576	-0.346912	-1.783451	0.448772	-0.227767	-1.776055	0.399919	-0.240325	-1.823325	0.440517	-0.236833	-1.815326	0.396509	-0.250900	-2.047753	0.423142	-0.294593	-2.031486	0.408190	-0.377883	-2.130959	0.310093	-0.288728	-2.107064	0.297846	-0.394595	-2.104607	0.229953	-0.343573	-2.073038	0.487993	-0.342304	-1.486469	0.737363	-0.531240	-1.448258	0.754138	-0.510755	-1.475990	0.700814	-0.533906	-1.434599	0.719101	-0.520685	-1.360337	0.489071	-0.504226	-1.369020	0.482892	-0.397836	-1.409971	0.360540	-0.528522	-1.366716	0.356303	-0.508561	-1.416416	0.312974	-0.524357	-1.377685	0.308931	-0.507134	-1.441737	0.097901	-0.476520	-1.429447	0.107674	-0.389974	-1.333226	0.038443	-0.494769	-1.323184	0.034902	-0.380240	-1.243285	0.049214	-0.435768	-1.510705	0.070395	-0.433219	-1.321884	1.338955	-0.211516	-1.325460	1.331761	-0.512860	
5	0.0200	-1.449344	0.864811	-0.234304	-1.443791	0.887466	-0.447004	-1.612676	0.946815	-0.295114	-1.609531	0.952432	-0.393964	-1.593005	0.687218	-0.179139	-1.542672	0.679958	-0.179268	-1.596490	0.641751	-0.181702	-1.548507	0.630694	-0.183251	-1.621767	0.418473	-0.229505	-1.616331	0.417996	-0.343730	-1.754217	0.447542	-0.224917	-1.747398	0.398191	-0.237419	-1.794186	0.439894	-0.233861	-1.786742	0.395477	-0.247889	-2.018818	0.424851	-0.292355	-2.002679	0.409462	-0.375678	-2.101748	0.312002	-0.285527	-2.078646	0.298996	-0.391477	-2.075717	0.231384	-0.340127	-2.044212	0.489722	-0.340407	-1.471883	0.735287	-0.530356	-1.433302	0.751791	-0.510311	-1.461903	0.698612	-0.532894	-1.420138	0.716519	-0.520190	-1.348325	0.485555	-0.503470	-1.357008	0.479515	-0.397073	-1.401047	0.358526	-0.527389	-1.358032	0.353112	-0.507484	-1.408994	0.311312	-0.523191	-1.370446	0.306177	-0.505950	-1.441253	0.097927	-0.475289	-1.429111	0.107313	-0.388579	-1.333230	0.038399	-0.494847	-1.323072	0.034868	-0.380239	-1.243773	0.048930	-0.435206	-1.510933	0.070061	-0.432479	-1.306504	1.338051	-0.210521	-1.308716	1.329121	-0.512474	
6	0.0250	-1.432745	0.863748	-0.233019	-1.427326	0.886357	-0.446096	-1.596623	0.945444	-0.293799	-1.593204	0.951637	-0.392724	-1.572698	0.685276	-0.177256	-1.522096	0.679295	-0.176959	-1.574839	0.639796	-0.179363	-1.526505	0.630010	-0.180590	-1.593050	0.416478	-0.225832	-1.586847	0.415702	-0.340490	-1.724591	0.446419	-0.222015	-1.718278	0.396588	-0.234443	-1.764652	0.439317	-0.230849	-1.757692	0.394497	-0.244835	-1.989520	0.426285	-0.290096	-1.973464	0.410460	-0.373447	-2.072019	0.313527	-0.282265	-2.049652	0.299745	-0.388284	-2.046163	0.232446	-0.336580	-2.015116	0.491129	-0.338515	-1.457167	0.733219	-0.529447	-1.418213	0.749415	-0.509822	-1.447714	0.696419	-0.531863	-1.405574	0.713899	-0.519650	-1.336459	0.481989	-0.502672	-1.345148	0.476088	-0.396277	-1.392251	0.356501	-0.526249	-1.349492	0.349912	-0.506393	-1.401687	0.309649	-0.522018	-1.363340	0.303424	-0.504759	-1.440823	0.097977	-0.474082	-1.428801	0.106973	-0.387209	-1.333266	0.038353	-0.494910	-1.322977	0.034816	-0.380235	-1.244257	0.048672	-0.434673	-1.511199	0.069747	-0.431741	-1.290951	1.337246	-0.209467	-1.291733	1.326570	-0.511997	
7	0.0300	-1.415961	0.862775	-0.231715	-1.410622	0.885305	-0.445152	-1.580351	0.944172	-0.292520	-1.576623	0.950931	-0.391509	-1.552124	0.683526	-0.175355	-1.501269	0.678859	-0.174632	-1.552882	0.638066	-0.176992	-1.504220	0.629586	-0.177908	-1.563852	0.414824	-0.222094	-1.556892	0.413769	-0.337193	-1.694570	0.445430	-0.219061	-1.688674	0.395144	-0.231395	-1.734720	0.438795	-0.227798	-1.728152	0.393584	-0.241739	-1.959844	0.427366	-0.287816	-1.943818	0.411110	-0.371186	-2.041717	0.314572	-0.278941	-2.020009	0.300001	-0.385012	-2.015860	0.233057	-0.332923	-1.985755	0.492119	-0.336633	-1.442322	0.731175	-0.528507	-1.402994	0.747016	-0.509279	-1.433432	0.694254	-0.530809	-1.390916	0.711249	-0.519057	-1.324792	0.478393	-0.501827	-1.333496	0.472629	-0.395442	-1.383624	0.354487	-0.525105	-1.341141	0.346727	-0.505290	-1.394531	0.308003	-0.520844	-1.356405	0.300699	-0.503568	-1.440445	0.098065	-0.472913	-1.428511	0.106665	-0.385878	-1.333340	0.038299	-0.494955	-1.322901	0.034742	-0.380226	-1.244736	0.048443	-0.434171	-1.511496	0.069475	-0.431011	-1.275223	1.336571	-0.208342	-1.274498	1.324142	-0.511409	
8	0.0350	-1.398985	0.861918	-0.230384	-1.393663	0.884324	-0.444164	-1.563846	0.943020	-0.291279	-1.559771	0.950332	-0.390319	-1.531273	0.682012	-0.173435	-1.480187	0.678695	-0.172287	-1.530612	0.636610	-0.174588	-1.481649	0.629474	-0.175207	-1.534162	0.413584	-0.218293	-1.526461	0.412272	-0.333837	-1.664154	0.444595	-0.216055	-1.658566	0.393889	-0.228272	-1.704385	0.438334	-0.224710	-1.698101	0.392752	-0.238600	-1.929772	0.428016	-0.285515	-1.913713	0.411343	-0.368896	-2.010784	0.315042	-0.275554	-1.989645	0.299679	-0.381658	-1.984717	0.233141	-0.329153	-1.956125	0.492599	-0.334761	-1.427347	0.729173	-0.527532	-1.387647	0.744606	-0.508670	-1.419060	0.692135	-0.529727	-1.376173	0.708580	-0.518400	-1.313375	0.474790	-0.500932	-1.322102	0.469156	-0.394568	-1.375204	0.352507	-0.523962	-1.333016	0.343586	-0.504180	-1.387555	0.306401	-0.519672	-1.349671	0.298029	-0.502381	-1.440114	0.098208	-0.471793	-1.428231	0.106406	-0.384600	-1.333455	0.038233	-0.494978	-1.322847	0.034640	-0.380210	-1.245209	0.048242	-0.433704	-1.511813	0.069272	-0.430296	-1.259315	1.336053	-0.207136	-1.256996	1.321870	-0.510687	
9	0.0400	-1.381808	0.861199	-0.229021	-1.376429	0.883429	-0.443121	-1.547093	0.942012	-0.290081	-1.542626	0.949859	-0.389158	-1.510140	0.680775	-0.171495	-1.458847	0.678849	-0.169924	-1.508021	0.635476	-0.172153	-1.458789	0.629723	-0.172488	-1.503974	0.412822	-0.214431	-1.495552	0.411280	-0.330422	-1.633345	0.443936	-0.212997	-1.627939	0.392851	-0.225075	-1.673645	0.437939	-0.221584	-1.667519	0.392014	-0.235419	-1.899282	0.428159	-0.283193	-1.883121	0.411089	-0.366573	-1.979159	0.314851	-0.272104	-1.958483	0.298701	-0.378220	-1.952645	0.232629	-0.325264	-1.926221	0.492477	-0.332900	-1.412240	0.727232	-0.526515	-1.372173	0.742195	-0.507985	-1.404600	0.690082	-0.528612	-1.361347	0.705905	-0.517671	-1.302247	0.471208	-0.499985	-1.311011	0.465694	-0.393652	-1.367021	0.350590	-0.522824	-1.325151	0.340519	-0.503066	-1.380783	0.304867	-0.518507	-1.343164	0.295445	-0.501206	-1.439819	0.098423	-0.470735	-1.427947	0.106212	-0.383391	-1.333612	0.038152	-0.494975	-1.322817	0.034504	-0.380185	-1.245675	0.048069	-0.433275	-1.512135	0.069165	-0.429606	-1.243223	1.335719	-0.205838	-1.239212	1.319786	-0.509815	
10	0.0450	-1.364423	0.860642	-0.227619	-1.358904	0.882633	-0.442012	-1.530077	0.941168	-0.288925	-1.525172	0.949528	-0.388025	-1.488717	0.679856	-0.169531	-1.437248	0.679358	-0.167545	-1.485104	0.634706	-0.169686	-1.435641	0.630377	-0.169754	-1.473291	0.412600	-0.210513	-1.464170	0.410856	-0.326951	-1.602150	0.443468	-0.209889	-1.596783	0.392057	-0.221805	-1.642504	0.437614	-0.218422	-1.636394	0.391381	-0.232196	-1.868354	0.427723	-0.280847	-1.852013	0.410285	-0.364216	-1.946787	0.313921	-0.268591	-1.926454	0.297001	-0.374697	-1.919561	0.231464	-0.321258	-1.896032	0.491666	-0.331050	-1.396995	0.725372	-0.525450	-1.356570	0.739799	-0.507214	-1.390051	0.688117	-0.527460	-1.346443	0.703242	-0.516860	-1.291444	0.467677	-0.498984	-1.300259	0.462271	-0.392693	-1.359102	0.348766	-0.521696	-1.317568	0.337563	-0.501955	-1.374234	0.303433	-0.517356	-1.336903	0.292980	-0.500049	-1.439547	0.098729	-0.469753	-1.427643	0.106100	-0.382264	-1.333812	0.038052	-0.494944	-1.322813	0.034331	-0.380152	-1.246136	0.047921	-0.432882	-1.512444	0.069185	-0.428950	-1.226942	1.335596	-0.204439	-1.221133	1.317921	-0.508772	
11	0.0500	-1.346821	0.860268	-0.226170	-1.341073	0.881948	-0.440826	-1.512786	0.940509	-0.287812	-1.507391	0.949355	-0.386919	-1.467004	0.679288	-0.167543	-1.415393	0.680259	-0.165151	-1.461864	0.634340	-0.167187	-1.412209	0.631475	-0.167008	-1.442129	0.412969	-0.206544	-1.432334	0.411055	-0.323425	-1.570586	0.443204	-0.206734	-1.565098	0.391526	-0.218465	-1.610971	0.437358	-0.215227	-1.604722	0.390864	-0.228932	-1.836970	0.426643	-0.278476	-1.820366	0.408874	-0.361822	-1.913613	0.312184	-0.265018	-1.893493	0.294523	-0.371089	-1.885394	0.229600	-0.317136	-1.865547	0.490083	-0.329206	-1.381608	0.723613	-0.524331	-1.340837	0.737432	-0.506347	-1.375412	0.686264	-0.526263	-1.331460	0.700609	-0.515959	-1.280990	0.464234	-0.497929	-1.289875	0.458918	-0.391691	-1.351463	0.347071	-0.520583	-1.310285	0.334754	-0.500850	-1.367917	0.302131	-0.516224	-1.330897	0.290672	-0.498918	-1.439279	0.099148	-0.468858	-1.427300	0.106088	-0.381234	-1.334052	0.037927	-0.494882	-1.322835	0.034117	-0.380108	-1.246591	0.047794	-0.432527	-1.512715	0.069367	-0.428337	-1.210468	1.335707	-0.202931	-1.202747	1.316304	-0.507545	
12	0.0550	-1.328997	0.860100	-0.224666	-1.322924	0.881387	-0.439552	-1.495208	0.940052	-0.286740	-1.489273	0.949354	-0.385836	-1.445003	0.679102	-0.165527	-1.393287	0.681581	-0.162742	-1.438307	0.634411	-0.164659	-1.388505	0.633049	-0.164252	-1.410516	0.413973	-0.202535	-1.400075	0.411921	-0.319850	-1.538676	0.443152	-0.203536	-1.532895	0.391277	-0.215061	-1.579066	0.437169	-0.212001	-1.572511	0.390470	-0.225631	-1.805112	0.424859	-0.276079	-1.788159	0.406807	-0.359388	-1.879593	0.309587	-0.261387	-1.859546	0.291227	-0.367401	-1.850081	0.227007	-0.312902	-1.834756	0.487655	-0.327365	-1.366073	0.721978	-0.523152	-1.324973	0.735113	-0.505376	-1.360680	0.684546	-0.525018	-1.316402	0.698027	-0.514961	-1.270905	0.460918	-0.496822	-1.279880	0.455673	-0.390648	-1.344114	0.345541	-0.519489	-1.303311	0.332132	-0.499758	-1.361838	0.300995	-0.515117	-1.325149	0.288557	-0.497821	-1.438991	0.099700	-0.468065	-1.426893	0.106196	-0.380317	-1.334328	0.037777	-0.494788	-1.322883	0.033860	-0.380053	-1.247040	0.047683	-0.432207	-1.512921	0.069745	-0.427779	-1.193800	1.336074	-0.201307	-1.184049	1.314963	-0.506118	
13	0.0600	-1.310946	0.860154	-0.223098	-1.304449	0.880959	-0.438179	-1.477338	0.939813	-0.285703	-1.470808	0.949534	-0.384772	-1.422723	0.679325	-0.163484	-1.370943	0.683346	-0.160320	-1.414448	0.634944	-0.162104	-1.364544	0.635121	-0.161489	-1.378493	0.415645	-0.198495	-1.367438	0.413489	-0.316232	-1.506453	0.443313	-0.200301	-1.500200	0.391320	-0.211599	-1.546815	0.437043	-0.208748	-1.539780	0.390205	-0.222294	-1.772769	0.422322	-0.273651	-1.755381	0.404044	-0.356911	-1.844690	0.306088	-0.257703	-1.824568	0.287090	-0.363637	-1.813576	0.223671	-0.308565	-1.803647	0.484316	-0.325520	-1.350386	0.720488	-0.521908	-1.308979	0.732862	-0.504294	-1.345852	0.682986	-0.523719	-1.301269	0.695519	-0.513860	-1.261195	0.457773	-0.495666	-1.270284	0.452575	-0.389564	-1.337058	0.344214	-0.518420	-1.296644	0.329740	-0.498685	-1.355993	0.300062	-0.514042	-1.319654	0.286676	-0.496765	-1.438655	0.100407	-0.467384	-1.426397	0.106446	-0.379525	-1.334634	0.037597	-0.494662	-1.322953	0.033560	-0.379987	-1.247481	0.047582	-0.431919	-1.513029	0.070358	-0.427289	-1.176939	1.336713	-0.199563	-1.165036	1.313922	-0.504482	
14	0.0650	-1.292669	0.860446	-0.221461	-1.285645	0.880675	-0.436698	-1.459172	0.939803	-0.284697	-1.451995	0.949905	-0.383722	-1.400179	0.679974	-0.161410	-1.348378	0.685570	-0.157887	-1.390309	0.635960	-0.159524	-1.340351	0.637708	-0.158725	-1.346116	0.418006	-0.194438	-1.334481	0.415778	-0.312577	-1.473962	0.443684	-0.197035	-1.467047	0.391662	-0.208089	-1.514255	0.436971	-0.205471	-1.506560	0.390071	-0.218926	-1.739933	0.418993	-0.271188	-1.722022	0.400556	-0.354386	-1.808874	0.301666	-0.253970	-1.788528	0.282105	-0.359801	-1.775849	0.219593	-0.304133	-1.772207	0.480014	-0.323661	-1.334544	0.719166	-0.520594	-1.292857	0.730700	-0.503094	-1.330925	0.681610	-0.522360	-1.286063	0.693111	-0.512651	-1.251861	0.454843	-0.494463	-1.261092	0.449666	-0.388444	-1.330288	0.343130	-0.517381	-1.290276	0.327620	-0.497638	-1.350369	0.299368	-0.513006	-1.314398	0.285068	-0.495759	-1.438236	0.101292	-0.466827	-1.425782	0.106857	-0.378874	-1.334960	0.037389	-0.494504	-1.323044	0.033221	-0.379911	-1.247914	0.047481	-0.431659	-1.513005	0.071243	-0.426880	-1.159888	1.337640	-0.197696	-1.145711	1.313201	-0.502628	
15	0.0700	-1.274168	0.860989	-0.219746	-1.266515	0.880543	-0.435100	-1.440711	0.940033	-0.283713	-1.432836	0.950474	-0.382677	-1.377391	0.681062	-0.159306	-1.325614	0.688258	-0.155445	-1.365917	0.637468	-0.156925	-1.315956	0.640814	-0.155961	-1.313455	0.421064	-0.190380	-1.301275	0.418798	-0.308896	-1.441253	0.444257	-0.193745	-1.433484	0.392303	-0.204540	-1.481430	0.436941	-0.202175	-1.472893	0.390067	-0.215530	-1.706600	0.414842	-0.268687	-1.688083	0.396322	-0.351809	-1.772126	0.296314	-0.250192	-1.751406	0.276282	-0.355901	-1.736884	0.214795	-0.299620	-1.740424	0.474706	-0.321779	-1.318545	0.718033	-0.519205	-1.276610	0.728649	-0.501772	-1.315896	0.680441	-0.520938	-1.270785	0.690829	-0.511329	-1.242893	0.452176	-0.493218	-1.252295	0.446991	-0.387289	-1.323788	0.342330	-0.516378	-1.284188	0.325816	-0.496622	-1.344948	0.298950	-0.512015	-1.309359	0.283772	-0.494810	-1.437699	0.102376	-0.466405	-1.425015	0.107452	-0.378376	-1.335293	0.037153	-0.494316	-1.323149	0.032846	-0.379825	-1.248336	0.047371	-0.431422	-1.512807	0.072439	-0.426565	-1.142655	1.338862	-0.195705	-1.126084	1.312818	-0.500552	
16	0.0750	-1.255447	0.861793	-0.217947	-1.247064	0.880569	-0.433378	-1.421959	0.940508	-0.282744	-1.413338	0.951244	-0.381631	-1.354386	0.682593	-0.157170	-1.302678	0.691410	-0.152996	-1.341309	0.639471	-0.154310	-1.291392	0.644435	-0.153204	-1.280591	0.424814	-0.186335	-1.267903	0.422539	-0.305197	-1.408387	0.445016	-0.190440	-1.399572	0.393237	-0.200965	-1.448390	0.436940	-0.198866	-1.438831	0.390189	-0.212110	-1.672767	0.409853	-0.266139	-1.653565	0.391337	-0.349173	-1.734436	0.290044	-0.246374	-1.713197	0.269652	-0.351943	-1.696684	0.209314	-0.295038	-1.708285	0.468364	-0.319859	-1.302388	0.717111	-0.517738	-1.260239	0.726731	-0.500324	-1.300762	0.679501	-0.519449	-1.255435	0.688701	-0.509893	-1.234270	0.449817	-0.491936	-1.243880	0.444596	-0.386104	-1.317536	0.341853	-0.515416	-1.278354	0.324369	-0.495644	-1.339703	0.298845	-0.511077	-1.304506	0.282828	-0.493925	-1.437002	0.103682	-0.466130	-1.424062	0.108252	-0.378043	-1.335618	0.036893	-0.494100	-1.323261	0.032445	-0.379732	-1.248742	0.047241	-0.431204	-1.512394	0.073984	-0.426360	-1.125247	1.340387	-0.193590	-1.106167	1.312784	-0.498251	
17	0.0800	-1.236515	0.862861	-0.216059	-1.227305	0.880759	-0.431527	-1.402926	0.941232	-0.281780	-1.393513	0.952215	-0.380572	-1.331192	0.684565	-0.155003	-1.279599	0.695014	-0.150541	-1.316525	0.641963	-0.151685	-1.266700	0.648557	-0.150458	-1.247614	0.429238	-0.182322	-1.234457	0.426982	-0.301492	-1.375428	0.445942	-0.187128	-1.365378	0.394452	-0.197374	-1.415194	0.436950	-0.195546	-1.404437	0.390431	-0.208671	-1.638435	0.404020	-0.263539	-1.618479	0.385603	-0.346473	-1.695801	0.282887	-0.242520	-1.673905	0.262260	-0.347935	-1.655263	0.203207	-0.290401	-1.675772	0.460971	-0.317885	-1.286071	0.716417	-0.516189	-1.243751	0.724970	-0.498750	-1.285520	0.678810	-0.517888	-1.240016	0.686753	-0.508341	-1.225965	0.447813	-0.490622	-1.235821	0.442528	-0.384893	-1.311500	0.341735	-0.514499	-1.272737	0.323320	-0.494710	-1.334599	0.299086	-0.510199	-1.299801	0.282272	-0.493113	-1.436101	0.105229	-0.466009	-1.422888	0.109278	-0.377885	-1.335916	0.036615	-0.493863	-1.323372	0.032028	-0.379635	-1.249128	0.047082	-0.430999	-1.511719	0.075916	-0.426278	-1.107675	1.342215	-0.191355	-1.085978	1.313108	-0.495727	
18	0.0850	-1.217380	0.864196	-0.214079	-1.207253	0.881117	-0.429543	-1.383623	0.942203	-0.280808	-1.373378	0.953386	-0.379492	-1.307844	0.686967	-0.152805	-1.256410	0.699051	-0.148085	-1.291609	0.644927	-0.149055	-1.241921	0.653153	-0.147727	-1.214624	0.434303	-0.178359	-1.201039	0.432091	-0.297791	-1.342445	0.447008	-0.183817	-1.330979	0.395930	-0.193780	-1.381900	0.436951	-0.192220	-1.369779	0.390783	-0.205215	-1.603606	0.397353	-0.260876	-1.582836	0.379137	-0.343700	-1.656225	0.274890	-0.238631	-1.633547	0.254172	-0.343882	-1.612654	0.196545	-0.285723	-1.642870	0.452526	-0.315840	-1.269596	0.715970	-0.514557	-1.227148	0.723388	-0.497048	-1.270165	0.678389	-0.516253	-1.224526	0.685013	-0.506674	-1.217939	0.446206	-0.489282	-1.228086	0.440829	-0.383660	-1.305640	0.342010	-0.513631	-1.267294	0.322704	-0.493823	-1.329596	0.299705	-0.509385	-1.295199	0.282136	-0.492377	-1.434949	0.107038	-0.466052	-1.421454	0.110552	-0.377911	-1.336167	0.036329	-0.493609	-1.323470	0.031611	-0.379539	-1.249487	0.046882	-0.430802	-1.510737	0.078268	-0.426336	-1.089952	1.344342	-0.189002	-1.065538	1.313793	-0.492985	
19	0.0900	-1.198055	0.865795	-0.212003	-1.186927	0.881644	-0.427425	-1.364064	0.943418	-0.279818	-1.352952	0.954752	-0.378378	-1.284378	0.689780	-0.150577	-1.233146	0.703492	-0.145628	-1.266609	0.648340	-0.146427	-1.217102	0.658190	-0.145016	-1.181725	0.439963	-0.174464	-1.167752	0.437815	-0.294105	-1.309511	0.448183	-0.180514	-1.296457	0.397649	-0.190193	-1.348573	0.436921	-0.188892	-1.334931	0.391232	-0.201748	-1.568283	0.389871	-0.258141	-1.546651	0.371967	-0.340845	-1.615720	0.266119	-0.234709	-1.592149	0.245468	-0.339790	-1.568900	0.189417	-0.281017	-1.609557	0.443042	-0.313703	-1.252962	0.715782	-0.512838	-1.210435	0.722005	-0.495222	-1.254692	0.678253	-0.514543	-1.208965	0.683504	-0.504892	-1.210149	0.445036	-0.487921	-1.220633	0.439544	-0.382407	-1.299911	0.342710	-0.512815	-1.261975	0.322556	-0.492988	-1.324647	0.300729	-0.508642	-1.290649	0.282449	-0.491724	-1.433501	0.109126	-0.466264	-1.419726	0.112093	-0.378129	-1.336347	0.036048	-0.493345	-1.323544	0.031213	-0.379447	-1.249811	0.046630	-0.430608	-1.509400	0.081074	-0.426548	-1.072090	1.346759	-0.186537	-1.044873	1.314836	-0.490030	
20	0.0950	-1.178550	0.867651	-0.209831	-1.166349	0.882341	-0.425172	-1.344265	0.944869	-0.278798	-1.332257	0.956307	-0.377221	-1.260833	0.692978	-0.148321	-1.209843	0.708300	-0.143173	-1.241574	0.652167	-0.143806	-1.192287	0.663624	-0.142329	-1.149023	0.446162	-0.170654	-1.134705	0.444091	-0.290446	-1.276697	0.449432	-0.177226	-1.261898	0.399581	-0.186624	-1.315273	0.436837	-0.185565	-1.299971	0.391761	-0.198270	-1.532467	0.381607	-0.255322	-1.509941	0.364130	-0.337898	-1.574303	0.256653	-0.230754	-1.549748	0.236241	-0.335664	-1.524058	0.181925	-0.276295	-1.575809	0.432546	-0.311454	-1.236170	0.715867	-0.511034	-1.193616	0.720840	-0.493273	-1.239096	0.678413	-0.512755	-1.193330	0.682251	-0.502998	-1.202540	0.444337	-0.486543	-1.213415	0.438709	-0.381138	-1.294258	0.343860	-0.512054	-1.256724	0.322902	-0.492208	-1.319698	0.302180	-0.507973	-1.286094	0.283236	-0.491155	-1.431708	0.111509	-0.466650	-1.417666	0.113921	-0.378544	-1.336430	0.035789	-0.493080	-1.323580	0.030857	-0.379367	-1.250088	0.046319	-0.430412	-1.507660	0.084363	-0.426928	-1.054103	1.349454	-0.183968	-1.024009	1.316231	-0.486874	
21	0.1000	-1.158880	0.869752	-0.207563	-1.145542	0.883207	-0.422788	-1.324243	0.946544	-0.277735	-1.311319	0.958040	-0.376008	-1.237247	0.696529	-0.146038	-1.186534	0.713431	-0.140722	-1.216555	0.656369	-0.141198	-1.167522	0.669402	-0.139670	-1.116623	0.452830	-0.166945	-1.102004	0.450846	-0.286823	-1.244073	0.450717	-0.173959	-1.227388	0.401692	-0.183081	-1.282063	0.436672	-0.182240	-1.264978	0.392353	-0.194784	-1.496162	0.372606	-0.252406	-1.472722	0.355676	-0.334848	-1.531997	0.246590	-0.226763	-1.506387	0.226597	-0.331505	-1.478194	0.174182	-0.271566	-1.541602	0.421079	-0.309069	-1.219219	0.716231	-0.509143	-1.176691	0.719910	-0.491205	-1.223370	0.678880	-0.510889	-1.177617	0.681271	-0.500996	-1.195055	0.444135	-0.485153	-1.206377	0.438358	-0.379855	-1.288624	0.345479	-0.511347	-1.251478	0.323764	-0.491482	-1.314695	0.304078	-0.507383	-1.281475	0.284515	-0.490672	-1.429524	0.114203	-0.467214	-1.415241	0.116053	-0.379158	-1.336390	0.035570	-0.492823	-1.323560	0.030568	-0.379307	-1.250307	0.045942	-0.430212	-1.505473	0.088158	-0.427488	-1.036004	1.352409	-0.181300	-1.002975	1.317965	-0.483526	
22	0.1050	-1.139057	0.872083	-0.205202	-1.124534	0.884239	-0.420278	-1.304018	0.948429	-0.276618	-1.290163	0.959939	-0.374728	-1.213658	0.700392	-0.143730	-1.163253	0.718834	-0.138277	-1.191599	0.660896	-0.138609	-1.142850	0.675464	-0.137044	-1.084630	0.459888	-0.163352	-1.069754	0.457994	-0.283246	-1.211705	0.451995	-0.170718	-1.193013	0.403948	-0.179573	-1.248999	0.436400	-0.178917	-1.230028	0.392987	-0.191290	-1.459369	0.362925	-0.249378	-1.435014	0.346662	-0.331682	-1.488829	0.236036	-0.222731	-1.462118	0.216653	-0.327313	-1.431385	0.166311	-0.266839	-1.506906	0.408693	-0.306525	-1.202109	0.716877	-0.507166	-1.159662	0.719227	-0.489025	-1.207505	0.679656	-0.508945	-1.161820	0.680580	-0.498888	-1.187629	0.444451	-0.483752	-1.199459	0.438519	-0.378559	-1.282947	0.347579	-0.510696	-1.246174	0.325154	-0.490810	-1.309576	0.306432	-0.506872	-1.276729	0.286295	-0.490274	-1.426907	0.117218	-0.467957	-1.412419	0.118506	-0.379971	-1.336197	0.035418	-0.492586	-1.323469	0.030378	-0.379273	-1.250456	0.045494	-0.430007	-1.502797	0.092482	-0.428241	-1.017806	1.355603	-0.178544	-0.981800	1.320023	-0.480002	
23	0.1100	-1.119094	0.874626	-0.202750	-1.103350	0.885433	-0.417649	-1.283609	0.950506	-0.275435	-1.268817	0.961991	-0.373373	-1.190102	0.704522	-0.141400	-1.140031	0.724451	-0.135839	-1.166754	0.665695	-0.136043	-1.118311	0.681743	-0.134452	-1.053140	0.467249	-0.159889	-1.038052	0.465441	-0.279722	-1.179655	0.453223	-0.167505	-1.158859	0.406308	-0.176104	-1.216137	0.435995	-0.175598	-1.195199	0.393641	-0.187790	-1.422089	0.352629	-0.246225	-1.396836	0.337154	-0.328388	-1.444832	0.225109	-0.218652	-1.417000	0.206532	-0.323087	-1.383713	0.158440	-0.262118	-1.471693	0.395455	-0.303799	-1.184840	0.717806	-0.505104	-1.142529	0.718802	-0.486738	-1.191493	0.680743	-0.506924	-1.145931	0.680190	-0.496680	-1.180195	0.445296	-0.482342	-1.192599	0.439210	-0.377250	-1.277161	0.350168	-0.510097	-1.240744	0.327079	-0.490190	-1.304283	0.309249	-0.506441	-1.271792	0.288583	-0.489959	-1.423815	0.120567	-0.468876	-1.409173	0.121295	-0.380981	-1.335823	0.035360	-0.492380	-1.323288	0.030318	-0.379276	-1.250518	0.044976	-0.429795	-1.499593	0.097348	-0.429194	-0.999520	1.359012	-0.175706	-0.960514	1.322383	-0.476315	
24	0.1150	-1.099002	0.877356	-0.200215	-1.082017	0.886780	-0.414909	-1.263034	0.952755	-0.274177	-1.247308	0.964179	-0.371931	-1.166615	0.708870	-0.139051	-1.116896	0.730220	-0.133411	-1.142062	0.670706	-0.133505	-1.093943	0.688169	-0.131897	-1.022244	0.474820	-0.156566	-1.006989	0.473086	-0.276258	-1.147979	0.454357	-0.164320	-1.125003	0.408731	-0.172677	-1.183525	0.435432	-0.172279	-1.160560	0.394293	-0.184280	-1.384325	0.341794	-0.242932	-1.358207	0.327227	-0.324953	-1.400042	0.213934	-0.214518	-1.371097	0.196360	-0.318823	-1.335271	0.150702	-0.257404	-1.435934	0.381442	-0.300867	-1.167410	0.719011	-0.502960	-1.125289	0.718639	-0.484352	-1.175325	0.682133	-0.504828	-1.129942	0.680107	-0.494376	-1.172682	0.446670	-0.480923	-1.185728	0.440443	-0.375927	-1.271201	0.353242	-0.509547	-1.235122	0.329537	-0.489617	-1.298752	0.312526	-0.506089	-1.266602	0.291375	-0.489723	-1.420214	0.124257	-0.469968	-1.405477	0.124431	-0.382183	-1.335238	0.035429	-0.492217	-1.322996	0.030426	-0.379326	-1.250478	0.044391	-0.429579	-1.495827	0.102766	-0.430355	-0.981159	1.362606	-0.172797	-0.939146	1.325021	-0.472483	
25	0.1200	-1.078793	0.880249	-0.197602	-1.060561	0.888274	-0.412070	-1.242312	0.955153	-0.272833	-1.225663	0.966486	-0.370396	-1.143227	0.713379	-0.136685	-1.093871	0.736077	-0.130992	-1.117562	0.675864	-0.130999	-1.069777	0.694665	-0.129381	-0.992021	0.482504	-0.153390	-0.976646	0.480826	-0.272859	-1.116724	0.455353	-0.161165	-1.091520	0.411176	-0.169294	-1.151205	0.434685	-0.168958	-1.126181	0.394918	-0.180760	-1.346081	0.330502	-0.239483	-1.319149	0.316958	-0.321363	-1.354503	0.202641	-0.210318	-1.324480	0.186268	-0.314516	-1.286156	0.143226	-0.252697	-1.399602	0.366742	-0.297707	-1.149816	0.720483	-0.500736	-1.107939	0.718739	-0.481873	-1.158989	0.683818	-0.502659	-1.113841	0.680331	-0.491981	-1.165019	0.448567	-0.479493	-1.178779	0.442220	-0.374589	-1.264998	0.356791	-0.509041	-1.229240	0.332517	-0.489085	-1.292924	0.316256	-0.505811	-1.261097	0.294659	-0.489557	-1.416074	0.128294	-0.471227	-1.401313	0.127924	-0.383567	-1.334413	0.035660	-0.492109	-1.322575	0.030740	-0.379433	-1.250320	0.043750	-0.429364	-1.491470	0.108742	-0.431724	-0.962730	1.366354	-0.169823	-0.917724	1.327909	-0.468522	
26	0.1250	-1.058478	0.883276	-0.194921	-1.039010	0.889902	-0.409145	-1.221462	0.957674	-0.271397	-1.203907	0.968891	-0.368759	-1.119966	0.717995	-0.134305	-1.070978	0.741951	-0.128584	-1.093290	0.681103	-0.128526	-1.045842	0.701156	-0.126904	-0.962542	0.490201	-0.150366	-0.947092	0.488553	-0.269528	-1.085932	0.456168	-0.158036	-1.058477	0.413601	-0.165952	-1.119216	0.433733	-0.165630	-1.092121	0.395494	-0.177226	-1.307363	0.318841	-0.235865	-1.279684	0.306430	-0.317607	-1.308264	0.191361	-0.206043	-1.277225	0.176382	-0.310157	-1.236470	0.136143	-0.247992	-1.362673	0.351451	-0.294300	-1.132059	0.722206	-0.498436	-1.090474	0.719098	-0.479311	-1.142475	0.685781	-0.500421	-1.097616	0.680858	-0.489502	-1.157136	0.450966	-0.478051	-1.171682	0.444533	-0.373230	-1.258489	0.360799	-0.508572	-1.223036	0.335999	-0.488587	-1.286741	0.320423	-0.505602	-1.255220	0.298419	-0.489454	-1.411371	0.132682	-0.472643	-1.396668	0.131784	-0.385123	-1.333322	0.036094	-0.492070	-1.322002	0.031299	-0.379608	-1.250026	0.043067	-0.429154	-1.486503	0.115273	-0.433302	-0.944244	1.370224	-0.166793	-0.896275	1.331015	-0.464450	
27	0.1300	-1.038066	0.886406	-0.192181	-1.017386	0.891654	-0.406146	-1.200501	0.960291	-0.269862	-1.182067	0.971375	-0.367018	-1.096856	0.722656	-0.131913	-1.048232	0.747776	-0.126187	-1.069274	0.686356	-0.126087	-1.022159	0.707563	-0.124466	-0.933862	0.497810	-0.147497	-0.918386	0.496160	-0.266267	-1.055637	0.456762	-0.154929	-1.025933	0.415963	-0.162649	-1.087587	0.432554	-0.162292	-1.058435	0.395998	-0.173675	-1.268181	0.306907	-0.232064	-1.239839	0.295729	-0.313674	-1.261381	0.180225	-0.201680	-1.229414	0.166824	-0.305740	-1.186322	0.129572	-0.243283	-1.325131	0.335673	-0.290629	-1.114134	0.724162	-0.496062	-1.072888	0.719708	-0.476675	-1.125772	0.688001	-0.498116	-1.081255	0.681675	-0.486943	-1.148963	0.453839	-0.476592	-1.164370	0.447363	-0.371849	-1.251610	0.365239	-0.508131	-1.216447	0.339954	-0.488113	-1.280147	0.325006	-0.505456	-1.248917	0.302628	-0.489402	-1.406089	0.137425	-0.474203	-1.391531	0.136016	-0.386835	-1.331938	0.036771	-0.492112	-1.321256	0.032146	-0.379862	-1.249577	0.042363	-0.428960	-1.480909	0.122352	-0.435083	-0.925708	1.374179	-0.163715	-0.874825	1.334307	-0.460286	
28	0.1350	-1.017566	0.889606	-0.189393	-0.995714	0.893514	-0.403090	-1.179446	0.962975	-0.268223	-1.160166	0.973914	-0.365167	-1.073917	0.727305	-0.129511	-1.025647	0.753482	-0.123801	-1.045538	0.691554	-0.123683	-0.998745	0.713809	-0.122066	-0.906025	0.505236	-0.144780	-0.890571	0.503544	-0.263076	-1.025863	0.457099	-0.151840	-0.993939	0.418223	-0.159379	-1.056344	0.431132	-0.158938	-1.025173	0.396407	-0.170103	-1.228553	0.294793	-0.228072	-1.199643	0.284941	-0.309554	-1.213920	0.169359	-0.197219	-1.181138	0.157709	-0.301253	-1.135825	0.123624	-0.238562	-1.286966	0.319517	-0.286680	-1.096040	0.726325	-0.493622	-1.055175	0.720554	-0.473972	-1.108870	0.690452	-0.495751	-1.064744	0.682768	-0.484312	-1.140434	0.457146	-0.475111	-1.156775	0.450683	-0.370439	-1.244302	0.370079	-0.507710	-1.209419	0.344347	-0.487654	-1.273094	0.329975	-0.505362	-1.242141	0.307255	-0.489391	-1.400219	0.142523	-0.475894	-1.385901	0.140621	-0.388686	-1.330236	0.037737	-0.492247	-1.320317	0.033321	-0.380206	-1.248957	0.041665	-0.428791	-1.474682	0.129968	-0.437055	-0.907127	1.378183	-0.160594	-0.853398	1.337748	-0.456046	
29	0.1400	-0.996984	0.892843	-0.186569	-0.974015	0.895466	-0.399992	-1.158312	0.965697	-0.266479	-1.138227	0.976486	-0.363205	-1.051165	0.731881	-0.127102	-1.003231	0.759003	-0.121426	-1.022099	0.696632	-0.121312	-0.975612	0.719821	-0.119704	-0.879061	0.512383	-0.142212	-0.863677	0.510604	-0.259953	-0.996631	0.457146	-0.148762	-0.962540	0.420342	-0.156137	-1.025507	0.429454	-0.155561	-0.992374	0.396703	-0.166504	-1.188502	0.282597	-0.223878	-1.159132	0.274152	-0.305239	-1.165954	0.158881	-0.192649	-1.132490	0.149141	-0.296689	-1.085098	0.118396	-0.233818	-1.248180	0.303098	-0.282446	-1.077775	0.728669	-0.491118	-1.037326	0.721618	-0.471213	-1.091759	0.693105	-0.493329	-1.048069	0.684113	-0.481614	-1.131488	0.460840	-0.473605	-1.148834	0.454453	-0.368995	-1.236512	0.375280	-0.507298	-1.201903	0.349134	-0.487199	-1.265535	0.335298	-0.505311	-1.234850	0.312259	-0.489405	-1.393759	0.147977	-0.477697	-1.379779	0.145602	-0.390655	-1.328197	0.039037	-0.492485	-1.319161	0.034866	-0.380651	-1.248146	0.041007	-0.428661	-1.467821	0.138103	-0.439205	-0.888509	1.382198	-0.157437	-0.832016	1.341302	-0.451749	
30	0.1450	-0.976329	0.896082	-0.183720	-0.952309	0.897493	-0.396867	-1.137115	0.968425	-0.264629	-1.116270	0.979068	-0.361134	-1.028612	0.736329	-0.124685	-0.980989	0.764275	-0.119061	-0.998972	0.701525	-0.118972	-0.952768	0.725530	-0.117375	-0.852987	0.519165	-0.139785	-0.837722	0.517249	-0.256895	-0.967950	0.456875	-0.145689	-0.931768	0.422286	-0.152913	-0.995092	0.427510	-0.152156	-0.960076	0.396866	-0.162876	-1.148063	0.270416	-0.219477	-1.118347	0.263445	-0.300727	-1.117568	0.148900	-0.187963	-1.083576	0.141211	-0.292039	-1.034264	0.113971	-0.229040	-1.208787	0.286532	-0.277922	-1.059339	0.731160	-0.488557	-1.019335	0.722877	-0.468406	-1.074430	0.695923	-0.490856	-1.031218	0.685682	-0.478856	-1.122068	0.464863	-0.472066	-1.140485	0.458624	-0.367513	-1.228191	0.380795	-0.506883	-1.193855	0.354263	-0.486736	-1.257432	0.340936	-0.505289	-1.227010	0.317597	-0.489432	-1.386715	0.153783	-0.479592	-1.373172	0.150956	-0.392721	-1.325800	0.040718	-0.492837	-1.317767	0.036818	-0.381205	-1.247128	0.040428	-0.428585	-1.460333	0.146734	-0.441511	-0.869858	1.386186	-0.154248	-0.810699	1.344932	-0.447411	
31	0.1500	-0.955606	0.899290	-0.180858	-0.930613	0.899575	-0.393732	-1.115868	0.971129	-0.262673	-1.094316	0.981634	-0.358956	-1.006267	0.740593	-0.122262	-0.958922	0.769240	-0.116704	-0.976162	0.706173	-0.116657	-0.930213	0.730870	-0.115077	-0.827805	0.525503	-0.137488	-0.812708	0.523395	-0.253899	-0.939827	0.456266	-0.142613	-0.901651	0.424024	-0.149700	-0.965111	0.425294	-0.148717	-0.928308	0.396882	-0.159214	-1.107278	0.258342	-0.214869	-1.077339	0.252900	-0.296016	-1.068858	0.139509	-0.183152	-1.034503	0.133995	-0.287295	-0.983449	0.110410	-0.224219	-1.168817	0.269936	-0.273110	-1.040732	0.733763	-0.485946	-1.001194	0.724304	-0.465561	-1.056877	0.698870	-0.488338	-1.014176	0.687443	-0.476046	-1.112122	0.469150	-0.470491	-1.131672	0.463140	-0.365987	-1.219297	0.386574	-0.506452	-1.185239	0.359679	-0.486255	-1.248753	0.346845	-0.505284	-1.218594	0.323220	-0.489457	-1.379098	0.159940	-0.481557	-1.366090	0.156678	-0.394857	-1.323031	0.042826	-0.493310	-1.316113	0.039214	-0.381877	-1.245885	0.039974	-0.428579	-1.452230	0.155837	-0.443947	-0.851178	1.390108	-0.151029	-0.789465	1.348601	-0.443048	
32	0.1550	-0.934822	0.902431	-0.177996	-0.908944	0.901691	-0.390602	-1.094586	0.973778	-0.260615	-1.072381	0.984159	-0.356674	-0.984132	0.744623	-0.119832	-0.937029	0.773844	-0.114356	-0.953673	0.710523	-0.114363	-0.907945	0.735785	-0.112806	-0.803505	0.531328	-0.135309	-0.788625	0.528970	-0.250958	-0.912261	0.455303	-0.139528	-0.872206	0.425528	-0.146490	-0.935572	0.422808	-0.145239	-0.897093	0.396737	-0.155516	-1.066205	0.246464	-0.210054	-1.036167	0.242591	-0.291108	-1.019932	0.130791	-0.178215	-0.985391	0.127551	-0.282453	-0.932787	0.107755	-0.219345	-1.128316	0.253428	-0.268017	-1.021953	0.736441	-0.483290	-0.982897	0.725867	-0.462687	-1.039093	0.701902	-0.485782	-0.996933	0.689360	-0.473189	-1.101605	0.473630	-0.468873	-1.122342	0.467931	-0.364412	-1.209795	0.392562	-0.505994	-1.176027	0.365318	-0.485744	-1.239471	0.352979	-0.505280	-1.209582	0.329075	-0.489464	-1.370928	0.166444	-0.483566	-1.358548	0.162760	-0.397037	-1.319874	0.045405	-0.493912	-1.314178	0.042086	-0.382674	-1.244399	0.039694	-0.428663	-1.443532	0.165380	-0.446481	-0.832475	1.393927	-0.147784	-0.768331	1.352271	-0.438674	
33	0.1600	-0.913982	0.905474	-0.175146	-0.887315	0.903820	-0.387492	-1.073280	0.976343	-0.258459	-1.050483	0.986620	-0.354295	-0.962211	0.748374	-0.117394	-0.915306	0.778041	-0.112013	-0.931501	0.714524	-0.112084	-0.885958	0.740225	-0.110557	-0.780065	0.536579	-0.133232	-0.765449	0.533911	-0.248066	-0.885248	0.453977	-0.136425	-0.843446	0.426776	-0.143272	-0.906483	0.420055	-0.141718	-0.866452	0.396422	-0.151778	-1.024912	0.234866	-0.205041	-0.994900	0.232586	-0.286011	-0.970910	0.122809	-0.173151	-0.936365	0.121921	-0.277511	-0.882413	0.106024	-0.214409	-1.087347	0.237119	-0.262658	-1.003005	0.739153	-0.480598	-0.964438	0.727534	-0.459793	-1.021075	0.704975	-0.483195	-0.979478	0.691391	-0.470294	-1.090480	0.478227	-0.467209	-1.112448	0.472924	-0.362785	-1.199657	0.398701	-0.505496	-1.166197	0.371117	-0.485192	-1.229567	0.359288	-0.505262	-1.199961	0.335107	-0.489438	-1.362224	0.173290	-0.485592	-1.350561	0.169193	-0.399231	-1.316320	0.048498	-0.494644	-1.311937	0.045463	-0.383600	-1.242653	0.039644	-0.428854	-1.434258	0.175331	-0.449078	-0.813753	1.397606	-0.144513	-0.747313	1.355905	-0.434304	
34	0.1650	-0.893093	0.908388	-0.172317	-0.865739	0.905937	-0.384416	-1.051964	0.978794	-0.256213	-1.028635	0.988991	-0.351828	-0.940501	0.751806	-0.114948	-0.893747	0.781790	-0.109675	-0.909640	0.718135	-0.109813	-0.864241	0.744149	-0.108324	-0.757451	0.541210	-0.131242	-0.743145	0.538173	-0.245215	-0.858780	0.452288	-0.133300	-0.815374	0.427750	-0.140039	-0.877849	0.417044	-0.138152	-0.836398	0.395928	-0.148000	-0.983482	0.223622	-0.199840	-0.953617	0.222944	-0.280736	-0.921926	0.115607	-0.167964	-0.887559	0.117124	-0.272468	-0.832467	0.105215	-0.209407	-1.045993	0.221121	-0.257053	-0.983890	0.741857	-0.477876	-0.945811	0.729267	-0.456889	-1.002822	0.708044	-0.480583	-0.961802	0.693494	-0.467369	-1.078715	0.482861	-0.465496	-1.101944	0.478039	-0.361103	-1.188860	0.404931	-0.504946	-1.155734	0.377008	-0.484592	-1.219028	0.365723	-0.505214	-1.189724	0.341257	-0.489367	-1.353013	0.180470	-0.487606	-1.342145	0.175963	-0.401411	-1.312359	0.052144	-0.495509	-1.309369	0.049367	-0.384659	-1.240629	0.039879	-0.429173	-1.424435	0.185655	-0.451697	-0.795017	1.401110	-0.141216	-0.726424	1.359470	-0.429950	
35	0.1700	-0.872161	0.911143	-0.169520	-0.844224	0.908019	-0.381385	-1.030648	0.981104	-0.253883	-1.006850	0.991247	-0.349281	-0.918998	0.754884	-0.112489	-0.872346	0.785061	-0.107339	-0.888080	0.721323	-0.107540	-0.842784	0.747526	-0.106103	-0.735619	0.545185	-0.129320	-0.721669	0.541719	-0.242399	-0.832845	0.450239	-0.130147	-0.787987	0.428435	-0.136785	-0.849675	0.413789	-0.134539	-0.806943	0.395251	-0.144182	-0.942012	0.212800	-0.194469	-0.912408	0.213718	-0.275299	-0.873123	0.109212	-0.162664	-0.839113	0.113160	-0.267330	-0.783092	0.105298	-0.204336	-1.004355	0.205537	-0.251229	-0.964613	0.744512	-0.475133	-0.927013	0.731029	-0.453983	-0.984333	0.711061	-0.477954	-0.943896	0.695623	-0.464422	-1.066285	0.487450	-0.463732	-1.090794	0.483188	-0.359365	-1.177388	0.411190	-0.504332	-1.144630	0.382922	-0.483933	-1.207846	0.372232	-0.505119	-1.178870	0.347469	-0.489236	-1.343322	0.187979	-0.489579	-1.333316	0.183054	-0.403544	-1.307982	0.056378	-0.496506	-1.306447	0.053815	-0.385849	-1.238308	0.040457	-0.429638	-1.414088	0.196314	-0.454293	-0.776270	1.404404	-0.137892	-0.705674	1.362931	-0.425623	
36	0.1750	-0.851191	0.913713	-0.166763	-0.822778	0.910041	-0.378411	-1.009343	0.983247	-0.251478	-0.985140	0.993365	-0.346664	-0.897696	0.757582	-0.110017	-0.851092	0.787831	-0.105002	-0.866807	0.724060	-0.105258	-0.821570	0.750335	-0.103886	-0.714519	0.548483	-0.127446	-0.700964	0.544530	-0.239608	-0.807429	0.447842	-0.126963	-0.761278	0.428822	-0.133503	-0.821965	0.410307	-0.130879	-0.778095	0.394388	-0.140325	-0.900612	0.202456	-0.188947	-0.871374	0.204949	-0.269721	-0.824659	0.103629	-0.157264	-0.791173	0.110010	-0.262106	-0.734434	0.106222	-0.199200	-0.962552	0.190463	-0.245217	-0.945176	0.747074	-0.472377	-0.908041	0.732779	-0.451084	-0.965610	0.713979	-0.475314	-0.925755	0.697733	-0.461462	-1.053172	0.491914	-0.461917	-1.078961	0.488284	-0.357571	-1.165233	0.417418	-0.503642	-1.132881	0.388791	-0.483210	-1.196017	0.378763	-0.504962	-1.167403	0.353684	-0.489034	-1.333175	0.195807	-0.491480	-1.324088	0.190447	-0.405601	-1.303181	0.061227	-0.497628	-1.303147	0.058816	-0.387170	-1.235670	0.041437	-0.430267	-1.403241	0.207269	-0.456817	-0.757519	1.407459	-0.134539	-0.685075	1.366257	-0.421333	
37	0.1800	-0.830190	0.916073	-0.164053	-0.801408	0.911979	-0.375500	-0.988059	0.985200	-0.249008	-0.963514	0.995321	-0.343991	-0.876584	0.759880	-0.107528	-0.829977	0.790085	-0.102662	-0.845804	0.726329	-0.102959	-0.800583	0.752564	-0.101667	-0.694088	0.551092	-0.125602	-0.680967	0.546601	-0.236835	-0.782518	0.445117	-0.123745	-0.735235	0.428909	-0.130190	-0.794724	0.406620	-0.127176	-0.749860	0.393340	-0.136435	-0.859404	0.192636	-0.183301	-0.830626	0.196669	-0.264028	-0.776697	0.098845	-0.151782	-0.743892	0.107635	-0.256809	-0.686638	0.107913	-0.194005	-0.920723	0.175988	-0.239057	-0.925585	0.749503	-0.469615	-0.888893	0.734479	-0.448201	-0.946655	0.716752	-0.472672	-0.907373	0.699778	-0.458500	-1.039361	0.496170	-0.460053	-1.066416	0.493236	-0.355723	-1.152387	0.423555	-0.502867	-1.120488	0.394549	-0.482418	-1.183541	0.385266	-0.504726	-1.155329	0.359847	-0.488749	-1.322598	0.203944	-0.493277	-1.314469	0.198121	-0.407549	-1.297947	0.066715	-0.498868	-1.299438	0.064374	-0.388614	-1.232693	0.042874	-0.431076	-1.391917	0.218479	-0.459218	-0.738768	1.410243	-0.131155	-0.664633	1.369420	-0.417087	
38	0.1850	-0.809164	0.918204	-0.161395	-0.780115	0.913808	-0.372661	-0.966806	0.986942	-0.246484	-0.941979	0.997094	-0.341271	-0.855654	0.761764	-0.105017	-0.808991	0.791819	-0.100315	-0.825052	0.728120	-0.100632	-0.779804	0.754211	-0.099439	-0.674263	0.553015	-0.123768	-0.661607	0.547938	-0.234071	-0.758095	0.442086	-0.120493	-0.709841	0.428693	-0.126843	-0.767958	0.402752	-0.123434	-0.722240	0.392108	-0.132515	-0.818524	0.183378	-0.177562	-0.790284	0.188900	-0.258249	-0.729413	0.094829	-0.146241	-0.697427	0.105977	-0.251458	-0.639850	0.110277	-0.188762	-0.879022	0.162189	-0.232791	-0.905844	0.751760	-0.466855	-0.869568	0.736091	-0.445342	-0.927473	0.719334	-0.470032	-0.888746	0.701712	-0.455543	-1.024843	0.500144	-0.458143	-1.053130	0.497953	-0.353822	-1.138849	0.429543	-0.501998	-1.107454	0.400131	-0.481552	-1.170419	0.391691	-0.504397	-1.142656	0.365903	-0.488373	-1.311611	0.212375	-0.494938	-1.304464	0.206050	-0.409359	-1.292269	0.072854	-0.500215	-1.295291	0.070482	-0.390174	-1.229350	0.044819	-0.432079	-1.380133	0.229904	-0.461444	-0.720019	1.412732	-0.127737	-0.644356	1.372392	-0.412892	
39	0.1900	-0.788119	0.920087	-0.158793	-0.758903	0.915504	-0.369896	-0.945590	0.988454	-0.243916	-0.920541	0.998663	-0.338520	-0.834893	0.763228	-0.102483	-0.788124	0.793035	-0.097959	-0.804531	0.729432	-0.098272	-0.759214	0.755284	-0.097196	-0.654972	0.554266	-0.121926	-0.642809	0.548563	-0.231309	-0.734143	0.438778	-0.117210	-0.685074	0.428180	-0.123463	-0.741673	0.398731	-0.119660	-0.695237	0.390698	-0.128574	-0.778113	0.174704	-0.171764	-0.750476	0.181653	-0.252418	-0.682984	0.091531	-0.140668	-0.651935	0.104962	-0.246075	-0.594215	0.113199	-0.183488	-0.837615	0.149134	-0.226468	-0.885957	0.753806	-0.464106	-0.850063	0.737576	-0.442513	-0.908068	0.721683	-0.467403	-0.869870	0.703492	-0.452603	-1.009614	0.503763	-0.456191	-1.039080	0.502348	-0.351875	-1.124619	0.435329	-0.501026	-1.093785	0.405476	-0.480610	-1.156656	0.397993	-0.503960	-1.129392	0.371803	-0.487897	-1.300226	0.221087	-0.496432	-1.294070	0.214208	-0.410999	-1.286132	0.079652	-0.501654	-1.290670	0.077128	-0.391837	-1.225612	0.047317	-0.433286	-1.367902	0.241500	-0.463442	-0.701278	1.414901	-0.124280	-0.624246	1.375150	-0.408754	
40	0.1950	-0.767062	0.921708	-0.156247	-0.737769	0.917046	-0.367207	-0.924419	0.989722	-0.241316	-0.899203	1.000008	-0.335749	-0.814287	0.764273	-0.099922	-0.767363	0.793745	-0.095590	-0.784217	0.730270	-0.095869	-0.738793	0.755801	-0.094932	-0.636142	0.554868	-0.120059	-0.624492	0.548508	-0.228542	-0.710647	0.435228	-0.113897	-0.660912	0.427376	-0.120051	-0.715875	0.394586	-0.115863	-0.668851	0.389114	-0.124621	-0.738324	0.166627	-0.165945	-0.711335	0.174929	-0.246572	-0.637593	0.088886	-0.135094	-0.607576	0.104501	-0.240686	-0.549873	0.116551	-0.178205	-0.796683	0.136880	-0.220137	-0.865928	0.755608	-0.461375	-0.830379	0.738901	-0.439724	-0.888443	0.723760	-0.464790	-0.850743	0.705079	-0.449688	-0.993670	0.506961	-0.454203	-1.024243	0.506337	-0.349885	-1.109699	0.440861	-0.499946	-1.079485	0.410531	-0.479590	-1.142254	0.404126	-0.503401	-1.115544	0.377498	-0.487315	-1.288450	0.230060	-0.497728	-1.283278	0.222563	-0.412442	-1.279517	0.087104	-0.503166	-1.285535	0.084291	-0.393589	-1.221445	0.050407	-0.434703	-1.355227	0.253227	-0.465159	-0.682546	1.416732	-0.120782	-0.604306	1.377675	-0.404676	
41	0.2000	-0.745998	0.923058	-0.153757	-0.716711	0.918411	-0.364595	-0.903298	0.990734	-0.238696	-0.877966	1.001113	-0.332972	-0.793823	0.764907	-0.097330	-0.746700	0.793968	-0.093204	-0.764086	0.730648	-0.093419	-0.718520	0.755785	-0.092639	-0.617698	0.554856	-0.118150	-0.606573	0.547816	-0.225762	-0.687588	0.431470	-0.110561	-0.637329	0.426292	-0.116613	-0.690572	0.390348	-0.112055	-0.643078	0.387364	-0.120667	-0.699312	0.159151	-0.160145	-0.673000	0.168722	-0.240753	-0.593422	0.086817	-0.129553	-0.564506	0.104492	-0.235323	-0.506961	0.120192	-0.172939	-0.756413	0.125472	-0.213852	-0.845758	0.757135	-0.458668	-0.810514	0.740033	-0.436978	-0.868602	0.725529	-0.462197	-0.831360	0.706437	-0.446808	-0.977010	0.509680	-0.452187	-1.008599	0.509843	-0.347859	-1.094089	0.446094	-0.498751	-1.064557	0.415246	-0.478492	-1.127213	0.410051	-0.502708	-1.101115	0.382945	-0.486620	-1.276281	0.239273	-0.498796	-1.272068	0.231083	-0.413660	-1.272399	0.095198	-0.504730	-1.279842	0.091941	-0.395410	-1.216806	0.054116	-0.436331	-1.342105	0.265041	-0.466546	-0.663825	1.418208	-0.117238	-0.584534	1.379948	-0.400660	
42	0.2050	-0.724932	0.924129	-0.151320	-0.695723	0.919581	-0.362055	-0.882230	0.991482	-0.236065	-0.856830	1.001963	-0.330201	-0.773485	0.765142	-0.094706	-0.726122	0.793728	-0.090799	-0.744115	0.730586	-0.090916	-0.698375	0.755269	-0.090313	-0.599564	0.554270	-0.116186	-0.588970	0.546540	-0.222966	-0.664949	0.427545	-0.107210	-0.614296	0.424940	-0.113156	-0.665769	0.386050	-0.108247	-0.617916	0.385456	-0.116725	-0.661234	0.152269	-0.154409	-0.635611	0.163014	-0.235003	-0.550650	0.085236	-0.124082	-0.522877	0.104827	-0.230018	-0.465606	0.123973	-0.167720	-0.716995	0.114941	-0.207667	-0.825447	0.758362	-0.455991	-0.790465	0.740946	-0.434282	-0.848547	0.726960	-0.459629	-0.811717	0.707533	-0.443972	-0.959633	0.511872	-0.450148	-0.992128	0.512795	-0.345801	-1.077789	0.450986	-0.497437	-1.049002	0.419577	-0.477317	-1.111531	0.415730	-0.501870	-1.086105	0.388108	-0.485809	-1.263705	0.248701	-0.499609	-1.260412	0.239729	-0.414628	-1.264746	0.103910	-0.506322	-1.273543	0.100041	-0.397280	-1.211649	0.058461	-0.438167	-1.328521	0.276898	-0.467554	-0.645113	1.419316	-0.113644	-0.564928	1.381955	-0.396708	
43	0.2100	-0.703868	0.924917	-0.148933	-0.674797	0.920539	-0.359583	-0.861218	0.991960	-0.233434	-0.835791	1.002547	-0.327448	-0.753257	0.764996	-0.092048	-0.705620	0.793058	-0.088370	-0.724277	0.730110	-0.088358	-0.678335	0.754292	-0.087948	-0.581665	0.553160	-0.114157	-0.571599	0.544739	-0.220147	-0.642716	0.423494	-0.103852	-0.591785	0.423338	-0.109689	-0.641475	0.381722	-0.104456	-0.593361	0.383397	-0.112810	-0.624246	0.145963	-0.148779	-0.599306	0.157781	-0.229366	-0.509450	0.084046	-0.118719	-0.482835	0.105390	-0.224807	-0.425928	0.127739	-0.162581	-0.678622	0.105309	-0.201637	-0.804993	0.759266	-0.453349	-0.770228	0.741615	-0.431639	-0.828277	0.728028	-0.457090	-0.791808	0.708342	-0.441188	-0.941538	0.513497	-0.448094	-0.974812	0.515134	-0.343719	-1.060795	0.455504	-0.496001	-1.032815	0.423489	-0.476063	-1.095202	0.421130	-0.500876	-1.070508	0.392952	-0.484876	-1.250699	0.258312	-0.500139	-1.248273	0.248464	-0.415321	-1.256519	0.113206	-0.507912	-1.266583	0.108546	-0.399174	-1.205920	0.063447	-0.440199	-1.314449	0.288754	-0.468141	-0.626407	1.420050	-0.109997	-0.545480	1.383688	-0.392819	
44	0.2150	-0.682809	0.925423	-0.146587	-0.653926	0.921271	-0.357172	-0.840259	0.992168	-0.230813	-0.814843	1.002856	-0.324725	-0.733121	0.764494	-0.089356	-0.685182	0.791992	-0.085915	-0.704547	0.729250	-0.085743	-0.658381	0.752897	-0.085540	-0.563931	0.551578	-0.112052	-0.554380	0.542477	-0.217305	-0.620872	0.419358	-0.100499	-0.569767	0.421500	-0.106223	-0.617695	0.377397	-0.100696	-0.569405	0.381199	-0.108938	-0.588501	0.140211	-0.143300	-0.564220	0.152994	-0.223886	-0.469985	0.083149	-0.113503	-0.444516	0.106063	-0.219728	-0.388036	0.131340	-0.157561	-0.641481	0.096584	-0.195815	-0.784390	0.759832	-0.450745	-0.749797	0.742023	-0.429052	-0.807790	0.728714	-0.454581	-0.771626	0.708843	-0.438462	-0.922719	0.514527	-0.446031	-0.956633	0.516812	-0.341617	-1.043101	0.459617	-0.494439	-1.015989	0.426952	-0.474732	-1.078214	0.426221	-0.499718	-1.054311	0.397450	-0.483818	-1.237226	0.268073	-0.500362	-1.235602	0.257246	-0.415720	-1.247671	0.123042	-0.509472	-1.258900	0.117404	-0.401063	-1.199555	0.069066	-0.442413	-1.299857	0.300565	-0.468267	-0.607701	1.420405	-0.106295	-0.526182	1.385138	-0.388992	
45	0.2200	-0.661757	0.925652	-0.144277	-0.633095	0.921765	-0.354814	-0.819352	0.992108	-0.228210	-0.793978	1.002883	-0.322040	-0.713061	0.763662	-0.086630	-0.664796	0.790571	-0.083431	-0.684900	0.728040	-0.083071	-0.638491	0.751130	-0.083085	-0.546292	0.549580	-0.109867	-0.537235	0.539823	-0.214436	-0.599401	0.415178	-0.097161	-0.548210	0.419447	-0.102771	-0.594436	0.373104	-0.096984	-0.546042	0.378869	-0.105126	-0.554140	0.134981	-0.138015	-0.530482	0.148615	-0.218610	-0.432405	0.082446	-0.108471	-0.408044	0.106731	-0.214819	-0.352027	0.134626	-0.152696	-0.605755	0.088763	-0.190250	-0.763630	0.760050	-0.448182	-0.729165	0.742157	-0.426521	-0.787079	0.729003	-0.452103	-0.751162	0.709024	-0.435798	-0.903173	0.514944	-0.443964	-0.937574	0.517791	-0.339497	-1.024695	0.463303	-0.492750	-0.998508	0.429946	-0.473321	-1.060550	0.430979	-0.498388	-1.037494	0.401579	-0.482631	-1.223242	0.277946	-0.500258	-1.222343	0.266030	-0.415805	-1.238144	0.133362	-0.510968	-1.250429	0.126556	-0.402919	-1.192484	0.075294	-0.444783	-1.284698	0.312284	-0.467902	-0.588988	1.420382	-0.102534	-0.507021	1.386304	-0.385225	
46	0.2250	-0.640711	0.925610	-0.141993	-0.612293	0.922015	-0.352498	-0.798492	0.991787	-0.225632	-0.773186	1.002627	-0.319403	-0.693059	0.762530	-0.083872	-0.644452	0.788838	-0.080915	-0.665311	0.726519	-0.080347	-0.618647	0.749042	-0.080583	-0.528684	0.547226	-0.107600	-0.520092	0.536846	-0.211543	-0.578289	0.410995	-0.093852	-0.527086	0.417196	-0.099349	-0.571700	0.368873	-0.093339	-0.523263	0.376419	-0.101393	-0.521298	0.130240	-0.132967	-0.498212	0.144608	-0.213578	-0.396843	0.081838	-0.103660	-0.373529	0.107280	-0.210117	-0.317982	0.137461	-0.148027	-0.571612	0.081834	-0.184991	-0.742702	0.759914	-0.445660	-0.708321	0.742012	-0.424046	-0.766135	0.728891	-0.449656	-0.730403	0.708876	-0.433201	-0.882888	0.514744	-0.441898	-0.917616	0.518049	-0.337363	-1.005561	0.466544	-0.490931	-0.980351	0.432457	-0.471831	-1.042187	0.435381	-0.496880	-1.020031	0.405323	-0.481311	-1.208688	0.287887	-0.499807	-1.208432	0.274771	-0.415561	-1.227875	0.144102	-0.512367	-1.241098	0.135937	-0.404709	-1.184629	0.082096	-0.447282	-1.268918	0.323865	-0.467019	-0.570254	1.419987	-0.098713	-0.487982	1.387187	-0.381514	
47	0.2300	-0.619670	0.925307	-0.139724	-0.591502	0.922018	-0.350215	-0.777670	0.991213	-0.223087	-0.752453	1.002090	-0.316821	-0.673098	0.761130	-0.081085	-0.624138	0.786834	-0.078366	-0.645755	0.724724	-0.077573	-0.598828	0.746681	-0.078031	-0.511052	0.544571	-0.105251	-0.502886	0.533617	-0.208627	-0.557523	0.406848	-0.090586	-0.506366	0.414769	-0.095972	-0.549491	0.364730	-0.089777	-0.501058	0.373857	-0.097756	-0.490093	0.125948	-0.128196	-0.467519	0.140930	-0.208833	-0.363416	0.081236	-0.099104	-0.341064	0.107609	-0.205658	-0.285969	0.139721	-0.143590	-0.539206	0.075774	-0.180079	-0.721590	0.759427	-0.443177	-0.687251	0.741587	-0.421624	-0.744946	0.728378	-0.447237	-0.709336	0.708402	-0.430670	-0.861854	0.513931	-0.439832	-0.896742	0.517578	-0.335213	-0.985679	0.469330	-0.488982	-0.961492	0.434479	-0.470256	-1.023098	0.439412	-0.495187	-1.001887	0.408669	-0.479853	-1.193499	0.297846	-0.498995	-1.193796	0.283421	-0.414974	-1.216791	0.155186	-0.513634	-1.230830	0.145478	-0.406398	-1.175904	0.089421	-0.449873	-1.252457	0.335259	-0.465601	-0.551486	1.419230	-0.094831	-0.469048	1.387792	-0.377856	
48	0.2350	-0.598631	0.924757	-0.137459	-0.570708	0.921774	-0.347951	-0.756877	0.990401	-0.220577	-0.731766	1.001277	-0.314297	-0.653158	0.759496	-0.078274	-0.603843	0.784605	-0.075783	-0.626210	0.722696	-0.074758	-0.579017	0.744097	-0.075430	-0.493345	0.541675	-0.102825	-0.485560	0.530201	-0.205693	-0.537089	0.402772	-0.087376	-0.486023	0.412184	-0.092658	-0.527811	0.360700	-0.086316	-0.479419	0.371194	-0.094235	-0.460629	0.122066	-0.123736	-0.438497	0.137542	-0.204411	-0.332217	0.080555	-0.094835	-0.310725	0.107626	-0.201475	-0.256037	0.141297	-0.139423	-0.508671	0.070552	-0.175551	-0.700278	0.758597	-0.440730	-0.665942	0.740889	-0.419249	-0.723495	0.727472	-0.444842	-0.687945	0.707609	-0.428204	-0.840055	0.512523	-0.437766	-0.874937	0.516384	-0.333045	-0.965022	0.471656	-0.486899	-0.941898	0.436014	-0.468593	-1.003248	0.443058	-0.493305	-0.983023	0.411610	-0.478253	-1.177600	0.307773	-0.497810	-1.178359	0.291932	-0.414035	-1.204813	0.166532	-0.514732	-1.219546	0.155103	-0.407951	-1.166217	0.097205	-0.452514	-1.235244	0.346418	-0.463640	-0.532665	1.418126	-0.090887	-0.450198	1.388127	-0.374247	
49	0.2400	-0.577587	0.923976	-0.135189	-0.549892	0.921289	-0.345696	-0.736101	0.989366	-0.218106	-0.711107	1.000197	-0.311837	-0.633225	0.757661	-0.075443	-0.583557	0.782192	-0.073164	-0.606655	0.720476	-0.071909	-0.559198	0.741340	-0.072782	-0.475519	0.538590	-0.100327	-0.468067	0.526664	-0.202746	-0.516976	0.398800	-0.084237	-0.466033	0.409461	-0.089425	-0.506659	0.356804	-0.082974	-0.458334	0.368441	-0.090848	-0.432989	0.118555	-0.119618	-0.411224	0.134402	-0.200346	-0.303316	0.079726	-0.090878	-0.282565	0.107251	-0.197599	-0.228220	0.142105	-0.135559	-0.480119	0.066128	-0.171438	-0.678744	0.757436	-0.438314	-0.644375	0.739930	-0.416914	-0.701764	0.726187	-0.442467	-0.666210	0.706511	-0.425798	-0.817473	0.510549	-0.435696	-0.852184	0.514487	-0.330853	-0.943561	0.473523	-0.484681	-0.921532	0.437070	-0.466835	-0.982599	0.446311	-0.491231	-0.963394	0.414145	-0.476504	-1.160911	0.317610	-0.496244	-1.162040	0.300255	-0.412736	-1.191855	0.178047	-0.515625	-1.207163	0.164736	-0.409332	-1.155472	0.105371	-0.455157	-1.217210	0.357292	-0.461134	-0.513770	1.416693	-0.086884	-0.431410	1.388206	-0.370682	
50	0.2450	-0.556532	0.922983	-0.132899	-0.529037	0.920571	-0.343436	-0.715329	0.988129	-0.215674	-0.690459	0.998866	-0.309440	-0.613281	0.755660	-0.072600	-0.563267	0.779638	-0.070511	-0.587071	0.718101	-0.069036	-0.539355	0.738454	-0.070091	-0.457544	0.535366	-0.097770	-0.450367	0.523064	-0.199796	-0.497175	0.394961	-0.081182	-0.446374	0.406621	-0.086288	-0.486033	0.353062	-0.079766	-0.437791	0.365608	-0.087612	-0.407237	0.115377	-0.115870	-0.385761	0.131475	-0.196665	-0.276759	0.078691	-0.087256	-0.256620	0.106425	-0.194053	-0.202531	0.142081	-0.132028	-0.453641	0.062457	-0.167762	-0.656967	0.755966	-0.435922	-0.622532	0.738730	-0.414612	-0.679732	0.724545	-0.440104	-0.644114	0.705131	-0.423446	-0.794088	0.508047	-0.433614	-0.828471	0.511924	-0.328629	-0.921266	0.474939	-0.482326	-0.900353	0.437663	-0.464974	-0.961111	0.449167	-0.488961	-0.942949	0.416275	-0.474601	-1.143349	0.327298	-0.494294	-1.144757	0.308340	-0.411073	-1.177830	0.189635	-0.516279	-1.193599	0.174295	-0.410504	-1.143569	0.113834	-0.457749	-1.198280	0.367829	-0.458091	-0.494780	1.414957	-0.082822	-0.412660	1.388046	-0.367157	
51	0.2500	-0.535459	0.921798	-0.130580	-0.508123	0.919634	-0.341161	-0.694547	0.986710	-0.213283	-0.669806	0.997299	-0.307106	-0.593312	0.753527	-0.069751	-0.542966	0.776982	-0.067824	-0.567441	0.715609	-0.066151	-0.519475	0.735482	-0.067360	-0.439394	0.532050	-0.095164	-0.432435	0.519452	-0.196852	-0.477677	0.391280	-0.078225	-0.427028	0.403683	-0.083267	-0.465931	0.349489	-0.076707	-0.417781	0.362706	-0.084544	-0.383415	0.112494	-0.112512	-0.362151	0.128726	-0.193391	-0.252568	0.077405	-0.083983	-0.232901	0.105103	-0.190859	-0.178969	0.141188	-0.128854	-0.429297	0.059490	-0.164539	-0.634924	0.754210	-0.433546	-0.600393	0.737314	-0.412330	-0.657377	0.722574	-0.437744	-0.621635	0.703497	-0.421138	-0.769880	0.505065	-0.431509	-0.803788	0.508741	-0.326362	-0.898103	0.475916	-0.479832	-0.878318	0.437813	-0.462999	-0.938743	0.451624	-0.486494	-0.921639	0.418009	-0.472535	-1.124831	0.336772	-0.491959	-1.126432	0.316139	-0.409046	-1.162649	0.201192	-0.516660	-1.178772	0.183700	-0.411430	-1.130409	0.122495	-0.460234	-1.178383	0.377979	-0.454528	-0.475670	1.412944	-0.078705	-0.393925	1.387665	-0.363667	
52	0.2550	-0.514359	0.920445	-0.128221	-0.487136	0.918498	-0.338859	-0.673740	0.985135	-0.210928	-0.649128	0.995519	-0.304832	-0.573307	0.751292	-0.066905	-0.522645	0.774257	-0.065106	-0.547754	0.713036	-0.063266	-0.499551	0.732462	-0.064595	-0.421057	0.528682	-0.092525	-0.414257	0.515875	-0.193925	-0.458478	0.387779	-0.075378	-0.407981	0.400664	-0.080378	-0.446349	0.346099	-0.073810	-0.398294	0.359747	-0.081660	-0.361544	0.109875	-0.109557	-0.340416	0.126126	-0.190540	-0.230735	0.075841	-0.081071	-0.211399	0.103260	-0.188030	-0.157512	0.139412	-0.126057	-0.407122	0.057173	-0.161778	-0.612593	0.752200	-0.431175	-0.577940	0.735712	-0.410056	-0.634674	0.720308	-0.435379	-0.598757	0.701643	-0.418861	-0.744829	0.501660	-0.429369	-0.778129	0.505001	-0.324038	-0.874040	0.476472	-0.477196	-0.855387	0.437547	-0.460900	-0.915455	0.453686	-0.483830	-0.899412	0.419357	-0.470299	-1.105276	0.345970	-0.489245	-1.106989	0.323605	-0.406657	-1.146225	0.212610	-0.516737	-1.162605	0.192869	-0.412077	-1.115894	0.131253	-0.462553	-1.157451	0.387691	-0.450470	-0.456415	1.410687	-0.074537	-0.375181	1.387089	-0.360207	
53	0.2600	-0.493225	0.918947	-0.125810	-0.466060	0.917182	-0.336519	-0.652893	0.983430	-0.208607	-0.628411	0.993551	-0.302613	-0.553254	0.748988	-0.064069	-0.502296	0.771497	-0.062361	-0.528001	0.710414	-0.060392	-0.479574	0.729427	-0.061805	-0.402531	0.525297	-0.089870	-0.395830	0.512369	-0.191028	-0.439574	0.384474	-0.072651	-0.389223	0.397584	-0.077635	-0.427283	0.342900	-0.071086	-0.379320	0.356741	-0.078972	-0.341623	0.107492	-0.107014	-0.320558	0.123653	-0.188120	-0.211232	0.073988	-0.078525	-0.192082	0.100891	-0.185576	-0.138121	0.136767	-0.123649	-0.387124	0.055450	-0.159477	-0.589951	0.749971	-0.428799	-0.555155	0.733960	-0.407778	-0.611604	0.717787	-0.432999	-0.575460	0.699610	-0.416603	-0.718919	0.497895	-0.427179	-0.751495	0.500777	-0.321642	-0.849050	0.476629	-0.474414	-0.831520	0.436898	-0.458664	-0.891210	0.455360	-0.480967	-0.876223	0.420334	-0.467885	-1.084611	0.354826	-0.486160	-1.086363	0.330692	-0.403913	-1.128476	0.223783	-0.516481	-1.145030	0.201721	-0.412410	-1.099932	0.139999	-0.464646	-1.135426	0.396913	-0.445948	-0.436992	1.408220	-0.070325	-0.356404	1.386344	-0.356774	
54	0.2650	-0.472048	0.917331	-0.123341	-0.444884	0.915715	-0.334134	-0.631995	0.981624	-0.206314	-0.607639	0.991423	-0.300444	-0.533149	0.746643	-0.061253	-0.481917	0.768730	-0.059592	-0.508178	0.707773	-0.057544	-0.459543	0.726407	-0.058996	-0.383823	0.521922	-0.087218	-0.377167	0.508966	-0.188176	-0.420968	0.381377	-0.070056	-0.370750	0.394459	-0.075053	-0.408730	0.339901	-0.068544	-0.360853	0.353701	-0.076492	-0.323626	0.105322	-0.104883	-0.302561	0.121288	-0.186135	-0.194002	0.071847	-0.076342	-0.174899	0.098007	-0.183498	-0.120742	0.133292	-0.121635	-0.369283	0.054264	-0.157629	-0.566982	0.747562	-0.426405	-0.532025	0.732098	-0.405479	-0.588148	0.715055	-0.430591	-0.551733	0.697442	-0.414348	-0.692137	0.493841	-0.424919	-0.723893	0.496149	-0.319158	-0.823109	0.476414	-0.471485	-0.806685	0.435899	-0.456277	-0.865979	0.456657	-0.477908	-0.852030	0.420957	-0.465286	-1.062771	0.363274	-0.482718	-1.064498	0.337357	-0.400823	-1.109330	0.234601	-0.515869	-1.125985	0.210179	-0.412399	-1.082441	0.148622	-0.466451	-1.112259	0.405597	-0.441002	-0.417377	1.405582	-0.066075	-0.337575	1.385457	-0.353365	
55	0.2700	-0.450824	0.915623	-0.120804	-0.423600	0.914123	-0.331695	-0.611035	0.979745	-0.204042	-0.586803	0.989166	-0.298316	-0.512990	0.744281	-0.058465	-0.461507	0.765979	-0.056806	-0.488287	0.705139	-0.054732	-0.439460	0.723424	-0.056178	-0.364955	0.518581	-0.084587	-0.358290	0.505687	-0.185383	-0.402663	0.378496	-0.067600	-0.352564	0.391307	-0.072643	-0.390686	0.337105	-0.066191	-0.342888	0.350639	-0.074227	-0.307510	0.103345	-0.103158	-0.286387	0.119019	-0.184580	-0.178966	0.069436	-0.074516	-0.159778	0.094640	-0.181792	-0.105304	0.129047	-0.120014	-0.353553	0.053557	-0.156219	-0.543671	0.745016	-0.423981	-0.508540	0.730168	-0.403147	-0.564291	0.712161	-0.428146	-0.527568	0.695187	-0.412079	-0.664480	0.489572	-0.422572	-0.695341	0.491208	-0.316566	-0.796203	0.475857	-0.468405	-0.780856	0.434591	-0.453727	-0.839741	0.457591	-0.474654	-0.826803	0.421248	-0.462494	-1.039707	0.371253	-0.478937	-1.041353	0.343562	-0.397400	-1.088727	0.244958	-0.514879	-1.105424	0.218169	-0.412017	-1.063350	0.157011	-0.467912	-1.087916	0.413697	-0.435678	-0.397552	1.402812	-0.061795	-0.318678	1.384462	-0.349978	
56	0.2750	-0.429551	0.913850	-0.118196	-0.402206	0.912439	-0.329198	-0.590007	0.977822	-0.201786	-0.565895	0.986815	-0.296221	-0.492779	0.741928	-0.055715	-0.441070	0.763263	-0.054008	-0.468334	0.702535	-0.051971	-0.419333	0.720498	-0.053362	-0.345957	0.515290	-0.081998	-0.339236	0.502547	-0.182664	-0.384668	0.375835	-0.065289	-0.334672	0.388142	-0.070415	-0.373151	0.334514	-0.064031	-0.325423	0.347569	-0.072185	-0.293210	0.101549	-0.101827	-0.271982	0.116841	-0.183441	-0.166025	0.066784	-0.073033	-0.146630	0.090837	-0.180448	-0.091723	0.124116	-0.118778	-0.339862	0.053274	-0.155223	-0.520014	0.742378	-0.421515	-0.484697	0.728216	-0.400765	-0.540028	0.709155	-0.425651	-0.502963	0.692894	-0.409778	-0.635953	0.485164	-0.420118	-0.665867	0.486048	-0.313849	-0.768331	0.474991	-0.465173	-0.754021	0.433014	-0.451001	-0.812488	0.458179	-0.471210	-0.800523	0.421231	-0.459503	-1.015385	0.378702	-0.474839	-1.016906	0.349272	-0.393658	-1.066622	0.254753	-0.513497	-1.083317	0.225623	-0.411240	-1.042608	0.165060	-0.468972	-1.062382	0.421168	-0.430027	-0.377504	1.399953	-0.057495	-0.299702	1.383391	-0.346611	
57	0.2800	-0.408230	0.912039	-0.115512	-0.380704	0.910696	-0.326638	-0.568909	0.975888	-0.199536	-0.544915	0.984403	-0.294148	-0.472526	0.739604	-0.053009	-0.420614	0.760599	-0.051206	-0.448334	0.699981	-0.049269	-0.399175	0.717642	-0.050558	-0.326870	0.512063	-0.079471	-0.320055	0.499554	-0.180035	-0.366999	0.373395	-0.063130	-0.317088	0.384979	-0.068377	-0.356123	0.332127	-0.062067	-0.308458	0.344503	-0.070367	-0.280646	0.099925	-0.100872	-0.259275	0.114753	-0.182702	-0.155061	0.063933	-0.071877	-0.135347	0.086658	-0.179449	-0.079903	0.118596	-0.117912	-0.328117	0.053359	-0.154615	-0.496010	0.739696	-0.418995	-0.460501	0.726288	-0.398320	-0.515358	0.706090	-0.423096	-0.477928	0.690616	-0.407429	-0.606573	0.480696	-0.417538	-0.635514	0.480767	-0.310991	-0.739503	0.473853	-0.461788	-0.726181	0.431213	-0.448088	-0.784227	0.458441	-0.467580	-0.773187	0.420930	-0.456310	-0.989792	0.385566	-0.470449	-0.991152	0.354456	-0.389619	-1.042993	0.263890	-0.511712	-1.059654	0.232478	-0.410052	-1.020181	0.172664	-0.469581	-1.035661	0.427972	-0.424105	-0.357224	1.397047	-0.053187	-0.280641	1.382277	-0.343264	
58	0.2850	-0.386869	0.910217	-0.112751	-0.359107	0.908928	-0.324016	-0.547747	0.973969	-0.197285	-0.523868	0.981967	-0.292087	-0.452246	0.737328	-0.050356	-0.400153	0.757998	-0.048409	-0.428308	0.697493	-0.046639	-0.379008	0.714865	-0.047778	-0.307747	0.508906	-0.077023	-0.300806	0.496709	-0.177509	-0.349673	0.371172	-0.061124	-0.299831	0.381834	-0.066531	-0.339607	0.329939	-0.060298	-0.291999	0.341455	-0.068774	-0.269722	0.098466	-0.100269	-0.248180	0.112760	-0.182337	-0.145940	0.060929	-0.071026	-0.125812	0.082174	-0.178773	-0.069737	0.112602	-0.117393	-0.318205	0.053760	-0.154360	-0.471674	0.737016	-0.416411	-0.435969	0.724429	-0.395799	-0.490295	0.703021	-0.420474	-0.452480	0.688402	-0.405016	-0.576375	0.476244	-0.414813	-0.604336	0.475463	-0.307974	-0.709747	0.472480	-0.458249	-0.697357	0.429231	-0.444979	-0.754983	0.458402	-0.463774	-0.744811	0.420373	-0.452913	-0.962939	0.391795	-0.465796	-0.964113	0.359091	-0.385305	-1.017838	0.272283	-0.509522	-1.034445	0.238679	-0.408438	-0.996062	0.179731	-0.469695	-1.007778	0.434075	-0.417968	-0.336714	1.394137	-0.048883	-0.261498	1.381154	-0.339940	
59	0.2900	-0.365480	0.908408	-0.109915	-0.337433	0.907171	-0.321332	-0.526533	0.972095	-0.195024	-0.502769	0.979543	-0.290029	-0.431963	0.735116	-0.047762	-0.379708	0.755468	-0.045626	-0.408284	0.695085	-0.044088	-0.358856	0.712174	-0.045033	-0.288649	0.505823	-0.074675	-0.281559	0.494008	-0.175102	-0.332713	0.369160	-0.059274	-0.282927	0.378720	-0.064881	-0.323607	0.327947	-0.058720	-0.276053	0.338438	-0.067403	-0.260328	0.097171	-0.099990	-0.238600	0.110869	-0.182317	-0.138515	0.057828	-0.070454	-0.117894	0.077467	-0.178395	-0.061109	0.106256	-0.117196	-0.309996	0.054428	-0.154419	-0.447028	0.734386	-0.413755	-0.411127	0.722685	-0.393193	-0.464864	0.699999	-0.417775	-0.426652	0.686304	-0.402526	-0.545407	0.471884	-0.411928	-0.572405	0.470231	-0.304788	-0.679112	0.470913	-0.454560	-0.667588	0.427112	-0.441668	-0.724801	0.458086	-0.459799	-0.715433	0.419590	-0.449312	-0.934862	0.397349	-0.460914	-0.935833	0.363158	-0.380740	-0.991184	0.279856	-0.506929	-1.007729	0.244182	-0.406394	-0.970270	0.186176	-0.469279	-0.978786	0.439451	-0.411678	-0.315985	1.391265	-0.044596	-0.242284	1.380056	-0.336639	
60	0.2950	-0.344085	0.906637	-0.107008	-0.315711	0.905459	-0.318591	-0.505287	0.970293	-0.192747	-0.481641	0.977167	-0.287963	-0.411706	0.732981	-0.045234	-0.359308	0.753016	-0.042867	-0.388299	0.692768	-0.041625	-0.338757	0.709571	-0.042336	-0.269646	0.502814	-0.072442	-0.262394	0.491443	-0.172825	-0.316147	0.367349	-0.057578	-0.266406	0.375649	-0.063426	-0.308133	0.326143	-0.057330	-0.260631	0.335465	-0.066248	-0.252347	0.096040	-0.100001	-0.230425	0.109090	-0.182606	-0.132631	0.054688	-0.070133	-0.111454	0.072619	-0.178286	-0.053897	0.099684	-0.117288	-0.303350	0.055317	-0.154753	-0.422109	0.731850	-0.411020	-0.386014	0.721099	-0.390494	-0.439101	0.697076	-0.414995	-0.400488	0.684368	-0.399945	-0.513737	0.467685	-0.408871	-0.539812	0.465165	-0.301421	-0.647664	0.469191	-0.450725	-0.636934	0.424901	-0.438153	-0.693748	0.457520	-0.455668	-0.685111	0.418611	-0.445512	-0.905625	0.402192	-0.455838	-0.906384	0.366646	-0.375956	-0.963085	0.286547	-0.503943	-0.979571	0.248950	-0.403920	-0.942854	0.191926	-0.468308	-0.948762	0.444078	-0.405295	-0.295057	1.388470	-0.040341	-0.223018	1.379015	-0.333367	
61	0.3000	-0.322714	0.904927	-0.104037	-0.293980	0.903824	-0.315799	-0.484039	0.968586	-0.190447	-0.460514	0.974871	-0.285881	-0.391513	0.730936	-0.042778	-0.338988	0.750645	-0.040143	-0.368396	0.690549	-0.039256	-0.318751	0.707055	-0.039698	-0.250814	0.499877	-0.070340	-0.243398	0.489004	-0.170691	-0.300009	0.365727	-0.056036	-0.250304	0.372634	-0.062161	-0.293197	0.324517	-0.056119	-0.245749	0.332551	-0.065299	-0.245653	0.095073	-0.100268	-0.223540	0.107437	-0.183167	-0.128124	0.051566	-0.070034	-0.106348	0.067720	-0.178411	-0.047975	0.093017	-0.117634	-0.298113	0.056386	-0.155318	-0.396969	0.729452	-0.408203	-0.360684	0.719708	-0.387698	-0.413061	0.694300	-0.412132	-0.374048	0.682636	-0.397266	-0.481455	0.463715	-0.405633	-0.506664	0.460348	-0.297870	-0.615495	0.467355	-0.446751	-0.605481	0.422640	-0.434434	-0.661914	0.456735	-0.451396	-0.653930	0.417465	-0.441522	-0.875319	0.406303	-0.450607	-0.875866	0.369551	-0.370982	-0.933628	0.292305	-0.500580	-0.950063	0.252961	-0.401023	-0.913898	0.196924	-0.466764	-0.917809	0.447946	-0.398881	-0.273963	1.385791	-0.036135	-0.203732	1.378060	-0.330128	
62	0.3050	-0.301405	0.903298	-0.101012	-0.272288	0.902297	-0.312965	-0.462830	0.966998	-0.188120	-0.439431	0.972689	-0.283775	-0.371433	0.728988	-0.040398	-0.318791	0.748357	-0.037465	-0.348628	0.688435	-0.036986	-0.298888	0.704626	-0.037131	-0.232236	0.497011	-0.068380	-0.224662	0.486676	-0.168707	-0.284333	0.364283	-0.054642	-0.234661	0.369687	-0.061080	-0.278812	0.323060	-0.055080	-0.231424	0.329708	-0.064546	-0.240116	0.094274	-0.100752	-0.217824	0.105922	-0.183959	-0.124832	0.048519	-0.070125	-0.102429	0.062854	-0.178738	-0.043216	0.086378	-0.118197	-0.294129	0.057596	-0.156070	-0.371672	0.727230	-0.405304	-0.335205	0.718546	-0.384802	-0.386812	0.691714	-0.409187	-0.347407	0.681148	-0.394484	-0.448669	0.460030	-0.402212	-0.473087	0.455858	-0.294135	-0.582719	0.465443	-0.442648	-0.573337	0.420368	-0.430519	-0.629414	0.455761	-0.447000	-0.622001	0.416184	-0.437353	-0.844067	0.409666	-0.445261	-0.844407	0.371874	-0.365853	-0.902929	0.297098	-0.496864	-0.919329	0.256199	-0.397720	-0.883516	0.201127	-0.464644	-0.886056	0.451052	-0.392493	-0.252751	1.383262	-0.031993	-0.184467	1.377219	-0.326931	
63	0.3100	-0.280207	0.901768	-0.097944	-0.250694	0.900905	-0.310101	-0.441710	0.965545	-0.185762	-0.418445	0.970647	-0.281642	-0.351520	0.727147	-0.038098	-0.298770	0.746151	-0.034845	-0.329054	0.686431	-0.034819	-0.279226	0.702281	-0.034646	-0.213999	0.494211	-0.066573	-0.206281	0.484447	-0.166882	-0.269160	0.363001	-0.053393	-0.219521	0.366818	-0.060176	-0.264998	0.321761	-0.054201	-0.217677	0.326949	-0.063976	-0.235607	0.093642	-0.101414	-0.213152	0.104559	-0.184940	-0.122590	0.045601	-0.070375	-0.099549	0.058103	-0.179230	-0.039489	0.079887	-0.118936	-0.291238	0.058913	-0.156965	-0.346300	0.725217	-0.402327	-0.309659	0.717641	-0.381812	-0.360439	0.689358	-0.406162	-0.320656	0.679933	-0.391598	-0.415511	0.456679	-0.398610	-0.439225	0.451760	-0.290220	-0.549471	0.463493	-0.438431	-0.540636	0.418124	-0.426420	-0.596386	0.454628	-0.442499	-0.589459	0.414798	-0.433023	-0.812017	0.412282	-0.439841	-0.812160	0.373628	-0.360606	-0.871139	0.300909	-0.492824	-0.887525	0.258666	-0.394033	-0.851860	0.204508	-0.461957	-0.853660	0.453405	-0.386189	-0.231479	1.380912	-0.027933	-0.165275	1.376514	-0.323782	
64	0.3150	-0.259178	0.900352	-0.094849	-0.229268	0.899673	-0.307220	-0.420740	0.964245	-0.183374	-0.397618	0.968771	-0.279476	-0.331836	0.725417	-0.035882	-0.278985	0.744028	-0.032293	-0.309741	0.684540	-0.032757	-0.259829	0.700015	-0.032253	-0.196191	0.491475	-0.064925	-0.188351	0.482302	-0.165219	-0.254531	0.361867	-0.052283	-0.204927	0.364037	-0.059437	-0.251772	0.320609	-0.053471	-0.204530	0.324285	-0.063572	-0.231997	0.093179	-0.102217	-0.209402	0.103358	-0.186066	-0.121237	0.042857	-0.070753	-0.097565	0.053541	-0.179853	-0.036670	0.073650	-0.119813	-0.289283	0.060305	-0.157960	-0.320947	0.723444	-0.399278	-0.284143	0.717015	-0.378734	-0.334044	0.687263	-0.403067	-0.293900	0.679017	-0.388613	-0.382131	0.453705	-0.394834	-0.405240	0.448110	-0.286138	-0.515910	0.461541	-0.434115	-0.507535	0.415942	-0.422153	-0.562992	0.453368	-0.437918	-0.556464	0.413336	-0.428553	-0.779346	0.414158	-0.434390	-0.779306	0.374830	-0.355279	-0.838437	0.303738	-0.488495	-0.854832	0.260372	-0.389994	-0.819113	0.207060	-0.458722	-0.820800	0.455021	-0.380022	-0.210219	1.378769	-0.023972	-0.146216	1.375966	-0.320692	
65	0.3200	-0.238386	0.899062	-0.091744	-0.208087	0.898617	-0.304337	-0.399991	0.963107	-0.180956	-0.377022	0.967082	-0.277279	-0.312452	0.723802	-0.033753	-0.259501	0.741987	-0.029821	-0.290759	0.682762	-0.030802	-0.240767	0.697828	-0.029963	-0.178902	0.488799	-0.063442	-0.170970	0.480228	-0.163723	-0.240487	0.360866	-0.051302	-0.190926	0.361355	-0.058851	-0.239157	0.319591	-0.052878	-0.192006	0.321728	-0.063319	-0.229160	0.092882	-0.103121	-0.206453	0.102329	-0.187296	-0.120621	0.040328	-0.071229	-0.096336	0.049236	-0.180572	-0.034633	0.067762	-0.120788	-0.288110	0.061747	-0.159017	-0.295722	0.721931	-0.396169	-0.258766	0.716680	-0.375579	-0.307741	0.685455	-0.399912	-0.267259	0.678416	-0.385537	-0.348700	0.451136	-0.390900	-0.371308	0.444947	-0.281906	-0.482217	0.459620	-0.429723	-0.474213	0.413852	-0.417741	-0.529415	0.452011	-0.433282	-0.523198	0.411827	-0.423968	-0.746256	0.415317	-0.428950	-0.746048	0.375506	-0.349912	-0.805034	0.305604	-0.483921	-0.821461	0.261341	-0.385639	-0.785489	0.208788	-0.454972	-0.787675	0.455929	-0.374039	-0.189056	1.376851	-0.020129	-0.127364	1.375588	-0.317670	
66	0.3250	-0.217908	0.897906	-0.088648	-0.187239	0.897753	-0.301469	-0.379543	0.962140	-0.178514	-0.356740	0.965593	-0.275053	-0.293444	0.722306	-0.031713	-0.240394	0.740027	-0.027441	-0.272187	0.681099	-0.028954	-0.222116	0.695715	-0.027785	-0.162217	0.486184	-0.062125	-0.154228	0.478215	-0.162391	-0.227072	0.359981	-0.050445	-0.177562	0.358781	-0.058405	-0.227174	0.318696	-0.052407	-0.180128	0.319288	-0.063198	-0.226976	0.092747	-0.104092	-0.204187	0.101477	-0.188591	-0.120597	0.038045	-0.071775	-0.095731	0.045241	-0.181355	-0.033263	0.062300	-0.121824	-0.287574	0.063215	-0.160097	-0.270745	0.720694	-0.393014	-0.233651	0.716642	-0.372363	-0.281659	0.683951	-0.396711	-0.240865	0.678136	-0.382383	-0.315404	0.448992	-0.386828	-0.337621	0.442299	-0.277547	-0.448587	0.457759	-0.425278	-0.440868	0.411879	-0.413212	-0.495855	0.450589	-0.428619	-0.489865	0.410298	-0.419300	-0.712969	0.415792	-0.423566	-0.712611	0.375688	-0.344547	-0.771162	0.306542	-0.479147	-0.787647	0.261610	-0.381014	-0.751233	0.209719	-0.450752	-0.754505	0.456166	-0.368285	-0.168086	1.375175	-0.016419	-0.108796	1.375390	-0.314729	
67	0.3300	-0.197828	0.896892	-0.085581	-0.166818	0.897088	-0.298636	-0.359485	0.961347	-0.176055	-0.336859	0.964317	-0.272802	-0.274894	0.720928	-0.029765	-0.221743	0.738149	-0.025161	-0.254106	0.679550	-0.027213	-0.203956	0.693675	-0.025725	-0.146221	0.483630	-0.060972	-0.138213	0.476254	-0.161222	-0.214326	0.359200	-0.049701	-0.164877	0.356324	-0.058084	-0.215845	0.317913	-0.052045	-0.168919	0.316973	-0.063192	-0.225336	0.092768	-0.105095	-0.202495	0.100804	-0.189911	-0.121032	0.036030	-0.072365	-0.095626	0.041600	-0.182172	-0.032447	0.057326	-0.122887	-0.287539	0.064687	-0.161169	-0.246147	0.719740	-0.389831	-0.208927	0.716899	-0.369105	-0.255938	0.682760	-0.393483	-0.214860	0.678178	-0.379169	-0.282444	0.447282	-0.382645	-0.304378	0.440180	-0.273092	-0.415232	0.455984	-0.420808	-0.407715	0.410046	-0.408597	-0.462529	0.449130	-0.423961	-0.456684	0.408774	-0.414580	-0.679723	0.415626	-0.418276	-0.679233	0.375415	-0.339225	-0.737081	0.306603	-0.474224	-0.753644	0.261224	-0.376169	-0.716614	0.209893	-0.446117	-0.721519	0.455779	-0.362797	-0.147413	1.373747	-0.012859	-0.090601	1.375375	-0.311879	
68	0.3350	-0.178238	0.896020	-0.082564	-0.146921	0.896626	-0.295856	-0.339910	0.960727	-0.173588	-0.317473	0.963256	-0.270536	-0.256886	0.719669	-0.027911	-0.203630	0.736353	-0.022993	-0.236597	0.678115	-0.025580	-0.186369	0.691709	-0.023791	-0.130991	0.481141	-0.059979	-0.123004	0.474340	-0.160212	-0.202287	0.358510	-0.049062	-0.152911	0.353990	-0.057871	-0.205190	0.317229	-0.051779	-0.158399	0.314793	-0.063280	-0.224135	0.092936	-0.106100	-0.201273	0.100310	-0.191224	-0.121803	0.034297	-0.072976	-0.095907	0.038344	-0.182996	-0.032082	0.052884	-0.123947	-0.287881	0.066147	-0.162202	-0.222066	0.719072	-0.386641	-0.184735	0.717441	-0.365827	-0.230724	0.681884	-0.390249	-0.189393	0.678532	-0.375917	-0.250029	0.446004	-0.378383	-0.271787	0.438589	-0.268573	-0.382375	0.454317	-0.416343	-0.374980	0.408368	-0.403934	-0.429662	0.447660	-0.419339	-0.423887	0.407278	-0.409847	-0.646770	0.414873	-0.413123	-0.646166	0.374731	-0.333986	-0.703062	0.305855	-0.469206	-0.719722	0.260242	-0.371159	-0.681917	0.209363	-0.441131	-0.688960	0.454825	-0.357608	-0.127151	1.372572	-0.009466	-0.072869	1.375543	-0.309133	
69	0.3400	-0.159233	0.895289	-0.079619	-0.127652	0.896362	-0.293148	-0.320917	0.960275	-0.171127	-0.298681	0.962412	-0.268265	-0.239506	0.718527	-0.026154	-0.186141	0.734639	-0.020944	-0.219745	0.676792	-0.024052	-0.169436	0.689818	-0.021987	-0.116594	0.478721	-0.059139	-0.108671	0.472471	-0.159352	-0.190988	0.357897	-0.048518	-0.141698	0.351788	-0.057753	-0.195227	0.316634	-0.051594	-0.148584	0.312753	-0.063445	-0.223283	0.093238	-0.107081	-0.200428	0.099989	-0.192499	-0.122805	0.032849	-0.073588	-0.096474	0.035492	-0.183803	-0.032074	0.048998	-0.124976	-0.288490	0.067580	-0.163175	-0.198643	0.718681	-0.383467	-0.161214	0.718249	-0.362556	-0.206169	0.681315	-0.387032	-0.164617	0.679180	-0.372652	-0.218374	0.445144	-0.374077	-0.240057	0.437510	-0.264030	-0.350242	0.452776	-0.411915	-0.342895	0.406857	-0.399262	-0.397488	0.446205	-0.414786	-0.391710	0.405829	-0.405139	-0.614368	0.413596	-0.408142	-0.613665	0.373687	-0.328873	-0.669390	0.304377	-0.464149	-0.686162	0.258729	-0.366043	-0.647444	0.208199	-0.435867	-0.657070	0.453366	-0.352743	-0.107416	1.371645	-0.006253	-0.055696	1.375886	-0.306504	
70	0.3450	-0.140911	0.894697	-0.076768	-0.109112	0.896289	-0.290532	-0.302607	0.959984	-0.168685	-0.280582	0.961777	-0.266004	-0.222840	0.717501	-0.024494	-0.169361	0.733011	-0.019022	-0.203629	0.675580	-0.022628	-0.153238	0.688003	-0.020316	-0.103092	0.476378	-0.058444	-0.095272	0.470648	-0.158635	-0.180457	0.357351	-0.048059	-0.131264	0.349723	-0.057713	-0.185969	0.316119	-0.051478	-0.139487	0.310859	-0.063670	-0.222699	0.093660	-0.108016	-0.199877	0.099832	-0.193711	-0.123945	0.031683	-0.074184	-0.097235	0.033049	-0.184575	-0.032336	0.045676	-0.125952	-0.289270	0.068972	-0.164069	-0.176020	0.718554	-0.380334	-0.138507	0.719300	-0.359318	-0.182427	0.681040	-0.383856	-0.140685	0.680097	-0.369401	-0.187694	0.444680	-0.369769	-0.209395	0.436919	-0.259503	-0.319059	0.451372	-0.407560	-0.311694	0.405520	-0.394624	-0.366239	0.444787	-0.410338	-0.360393	0.404446	-0.400497	-0.582772	0.411863	-0.403369	-0.581987	0.372334	-0.323922	-0.636351	0.302260	-0.459110	-0.653246	0.256758	-0.360883	-0.613501	0.206477	-0.430404	-0.626092	0.451474	-0.348222	-0.088329	1.370959	-0.003232	-0.039174	1.376393	-0.304001	
71	0.3500	-0.123367	0.894235	-0.074031	-0.091400	0.896394	-0.288026	-0.285078	0.959841	-0.166281	-0.263273	0.961343	-0.263768	-0.206970	0.716586	-0.022935	-0.153371	0.731470	-0.017232	-0.188326	0.674476	-0.021308	-0.137853	0.686270	-0.018782	-0.090532	0.474121	-0.057883	-0.082853	0.468875	-0.158049	-0.170715	0.356864	-0.047677	-0.121631	0.347800	-0.057735	-0.177427	0.315674	-0.051418	-0.131116	0.309113	-0.063937	-0.222311	0.094184	-0.108887	-0.199546	0.099827	-0.194840	-0.125144	0.030787	-0.074750	-0.098116	0.031009	-0.185295	-0.032795	0.042911	-0.126858	-0.290139	0.070312	-0.164869	-0.154335	0.718672	-0.377268	-0.116751	0.720561	-0.356141	-0.159646	0.681038	-0.380749	-0.117746	0.681252	-0.366194	-0.158198	0.444582	-0.365500	-0.179999	0.436776	-0.255035	-0.289048	0.450115	-0.403310	-0.281604	0.404359	-0.390063	-0.336139	0.443425	-0.406028	-0.330170	0.403142	-0.395961	-0.552235	0.409751	-0.398834	-0.551381	0.370729	-0.319171	-0.604231	0.299606	-0.454143	-0.621256	0.254409	-0.355740	-0.580391	0.204284	-0.424825	-0.596257	0.449222	-0.344059	-0.070005	1.370499	-0.000414	-0.023396	1.377047	-0.301636	
72	0.3550	-0.106696	0.893896	-0.071429	-0.074610	0.896658	-0.285646	-0.268426	0.959832	-0.163932	-0.246845	0.961092	-0.261574	-0.191973	0.715780	-0.021477	-0.138250	0.730019	-0.015579	-0.173907	0.673478	-0.020089	-0.123350	0.684622	-0.017384	-0.078950	0.471959	-0.057444	-0.071447	0.467158	-0.157584	-0.161777	0.356427	-0.047362	-0.112809	0.346024	-0.057807	-0.169604	0.315291	-0.051402	-0.123473	0.307519	-0.064231	-0.222063	0.094794	-0.109680	-0.199374	0.099956	-0.195870	-0.126338	0.030142	-0.075276	-0.099051	0.029357	-0.185952	-0.033385	0.040681	-0.127679	-0.291030	0.071592	-0.165568	-0.133720	0.719008	-0.374296	-0.096079	0.721998	-0.353053	-0.137968	0.681281	-0.377736	-0.095939	0.682606	-0.363062	-0.130084	0.444811	-0.361314	-0.152056	0.437036	-0.250671	-0.260416	0.449008	-0.399201	-0.252844	0.403371	-0.385621	-0.307403	0.442136	-0.401888	-0.301264	0.401930	-0.391571	-0.522994	0.407339	-0.394564	-0.522081	0.368929	-0.314652	-0.573301	0.296518	-0.449304	-0.590458	0.251762	-0.350678	-0.548411	0.201713	-0.419213	-0.567783	0.446688	-0.340260	-0.052557	1.370248	0.002194	-0.008447	1.377827	-0.299419	
73	0.3600	-0.090982	0.893667	-0.068978	-0.058828	0.897061	-0.283408	-0.252737	0.959941	-0.161657	-0.231385	0.961008	-0.259441	-0.177918	0.715075	-0.020122	-0.124067	0.728662	-0.014066	-0.160433	0.672582	-0.018969	-0.109792	0.683066	-0.016121	-0.068368	0.469904	-0.057114	-0.061070	0.465506	-0.157226	-0.153646	0.356035	-0.047105	-0.104803	0.344397	-0.057915	-0.162499	0.314963	-0.051420	-0.116553	0.306076	-0.064539	-0.221906	0.095467	-0.110387	-0.199307	0.100203	-0.196791	-0.127480	0.029725	-0.075753	-0.099988	0.028069	-0.186539	-0.034051	0.038949	-0.128410	-0.291892	0.072803	-0.166162	-0.114295	0.719535	-0.371443	-0.076608	0.723571	-0.350084	-0.117523	0.681737	-0.374844	-0.075393	0.684119	-0.360033	-0.103533	0.445324	-0.357253	-0.125734	0.437643	-0.246453	-0.233356	0.448052	-0.395266	-0.225611	0.402551	-0.381342	-0.280226	0.440933	-0.397948	-0.273878	0.400817	-0.387365	-0.495267	0.404705	-0.390581	-0.494304	0.366991	-0.310395	-0.543817	0.293107	-0.444643	-0.561103	0.248901	-0.345754	-0.517836	0.198856	-0.413653	-0.540870	0.443951	-0.336827	-0.036089	1.370181	0.004586	0.005593	1.378712	-0.297358	
74	0.3650	-0.076304	0.893536	-0.066694	-0.044127	0.897579	-0.281325	-0.238089	0.960149	-0.159474	-0.216967	0.961069	-0.257387	-0.164863	0.714467	-0.018871	-0.110882	0.727402	-0.012692	-0.147954	0.671785	-0.017946	-0.097231	0.681607	-0.014990	-0.058794	0.467966	-0.056878	-0.051725	0.463928	-0.156962	-0.146320	0.355681	-0.046897	-0.097606	0.342919	-0.058047	-0.156104	0.314683	-0.051462	-0.110345	0.304782	-0.064849	-0.221803	0.096186	-0.111003	-0.199306	0.100547	-0.197597	-0.128531	0.029507	-0.076177	-0.100887	0.027111	-0.187050	-0.034747	0.037673	-0.129043	-0.292686	0.073940	-0.166651	-0.096163	0.720217	-0.368732	-0.058441	0.725239	-0.347258	-0.098424	0.682371	-0.372095	-0.056219	0.685748	-0.357137	-0.078702	0.446071	-0.353359	-0.101178	0.438540	-0.242422	-0.208033	0.447242	-0.391536	-0.200084	0.401888	-0.377264	-0.254780	0.439825	-0.394237	-0.248194	0.399810	-0.383379	-0.469245	0.401930	-0.386904	-0.468241	0.364970	-0.306426	-0.516007	0.289480	-0.440206	-0.533417	0.245908	-0.341024	-0.488917	0.195808	-0.408223	-0.515689	0.441088	-0.333755	-0.020693	1.370276	0.006759	0.018659	1.379674	-0.295458	
75	0.3700	-0.062726	0.893490	-0.064587	-0.030567	0.898186	-0.279407	-0.224547	0.960436	-0.157401	-0.203651	0.961251	-0.255431	-0.152854	0.713950	-0.017726	-0.098744	0.726241	-0.011458	-0.136508	0.671082	-0.017019	-0.085705	0.680250	-0.013989	-0.050224	0.466155	-0.056723	-0.043400	0.462434	-0.156779	-0.139785	0.355364	-0.046733	-0.091202	0.341591	-0.058193	-0.150404	0.314446	-0.051521	-0.104830	0.303635	-0.065151	-0.221725	0.096929	-0.111527	-0.199336	0.100967	-0.198288	-0.129469	0.029458	-0.076546	-0.101718	0.026447	-0.187486	-0.035438	0.036799	-0.129581	-0.293386	0.074997	-0.167039	-0.079411	0.721020	-0.366186	-0.041664	0.726959	-0.344599	-0.080765	0.683145	-0.369511	-0.038508	0.687446	-0.354400	-0.055723	0.447004	-0.349669	-0.078505	0.439663	-0.238614	-0.184586	0.446571	-0.388038	-0.176408	0.401370	-0.373422	-0.231207	0.438820	-0.390779	-0.224364	0.398910	-0.379643	-0.445090	0.399090	-0.383542	-0.444050	0.362919	-0.302763	-0.490069	0.285743	-0.436034	-0.507594	0.242861	-0.336538	-0.461875	0.192661	-0.402998	-0.492381	0.438174	-0.331036	-0.006444	1.370504	0.008714	0.030697	1.380687	-0.293725	
76	0.3750	-0.050297	0.893513	-0.062668	-0.018193	0.898856	-0.277661	-0.212160	0.960784	-0.155457	-0.191484	0.961530	-0.253589	-0.141924	0.713515	-0.016685	-0.087686	0.725182	-0.010362	-0.126121	0.670468	-0.016185	-0.075240	0.679000	-0.013111	-0.042638	0.464481	-0.056634	-0.036070	0.461035	-0.156664	-0.134018	0.355079	-0.046603	-0.085566	0.340410	-0.058344	-0.145376	0.314245	-0.051588	-0.099983	0.302630	-0.065436	-0.221654	0.097678	-0.111961	-0.199376	0.101441	-0.198866	-0.130278	0.029548	-0.076860	-0.102462	0.026037	-0.187847	-0.036096	0.036271	-0.130025	-0.293977	0.075970	-0.167333	-0.064103	0.721909	-0.363823	-0.026340	0.728689	-0.342127	-0.064616	0.684019	-0.367113	-0.022328	0.689171	-0.351845	-0.034696	0.448070	-0.346217	-0.057803	0.440949	-0.235063	-0.163122	0.446030	-0.384795	-0.154701	0.400982	-0.369848	-0.209618	0.437921	-0.387591	-0.202506	0.398118	-0.376183	-0.422928	0.396256	-0.380505	-0.421857	0.360887	-0.299421	-0.466162	0.281995	-0.432160	-0.483791	0.239836	-0.332340	-0.436888	0.189501	-0.398045	-0.471053	0.435278	-0.328655	0.006598	1.370838	0.010453	0.041668	1.381725	-0.292160	
77	0.3800	-0.039050	0.893591	-0.060941	-0.007030	0.899563	-0.276090	-0.200958	0.961171	-0.153654	-0.180495	0.961881	-0.251876	-0.132087	0.713155	-0.015749	-0.077725	0.724225	-0.009398	-0.116800	0.669939	-0.015441	-0.065846	0.677861	-0.012349	-0.036003	0.462951	-0.056599	-0.029694	0.459740	-0.156603	-0.128989	0.354825	-0.046503	-0.080666	0.339371	-0.058493	-0.140991	0.314078	-0.051660	-0.095773	0.301759	-0.065699	-0.221576	0.098415	-0.112310	-0.199408	0.101948	-0.199336	-0.130954	0.029744	-0.077121	-0.103107	0.025837	-0.188139	-0.036702	0.036030	-0.130381	-0.294454	0.076857	-0.167542	-0.050278	0.722848	-0.361657	-0.012506	0.730391	-0.339860	-0.050025	0.684955	-0.364913	-0.007720	0.690879	-0.349492	-0.015684	0.449220	-0.343030	-0.039123	0.442338	-0.231793	-0.143709	0.445606	-0.381827	-0.135039	0.400708	-0.366566	-0.190084	0.437128	-0.384690	-0.182701	0.397431	-0.373019	-0.402845	0.393495	-0.377792	-0.401746	0.358919	-0.296408	-0.444402	0.278326	-0.428611	-0.462124	0.236897	-0.328465	-0.414093	0.186405	-0.393421	-0.451776	0.432464	-0.326596	0.018396	1.371250	0.011983	0.051550	1.382762	-0.290762	
78	0.3850	-0.028997	0.893710	-0.059407	0.002915	0.900282	-0.274697	-0.190955	0.961581	-0.152004	-0.170692	0.962279	-0.250305	-0.123345	0.712862	-0.014917	-0.068865	0.723372	-0.008561	-0.108540	0.669489	-0.014783	-0.057517	0.676836	-0.011697	-0.030276	0.461571	-0.056605	-0.024222	0.458557	-0.156585	-0.124660	0.354599	-0.046426	-0.076458	0.338469	-0.058635	-0.137215	0.313940	-0.051730	-0.092160	0.301015	-0.065936	-0.221486	0.099122	-0.112582	-0.199422	0.102469	-0.199708	-0.131500	0.030016	-0.077333	-0.103650	0.025805	-0.188367	-0.037242	0.036018	-0.130658	-0.294817	0.077656	-0.167678	-0.037953	0.723803	-0.359699	-0.000177	0.732028	-0.337808	-0.037007	0.685918	-0.362924	0.005299	0.692533	-0.347353	0.001282	0.450407	-0.340129	-0.022485	0.443771	-0.228826	-0.126381	0.445286	-0.379146	-0.117462	0.400530	-0.363592	-0.172641	0.436441	-0.382084	-0.164993	0.396845	-0.370165	-0.384887	0.390861	-0.375399	-0.383763	0.357051	-0.293727	-0.424864	0.274816	-0.425405	-0.442664	0.234103	-0.324940	-0.393578	0.183442	-0.389171	-0.434580	0.429787	-0.324837	0.028932	1.371712	0.013311	0.060340	1.383772	-0.289530	
79	0.3900	-0.020135	0.893856	-0.058065	0.011655	0.900989	-0.273479	-0.182144	0.961996	-0.150518	-0.162066	0.962703	-0.248885	-0.115680	0.712629	-0.014184	-0.061088	0.722621	-0.007844	-0.101318	0.669110	-0.014209	-0.050231	0.675926	-0.011146	-0.025400	0.460343	-0.056641	-0.019593	0.457492	-0.156598	-0.120983	0.354401	-0.046368	-0.072897	0.337698	-0.058764	-0.134007	0.313826	-0.051796	-0.089104	0.300388	-0.066144	-0.221381	0.099788	-0.112784	-0.199416	0.102984	-0.199992	-0.131925	0.030337	-0.077500	-0.104092	0.025901	-0.188538	-0.037711	0.036179	-0.130864	-0.295077	0.078367	-0.167753	-0.027115	0.724745	-0.357955	0.010659	0.733570	-0.335978	-0.025556	0.686874	-0.361150	0.016742	0.694099	-0.345440	0.016211	0.451587	-0.337529	-0.007870	0.445197	-0.226173	-0.111130	0.445054	-0.376760	-0.101971	0.400431	-0.360939	-0.157284	0.435854	-0.379775	-0.149382	0.396354	-0.367629	-0.369058	0.388404	-0.373319	-0.367910	0.355316	-0.291375	-0.407573	0.271531	-0.422552	-0.425438	0.231502	-0.321782	-0.375384	0.180670	-0.385328	-0.419458	0.427292	-0.323354	0.038210	1.372200	0.014449	0.068051	1.384735	-0.288458	
80	0.3950	-0.012437	0.894018	-0.056909	0.019222	0.901666	-0.272429	-0.174497	0.962401	-0.149198	-0.154588	0.963132	-0.247622	-0.109058	0.712447	-0.013549	-0.054364	0.721969	-0.007238	-0.095096	0.668797	-0.013714	-0.043952	0.675130	-0.010688	-0.021313	0.459268	-0.056697	-0.015738	0.456548	-0.156634	-0.117909	0.354229	-0.046325	-0.069927	0.337047	-0.058880	-0.131321	0.313734	-0.051856	-0.086556	0.299869	-0.066323	-0.221263	0.100400	-0.112928	-0.199388	0.103480	-0.200200	-0.132240	0.030682	-0.077628	-0.104440	0.026086	-0.188661	-0.038106	0.036459	-0.131011	-0.295245	0.078992	-0.167779	-0.017729	0.725645	-0.356426	0.020040	0.734992	-0.334373	-0.015634	0.687794	-0.359594	0.026649	0.695548	-0.343756	0.029148	0.452725	-0.335237	0.004774	0.446569	-0.223840	-0.097913	0.444897	-0.374667	-0.088528	0.400394	-0.358609	-0.143970	0.435362	-0.377761	-0.135831	0.395948	-0.365409	-0.355320	0.386159	-0.371536	-0.354150	0.353737	-0.289342	-0.392509	0.268522	-0.420055	-0.410426	0.229132	-0.319000	-0.359501	0.178132	-0.381915	-0.406362	0.425016	-0.322124	0.046259	1.372691	0.015410	0.074715	1.385631	-0.287539	
81	0.4000	-0.005859	0.894185	-0.055929	0.025666	0.902296	-0.271540	-0.167969	0.962784	-0.148048	-0.148212	0.963549	-0.246519	-0.103430	0.712309	-0.013006	-0.048644	0.721412	-0.006735	-0.089822	0.668542	-0.013293	-0.038628	0.674444	-0.010312	-0.017944	0.458341	-0.056763	-0.012581	0.455725	-0.156683	-0.115380	0.354081	-0.046293	-0.067493	0.336508	-0.058979	-0.129110	0.313661	-0.051908	-0.084468	0.299447	-0.066472	-0.221136	0.100951	-0.113023	-0.199341	0.103942	-0.200344	-0.132461	0.031028	-0.077722	-0.104703	0.026328	-0.188744	-0.038430	0.036812	-0.131108	-0.295336	0.079532	-0.167768	-0.009734	0.726483	-0.355108	0.028027	0.736273	-0.332988	-0.007179	0.688654	-0.358253	0.035083	0.696859	-0.342298	0.040172	0.453788	-0.333251	0.015531	0.447851	-0.221823	-0.086649	0.444799	-0.372865	-0.077057	0.400402	-0.356599	-0.132621	0.434958	-0.376035	-0.124266	0.395621	-0.363501	-0.343598	0.384152	-0.370034	-0.342408	0.352330	-0.287615	-0.379608	0.265829	-0.417906	-0.397566	0.227017	-0.316592	-0.345872	0.175861	-0.378939	-0.395211	0.422984	-0.321119	0.053125	1.373166	0.016207	0.080379	1.386447	-0.286765	
82	0.4050	-0.000340	0.894348	-0.055115	0.031055	0.902865	-0.270801	-0.162498	0.963135	-0.147064	-0.142873	0.963939	-0.245572	-0.098732	0.712207	-0.012550	-0.043865	0.720945	-0.006325	-0.085432	0.668339	-0.012941	-0.034194	0.673865	-0.010009	-0.015217	0.457558	-0.056833	-0.010046	0.455023	-0.156739	-0.113338	0.353957	-0.046270	-0.065534	0.336069	-0.059063	-0.127322	0.313604	-0.051952	-0.082787	0.299110	-0.066594	-0.221006	0.101435	-0.113079	-0.199280	0.104360	-0.200437	-0.132606	0.031360	-0.077788	-0.104894	0.026596	-0.188794	-0.038688	0.037200	-0.131166	-0.295367	0.079990	-0.167732	-0.003049	0.727241	-0.353994	0.034704	0.737401	-0.331817	-0.000106	0.689434	-0.357118	0.042133	0.698018	-0.341062	0.049394	0.454753	-0.331565	0.024517	0.449014	-0.220113	-0.077226	0.444748	-0.371341	-0.067450	0.400443	-0.354897	-0.123125	0.434631	-0.374582	-0.114579	0.395362	-0.361890	-0.333782	0.382400	-0.368790	-0.332574	0.351104	-0.286173	-0.368766	0.263472	-0.416092	-0.386754	0.225173	-0.314549	-0.334397	0.173875	-0.376396	-0.385891	0.421209	-0.320313	0.058875	1.373609	0.016857	0.085106	1.387172	-0.286123	
83	0.4100	0.004197	0.894499	-0.054452	0.035472	0.903366	-0.270200	-0.158004	0.963446	-0.146239	-0.138493	0.964292	-0.244778	-0.094890	0.712133	-0.012175	-0.039953	0.720561	-0.005996	-0.081851	0.668181	-0.012652	-0.030576	0.673386	-0.009771	-0.013056	0.456911	-0.056902	-0.008052	0.454436	-0.156796	-0.111722	0.353854	-0.046253	-0.063989	0.335719	-0.059130	-0.125905	0.313561	-0.051987	-0.081461	0.298846	-0.066691	-0.220878	0.101850	-0.113105	-0.199210	0.104728	-0.200491	-0.132690	0.031665	-0.077832	-0.105025	0.026868	-0.188821	-0.038886	0.037588	-0.131195	-0.295354	0.080373	-0.167680	0.002428	0.727907	-0.353072	0.040172	0.738371	-0.330848	0.005690	0.690122	-0.356178	0.047906	0.699016	-0.340035	0.056950	0.455604	-0.330162	0.031870	0.450038	-0.218695	-0.069506	0.444729	-0.370079	-0.059568	0.400503	-0.353486	-0.115342	0.434374	-0.373384	-0.106630	0.395162	-0.360559	-0.325731	0.380907	-0.367782	-0.324506	0.350063	-0.284995	-0.359844	0.261461	-0.414594	-0.377853	0.223603	-0.312851	-0.324936	0.172183	-0.374271	-0.378262	0.419698	-0.319679	0.063592	1.374008	0.017376	0.088970	1.387800	-0.285602	
