PathFileType	4	(X/Y/Z)	 P6 250r2 02.trc
DataRate	CameraRate	NumFrames	NumMarkers	Units	OrigDataRate	OrigDataStartFrame	OrigNumFrames
200	200	86	38	m	200	2	87
Frame#	Time	RASIS			LASIS			RPSIS			LPSIS			RThighRear1			RThighFront1			RThighRear2			RThighFront2			RKneeLat			RKneeMed			RShankRear1			RShankFront1			RShankRear2			RShankFront2			RAnkleLat			RAnkleMed			RM5			RM1			RMid			RHeel			LThighRear1			LThighFront1			LThighRear2			LThighFront2			LKneeLat			LKneeMed			LShankRear1			LShankFront1			LShankRear2			LShankFront2			LAnkleLat			LAnkleMed			LM5			LM1			LMid			LHeel			RShoulder			LShoulder			
		X1	Y1	Z1	X2	Y2	Z2	X3	Y3	Z3	X4	Y4	Z4	X5	Y5	Z5	X6	Y6	Z6	X7	Y7	Z7	X8	Y8	Z8	X9	Y9	Z9	X10	Y10	Z10	X11	Y11	Z11	X12	Y12	Z12	X13	Y13	Z13	X14	Y14	Z14	X15	Y15	Z15	X16	Y16	Z16	X17	Y17	Z17	X18	Y18	Z18	X19	Y19	Z19	X20	Y20	Z20	X21	Y21	Z21	X22	Y22	Z22	X23	Y23	Z23	X24	Y24	Z24	X25	Y25	Z25	X26	Y26	Z26	X27	Y27	Z27	X28	Y28	Z28	X29	Y29	Z29	X30	Y30	Z30	X31	Y31	Z31	X32	Y32	Z32	X33	Y33	Z33	X34	Y34	Z34	X35	Y35	Z35	X36	Y36	Z36	X37	Y37	Z37	X38	Y38	Z38	
1	0.0000	-1.457949	0.902466	-0.191642	-1.458145	0.911204	-0.455187	-1.606515	0.926671	-0.268142	-1.611059	0.927472	-0.370089	-1.525322	0.720115	-0.178706	-1.476509	0.715878	-0.188891	-1.539216	0.673609	-0.186799	-1.490307	0.668655	-0.190714	-1.599375	0.427646	-0.263366	-1.584673	0.437578	-0.365287	-1.742826	0.404632	-0.251434	-1.722956	0.359258	-0.275037	-1.789455	0.385541	-0.262202	-1.765767	0.347843	-0.278481	-1.983137	0.303394	-0.314176	-1.960593	0.314053	-0.400936	-2.013816	0.175308	-0.326062	-2.002530	0.183014	-0.428623	-1.969951	0.134028	-0.394995	-2.023240	0.373258	-0.358740	-1.476935	0.749707	-0.511482	-1.424286	0.773678	-0.503802	-1.452299	0.720318	-0.517487	-1.407579	0.744618	-0.505310	-1.313524	0.497488	-0.490119	-1.315644	0.500840	-0.386231	-1.339609	0.358613	-0.522499	-1.289090	0.369179	-0.507756	-1.328010	0.319809	-0.522061	-1.286141	0.328192	-0.507542	-1.297359	0.094142	-0.498529	-1.287013	0.119050	-0.409954	-1.153587	0.080674	-0.510401	-1.163049	0.087053	-0.397870	-1.119055	0.127469	-0.456722	-1.359898	0.055083	-0.447640	-1.410842	1.333299	-0.185636	-1.447930	1.329513	-0.545512	
2	0.0050	-1.442785	0.900636	-0.190559	-1.442833	0.909988	-0.454169	-1.591681	0.924304	-0.267137	-1.595982	0.925727	-0.369060	-1.507905	0.717803	-0.177454	-1.459021	0.714459	-0.187748	-1.520860	0.671128	-0.185231	-1.471882	0.667132	-0.189141	-1.575768	0.424378	-0.260921	-1.560536	0.433994	-0.363199	-1.718915	0.403235	-0.248793	-1.699776	0.357480	-0.272729	-1.765801	0.385052	-0.259526	-1.742831	0.346721	-0.276273	-1.960412	0.307289	-0.311207	-1.937752	0.316795	-0.398040	-1.992276	0.179643	-0.321867	-1.980881	0.186107	-0.424632	-1.948628	0.137130	-0.390384	-1.999982	0.377143	-0.356402	-1.461561	0.748163	-0.510388	-1.408918	0.771884	-0.502662	-1.437121	0.718685	-0.516333	-1.392359	0.742735	-0.504094	-1.299714	0.494945	-0.489076	-1.302362	0.498196	-0.385130	-1.328283	0.357132	-0.521920	-1.277810	0.366391	-0.506702	-1.317658	0.318187	-0.521460	-1.275905	0.325515	-0.506556	-1.294100	0.093125	-0.498396	-1.283499	0.117311	-0.409534	-1.150853	0.075608	-0.509232	-1.160707	0.081800	-0.396878	-1.115239	0.120503	-0.455278	-1.357985	0.055703	-0.447822	-1.395976	1.331164	-0.185011	-1.432092	1.326302	-0.545654	
3	0.0100	-1.427461	0.898834	-0.189453	-1.427321	0.908792	-0.453126	-1.576670	0.921977	-0.266137	-1.580712	0.924027	-0.368036	-1.490305	0.715534	-0.176166	-1.441348	0.713100	-0.186570	-1.502295	0.668694	-0.183624	-1.453250	0.665677	-0.187532	-1.551771	0.421185	-0.258431	-1.536012	0.430503	-0.361069	-1.694610	0.401875	-0.246114	-1.676185	0.355733	-0.270365	-1.741754	0.384588	-0.256803	-1.719484	0.345623	-0.274001	-1.937282	0.311114	-0.308177	-1.914508	0.319472	-0.395083	-1.970251	0.183887	-0.317585	-1.958767	0.189103	-0.420552	-1.926815	0.140157	-0.385673	-1.976369	0.380934	-0.354008	-1.446023	0.746625	-0.509285	-1.393380	0.770071	-0.501496	-1.421793	0.717047	-0.515169	-1.376981	0.740826	-0.502855	-1.285866	0.492346	-0.488020	-1.289037	0.495502	-0.384015	-1.316962	0.355620	-0.521323	-1.266534	0.363554	-0.505642	-1.307323	0.316538	-0.520848	-1.265687	0.322797	-0.505562	-1.290905	0.092112	-0.498252	-1.280047	0.115590	-0.409103	-1.148159	0.070646	-0.508075	-1.158393	0.076641	-0.395912	-1.111468	0.113620	-0.453847	-1.356132	0.056288	-0.447989	-1.380930	1.329058	-0.184353	-1.416047	1.323111	-0.545769	
4	0.0150	-1.411995	0.897087	-0.188320	-1.411617	0.907633	-0.452054	-1.561492	0.919724	-0.265143	-1.565254	0.922401	-0.367017	-1.472541	0.713347	-0.174834	-1.423511	0.711841	-0.185349	-1.483537	0.666347	-0.181969	-1.434427	0.664332	-0.185882	-1.527376	0.418128	-0.255891	-1.511098	0.427170	-0.358892	-1.669902	0.400579	-0.243397	-1.652161	0.354047	-0.267936	-1.717301	0.384162	-0.254027	-1.695701	0.344567	-0.271653	-1.913718	0.314811	-0.305079	-1.890839	0.322035	-0.392059	-1.947676	0.187973	-0.313209	-1.936124	0.191941	-0.416374	-1.904437	0.143059	-0.380855	-1.952396	0.384565	-0.351550	-1.430346	0.745109	-0.508172	-1.377696	0.768250	-0.500301	-1.406343	0.715417	-0.513994	-1.361472	0.738901	-0.501590	-1.272042	0.489694	-0.486951	-1.275725	0.492761	-0.382887	-1.305706	0.354084	-0.520709	-1.255325	0.360680	-0.504579	-1.297068	0.314872	-0.520225	-1.255550	0.320050	-0.504563	-1.287807	0.091118	-0.498098	-1.276688	0.113910	-0.408661	-1.145535	0.065840	-0.506944	-1.156131	0.071629	-0.394984	-1.107780	0.106881	-0.452441	-1.354363	0.056836	-0.448135	-1.365719	1.327006	-0.183654	-1.399797	1.319972	-0.545844	
5	0.0200	-1.396392	0.895423	-0.187156	-1.395723	0.906527	-0.450949	-1.546149	0.917574	-0.264155	-1.549611	0.920876	-0.366004	-1.454624	0.711283	-0.173450	-1.405524	0.710723	-0.184077	-1.464594	0.664131	-0.180260	-1.415424	0.663142	-0.184183	-1.502566	0.415268	-0.253295	-1.485780	0.424064	-0.356661	-1.644772	0.399370	-0.240638	-1.627671	0.352450	-0.265434	-1.692421	0.383784	-0.251191	-1.671447	0.343570	-0.269216	-1.889688	0.318322	-0.301903	-1.866712	0.324437	-0.388960	-1.924475	0.191833	-0.308733	-1.912882	0.194561	-0.412088	-1.881410	0.145784	-0.375923	-1.928049	0.387964	-0.349015	-1.414549	0.743631	-0.507046	-1.361883	0.766429	-0.499073	-1.390796	0.713810	-0.512806	-1.345854	0.736968	-0.500299	-1.258300	0.486995	-0.485872	-1.262479	0.489981	-0.381748	-1.294576	0.352534	-0.520074	-1.244242	0.357781	-0.503520	-1.286948	0.313201	-0.519589	-1.245549	0.317287	-0.503564	-1.284835	0.090158	-0.497930	-1.273452	0.112292	-0.408210	-1.143006	0.061239	-0.505849	-1.153942	0.066810	-0.394102	-1.104210	0.100345	-0.451069	-1.352699	0.057351	-0.448255	-1.350352	1.325039	-0.182905	-1.383338	1.316917	-0.545867	
6	0.0250	-1.380658	0.893871	-0.185958	-1.379638	0.905493	-0.449805	-1.530641	0.915560	-0.263174	-1.533780	0.919480	-0.364996	-1.436560	0.709383	-0.172004	-1.387393	0.709787	-0.182746	-1.445468	0.662089	-0.178488	-1.396248	0.662150	-0.182432	-1.477320	0.412668	-0.250636	-1.460045	0.421251	-0.354367	-1.619199	0.398276	-0.237832	-1.602680	0.350972	-0.262846	-1.667089	0.383466	-0.248290	-1.646685	0.342651	-0.266678	-1.865153	0.321588	-0.298640	-1.842089	0.326628	-0.385776	-1.900573	0.195402	-0.304148	-1.888965	0.196902	-0.407686	-1.857648	0.148281	-0.370870	-1.903312	0.391060	-0.346393	-1.398648	0.742209	-0.505906	-1.345957	0.764620	-0.497809	-1.375171	0.712240	-0.511604	-1.330144	0.735035	-0.498979	-1.244696	0.484257	-0.484784	-1.249349	0.487167	-0.380598	-1.283625	0.350981	-0.519417	-1.233340	0.354869	-0.502467	-1.277017	0.311537	-0.518940	-1.235737	0.314523	-0.502567	-1.282014	0.089251	-0.497747	-1.270364	0.110755	-0.407750	-1.140597	0.056887	-0.504801	-1.151847	0.062227	-0.393276	-1.100790	0.094064	-0.449739	-1.351159	0.057835	-0.448347	-1.334834	1.323185	-0.182097	-1.366662	1.313979	-0.545821	
7	0.0300	-1.364791	0.892461	-0.184721	-1.363358	0.904548	-0.448620	-1.514962	0.913710	-0.262196	-1.517755	0.918237	-0.363990	-1.418350	0.707688	-0.170486	-1.369124	0.709076	-0.181348	-1.426158	0.660263	-0.176644	-1.376901	0.661400	-0.180621	-1.451622	0.410390	-0.247908	-1.433880	0.418799	-0.352002	-1.593163	0.397321	-0.234976	-1.577155	0.349643	-0.260165	-1.641281	0.383218	-0.245317	-1.621377	0.341827	-0.264027	-1.840075	0.324551	-0.295281	-1.816935	0.328561	-0.382498	-1.875894	0.198614	-0.299447	-1.864299	0.198907	-0.403158	-1.833064	0.150503	-0.365691	-1.878165	0.393785	-0.343671	-1.382658	0.740857	-0.504747	-1.329929	0.762831	-0.496506	-1.359489	0.710720	-0.510385	-1.314360	0.733111	-0.497628	-1.231281	0.481488	-0.483687	-1.236381	0.484329	-0.379439	-1.272904	0.349438	-0.518735	-1.222671	0.351961	-0.501425	-1.267323	0.309895	-0.518277	-1.226165	0.311775	-0.501576	-1.279367	0.088413	-0.497548	-1.267443	0.109321	-0.407282	-1.138330	0.052821	-0.503808	-1.149866	0.057916	-0.392512	-1.097552	0.088086	-0.448460	-1.349756	0.058299	-0.448406	-1.319169	1.321472	-0.181221	-1.349758	1.311191	-0.545694	
8	0.0350	-1.348788	0.891220	-0.183442	-1.346880	0.903709	-0.447388	-1.499107	0.912052	-0.261218	-1.501532	0.917173	-0.362985	-1.399995	0.706238	-0.168889	-1.350717	0.708629	-0.179875	-1.406663	0.658697	-0.174721	-1.357385	0.660937	-0.178745	-1.425455	0.408495	-0.245104	-1.407275	0.416771	-0.349557	-1.566645	0.396529	-0.232064	-1.551064	0.348490	-0.257379	-1.614976	0.383049	-0.242264	-1.595492	0.341112	-0.261252	-1.814420	0.327155	-0.291816	-1.791216	0.330191	-0.379118	-1.850368	0.201409	-0.294625	-1.838813	0.200521	-0.398499	-1.807577	0.152404	-0.360383	-1.852591	0.396071	-0.340837	-1.366591	0.739594	-0.503566	-1.313811	0.761072	-0.495160	-1.343765	0.709267	-0.509146	-1.298518	0.731206	-0.496245	-1.218102	0.478700	-0.482583	-1.223619	0.481475	-0.378270	-1.262459	0.347920	-0.518027	-1.212279	0.349075	-0.500397	-1.257910	0.308292	-0.517597	-1.216875	0.309061	-0.500594	-1.276908	0.087662	-0.497332	-1.264705	0.108007	-0.406805	-1.136225	0.049070	-0.502878	-1.148015	0.053907	-0.391814	-1.094521	0.082450	-0.447237	-1.348500	0.058753	-0.448431	-1.303361	1.319929	-0.180269	-1.332613	1.308585	-0.545471	
9	0.0400	-1.332643	0.890176	-0.182117	-1.330202	0.902991	-0.446106	-1.483070	0.910614	-0.260236	-1.485105	0.916307	-0.361975	-1.381493	0.705073	-0.167203	-1.332175	0.708485	-0.178320	-1.386979	0.657429	-0.172713	-1.337700	0.660799	-0.176801	-1.398813	0.407040	-0.242219	-1.380227	0.415227	-0.347025	-1.539637	0.395922	-0.229092	-1.524387	0.347543	-0.254480	-1.588161	0.382965	-0.239126	-1.569003	0.340522	-0.258343	-1.788159	0.329348	-0.288238	-1.764903	0.331473	-0.375629	-1.823933	0.203729	-0.289680	-1.812444	0.201694	-0.393706	-1.781113	0.153942	-0.354945	-1.826576	0.397854	-0.337879	-1.350461	0.738434	-0.502357	-1.297616	0.759356	-0.493769	-1.328017	0.707893	-0.507882	-1.282631	0.729330	-0.494828	-1.205202	0.475907	-0.481473	-1.211101	0.478619	-0.377093	-1.252329	0.346444	-0.517291	-1.202207	0.346229	-0.499387	-1.248814	0.306745	-0.516901	-1.207904	0.306403	-0.499625	-1.274648	0.087017	-0.497098	-1.262158	0.106832	-0.406323	-1.134296	0.045656	-0.502019	-1.146307	0.050221	-0.391186	-1.091723	0.077191	-0.446074	-1.347397	0.059214	-0.448420	-1.287413	1.318581	-0.179234	-1.315217	1.306193	-0.545140	
10	0.0450	-1.316354	0.889355	-0.180745	-1.313322	0.902409	-0.444771	-1.466845	0.909418	-0.259244	-1.468473	0.915659	-0.360955	-1.362842	0.704228	-0.165423	-1.313499	0.708679	-0.176677	-1.367104	0.656499	-0.170613	-1.317848	0.661023	-0.174783	-1.371697	0.406079	-0.239248	-1.352744	0.414220	-0.344398	-1.512136	0.395518	-0.226056	-1.497108	0.346827	-0.251460	-1.560828	0.382973	-0.235898	-1.541894	0.340071	-0.255293	-1.761270	0.331082	-0.284539	-1.737977	0.332368	-0.372024	-1.796540	0.205526	-0.284610	-1.785140	0.202383	-0.388776	-1.753614	0.155082	-0.349383	-1.800111	0.399073	-0.334787	-1.334282	0.737393	-0.501117	-1.281356	0.757694	-0.492331	-1.312262	0.706616	-0.506590	-1.266718	0.727496	-0.493377	-1.192620	0.473125	-0.480360	-1.198862	0.475773	-0.375909	-1.242549	0.345027	-0.516528	-1.192488	0.343447	-0.498399	-1.240065	0.305273	-0.516187	-1.199285	0.303822	-0.498672	-1.272591	0.086497	-0.496846	-1.259807	0.105814	-0.405837	-1.132557	0.042594	-0.501237	-1.144756	0.046872	-0.390629	-1.089174	0.072333	-0.444976	-1.346444	0.059701	-0.448373	-1.271331	1.317455	-0.178109	-1.297560	1.304042	-0.544687	
11	0.0500	-1.299914	0.888780	-0.179324	-1.296243	0.901978	-0.443382	-1.450429	0.908485	-0.258236	-1.451634	0.915245	-0.359920	-1.344042	0.703736	-0.163541	-1.294690	0.709243	-0.174942	-1.347040	0.655940	-0.168417	-1.297835	0.661642	-0.172691	-1.344120	0.405658	-0.236188	-1.324843	0.413798	-0.341671	-1.484149	0.395335	-0.222950	-1.469226	0.346364	-0.248316	-1.532982	0.383075	-0.232574	-1.514159	0.339768	-0.252097	-1.733744	0.332310	-0.280715	-1.710426	0.332840	-0.368297	-1.768155	0.206754	-0.279417	-1.756863	0.202552	-0.383712	-1.725033	0.155792	-0.343702	-1.773192	0.399676	-0.331552	-1.318067	0.736487	-0.499840	-1.265045	0.756098	-0.490846	-1.296516	0.705450	-0.505266	-1.250792	0.725716	-0.491891	-1.180389	0.470375	-0.479244	-1.186930	0.472954	-0.374718	-1.233145	0.343692	-0.515737	-1.183150	0.340754	-0.497435	-1.231688	0.303900	-0.515454	-1.191040	0.301344	-0.497738	-1.270732	0.086120	-0.496577	-1.257647	0.104966	-0.405350	-1.131016	0.039888	-0.500537	-1.143369	0.043869	-0.390141	-1.086891	0.067894	-0.443943	-1.345635	0.060238	-0.448291	-1.255123	1.316572	-0.176892	-1.279637	1.302162	-0.544104	
12	0.0550	-1.283322	0.888473	-0.177853	-1.278972	0.901708	-0.441937	-1.433820	0.907831	-0.257203	-1.434591	0.915077	-0.358861	-1.325095	0.703628	-0.161555	-1.275752	0.710203	-0.173112	-1.326790	0.655783	-0.166123	-1.277667	0.662682	-0.170523	-1.316106	0.405817	-0.233037	-1.296552	0.413998	-0.338839	-1.455696	0.395384	-0.219771	-1.440752	0.346174	-0.245043	-1.504636	0.383272	-0.229153	-1.485805	0.339624	-0.248753	-1.705576	0.332997	-0.276760	-1.682250	0.332859	-0.364446	-1.738756	0.207381	-0.274108	-1.727586	0.202172	-0.378519	-1.695342	0.156051	-0.337913	-1.745821	0.399614	-0.328165	-1.301834	0.735731	-0.498521	-1.248698	0.754583	-0.489313	-1.280799	0.704411	-0.503906	-1.234874	0.724004	-0.490374	-1.168534	0.467680	-0.478129	-1.175331	0.470182	-0.373524	-1.224137	0.342460	-0.514919	-1.174213	0.338177	-0.496499	-1.223698	0.302647	-0.514704	-1.183186	0.298994	-0.496827	-1.269063	0.085907	-0.496293	-1.255668	0.104306	-0.404865	-1.129676	0.037538	-0.499922	-1.142151	0.041209	-0.389720	-1.084882	0.063882	-0.442977	-1.344955	0.060852	-0.448175	-1.238798	1.315953	-0.175577	-1.261446	1.300575	-0.543379	
13	0.0600	-1.266575	0.888451	-0.176331	-1.261517	0.901612	-0.440436	-1.417020	0.907470	-0.256138	-1.417351	0.915164	-0.357770	-1.306002	0.703926	-0.159461	-1.256691	0.711581	-0.171186	-1.306359	0.656052	-0.163731	-1.257352	0.664166	-0.168280	-1.287690	0.406589	-0.229796	-1.267914	0.414850	-0.335899	-1.426806	0.395673	-0.216516	-1.411708	0.346273	-0.241641	-1.475814	0.383562	-0.225631	-1.456851	0.339643	-0.245261	-1.676776	0.333108	-0.272673	-1.653457	0.332399	-0.360469	-1.708338	0.207379	-0.268690	-1.697301	0.201224	-0.373206	-1.664526	0.155842	-0.332032	-1.718008	0.398846	-0.324619	-1.285597	0.735137	-0.497155	-1.232334	0.753161	-0.487736	-1.265126	0.703513	-0.502507	-1.218979	0.722377	-0.488826	-1.157077	0.465065	-0.477017	-1.164081	0.467478	-0.372328	-1.215537	0.341357	-0.514076	-1.165690	0.335745	-0.495595	-1.216102	0.301539	-0.513936	-1.175731	0.296802	-0.495943	-1.267568	0.085875	-0.495995	-1.253853	0.103845	-0.404385	-1.128540	0.035533	-0.499394	-1.141105	0.038888	-0.389362	-1.083154	0.060300	-0.442079	-1.344386	0.061574	-0.448030	-1.222367	1.315615	-0.174163	-1.242989	1.299304	-0.542505	
14	0.0650	-1.249672	0.888729	-0.174761	-1.243891	0.901697	-0.438881	-1.400031	0.907411	-0.255031	-1.399923	0.915511	-0.356640	-1.286768	0.704651	-0.157260	-1.237513	0.713392	-0.169165	-1.285757	0.656767	-0.161242	-1.236904	0.666107	-0.165964	-1.258922	0.407996	-0.226466	-1.238981	0.416372	-0.332848	-1.397518	0.396206	-0.213182	-1.382131	0.346672	-0.238110	-1.446550	0.383939	-0.222008	-1.427327	0.339829	-0.241623	-1.647360	0.332620	-0.268454	-1.624067	0.331441	-0.356366	-1.676908	0.206732	-0.263173	-1.666011	0.199698	-0.367783	-1.632591	0.155160	-0.326073	-1.689768	0.397340	-0.320909	-1.269376	0.734720	-0.495739	-1.215969	0.751850	-0.486117	-1.249517	0.702773	-0.501066	-1.203127	0.720849	-0.487252	-1.146030	0.462558	-0.475913	-1.153189	0.464866	-0.371134	-1.207346	0.340407	-0.513211	-1.157584	0.333488	-0.494725	-1.208900	0.300601	-0.513153	-1.168674	0.294797	-0.495089	-1.266223	0.086046	-0.495688	-1.252179	0.103597	-0.403917	-1.127604	0.033858	-0.498956	-1.140231	0.036892	-0.389062	-1.081706	0.057140	-0.441249	-1.343899	0.062438	-0.447858	-1.205844	1.315570	-0.172650	-1.224275	1.298365	-0.541475	
15	0.0700	-1.232615	0.889317	-0.173143	-1.226111	0.901970	-0.437272	-1.382861	0.907658	-0.253874	-1.382320	0.916118	-0.355462	-1.267400	0.705815	-0.154954	-1.218226	0.715645	-0.167052	-1.264996	0.657940	-0.158658	-1.216336	0.668513	-0.163579	-1.229859	0.410050	-0.223051	-1.209814	0.418570	-0.329688	-1.367882	0.396980	-0.209765	-1.352067	0.347378	-0.234455	-1.416888	0.384397	-0.218283	-1.397277	0.340183	-0.237845	-1.617352	0.331515	-0.264102	-1.594105	0.329970	-0.352137	-1.644490	0.205435	-0.257570	-1.633737	0.197592	-0.362265	-1.599555	0.154006	-0.320059	-1.661117	0.395071	-0.317031	-1.253186	0.734491	-0.494268	-1.199622	0.750664	-0.484460	-1.233986	0.702206	-0.499579	-1.187336	0.719440	-0.485655	-1.135396	0.460190	-0.474818	-1.142657	0.462371	-0.369947	-1.199561	0.339638	-0.512327	-1.149890	0.331437	-0.493894	-1.202081	0.299860	-0.512356	-1.162005	0.293007	-0.494270	-1.265000	0.086438	-0.495374	-1.250617	0.103574	-0.403464	-1.126861	0.032493	-0.498608	-1.139523	0.035204	-0.388814	-1.080534	0.054388	-0.440487	-1.343465	0.063479	-0.447665	-1.189244	1.315828	-0.171038	-1.205315	1.297771	-0.540286	
16	0.0750	-1.215406	0.890220	-0.171482	-1.208193	0.902436	-0.435613	-1.365517	0.908213	-0.252657	-1.364557	0.916985	-0.354225	-1.247905	0.707424	-0.152545	-1.198839	0.718342	-0.164849	-1.244092	0.659579	-0.155985	-1.195664	0.671385	-0.161129	-1.200569	0.412754	-0.219555	-1.180488	0.421441	-0.326419	-1.337954	0.397988	-0.206265	-1.321574	0.348392	-0.230680	-1.386879	0.384924	-0.214458	-1.366751	0.340701	-0.233933	-1.586782	0.329781	-0.259622	-1.563608	0.327979	-0.347786	-1.611115	0.203492	-0.251897	-1.600509	0.194916	-0.356667	-1.565453	0.152391	-0.314009	-1.632079	0.392023	-0.312982	-1.237045	0.734463	-0.492739	-1.183311	0.749619	-0.482771	-1.218550	0.701826	-0.498046	-1.171622	0.718166	-0.484041	-1.125173	0.457991	-0.473738	-1.132478	0.460020	-0.368770	-1.192165	0.339076	-0.511429	-1.142594	0.329625	-0.493104	-1.195627	0.299340	-0.511549	-1.155706	0.291464	-0.493489	-1.263865	0.087070	-0.495059	-1.249133	0.103786	-0.403032	-1.126303	0.031410	-0.498351	-1.138974	0.033802	-0.388613	-1.079631	0.052025	-0.439791	-1.343045	0.064737	-0.447456	-1.172583	1.316395	-0.169329	-1.186125	1.297533	-0.538935	
17	0.0800	-1.198050	0.891440	-0.169779	-1.190158	0.903098	-0.433907	-1.348009	0.909072	-0.251370	-1.346649	0.918105	-0.352922	-1.228293	0.709479	-0.150040	-1.179363	0.721478	-0.162564	-1.223060	0.661682	-0.153229	-1.174906	0.674714	-0.158622	-1.171129	0.416099	-0.215987	-1.151082	0.424969	-0.323044	-1.307798	0.399218	-0.202680	-1.290717	0.349711	-0.226793	-1.356579	0.385507	-0.210534	-1.335810	0.341378	-0.229896	-1.555687	0.327417	-0.255015	-1.532612	0.325467	-0.343316	-1.576827	0.200918	-0.246168	-1.566368	0.191689	-0.351007	-1.530333	0.150335	-0.307947	-1.602674	0.388186	-0.308760	-1.220967	0.734645	-0.491150	-1.167053	0.748732	-0.481056	-1.203221	0.701647	-0.496466	-1.156001	0.717047	-0.482416	-1.115348	0.455993	-0.472676	-1.122639	0.457841	-0.367609	-1.185136	0.338747	-0.510522	-1.135673	0.328081	-0.492358	-1.189511	0.299068	-0.510735	-1.149748	0.290195	-0.492751	-1.262778	0.087960	-0.494747	-1.247688	0.104242	-0.402627	-1.125914	0.030582	-0.498182	-1.138575	0.032663	-0.388451	-1.078982	0.050024	-0.439163	-1.342596	0.066251	-0.447239	-1.155875	1.317270	-0.167527	-1.166724	1.297653	-0.537422	
18	0.0850	-1.180551	0.892974	-0.168041	-1.172027	0.903956	-0.432158	-1.330348	0.910229	-0.250006	-1.328615	0.919470	-0.351543	-1.208573	0.711972	-0.147446	-1.159808	0.725041	-0.160202	-1.201921	0.664242	-0.150399	-1.154082	0.678487	-0.156063	-1.141619	0.420064	-0.212354	-1.121680	0.429125	-0.319568	-1.277480	0.400651	-0.199007	-1.259570	0.351324	-0.222803	-1.326050	0.386129	-0.206512	-1.304520	0.342203	-0.225746	-1.524104	0.324428	-0.250286	-1.501162	0.322438	-0.338732	-1.541677	0.197739	-0.240402	-1.531367	0.187939	-0.345303	-1.494252	0.147867	-0.301895	-1.572925	0.383562	-0.304364	-1.204966	0.735046	-0.489499	-1.150864	0.748019	-0.479321	-1.188008	0.701682	-0.494838	-1.140486	0.716099	-0.480787	-1.105900	0.454229	-0.471636	-1.113115	0.455862	-0.366471	-1.178442	0.338678	-0.509611	-1.129095	0.326835	-0.491658	-1.183698	0.299068	-0.509918	-1.144097	0.289228	-0.492060	-1.261697	0.089125	-0.494445	-1.246238	0.104953	-0.402256	-1.125681	0.029978	-0.498102	-1.138312	0.031762	-0.388322	-1.078572	0.048355	-0.438602	-1.342072	0.068059	-0.447018	-1.139136	1.318450	-0.165634	-1.147135	1.298131	-0.535747	
19	0.0900	-1.162915	0.894814	-0.166271	-1.153820	0.905010	-0.430371	-1.312545	0.911671	-0.248556	-1.310473	0.921068	-0.350081	-1.188756	0.714890	-0.144771	-1.140185	0.729011	-0.157773	-1.180693	0.667245	-0.147504	-1.133209	0.682680	-0.153463	-1.112126	0.424619	-0.208666	-1.092372	0.433871	-0.315996	-1.247071	0.402266	-0.195245	-1.228210	0.353218	-0.218720	-1.295354	0.386771	-0.202396	-1.272952	0.343167	-0.221493	-1.492071	0.320824	-0.245441	-1.469302	0.318903	-0.334038	-1.505720	0.193990	-0.234615	-1.495561	0.183704	-0.339575	-1.457277	0.145024	-0.295879	-1.542852	0.378158	-0.299795	-1.189052	0.735672	-0.487786	-1.134756	0.747495	-0.477576	-1.172918	0.701941	-0.493163	-1.125086	0.715342	-0.479160	-1.096801	0.452728	-0.470622	-1.103876	0.454110	-0.365360	-1.172043	0.338891	-0.508703	-1.122821	0.325916	-0.491007	-1.178146	0.299361	-0.509103	-1.138709	0.288588	-0.491419	-1.260574	0.090580	-0.494157	-1.244739	0.105925	-0.401924	-1.125584	0.029566	-0.498106	-1.138169	0.031072	-0.388222	-1.078380	0.046985	-0.438108	-1.341424	0.070200	-0.446801	-1.122381	1.319928	-0.163656	-1.127382	1.298963	-0.533913	
20	0.0950	-1.145146	0.896947	-0.164474	-1.135557	0.906254	-0.428549	-1.294613	0.913385	-0.247013	-1.292240	0.922886	-0.348529	-1.168854	0.718213	-0.142025	-1.120503	0.733364	-0.155286	-1.159399	0.670668	-0.144555	-1.112306	0.687266	-0.150828	-1.082735	0.429722	-0.204933	-1.063247	0.439156	-0.312336	-1.216641	0.404035	-0.191395	-1.196716	0.355372	-0.214556	-1.264556	0.387415	-0.198188	-1.241180	0.344254	-0.217150	-1.459626	0.316626	-0.240485	-1.437074	0.314879	-0.329239	-1.469015	0.189715	-0.228823	-1.459014	0.179029	-0.333840	-1.419480	0.141851	-0.289918	-1.512471	0.371991	-0.295051	-1.173230	0.736528	-0.486011	-1.118739	0.747173	-0.475827	-1.157954	0.702435	-0.491443	-1.109807	0.714790	-0.477542	-1.088012	0.451520	-0.469637	-1.094883	0.452611	-0.364282	-1.165891	0.339409	-0.507801	-1.116805	0.325345	-0.490405	-1.172805	0.299968	-0.508295	-1.133534	0.288297	-0.490830	-1.259362	0.092340	-0.493891	-1.243143	0.107164	-0.401637	-1.125602	0.029315	-0.498193	-1.138128	0.030570	-0.388143	-1.078383	0.045877	-0.437682	-1.340598	0.072711	-0.446596	-1.105619	1.321692	-0.161598	-1.107494	1.300139	-0.531924	
21	0.1000	-1.127252	0.899357	-0.162657	-1.117256	0.907684	-0.426698	-1.276563	0.915353	-0.245371	-1.273933	0.924905	-0.346882	-1.148878	0.721913	-0.139221	-1.100773	0.738066	-0.152750	-1.138060	0.674484	-0.141563	-1.091391	0.692206	-0.148168	-1.053535	0.435323	-0.201165	-1.034396	0.444920	-0.308594	-1.186258	0.405927	-0.187454	-1.165171	0.357764	-0.210321	-1.233718	0.388036	-0.193891	-1.209277	0.345447	-0.212729	-1.426804	0.311858	-0.235424	-1.404522	0.310386	-0.324342	-1.431622	0.184967	-0.223044	-1.421788	0.173967	-0.328116	-1.380938	0.138400	-0.284035	-1.481795	0.365082	-0.290136	-1.157505	0.737618	-0.484176	-1.102818	0.747066	-0.474082	-1.143112	0.703170	-0.489679	-1.094651	0.714459	-0.475940	-1.079492	0.450630	-0.468684	-1.086094	0.451390	-0.363243	-1.159934	0.340250	-0.506914	-1.110993	0.325146	-0.489854	-1.167621	0.300906	-0.507498	-1.128517	0.288374	-0.490295	-1.258010	0.094415	-0.493652	-1.241401	0.108677	-0.401401	-1.125714	0.029198	-0.498359	-1.138168	0.030232	-0.388083	-1.078554	0.044993	-0.437324	-1.339541	0.075626	-0.446409	-1.088862	1.323726	-0.159465	-1.087497	1.301644	-0.529786	
22	0.1050	-1.109237	0.902023	-0.160824	-1.098933	0.909292	-0.424823	-1.258406	0.917555	-0.243628	-1.255567	0.927108	-0.345135	-1.128838	0.725956	-0.136369	-1.081003	0.743080	-0.150178	-1.116696	0.678657	-0.138540	-1.070482	0.697461	-0.145493	-1.024610	0.441362	-0.197375	-1.005903	0.451096	-0.304779	-1.155990	0.407907	-0.183424	-1.133652	0.360364	-0.206028	-1.202899	0.388613	-0.189509	-1.177315	0.346728	-0.208243	-1.393637	0.306552	-0.230263	-1.371682	0.305450	-0.319350	-1.393601	0.179806	-0.217291	-1.383950	0.168578	-0.322421	-1.341731	0.134729	-0.278248	-1.450832	0.357462	-0.285051	-1.141874	0.738942	-0.482282	-1.086996	0.747183	-0.472350	-1.128387	0.704151	-0.487874	-1.079615	0.714359	-0.474360	-1.071189	0.450079	-0.467764	-1.077458	0.450467	-0.362246	-1.154113	0.341428	-0.506045	-1.105326	0.325332	-0.489351	-1.162535	0.302186	-0.506718	-1.123597	0.288833	-0.489816	-1.256469	0.096815	-0.493445	-1.239467	0.110466	-0.401220	-1.125894	0.029187	-0.498598	-1.138268	0.030039	-0.388036	-1.078865	0.044296	-0.437034	-1.338199	0.078972	-0.446247	-1.072117	1.326012	-0.157262	-1.067419	1.303461	-0.527506	
23	0.1100	-1.091109	0.904920	-0.158980	-1.080601	0.911068	-0.422928	-1.240152	0.919966	-0.241782	-1.237155	0.929476	-0.343286	-1.108746	0.730306	-0.133483	-1.061203	0.748361	-0.147579	-1.095329	0.683148	-0.135498	-1.049594	0.702982	-0.142812	-0.996040	0.447772	-0.193574	-0.977852	0.457608	-0.300901	-1.125899	0.409938	-0.179306	-1.102239	0.363141	-0.201687	-1.172157	0.389122	-0.185044	-1.145366	0.348076	-0.203705	-1.360151	0.300744	-0.225009	-1.338591	0.300101	-0.314270	-1.355008	0.174296	-0.211577	-1.345562	0.162926	-0.316768	-1.301935	0.130902	-0.272571	-1.419581	0.349167	-0.279799	-1.126332	0.740497	-0.480334	-1.071268	0.747532	-0.470636	-1.113765	0.705380	-0.486033	-1.064690	0.714501	-0.472807	-1.063049	0.449886	-0.466878	-1.068923	0.449859	-0.361294	-1.148365	0.342953	-0.505198	-1.099743	0.325915	-0.488895	-1.157483	0.303817	-0.505958	-1.118711	0.289681	-0.489390	-1.254688	0.099544	-0.493277	-1.237295	0.112534	-0.401098	-1.126117	0.029260	-0.498906	-1.138401	0.029974	-0.388002	-1.079285	0.043749	-0.436812	-1.336521	0.082776	-0.446115	-1.055387	1.328527	-0.154994	-1.047288	1.305568	-0.525090	
24	0.1150	-1.072873	0.908020	-0.157131	-1.062272	0.912999	-0.421018	-1.221809	0.922563	-0.239831	-1.218707	0.931986	-0.341336	-1.088614	0.734917	-0.130575	-1.041379	0.753862	-0.144966	-1.073979	0.687912	-0.132449	-1.028742	0.708718	-0.140133	-0.967902	0.454478	-0.189772	-0.950317	0.464373	-0.296967	-1.096042	0.411981	-0.175099	-1.071003	0.366060	-0.197311	-1.141541	0.389538	-0.180502	-1.113496	0.349469	-0.199125	-1.326370	0.294474	-0.219667	-1.305276	0.294372	-0.309105	-1.315899	0.168508	-0.205914	-1.306686	0.157081	-0.311171	-1.261630	0.126985	-0.267019	-1.388041	0.340236	-0.274384	-1.110867	0.742278	-0.478335	-1.055628	0.748115	-0.468946	-1.099232	0.706855	-0.484159	-1.049866	0.714889	-0.471285	-1.055014	0.450061	-0.466025	-1.060434	0.449581	-0.360389	-1.142625	0.344830	-0.504378	-1.094178	0.326900	-0.488482	-1.152403	0.305804	-0.505223	-1.113794	0.290924	-0.489016	-1.252621	0.102605	-0.493150	-1.234841	0.114881	-0.401037	-1.126355	0.029399	-0.499275	-1.138544	0.030026	-0.387976	-1.079781	0.043317	-0.436657	-1.334456	0.087055	-0.446019	-1.038676	1.331246	-0.152667	-1.027130	1.307941	-0.522547	
25	0.1200	-1.054533	0.911291	-0.155281	-1.043951	0.915073	-0.419097	-1.203387	0.925319	-0.237779	-1.200233	0.934616	-0.339285	-1.068451	0.739741	-0.127657	-1.021538	0.759529	-0.142348	-1.052668	0.692898	-0.129405	-1.007939	0.714613	-0.137466	-0.940263	0.461401	-0.185980	-0.923365	0.471306	-0.292987	-1.066471	0.413997	-0.170806	-1.040013	0.369083	-0.192910	-1.111099	0.389840	-0.175885	-1.081766	0.350885	-0.194514	-1.292312	0.287788	-0.214244	-1.271761	0.288299	-0.303862	-1.276326	0.162517	-0.200309	-1.267381	0.151114	-0.305638	-1.220891	0.123050	-0.261600	-1.356202	0.330716	-0.268810	-1.095465	0.744276	-0.476290	-1.040064	0.748933	-0.467286	-1.084766	0.708570	-0.482256	-1.035124	0.715524	-0.469796	-1.047023	0.450610	-0.465202	-1.051937	0.449642	-0.359531	-1.136829	0.347059	-0.503587	-1.088568	0.328286	-0.488108	-1.147230	0.308143	-0.504515	-1.108782	0.292558	-0.488690	-1.250223	0.105997	-0.493068	-1.232065	0.117505	-0.401039	-1.126581	0.029592	-0.499698	-1.138669	0.030187	-0.387959	-1.080320	0.042968	-0.436568	-1.331956	0.091822	-0.445964	-1.021982	1.334144	-0.150285	-1.006972	1.310552	-0.519885	
26	0.1250	-1.036096	0.914700	-0.153434	-1.025644	0.917273	-0.417168	-1.184891	0.928204	-0.235629	-1.181738	0.937345	-0.337138	-1.048269	0.744729	-0.124742	-1.001687	0.765307	-0.139737	-1.031412	0.698053	-0.126377	-0.987198	0.720608	-0.134816	-0.913186	0.468460	-0.182209	-0.897057	0.478318	-0.288972	-1.037232	0.415944	-0.166431	-1.009331	0.372173	-0.188493	-1.080872	0.390004	-0.171198	-1.050233	0.352301	-0.189882	-1.257990	0.280732	-0.208746	-1.238065	0.281921	-0.298545	-1.236337	0.156398	-0.194769	-1.227700	0.145098	-0.300178	-1.179789	0.119166	-0.256319	-1.324053	0.320657	-0.263083	-1.080107	0.746481	-0.474205	-1.024559	0.749980	-0.465657	-1.070343	0.710517	-0.480329	-1.020445	0.716403	-0.468342	-1.039015	0.451533	-0.464407	-1.043377	0.450044	-0.358718	-1.130910	0.349633	-0.502825	-1.082846	0.330065	-0.487764	-1.141899	0.310829	-0.503835	-1.103609	0.294576	-0.488406	-1.247453	0.109714	-0.493032	-1.228934	0.120402	-0.401104	-1.126766	0.029830	-0.500166	-1.138748	0.030454	-0.387948	-1.080868	0.042673	-0.436542	-1.328979	0.097081	-0.445954	-1.005303	1.337190	-0.147852	-0.986837	1.313373	-0.517113	
27	0.1300	-1.017566	0.918212	-0.151594	-1.007351	0.919582	-0.415233	-1.166328	0.931190	-0.233389	-1.163225	0.940147	-0.334900	-1.028078	0.749824	-0.121842	-0.981832	0.771139	-0.137143	-1.010233	0.703321	-0.123374	-0.966530	0.726644	-0.132193	-0.886722	0.475570	-0.178467	-0.871441	0.485319	-0.284929	-1.008365	0.417785	-0.161978	-0.979013	0.375289	-0.184069	-1.050894	0.390009	-0.166445	-1.018949	0.353694	-0.185237	-1.223415	0.273356	-0.203179	-1.204202	0.275278	-0.293159	-1.195981	0.150226	-0.189297	-1.187694	0.139107	-0.294795	-1.138394	0.115404	-0.251177	-1.291577	0.310111	-0.257212	-1.064772	0.748876	-0.472086	-1.009093	0.751249	-0.464062	-1.055936	0.712681	-0.478383	-1.005803	0.717519	-0.466922	-1.030928	0.452823	-0.463632	-1.034703	0.450786	-0.357944	-1.124805	0.352540	-0.502093	-1.076950	0.332224	-0.487444	-1.136350	0.313848	-0.503184	-1.098217	0.296963	-0.488157	-1.244273	0.113746	-0.493044	-1.225416	0.123568	-0.401228	-1.126881	0.030109	-0.500668	-1.138753	0.030828	-0.387943	-1.081389	0.042409	-0.436573	-1.325488	0.102829	-0.445991	-0.988635	1.340356	-0.145371	-0.966748	1.316372	-0.514239	
28	0.1350	-0.998949	0.921789	-0.149763	-0.989070	0.921981	-0.413297	-1.147701	0.934247	-0.231067	-1.144696	0.943000	-0.332580	-1.007891	0.754972	-0.118968	-0.961980	0.776965	-0.134574	-0.989146	0.708645	-0.120406	-0.945944	0.732659	-0.129600	-0.860917	0.482646	-0.174762	-0.846556	0.492222	-0.280868	-0.979903	0.419480	-0.157451	-0.949107	0.378393	-0.179644	-1.021196	0.389838	-0.161633	-0.987958	0.355041	-0.180586	-1.188597	0.265711	-0.197551	-1.170182	0.268410	-0.287709	-1.155300	0.144076	-0.183894	-1.147413	0.133211	-0.289491	-1.096772	0.111833	-0.246173	-1.258758	0.299136	-0.251207	-1.049433	0.751443	-0.469939	-0.993644	0.752725	-0.462500	-1.041514	0.715047	-0.476421	-0.991172	0.718859	-0.465533	-1.022703	0.454464	-0.462872	-1.025866	0.451861	-0.357203	-1.118454	0.355763	-0.501387	-1.070820	0.334741	-0.487136	-1.130526	0.317182	-0.502562	-1.092546	0.299698	-0.487933	-1.240653	0.118079	-0.493101	-1.221489	0.126993	-0.401407	-1.126895	0.030433	-0.501193	-1.138654	0.031316	-0.387943	-1.081846	0.042156	-0.436656	-1.321452	0.109055	-0.446077	-0.971970	1.343610	-0.142847	-0.946724	1.319517	-0.511271	
29	0.1400	-0.980251	0.925393	-0.147942	-0.970797	0.924450	-0.411359	-1.129016	0.937344	-0.228672	-1.126150	0.945880	-0.330188	-0.987719	0.760115	-0.116127	-0.942136	0.782726	-0.132038	-0.968170	0.713964	-0.117480	-0.925452	0.738591	-0.127044	-0.835805	0.489605	-0.171101	-0.822431	0.498939	-0.276798	-0.951874	0.420995	-0.152858	-0.919655	0.381444	-0.175225	-0.991804	0.389474	-0.156766	-0.957299	0.356321	-0.175935	-1.153544	0.257848	-0.191869	-1.136013	0.261360	-0.282201	-1.114341	0.138022	-0.178559	-1.106900	0.127478	-0.284265	-1.054986	0.108518	-0.241300	-1.225582	0.287790	-0.245080	-1.034065	0.754161	-0.467771	-0.978186	0.754392	-0.460968	-1.027046	0.717592	-0.474448	-0.976522	0.720405	-0.464171	-1.014283	0.456435	-0.462117	-1.016824	0.453256	-0.356486	-1.111801	0.359278	-0.500704	-1.064400	0.337591	-0.486829	-1.124372	0.320809	-0.501965	-1.086546	0.302756	-0.487724	-1.236567	0.122697	-0.493200	-1.217135	0.130668	-0.401636	-1.126778	0.030807	-0.501727	-1.138424	0.031926	-0.387944	-1.082205	0.041900	-0.436781	-1.316847	0.115741	-0.446211	-0.955304	1.346921	-0.140281	-0.926784	1.322775	-0.508219	
30	0.1450	-0.961478	0.928987	-0.146134	-0.952526	0.926967	-0.409422	-1.110275	0.940451	-0.226216	-1.107586	0.948764	-0.327734	-0.967574	0.765198	-0.113330	-0.922308	0.788362	-0.129543	-0.947320	0.719222	-0.114603	-0.905061	0.744381	-0.124527	-0.811411	0.496366	-0.167489	-0.799084	0.505390	-0.272726	-0.924300	0.422297	-0.148206	-0.890692	0.384406	-0.170817	-0.962738	0.388902	-0.151853	-0.927009	0.357513	-0.171290	-1.118265	0.249820	-0.186141	-1.101702	0.254169	-0.276642	-1.073149	0.132130	-0.173289	-1.066201	0.121973	-0.279113	-1.013097	0.105519	-0.236549	-1.192036	0.276134	-0.238845	-1.018639	0.757003	-0.465589	-0.962692	0.756226	-0.459464	-1.012498	0.720291	-0.472468	-0.961822	0.722134	-0.462829	-1.005617	0.458709	-0.461357	-1.007538	0.454952	-0.355782	-1.104795	0.363056	-0.500040	-1.057642	0.340740	-0.486511	-1.117842	0.324698	-0.501389	-1.080171	0.306105	-0.487516	-1.231995	0.127578	-0.493337	-1.212341	0.134581	-0.401906	-1.126500	0.031243	-0.502255	-1.138032	0.032673	-0.387946	-1.082430	0.041632	-0.436938	-1.311658	0.122861	-0.446394	-0.938628	1.350258	-0.137675	-0.906945	1.326114	-0.505090	
31	0.1500	-0.942637	0.932531	-0.144338	-0.934249	0.929508	-0.407486	-1.091484	0.943537	-0.223713	-1.089000	0.951628	-0.325232	-0.947468	0.770163	-0.110581	-0.902502	0.793815	-0.127095	-0.926613	0.724358	-0.111778	-0.884780	0.749969	-0.122052	-0.787752	0.502854	-0.163930	-0.776521	0.511497	-0.268660	-0.897198	0.423356	-0.143507	-0.862247	0.387243	-0.166424	-0.934017	0.388111	-0.146901	-0.897115	0.358596	-0.166654	-1.082774	0.241677	-0.180378	-1.067255	0.246878	-0.271040	-1.031772	0.126464	-0.168077	-1.025360	0.116753	-0.274031	-0.971166	0.102891	-0.231906	-1.158112	0.264231	-0.232520	-1.003127	0.759943	-0.463399	-0.947135	0.758201	-0.457980	-0.997840	0.723115	-0.470482	-0.947041	0.724019	-0.461499	-0.996657	0.461250	-0.460581	-0.997978	0.456924	-0.355077	-1.097391	0.367064	-0.499387	-1.050502	0.344152	-0.486168	-1.110896	0.328817	-0.500829	-1.073381	0.309710	-0.487296	-1.226925	0.132697	-0.493504	-1.207104	0.138717	-0.402207	-1.126029	0.031755	-0.502761	-1.137451	0.033571	-0.387943	-1.082484	0.041349	-0.437114	-1.305874	0.130380	-0.446622	-0.921935	1.353589	-0.135031	-0.887219	1.329502	-0.501890	
32	0.1550	-0.923734	0.935988	-0.142553	-0.915958	0.932049	-0.405549	-1.072644	0.946572	-0.221177	-1.070390	0.954448	-0.322695	-0.927415	0.774957	-0.107887	-0.882728	0.799030	-0.124696	-0.906064	0.729318	-0.109010	-0.864618	0.755301	-0.119621	-0.764835	0.508998	-0.160426	-0.754739	0.517192	-0.264608	-0.870581	0.424147	-0.138769	-0.834342	0.389921	-0.162049	-0.905656	0.387094	-0.141920	-0.867644	0.359554	-0.162031	-1.047089	0.233471	-0.174589	-1.032682	0.239527	-0.265403	-0.990262	0.121080	-0.162919	-0.984422	0.111868	-0.269011	-0.929253	0.100678	-0.227358	-1.123810	0.252145	-0.226127	-0.987500	0.762948	-0.461208	-0.931486	0.760286	-0.456510	-0.983038	0.726031	-0.468495	-0.932148	0.726031	-0.460173	-0.987362	0.464019	-0.459778	-0.988117	0.459142	-0.354357	-1.089553	0.371262	-0.498736	-1.042943	0.347783	-0.485785	-1.103498	0.333128	-0.500279	-1.066146	0.313528	-0.487049	-1.221347	0.138028	-0.493691	-1.201425	0.143060	-0.402528	-1.125337	0.032361	-0.503227	-1.136652	0.034637	-0.387930	-1.082333	0.041054	-0.437292	-1.299496	0.138261	-0.446890	-0.905218	1.356882	-0.132350	-0.867618	1.332905	-0.498628	
33	0.1600	-0.904778	0.939321	-0.140779	-0.897645	0.934566	-0.403613	-1.053762	0.949526	-0.218621	-1.051752	0.957202	-0.320137	-0.907429	0.779529	-0.105250	-0.862993	0.803954	-0.122350	-0.885685	0.734047	-0.106298	-0.844584	0.760324	-0.117232	-0.742657	0.514734	-0.156979	-0.733725	0.522414	-0.260575	-0.844458	0.424651	-0.134007	-0.806995	0.392410	-0.157694	-0.877669	0.385845	-0.136919	-0.838616	0.360371	-0.157424	-1.011233	0.225248	-0.168787	-0.997997	0.232155	-0.259743	-0.948677	0.116026	-0.157808	-0.943435	0.107361	-0.264045	-0.887419	0.098916	-0.222887	-1.089140	0.239940	-0.219688	-0.971732	0.765985	-0.459021	-0.915719	0.762449	-0.455046	-0.968064	0.729004	-0.466508	-0.917115	0.728133	-0.458840	-0.977695	0.466970	-0.458934	-0.977937	0.461573	-0.353606	-1.081248	0.375609	-0.498080	-1.034937	0.351587	-0.485346	-1.095622	0.337592	-0.499728	-1.058440	0.317517	-0.486759	-1.215263	0.143541	-0.493889	-1.195309	0.147593	-0.402854	-1.124391	0.033078	-0.503634	-1.135606	0.035890	-0.387901	-1.081942	0.040754	-0.437454	-1.292529	0.146457	-0.447194	-0.888473	1.360107	-0.129632	-0.848154	1.336294	-0.495309	
34	0.1650	-0.885779	0.942495	-0.139011	-0.879301	0.937033	-0.401675	-1.034840	0.952371	-0.216060	-1.033084	0.959868	-0.317573	-0.887522	0.783829	-0.102672	-0.843309	0.808539	-0.120057	-0.865491	0.738496	-0.103643	-0.824686	0.764990	-0.114886	-0.721209	0.520005	-0.153590	-0.713453	0.527112	-0.256567	-0.818834	0.424851	-0.129233	-0.780215	0.394682	-0.153361	-0.850068	0.384363	-0.131911	-0.810051	0.361030	-0.152836	-0.975239	0.217058	-0.162986	-0.963220	0.224799	-0.254071	-0.907082	0.111344	-0.152734	-0.902454	0.103264	-0.259125	-0.845731	0.097631	-0.218475	-1.054123	0.227683	-0.213230	-0.955800	0.769019	-0.456844	-0.899811	0.764653	-0.453578	-0.952890	0.731996	-0.464521	-0.901913	0.730288	-0.457490	-0.967627	0.470053	-0.458036	-0.967423	0.464176	-0.352807	-1.072454	0.380060	-0.497408	-1.026461	0.355514	-0.484838	-1.087249	0.342164	-0.499167	-1.050247	0.321631	-0.486410	-1.208675	0.149205	-0.494084	-1.188767	0.152298	-0.403170	-1.123160	0.033929	-0.503963	-1.134287	0.037347	-0.387847	-1.081277	0.040462	-0.437580	-1.284987	0.154918	-0.447525	-0.871694	1.363235	-0.126877	-0.828832	1.339637	-0.491940	
35	0.1700	-0.866745	0.945477	-0.137248	-0.860919	0.939424	-0.399734	-1.015887	0.955079	-0.213508	-1.014383	0.962422	-0.315018	-0.867710	0.787814	-0.100154	-0.823685	0.812741	-0.117817	-0.845493	0.742617	-0.101044	-0.804933	0.769256	-0.112580	-0.700471	0.524765	-0.150257	-0.693894	0.531245	-0.252589	-0.793713	0.424736	-0.124463	-0.754011	0.396712	-0.149053	-0.822863	0.382648	-0.126907	-0.781963	0.361522	-0.148270	-0.939151	0.208942	-0.157201	-0.928376	0.217495	-0.248402	-0.865551	0.107063	-0.147693	-0.861538	0.099600	-0.254240	-0.804255	0.096838	-0.214104	-1.018793	0.215440	-0.206782	-0.939681	0.772013	-0.454681	-0.883737	0.766858	-0.452097	-0.937493	0.734967	-0.462536	-0.886518	0.732456	-0.456110	-0.957135	0.473213	-0.457071	-0.956568	0.466909	-0.351942	-1.063154	0.384569	-0.496708	-1.017500	0.359513	-0.484244	-1.078364	0.346800	-0.498586	-1.041558	0.325820	-0.485985	-1.201594	0.154988	-0.494263	-1.181816	0.157155	-0.403460	-1.121616	0.034932	-0.504193	-1.132666	0.039026	-0.387756	-1.080303	0.040195	-0.437649	-1.276891	0.163592	-0.447873	-0.854878	1.366236	-0.124085	-0.809661	1.342906	-0.488525	
36	0.1750	-0.847689	0.948236	-0.135485	-0.842493	0.941714	-0.397789	-0.996907	0.957623	-0.210979	-0.995649	0.964844	-0.312485	-0.848006	0.791445	-0.097692	-0.804132	0.816520	-0.115628	-0.825701	0.746371	-0.098496	-0.785331	0.773085	-0.110309	-0.680419	0.528974	-0.146978	-0.675004	0.534781	-0.248647	-0.769095	0.424301	-0.119712	-0.728384	0.398481	-0.144772	-0.796067	0.380707	-0.121924	-0.754367	0.361833	-0.143729	-0.903021	0.200944	-0.151449	-0.893503	0.210275	-0.242751	-0.824166	0.103203	-0.142679	-0.820752	0.096382	-0.249384	-0.763065	0.096538	-0.209758	-0.983198	0.203275	-0.200377	-0.923358	0.774927	-0.452536	-0.867480	0.769026	-0.450592	-0.921854	0.737876	-0.460551	-0.870909	0.734595	-0.454689	-0.946199	0.476397	-0.456029	-0.945367	0.469726	-0.350994	-1.053336	0.389087	-0.495969	-1.008046	0.363531	-0.483552	-1.068962	0.351454	-0.497972	-1.032368	0.330035	-0.485470	-1.194033	0.160857	-0.494409	-1.174471	0.162144	-0.403705	-1.119727	0.036109	-0.504304	-1.130718	0.040942	-0.387617	-1.078989	0.039973	-0.437637	-1.268264	0.172424	-0.448228	-0.838022	1.369082	-0.121256	-0.790643	1.346073	-0.485069	
37	0.1800	-0.828620	0.950745	-0.133718	-0.824019	0.943877	-0.395837	-0.977908	0.959978	-0.208485	-0.976883	0.967111	-0.309986	-0.828424	0.794686	-0.095286	-0.784661	0.819844	-0.113485	-0.806123	0.749721	-0.095996	-0.765889	0.776446	-0.108071	-0.661019	0.532605	-0.143752	-0.656737	0.537701	-0.244744	-0.744977	0.423543	-0.114996	-0.703333	0.399972	-0.140520	-0.769691	0.378545	-0.116975	-0.727273	0.361957	-0.139219	-0.866913	0.193101	-0.145750	-0.858645	0.203170	-0.237137	-0.783021	0.099774	-0.137686	-0.780173	0.093610	-0.244549	-0.722241	0.096719	-0.205419	-0.947401	0.191254	-0.194049	-0.906816	0.777724	-0.450412	-0.851024	0.771117	-0.449053	-0.905957	0.740680	-0.458565	-0.855069	0.736664	-0.453217	-0.934809	0.479545	-0.454895	-0.933816	0.472576	-0.349947	-1.042998	0.393565	-0.495179	-0.998096	0.367514	-0.482747	-1.059041	0.356079	-0.497313	-1.022681	0.334228	-0.484850	-1.186010	0.166782	-0.494505	-1.166752	0.167244	-0.403888	-1.117462	0.037479	-0.504276	-1.128415	0.043108	-0.387415	-1.077301	0.039820	-0.437521	-1.259136	0.181357	-0.448576	-0.821126	1.371747	-0.118389	-0.771782	1.349112	-0.481578	
38	0.1850	-0.809552	0.952976	-0.131943	-0.805493	0.945889	-0.393876	-0.958900	0.962121	-0.206038	-0.958086	0.969205	-0.307534	-0.808974	0.797509	-0.092929	-0.765283	0.822687	-0.111384	-0.786766	0.752636	-0.093538	-0.746613	0.779314	-0.105860	-0.642231	0.535637	-0.140576	-0.639037	0.539995	-0.240885	-0.721358	0.422468	-0.110334	-0.678852	0.401171	-0.136301	-0.743746	0.376173	-0.112077	-0.700692	0.361886	-0.134745	-0.830905	0.185449	-0.140122	-0.823859	0.196208	-0.231578	-0.742216	0.096777	-0.132713	-0.739885	0.091274	-0.239730	-0.681867	0.097357	-0.201074	-0.911483	0.179442	-0.187832	-0.890047	0.780366	-0.448311	-0.834357	0.773090	-0.447471	-0.889790	0.743339	-0.456577	-0.838984	0.738621	-0.451684	-0.922954	0.482600	-0.453662	-0.921916	0.475409	-0.348784	-1.032137	0.397956	-0.494326	-0.987651	0.371410	-0.481817	-1.048605	0.360630	-0.496596	-1.012503	0.338350	-0.484109	-1.177543	0.172731	-0.494534	-1.158678	0.172434	-0.403989	-1.114793	0.039056	-0.504090	-1.125729	0.045534	-0.387136	-1.075207	0.039761	-0.437277	-1.249538	0.190334	-0.448901	-0.804189	1.374205	-0.115484	-0.753078	1.351999	-0.478056	
39	0.1900	-0.790496	0.954910	-0.130155	-0.786915	0.947725	-0.391904	-0.939890	0.964031	-0.203646	-0.939262	0.971106	-0.305138	-0.789670	0.799891	-0.090617	-0.746009	0.825027	-0.109318	-0.767633	0.755094	-0.091117	-0.727507	0.781671	-0.103670	-0.624009	0.538063	-0.137448	-0.621845	0.541667	-0.237073	-0.698230	0.421083	-0.105742	-0.654934	0.402068	-0.132119	-0.718246	0.373604	-0.107247	-0.674634	0.361615	-0.130312	-0.795085	0.178019	-0.134587	-0.789214	0.189414	-0.226096	-0.701865	0.094199	-0.127761	-0.699982	0.089352	-0.234925	-0.642034	0.098415	-0.196713	-0.875539	0.167900	-0.181762	-0.873044	0.782815	-0.446233	-0.817473	0.774907	-0.445837	-0.873348	0.745812	-0.454584	-0.822646	0.740425	-0.450080	-0.910631	0.485505	-0.452319	-0.909667	0.478173	-0.347492	-1.020759	0.402214	-0.493398	-0.976718	0.375168	-0.480753	-1.037660	0.365063	-0.495807	-1.001844	0.342354	-0.483236	-1.168652	0.178675	-0.494477	-1.150267	0.177695	-0.403988	-1.111688	0.040857	-0.503726	-1.122633	0.048226	-0.386762	-1.072676	0.039825	-0.436882	-1.239504	0.199303	-0.449186	-0.787212	1.376433	-0.112541	-0.734531	1.354710	-0.474506	
40	0.1950	-0.771465	0.956528	-0.128348	-0.768287	0.949365	-0.389920	-0.920888	0.965689	-0.201318	-0.920416	0.972794	-0.302807	-0.770518	0.801815	-0.088344	-0.726847	0.826854	-0.107278	-0.748725	0.757076	-0.088725	-0.708576	0.783505	-0.101495	-0.606304	0.539881	-0.134364	-0.605095	0.542726	-0.233311	-0.675587	0.419401	-0.101238	-0.631569	0.402658	-0.127981	-0.693202	0.370853	-0.102502	-0.649106	0.361140	-0.125930	-0.759553	0.170839	-0.129167	-0.754789	0.182810	-0.220713	-0.662088	0.092020	-0.122834	-0.660568	0.087815	-0.230135	-0.602841	0.099844	-0.192330	-0.839679	0.156689	-0.175877	-0.855806	0.785035	-0.444178	-0.800367	0.776532	-0.444144	-0.856628	0.748059	-0.452583	-0.806048	0.742038	-0.448400	-0.897838	0.488204	-0.450859	-0.897066	0.480816	-0.346058	-1.008869	0.406294	-0.492384	-0.965305	0.378741	-0.479546	-1.026216	0.369337	-0.494932	-0.990717	0.346197	-0.482220	-1.159357	0.184590	-0.494315	-1.141531	0.183006	-0.403866	-1.108117	0.042893	-0.503170	-1.119097	0.051187	-0.386278	-1.069673	0.040039	-0.436315	-1.229065	0.208211	-0.449411	-0.770195	1.378409	-0.109558	-0.716137	1.357226	-0.470932	
41	0.2000	-0.752469	0.957815	-0.126517	-0.749609	0.950786	-0.387921	-0.901905	0.967078	-0.199060	-0.901555	0.974254	-0.300547	-0.751528	0.803273	-0.086102	-0.707805	0.828160	-0.105256	-0.730040	0.758573	-0.086356	-0.689820	0.784814	-0.099328	-0.589059	0.541101	-0.131324	-0.588720	0.543195	-0.229604	-0.653421	0.417438	-0.096837	-0.608743	0.402939	-0.123892	-0.668628	0.367937	-0.097860	-0.624117	0.360462	-0.121607	-0.724418	0.163934	-0.123884	-0.720675	0.176416	-0.215451	-0.623013	0.090208	-0.117937	-0.621754	0.086620	-0.225363	-0.564390	0.101582	-0.187923	-0.804029	0.145868	-0.170210	-0.838336	0.786993	-0.442145	-0.783040	0.777931	-0.442387	-0.839632	0.750044	-0.450571	-0.789189	0.743423	-0.446636	-0.884573	0.490646	-0.449276	-0.884110	0.483286	-0.344472	-0.996475	0.410156	-0.491272	-0.953419	0.382082	-0.478188	-1.014284	0.373414	-0.493959	-0.979134	0.349838	-0.481051	-1.149675	0.190449	-0.494027	-1.132482	0.188348	-0.403603	-1.104048	0.045170	-0.502406	-1.115090	0.054415	-0.385666	-1.066167	0.040429	-0.435555	-1.218250	0.217009	-0.449555	-0.753140	1.380112	-0.106535	-0.697892	1.359526	-0.467339	
42	0.2050	-0.733520	0.958761	-0.124658	-0.730888	0.951972	-0.385906	-0.882949	0.968185	-0.196874	-0.882685	0.975470	-0.298362	-0.732701	0.804259	-0.083885	-0.688889	0.828946	-0.103243	-0.711574	0.759580	-0.084004	-0.671239	0.785599	-0.097164	-0.572216	0.541741	-0.128326	-0.572649	0.543102	-0.225955	-0.631722	0.415216	-0.092557	-0.586442	0.402910	-0.119862	-0.644538	0.364874	-0.093339	-0.599673	0.359578	-0.117355	-0.689799	0.157324	-0.118762	-0.686972	0.170249	-0.210334	-0.584775	0.088726	-0.113082	-0.583660	0.085718	-0.220616	-0.526791	0.103559	-0.183494	-0.768726	0.135490	-0.164797	-0.820640	0.788658	-0.440130	-0.765495	0.779074	-0.440561	-0.822366	0.751735	-0.448544	-0.772072	0.744551	-0.444785	-0.870836	0.492781	-0.447567	-0.870790	0.485533	-0.342725	-0.983583	0.413763	-0.490051	-0.941071	0.385153	-0.476675	-1.001872	0.377259	-0.492873	-0.967106	0.353240	-0.479722	-1.139620	0.196234	-0.493596	-1.123124	0.193701	-0.403181	-1.099449	0.047694	-0.501422	-1.110580	0.057902	-0.384908	-1.062123	0.041022	-0.434587	-1.207086	0.225655	-0.449595	-0.736047	1.381524	-0.103472	-0.679790	1.361594	-0.463730	
43	0.2100	-0.714627	0.959360	-0.122766	-0.712127	0.952906	-0.383874	-0.864030	0.969000	-0.194763	-0.863815	0.976428	-0.296254	-0.714040	0.804777	-0.081686	-0.670103	0.829222	-0.101228	-0.693315	0.760101	-0.081662	-0.652828	0.785872	-0.094995	-0.555714	0.541825	-0.125370	-0.556812	0.542486	-0.222368	-0.610478	0.412756	-0.088413	-0.564649	0.402576	-0.115901	-0.620943	0.361685	-0.088958	-0.575781	0.358492	-0.113184	-0.655821	0.151026	-0.113822	-0.653790	0.164323	-0.205386	-0.547510	0.087526	-0.108282	-0.546415	0.085055	-0.215906	-0.490154	0.105696	-0.179052	-0.733918	0.125606	-0.159667	-0.802726	0.790004	-0.438132	-0.747740	0.779936	-0.438662	-0.804836	0.753101	-0.446498	-0.754700	0.745393	-0.442847	-0.856626	0.494568	-0.445729	-0.857093	0.487510	-0.340812	-0.970201	0.417083	-0.488712	-0.928265	0.387917	-0.475002	-0.988989	0.380841	-0.491663	-0.954645	0.356371	-0.478225	-1.129202	0.201927	-0.493001	-1.113455	0.199048	-0.402581	-1.094287	0.050464	-0.500211	-1.105529	0.061637	-0.383991	-1.057505	0.041839	-0.433396	-1.195592	0.234108	-0.449505	-0.718914	1.382632	-0.100369	-0.661821	1.363415	-0.460110	
44	0.2150	-0.695797	0.959611	-0.120836	-0.693333	0.953576	-0.381824	-0.845154	0.969515	-0.192725	-0.844951	0.977117	-0.294223	-0.695542	0.804837	-0.079497	-0.651447	0.829003	-0.099202	-0.675254	0.760145	-0.079325	-0.634580	0.785648	-0.092816	-0.539489	0.541385	-0.122456	-0.541138	0.541390	-0.218848	-0.589678	0.410085	-0.084418	-0.543349	0.401943	-0.112019	-0.597858	0.358391	-0.084731	-0.552447	0.357205	-0.109110	-0.622615	0.145053	-0.109087	-0.621245	0.158650	-0.200630	-0.511358	0.086556	-0.103554	-0.510147	0.084567	-0.211248	-0.454594	0.107907	-0.174612	-0.699761	0.116262	-0.154849	-0.784605	0.791007	-0.436146	-0.729782	0.780496	-0.436692	-0.787054	0.754118	-0.444430	-0.737080	0.745928	-0.440820	-0.841941	0.495968	-0.443761	-0.843003	0.489173	-0.338731	-0.956331	0.420087	-0.487245	-0.915006	0.390344	-0.473169	-0.975640	0.384135	-0.490316	-0.941754	0.359204	-0.476558	-1.118424	0.207514	-0.492224	-1.103464	0.204371	-0.401785	-1.088526	0.053478	-0.498765	-1.099901	0.065605	-0.382898	-1.052276	0.042902	-0.431972	-1.183780	0.242336	-0.449260	-0.701740	1.383421	-0.097225	-0.643975	1.364976	-0.456482	
45	0.2200	-0.677037	0.959516	-0.118864	-0.674511	0.953973	-0.379755	-0.826329	0.969727	-0.190759	-0.826101	0.977528	-0.292266	-0.677201	0.804454	-0.077312	-0.632919	0.828310	-0.097154	-0.657372	0.759728	-0.076987	-0.616486	0.784949	-0.090622	-0.523479	0.540459	-0.119587	-0.525561	0.539862	-0.215397	-0.569307	0.407231	-0.080587	-0.522522	0.401020	-0.108228	-0.575293	0.355016	-0.080677	-0.529674	0.355723	-0.105146	-0.590313	0.139415	-0.104576	-0.589460	0.153238	-0.196088	-0.476456	0.085762	-0.098918	-0.474992	0.084192	-0.206660	-0.420225	0.110102	-0.170190	-0.666414	0.107498	-0.150367	-0.766291	0.791650	-0.434167	-0.711631	0.780739	-0.434649	-0.769030	0.754766	-0.442335	-0.719220	0.746138	-0.438708	-0.826774	0.496950	-0.441664	-0.828495	0.490484	-0.336478	-0.941973	0.422754	-0.485641	-0.901294	0.392411	-0.471175	-0.961826	0.387121	-0.488822	-0.928435	0.361717	-0.474717	-1.107283	0.212983	-0.491247	-1.093132	0.209653	-0.400779	-1.082130	0.056727	-0.497083	-1.093653	0.069785	-0.381616	-1.046395	0.044224	-0.430311	-1.171656	0.250309	-0.448831	-0.684519	1.383883	-0.094040	-0.626240	1.366266	-0.452851	
46	0.2250	-0.658349	0.959082	-0.116848	-0.655669	0.954089	-0.377667	-0.807559	0.969637	-0.188859	-0.807272	0.977655	-0.290381	-0.659007	0.803649	-0.075124	-0.614512	0.827170	-0.095077	-0.639650	0.758872	-0.074645	-0.598532	0.783805	-0.088407	-0.507621	0.539089	-0.116766	-0.510013	0.537954	-0.212023	-0.549351	0.404223	-0.076928	-0.502151	0.399818	-0.104542	-0.553261	0.351580	-0.076808	-0.507468	0.354051	-0.101307	-0.559048	0.134118	-0.100309	-0.558560	0.148095	-0.191780	-0.442939	0.085084	-0.094397	-0.441082	0.083862	-0.202163	-0.387158	0.112191	-0.165812	-0.634039	0.099348	-0.146238	-0.747795	0.791919	-0.432189	-0.693298	0.780655	-0.432536	-0.750778	0.755031	-0.440209	-0.701127	0.746015	-0.436513	-0.811118	0.497493	-0.439439	-0.813540	0.491409	-0.334057	-0.927122	0.425067	-0.483892	-0.887123	0.394099	-0.469022	-0.947542	0.389783	-0.487169	-0.914684	0.363893	-0.472701	-1.095766	0.218327	-0.490053	-1.082432	0.214878	-0.399545	-1.075059	0.060203	-0.495166	-1.086738	0.074152	-0.380136	-1.039820	0.045816	-0.428409	-1.159214	0.258006	-0.448191	-0.667245	1.384012	-0.090816	-0.608599	1.367279	-0.449220	
47	0.2300	-0.639733	0.958321	-0.114784	-0.636810	0.953922	-0.375561	-0.788845	0.969249	-0.187021	-0.788469	0.977495	-0.288560	-0.640947	0.802449	-0.072928	-0.596218	0.825617	-0.092960	-0.622067	0.757604	-0.072297	-0.580700	0.782248	-0.086168	-0.491855	0.537320	-0.113997	-0.494438	0.535720	-0.208730	-0.529795	0.401092	-0.073453	-0.482218	0.398351	-0.100976	-0.531770	0.348108	-0.073140	-0.485831	0.352197	-0.097610	-0.528948	0.129165	-0.096300	-0.528669	0.143225	-0.187725	-0.410932	0.084464	-0.090014	-0.408547	0.083514	-0.197781	-0.355502	0.114085	-0.161502	-0.602796	0.091841	-0.142478	-0.729130	0.791806	-0.430206	-0.674793	0.780240	-0.430357	-0.732307	0.754904	-0.438049	-0.682811	0.745553	-0.434242	-0.794960	0.497580	-0.437090	-0.798102	0.491921	-0.331470	-0.911770	0.427015	-0.481992	-0.872481	0.395396	-0.466710	-0.932779	0.392111	-0.485349	-0.900489	0.365723	-0.470510	-1.083856	0.223539	-0.488627	-1.071327	0.220030	-0.398072	-1.067269	0.063889	-0.493017	-1.079108	0.078678	-0.378450	-1.032504	0.047685	-0.426272	-1.146439	0.265409	-0.447311	-0.649908	1.383805	-0.087552	-0.591037	1.368011	-0.445596	
48	0.2350	-0.621186	0.957250	-0.112672	-0.617939	0.953475	-0.373437	-0.770188	0.968572	-0.185235	-0.769695	0.977049	-0.286796	-0.623003	0.800884	-0.070720	-0.578024	0.823688	-0.090799	-0.604596	0.755957	-0.069940	-0.562971	0.780315	-0.083903	-0.476122	0.535198	-0.111286	-0.478779	0.533214	-0.205524	-0.510625	0.397868	-0.070169	-0.462705	0.396634	-0.097542	-0.510830	0.344623	-0.069681	-0.464767	0.350168	-0.094069	-0.500136	0.124557	-0.092565	-0.499910	0.138632	-0.183938	-0.380551	0.083845	-0.085794	-0.377510	0.083085	-0.193539	-0.325356	0.115698	-0.157292	-0.572838	0.084997	-0.139094	-0.710308	0.791309	-0.428212	-0.656124	0.779498	-0.428116	-0.713628	0.754383	-0.435851	-0.664277	0.744757	-0.431899	-0.778283	0.497204	-0.434619	-0.782142	0.492002	-0.328722	-0.895900	0.428593	-0.479933	-0.857352	0.396300	-0.464244	-0.917521	0.394100	-0.483352	-0.885832	0.367201	-0.468143	-1.071522	0.228617	-0.486955	-1.059771	0.225093	-0.396347	-1.058718	0.067770	-0.490644	-1.070708	0.083331	-0.376550	-1.024398	0.049827	-0.423904	-1.133307	0.272503	-0.446164	-0.632497	1.383264	-0.084249	-0.573534	1.368458	-0.441982	
49	0.2400	-0.602703	0.955888	-0.110510	-0.599059	0.952753	-0.371295	-0.751583	0.967618	-0.183494	-0.750951	0.976320	-0.285081	-0.605156	0.798991	-0.068496	-0.559915	0.821424	-0.088586	-0.587209	0.753967	-0.067575	-0.545323	0.778048	-0.081610	-0.460372	0.532774	-0.108641	-0.462993	0.530489	-0.202413	-0.491826	0.394581	-0.067081	-0.443597	0.394682	-0.094256	-0.490448	0.341147	-0.066443	-0.444279	0.347975	-0.090699	-0.472724	0.120291	-0.089112	-0.472401	0.134316	-0.180434	-0.351901	0.083174	-0.081764	-0.348087	0.082518	-0.189463	-0.296813	0.116953	-0.153213	-0.544308	0.078830	-0.136088	-0.691339	0.790433	-0.426199	-0.637300	0.778438	-0.425818	-0.694750	0.753472	-0.433612	-0.645532	0.743634	-0.429492	-0.761068	0.496368	-0.432031	-0.765616	0.491639	-0.325818	-0.879493	0.429802	-0.477710	-0.841713	0.396811	-0.461625	-0.901747	0.395751	-0.481171	-0.870689	0.368328	-0.465604	-1.058730	0.233559	-0.485024	-1.047711	0.230052	-0.394359	-1.049356	0.071824	-0.488056	-1.061483	0.088074	-0.374435	-1.015450	0.052238	-0.421318	-1.119784	0.279281	-0.444723	-0.614998	1.382395	-0.080909	-0.556070	1.368625	-0.438384	
50	0.2450	-0.584274	0.954260	-0.108297	-0.580170	0.951765	-0.369138	-0.733025	0.966404	-0.181787	-0.732237	0.975316	-0.283405	-0.587382	0.796807	-0.066254	-0.541872	0.818870	-0.086318	-0.569878	0.751673	-0.065202	-0.527732	0.775488	-0.079289	-0.444557	0.530094	-0.106067	-0.447041	0.527598	-0.199401	-0.473384	0.391261	-0.064192	-0.424878	0.392514	-0.091132	-0.470630	0.337701	-0.063431	-0.424367	0.345628	-0.087516	-0.446816	0.116364	-0.085950	-0.446248	0.130279	-0.177220	-0.325068	0.082402	-0.077947	-0.320381	0.081763	-0.185580	-0.269954	0.117780	-0.149297	-0.517338	0.073345	-0.133458	-0.672231	0.789186	-0.424162	-0.618325	0.777073	-0.423469	-0.675678	0.752183	-0.431329	-0.626579	0.742200	-0.427028	-0.743292	0.495081	-0.429329	-0.748476	0.490831	-0.322765	-0.862525	0.430649	-0.475318	-0.825535	0.396938	-0.458858	-0.885429	0.397071	-0.478800	-0.855028	0.369111	-0.462892	-1.045434	0.238363	-0.482823	-1.035087	0.234890	-0.392101	-1.039133	0.076029	-0.485266	-1.051374	0.092872	-0.372104	-1.005605	0.054904	-0.418527	-1.105825	0.285736	-0.442963	-0.597393	1.381208	-0.077534	-0.538625	1.368516	-0.434806	
51	0.2500	-0.565887	0.952394	-0.106035	-0.561273	0.950526	-0.366966	-0.714504	0.964952	-0.180104	-0.713549	0.974050	-0.281757	-0.569656	0.794375	-0.063994	-0.523875	0.816070	-0.083994	-0.552572	0.749119	-0.062825	-0.510172	0.772683	-0.076941	-0.428639	0.527207	-0.103575	-0.430896	0.524589	-0.196497	-0.455287	0.387938	-0.061505	-0.406539	0.390149	-0.088181	-0.451380	0.334308	-0.060650	-0.405034	0.343140	-0.084530	-0.422497	0.112770	-0.083082	-0.421550	0.126519	-0.174304	-0.300124	0.081488	-0.074368	-0.294478	0.080779	-0.181916	-0.244845	0.118123	-0.145575	-0.492042	0.068542	-0.131193	-0.652987	0.787584	-0.422093	-0.599203	0.775426	-0.421074	-0.656416	0.750531	-0.428999	-0.607418	0.740478	-0.424514	-0.724926	0.493363	-0.426518	-0.730675	0.489584	-0.319572	-0.844965	0.431145	-0.472752	-0.808784	0.396696	-0.455945	-0.868536	0.398068	-0.476234	-0.838814	0.369561	-0.460012	-1.031584	0.243029	-0.480343	-1.021833	0.239593	-0.389566	-1.027996	0.080358	-0.482288	-1.040319	0.097684	-0.369560	-0.994805	0.057806	-0.415549	-1.091381	0.291864	-0.440860	-0.579664	1.379718	-0.074126	-0.521176	1.368142	-0.431254	
52	0.2550	-0.547526	0.950322	-0.103725	-0.542365	0.949054	-0.364780	-0.696009	0.963285	-0.178435	-0.694881	0.972538	-0.280125	-0.551953	0.791737	-0.061714	-0.505902	0.813073	-0.081613	-0.535264	0.746349	-0.060446	-0.492618	0.769675	-0.074570	-0.412589	0.524156	-0.101171	-0.414541	0.521507	-0.193708	-0.437525	0.384638	-0.059019	-0.388568	0.387605	-0.085417	-0.432702	0.330985	-0.058101	-0.386282	0.340523	-0.081755	-0.399839	0.109500	-0.080507	-0.398390	0.123035	-0.171688	-0.277121	0.080400	-0.071046	-0.270450	0.079533	-0.178493	-0.221539	0.117939	-0.142078	-0.468514	0.064410	-0.129279	-0.633612	0.785649	-0.419987	-0.579933	0.773522	-0.418639	-0.636965	0.748540	-0.426620	-0.588050	0.738495	-0.421957	-0.705945	0.491242	-0.423599	-0.712164	0.487913	-0.316246	-0.826782	0.431309	-0.470008	-0.791423	0.396105	-0.452891	-0.851032	0.398759	-0.473469	-0.822004	0.369696	-0.456965	-1.017122	0.247555	-0.477579	-1.007880	0.244143	-0.386749	-1.015892	0.084784	-0.479136	-1.028256	0.102470	-0.366807	-0.982991	0.060921	-0.412403	-1.076392	0.297664	-0.438395	-0.561792	1.377943	-0.070688	-0.503701	1.367514	-0.427734	
53	0.2600	-0.529176	0.948076	-0.101370	-0.523443	0.947370	-0.362584	-0.677526	0.961433	-0.176767	-0.676228	0.970799	-0.278499	-0.534245	0.788937	-0.059417	-0.487930	0.809924	-0.079178	-0.517924	0.743408	-0.058070	-0.475044	0.766512	-0.072180	-0.396384	0.520984	-0.098866	-0.397971	0.518391	-0.191039	-0.420092	0.381386	-0.056731	-0.370961	0.384904	-0.082847	-0.414600	0.327753	-0.055784	-0.368111	0.337793	-0.079197	-0.378894	0.106546	-0.078222	-0.376835	0.119826	-0.169370	-0.256087	0.079114	-0.068000	-0.248349	0.078007	-0.175333	-0.200072	0.117199	-0.138832	-0.446829	0.060934	-0.127698	-0.614103	0.783408	-0.417836	-0.560513	0.771392	-0.416169	-0.617324	0.746238	-0.424190	-0.568471	0.736284	-0.419364	-0.686319	0.488751	-0.420577	-0.692901	0.485843	-0.312794	-0.807941	0.431162	-0.467085	-0.773413	0.395192	-0.449697	-0.832878	0.399161	-0.470503	-0.804556	0.369534	-0.453754	-1.001989	0.251939	-0.474526	-0.993156	0.248527	-0.383649	-1.002767	0.089277	-0.475827	-1.015126	0.107189	-0.363852	-0.970106	0.064217	-0.409108	-1.060799	0.303135	-0.435552	-0.543756	1.375907	-0.067222	-0.486180	1.366650	-0.424250	
54	0.2650	-0.510818	0.945693	-0.098972	-0.504501	0.945499	-0.360377	-0.659040	0.959426	-0.175091	-0.657578	0.968858	-0.276867	-0.516507	0.786020	-0.057105	-0.469937	0.806670	-0.076694	-0.500528	0.740342	-0.055702	-0.457427	0.763237	-0.069775	-0.380015	0.517730	-0.096667	-0.381193	0.515276	-0.188498	-0.402983	0.378205	-0.054637	-0.353714	0.382066	-0.080480	-0.397075	0.324627	-0.053694	-0.350524	0.334964	-0.076864	-0.359696	0.103897	-0.076219	-0.356935	0.116887	-0.167344	-0.237033	0.077616	-0.065244	-0.228204	0.076190	-0.172452	-0.180461	0.115892	-0.135859	-0.427036	0.058090	-0.126425	-0.594461	0.780892	-0.415637	-0.540941	0.769072	-0.413668	-0.597489	0.743660	-0.421708	-0.548678	0.733881	-0.416740	-0.666020	0.485935	-0.417455	-0.672843	0.483409	-0.309226	-0.788410	0.430729	-0.463979	-0.754713	0.393987	-0.446367	-0.814038	0.399297	-0.467333	-0.786425	0.369103	-0.450382	-0.986124	0.256178	-0.471183	-0.977593	0.252725	-0.380265	-0.988569	0.093805	-0.472377	-1.000870	0.111799	-0.360705	-0.956091	0.067662	-0.405685	-1.044538	0.308275	-0.432321	-0.525537	1.373638	-0.063734	-0.468592	1.365570	-0.420808	
55	0.2700	-0.492433	0.943210	-0.096537	-0.485536	0.943471	-0.358163	-0.640536	0.957299	-0.173395	-0.638924	0.966742	-0.275218	-0.498716	0.783029	-0.054781	-0.451904	0.803353	-0.074168	-0.483054	0.737195	-0.053348	-0.439746	0.759891	-0.067364	-0.363484	0.514428	-0.094582	-0.364224	0.512190	-0.186090	-0.386198	0.375114	-0.052730	-0.336832	0.379111	-0.078322	-0.380129	0.321622	-0.051825	-0.333523	0.332054	-0.074759	-0.342257	0.101544	-0.074487	-0.338721	0.114216	-0.165602	-0.219945	0.075902	-0.062787	-0.210025	0.074085	-0.169865	-0.162705	0.114022	-0.133176	-0.409159	0.055850	-0.125433	-0.574680	0.778138	-0.413383	-0.521211	0.766602	-0.411141	-0.577456	0.740845	-0.419174	-0.528665	0.731329	-0.414091	-0.645024	0.482841	-0.414234	-0.651959	0.480653	-0.305548	-0.768158	0.430041	-0.460692	-0.735285	0.392526	-0.442904	-0.794473	0.399193	-0.463961	-0.767566	0.368430	-0.446853	-0.969465	0.260266	-0.467551	-0.961125	0.256724	-0.376602	-0.973246	0.098336	-0.468802	-0.985437	0.116262	-0.357374	-0.940894	0.071218	-0.402155	-1.027548	0.313082	-0.428693	-0.507115	1.371166	-0.060229	-0.450920	1.364300	-0.417413	
56	0.2750	-0.474002	0.940666	-0.094068	-0.466543	0.941317	-0.355943	-0.621998	0.955086	-0.171670	-0.620255	0.964481	-0.273542	-0.480851	0.780006	-0.052450	-0.433811	0.800016	-0.071607	-0.465485	0.734010	-0.051014	-0.421987	0.756515	-0.064953	-0.346802	0.511108	-0.092616	-0.347093	0.509157	-0.183821	-0.369741	0.372132	-0.051003	-0.320318	0.376061	-0.076373	-0.363763	0.318750	-0.050169	-0.317110	0.329078	-0.072881	-0.326569	0.099475	-0.073012	-0.322202	0.111810	-0.164131	-0.204790	0.073978	-0.060633	-0.193799	0.071707	-0.167578	-0.146786	0.111610	-0.130793	-0.393199	0.054180	-0.124692	-0.554757	0.775187	-0.411073	-0.501317	0.764023	-0.408590	-0.557220	0.737836	-0.416588	-0.508428	0.728673	-0.411419	-0.623313	0.479522	-0.410917	-0.630225	0.477624	-0.301769	-0.747156	0.429130	-0.457222	-0.715095	0.390846	-0.439311	-0.774153	0.398874	-0.460390	-0.747942	0.367545	-0.443170	-0.951957	0.264196	-0.463635	-0.943693	0.260505	-0.372663	-0.956756	0.102835	-0.465116	-0.968780	0.120537	-0.353871	-0.924468	0.074844	-0.398537	-1.009770	0.317555	-0.424669	-0.488477	1.368526	-0.056711	-0.433152	1.362864	-0.414071	
57	0.2800	-0.455509	0.938098	-0.091571	-0.447520	0.939070	-0.353720	-0.603412	0.952824	-0.169908	-0.601564	0.962109	-0.271831	-0.462897	0.776991	-0.050116	-0.415647	0.796695	-0.069023	-0.447812	0.730827	-0.048706	-0.404137	0.753144	-0.062552	-0.329994	0.507796	-0.090776	-0.329843	0.506193	-0.181693	-0.353621	0.369273	-0.049447	-0.304183	0.372938	-0.074633	-0.347981	0.316024	-0.048714	-0.301290	0.326055	-0.071228	-0.312604	0.097678	-0.071778	-0.307370	0.109665	-0.162915	-0.191511	0.071860	-0.058782	-0.179491	0.069079	-0.165596	-0.132664	0.108692	-0.128715	-0.379130	0.053040	-0.124170	-0.534689	0.772082	-0.408702	-0.481256	0.761380	-0.406018	-0.536779	0.734680	-0.413951	-0.487964	0.725958	-0.408729	-0.600873	0.476039	-0.407507	-0.607629	0.474379	-0.297896	-0.725386	0.428031	-0.453573	-0.694116	0.388989	-0.435589	-0.753051	0.398371	-0.456624	-0.727519	0.366482	-0.439338	-0.933550	0.267958	-0.459443	-0.925249	0.264054	-0.368458	-0.939062	0.107269	-0.461335	-0.950865	0.124589	-0.350209	-0.906775	0.078498	-0.394849	-0.991155	0.321687	-0.420254	-0.469611	1.365755	-0.053188	-0.415277	1.361295	-0.410786	
58	0.2850	-0.436942	0.935546	-0.089052	-0.428466	0.936766	-0.351496	-0.584768	0.950552	-0.168101	-0.582842	0.959661	-0.270074	-0.444843	0.774021	-0.047787	-0.397401	0.793424	-0.066427	-0.430030	0.727686	-0.046431	-0.386193	0.749809	-0.060169	-0.313094	0.504514	-0.089065	-0.312524	0.503311	-0.179710	-0.337851	0.366549	-0.048050	-0.288443	0.369761	-0.073100	-0.332784	0.313450	-0.047448	-0.286067	0.323004	-0.069794	-0.300313	0.096141	-0.070763	-0.294193	0.107777	-0.161935	-0.180037	0.069571	-0.057229	-0.167042	0.066236	-0.163916	-0.120284	0.105318	-0.126941	-0.366902	0.052388	-0.123835	-0.514474	0.768869	-0.406271	-0.461026	0.758719	-0.403428	-0.516131	0.731424	-0.411265	-0.467275	0.723233	-0.406022	-0.577703	0.472450	-0.404004	-0.584174	0.470980	-0.293937	-0.702837	0.426779	-0.449749	-0.672329	0.386997	-0.431744	-0.731150	0.397712	-0.452669	-0.706273	0.365276	-0.435362	-0.914205	0.271540	-0.454985	-0.905757	0.267354	-0.363998	-0.920137	0.111602	-0.457470	-0.931667	0.128384	-0.346400	-0.887788	0.082136	-0.391106	-0.971663	0.325475	-0.415459	-0.450511	1.362891	-0.049667	-0.397293	1.359623	-0.407564	
59	0.2900	-0.418291	0.933044	-0.086520	-0.409383	0.934439	-0.349274	-0.566059	0.948307	-0.166243	-0.564089	0.957174	-0.268267	-0.426687	0.771130	-0.045468	-0.379071	0.790232	-0.063832	-0.412145	0.724619	-0.044195	-0.368158	0.746540	-0.057815	-0.296150	0.501279	-0.087484	-0.295198	0.500517	-0.177871	-0.322448	0.363969	-0.046801	-0.273114	0.366553	-0.071765	-0.318176	0.311036	-0.046355	-0.271445	0.319943	-0.068570	-0.289631	0.094853	-0.069948	-0.282622	0.106141	-0.161171	-0.170274	0.067144	-0.055963	-0.156378	0.063220	-0.162531	-0.109574	0.101550	-0.125460	-0.356443	0.052180	-0.123653	-0.494115	0.765596	-0.403779	-0.440630	0.756085	-0.400820	-0.495280	0.728119	-0.408533	-0.446366	0.720545	-0.403301	-0.553810	0.468820	-0.400414	-0.559876	0.467492	-0.289900	-0.679511	0.425413	-0.445755	-0.649729	0.384913	-0.427779	-0.708447	0.396929	-0.448534	-0.684193	0.363960	-0.431249	-0.893896	0.274928	-0.450276	-0.885197	0.270391	-0.359297	-0.899970	0.115799	-0.453533	-0.911181	0.131893	-0.342456	-0.867493	0.085717	-0.387322	-0.951267	0.328911	-0.410303	-0.431179	1.359976	-0.046156	-0.379202	1.357883	-0.404411	
60	0.2950	-0.399554	0.930627	-0.083981	-0.390281	0.932127	-0.347056	-0.547283	0.946123	-0.164329	-0.545305	0.954685	-0.266405	-0.408434	0.768347	-0.043166	-0.360665	0.787144	-0.061252	-0.394169	0.721659	-0.042004	-0.350043	0.743360	-0.055499	-0.279216	0.498105	-0.086034	-0.277932	0.497816	-0.176178	-0.307434	0.361539	-0.045688	-0.258220	0.363333	-0.070620	-0.304160	0.308786	-0.045421	-0.257430	0.316891	-0.067543	-0.280473	0.093800	-0.069310	-0.272591	0.104752	-0.160599	-0.162116	0.064615	-0.054970	-0.147404	0.060078	-0.161428	-0.100447	0.097459	-0.124260	-0.347659	0.052368	-0.123591	-0.473619	0.762311	-0.401229	-0.420074	0.753522	-0.398196	-0.474237	0.724816	-0.405758	-0.425248	0.717940	-0.400568	-0.529217	0.465210	-0.396739	-0.534770	0.463982	-0.285793	-0.655422	0.423967	-0.441601	-0.626324	0.382780	-0.423700	-0.684951	0.396051	-0.444231	-0.661280	0.362570	-0.427008	-0.872615	0.278108	-0.445334	-0.863566	0.273153	-0.354373	-0.878563	0.119827	-0.449535	-0.889415	0.135090	-0.338392	-0.845895	0.089197	-0.383507	-0.929958	0.331988	-0.404809	-0.411623	1.357051	-0.042665	-0.361015	1.356109	-0.401329	
61	0.3000	-0.380734	0.928326	-0.081443	-0.371172	0.929864	-0.344847	-0.528446	0.944036	-0.162358	-0.526498	0.952232	-0.264483	-0.390098	0.765699	-0.040888	-0.342194	0.784180	-0.058701	-0.376125	0.718830	-0.039862	-0.331868	0.740288	-0.053232	-0.262357	0.495002	-0.084712	-0.260804	0.495207	-0.174627	-0.292834	0.359262	-0.044697	-0.243784	0.360122	-0.069653	-0.290740	0.306703	-0.044627	-0.244028	0.313868	-0.066699	-0.272744	0.092969	-0.068825	-0.264015	0.103603	-0.160197	-0.155444	0.062024	-0.054231	-0.140010	0.056862	-0.160590	-0.092803	0.093124	-0.123318	-0.340441	0.052907	-0.123619	-0.453001	0.759061	-0.398624	-0.399375	0.751075	-0.395558	-0.453017	0.721564	-0.402948	-0.403940	0.715465	-0.397824	-0.503963	0.461681	-0.392986	-0.508909	0.460518	-0.281624	-0.630603	0.422480	-0.437298	-0.602137	0.380642	-0.419516	-0.660687	0.395108	-0.439774	-0.637556	0.361139	-0.422648	-0.850368	0.281063	-0.440180	-0.840886	0.275628	-0.349248	-0.855938	0.123654	-0.445483	-0.866400	0.137953	-0.334220	-0.823018	0.092539	-0.379671	-0.907746	0.334696	-0.399009	-0.391864	1.354155	-0.039204	-0.342751	1.354336	-0.398326	
62	0.3050	-0.361845	0.926169	-0.078916	-0.352077	0.927685	-0.342649	-0.509562	0.942076	-0.160328	-0.507683	0.949850	-0.262502	-0.371703	0.763205	-0.038642	-0.323683	0.781355	-0.056194	-0.358046	0.716155	-0.037776	-0.313664	0.737340	-0.051022	-0.245645	0.491977	-0.083514	-0.243892	0.492687	-0.173214	-0.278678	0.357142	-0.043817	-0.229835	0.356940	-0.068850	-0.277922	0.304787	-0.043957	-0.231247	0.310891	-0.066021	-0.266334	0.092348	-0.068470	-0.256799	0.102686	-0.159939	-0.150128	0.059415	-0.053724	-0.134072	0.053627	-0.159998	-0.086530	0.088629	-0.122612	-0.334661	0.053749	-0.123708	-0.432281	0.755894	-0.395969	-0.378555	0.748783	-0.392907	-0.431646	0.718411	-0.400107	-0.382471	0.713160	-0.395072	-0.478101	0.458292	-0.389160	-0.482366	0.457166	-0.277406	-0.605103	0.420984	-0.432859	-0.577213	0.378536	-0.415235	-0.635701	0.394126	-0.435179	-0.613059	0.359699	-0.418182	-0.827188	0.283776	-0.434839	-0.817196	0.277806	-0.343945	-0.832138	0.127249	-0.441386	-0.842188	0.140466	-0.329954	-0.798909	0.095705	-0.375820	-0.884659	0.337029	-0.392939	-0.371929	1.351329	-0.035783	-0.324436	1.352598	-0.395404	
63	0.3100	-0.342910	0.924180	-0.076409	-0.333023	0.925619	-0.340467	-0.490654	0.940273	-0.158242	-0.488882	0.947574	-0.260462	-0.353282	0.760885	-0.036436	-0.305165	0.778680	-0.053744	-0.339972	0.713652	-0.035749	-0.295470	0.734527	-0.048879	-0.229156	0.489037	-0.082434	-0.227280	0.490251	-0.171934	-0.264995	0.355177	-0.043033	-0.216400	0.353805	-0.068193	-0.265711	0.303038	-0.043393	-0.219092	0.307980	-0.065491	-0.261126	0.091923	-0.068221	-0.250833	0.101995	-0.159800	-0.146034	0.056831	-0.053423	-0.129458	0.050428	-0.159626	-0.081509	0.084056	-0.122113	-0.330184	0.054849	-0.123830	-0.411491	0.752851	-0.393272	-0.357647	0.746682	-0.390247	-0.410161	0.715402	-0.397244	-0.360880	0.711063	-0.392314	-0.451704	0.455097	-0.385272	-0.455231	0.453989	-0.273149	-0.578991	0.419513	-0.428300	-0.551615	0.376501	-0.410869	-0.610057	0.393133	-0.430467	-0.587847	0.358281	-0.413624	-0.803126	0.286231	-0.429340	-0.792563	0.279683	-0.338491	-0.807230	0.130584	-0.437252	-0.816855	0.142619	-0.325608	-0.773637	0.098663	-0.371960	-0.860753	0.338981	-0.386641	-0.351859	1.348608	-0.032413	-0.306108	1.350928	-0.392570	
64	0.3150	-0.323960	0.922378	-0.073930	-0.314046	0.923697	-0.338307	-0.471754	0.938649	-0.156103	-0.470128	0.945435	-0.258367	-0.334881	0.758749	-0.034276	-0.286681	0.776162	-0.051365	-0.321956	0.711334	-0.033786	-0.277336	0.731857	-0.046811	-0.212971	0.486185	-0.081466	-0.211051	0.487895	-0.170780	-0.251818	0.353366	-0.042332	-0.203510	0.350737	-0.067667	-0.254112	0.301452	-0.042917	-0.207569	0.305152	-0.065090	-0.256994	0.091680	-0.068057	-0.246003	0.101517	-0.159757	-0.143022	0.054316	-0.053302	-0.126029	0.047315	-0.159448	-0.077615	0.079490	-0.121790	-0.326864	0.056163	-0.123963	-0.390674	0.749973	-0.390542	-0.336694	0.744803	-0.387580	-0.388607	0.712577	-0.394369	-0.339215	0.709205	-0.389554	-0.424864	0.452143	-0.381333	-0.427617	0.451043	-0.268865	-0.552355	0.418094	-0.423643	-0.525425	0.374570	-0.406432	-0.583839	0.392151	-0.425660	-0.562002	0.356911	-0.408993	-0.778260	0.288414	-0.423714	-0.767078	0.281253	-0.332917	-0.781303	0.133634	-0.433088	-0.790502	0.144407	-0.321198	-0.747297	0.101386	-0.368094	-0.836102	0.340545	-0.380161	-0.331705	1.346028	-0.029108	-0.287812	1.349356	-0.389826	
65	0.3200	-0.305041	0.920778	-0.071492	-0.295192	0.921942	-0.336172	-0.452905	0.937224	-0.153917	-0.451461	0.943461	-0.256223	-0.316553	0.756807	-0.032170	-0.268285	0.773805	-0.049069	-0.304057	0.709209	-0.031889	-0.259318	0.729335	-0.044826	-0.197171	0.483424	-0.080601	-0.195289	0.485613	-0.169744	-0.239181	0.351706	-0.041703	-0.191193	0.347753	-0.067252	-0.243131	0.300026	-0.042513	-0.196685	0.302424	-0.064797	-0.253812	0.091604	-0.067955	-0.242185	0.101243	-0.159787	-0.140950	0.051907	-0.053334	-0.123640	0.044339	-0.159437	-0.074719	0.075007	-0.121613	-0.324553	0.057648	-0.124086	-0.369880	0.747295	-0.387789	-0.315750	0.743174	-0.384911	-0.367044	0.709972	-0.391492	-0.317540	0.707613	-0.386797	-0.397689	0.449473	-0.377355	-0.399651	0.448379	-0.264571	-0.525304	0.416754	-0.418908	-0.498750	0.372773	-0.401943	-0.557152	0.391201	-0.420784	-0.535626	0.355614	-0.404307	-0.752691	0.290311	-0.417996	-0.740855	0.282518	-0.327256	-0.754474	0.136381	-0.428904	-0.763254	0.145829	-0.316738	-0.720012	0.103852	-0.364227	-0.810809	0.341720	-0.373551	-0.311530	1.343619	-0.025879	-0.269605	1.347908	-0.387179	
66	0.3250	-0.286206	0.919390	-0.069102	-0.276513	0.920375	-0.334070	-0.434160	0.936012	-0.151693	-0.432931	0.941675	-0.254037	-0.298362	0.755063	-0.030125	-0.250039	0.771610	-0.046869	-0.286342	0.707283	-0.030062	-0.241484	0.726963	-0.042930	-0.181840	0.480758	-0.079828	-0.180074	0.483400	-0.168815	-0.227115	0.350193	-0.041133	-0.179478	0.344870	-0.066931	-0.232772	0.298755	-0.042164	-0.186443	0.299811	-0.064592	-0.251451	0.091682	-0.067897	-0.239256	0.101160	-0.159867	-0.139681	0.049640	-0.053489	-0.122149	0.041541	-0.159564	-0.072693	0.070680	-0.121548	-0.323101	0.059267	-0.124183	-0.349173	0.744847	-0.385027	-0.294882	0.741812	-0.382247	-0.345539	0.707618	-0.388626	-0.295927	0.706306	-0.384051	-0.370306	0.447119	-0.373355	-0.371481	0.446040	-0.260283	-0.497964	0.415516	-0.414122	-0.471714	0.371134	-0.397420	-0.530122	0.390301	-0.415866	-0.508842	0.354410	-0.399588	-0.726545	0.291914	-0.412223	-0.714034	0.283481	-0.321544	-0.726883	0.138807	-0.424707	-0.735262	0.146894	-0.312247	-0.691927	0.106044	-0.360363	-0.784996	0.342509	-0.366863	-0.291407	1.341406	-0.022738	-0.251549	1.346609	-0.384632	
67	0.3300	-0.267521	0.918219	-0.066772	-0.258072	0.919011	-0.332007	-0.415583	0.935023	-0.149442	-0.414598	0.940095	-0.251821	-0.280381	0.753517	-0.028149	-0.232013	0.769574	-0.044772	-0.268888	0.705557	-0.028307	-0.223908	0.724742	-0.041127	-0.167054	0.478187	-0.079139	-0.165479	0.481253	-0.167985	-0.215653	0.348821	-0.040612	-0.168391	0.342103	-0.066684	-0.223040	0.297634	-0.041857	-0.176846	0.297327	-0.064456	-0.249787	0.091896	-0.067864	-0.237093	0.101253	-0.159979	-0.139080	0.047546	-0.053741	-0.121414	0.038958	-0.159799	-0.071409	0.066573	-0.121567	-0.322364	0.060983	-0.124240	-0.328627	0.742653	-0.382268	-0.274165	0.740732	-0.379596	-0.324176	0.705537	-0.385784	-0.274459	0.705298	-0.381321	-0.342858	0.445107	-0.369352	-0.343267	0.444057	-0.256019	-0.470480	0.414395	-0.409312	-0.444460	0.369671	-0.392885	-0.502892	0.389466	-0.410935	-0.481794	0.353315	-0.394863	-0.699970	0.293216	-0.406433	-0.686776	0.284150	-0.315817	-0.698695	0.140902	-0.420510	-0.706699	0.147612	-0.307742	-0.663215	0.107952	-0.356506	-0.758810	0.342917	-0.360155	-0.271421	1.339410	-0.019698	-0.233717	1.345477	-0.382189	
68	0.3350	-0.249059	0.917264	-0.064511	-0.239936	0.917860	-0.329989	-0.397247	0.934259	-0.147175	-0.396530	0.938735	-0.249586	-0.262690	0.752165	-0.026247	-0.214285	0.767694	-0.042789	-0.251774	0.704029	-0.026626	-0.206668	0.722669	-0.039424	-0.152889	0.475716	-0.078522	-0.151574	0.479170	-0.167242	-0.204822	0.347585	-0.040130	-0.157954	0.339467	-0.066495	-0.213936	0.296654	-0.041579	-0.167895	0.294985	-0.064369	-0.248700	0.092233	-0.067843	-0.235575	0.101506	-0.160105	-0.139020	0.045649	-0.054063	-0.121300	0.036620	-0.160116	-0.070745	0.062740	-0.121641	-0.322200	0.062763	-0.124248	-0.308326	0.740731	-0.379528	-0.253687	0.739940	-0.376965	-0.303045	0.703747	-0.382980	-0.253232	0.704594	-0.378619	-0.315504	0.443453	-0.365366	-0.315183	0.442453	-0.251800	-0.443014	0.413406	-0.404509	-0.417151	0.368400	-0.388364	-0.475625	0.388707	-0.406025	-0.454644	0.352341	-0.390158	-0.673133	0.294216	-0.400668	-0.659260	0.284537	-0.310116	-0.670098	0.142661	-0.416324	-0.677759	0.148002	-0.303243	-0.634070	0.109572	-0.352665	-0.732415	0.342956	-0.353481	-0.251664	1.337646	-0.016771	-0.216186	1.344526	-0.379855	
69	0.3400	-0.230906	0.916522	-0.062330	-0.222183	0.916928	-0.328025	-0.379233	0.933718	-0.144906	-0.378805	0.937603	-0.247346	-0.245374	0.751002	-0.024426	-0.196939	0.765965	-0.040924	-0.235083	0.702693	-0.025022	-0.189847	0.720742	-0.037821	-0.139413	0.473347	-0.077966	-0.138419	0.477151	-0.166575	-0.194647	0.346480	-0.039679	-0.148186	0.336973	-0.066347	-0.205462	0.295810	-0.041317	-0.159588	0.292795	-0.064315	-0.248075	0.092676	-0.067820	-0.234587	0.101903	-0.160230	-0.139383	0.043964	-0.054431	-0.121678	0.034546	-0.160489	-0.070585	0.059223	-0.121744	-0.322480	0.064577	-0.124202	-0.288361	0.739091	-0.376824	-0.233543	0.739434	-0.374367	-0.282248	0.702256	-0.380229	-0.232348	0.704190	-0.375955	-0.288411	0.442163	-0.361418	-0.287410	0.441240	-0.247647	-0.415738	0.412557	-0.399744	-0.389962	0.367328	-0.383883	-0.448493	0.388032	-0.401167	-0.427568	0.351497	-0.385501	-0.646223	0.294916	-0.394969	-0.631686	0.284657	-0.304479	-0.641299	0.144086	-0.412166	-0.648654	0.148085	-0.298771	-0.604705	0.110904	-0.348847	-0.705993	0.342643	-0.346899	-0.232238	1.336123	-0.013968	-0.199040	1.343765	-0.377634	
70	0.3450	-0.213150	0.915983	-0.060237	-0.204893	0.916213	-0.326122	-0.361629	0.933395	-0.142652	-0.361502	0.936699	-0.245117	-0.228521	0.750019	-0.022691	-0.180061	0.764380	-0.039184	-0.218901	0.701542	-0.023497	-0.173532	0.718958	-0.036322	-0.126686	0.471085	-0.077463	-0.126063	0.475197	-0.165975	-0.185148	0.345498	-0.039251	-0.139101	0.334633	-0.066224	-0.197614	0.295092	-0.041064	-0.151921	0.290766	-0.064279	-0.247809	0.093208	-0.067786	-0.234022	0.102426	-0.160342	-0.140062	0.042504	-0.054823	-0.122430	0.032749	-0.160894	-0.070819	0.056053	-0.121855	-0.323082	0.066400	-0.124099	-0.268834	0.737738	-0.374172	-0.213834	0.739208	-0.371812	-0.261890	0.701067	-0.377546	-0.211918	0.704079	-0.373341	-0.261755	0.441235	-0.357534	-0.260136	0.440419	-0.243582	-0.388836	0.411853	-0.395051	-0.363078	0.366457	-0.379470	-0.421683	0.387445	-0.396396	-0.400754	0.350786	-0.380922	-0.619437	0.295326	-0.389378	-0.604261	0.284531	-0.298948	-0.612518	0.145182	-0.408052	-0.619611	0.147888	-0.294350	-0.575351	0.111957	-0.345065	-0.679739	0.342001	-0.340463	-0.213246	1.334846	-0.011301	-0.182367	1.343197	-0.375529	
71	0.3500	-0.195886	0.915635	-0.058242	-0.188149	0.915711	-0.324287	-0.344525	0.933276	-0.140428	-0.344709	0.936022	-0.242915	-0.212224	0.749205	-0.021048	-0.163743	0.762933	-0.037570	-0.203314	0.700565	-0.022052	-0.157807	0.717312	-0.034927	-0.114757	0.468934	-0.077003	-0.114548	0.473312	-0.165431	-0.176339	0.344633	-0.038843	-0.130708	0.332456	-0.066115	-0.190388	0.294492	-0.040812	-0.144885	0.288904	-0.064247	-0.247809	0.093813	-0.067733	-0.233783	0.103054	-0.160431	-0.140959	0.041271	-0.055219	-0.123448	0.031234	-0.161310	-0.071351	0.053250	-0.121955	-0.323901	0.068208	-0.123940	-0.249847	0.736668	-0.371589	-0.194669	0.739247	-0.369315	-0.242086	0.700173	-0.374948	-0.192054	0.704243	-0.370791	-0.235718	0.440658	-0.353738	-0.233549	0.439979	-0.239629	-0.362495	0.411292	-0.390462	-0.336693	0.365785	-0.375154	-0.395385	0.386950	-0.391745	-0.374397	0.350210	-0.376452	-0.592986	0.295460	-0.383935	-0.577203	0.284180	-0.293562	-0.583991	0.145962	-0.404001	-0.590865	0.147442	-0.290005	-0.546247	0.112743	-0.341332	-0.653854	0.341058	-0.334226	-0.194798	1.333812	-0.008780	-0.166253	1.342820	-0.373545	
72	0.3550	-0.179212	0.915461	-0.056352	-0.172038	0.915411	-0.322530	-0.328017	0.933346	-0.138251	-0.328515	0.935560	-0.240757	-0.196571	0.748547	-0.019502	-0.148071	0.761617	-0.036084	-0.188402	0.699751	-0.020688	-0.142756	0.715800	-0.033636	-0.103668	0.466899	-0.076578	-0.103901	0.471501	-0.164934	-0.168229	0.343879	-0.038448	-0.123009	0.330448	-0.066009	-0.183776	0.294001	-0.040555	-0.138470	0.287212	-0.064208	-0.247991	0.094475	-0.067656	-0.233782	0.103770	-0.160491	-0.141990	0.040263	-0.055604	-0.124638	0.029995	-0.161720	-0.072090	0.050821	-0.122032	-0.324843	0.069980	-0.123728	-0.231507	0.735871	-0.369094	-0.176155	0.739530	-0.366889	-0.222948	0.699563	-0.372449	-0.172871	0.704660	-0.368319	-0.210479	0.440411	-0.350055	-0.207834	0.439901	-0.235812	-0.336904	0.410872	-0.386010	-0.311000	0.365304	-0.370966	-0.369791	0.386545	-0.387247	-0.348696	0.349763	-0.372121	-0.567082	0.295336	-0.378679	-0.550731	0.283632	-0.288359	-0.555955	0.146446	-0.400035	-0.562655	0.146780	-0.285759	-0.517640	0.113280	-0.337665	-0.628543	0.339847	-0.328237	-0.177003	1.333013	-0.006412	-0.150785	1.342628	-0.371684	
73	0.3600	-0.163223	0.915443	-0.054574	-0.156642	0.915298	-0.320857	-0.312197	0.933585	-0.136139	-0.313005	0.935302	-0.238661	-0.181650	0.748031	-0.018056	-0.133130	0.760424	-0.034726	-0.174245	0.699086	-0.019408	-0.128457	0.714417	-0.032449	-0.093445	0.464985	-0.076181	-0.094140	0.469770	-0.164476	-0.160821	0.343228	-0.038065	-0.116002	0.328613	-0.065897	-0.177766	0.293611	-0.040291	-0.132661	0.285692	-0.064156	-0.248286	0.095177	-0.067553	-0.233943	0.104552	-0.160517	-0.143086	0.039470	-0.055965	-0.125918	0.029023	-0.162108	-0.072961	0.048764	-0.122075	-0.325830	0.071699	-0.123467	-0.213918	0.735332	-0.366701	-0.158400	0.740033	-0.364548	-0.204589	0.699218	-0.370065	-0.154484	0.705302	-0.365939	-0.186214	0.440468	-0.346509	-0.183169	0.440157	-0.232153	-0.312247	0.410584	-0.381729	-0.286189	0.365003	-0.366932	-0.345091	0.386226	-0.382934	-0.323844	0.349441	-0.367958	-0.541936	0.294978	-0.373647	-0.525063	0.282915	-0.283376	-0.528649	0.146656	-0.396177	-0.535219	0.145939	-0.281641	-0.489773	0.113590	-0.334083	-0.604011	0.338406	-0.322539	-0.159965	1.332436	-0.004204	-0.136048	1.342607	-0.369949	
74	0.3650	-0.148012	0.915559	-0.052915	-0.142042	0.915353	-0.319277	-0.297155	0.933969	-0.134109	-0.298266	0.935229	-0.236644	-0.167539	0.747641	-0.016712	-0.119001	0.759349	-0.033494	-0.160911	0.698557	-0.018212	-0.114981	0.713159	-0.031362	-0.084107	0.463198	-0.075807	-0.085270	0.468126	-0.164051	-0.154109	0.342673	-0.037692	-0.109675	0.326954	-0.065774	-0.172343	0.293310	-0.040018	-0.127439	0.284342	-0.064083	-0.248635	0.095905	-0.067423	-0.234203	0.105381	-0.160508	-0.144186	0.038879	-0.056290	-0.127221	0.028300	-0.162464	-0.073898	0.047066	-0.122079	-0.326800	0.073350	-0.123166	-0.197183	0.735031	-0.364426	-0.141507	0.740725	-0.362306	-0.187117	0.699115	-0.367808	-0.136999	0.706137	-0.363665	-0.163086	0.440796	-0.343125	-0.159718	0.440710	-0.228674	-0.288698	0.410419	-0.377646	-0.262445	0.364865	-0.363082	-0.321464	0.385988	-0.378834	-0.300030	0.349232	-0.363992	-0.517752	0.294416	-0.368873	-0.500404	0.282059	-0.278644	-0.502304	0.146620	-0.392451	-0.508786	0.144954	-0.277676	-0.462884	0.113696	-0.330607	-0.580451	0.336778	-0.317170	-0.143785	1.332066	-0.002163	-0.122116	1.342744	-0.368341	
75	0.3700	-0.133663	0.915789	-0.051379	-0.128310	0.915555	-0.317794	-0.282973	0.934473	-0.132176	-0.284374	0.935318	-0.234721	-0.154311	0.747362	-0.015474	-0.105754	0.758383	-0.032385	-0.148462	0.698148	-0.017102	-0.102391	0.712022	-0.030375	-0.075655	0.461541	-0.075452	-0.077285	0.466577	-0.163653	-0.148081	0.342207	-0.037328	-0.104014	0.325470	-0.065637	-0.167489	0.293090	-0.039736	-0.122783	0.283159	-0.063988	-0.248994	0.096643	-0.067268	-0.234510	0.106236	-0.160464	-0.145246	0.038472	-0.056575	-0.128490	0.027803	-0.162780	-0.074847	0.045706	-0.122041	-0.327704	0.074918	-0.122833	-0.181394	0.734941	-0.362284	-0.125572	0.741574	-0.360178	-0.170633	0.699224	-0.365691	-0.120516	0.707130	-0.361510	-0.141248	0.441355	-0.339925	-0.137627	0.441517	-0.225396	-0.266418	0.410362	-0.373791	-0.239934	0.364871	-0.359440	-0.299077	0.385823	-0.374973	-0.277427	0.349126	-0.360248	-0.494721	0.293679	-0.364387	-0.476947	0.281096	-0.274195	-0.477137	0.146371	-0.388880	-0.483570	0.143863	-0.273889	-0.437197	0.113629	-0.327258	-0.558045	0.335007	-0.312163	-0.128553	1.331879	-0.000291	-0.109060	1.343018	-0.366863	
76	0.3750	-0.120254	0.916109	-0.049969	-0.115510	0.915880	-0.316416	-0.269725	0.935073	-0.130354	-0.271400	0.935547	-0.232907	-0.142025	0.747178	-0.014342	-0.093449	0.757522	-0.031395	-0.136947	0.697845	-0.016079	-0.090738	0.711000	-0.029484	-0.068083	0.460019	-0.075113	-0.070167	0.465130	-0.163279	-0.142719	0.341823	-0.036975	-0.098995	0.324157	-0.065482	-0.163181	0.292941	-0.039448	-0.118666	0.282136	-0.063869	-0.249328	0.097376	-0.067092	-0.234823	0.107101	-0.160388	-0.146229	0.038229	-0.056815	-0.129684	0.027507	-0.163051	-0.075767	0.044658	-0.121963	-0.328507	0.076395	-0.122477	-0.166634	0.735036	-0.360286	-0.110679	0.742544	-0.358177	-0.155224	0.699516	-0.363725	-0.105122	0.708242	-0.359488	-0.120829	0.442105	-0.336927	-0.117025	0.442531	-0.222334	-0.245548	0.410399	-0.370187	-0.218808	0.365001	-0.356029	-0.278076	0.385724	-0.371374	-0.256189	0.349110	-0.356747	-0.473015	0.292803	-0.360213	-0.454866	0.280059	-0.270051	-0.453349	0.145942	-0.385488	-0.459766	0.142702	-0.270306	-0.412916	0.113415	-0.324059	-0.536956	0.333139	-0.307542	-0.114347	1.331854	0.001409	-0.096937	1.343407	-0.365514	
77	0.3800	-0.107848	0.916496	-0.048687	-0.103696	0.916303	-0.315147	-0.257472	0.935740	-0.128656	-0.259401	0.935888	-0.231214	-0.130730	0.747074	-0.013317	-0.082132	0.756758	-0.030518	-0.126401	0.697632	-0.015142	-0.080059	0.710088	-0.028686	-0.061372	0.458634	-0.074788	-0.063888	0.463792	-0.162925	-0.137997	0.341512	-0.036635	-0.094590	0.323011	-0.065313	-0.159393	0.292852	-0.039156	-0.115061	0.281265	-0.063728	-0.249614	0.098093	-0.066897	-0.235112	0.107956	-0.160284	-0.147114	0.038124	-0.057010	-0.130774	0.027383	-0.163276	-0.076625	0.043889	-0.121849	-0.329189	0.077771	-0.122107	-0.152974	0.735283	-0.358442	-0.096899	0.743599	-0.356312	-0.140963	0.699955	-0.361916	-0.090890	0.709435	-0.357609	-0.101939	0.443002	-0.334148	-0.098011	0.443704	-0.219505	-0.226206	0.410513	-0.366853	-0.199191	0.365232	-0.352867	-0.258587	0.385681	-0.368054	-0.236449	0.349168	-0.353508	-0.452782	0.291823	-0.356370	-0.434306	0.278977	-0.266233	-0.431112	0.145370	-0.382298	-0.437543	0.141507	-0.266948	-0.390217	0.113085	-0.321033	-0.517323	0.331220	-0.303325	-0.101233	1.331965	0.002940	-0.085793	1.343888	-0.364293	
78	0.3850	-0.096493	0.916929	-0.047534	-0.092906	0.916797	-0.313990	-0.246261	0.936448	-0.127092	-0.248423	0.936316	-0.229654	-0.120457	0.747034	-0.012396	-0.071838	0.756086	-0.029748	-0.116847	0.697495	-0.014293	-0.070379	0.709282	-0.027976	-0.055490	0.457387	-0.074478	-0.058411	0.462566	-0.162591	-0.133885	0.341266	-0.036308	-0.090766	0.322024	-0.065129	-0.156095	0.292815	-0.038865	-0.111935	0.280536	-0.063567	-0.249836	0.098782	-0.066691	-0.235358	0.108787	-0.160156	-0.147885	0.038135	-0.057159	-0.131739	0.027401	-0.163453	-0.077399	0.043362	-0.121704	-0.329739	0.079040	-0.121733	-0.140467	0.735651	-0.356759	-0.084285	0.744703	-0.354594	-0.127909	0.700507	-0.360271	-0.077873	0.710672	-0.355882	-0.084660	0.444002	-0.331602	-0.080661	0.444984	-0.216918	-0.208483	0.410689	-0.363803	-0.181185	0.365541	-0.349969	-0.240705	0.385684	-0.365027	-0.218310	0.349286	-0.350545	-0.434142	0.290774	-0.352872	-0.415387	0.277882	-0.262755	-0.410569	0.144691	-0.379329	-0.417038	0.140310	-0.263834	-0.369248	0.112668	-0.318198	-0.499258	0.329295	-0.299521	-0.089257	1.332184	0.004302	-0.075657	1.344436	-0.363199	
79	0.3900	-0.086221	0.917387	-0.046507	-0.083163	0.917339	-0.312946	-0.236123	0.937174	-0.125669	-0.238492	0.936805	-0.228234	-0.111222	0.747045	-0.011580	-0.062581	0.755499	-0.029079	-0.108293	0.697420	-0.013530	-0.061704	0.708575	-0.027350	-0.050397	0.456277	-0.074183	-0.053691	0.461458	-0.162276	-0.130346	0.341078	-0.035998	-0.087486	0.321186	-0.064936	-0.153255	0.292818	-0.038578	-0.109254	0.279938	-0.063392	-0.249989	0.099433	-0.066477	-0.235550	0.109579	-0.160010	-0.148537	0.038236	-0.057266	-0.132570	0.027530	-0.163586	-0.078076	0.043040	-0.121534	-0.330156	0.080197	-0.121364	-0.129149	0.736108	-0.355242	-0.072873	0.745824	-0.353030	-0.116098	0.701139	-0.358792	-0.066108	0.711916	-0.354312	-0.069043	0.445063	-0.329296	-0.065020	0.446324	-0.214581	-0.192439	0.410910	-0.361048	-0.164858	0.365905	-0.347345	-0.224498	0.385724	-0.362299	-0.201847	0.349449	-0.347868	-0.417182	0.289693	-0.349726	-0.398193	0.276801	-0.259624	-0.391829	0.143940	-0.376597	-0.398353	0.139140	-0.260979	-0.350120	0.112193	-0.315574	-0.482841	0.327406	-0.296133	-0.078448	1.332486	0.005502	-0.066546	1.345027	-0.362228	
80	0.3950	-0.077048	0.917853	-0.045604	-0.074476	0.917903	-0.312016	-0.227070	0.937894	-0.124392	-0.229622	0.937328	-0.226959	-0.103026	0.747094	-0.010863	-0.054363	0.754992	-0.028504	-0.100729	0.697394	-0.012852	-0.054030	0.707963	-0.026803	-0.046045	0.455301	-0.073905	-0.049675	0.460469	-0.161981	-0.127338	0.340940	-0.035708	-0.084707	0.320486	-0.064738	-0.150840	0.292853	-0.038300	-0.106983	0.279456	-0.063206	-0.250074	0.100037	-0.066263	-0.235682	0.110320	-0.159853	-0.149070	0.038405	-0.057336	-0.133265	0.027741	-0.163680	-0.078651	0.042885	-0.121349	-0.330447	0.081239	-0.121009	-0.119035	0.736624	-0.353891	-0.062680	0.746928	-0.351623	-0.105547	0.701816	-0.357480	-0.055608	0.713136	-0.352905	-0.055114	0.446145	-0.327235	-0.051100	0.447676	-0.212497	-0.178106	0.411159	-0.358592	-0.150247	0.366302	-0.345000	-0.210002	0.385790	-0.359873	-0.187101	0.349642	-0.345478	-0.401957	0.288611	-0.346934	-0.382774	0.275758	-0.256841	-0.374962	0.143152	-0.374115	-0.381555	0.138023	-0.258396	-0.332903	0.111685	-0.313176	-0.468120	0.325592	-0.293155	-0.068817	1.332845	0.006545	-0.058458	1.345637	-0.361376	
81	0.4000	-0.068967	0.918309	-0.044821	-0.066834	0.918469	-0.311198	-0.219096	0.938589	-0.123263	-0.221807	0.937863	-0.225830	-0.095851	0.747169	-0.010241	-0.047166	0.754558	-0.028015	-0.094131	0.697404	-0.012256	-0.047332	0.707439	-0.026332	-0.042379	0.454456	-0.073646	-0.046305	0.459599	-0.161707	-0.124817	0.340843	-0.035439	-0.082385	0.319911	-0.064538	-0.148811	0.292912	-0.038036	-0.105083	0.279078	-0.063016	-0.250097	0.100588	-0.066053	-0.235757	0.111001	-0.159691	-0.149492	0.038618	-0.057374	-0.133829	0.028008	-0.163738	-0.079123	0.042860	-0.121156	-0.330626	0.082167	-0.120674	-0.110120	0.737170	-0.352706	-0.053699	0.747988	-0.350376	-0.096250	0.702509	-0.356332	-0.046366	0.714301	-0.351659	-0.042863	0.447211	-0.325418	-0.038886	0.449000	-0.210663	-0.165481	0.411424	-0.356432	-0.137357	0.366714	-0.342933	-0.197218	0.385874	-0.357746	-0.174080	0.349853	-0.343376	-0.388485	0.287559	-0.344490	-0.369146	0.274775	-0.254403	-0.360000	0.142358	-0.371892	-0.366669	0.136979	-0.256090	-0.317631	0.111168	-0.311014	-0.455108	0.323886	-0.290575	-0.060352	1.333236	0.007439	-0.051377	1.346245	-0.360639	
82	0.4050	-0.061955	0.918742	-0.044150	-0.060211	0.919017	-0.310490	-0.212179	0.939241	-0.122280	-0.215025	0.938389	-0.224847	-0.089664	0.747259	-0.009711	-0.040958	0.754192	-0.027604	-0.088463	0.697440	-0.011740	-0.041573	0.706996	-0.025929	-0.039338	0.453736	-0.073407	-0.043520	0.458846	-0.161455	-0.122736	0.340780	-0.035194	-0.080475	0.319449	-0.064344	-0.147132	0.292987	-0.037790	-0.103517	0.278789	-0.062828	-0.250067	0.101082	-0.065853	-0.235781	0.111615	-0.159530	-0.149813	0.038856	-0.057386	-0.134272	0.028305	-0.163768	-0.079499	0.042930	-0.120962	-0.330708	0.082980	-0.120366	-0.102381	0.737719	-0.351682	-0.045905	0.748982	-0.349287	-0.088182	0.703191	-0.355343	-0.038353	0.715387	-0.350574	-0.032252	0.448230	-0.323842	-0.028331	0.450260	-0.209075	-0.154530	0.411689	-0.354563	-0.126160	0.367121	-0.341139	-0.186118	0.385968	-0.355909	-0.162760	0.350070	-0.341556	-0.376749	0.286563	-0.342383	-0.357286	0.273868	-0.252299	-0.346934	0.141585	-0.369931	-0.353683	0.136025	-0.254062	-0.304295	0.110663	-0.309095	-0.443785	0.322314	-0.288374	-0.053024	1.333639	0.008196	-0.045269	1.346832	-0.360009	
83	0.4100	-0.055971	0.919141	-0.043585	-0.054565	0.919532	-0.309886	-0.206276	0.939838	-0.121438	-0.209234	0.938889	-0.224005	-0.084417	0.747357	-0.009264	-0.035690	0.753888	-0.027264	-0.083672	0.697492	-0.011299	-0.036703	0.706628	-0.025590	-0.036857	0.453131	-0.073191	-0.041257	0.458204	-0.161227	-0.121047	0.340745	-0.034976	-0.078929	0.319084	-0.064159	-0.145764	0.293069	-0.037565	-0.102247	0.278575	-0.062648	-0.249995	0.101517	-0.065667	-0.235761	0.112158	-0.159375	-0.150046	0.039102	-0.057378	-0.134608	0.028612	-0.163775	-0.079788	0.043065	-0.120775	-0.330714	0.083682	-0.120088	-0.095771	0.738251	-0.350812	-0.039252	0.749889	-0.348352	-0.081295	0.703839	-0.354504	-0.031520	0.716376	-0.349645	-0.023215	0.449178	-0.322496	-0.019361	0.451425	-0.207721	-0.145191	0.411946	-0.352972	-0.116596	0.367511	-0.339609	-0.176640	0.386066	-0.354349	-0.153084	0.350281	-0.340004	-0.366699	0.285643	-0.340597	-0.347140	0.273051	-0.250514	-0.335719	0.140856	-0.368229	-0.342546	0.135173	-0.252308	-0.292848	0.110186	-0.307419	-0.434098	0.320898	-0.286527	-0.046785	1.334034	0.008825	-0.040087	1.347383	-0.359479	
84	0.4150	-0.050958	0.919500	-0.043118	-0.049839	0.920001	-0.309380	-0.201331	0.940371	-0.120732	-0.204379	0.939348	-0.223297	-0.080047	0.747455	-0.008895	-0.031302	0.753638	-0.026987	-0.079695	0.697553	-0.010929	-0.032659	0.706326	-0.025309	-0.034871	0.452634	-0.072998	-0.039450	0.457668	-0.161025	-0.119701	0.340729	-0.034783	-0.077700	0.318803	-0.063987	-0.144669	0.293155	-0.037364	-0.101234	0.278423	-0.062479	-0.249894	0.101891	-0.065499	-0.235710	0.112628	-0.159230	-0.150205	0.039341	-0.057356	-0.134851	0.028911	-0.163765	-0.080000	0.043238	-0.120601	-0.330664	0.084278	-0.119844	-0.090230	0.738747	-0.350086	-0.033676	0.750698	-0.347564	-0.075523	0.704436	-0.353806	-0.025800	0.717255	-0.348863	-0.015661	0.450033	-0.321369	-0.011878	0.452475	-0.206588	-0.137373	0.412184	-0.351642	-0.108578	0.367870	-0.338327	-0.168699	0.386161	-0.353049	-0.144966	0.350481	-0.338707	-0.358252	0.284816	-0.339110	-0.338622	0.272332	-0.249026	-0.326271	0.140190	-0.366779	-0.333173	0.134429	-0.250820	-0.283206	0.109749	-0.305984	-0.425965	0.319651	-0.285007	-0.041569	1.334407	0.009339	-0.035769	1.347883	-0.359041	
85	0.4200	-0.046843	0.919812	-0.042739	-0.045962	0.920415	-0.308964	-0.197272	0.940832	-0.120151	-0.200392	0.939758	-0.222715	-0.076481	0.747547	-0.008596	-0.027720	0.753438	-0.026765	-0.076461	0.697617	-0.010625	-0.029368	0.706085	-0.025080	-0.033313	0.452233	-0.072831	-0.038037	0.457230	-0.160848	-0.118650	0.340729	-0.034618	-0.076744	0.318593	-0.063833	-0.143809	0.293237	-0.037189	-0.100443	0.278319	-0.062325	-0.249777	0.102206	-0.065350	-0.235637	0.113026	-0.159100	-0.150305	0.039564	-0.057325	-0.135019	0.029188	-0.163744	-0.080148	0.043426	-0.120444	-0.330576	0.084774	-0.119634	-0.085678	0.739194	-0.349492	-0.029099	0.751399	-0.346913	-0.070784	0.704967	-0.353237	-0.021109	0.718014	-0.348219	-0.009474	0.450784	-0.320444	-0.005762	0.453394	-0.205660	-0.130962	0.412398	-0.350555	-0.101995	0.368191	-0.337275	-0.162180	0.386249	-0.351987	-0.138296	0.350661	-0.337644	-0.351300	0.284093	-0.337898	-0.331617	0.271714	-0.247811	-0.318479	0.139598	-0.365570	-0.325447	0.133795	-0.249581	-0.275252	0.109362	-0.304780	-0.419278	0.318579	-0.283782	-0.037297	1.334746	0.009751	-0.032245	1.348326	-0.358686	
86	0.4250	-0.043543	0.920076	-0.042438	-0.042854	0.920771	-0.308631	-0.194017	0.941222	-0.119685	-0.197193	0.940111	-0.222248	-0.073638	0.747631	-0.008359	-0.024862	0.753281	-0.026590	-0.073891	0.697678	-0.010380	-0.026751	0.705895	-0.024897	-0.032119	0.451917	-0.072688	-0.036957	0.456880	-0.160698	-0.117848	0.340737	-0.034480	-0.076016	0.318440	-0.063698	-0.143149	0.293314	-0.037040	-0.099838	0.278253	-0.062191	-0.249655	0.102465	-0.065223	-0.235554	0.113353	-0.158987	-0.150361	0.039762	-0.057290	-0.135127	0.029435	-0.163717	-0.080246	0.043611	-0.120306	-0.330467	0.085177	-0.119459	-0.082025	0.739584	-0.349019	-0.025426	0.751991	-0.346388	-0.066982	0.705426	-0.352784	-0.017348	0.718654	-0.347700	-0.004525	0.451424	-0.319703	-0.000879	0.454175	-0.204916	-0.125826	0.412584	-0.349685	-0.096715	0.368468	-0.336431	-0.156954	0.386328	-0.351140	-0.132942	0.350819	-0.336793	-0.345712	0.283477	-0.336933	-0.325992	0.271198	-0.246843	-0.312200	0.139090	-0.364585	-0.319228	0.133269	-0.248575	-0.268845	0.109031	-0.303793	-0.413907	0.317682	-0.282816	-0.033878	1.335043	0.010073	-0.029433	1.348705	-0.358405	
