PathFileType	4	(X/Y/Z)	 P6 250r2 03.trc
DataRate	CameraRate	NumFrames	NumMarkers	Units	OrigDataRate	OrigDataStartFrame	OrigNumFrames
200	200	85	38	m	200	2	86
Frame#	Time	RASIS			LASIS			RPSIS			LPSIS			RThighRear1			RThighFront1			RThighRear2			RThighFront2			RKneeLat			RKneeMed			RShankRear1			RShankFront1			RShankRear2			RShankFront2			RAnkleLat			RAnkleMed			RM5			RM1			RMid			RHeel			LThighRear1			LThighFront1			LThighRear2			LThighFront2			LKneeLat			LKneeMed			LShankRear1			LShankFront1			LShankRear2			LShankFront2			LAnkleLat			LAnkleMed			LM5			LM1			LMid			LHeel			RShoulder			LShoulder			
		X1	Y1	Z1	X2	Y2	Z2	X3	Y3	Z3	X4	Y4	Z4	X5	Y5	Z5	X6	Y6	Z6	X7	Y7	Z7	X8	Y8	Z8	X9	Y9	Z9	X10	Y10	Z10	X11	Y11	Z11	X12	Y12	Z12	X13	Y13	Z13	X14	Y14	Z14	X15	Y15	Z15	X16	Y16	Z16	X17	Y17	Z17	X18	Y18	Z18	X19	Y19	Z19	X20	Y20	Z20	X21	Y21	Z21	X22	Y22	Z22	X23	Y23	Z23	X24	Y24	Z24	X25	Y25	Z25	X26	Y26	Z26	X27	Y27	Z27	X28	Y28	Z28	X29	Y29	Z29	X30	Y30	Z30	X31	Y31	Z31	X32	Y32	Z32	X33	Y33	Z33	X34	Y34	Z34	X35	Y35	Z35	X36	Y36	Z36	X37	Y37	Z37	X38	Y38	Z38	
1	0.0000	-1.452698	0.925813	-0.189014	-1.436047	0.928084	-0.451803	-1.595127	0.952430	-0.277774	-1.593129	0.950100	-0.378643	-1.522847	0.747661	-0.172478	-1.473680	0.742755	-0.179214	-1.536861	0.701244	-0.178210	-1.488232	0.695768	-0.179166	-1.594299	0.452110	-0.242578	-1.575695	0.455001	-0.343705	-1.737350	0.432256	-0.232195	-1.717291	0.384882	-0.252862	-1.784072	0.412809	-0.243013	-1.760506	0.370848	-0.258562	-1.977623	0.333474	-0.292279	-1.951915	0.333923	-0.379252	-2.015047	0.203990	-0.295408	-1.999704	0.201425	-0.397169	-1.977126	0.155750	-0.353156	-2.014498	0.398202	-0.343597	-1.464484	0.762028	-0.508086	-1.410775	0.781759	-0.499069	-1.443462	0.730712	-0.513805	-1.396943	0.751527	-0.500348	-1.325648	0.498987	-0.478739	-1.331081	0.502926	-0.376743	-1.346354	0.357281	-0.509344	-1.297187	0.371557	-0.495423	-1.331894	0.319289	-0.508250	-1.291023	0.330834	-0.494793	-1.285607	0.096971	-0.480856	-1.274749	0.122586	-0.392709	-1.142152	0.091605	-0.500494	-1.146070	0.097849	-0.386543	-1.107361	0.139857	-0.447873	-1.342511	0.052997	-0.425980	-1.402448	1.348674	-0.157523	-1.424825	1.364262	-0.518672	
2	0.0050	-1.437616	0.923562	-0.188103	-1.420907	0.926475	-0.450981	-1.580407	0.949711	-0.276738	-1.578283	0.947916	-0.377664	-1.505300	0.744938	-0.171427	-1.456067	0.740976	-0.178255	-1.518345	0.698408	-0.176832	-1.469580	0.693899	-0.177846	-1.570255	0.448568	-0.240664	-1.551236	0.451441	-0.342159	-1.712986	0.429976	-0.230138	-1.693408	0.382420	-0.251092	-1.759843	0.411175	-0.241076	-1.736867	0.369051	-0.256762	-1.954225	0.335024	-0.290447	-1.928375	0.334971	-0.377405	-1.991784	0.205750	-0.293059	-1.976308	0.202692	-0.394920	-1.953696	0.156838	-0.350832	-1.991082	0.399815	-0.341992	-1.449114	0.760320	-0.507269	-1.395418	0.780024	-0.498398	-1.428137	0.728980	-0.512937	-1.381590	0.749719	-0.499584	-1.310833	0.496751	-0.478243	-1.316276	0.500743	-0.376228	-1.334199	0.355972	-0.509002	-1.284932	0.368938	-0.494705	-1.320737	0.317772	-0.507785	-1.279872	0.328250	-0.494042	-1.281678	0.095768	-0.480441	-1.270318	0.120497	-0.392120	-1.138720	0.085636	-0.499375	-1.142951	0.091477	-0.385510	-1.102686	0.131709	-0.446318	-1.340178	0.053787	-0.426094	-1.387828	1.346152	-0.156549	-1.408515	1.360898	-0.518496	
3	0.0100	-1.422379	0.921334	-0.187172	-1.405569	0.924886	-0.450138	-1.565515	0.947014	-0.275709	-1.563247	0.945757	-0.376688	-1.487550	0.742253	-0.170349	-1.438255	0.739254	-0.177283	-1.499595	0.695611	-0.175428	-1.450701	0.692093	-0.176515	-1.545807	0.445103	-0.238727	-1.526384	0.447979	-0.340596	-1.688221	0.427718	-0.228063	-1.669105	0.379978	-0.249295	-1.735217	0.409550	-0.239104	-1.712807	0.367255	-0.254933	-1.930427	0.336478	-0.288572	-1.904439	0.335938	-0.375519	-1.968051	0.207385	-0.290655	-1.952451	0.203838	-0.392619	-1.929771	0.157825	-0.348452	-1.967316	0.401317	-0.340341	-1.433572	0.758610	-0.506440	-1.379885	0.778269	-0.497700	-1.412653	0.727239	-0.512055	-1.366074	0.747885	-0.498797	-1.295956	0.494457	-0.477722	-1.301409	0.498508	-0.375690	-1.322021	0.354634	-0.508639	-1.272658	0.366272	-0.493969	-1.309574	0.316229	-0.507303	-1.268718	0.325626	-0.493272	-1.277821	0.094583	-0.480013	-1.265954	0.118436	-0.391516	-1.135340	0.079781	-0.498275	-1.139869	0.085214	-0.384508	-1.098071	0.123649	-0.444777	-1.337908	0.054549	-0.426191	-1.373030	1.343643	-0.155544	-1.391973	1.357541	-0.518292	
4	0.0150	-1.407001	0.919156	-0.186218	-1.390040	0.923335	-0.449269	-1.550462	0.944367	-0.274691	-1.548024	0.943651	-0.375718	-1.469615	0.739645	-0.169237	-1.420263	0.737630	-0.176293	-1.480623	0.692895	-0.173996	-1.431611	0.690394	-0.175174	-1.520944	0.441776	-0.236765	-1.501136	0.444682	-0.339012	-1.663043	0.425508	-0.225969	-1.644358	0.377585	-0.247465	-1.710183	0.407948	-0.237093	-1.688299	0.365476	-0.253070	-1.906202	0.337785	-0.286647	-1.880081	0.336781	-0.373586	-1.943786	0.208837	-0.288190	-1.928075	0.204811	-0.390257	-1.905280	0.158665	-0.346007	-1.943189	0.402646	-0.338637	-1.417881	0.756913	-0.505594	-1.364198	0.776502	-0.496968	-1.397037	0.725501	-0.511154	-1.350419	0.746031	-0.497980	-1.281080	0.492110	-0.477171	-1.286544	0.496224	-0.375124	-1.309882	0.353274	-0.508250	-1.260429	0.363566	-0.493214	-1.298465	0.314669	-0.506801	-1.257624	0.322972	-0.492482	-1.274073	0.093435	-0.479573	-1.261696	0.116424	-0.390900	-1.132048	0.074101	-0.497204	-1.136854	0.079123	-0.383550	-1.093561	0.115746	-0.443265	-1.335725	0.055281	-0.426266	-1.358067	1.341174	-0.154502	-1.375196	1.354222	-0.518045	
5	0.0200	-1.391490	0.917055	-0.185237	-1.374319	0.921841	-0.448368	-1.535249	0.941801	-0.273685	-1.532613	0.941624	-0.374756	-1.451503	0.737155	-0.168084	-1.402103	0.736145	-0.175283	-1.461433	0.690302	-0.172529	-1.412320	0.688846	-0.173821	-1.495652	0.438650	-0.234777	-1.475483	0.441617	-0.337404	-1.637436	0.423371	-0.223856	-1.619138	0.375271	-0.245598	-1.684721	0.406382	-0.235038	-1.663311	0.363732	-0.251166	-1.881512	0.338891	-0.284664	-1.855267	0.337456	-0.371600	-1.918917	0.210045	-0.285654	-1.903108	0.205554	-0.387826	-1.880139	0.159315	-0.343486	-1.918681	0.403736	-0.336868	-1.402056	0.755246	-0.504729	-1.348372	0.774730	-0.496195	-1.381310	0.723780	-0.510232	-1.334645	0.744163	-0.497128	-1.266268	0.489714	-0.476583	-1.271745	0.493896	-0.374525	-1.297843	0.351900	-0.507831	-1.248307	0.360832	-0.492439	-1.287468	0.313104	-0.506278	-1.246650	0.320303	-0.491673	-1.270468	0.092341	-0.479122	-1.257582	0.114487	-0.390271	-1.128875	0.068651	-0.496177	-1.133934	0.073261	-0.382647	-1.089199	0.108068	-0.441794	-1.333655	0.055982	-0.426316	-1.342948	1.338770	-0.153415	-1.358179	1.350973	-0.517740	
6	0.0250	-1.375851	0.915061	-0.184224	-1.358401	0.920423	-0.447429	-1.519874	0.939344	-0.272693	-1.517008	0.939703	-0.373800	-1.433220	0.734826	-0.166882	-1.383781	0.734841	-0.174247	-1.442029	0.687876	-0.171022	-1.392836	0.687494	-0.172454	-1.469914	0.435790	-0.232756	-1.449414	0.438853	-0.335762	-1.611379	0.421335	-0.221721	-1.593411	0.373068	-0.243686	-1.658808	0.404865	-0.232932	-1.637804	0.362040	-0.249215	-1.856316	0.339745	-0.282611	-1.829954	0.337918	-0.369552	-1.893367	0.210952	-0.283037	-1.877475	0.206016	-0.385315	-1.854263	0.159734	-0.340879	-1.893768	0.404520	-0.335026	-1.386112	0.753624	-0.503838	-1.332417	0.772961	-0.495371	-1.365491	0.722087	-0.509284	-1.318771	0.742289	-0.496235	-1.251578	0.487275	-0.475953	-1.257071	0.491527	-0.373887	-1.285961	0.350523	-0.507379	-1.236350	0.358084	-0.491644	-1.276640	0.311545	-0.505731	-1.235851	0.317633	-0.490844	-1.267036	0.091319	-0.478663	-1.253643	0.112648	-0.389633	-1.125852	0.063481	-0.495203	-1.131136	0.067677	-0.381809	-1.085024	0.100675	-0.440375	-1.331719	0.056655	-0.426340	-1.327681	1.336459	-0.152278	-1.340910	1.347825	-0.517362	
7	0.0300	-1.360083	0.913203	-0.183175	-1.342279	0.919100	-0.446446	-1.504334	0.937027	-0.271716	-1.501201	0.937914	-0.372851	-1.414767	0.732698	-0.165624	-1.365303	0.733761	-0.173182	-1.422408	0.685659	-0.169470	-1.373161	0.686382	-0.171072	-1.443713	0.433259	-0.230699	-1.422916	0.436456	-0.334081	-1.584852	0.419426	-0.219560	-1.567145	0.371006	-0.241722	-1.632420	0.403409	-0.230768	-1.611742	0.360418	-0.247208	-1.830569	0.340293	-0.280481	-1.804103	0.338124	-0.367432	-1.867057	0.211504	-0.280329	-1.851098	0.206147	-0.382716	-1.827563	0.159881	-0.338174	-1.868422	0.404934	-0.333101	-1.370057	0.752064	-0.502917	-1.316345	0.771203	-0.494490	-1.349596	0.720439	-0.508303	-1.302812	0.740415	-0.495294	-1.237069	0.484801	-0.475277	-1.242580	0.489126	-0.373204	-1.274288	0.349155	-0.506889	-1.224614	0.355335	-0.490828	-1.266030	0.310006	-0.505158	-1.225280	0.314977	-0.489996	-1.263803	0.090388	-0.478196	-1.249909	0.110927	-0.388989	-1.123003	0.058632	-0.494293	-1.128485	0.062418	-0.381045	-1.081073	0.093621	-0.439017	-1.329933	0.057307	-0.426336	-1.312270	1.334270	-0.151082	-1.323376	1.344812	-0.516896	
8	0.0350	-1.344182	0.911509	-0.182084	-1.325945	0.917889	-0.445413	-1.488620	0.934877	-0.270751	-1.485183	0.936282	-0.371907	-1.396145	0.730814	-0.164301	-1.346672	0.732945	-0.172080	-1.402570	0.683695	-0.167867	-1.353300	0.685553	-0.169671	-1.417039	0.431118	-0.228599	-1.395986	0.434491	-0.332350	-1.557841	0.417670	-0.217369	-1.540312	0.369118	-0.239699	-1.605538	0.402027	-0.228540	-1.585093	0.358884	-0.245136	-1.804230	0.340489	-0.278262	-1.777671	0.338033	-0.365234	-1.839913	0.211650	-0.277522	-1.823902	0.205900	-0.380017	-1.799954	0.159723	-0.335361	-1.842613	0.404913	-0.331082	-1.353904	0.750581	-0.501959	-1.300163	0.769465	-0.493545	-1.333642	0.718849	-0.507285	-1.286780	0.738549	-0.494300	-1.222794	0.482303	-0.474550	-1.228330	0.486701	-0.372472	-1.262877	0.347810	-0.506358	-1.213151	0.352603	-0.489991	-1.255688	0.308503	-0.504556	-1.214986	0.312352	-0.489130	-1.260787	0.089564	-0.477725	-1.246401	0.109346	-0.388341	-1.120352	0.054140	-0.493456	-1.126004	0.057518	-0.380361	-1.077377	0.086957	-0.437730	-1.328310	0.057946	-0.426303	-1.296722	1.332229	-0.149824	-1.305565	1.341965	-0.516325	
9	0.0400	-1.328146	0.910006	-0.180947	-1.309394	0.916806	-0.444325	-1.472724	0.932923	-0.269797	-1.468945	0.934832	-0.370965	-1.377355	0.729213	-0.162905	-1.327891	0.732432	-0.170937	-1.382516	0.682024	-0.166206	-1.333256	0.685047	-0.168247	-1.389891	0.429427	-0.226451	-1.368624	0.433016	-0.330560	-1.530336	0.416091	-0.215142	-1.512893	0.367432	-0.237608	-1.578148	0.400729	-0.226243	-1.557832	0.357456	-0.242990	-1.777262	0.340285	-0.275947	-1.750623	0.337606	-0.362948	-1.811867	0.211347	-0.274606	-1.795819	0.205236	-0.377211	-1.771361	0.159230	-0.332431	-1.816317	0.404397	-0.328962	-1.337661	0.749192	-0.500959	-1.283882	0.767756	-0.492528	-1.317643	0.717333	-0.506224	-1.270692	0.736700	-0.493247	-1.208804	0.479794	-0.473769	-1.214371	0.484263	-0.371685	-1.251773	0.346502	-0.505784	-1.202008	0.349908	-0.489134	-1.245656	0.307053	-0.503925	-1.205012	0.309780	-0.488246	-1.258001	0.088863	-0.477252	-1.243136	0.107922	-0.387693	-1.117916	0.050030	-0.492699	-1.123709	0.053006	-0.379760	-1.073962	0.080721	-0.436519	-1.326857	0.058583	-0.426241	-1.281041	1.330363	-0.148497	-1.287467	1.339317	-0.515635	
10	0.0450	-1.311968	0.908721	-0.179761	-1.292619	0.915867	-0.443176	-1.456641	0.931190	-0.268849	-1.452480	0.933585	-0.370021	-1.358399	0.727933	-0.161431	-1.308964	0.732258	-0.169747	-1.362249	0.680685	-0.164484	-1.313038	0.684902	-0.166796	-1.362274	0.428238	-0.224248	-1.340841	0.432085	-0.328701	-1.502338	0.414711	-0.212875	-1.484878	0.365977	-0.235441	-1.550244	0.399524	-0.223869	-1.529944	0.356152	-0.240760	-1.749635	0.339643	-0.273526	-1.722931	0.336809	-0.360566	-1.782861	0.210560	-0.271574	-1.766788	0.204122	-0.374289	-1.741719	0.158378	-0.329376	-1.789511	0.403332	-0.326732	-1.321341	0.747914	-0.499910	-1.267512	0.766087	-0.491435	-1.301615	0.715906	-0.505115	-1.254562	0.734880	-0.492131	-1.195148	0.477290	-0.472932	-1.200753	0.481825	-0.370841	-1.241017	0.345249	-0.505164	-1.191228	0.347270	-0.488258	-1.235970	0.305674	-0.503264	-1.195398	0.307282	-0.487347	-1.255452	0.088302	-0.476782	-1.240123	0.106673	-0.387051	-1.115710	0.046318	-0.492028	-1.121617	0.048902	-0.379245	-1.070851	0.074947	-0.435390	-1.325574	0.059235	-0.426154	-1.265236	1.328699	-0.147098	-1.269074	1.336899	-0.514812	
11	0.0500	-1.295645	0.907677	-0.178521	-1.275619	0.915085	-0.441962	-1.440365	0.929702	-0.267904	-1.435783	0.932562	-0.369071	-1.339281	0.727007	-0.159872	-1.289897	0.732453	-0.168504	-1.341775	0.679712	-0.162693	-1.292654	0.685150	-0.165315	-1.334208	0.427599	-0.221985	-1.312660	0.431742	-0.326764	-1.473859	0.413549	-0.210560	-1.456268	0.364781	-0.233192	-1.521832	0.398421	-0.221413	-1.501424	0.354990	-0.238439	-1.721327	0.338527	-0.270992	-1.694573	0.335611	-0.358082	-1.752848	0.209259	-0.268420	-1.736763	0.202534	-0.371246	-1.710977	0.157152	-0.326189	-1.762179	0.401667	-0.324386	-1.304955	0.746763	-0.498805	-1.251065	0.764469	-0.490260	-1.285576	0.714583	-0.503951	-1.238406	0.733098	-0.490948	-1.181867	0.474811	-0.472038	-1.187519	0.479404	-0.369936	-1.230646	0.344072	-0.504499	-1.180846	0.344716	-0.487365	-1.226664	0.304387	-0.502573	-1.186173	0.304882	-0.486437	-1.253138	0.087895	-0.476318	-1.237363	0.105615	-0.386419	-1.113741	0.043014	-0.491448	-1.119739	0.045215	-0.378815	-1.068059	0.069656	-0.434347	-1.324457	0.059920	-0.426044	-1.249315	1.327259	-0.145622	-1.250385	1.334740	-0.513843	
12	0.0550	-1.279173	0.906896	-0.177226	-1.258396	0.914474	-0.440680	-1.423892	0.928481	-0.266955	-1.418854	0.931781	-0.368108	-1.320008	0.726466	-0.158224	-1.270699	0.733046	-0.167203	-1.321105	0.679137	-0.160832	-1.272117	0.685819	-0.163798	-1.305725	0.427550	-0.219657	-1.284114	0.432025	-0.324738	-1.444919	0.412623	-0.208192	-1.427079	0.363866	-0.230852	-1.492926	0.397424	-0.218871	-1.472283	0.353983	-0.236018	-1.692326	0.336909	-0.268339	-1.665539	0.333988	-0.355490	-1.721797	0.207429	-0.265139	-1.705710	0.200457	-0.368075	-1.679099	0.155546	-0.322865	-1.734311	0.399360	-0.321918	-1.288518	0.745756	-0.497640	-1.234555	0.762914	-0.489001	-1.269541	0.713382	-0.502728	-1.222241	0.731369	-0.489696	-1.168999	0.472380	-0.471086	-1.174708	0.477019	-0.368970	-1.220688	0.342992	-0.503789	-1.170894	0.342271	-0.486458	-1.217762	0.303215	-0.501852	-1.177364	0.302606	-0.485518	-1.251051	0.087659	-0.475866	-1.234853	0.104760	-0.385803	-1.112014	0.040114	-0.490962	-1.118083	0.041946	-0.378466	-1.065595	0.064863	-0.433393	-1.323494	0.060661	-0.425913	-1.233291	1.326067	-0.144068	-1.231401	1.332868	-0.512716	
13	0.0600	-1.262550	0.906398	-0.175872	-1.240956	0.914043	-0.439326	-1.407221	0.927544	-0.265994	-1.401695	0.931256	-0.367126	-1.300587	0.726336	-0.156482	-1.251378	0.734058	-0.165838	-1.300254	0.678987	-0.158897	-1.251444	0.686931	-0.162241	-1.276870	0.428123	-0.217258	-1.255250	0.432961	-0.322614	-1.415553	0.411945	-0.205764	-1.397339	0.363253	-0.228416	-1.463551	0.396538	-0.216237	-1.442542	0.353146	-0.233490	-1.662629	0.334768	-0.265560	-1.635827	0.331921	-0.352782	-1.689689	0.205060	-0.261728	-1.673608	0.197886	-0.364774	-1.646069	0.153561	-0.319402	-1.705902	0.396376	-0.319324	-1.272046	0.744908	-0.496410	-1.217999	0.761436	-0.487656	-1.253530	0.712320	-0.501441	-1.206085	0.729707	-0.488374	-1.156575	0.470022	-0.470080	-1.162349	0.474692	-0.367942	-1.211166	0.342031	-0.503036	-1.161392	0.339965	-0.485541	-1.209280	0.302181	-0.501103	-1.168987	0.300482	-0.484596	-1.249175	0.087606	-0.475431	-1.232578	0.104121	-0.385209	-1.110528	0.037611	-0.490570	-1.116650	0.039090	-0.378196	-1.063463	0.060571	-0.432528	-1.322668	0.061483	-0.425768	-1.217175	1.325142	-0.142436	-1.212132	1.331307	-0.511422	
14	0.0650	-1.245775	0.906196	-0.174459	-1.223307	0.913801	-0.437900	-1.390354	0.926907	-0.265014	-1.384313	0.930999	-0.366117	-1.281031	0.726637	-0.154644	-1.231948	0.735503	-0.164404	-1.279241	0.679280	-0.156885	-1.230655	0.688499	-0.160638	-1.247700	0.429338	-0.214785	-1.226124	0.434565	-0.320385	-1.385806	0.411522	-0.203268	-1.367088	0.362957	-0.225878	-1.433745	0.395764	-0.213510	-1.412236	0.352491	-0.230849	-1.632243	0.332090	-0.262651	-1.605445	0.329399	-0.349955	-1.656523	0.202155	-0.258185	-1.640452	0.194826	-0.361340	-1.611883	0.151210	-0.315799	-1.676954	0.392689	-0.316598	-1.255556	0.744235	-0.495109	-1.201415	0.760051	-0.486227	-1.237560	0.711412	-0.500089	-1.189958	0.728129	-0.486983	-1.144617	0.467764	-0.469023	-1.150464	0.472448	-0.366856	-1.202093	0.341216	-0.502242	-1.152355	0.337828	-0.484618	-1.201228	0.301309	-0.500328	-1.161050	0.298537	-0.483676	-1.247488	0.087751	-0.475018	-1.230520	0.103708	-0.384644	-1.109277	0.035485	-0.490273	-1.115442	0.036631	-0.377997	-1.061661	0.056776	-0.431754	-1.321954	0.062415	-0.425614	-1.200984	1.324499	-0.140725	-1.192590	1.330078	-0.509953	
15	0.0700	-1.228849	0.906303	-0.172987	-1.205463	0.913755	-0.436401	-1.373294	0.926581	-0.264004	-1.366718	0.931020	-0.365073	-1.261354	0.727383	-0.152708	-1.212422	0.737393	-0.162898	-1.258089	0.680033	-0.154797	-1.209770	0.690534	-0.158986	-1.218281	0.431208	-0.212236	-1.196806	0.436843	-0.318042	-1.355730	0.411359	-0.200700	-1.336379	0.362990	-0.223235	-1.403552	0.395101	-0.210684	-1.381412	0.352026	-0.228090	-1.601184	0.328869	-0.259609	-1.574411	0.326417	-0.347005	-1.622309	0.198730	-0.254509	-1.606252	0.191293	-0.357773	-1.576559	0.148513	-0.312056	-1.647473	0.388279	-0.313738	-1.239066	0.743753	-0.493735	-1.184820	0.758772	-0.484714	-1.221649	0.710675	-0.498667	-1.173877	0.726650	-0.485524	-1.133141	0.465638	-0.467918	-1.139066	0.470311	-0.365715	-1.193475	0.340571	-0.501411	-1.143788	0.335892	-0.483694	-1.193606	0.300626	-0.499531	-1.153553	0.296802	-0.482763	-1.245961	0.088107	-0.474632	-1.228651	0.103532	-0.384115	-1.108252	0.033714	-0.490070	-1.114453	0.034549	-0.377862	-1.060182	0.053463	-0.431070	-1.321323	0.063489	-0.425455	-1.184733	1.324152	-0.138937	-1.172795	1.329197	-0.508306	
16	0.0750	-1.211773	0.906726	-0.171457	-1.187440	0.913911	-0.434829	-1.356048	0.926575	-0.262956	-1.348922	0.931322	-0.363985	-1.241570	0.728583	-0.150674	-1.192814	0.739728	-0.161315	-1.236822	0.681252	-0.152631	-1.188814	0.693034	-0.157281	-1.188690	0.433733	-0.209609	-1.167371	0.439788	-0.315582	-1.325389	0.411454	-0.198052	-1.305277	0.363359	-0.220483	-1.373025	0.394544	-0.207758	-1.350125	0.351757	-0.225210	-1.569474	0.325107	-0.256429	-1.542750	0.322975	-0.343927	-1.587070	0.194808	-0.250702	-1.571030	0.187314	-0.354074	-1.540125	0.145501	-0.308176	-1.617469	0.383140	-0.310740	-1.222593	0.743475	-0.492284	-1.168235	0.757618	-0.483121	-1.205815	0.710126	-0.497176	-1.157863	0.725291	-0.484000	-1.122152	0.463675	-0.466774	-1.128157	0.468312	-0.364525	-1.185307	0.340123	-0.500547	-1.135685	0.334188	-0.482776	-1.186406	0.300157	-0.498716	-1.146484	0.295305	-0.481866	-1.244560	0.088687	-0.474279	-1.226937	0.103598	-0.383628	-1.107440	0.032269	-0.489957	-1.113675	0.032818	-0.377783	-1.059012	0.050613	-0.430474	-1.320739	0.064739	-0.425298	-1.168437	1.324109	-0.137074	-1.152770	1.328677	-0.506476	
17	0.0800	-1.194550	0.907469	-0.169869	-1.169257	0.914269	-0.433186	-1.338623	0.926890	-0.261858	-1.330942	0.931909	-0.362844	-1.221696	0.730236	-0.148544	-1.173140	0.742504	-0.159653	-1.215468	0.682938	-0.150390	-1.167811	0.695995	-0.155516	-1.159013	0.436903	-0.206904	-1.137905	0.443380	-0.312998	-1.294852	0.411801	-0.195318	-1.273853	0.364065	-0.217620	-1.342225	0.394088	-0.204729	-1.318443	0.351688	-0.222205	-1.537143	0.320814	-0.253110	-1.510493	0.319082	-0.340719	-1.550844	0.190425	-0.246765	-1.534820	0.182926	-0.350245	-1.502628	0.142214	-0.304162	-1.586957	0.377270	-0.307602	-1.206155	0.743413	-0.490756	-1.151678	0.756605	-0.481453	-1.190070	0.709781	-0.495614	-1.141930	0.724070	-0.482417	-1.111644	0.461907	-0.465596	-1.117729	0.466477	-0.363292	-1.177576	0.339900	-0.499656	-1.128031	0.332747	-0.481868	-1.179610	0.299928	-0.497887	-1.139826	0.294077	-0.480991	-1.243245	0.089503	-0.473965	-1.225341	0.103916	-0.383190	-1.106825	0.031116	-0.489932	-1.113095	0.031406	-0.377751	-1.058132	0.048194	-0.429964	-1.320162	0.066201	-0.425149	-1.152112	1.324376	-0.135139	-1.132543	1.328526	-0.504463	
18	0.0850	-1.177183	0.908530	-0.168228	-1.150936	0.914832	-0.431474	-1.321030	0.927528	-0.260700	-1.312795	0.932777	-0.361640	-1.201749	0.732337	-0.146320	-1.153416	0.745708	-0.157909	-1.194056	0.685085	-0.148074	-1.146786	0.699400	-0.153690	-1.129339	0.440695	-0.204123	-1.108495	0.447591	-0.310289	-1.264191	0.412386	-0.192493	-1.242185	0.365104	-0.214646	-1.311215	0.393723	-0.201595	-1.286436	0.351817	-0.219075	-1.504226	0.316006	-0.249649	-1.477677	0.314753	-0.337378	-1.513674	0.185626	-0.242701	-1.497668	0.178174	-0.346287	-1.464126	0.138701	-0.300019	-1.555951	0.370680	-0.304321	-1.189768	0.743579	-0.489148	-1.135167	0.755751	-0.479718	-1.174430	0.709653	-0.493983	-1.126093	0.723007	-0.480779	-1.101602	0.460366	-0.464394	-1.107761	0.464836	-0.362024	-1.170258	0.339926	-0.498743	-1.120804	0.331599	-0.480978	-1.173190	0.299964	-0.497049	-1.133548	0.293144	-0.480144	-1.241973	0.090568	-0.473692	-1.223817	0.104489	-0.382806	-1.106385	0.030221	-0.489989	-1.112697	0.030283	-0.377757	-1.057521	0.046174	-0.429540	-1.319548	0.067910	-0.425013	-1.135771	1.324952	-0.133135	-1.112144	1.328746	-0.502270	
19	0.0900	-1.159677	0.909903	-0.166534	-1.132498	0.915598	-0.429698	-1.303277	0.928483	-0.259472	-1.294501	0.933922	-0.360364	-1.181747	0.734873	-0.144004	-1.133656	0.749322	-0.156081	-1.172614	0.687678	-0.145688	-1.125763	0.703230	-0.151799	-1.099761	0.445076	-0.201269	-1.079235	0.452377	-0.307455	-1.233482	0.413194	-0.189571	-1.210359	0.366466	-0.211560	-1.280062	0.393436	-0.198355	-1.254183	0.352142	-0.215820	-1.470759	0.310708	-0.246045	-1.444344	0.310008	-0.333902	-1.475617	0.180463	-0.238512	-1.459628	0.173114	-0.342204	-1.424687	0.135016	-0.295753	-1.524468	0.363388	-0.300894	-1.173445	0.743982	-0.487463	-1.118718	0.755070	-0.477922	-1.158901	0.709756	-0.492285	-1.110365	0.722119	-0.479095	-1.092002	0.459084	-0.463175	-1.098221	0.463417	-0.360731	-1.163321	0.340227	-0.497815	-1.113967	0.330772	-0.480111	-1.167112	0.300287	-0.496206	-1.127614	0.292531	-0.479332	-1.240697	0.091894	-0.473466	-1.222318	0.105325	-0.382482	-1.106100	0.029546	-0.490123	-1.112462	0.029413	-0.377791	-1.057152	0.044511	-0.429197	-1.318850	0.069904	-0.424896	-1.119426	1.325835	-0.131066	-1.091605	1.329334	-0.499900	
20	0.0950	-1.142036	0.911580	-0.164794	-1.113966	0.916565	-0.427861	-1.285378	0.929747	-0.258163	-1.276080	0.935335	-0.359008	-1.161705	0.737824	-0.141603	-1.113873	0.753320	-0.154169	-1.151173	0.690697	-0.143235	-1.104765	0.707454	-0.149840	-1.070371	0.450003	-0.198344	-1.050215	0.457687	-0.304495	-1.202802	0.414202	-0.186547	-1.178459	0.368136	-0.208365	-1.248835	0.393215	-0.195006	-1.221764	0.352654	-0.212441	-1.436782	0.304950	-0.242297	-1.410535	0.304875	-0.330287	-1.436733	0.174999	-0.234201	-1.420763	0.167807	-0.338000	-1.384389	0.131222	-0.291368	-1.492524	0.355419	-0.297319	-1.157197	0.744629	-0.485702	-1.102343	0.754580	-0.476073	-1.143489	0.710100	-0.490523	-1.094754	0.721427	-0.477369	-1.082808	0.458088	-0.461949	-1.089070	0.462247	-0.359422	-1.156722	0.340825	-0.496877	-1.107479	0.330292	-0.479274	-1.161332	0.300919	-0.495364	-1.121977	0.292263	-0.478562	-1.239369	0.093490	-0.473289	-1.220793	0.106426	-0.382221	-1.105946	0.029057	-0.490326	-1.112370	0.028765	-0.377844	-1.056996	0.043165	-0.428932	-1.318016	0.072218	-0.424802	-1.103087	1.327015	-0.128938	-1.070961	1.330284	-0.497359	
21	0.1000	-1.124264	0.913544	-0.163010	-1.095362	0.917726	-0.425969	-1.267342	0.931306	-0.256764	-1.257552	0.937004	-0.357563	-1.141639	0.741164	-0.139121	-1.094080	0.757668	-0.152173	-1.129757	0.694115	-0.140719	-1.083812	0.712037	-0.147812	-1.041262	0.455421	-0.195354	-1.021527	0.463458	-0.301414	-1.172225	0.415383	-0.183418	-1.146573	0.370094	-0.205061	-1.217599	0.393042	-0.191549	-1.189259	0.353342	-0.208940	-1.402336	0.298769	-0.238405	-1.376294	0.299385	-0.326534	-1.397089	0.169302	-0.229772	-1.381141	0.162321	-0.333679	-1.343317	0.127386	-0.286872	-1.460134	0.346808	-0.293593	-1.141032	0.745525	-0.483868	-1.086053	0.754295	-0.474182	-1.128196	0.710695	-0.488700	-1.079262	0.720945	-0.475612	-1.073973	0.457406	-0.460724	-1.080253	0.461349	-0.358106	-1.150411	0.341740	-0.495934	-1.101287	0.330178	-0.478470	-1.155798	0.301877	-0.494526	-1.116584	0.292357	-0.477839	-1.237937	0.095369	-0.473163	-1.219191	0.107798	-0.382027	-1.105896	0.028721	-0.490592	-1.112395	0.028307	-0.377909	-1.057021	0.042090	-0.428743	-1.316997	0.074888	-0.424733	-1.086759	1.328481	-0.126753	-1.050245	1.331581	-0.494656	
22	0.1050	-1.106366	0.915778	-0.161188	-1.076709	0.919075	-0.424027	-1.249182	0.933144	-0.255268	-1.238937	0.938913	-0.356023	-1.121564	0.744858	-0.136565	-1.074287	0.762329	-0.150094	-1.108394	0.697896	-0.138147	-1.062922	0.716938	-0.145712	-1.012521	0.461269	-0.192306	-0.993256	0.469620	-0.298216	-1.141823	0.416708	-0.180180	-1.114784	0.372314	-0.201653	-1.186420	0.392899	-0.187981	-1.156747	0.354193	-0.205321	-1.367462	0.292206	-0.234368	-1.341667	0.293574	-0.322639	-1.356756	0.163444	-0.225228	-1.340834	0.156730	-0.329243	-1.301562	0.123579	-0.282270	-1.427311	0.337596	-0.289714	-1.124952	0.746673	-0.481964	-1.069854	0.754227	-0.472257	-1.113018	0.711546	-0.486822	-1.063891	0.720690	-0.473830	-1.065445	0.457057	-0.459509	-1.071712	0.460745	-0.356794	-1.144331	0.342988	-0.494993	-1.095333	0.330449	-0.477703	-1.150453	0.303178	-0.493698	-1.111374	0.292829	-0.477166	-1.236354	0.097539	-0.473088	-1.217457	0.109442	-0.381899	-1.105926	0.028508	-0.490910	-1.112511	0.028011	-0.377976	-1.057193	0.041241	-0.428624	-1.315740	0.077946	-0.424692	-1.070445	1.330217	-0.124516	-1.029492	1.333209	-0.491800	
23	0.1100	-1.088346	0.918260	-0.159334	-1.058024	0.920602	-0.422042	-1.230908	0.935241	-0.253667	-1.220253	0.941044	-0.354382	-1.101491	0.748868	-0.133942	-1.054502	0.767259	-0.147935	-1.087107	0.702000	-0.135524	-1.042111	0.722109	-0.143541	-0.984230	0.467475	-0.189205	-0.965484	0.476095	-0.294907	-1.111662	0.418141	-0.176831	-1.083175	0.374766	-0.198144	-1.155358	0.392768	-0.184303	-1.124306	0.355189	-0.201589	-1.332199	0.285307	-0.230185	-1.306696	0.287481	-0.318602	-1.315808	0.157503	-0.220570	-1.299918	0.151110	-0.324697	-1.259217	0.119874	-0.277568	-1.394068	0.327832	-0.285679	-1.108958	0.748070	-0.479995	-1.053747	0.754386	-0.470309	-1.097947	0.712655	-0.484894	-1.048634	0.720672	-0.472032	-1.057160	0.457059	-0.458310	-1.063378	0.460450	-0.355493	-1.138417	0.344582	-0.494056	-1.089552	0.331114	-0.476977	-1.145234	0.304832	-0.492882	-1.106285	0.293690	-0.476546	-1.234569	0.100009	-0.473062	-1.215542	0.111361	-0.381839	-1.106009	0.028393	-0.491273	-1.112692	0.027854	-0.378040	-1.057479	0.040576	-0.428572	-1.314196	0.081421	-0.424679	-1.054146	1.332202	-0.122231	-1.008732	1.335147	-0.488803	
24	0.1150	-1.070208	0.920964	-0.157451	-1.039327	0.922299	-0.420019	-1.212530	0.937572	-0.251956	-1.201518	0.943377	-0.352636	-1.081432	0.753149	-0.131259	-1.034731	0.772408	-0.145697	-1.065915	0.706383	-0.132857	-1.021391	0.727499	-0.141300	-0.956464	0.473964	-0.186058	-0.938282	0.482800	-0.291496	-1.081804	0.419648	-0.173370	-1.051822	0.377416	-0.194538	-1.124469	0.392628	-0.180514	-1.092009	0.356311	-0.197748	-1.296586	0.278122	-0.225858	-1.271424	0.281150	-0.314423	-1.274321	0.151555	-0.215803	-1.258472	0.145536	-0.320043	-1.216379	0.116345	-0.272771	-1.360417	0.317566	-0.281486	-1.093044	0.749713	-0.477967	-1.037729	0.754778	-0.468345	-1.082969	0.714022	-0.482922	-1.033482	0.720900	-0.470225	-1.049052	0.457423	-0.457135	-1.055179	0.460476	-0.354211	-1.132601	0.346529	-0.493128	-1.083874	0.332179	-0.476291	-1.140073	0.306844	-0.492081	-1.101246	0.294945	-0.475979	-1.232537	0.102786	-0.473085	-1.213395	0.113558	-0.381844	-1.106117	0.028359	-0.491669	-1.112907	0.027818	-0.378094	-1.057842	0.040052	-0.428582	-1.312314	0.085339	-0.424695	-1.037856	1.334415	-0.119901	-0.987998	1.337367	-0.485675	
25	0.1200	-1.051956	0.923861	-0.155546	-1.020632	0.924151	-0.417965	-1.194058	0.940111	-0.250132	-1.182747	0.945888	-0.350782	-1.061394	0.757653	-0.128525	-1.014978	0.777724	-0.143386	-1.044836	0.710992	-0.130151	-1.000772	0.733051	-0.138990	-0.929288	0.480654	-0.182875	-0.911716	0.489647	-0.287992	-1.052302	0.421188	-0.169797	-1.020796	0.380228	-0.190841	-1.093805	0.392458	-0.176615	-1.059924	0.357536	-0.193804	-1.260662	0.270702	-0.221388	-1.235892	0.274624	-0.310101	-1.232372	0.145679	-0.210927	-1.216576	0.140085	-0.315284	-1.173147	0.113062	-0.267883	-1.326369	0.306859	-0.277134	-1.077201	0.751593	-0.475886	-1.021794	0.755406	-0.466376	-1.068067	0.715642	-0.480911	-1.018421	0.721379	-0.468416	-1.041047	0.458154	-0.455987	-1.047036	0.460828	-0.352953	-1.126810	0.348832	-0.492209	-1.078227	0.333644	-0.475645	-1.134902	0.309217	-0.491295	-1.096189	0.296592	-0.475463	-1.230215	0.105875	-0.473150	-1.210969	0.116033	-0.381910	-1.106226	0.028392	-0.492089	-1.113127	0.027891	-0.378133	-1.058248	0.039634	-0.428646	-1.310051	0.089720	-0.424736	-1.021570	1.336830	-0.117530	-0.967318	1.339842	-0.482431	
26	0.1250	-1.033595	0.926920	-0.153623	-1.001953	0.926145	-0.415886	-1.175501	0.942828	-0.248195	-1.163953	0.948551	-0.348819	-1.041387	0.762327	-0.125750	-0.995248	0.783151	-0.141007	-1.023885	0.715775	-0.127414	-0.980260	0.738707	-0.136613	-0.902758	0.487460	-0.179662	-0.885838	0.496548	-0.284404	-1.023206	0.422724	-0.166112	-0.990160	0.383161	-0.187057	-1.063410	0.392237	-0.172609	-1.028114	0.358840	-0.189765	-1.224464	0.263101	-0.216777	-1.200140	0.267950	-0.305637	-1.190040	0.139952	-0.205945	-1.174310	0.134831	-0.310423	-1.129618	0.110094	-0.262908	-1.291936	0.295770	-0.272623	-1.061416	0.753698	-0.473759	-1.005930	0.756269	-0.464409	-1.053220	0.717505	-0.478869	-1.003431	0.722108	-0.466610	-1.033069	0.459247	-0.454869	-1.038872	0.461507	-0.351724	-1.120969	0.351487	-0.491301	-1.072537	0.335503	-0.475037	-1.129650	0.311946	-0.490525	-1.091042	0.298626	-0.474996	-1.227562	0.109282	-0.473254	-1.208223	0.118787	-0.382030	-1.106309	0.028489	-0.492520	-1.113323	0.028069	-0.378153	-1.058662	0.039290	-0.428760	-1.307362	0.094581	-0.424799	-1.005279	1.339419	-0.115119	-0.946716	1.342539	-0.479083	
27	0.1300	-1.015128	0.930106	-0.151688	-0.983300	0.928266	-0.413789	-1.156866	0.945690	-0.246145	-1.145148	0.951341	-0.346750	-1.021415	0.767114	-0.122940	-0.975540	0.788630	-0.138565	-1.003074	0.720675	-0.124651	-0.959860	0.744406	-0.134174	-0.876920	0.494296	-0.176428	-0.860693	0.503412	-0.280746	-0.994553	0.424215	-0.162319	-0.959970	0.386174	-0.183195	-1.033325	0.391944	-0.168496	-0.996633	0.360198	-0.185636	-1.188030	0.255372	-0.212027	-1.164209	0.261172	-0.301034	-1.147405	0.134447	-0.200859	-1.131756	0.129844	-0.305462	-1.085893	0.107504	-0.257851	-1.257129	0.284366	-0.267954	-1.045671	0.756013	-0.471593	-0.990123	0.757362	-0.462450	-1.038403	0.719597	-0.476801	-0.988490	0.723083	-0.464812	-1.025040	0.460694	-0.453783	-1.030608	0.462506	-0.350524	-1.115004	0.354486	-0.490402	-1.066730	0.337740	-0.474462	-1.124246	0.315022	-0.489769	-1.085736	0.301035	-0.474572	-1.224543	0.113008	-0.473389	-1.205119	0.121820	-0.382198	-1.106340	0.028651	-0.492950	-1.113463	0.028354	-0.378150	-1.059051	0.038994	-0.428913	-1.304212	0.099931	-0.424878	-0.988971	1.342152	-0.112671	-0.926218	1.345425	-0.475645	
28	0.1350	-0.996561	0.933385	-0.149745	-0.964681	0.930495	-0.411680	-1.138162	0.948665	-0.243985	-1.126341	0.954227	-0.344576	-1.001483	0.771959	-0.120107	-0.955856	0.794102	-0.136068	-0.982411	0.725632	-0.121871	-0.939574	0.750086	-0.131678	-0.851807	0.501077	-0.173180	-0.836311	0.510151	-0.277027	-0.966376	0.425623	-0.158421	-0.930275	0.389224	-0.179258	-1.003583	0.391561	-0.164280	-0.965531	0.361583	-0.181426	-1.151398	0.247570	-0.207142	-1.128136	0.254336	-0.296293	-1.104548	0.129232	-0.195670	-1.088998	0.125187	-0.300404	-1.042069	0.105350	-0.252713	-1.221966	0.272711	-0.263128	-1.029948	0.758517	-0.469395	-0.974353	0.758675	-0.460505	-1.023588	0.721901	-0.474714	-0.973573	0.724294	-0.463025	-1.016882	0.462477	-0.452727	-1.022167	0.463812	-0.349352	-1.108842	0.357814	-0.489510	-1.060733	0.340336	-0.473913	-1.118621	0.318431	-0.489024	-1.080203	0.303800	-0.474182	-1.221129	0.117053	-0.473545	-1.201625	0.125132	-0.382403	-1.106296	0.028888	-0.493366	-1.113518	0.028754	-0.378121	-1.059381	0.038728	-0.429098	-1.300567	0.105776	-0.424969	-0.972634	1.344998	-0.110188	-0.905842	1.348464	-0.472130	
29	0.1400	-0.977898	0.936720	-0.147799	-0.946100	0.932814	-0.409563	-1.119396	0.951717	-0.241720	-1.107540	0.957181	-0.342304	-0.981595	0.776801	-0.117258	-0.936195	0.799507	-0.133523	-0.961904	0.730587	-0.119078	-0.919403	0.755684	-0.129129	-0.827444	0.507718	-0.169926	-0.812713	0.516678	-0.273261	-0.938699	0.426911	-0.154424	-0.901112	0.392268	-0.175256	-0.974212	0.391068	-0.159966	-0.934852	0.362967	-0.177142	-1.114610	0.239745	-0.202129	-1.091963	0.247484	-0.291420	-1.061553	0.124367	-0.190382	-1.046119	0.120916	-0.295252	-0.998246	0.103678	-0.247497	-1.186466	0.260875	-0.258151	-1.014222	0.761187	-0.467173	-0.958600	0.760192	-0.458578	-1.008745	0.724395	-0.472612	-0.958651	0.725726	-0.461251	-1.008521	0.464572	-0.451698	-1.013476	0.465405	-0.348205	-1.102410	0.361452	-0.488621	-1.054477	0.343265	-0.473383	-1.112711	0.322154	-0.488287	-1.074381	0.306898	-0.473816	-1.217294	0.121416	-0.473714	-1.197716	0.128720	-0.382635	-1.106152	0.029216	-0.493756	-1.113458	0.029284	-0.378063	-1.059622	0.038481	-0.429305	-1.296401	0.112114	-0.425063	-0.956256	1.347925	-0.107670	-0.885608	1.351620	-0.468552	
30	0.1450	-0.959145	0.940073	-0.145851	-0.927560	0.935202	-0.407446	-1.100573	0.954808	-0.239357	-1.088750	0.960170	-0.339939	-0.961756	0.781584	-0.114403	-0.916558	0.804786	-0.130938	-0.941557	0.735481	-0.116279	-0.899346	0.761139	-0.126535	-0.803842	0.514138	-0.166673	-0.789906	0.522913	-0.269459	-0.911541	0.428043	-0.150334	-0.872515	0.395263	-0.171194	-0.945235	0.390449	-0.155560	-0.904630	0.364323	-0.172793	-1.077706	0.231950	-0.196993	-1.055731	0.240659	-0.286421	-1.018504	0.119905	-0.184997	-1.003205	0.117078	-0.290009	-0.954520	0.102527	-0.242208	-1.150655	0.248926	-0.253028	-0.998472	0.763997	-0.464934	-0.942839	0.761894	-0.456671	-0.993845	0.727051	-0.470500	-0.943694	0.727360	-0.459491	-0.999882	0.466946	-0.450692	-1.004467	0.467260	-0.347077	-1.095641	0.365373	-0.487731	-1.047898	0.346495	-0.472860	-1.106452	0.326165	-0.487551	-1.068209	0.310299	-0.473464	-1.213019	0.126094	-0.473885	-1.193371	0.132584	-0.382881	-1.105884	0.029659	-0.494105	-1.113255	0.029964	-0.377973	-1.059744	0.038250	-0.429521	-1.291694	0.118939	-0.425151	-0.939825	1.350900	-0.105118	-0.865530	1.354855	-0.464922	
31	0.1500	-0.940308	0.943407	-0.143906	-0.909062	0.937639	-0.405330	-1.081700	0.957902	-0.236906	-1.069975	0.963165	-0.337491	-0.941967	0.786249	-0.111549	-0.896944	0.809880	-0.128323	-0.921372	0.740254	-0.113479	-0.879403	0.766392	-0.123903	-0.781003	0.520261	-0.163428	-0.767889	0.528781	-0.265635	-0.884912	0.428988	-0.146160	-0.844507	0.398167	-0.167081	-0.916671	0.389688	-0.151069	-0.874897	0.365625	-0.168389	-1.040733	0.224230	-0.191743	-1.019484	0.233899	-0.281304	-0.975489	0.115890	-0.179522	-0.960343	0.113711	-0.284681	-0.910990	0.101923	-0.236849	-1.114565	0.236931	-0.247767	-0.982669	0.766915	-0.462685	-0.927045	0.763758	-0.454786	-0.978855	0.729838	-0.468383	-0.928673	0.729169	-0.457744	-0.990900	0.469562	-0.449700	-0.995081	0.469343	-0.345960	-1.088474	0.369546	-0.486833	-1.040935	0.349987	-0.472333	-1.099789	0.330435	-0.486811	-1.061637	0.313970	-0.473110	-1.208289	0.131081	-0.474044	-1.188579	0.136720	-0.383127	-1.105471	0.030244	-0.494400	-1.112879	0.030822	-0.377848	-1.059720	0.038041	-0.429734	-1.286431	0.126236	-0.425224	-0.923327	1.353891	-0.102532	-0.845622	1.358134	-0.461253	
32	0.1550	-0.921394	0.946683	-0.141965	-0.890605	0.940100	-0.403221	-1.062785	0.960961	-0.234375	-1.051217	0.966131	-0.334969	-0.922233	0.790741	-0.108705	-0.877355	0.814735	-0.125686	-0.901350	0.744849	-0.110683	-0.859570	0.771385	-0.121240	-0.758917	0.526019	-0.160196	-0.746648	0.534214	-0.261799	-0.858816	0.429717	-0.141912	-0.817103	0.400940	-0.162924	-0.888535	0.388772	-0.146502	-0.845676	0.366845	-0.163938	-1.003743	0.216631	-0.186390	-0.983271	0.227238	-0.276079	-0.932599	0.112353	-0.173961	-0.917621	0.110838	-0.279273	-0.867752	0.101881	-0.231424	-1.078239	0.224957	-0.242381	-0.966791	0.769907	-0.460432	-0.911193	0.765754	-0.452921	-0.963744	0.732723	-0.466264	-0.913555	0.731126	-0.456006	-0.981512	0.472374	-0.448714	-0.985262	0.471618	-0.344843	-1.080851	0.373936	-0.485919	-1.033538	0.353700	-0.471791	-1.092672	0.334931	-0.486058	-1.054619	0.317872	-0.472742	-1.203096	0.136368	-0.474180	-1.183331	0.141125	-0.383359	-1.104889	0.031004	-0.494627	-1.112305	0.031886	-0.377686	-1.059522	0.037866	-0.429930	-1.280604	0.133988	-0.425271	-0.906754	1.356866	-0.099912	-0.825894	1.361420	-0.457556	
33	0.1600	-0.902411	0.949866	-0.140028	-0.872187	0.942561	-0.401120	-1.043832	0.963949	-0.231777	-1.032479	0.969039	-0.332382	-0.902556	0.795006	-0.105879	-0.857791	0.819296	-0.123036	-0.881492	0.749213	-0.107896	-0.839848	0.776067	-0.118554	-0.737566	0.531348	-0.156983	-0.726159	0.539154	-0.257963	-0.833255	0.430204	-0.137601	-0.790312	0.403544	-0.158733	-0.860837	0.387692	-0.141869	-0.816987	0.367960	-0.159452	-0.966791	0.209190	-0.180947	-0.947143	0.220706	-0.270759	-0.889927	0.109316	-0.168324	-0.875133	0.108474	-0.273793	-0.824903	0.102402	-0.225940	-1.041726	0.213069	-0.236882	-0.950810	0.772938	-0.458180	-0.895258	0.767852	-0.451075	-0.948483	0.735667	-0.464146	-0.898312	0.733196	-0.454274	-0.971664	0.475334	-0.447724	-0.974966	0.474043	-0.343714	-1.072723	0.378504	-0.484982	-1.025658	0.357588	-0.471218	-1.085056	0.339616	-0.485284	-1.047115	0.321965	-0.472342	-1.197435	0.141948	-0.474279	-1.177625	0.145795	-0.383560	-1.104114	0.031974	-0.494772	-1.111504	0.033189	-0.377482	-1.059126	0.037745	-0.430095	-1.274209	0.142171	-0.425283	-0.890098	1.359791	-0.097259	-0.806355	1.364679	-0.453841	
34	0.1650	-0.883369	0.952919	-0.138097	-0.853803	0.944998	-0.399030	-1.024850	0.966828	-0.229124	-1.013760	0.971856	-0.329744	-0.882941	0.798997	-0.103076	-0.838255	0.823517	-0.120382	-0.861796	0.753295	-0.105120	-0.820233	0.780387	-0.115854	-0.716923	0.536194	-0.153793	-0.706388	0.543551	-0.254139	-0.808222	0.430431	-0.133239	-0.764138	0.405945	-0.154516	-0.833587	0.386438	-0.137183	-0.788844	0.368944	-0.154940	-0.929939	0.201944	-0.175428	-0.911156	0.214331	-0.265357	-0.847570	0.106788	-0.162622	-0.832972	0.106620	-0.268250	-0.782541	0.103473	-0.220405	-1.005088	0.201330	-0.231286	-0.934703	0.775968	-0.455936	-0.879213	0.770015	-0.449244	-0.933045	0.738630	-0.462029	-0.882914	0.735342	-0.452544	-0.961307	0.478387	-0.446719	-0.964156	0.476570	-0.342560	-1.064047	0.383207	-0.484012	-1.017260	0.361601	-0.470601	-1.076904	0.344449	-0.484480	-1.039093	0.326203	-0.471894	-1.191305	0.147807	-0.474326	-1.171464	0.150723	-0.383715	-1.103123	0.033193	-0.494823	-1.110452	0.034765	-0.377233	-1.058505	0.037705	-0.430212	-1.267249	0.150758	-0.425247	-0.873351	1.362637	-0.094572	-0.787014	1.367876	-0.450117	
35	0.1700	-0.864277	0.955808	-0.136169	-0.835450	0.947385	-0.396952	-1.005845	0.969563	-0.226427	-0.995061	0.974552	-0.327066	-0.863392	0.802668	-0.100302	-0.818751	0.827352	-0.117733	-0.842261	0.757048	-0.102359	-0.800726	0.784302	-0.113148	-0.696953	0.540513	-0.150630	-0.687295	0.547365	-0.250336	-0.783709	0.430381	-0.128840	-0.738578	0.408110	-0.150285	-0.806792	0.385004	-0.132457	-0.761257	0.369775	-0.150416	-0.893255	0.194923	-0.169849	-0.875375	0.208134	-0.259891	-0.805628	0.104763	-0.156866	-0.791237	0.105262	-0.262657	-0.740762	0.105066	-0.214829	-0.968397	0.189799	-0.225612	-0.918448	0.778957	-0.453702	-0.863035	0.772206	-0.447425	-0.917405	0.741570	-0.459915	-0.867335	0.737524	-0.450810	-0.950402	0.481476	-0.445687	-0.952802	0.479151	-0.341365	-1.054788	0.388000	-0.483001	-1.008310	0.365688	-0.469926	-1.068186	0.349390	-0.483636	-1.030531	0.330541	-0.471383	-1.184708	0.153934	-0.474308	-1.164854	0.155903	-0.383807	-1.101891	0.034698	-0.494766	-1.109122	0.036646	-0.376933	-1.057637	0.037777	-0.430267	-1.259731	0.159715	-0.425151	-0.856513	1.365372	-0.091850	-0.767874	1.370982	-0.446394	
36	0.1750	-0.845145	0.958500	-0.134243	-0.817122	0.949695	-0.394885	-0.986824	0.972121	-0.223700	-0.976381	0.977096	-0.324360	-0.843914	0.805978	-0.097563	-0.799284	0.830765	-0.115096	-0.822883	0.760432	-0.099615	-0.781327	0.787774	-0.110444	-0.677612	0.544269	-0.147499	-0.668830	0.550568	-0.246564	-0.759704	0.430043	-0.124420	-0.713622	0.410011	-0.146050	-0.780456	0.383388	-0.127707	-0.734234	0.370432	-0.145891	-0.856816	0.188149	-0.164231	-0.839866	0.202131	-0.254379	-0.764207	0.103226	-0.151074	-0.750027	0.104377	-0.257030	-0.699663	0.107143	-0.209224	-0.931736	0.178533	-0.219882	-0.902024	0.781865	-0.451482	-0.846703	0.774385	-0.445612	-0.901540	0.744443	-0.457804	-0.851550	0.739701	-0.449066	-0.938918	0.484543	-0.444615	-0.940883	0.481734	-0.340115	-1.044916	0.392835	-0.481939	-0.998786	0.369797	-0.469178	-1.058877	0.354394	-0.482743	-1.021409	0.334931	-0.470791	-1.177650	0.160312	-0.474210	-1.157804	0.161328	-0.383820	-1.100393	0.036527	-0.494591	-1.107489	0.038867	-0.376577	-1.056496	0.037997	-0.430244	-1.251665	0.169006	-0.424985	-0.839581	1.367967	-0.089095	-0.748940	1.373965	-0.442679	
37	0.1800	-0.825984	0.960966	-0.132316	-0.798814	0.951902	-0.392829	-0.967795	0.974470	-0.220955	-0.957720	0.979460	-0.321637	-0.824511	0.808894	-0.094861	-0.779857	0.833722	-0.112479	-0.803659	0.763410	-0.096890	-0.762033	0.790771	-0.107750	-0.658854	0.547436	-0.144402	-0.650939	0.553143	-0.242831	-0.736192	0.429410	-0.119993	-0.689259	0.411623	-0.141823	-0.754583	0.381589	-0.122949	-0.707777	0.370898	-0.141379	-0.820703	0.181643	-0.158593	-0.804704	0.196334	-0.248843	-0.723412	0.102147	-0.145264	-0.709445	0.103926	-0.251384	-0.659340	0.109647	-0.203606	-0.895201	0.167582	-0.214117	-0.885415	0.784648	-0.449278	-0.830197	0.776512	-0.443798	-0.885433	0.747206	-0.455693	-0.835540	0.741828	-0.447304	-0.926829	0.487527	-0.443491	-0.928386	0.484266	-0.338795	-1.034410	0.397665	-0.480817	-0.988671	0.373876	-0.468343	-1.048960	0.359417	-0.481789	-1.011717	0.339326	-0.470104	-1.170135	0.166926	-0.474019	-1.150324	0.166988	-0.383739	-1.098599	0.038712	-0.494286	-1.105526	0.041454	-0.376159	-1.055059	0.038404	-0.430125	-1.243062	0.178594	-0.424736	-0.822558	1.370396	-0.086305	-0.730215	1.376799	-0.438978	
38	0.1850	-0.806805	0.963177	-0.130385	-0.780521	0.953979	-0.390781	-0.948766	0.976581	-0.218204	-0.939076	0.981616	-0.318909	-0.805189	0.811386	-0.092201	-0.760478	0.836197	-0.109887	-0.784585	0.765953	-0.094184	-0.742847	0.793267	-0.105072	-0.640623	0.549998	-0.141344	-0.633562	0.555081	-0.239147	-0.713158	0.428481	-0.115578	-0.665473	0.412925	-0.137617	-0.729178	0.379607	-0.118202	-0.681889	0.371154	-0.136895	-0.785003	0.175418	-0.152960	-0.769968	0.190752	-0.243306	-0.683352	0.101486	-0.139459	-0.669599	0.103863	-0.245740	-0.619887	0.112514	-0.197994	-0.858896	0.156996	-0.208344	-0.868605	0.787268	-0.447091	-0.813501	0.778544	-0.441978	-0.869068	0.749813	-0.453582	-0.819286	0.743864	-0.445519	-0.914118	0.490370	-0.442302	-0.915304	0.486693	-0.337390	-1.023254	0.402442	-0.479627	-0.977954	0.377873	-0.467409	-1.038422	0.364416	-0.480766	-1.001448	0.343680	-0.469306	-1.162171	0.173758	-0.473721	-1.142424	0.172871	-0.383547	-1.096480	0.041286	-0.493843	-1.103206	0.044435	-0.375672	-1.053297	0.039037	-0.429896	-1.233937	0.188436	-0.424393	-0.805449	1.372631	-0.083483	-0.711699	1.379457	-0.435298	
39	0.1900	-0.787621	0.965111	-0.128445	-0.762238	0.955901	-0.388739	-0.929743	0.978428	-0.215458	-0.920450	0.983538	-0.316187	-0.785951	0.813433	-0.089582	-0.741152	0.838171	-0.107326	-0.765655	0.768037	-0.091498	-0.723766	0.795245	-0.102416	-0.622864	0.551948	-0.138326	-0.616635	0.556387	-0.235517	-0.690583	0.427258	-0.111190	-0.642245	0.413902	-0.133445	-0.704243	0.377447	-0.113484	-0.656569	0.371187	-0.132454	-0.749810	0.169481	-0.147355	-0.735744	0.185385	-0.237793	-0.644138	0.101192	-0.133681	-0.630593	0.104127	-0.240121	-0.581400	0.115666	-0.192408	-0.822934	0.146817	-0.202591	-0.851584	0.789682	-0.444920	-0.796601	0.780443	-0.440144	-0.852434	0.752224	-0.451467	-0.802775	0.745764	-0.443704	-0.900776	0.493014	-0.441037	-0.901633	0.488964	-0.335886	-1.011439	0.407120	-0.478360	-0.966629	0.381739	-0.466363	-1.027257	0.369346	-0.479663	-0.990600	0.347946	-0.468385	-1.153760	0.180788	-0.473303	-1.134113	0.178966	-0.383231	-1.094002	0.044273	-0.493253	-1.100500	0.047827	-0.375107	-1.051183	0.039937	-0.429543	-1.224302	0.198489	-0.423942	-0.788260	1.374649	-0.080627	-0.693392	1.381918	-0.431645	
40	0.1950	-0.768441	0.966745	-0.126490	-0.743957	0.957642	-0.386699	-0.910733	0.979988	-0.212726	-0.901839	0.985205	-0.313479	-0.766802	0.815017	-0.087006	-0.721886	0.839631	-0.104797	-0.746863	0.769646	-0.088831	-0.704791	0.796693	-0.099788	-0.605515	0.553291	-0.135352	-0.600092	0.557073	-0.231949	-0.668448	0.425748	-0.106849	-0.619554	0.414539	-0.129322	-0.679781	0.375113	-0.108815	-0.631816	0.370984	-0.128071	-0.715221	0.163835	-0.141805	-0.702120	0.180233	-0.232330	-0.605880	0.101204	-0.127959	-0.592536	0.104652	-0.234552	-0.543969	0.119015	-0.186872	-0.787440	0.137084	-0.196884	-0.834343	0.791855	-0.442765	-0.779486	0.782169	-0.438290	-0.835523	0.754396	-0.449346	-0.785994	0.747488	-0.441852	-0.886796	0.495406	-0.439684	-0.887377	0.491028	-0.334270	-0.998960	0.411653	-0.477009	-0.954695	0.385426	-0.465195	-1.015461	0.374167	-0.478471	-0.979174	0.352083	-0.467328	-1.144907	0.187994	-0.472751	-1.125395	0.185256	-0.382775	-1.091128	0.047693	-0.492510	-1.097376	0.051645	-0.374457	-1.048685	0.041140	-0.429053	-1.214170	0.208709	-0.423373	-0.770999	1.376428	-0.077739	-0.675291	1.384160	-0.428023	
41	0.2000	-0.749275	0.968061	-0.124516	-0.725675	0.959180	-0.384656	-0.891744	0.981241	-0.210016	-0.883244	0.986594	-0.310793	-0.747744	0.816130	-0.084471	-0.702684	0.840572	-0.102304	-0.728202	0.770769	-0.086184	-0.685920	0.797608	-0.097192	-0.588515	0.554036	-0.132426	-0.583866	0.557162	-0.228449	-0.646736	0.423959	-0.102570	-0.597377	0.414829	-0.125262	-0.655795	0.372614	-0.104216	-0.607625	0.370535	-0.123764	-0.681337	0.158480	-0.136336	-0.669189	0.175292	-0.226944	-0.568690	0.101455	-0.122322	-0.555535	0.105361	-0.229060	-0.507683	0.122466	-0.181413	-0.752542	0.127831	-0.191254	-0.816877	0.793750	-0.440622	-0.762148	0.783686	-0.436410	-0.818332	0.756294	-0.447215	-0.768937	0.748998	-0.439958	-0.872179	0.497494	-0.438235	-0.872538	0.492839	-0.332532	-0.985814	0.415998	-0.475565	-0.942152	0.388892	-0.463896	-1.003032	0.378839	-0.477181	-0.967173	0.356050	-0.466126	-1.135609	0.195355	-0.472055	-1.116272	0.191724	-0.382168	-1.087818	0.051558	-0.491610	-1.093801	0.055891	-0.373715	-1.045769	0.042680	-0.428413	-1.203549	0.219050	-0.422673	-0.753673	1.377948	-0.074820	-0.657390	1.386165	-0.424436	
42	0.2050	-0.730133	0.969048	-0.122516	-0.707385	0.960492	-0.382607	-0.872780	0.982172	-0.207336	-0.864661	0.987689	-0.308137	-0.728778	0.816769	-0.081977	-0.683551	0.840996	-0.099847	-0.709661	0.771402	-0.083556	-0.667151	0.797991	-0.094630	-0.571801	0.554203	-0.129551	-0.567888	0.556682	-0.225023	-0.625425	0.421908	-0.098374	-0.575690	0.414767	-0.121282	-0.632289	0.369959	-0.099708	-0.583994	0.369833	-0.119550	-0.648262	0.153408	-0.130978	-0.637045	0.170552	-0.221664	-0.532674	0.101870	-0.116799	-0.519696	0.106176	-0.223675	-0.472629	0.125919	-0.176058	-0.718372	0.119085	-0.185730	-0.799181	0.795335	-0.438488	-0.744582	0.784962	-0.434497	-0.800858	0.757882	-0.445068	-0.751598	0.750260	-0.438016	-0.856927	0.499234	-0.436679	-0.857123	0.494353	-0.330662	-0.972002	0.420117	-0.474023	-0.929005	0.392097	-0.462457	-0.989972	0.383325	-0.475785	-0.954601	0.359810	-0.464769	-1.125862	0.202844	-0.471202	-1.106741	0.198350	-0.381397	-1.084028	0.055870	-0.490550	-1.089737	0.060565	-0.372871	-1.042394	0.044586	-0.427616	-1.192446	0.229464	-0.421831	-0.736292	1.379191	-0.071871	-0.639684	1.387918	-0.420888	
43	0.2100	-0.711021	0.969694	-0.120484	-0.689081	0.961558	-0.380544	-0.853845	0.982769	-0.204689	-0.846090	0.988474	-0.305515	-0.709904	0.816937	-0.079520	-0.664489	0.840910	-0.097424	-0.691230	0.771550	-0.080945	-0.648478	0.797854	-0.092105	-0.555311	0.553818	-0.126731	-0.552092	0.555672	-0.221676	-0.604500	0.419609	-0.094276	-0.554470	0.414350	-0.117397	-0.609266	0.367158	-0.095311	-0.560918	0.368872	-0.115447	-0.616099	0.148610	-0.125757	-0.605782	0.166003	-0.216519	-0.497936	0.102371	-0.111422	-0.485120	0.107014	-0.218426	-0.438884	0.129271	-0.170836	-0.685066	0.110870	-0.180343	-0.781257	0.796583	-0.436359	-0.726784	0.785967	-0.432545	-0.783102	0.759131	-0.442902	-0.733975	0.751242	-0.436022	-0.841045	0.500588	-0.435010	-0.841136	0.495534	-0.328652	-0.957527	0.423973	-0.472377	-0.915255	0.395008	-0.460872	-0.976282	0.387592	-0.474275	-0.941460	0.363332	-0.463252	-1.115655	0.210438	-0.470184	-1.096790	0.205111	-0.380452	-1.079708	0.060626	-0.489328	-1.085141	0.065652	-0.371918	-1.038517	0.046878	-0.426653	-1.180860	0.239906	-0.420833	-0.718864	1.380143	-0.068894	-0.622161	1.389405	-0.417382	
44	0.2150	-0.691945	0.969994	-0.118413	-0.670756	0.962363	-0.378464	-0.834942	0.983027	-0.202080	-0.827528	0.988938	-0.302930	-0.691118	0.816644	-0.077096	-0.645499	0.840328	-0.095033	-0.672897	0.771221	-0.078350	-0.629896	0.797211	-0.089616	-0.538984	0.552913	-0.123970	-0.536415	0.554173	-0.218414	-0.583941	0.417081	-0.090293	-0.533694	0.413583	-0.113623	-0.586730	0.364223	-0.091046	-0.538391	0.367649	-0.111472	-0.584949	0.144075	-0.120703	-0.575495	0.161634	-0.211536	-0.464575	0.102881	-0.106224	-0.451905	0.107791	-0.213345	-0.406525	0.132417	-0.165780	-0.652758	0.103204	-0.175121	-0.763104	0.797470	-0.434228	-0.708752	0.786677	-0.430548	-0.765067	0.760016	-0.440712	-0.716067	0.751920	-0.433972	-0.824541	0.501526	-0.433221	-0.824583	0.496348	-0.326498	-0.942391	0.427536	-0.470622	-0.900906	0.397595	-0.459137	-0.961962	0.391609	-0.472644	-0.927751	0.366587	-0.461570	-1.104971	0.218106	-0.468989	-1.086403	0.211979	-0.379322	-1.074805	0.065810	-0.487944	-1.079968	0.071133	-0.370847	-1.034088	0.049571	-0.425519	-1.168787	0.250328	-0.419669	-0.701394	1.380792	-0.065890	-0.604809	1.390616	-0.413922	
45	0.2200	-0.672908	0.969948	-0.116297	-0.652405	0.962891	-0.376359	-0.816071	0.982942	-0.199508	-0.808971	0.989074	-0.300384	-0.672414	0.815905	-0.074701	-0.626579	0.839273	-0.092670	-0.654647	0.770430	-0.075771	-0.611397	0.796086	-0.087164	-0.522761	0.551525	-0.121272	-0.520795	0.552233	-0.215240	-0.563733	0.414347	-0.086441	-0.513338	0.412470	-0.109976	-0.564685	0.361168	-0.086932	-0.516410	0.366164	-0.107643	-0.554911	0.139788	-0.115841	-0.546274	0.157432	-0.206744	-0.432682	0.103321	-0.101236	-0.420142	0.108425	-0.208461	-0.375619	0.135257	-0.160919	-0.621580	0.096101	-0.170094	-0.744724	0.797980	-0.432091	-0.690488	0.787073	-0.428502	-0.746757	0.760519	-0.438493	-0.697875	0.752275	-0.431864	-0.807420	0.502023	-0.431308	-0.807466	0.496772	-0.324196	-0.926597	0.430780	-0.468754	-0.885958	0.399837	-0.457248	-0.947011	0.395352	-0.470886	-0.913473	0.369553	-0.459720	-1.093788	0.225820	-0.467610	-1.075554	0.218925	-0.378001	-1.069261	0.071400	-0.486400	-1.074164	0.076975	-0.369651	-1.029052	0.052670	-0.424210	-1.156216	0.260682	-0.418327	-0.683887	1.381130	-0.062861	-0.587613	1.391542	-0.410510	
46	0.2250	-0.653909	0.969560	-0.114130	-0.634019	0.963134	-0.374224	-0.797231	0.982519	-0.196975	-0.790414	0.988878	-0.297877	-0.653785	0.814741	-0.072331	-0.607725	0.837769	-0.090330	-0.636465	0.769200	-0.073206	-0.592971	0.794506	-0.084747	-0.506587	0.549694	-0.118642	-0.505175	0.549902	-0.212161	-0.543861	0.411428	-0.082736	-0.493381	0.411021	-0.106471	-0.543135	0.358007	-0.082988	-0.494969	0.364419	-0.103976	-0.526077	0.135735	-0.111197	-0.518206	0.153383	-0.202167	-0.402341	0.103616	-0.096487	-0.389912	0.108840	-0.203804	-0.346225	0.137694	-0.156282	-0.591657	0.089569	-0.165287	-0.726122	0.798099	-0.429941	-0.671992	0.787144	-0.426403	-0.728175	0.760627	-0.436240	-0.679400	0.752293	-0.429695	-0.789689	0.502066	-0.429267	-0.789785	0.496788	-0.321744	-0.910144	0.433683	-0.466768	-0.870409	0.401717	-0.455203	-0.931426	0.398798	-0.468994	-0.898618	0.372211	-0.457700	-1.082076	0.233548	-0.466038	-1.064210	0.225918	-0.376479	-1.063012	0.077364	-0.484698	-1.067675	0.083141	-0.368323	-1.023348	0.056169	-0.422727	-1.143129	0.270920	-0.416794	-0.666345	1.381151	-0.059809	-0.570554	1.392178	-0.407148	
47	0.2300	-0.634948	0.968836	-0.111907	-0.615590	0.963084	-0.372053	-0.778417	0.981763	-0.194478	-0.771854	0.988351	-0.295407	-0.635220	0.813178	-0.069979	-0.588930	0.835849	-0.088008	-0.618332	0.767557	-0.070654	-0.574605	0.792504	-0.082362	-0.490414	0.547464	-0.116085	-0.489506	0.547232	-0.209179	-0.524312	0.408348	-0.079191	-0.473804	0.409247	-0.103123	-0.522084	0.354756	-0.079230	-0.474064	0.362419	-0.100487	-0.498535	0.131899	-0.106796	-0.491371	0.149475	-0.197831	-0.373623	0.103698	-0.092006	-0.361291	0.108963	-0.199403	-0.318394	0.139641	-0.151899	-0.563106	0.083610	-0.160725	-0.707300	0.797822	-0.427770	-0.653264	0.786883	-0.424247	-0.709328	0.760333	-0.433948	-0.660646	0.751969	-0.427464	-0.771352	0.501649	-0.427096	-0.771534	0.496385	-0.319144	-0.893032	0.436230	-0.464661	-0.854253	0.403224	-0.453001	-0.915202	0.401932	-0.466964	-0.883179	0.374549	-0.455510	-1.069800	0.241255	-0.464267	-1.052331	0.232921	-0.374751	-1.055992	0.083661	-0.482841	-1.060436	0.089582	-0.366856	-1.016907	0.060053	-0.421070	-1.129502	0.280996	-0.415060	-0.648766	1.380855	-0.056734	-0.553611	1.392523	-0.403839	
48	0.2350	-0.616018	0.967789	-0.109622	-0.597111	0.962740	-0.369841	-0.759623	0.980687	-0.192012	-0.753282	0.987498	-0.292970	-0.616705	0.811247	-0.067640	-0.570184	0.833547	-0.085697	-0.600230	0.765532	-0.068116	-0.556284	0.790116	-0.080006	-0.474196	0.544879	-0.113606	-0.473743	0.544275	-0.206299	-0.505075	0.405133	-0.075817	-0.454590	0.407164	-0.099946	-0.501537	0.351430	-0.075674	-0.453693	0.360172	-0.097190	-0.472361	0.128267	-0.102658	-0.465841	0.145698	-0.193757	-0.346589	0.103505	-0.087819	-0.334338	0.108733	-0.195281	-0.292166	0.141019	-0.147795	-0.536032	0.078226	-0.156430	-0.688261	0.797149	-0.425571	-0.634308	0.786289	-0.422032	-0.690219	0.759638	-0.431613	-0.641615	0.751304	-0.425170	-0.752411	0.500776	-0.424793	-0.752709	0.495563	-0.316396	-0.875258	0.438411	-0.462430	-0.837482	0.404355	-0.450642	-0.898331	0.404741	-0.464790	-0.867139	0.376559	-0.453152	-1.056919	0.248906	-0.462290	-1.039869	0.239895	-0.372811	-1.048130	0.090242	-0.480833	-1.052383	0.096242	-0.365245	-1.009658	0.064298	-0.419242	-1.115304	0.290861	-0.413113	-0.631145	1.380243	-0.053639	-0.536758	1.392575	-0.400583	
49	0.2400	-0.597111	0.966436	-0.107271	-0.578571	0.962105	-0.367584	-0.740842	0.979308	-0.189574	-0.734691	0.986328	-0.290563	-0.598226	0.808981	-0.065309	-0.551477	0.830903	-0.083390	-0.582141	0.763159	-0.065590	-0.537994	0.787382	-0.077675	-0.457895	0.541984	-0.111209	-0.457850	0.541083	-0.203524	-0.486142	0.401806	-0.072624	-0.435725	0.404788	-0.096949	-0.481499	0.348046	-0.072332	-0.433851	0.357686	-0.094099	-0.447623	0.124824	-0.098803	-0.441679	0.142042	-0.189965	-0.321289	0.102987	-0.083947	-0.309105	0.108099	-0.191462	-0.267573	0.141763	-0.143994	-0.510528	0.073409	-0.152422	-0.669009	0.796086	-0.423337	-0.615125	0.785370	-0.419754	-0.670852	0.758550	-0.429229	-0.622308	0.750305	-0.422813	-0.732866	0.499459	-0.422358	-0.733297	0.494329	-0.313505	-0.856815	0.440223	-0.460072	-0.820082	0.405113	-0.448126	-0.880799	0.407217	-0.462468	-0.850481	0.378238	-0.450627	-1.043385	0.256464	-0.460103	-1.026771	0.246800	-0.370655	-1.039353	0.097050	-0.478678	-1.043444	0.103060	-0.363484	-1.001522	0.068868	-0.417246	-1.100500	0.300469	-0.410943	-0.613474	1.379322	-0.050525	-0.519970	1.392340	-0.397383	
50	0.2450	-0.578219	0.964798	-0.104852	-0.559961	0.961185	-0.365276	-0.722062	0.977648	-0.187157	-0.716074	0.984856	-0.288179	-0.579764	0.806418	-0.062979	-0.532795	0.827958	-0.081080	-0.564043	0.760478	-0.063077	-0.519717	0.784344	-0.075366	-0.441482	0.538826	-0.108899	-0.441797	0.537706	-0.200858	-0.467509	0.398395	-0.069622	-0.417197	0.402141	-0.094145	-0.461974	0.344621	-0.069216	-0.414537	0.354976	-0.091222	-0.424375	0.121558	-0.095244	-0.418936	0.138502	-0.186469	-0.297754	0.102103	-0.080408	-0.285626	0.107020	-0.187963	-0.244634	0.141825	-0.140514	-0.486670	0.069151	-0.148715	-0.649546	0.794647	-0.421061	-0.595717	0.784139	-0.417413	-0.651230	0.757082	-0.426794	-0.602729	0.748988	-0.420393	-0.712715	0.497720	-0.419791	-0.713286	0.492699	-0.310475	-0.837695	0.441666	-0.457585	-0.802037	0.405507	-0.445456	-0.862592	0.409358	-0.459996	-0.833182	0.379590	-0.447938	-1.029149	0.263888	-0.457701	-1.012977	0.253594	-0.368280	-1.029585	0.104024	-0.476379	-1.033547	0.109968	-0.361568	-0.992420	0.073720	-0.415088	-1.085051	0.309771	-0.408540	-0.595741	1.378103	-0.047393	-0.503217	1.391823	-0.394239	
51	0.2500	-0.559328	0.962899	-0.102362	-0.541272	0.959992	-0.362915	-0.703272	0.975732	-0.184754	-0.697420	0.983099	-0.285813	-0.561303	0.803599	-0.060647	-0.514122	0.824756	-0.078760	-0.545920	0.757529	-0.060577	-0.501436	0.781046	-0.073074	-0.424933	0.535448	-0.106680	-0.425564	0.534192	-0.198303	-0.449172	0.394923	-0.066815	-0.399000	0.399243	-0.091540	-0.442969	0.341175	-0.066332	-0.395749	0.352057	-0.088569	-0.402659	0.118460	-0.091995	-0.397651	0.135074	-0.183281	-0.276006	0.100825	-0.077215	-0.263923	0.105471	-0.184799	-0.223356	0.141169	-0.137370	-0.464517	0.065440	-0.145320	-0.629873	0.792851	-0.418736	-0.576083	0.782616	-0.415007	-0.631354	0.755256	-0.424303	-0.582877	0.747374	-0.417910	-0.691954	0.495589	-0.417094	-0.692662	0.490698	-0.307311	-0.817889	0.442749	-0.454966	-0.783327	0.405551	-0.442633	-0.843695	0.411166	-0.457369	-0.815216	0.380620	-0.445088	-1.014157	0.271138	-0.455082	-0.998428	0.260231	-0.365683	-1.018750	0.111095	-0.473939	-1.022617	0.116894	-0.359493	-0.982268	0.078801	-0.412772	-1.068912	0.318722	-0.405897	-0.577931	1.376601	-0.044246	-0.486469	1.391035	-0.391152	
52	0.2550	-0.540425	0.960766	-0.099801	-0.522495	0.958543	-0.360499	-0.684458	0.973590	-0.182358	-0.678719	0.981082	-0.283456	-0.542825	0.800563	-0.058306	-0.495444	0.821340	-0.076426	-0.527752	0.754354	-0.058091	-0.483135	0.777532	-0.070794	-0.408236	0.531893	-0.104556	-0.409142	0.530585	-0.195861	-0.431133	0.391416	-0.064208	-0.381128	0.396118	-0.089140	-0.424488	0.337724	-0.063685	-0.377487	0.348945	-0.086145	-0.382504	0.115522	-0.089060	-0.377852	0.131759	-0.180411	-0.256047	0.099141	-0.074376	-0.244002	0.103441	-0.181979	-0.203736	0.139780	-0.134573	-0.444109	0.062258	-0.142246	-0.609993	0.790724	-0.416356	-0.556227	0.780828	-0.412536	-0.611228	0.753099	-0.421754	-0.562756	0.745492	-0.415366	-0.670577	0.493104	-0.414267	-0.671408	0.488357	-0.304019	-0.797387	0.443483	-0.452213	-0.763933	0.405266	-0.439660	-0.824089	0.412646	-0.454585	-0.796556	0.381342	-0.442081	-0.998357	0.278172	-0.452242	-0.983061	0.266667	-0.362863	-1.006774	0.118192	-0.471361	-1.010579	0.123766	-0.357255	-0.970984	0.084051	-0.410305	-1.052041	0.327274	-0.403008	-0.560027	1.374834	-0.041083	-0.469696	1.389989	-0.388123	
53	0.2600	-0.521496	0.958432	-0.097168	-0.503622	0.956859	-0.358026	-0.665606	0.971253	-0.179961	-0.659964	0.978831	-0.281102	-0.524311	0.797355	-0.055955	-0.476745	0.817756	-0.074071	-0.509526	0.750999	-0.055619	-0.464798	0.773848	-0.068524	-0.391386	0.528201	-0.102529	-0.392530	0.526926	-0.193534	-0.413395	0.387898	-0.061803	-0.363584	0.392793	-0.086948	-0.406537	0.334287	-0.061279	-0.359753	0.345663	-0.083952	-0.363924	0.112741	-0.086445	-0.359551	0.128559	-0.177859	-0.237867	0.097048	-0.071894	-0.225854	0.100933	-0.179506	-0.185757	0.137658	-0.132127	-0.425468	0.059587	-0.139496	-0.589906	0.788298	-0.413915	-0.536150	0.778805	-0.410000	-0.590852	0.750644	-0.419144	-0.542366	0.743375	-0.412762	-0.648579	0.490310	-0.411313	-0.649511	0.485717	-0.300605	-0.776177	0.443886	-0.449324	-0.743833	0.404676	-0.436539	-0.803757	0.413810	-0.451644	-0.777173	0.381771	-0.438920	-0.981696	0.284948	-0.449181	-0.966815	0.272856	-0.359821	-0.993587	0.125241	-0.468648	-0.997361	0.130507	-0.354850	-0.958486	0.089406	-0.407691	-1.034395	0.335385	-0.399867	-0.542011	1.372826	-0.037908	-0.452867	1.388704	-0.385152	
54	0.2650	-0.502526	0.955930	-0.094467	-0.484647	0.954966	-0.355497	-0.646705	0.968759	-0.177556	-0.641145	0.976376	-0.278742	-0.505747	0.794016	-0.053589	-0.458013	0.814047	-0.071693	-0.491229	0.747507	-0.053164	-0.446412	0.770036	-0.066260	-0.374389	0.524410	-0.100601	-0.375737	0.523249	-0.191323	-0.395968	0.384392	-0.059598	-0.346369	0.389295	-0.084964	-0.389122	0.330884	-0.059111	-0.342549	0.342232	-0.081989	-0.346916	0.110114	-0.084147	-0.342748	0.125482	-0.175627	-0.221440	0.094561	-0.069767	-0.209455	0.097964	-0.177381	-0.169392	0.134825	-0.130031	-0.408595	0.057405	-0.137068	-0.569616	0.785608	-0.411410	-0.515854	0.776584	-0.407400	-0.570228	0.747931	-0.416473	-0.521711	0.741063	-0.410099	-0.625957	0.487259	-0.408235	-0.626957	0.482826	-0.297078	-0.754253	0.443980	-0.446297	-0.723006	0.403812	-0.433274	-0.782684	0.414671	-0.448543	-0.757041	0.381927	-0.435612	-0.964125	0.291424	-0.445901	-0.949634	0.278755	-0.356557	-0.979124	0.132167	-0.465800	-0.982899	0.137043	-0.352274	-0.944698	0.094797	-0.404934	-1.015934	0.343009	-0.396472	-0.523861	1.370602	-0.034721	-0.435955	1.387197	-0.382240	
55	0.2700	-0.483503	0.953295	-0.091700	-0.465565	0.952892	-0.352912	-0.627741	0.966144	-0.175136	-0.622256	0.973750	-0.276371	-0.487122	0.790590	-0.051207	-0.439235	0.810256	-0.069287	-0.472854	0.743921	-0.050726	-0.427969	0.766140	-0.064000	-0.357260	0.520554	-0.098774	-0.358783	0.519588	-0.189227	-0.378861	0.380921	-0.057590	-0.329494	0.385653	-0.083184	-0.372250	0.327533	-0.057177	-0.325878	0.338678	-0.080254	-0.331465	0.107643	-0.082161	-0.327426	0.122536	-0.173708	-0.206723	0.091705	-0.067987	-0.194765	0.094565	-0.175596	-0.154602	0.131316	-0.128279	-0.393470	0.055687	-0.134957	-0.549125	0.782695	-0.408836	-0.495344	0.774206	-0.404737	-0.549359	0.745002	-0.413740	-0.500795	0.738600	-0.407378	-0.602708	0.484007	-0.405035	-0.603740	0.479735	-0.293442	-0.731609	0.443791	-0.443131	-0.701436	0.402707	-0.429869	-0.760858	0.415247	-0.445282	-0.736138	0.381831	-0.432159	-0.945604	0.297559	-0.442403	-0.931469	0.284320	-0.353075	-0.963327	0.138897	-0.462817	-0.967131	0.143304	-0.349526	-0.929552	0.100152	-0.402040	-0.996626	0.350106	-0.392825	-0.505561	1.368195	-0.031524	-0.418934	1.385494	-0.379385	
56	0.2750	-0.464416	0.950565	-0.088871	-0.446376	0.950670	-0.350274	-0.608706	0.963447	-0.172693	-0.603292	0.970992	-0.273980	-0.468425	0.787118	-0.048809	-0.420406	0.806424	-0.066854	-0.454399	0.740285	-0.048309	-0.409463	0.762200	-0.061741	-0.340024	0.516665	-0.097048	-0.341697	0.515969	-0.187246	-0.362090	0.377506	-0.055774	-0.312971	0.381896	-0.081605	-0.355929	0.324252	-0.055471	-0.309746	0.335026	-0.078740	-0.317539	0.105330	-0.080477	-0.313558	0.119735	-0.172093	-0.193661	0.088517	-0.066541	-0.181731	0.090781	-0.174140	-0.141338	0.127185	-0.126862	-0.380057	0.054406	-0.133153	-0.528439	0.779605	-0.406194	-0.474627	0.771716	-0.402014	-0.528251	0.741904	-0.410945	-0.479627	0.736031	-0.404603	-0.578837	0.480613	-0.401718	-0.579858	0.476501	-0.289707	-0.708247	0.443349	-0.439825	-0.679112	0.401396	-0.426328	-0.738273	0.415559	-0.441865	-0.714446	0.381510	-0.428567	-0.926099	0.303311	-0.438692	-0.912279	0.289513	-0.349379	-0.946152	0.145357	-0.459699	-0.950011	0.149220	-0.346602	-0.912991	0.105401	-0.399009	-0.976443	0.356637	-0.388928	-0.487093	1.365635	-0.028321	-0.401782	1.383621	-0.376589	
57	0.2800	-0.445259	0.947776	-0.085988	-0.427084	0.948335	-0.347588	-0.589594	0.960708	-0.170224	-0.584253	0.968139	-0.271565	-0.449656	0.783640	-0.046396	-0.401521	0.802589	-0.064395	-0.435868	0.736640	-0.045913	-0.390895	0.758254	-0.059483	-0.322717	0.512772	-0.095421	-0.324517	0.512413	-0.185377	-0.345674	0.374167	-0.054143	-0.296815	0.378054	-0.080217	-0.340165	0.321059	-0.053982	-0.294159	0.331306	-0.077436	-0.305095	0.103182	-0.079081	-0.301102	0.117091	-0.170769	-0.182186	0.085046	-0.065412	-0.170286	0.086667	-0.172997	-0.129540	0.122500	-0.125762	-0.368297	0.053536	-0.131642	-0.507568	0.776385	-0.403482	-0.453713	0.769159	-0.399234	-0.506914	0.738687	-0.408091	-0.458216	0.733406	-0.401775	-0.554352	0.477140	-0.398288	-0.555319	0.473187	-0.285879	-0.684175	0.442685	-0.436380	-0.656030	0.399918	-0.422655	-0.714932	0.415630	-0.438292	-0.691956	0.380990	-0.424842	-0.905588	0.308644	-0.434774	-0.892038	0.294297	-0.345477	-0.927566	0.151480	-0.456445	-0.931505	0.154730	-0.343502	-0.894971	0.110474	-0.395844	-0.955372	0.362569	-0.384789	-0.468444	1.362960	-0.025113	-0.384486	1.381606	-0.373851	
58	0.2850	-0.426028	0.944967	-0.083058	-0.407696	0.945926	-0.344859	-0.570404	0.957968	-0.167723	-0.565143	0.965230	-0.269121	-0.430817	0.780194	-0.043970	-0.382586	0.798787	-0.061912	-0.417272	0.733025	-0.043543	-0.372274	0.754336	-0.057226	-0.305382	0.508900	-0.093891	-0.307292	0.508939	-0.183617	-0.329634	0.370922	-0.052687	-0.281047	0.374157	-0.079010	-0.324968	0.317971	-0.052698	-0.279125	0.327546	-0.076331	-0.294074	0.101204	-0.077955	-0.290005	0.114620	-0.169718	-0.172219	0.081347	-0.064579	-0.160351	0.082287	-0.172147	-0.119140	0.117340	-0.124960	-0.358119	0.053045	-0.130409	-0.486525	0.773085	-0.400703	-0.432619	0.766583	-0.396401	-0.485360	0.735403	-0.405181	-0.436580	0.730776	-0.398899	-0.529273	0.473651	-0.394750	-0.530140	0.469854	-0.281966	-0.659411	0.441835	-0.432797	-0.632197	0.398312	-0.418858	-0.690846	0.415485	-0.434570	-0.668671	0.380302	-0.420990	-0.884066	0.313522	-0.430658	-0.870732	0.298641	-0.341375	-0.907557	0.157202	-0.453054	-0.911593	0.159780	-0.340225	-0.875467	0.115305	-0.392546	-0.933411	0.367871	-0.380418	-0.449607	1.360205	-0.021905	-0.367035	1.379481	-0.371172	
59	0.2900	-0.406728	0.942175	-0.080090	-0.388229	0.943479	-0.342093	-0.551142	0.955265	-0.165189	-0.545971	0.962308	-0.266644	-0.411921	0.776815	-0.041534	-0.363609	0.795048	-0.059409	-0.398628	0.729476	-0.041200	-0.353613	0.750478	-0.054973	-0.288070	0.505072	-0.092455	-0.290078	0.505562	-0.181963	-0.313996	0.367790	-0.051394	-0.265691	0.370238	-0.077972	-0.310345	0.315006	-0.051603	-0.264654	0.323775	-0.075409	-0.284407	0.099403	-0.077079	-0.280201	0.112338	-0.168919	-0.163668	0.077483	-0.064016	-0.151838	0.077711	-0.171566	-0.110062	0.111796	-0.124432	-0.349434	0.052906	-0.129431	-0.465328	0.769754	-0.397861	-0.411364	0.764037	-0.393520	-0.463611	0.732104	-0.402219	-0.414741	0.728189	-0.395977	-0.503627	0.470208	-0.391111	-0.504353	0.466566	-0.277978	-0.633984	0.440832	-0.429080	-0.607633	0.396620	-0.414943	-0.666040	0.415152	-0.430703	-0.644604	0.379474	-0.417020	-0.861541	0.317916	-0.426354	-0.848369	0.302517	-0.337086	-0.886127	0.162467	-0.449526	-0.890280	0.164321	-0.336771	-0.854473	0.119833	-0.389117	-0.910574	0.372517	-0.375831	-0.430581	1.357410	-0.018702	-0.349430	1.377279	-0.368552	
60	0.2950	-0.387371	0.939435	-0.077094	-0.368703	0.941034	-0.339298	-0.531819	0.952636	-0.162620	-0.526753	0.959410	-0.264134	-0.392987	0.773535	-0.039095	-0.344610	0.791403	-0.056892	-0.379965	0.726025	-0.038888	-0.334936	0.746708	-0.052726	-0.270844	0.501307	-0.091109	-0.272938	0.502291	-0.180409	-0.298787	0.364785	-0.050252	-0.250773	0.366326	-0.077088	-0.296308	0.312177	-0.050682	-0.250754	0.320025	-0.074655	-0.276015	0.097788	-0.076429	-0.271617	0.110260	-0.168349	-0.156435	0.073521	-0.063698	-0.144647	0.073016	-0.171227	-0.102223	0.105964	-0.124152	-0.342141	0.053085	-0.128688	-0.444004	0.766444	-0.394960	-0.389979	0.761566	-0.390596	-0.441692	0.728841	-0.399213	-0.392729	0.725695	-0.393015	-0.477456	0.466873	-0.387379	-0.478003	0.463384	-0.273924	-0.607938	0.439714	-0.425233	-0.582369	0.394880	-0.410919	-0.640553	0.414658	-0.426701	-0.619788	0.378536	-0.412940	-0.838043	0.321799	-0.421877	-0.824974	0.305906	-0.332624	-0.863306	0.167225	-0.445861	-0.867589	0.168316	-0.333142	-0.832008	0.124003	-0.385556	-0.886893	0.376490	-0.371044	-0.411373	1.354613	-0.015508	-0.331679	1.375034	-0.365991	
61	0.3000	-0.367975	0.936781	-0.074081	-0.349148	0.938629	-0.336485	-0.512457	0.950116	-0.160018	-0.507513	0.956578	-0.261590	-0.374043	0.770382	-0.036658	-0.325615	0.787874	-0.054371	-0.361316	0.722703	-0.036611	-0.316274	0.743052	-0.050490	-0.253768	0.497624	-0.089846	-0.255941	0.499135	-0.178950	-0.284037	0.361920	-0.049248	-0.236321	0.362450	-0.076342	-0.282864	0.309500	-0.049916	-0.237437	0.316323	-0.074049	-0.268811	0.096364	-0.075981	-0.264172	0.108400	-0.167983	-0.150416	0.069528	-0.063593	-0.138675	0.068278	-0.171102	-0.095535	0.099945	-0.124089	-0.336129	0.053553	-0.128153	-0.422586	0.763202	-0.392010	-0.368497	0.759216	-0.387639	-0.419640	0.725664	-0.396169	-0.370583	0.723339	-0.390020	-0.450815	0.463703	-0.383565	-0.451149	0.460368	-0.269814	-0.581330	0.438515	-0.421263	-0.556457	0.393131	-0.406796	-0.614438	0.414032	-0.422576	-0.594268	0.377519	-0.408761	-0.813618	0.325153	-0.417243	-0.800596	0.308794	-0.328004	-0.839144	0.171435	-0.442062	-0.843569	0.171739	-0.329344	-0.808116	0.127771	-0.381864	-0.862418	0.379778	-0.366081	-0.392000	1.351852	-0.012330	-0.313803	1.372779	-0.363490	
62	0.3050	-0.348569	0.934243	-0.071065	-0.329602	0.936300	-0.333663	-0.493085	0.947736	-0.157386	-0.488281	0.953846	-0.259015	-0.355126	0.767381	-0.034230	-0.306660	0.784485	-0.051852	-0.342727	0.719534	-0.034371	-0.297668	0.739530	-0.048268	-0.236914	0.494037	-0.088662	-0.239162	0.496097	-0.177581	-0.269777	0.359208	-0.048366	-0.222365	0.358639	-0.075716	-0.270025	0.306984	-0.049286	-0.224715	0.312699	-0.073572	-0.262700	0.095138	-0.075708	-0.257778	0.106770	-0.167794	-0.145501	0.065570	-0.063672	-0.133813	0.063575	-0.171160	-0.089905	0.093841	-0.124213	-0.331280	0.054277	-0.127801	-0.401117	0.760075	-0.389019	-0.346965	0.757027	-0.384655	-0.397500	0.722621	-0.393097	-0.348351	0.721164	-0.386997	-0.423774	0.460748	-0.379678	-0.423868	0.457572	-0.265660	-0.554234	0.437272	-0.417181	-0.529962	0.391409	-0.402588	-0.587768	0.413302	-0.418339	-0.568110	0.376451	-0.404495	-0.788340	0.327963	-0.412472	-0.775304	0.311174	-0.323245	-0.813721	0.175069	-0.438130	-0.818296	0.174571	-0.325383	-0.782870	0.131098	-0.378046	-0.837219	0.382377	-0.360968	-0.372491	1.349164	-0.009176	-0.295830	1.370549	-0.361051	
63	0.3100	-0.329192	0.931849	-0.068058	-0.310110	0.934083	-0.330844	-0.473741	0.945525	-0.154729	-0.469099	0.951250	-0.256413	-0.336285	0.764553	-0.031822	-0.287790	0.781251	-0.049349	-0.324248	0.716542	-0.032175	-0.279167	0.736159	-0.046068	-0.220357	0.490560	-0.087551	-0.222677	0.493182	-0.176294	-0.256040	0.356659	-0.047593	-0.208938	0.354921	-0.075193	-0.257799	0.304642	-0.048773	-0.212598	0.309180	-0.073203	-0.257584	0.094111	-0.075583	-0.252344	0.105379	-0.167754	-0.141577	0.061713	-0.063903	-0.129946	0.058979	-0.171370	-0.085239	0.087752	-0.124494	-0.327470	0.055227	-0.127605	-0.379648	0.757106	-0.385999	-0.325437	0.755037	-0.381656	-0.375325	0.719754	-0.390008	-0.326090	0.719206	-0.383957	-0.396417	0.458056	-0.375734	-0.396254	0.455045	-0.261475	-0.526740	0.436015	-0.413000	-0.502972	0.389748	-0.398309	-0.560632	0.412495	-0.414009	-0.541401	0.375359	-0.400158	-0.762299	0.330223	-0.407587	-0.749194	0.313048	-0.318370	-0.787139	0.178105	-0.434074	-0.791871	0.176807	-0.321268	-0.756370	0.133959	-0.374104	-0.811388	0.384291	-0.355733	-0.352885	1.346583	-0.006054	-0.277803	1.368377	-0.358675	
64	0.3150	-0.309890	0.929621	-0.065074	-0.290728	0.932006	-0.328041	-0.454474	0.943505	-0.152054	-0.450014	0.948820	-0.253792	-0.317575	0.761914	-0.029443	-0.269058	0.778187	-0.046870	-0.305941	0.713742	-0.030025	-0.260828	0.732954	-0.043896	-0.204176	0.487204	-0.086504	-0.206566	0.490390	-0.175082	-0.242859	0.354279	-0.046912	-0.196069	0.351320	-0.074756	-0.246197	0.302480	-0.048357	-0.201097	0.305791	-0.072923	-0.253361	0.093287	-0.075579	-0.247775	0.104234	-0.167837	-0.138533	0.058015	-0.064256	-0.126964	0.054559	-0.171701	-0.081442	0.081773	-0.124899	-0.324573	0.056372	-0.127538	-0.358239	0.754332	-0.382964	-0.303975	0.753276	-0.378653	-0.353182	0.717100	-0.386915	-0.303868	0.717498	-0.380909	-0.368848	0.455665	-0.371746	-0.368417	0.452828	-0.257274	-0.498956	0.434777	-0.408733	-0.475591	0.388178	-0.393976	-0.533137	0.411639	-0.409604	-0.514246	0.374270	-0.395766	-0.735613	0.331935	-0.402612	-0.722385	0.314422	-0.313404	-0.759533	0.180534	-0.429902	-0.764425	0.178453	-0.317012	-0.728747	0.136336	-0.370045	-0.785037	0.385532	-0.350410	-0.333232	1.344141	-0.002974	-0.259773	1.366293	-0.356365	
65	0.3200	-0.290723	0.927579	-0.062128	-0.271518	0.930098	-0.325267	-0.435343	0.941696	-0.149371	-0.431084	0.946581	-0.251158	-0.299060	0.759477	-0.027102	-0.250528	0.775303	-0.044430	-0.287871	0.711148	-0.027928	-0.242715	0.729926	-0.041761	-0.188447	0.483979	-0.085516	-0.190907	0.487723	-0.173940	-0.230264	0.352076	-0.046309	-0.183789	0.347859	-0.074386	-0.235226	0.300504	-0.048019	-0.190223	0.302555	-0.072712	-0.249931	0.092662	-0.075668	-0.243976	0.103336	-0.168014	-0.136258	0.054528	-0.064701	-0.124752	0.050376	-0.172124	-0.078418	0.075990	-0.125400	-0.322463	0.057682	-0.127573	-0.336963	0.751787	-0.379929	-0.282655	0.751770	-0.375658	-0.331146	0.714693	-0.383831	-0.281765	0.716062	-0.377865	-0.341183	0.453605	-0.367734	-0.340483	0.450954	-0.253074	-0.471007	0.433584	-0.404400	-0.447943	0.386724	-0.389608	-0.505408	0.410756	-0.405145	-0.486768	0.373206	-0.391339	-0.708419	0.333108	-0.397576	-0.695018	0.315313	-0.308375	-0.731061	0.182359	-0.425626	-0.736116	0.179523	-0.312632	-0.700163	0.138223	-0.365879	-0.758296	0.386124	-0.345034	-0.313598	1.341866	0.000054	-0.241803	1.364325	-0.354124	
66	0.3250	-0.271756	0.925737	-0.059235	-0.252552	0.928379	-0.322535	-0.416415	0.940109	-0.146692	-0.412376	0.944556	-0.248523	-0.280813	0.757250	-0.024812	-0.232268	0.772606	-0.042041	-0.270112	0.708771	-0.025888	-0.224901	0.727083	-0.039671	-0.173247	0.480894	-0.084581	-0.175778	0.485180	-0.172860	-0.218288	0.350052	-0.045772	-0.172128	0.344559	-0.074069	-0.224895	0.298717	-0.047741	-0.179984	0.299492	-0.072551	-0.247192	0.092233	-0.075828	-0.240856	0.102683	-0.168260	-0.134642	0.051297	-0.065212	-0.123203	0.046480	-0.172611	-0.076074	0.070482	-0.125967	-0.321020	0.059128	-0.127686	-0.315899	0.749497	-0.376910	-0.261556	0.750537	-0.372685	-0.309302	0.712557	-0.380772	-0.259867	0.714918	-0.374836	-0.313556	0.451897	-0.363717	-0.312593	0.449449	-0.248892	-0.443032	0.432461	-0.400023	-0.420167	0.385408	-0.385228	-0.477587	0.409871	-0.400658	-0.459111	0.372188	-0.386899	-0.680874	0.333759	-0.392509	-0.667255	0.315743	-0.303312	-0.701909	0.183592	-0.421264	-0.707125	0.180043	-0.308148	-0.670803	0.139626	-0.361621	-0.731316	0.386097	-0.339643	-0.294057	1.339781	0.003018	-0.223968	1.362499	-0.351955	
67	0.3300	-0.253067	0.924106	-0.056410	-0.233907	0.926868	-0.319860	-0.397766	0.938754	-0.144028	-0.393963	0.942759	-0.245900	-0.262912	0.755238	-0.022582	-0.214355	0.770100	-0.039714	-0.252742	0.706614	-0.023910	-0.207461	0.724429	-0.037634	-0.158648	0.477956	-0.083692	-0.161251	0.482761	-0.171836	-0.206957	0.348209	-0.045285	-0.161110	0.341439	-0.073787	-0.215209	0.297121	-0.047506	-0.170388	0.296619	-0.072424	-0.245048	0.091992	-0.076033	-0.238323	0.102270	-0.168552	-0.133584	0.048356	-0.065761	-0.122212	0.042914	-0.173135	-0.074318	0.065315	-0.126575	-0.320125	0.060680	-0.127853	-0.295135	0.747482	-0.373924	-0.240771	0.749589	-0.369748	-0.287745	0.710711	-0.377754	-0.238270	0.714075	-0.371839	-0.286110	0.450555	-0.359715	-0.284899	0.448324	-0.244749	-0.415185	0.431426	-0.395626	-0.392421	0.384247	-0.380858	-0.449830	0.409003	-0.396169	-0.431434	0.371233	-0.382468	-0.653154	0.333915	-0.387445	-0.639279	0.315743	-0.298248	-0.672283	0.184257	-0.416836	-0.677659	0.180049	-0.303584	-0.640882	0.140560	-0.357285	-0.704262	0.385491	-0.334274	-0.274694	1.337904	0.005907	-0.206347	1.360834	-0.349862	
68	0.3350	-0.234738	0.922689	-0.053668	-0.215667	0.925575	-0.317256	-0.379478	0.937633	-0.141394	-0.375925	0.941202	-0.243301	-0.245439	0.753441	-0.020425	-0.196871	0.767787	-0.037464	-0.235840	0.704679	-0.022001	-0.190477	0.721968	-0.035660	-0.144720	0.475173	-0.082844	-0.147394	0.480467	-0.170863	-0.196297	0.346547	-0.044839	-0.150759	0.338512	-0.073529	-0.206171	0.295714	-0.047300	-0.161439	0.293950	-0.072313	-0.243406	0.091929	-0.076263	-0.236293	0.102084	-0.168867	-0.132984	0.045730	-0.066327	-0.121680	0.039709	-0.173674	-0.073066	0.060542	-0.127199	-0.319670	0.062313	-0.128054	-0.274767	0.745754	-0.370991	-0.220394	0.748929	-0.366863	-0.266577	0.709165	-0.374794	-0.217080	0.713534	-0.368887	-0.259003	0.449580	-0.355753	-0.257566	0.447585	-0.240665	-0.387630	0.430497	-0.391235	-0.364874	0.383251	-0.376526	-0.422307	0.408170	-0.391706	-0.403911	0.370354	-0.378073	-0.625451	0.333606	-0.382418	-0.611286	0.315346	-0.293217	-0.642411	0.184386	-0.412366	-0.647943	0.179583	-0.298967	-0.610632	0.141048	-0.352895	-0.677315	0.384353	-0.328969	-0.255604	1.336249	0.008708	-0.189031	1.359347	-0.347850	
69	0.3400	-0.216858	0.921487	-0.051022	-0.197920	0.924505	-0.314737	-0.361641	0.936743	-0.138806	-0.358346	0.939887	-0.240742	-0.228482	0.751856	-0.018351	-0.179900	0.765666	-0.035301	-0.219490	0.702964	-0.020166	-0.174030	0.719699	-0.033757	-0.131523	0.472550	-0.082032	-0.134269	0.478297	-0.169937	-0.186327	0.345064	-0.044423	-0.141094	0.335791	-0.073282	-0.197783	0.294491	-0.047110	-0.153139	0.291495	-0.072207	-0.242179	0.092029	-0.076501	-0.234684	0.102112	-0.169186	-0.132755	0.043434	-0.066890	-0.121516	0.036884	-0.174206	-0.072234	0.056204	-0.127819	-0.319553	0.063999	-0.128268	-0.254895	0.744320	-0.368128	-0.200529	0.748552	-0.364047	-0.245906	0.707923	-0.371908	-0.196402	0.713290	-0.365996	-0.232397	0.448967	-0.351855	-0.230761	0.447224	-0.236663	-0.360540	0.429684	-0.386879	-0.337706	0.382427	-0.372256	-0.395193	0.407385	-0.387299	-0.376724	0.369563	-0.373741	-0.597966	0.332875	-0.377461	-0.583484	0.314596	-0.288254	-0.612535	0.184023	-0.407880	-0.618217	0.178696	-0.294327	-0.580306	0.141122	-0.348475	-0.650661	0.382739	-0.323767	-0.236890	1.334823	0.011408	-0.172113	1.358049	-0.345923	
70	0.3450	-0.199519	0.920496	-0.048487	-0.180754	0.923659	-0.312316	-0.344345	0.936076	-0.136279	-0.341316	0.938815	-0.238239	-0.212126	0.750477	-0.016371	-0.163527	0.763735	-0.033237	-0.203771	0.701464	-0.018410	-0.158203	0.717621	-0.031935	-0.119112	0.470092	-0.081253	-0.121927	0.476253	-0.169053	-0.177064	0.343755	-0.044029	-0.132126	0.333284	-0.073038	-0.190043	0.293446	-0.046925	-0.145486	0.289261	-0.072094	-0.241289	0.092278	-0.076730	-0.233423	0.102334	-0.169495	-0.132812	0.041474	-0.067433	-0.121636	0.034448	-0.174717	-0.071748	0.052326	-0.128418	-0.319685	0.065713	-0.128482	-0.235624	0.743176	-0.365353	-0.181279	0.748449	-0.361314	-0.225841	0.706980	-0.369114	-0.176350	0.713328	-0.363184	-0.206462	0.448700	-0.348045	-0.204658	0.447227	-0.232765	-0.334092	0.428993	-0.382590	-0.311101	0.381776	-0.368078	-0.368673	0.406661	-0.382980	-0.350064	0.368867	-0.369500	-0.570909	0.331766	-0.372613	-0.556091	0.313536	-0.283395	-0.582908	0.183217	-0.403411	-0.588733	0.177443	-0.289700	-0.550165	0.140823	-0.344053	-0.624497	0.380711	-0.318706	-0.218658	1.333629	0.013996	-0.155689	1.356947	-0.344087	
71	0.3500	-0.182813	0.919706	-0.046075	-0.164260	0.923030	-0.310006	-0.327683	0.935619	-0.133830	-0.324922	0.937977	-0.235808	-0.196456	0.749296	-0.014493	-0.147836	0.761987	-0.031282	-0.188762	0.700170	-0.016741	-0.143074	0.715731	-0.030200	-0.107529	0.467803	-0.080505	-0.110413	0.474334	-0.168210	-0.168517	0.342614	-0.043651	-0.123865	0.330996	-0.072789	-0.182944	0.292571	-0.046738	-0.138475	0.287250	-0.071967	-0.240663	0.092656	-0.076939	-0.232443	0.102730	-0.169778	-0.133083	0.039846	-0.067944	-0.121967	0.032397	-0.175191	-0.071538	0.048921	-0.128982	-0.319985	0.067433	-0.128682	-0.217056	0.742316	-0.362685	-0.162748	0.748602	-0.358681	-0.206495	0.706325	-0.366429	-0.157034	0.713630	-0.360466	-0.181364	0.448756	-0.344348	-0.179425	0.447568	-0.228996	-0.308463	0.428429	-0.378398	-0.285246	0.381294	-0.364020	-0.342928	0.406005	-0.378779	-0.324121	0.368270	-0.365378	-0.544490	0.330331	-0.367906	-0.529323	0.312215	-0.278674	-0.553787	0.182024	-0.398991	-0.559746	0.175885	-0.285120	-0.520478	0.140197	-0.339662	-0.599016	0.378335	-0.313824	-0.201017	1.332662	0.016459	-0.139857	1.356042	-0.342345	
72	0.3550	-0.166833	0.919106	-0.043798	-0.148523	0.922607	-0.307818	-0.311746	0.935358	-0.131474	-0.309251	0.937363	-0.233465	-0.181552	0.748301	-0.012727	-0.132907	0.760418	-0.029444	-0.174535	0.699072	-0.015162	-0.128720	0.714024	-0.028562	-0.096809	0.465684	-0.079785	-0.099759	0.472543	-0.167405	-0.160689	0.341633	-0.043283	-0.116311	0.328929	-0.072530	-0.176479	0.291856	-0.046541	-0.132097	0.285461	-0.071820	-0.240239	0.093143	-0.077119	-0.231687	0.103273	-0.170028	-0.133504	0.038538	-0.068411	-0.122443	0.030722	-0.175619	-0.071541	0.045990	-0.129500	-0.320388	0.069136	-0.128857	-0.199294	0.741723	-0.360140	-0.145038	0.748986	-0.356163	-0.187978	0.705940	-0.363868	-0.138563	0.714169	-0.357860	-0.157267	0.449105	-0.340790	-0.155230	0.448215	-0.225377	-0.283825	0.427989	-0.374334	-0.260324	0.380973	-0.360109	-0.318138	0.405424	-0.374726	-0.299085	0.367772	-0.361404	-0.518916	0.328625	-0.363376	-0.503394	0.310685	-0.274127	-0.525425	0.180507	-0.394654	-0.531509	0.174082	-0.280624	-0.491512	0.139291	-0.335335	-0.574410	0.375681	-0.309155	-0.184074	1.331915	0.018788	-0.124709	1.355329	-0.340704	
73	0.3600	-0.151665	0.918680	-0.041664	-0.133624	0.922375	-0.305763	-0.296620	0.935271	-0.129228	-0.294386	0.936956	-0.231226	-0.167490	0.747479	-0.011078	-0.118814	0.759019	-0.027732	-0.161157	0.698155	-0.013680	-0.115207	0.712492	-0.027026	-0.086974	0.463739	-0.079095	-0.089985	0.470879	-0.166638	-0.153577	0.340803	-0.042923	-0.109460	0.327082	-0.072260	-0.170633	0.291288	-0.046333	-0.126338	0.283890	-0.071650	-0.239963	0.093720	-0.077263	-0.231104	0.103939	-0.170237	-0.134020	0.037530	-0.068828	-0.123010	0.029400	-0.175995	-0.071704	0.043520	-0.129965	-0.320836	0.070802	-0.129002	-0.182436	0.741378	-0.357734	-0.128245	0.749574	-0.353775	-0.170391	0.705802	-0.361446	-0.121038	0.714913	-0.355379	-0.134326	0.449711	-0.337394	-0.132225	0.449127	-0.221930	-0.260342	0.427668	-0.370429	-0.236509	0.380801	-0.356371	-0.294473	0.404919	-0.370851	-0.275134	0.367372	-0.357604	-0.494385	0.326707	-0.359053	-0.478510	0.308995	-0.269785	-0.498069	0.178730	-0.390438	-0.504266	0.172098	-0.276252	-0.463524	0.138160	-0.331109	-0.550861	0.372822	-0.304731	-0.167933	1.331375	0.020971	-0.110335	1.354800	-0.339167	
74	0.3650	-0.137389	0.918411	-0.039683	-0.119637	0.922315	-0.303850	-0.282386	0.935337	-0.127104	-0.280403	0.936736	-0.229106	-0.154334	0.746814	-0.009554	-0.105624	0.757782	-0.026149	-0.148684	0.697405	-0.012298	-0.102594	0.711130	-0.025597	-0.078033	0.461966	-0.078435	-0.081102	0.469345	-0.165910	-0.147172	0.340114	-0.042570	-0.103300	0.325450	-0.071977	-0.165390	0.290853	-0.046112	-0.121181	0.282530	-0.071457	-0.239790	0.094363	-0.077368	-0.230651	0.104699	-0.170402	-0.134585	0.036797	-0.069192	-0.123620	0.028404	-0.176315	-0.071977	0.041489	-0.130372	-0.321287	0.072413	-0.129112	-0.166569	0.741255	-0.355479	-0.112456	0.750333	-0.351528	-0.153832	0.705882	-0.359176	-0.104554	0.715827	-0.353039	-0.112683	0.450532	-0.334182	-0.110550	0.450262	-0.218676	-0.238164	0.427458	-0.366712	-0.213963	0.380764	-0.352832	-0.272091	0.404491	-0.367179	-0.252437	0.367064	-0.354003	-0.471082	0.324634	-0.354967	-0.454859	0.307199	-0.265678	-0.471949	0.176758	-0.386376	-0.478249	0.169995	-0.272039	-0.436759	0.136857	-0.327020	-0.528536	0.369829	-0.300579	-0.152689	1.331023	0.023002	-0.096815	1.354443	-0.337738	
75	0.3700	-0.124075	0.918277	-0.037859	-0.106625	0.922404	-0.302084	-0.269111	0.935532	-0.125117	-0.267367	0.936679	-0.227117	-0.142139	0.746290	-0.008157	-0.093391	0.756698	-0.024701	-0.137160	0.696806	-0.011020	-0.090930	0.709928	-0.024281	-0.069986	0.460365	-0.077806	-0.073107	0.467941	-0.165221	-0.141457	0.339552	-0.042224	-0.097812	0.324026	-0.071683	-0.160728	0.290537	-0.045878	-0.116602	0.281369	-0.071241	-0.239684	0.095051	-0.077434	-0.230293	0.105526	-0.170521	-0.135162	0.036308	-0.069500	-0.124236	0.027702	-0.176577	-0.072321	0.039866	-0.130720	-0.321707	0.073952	-0.129185	-0.151771	0.741325	-0.353387	-0.097746	0.751228	-0.349436	-0.138381	0.706149	-0.357069	-0.089191	0.716874	-0.350853	-0.092459	0.451526	-0.331173	-0.090326	0.451569	-0.215633	-0.217420	0.427348	-0.363210	-0.192829	0.380842	-0.349513	-0.251128	0.404136	-0.363736	-0.231141	0.366841	-0.350623	-0.449170	0.322465	-0.351144	-0.432612	0.305344	-0.261831	-0.447273	0.174657	-0.382502	-0.453664	0.167831	-0.268022	-0.411437	0.135433	-0.323103	-0.507584	0.366774	-0.296722	-0.138429	1.330840	0.024873	-0.084217	1.354241	-0.336420	
76	0.3750	-0.111781	0.918258	-0.036198	-0.094637	0.922617	-0.300470	-0.256854	0.935830	-0.123275	-0.255334	0.936761	-0.225271	-0.130947	0.745891	-0.006889	-0.082157	0.755756	-0.023388	-0.126619	0.696340	-0.009849	-0.080249	0.708876	-0.023079	-0.062818	0.458932	-0.077210	-0.065986	0.466667	-0.164573	-0.136408	0.339106	-0.041885	-0.092972	0.322799	-0.071381	-0.156621	0.290326	-0.045634	-0.112576	0.280396	-0.071006	-0.239615	0.095763	-0.077461	-0.230002	0.106393	-0.170597	-0.135723	0.036031	-0.069754	-0.124830	0.027256	-0.176785	-0.072703	0.038614	-0.131010	-0.322072	0.075405	-0.129223	-0.138106	0.741557	-0.351467	-0.084177	0.752222	-0.347505	-0.124109	0.706569	-0.355132	-0.075014	0.718015	-0.348829	-0.073759	0.452648	-0.328383	-0.071651	0.453001	-0.212814	-0.198221	0.427326	-0.359944	-0.173226	0.381018	-0.346432	-0.231701	0.403852	-0.360540	-0.211370	0.366695	-0.347485	-0.428790	0.320258	-0.347603	-0.411913	0.303478	-0.258266	-0.424223	0.172489	-0.378848	-0.430692	0.165662	-0.264232	-0.387751	0.133940	-0.319391	-0.488130	0.363724	-0.293176	-0.125223	1.330803	0.026580	-0.072599	1.354175	-0.335216	
77	0.3800	-0.100549	0.918333	-0.034700	-0.083711	0.922929	-0.299012	-0.245656	0.936206	-0.121588	-0.244343	0.936956	-0.223577	-0.120784	0.745599	-0.005751	-0.071951	0.754945	-0.022211	-0.117078	0.695991	-0.008786	-0.070572	0.707966	-0.021993	-0.056506	0.457663	-0.076650	-0.059714	0.465521	-0.163968	-0.131995	0.338763	-0.041557	-0.088749	0.321758	-0.071076	-0.153040	0.290202	-0.045383	-0.109073	0.279593	-0.070757	-0.239564	0.096480	-0.077454	-0.229758	0.107275	-0.170632	-0.136246	0.035931	-0.069956	-0.125381	0.027027	-0.176940	-0.073094	0.037689	-0.131243	-0.322371	0.076761	-0.129228	-0.125621	0.741917	-0.349723	-0.071793	0.753280	-0.345743	-0.111066	0.707107	-0.353371	-0.062072	0.719211	-0.346978	-0.056657	0.453851	-0.325825	-0.054598	0.454507	-0.210233	-0.180650	0.427377	-0.356934	-0.155248	0.381271	-0.343605	-0.213899	0.403631	-0.357607	-0.193224	0.366616	-0.344602	-0.410052	0.318063	-0.344361	-0.392877	0.301643	-0.254999	-0.402945	0.170314	-0.375441	-0.409482	0.163538	-0.260698	-0.365860	0.132426	-0.315914	-0.470273	0.360740	-0.289953	-0.113127	1.330887	0.028122	-0.062000	1.354225	-0.334125	
78	0.3850	-0.090407	0.918481	-0.033364	-0.073866	0.923314	-0.297708	-0.235544	0.936635	-0.120061	-0.234418	0.937237	-0.222040	-0.111662	0.745398	-0.004742	-0.062785	0.754256	-0.021167	-0.108543	0.695741	-0.007831	-0.061906	0.707186	-0.021023	-0.051013	0.456553	-0.076130	-0.054256	0.464501	-0.163409	-0.128184	0.338508	-0.041242	-0.085108	0.320886	-0.070771	-0.149952	0.290151	-0.045130	-0.106058	0.278946	-0.070499	-0.239515	0.097183	-0.077417	-0.229545	0.108146	-0.170631	-0.136718	0.035972	-0.070111	-0.125875	0.026975	-0.177048	-0.073476	0.037047	-0.131426	-0.322595	0.078008	-0.129204	-0.114346	0.742374	-0.348159	-0.060621	0.754364	-0.344154	-0.099283	0.707728	-0.351790	-0.050395	0.720425	-0.345303	-0.041204	0.455095	-0.323508	-0.039210	0.456040	-0.207896	-0.164759	0.427486	-0.354193	-0.138960	0.381580	-0.341041	-0.197781	0.403468	-0.354949	-0.176770	0.366593	-0.341986	-0.393036	0.315930	-0.341429	-0.375585	0.299877	-0.252041	-0.383551	0.168184	-0.372303	-0.390145	0.161501	-0.257444	-0.345884	0.130932	-0.312698	-0.454081	0.357878	-0.287060	-0.102177	1.331068	0.029498	-0.052446	1.354367	-0.333149	
79	0.3900	-0.081362	0.918681	-0.032188	-0.065106	0.923747	-0.296558	-0.226527	0.937095	-0.118696	-0.225568	0.937577	-0.220664	-0.103576	0.745270	-0.003857	-0.054655	0.753675	-0.020253	-0.101001	0.695573	-0.006983	-0.054242	0.706525	-0.020166	-0.046296	0.455592	-0.075650	-0.049567	0.463605	-0.162897	-0.124933	0.338328	-0.040943	-0.082008	0.320170	-0.070474	-0.147321	0.290157	-0.044879	-0.103496	0.278436	-0.070239	-0.239459	0.097858	-0.077355	-0.229352	0.108987	-0.170601	-0.137129	0.036120	-0.070224	-0.126304	0.027060	-0.177116	-0.073833	0.036641	-0.131562	-0.322747	0.079142	-0.129156	-0.104290	0.742894	-0.346775	-0.050668	0.755444	-0.342739	-0.088774	0.708398	-0.350388	-0.039990	0.721623	-0.343807	-0.027421	0.456337	-0.321436	-0.025505	0.457556	-0.205808	-0.150575	0.427638	-0.351730	-0.124394	0.381925	-0.338747	-0.183378	0.403354	-0.352570	-0.162046	0.366614	-0.339643	-0.377787	0.313900	-0.338810	-0.360087	0.298212	-0.249398	-0.366111	0.166147	-0.369452	-0.372751	0.159590	-0.254488	-0.327902	0.129496	-0.309764	-0.439591	0.355186	-0.284496	-0.092391	1.331319	0.030711	-0.043942	1.354580	-0.332285	
80	0.3950	-0.073407	0.918913	-0.031167	-0.057415	0.924203	-0.295556	-0.218596	0.937564	-0.117493	-0.217783	0.937954	-0.219450	-0.096507	0.745202	-0.003093	-0.047542	0.753193	-0.019463	-0.094427	0.695472	-0.006241	-0.047556	0.705973	-0.019420	-0.042300	0.454773	-0.075214	-0.045595	0.462827	-0.162434	-0.122198	0.338211	-0.040664	-0.079405	0.319592	-0.070188	-0.145110	0.290207	-0.044636	-0.101347	0.278044	-0.069983	-0.239393	0.098490	-0.077276	-0.229174	0.109780	-0.170547	-0.137477	0.036345	-0.070301	-0.126665	0.027246	-0.177149	-0.074154	0.036425	-0.131659	-0.322831	0.080157	-0.129089	-0.095443	0.743449	-0.345565	-0.041923	0.756489	-0.341495	-0.079527	0.709088	-0.349162	-0.030846	0.722775	-0.342490	-0.015297	0.457543	-0.319608	-0.013466	0.459016	-0.203967	-0.138089	0.427820	-0.349549	-0.111550	0.382289	-0.336721	-0.170687	0.403281	-0.350472	-0.149055	0.366670	-0.337573	-0.364315	0.312009	-0.336505	-0.346394	0.296674	-0.247069	-0.350656	0.164242	-0.366900	-0.357333	0.157831	-0.251841	-0.311950	0.128149	-0.307125	-0.426807	0.352701	-0.282256	-0.083766	1.331618	0.031766	-0.036478	1.354842	-0.331530	
81	0.4000	-0.066514	0.919162	-0.030292	-0.050764	0.924663	-0.294697	-0.211723	0.938025	-0.116450	-0.211037	0.938346	-0.218395	-0.090417	0.745179	-0.002441	-0.041411	0.752798	-0.018791	-0.088781	0.695422	-0.005599	-0.041808	0.705518	-0.018779	-0.038968	0.454085	-0.074824	-0.042280	0.462161	-0.162022	-0.119932	0.338143	-0.040408	-0.077251	0.319135	-0.069919	-0.143277	0.290286	-0.044405	-0.099570	0.277754	-0.069737	-0.239316	0.099069	-0.077184	-0.229007	0.110511	-0.170477	-0.137763	0.036616	-0.070348	-0.126960	0.027498	-0.177156	-0.074435	0.036355	-0.131723	-0.322857	0.081052	-0.129010	-0.087775	0.744011	-0.344525	-0.034352	0.757473	-0.340419	-0.071513	0.709769	-0.348105	-0.022930	0.723855	-0.341347	-0.004795	0.458683	-0.318021	-0.003052	0.460386	-0.202369	-0.127266	0.428017	-0.347647	-0.100400	0.382653	-0.334961	-0.159675	0.403242	-0.348649	-0.137769	0.366748	-0.335772	-0.352598	0.310282	-0.334506	-0.334482	0.295281	-0.245048	-0.337173	0.162499	-0.364649	-0.343878	0.156247	-0.249508	-0.298021	0.126914	-0.304790	-0.415700	0.350453	-0.280327	-0.076279	1.331942	0.032670	-0.030024	1.355132	-0.330880	
82	0.4050	-0.060638	0.919413	-0.029556	-0.045106	0.925109	-0.293972	-0.205865	0.938461	-0.115559	-0.205286	0.938733	-0.217493	-0.085257	0.745188	-0.001895	-0.036212	0.752480	-0.018227	-0.084012	0.695410	-0.005054	-0.036949	0.705148	-0.018237	-0.036235	0.453516	-0.074479	-0.039560	0.461601	-0.161659	-0.118084	0.338113	-0.040176	-0.075499	0.318782	-0.069672	-0.141782	0.290384	-0.044191	-0.098125	0.277546	-0.069507	-0.239229	0.099588	-0.077087	-0.228851	0.111168	-0.170397	-0.137989	0.036909	-0.070371	-0.127193	0.027786	-0.177143	-0.074672	0.036391	-0.131760	-0.322836	0.081828	-0.128924	-0.081238	0.744556	-0.343646	-0.027906	0.758378	-0.339503	-0.064680	0.710418	-0.347210	-0.016189	0.724842	-0.340371	0.004152	0.459731	-0.316666	0.005807	0.461640	-0.201004	-0.118041	0.428218	-0.346016	-0.090880	0.383006	-0.333456	-0.150280	0.403228	-0.347092	-0.128128	0.366841	-0.334232	-0.342578	0.308741	-0.332802	-0.324295	0.294047	-0.243323	-0.325611	0.160939	-0.362700	-0.332337	0.154850	-0.247487	-0.286066	0.125809	-0.302759	-0.406212	0.348461	-0.278696	-0.069887	1.332273	0.033431	-0.024537	1.355432	-0.330329	
83	0.4100	-0.055721	0.919654	-0.028946	-0.040379	0.925524	-0.293371	-0.200962	0.938861	-0.114813	-0.200471	0.939100	-0.216737	-0.080963	0.745218	-0.001446	-0.031884	0.752228	-0.017763	-0.080055	0.695424	-0.004598	-0.032913	0.704853	-0.017788	-0.034035	0.453054	-0.074181	-0.037369	0.461138	-0.161347	-0.116606	0.338110	-0.039971	-0.074100	0.318516	-0.069450	-0.140585	0.290491	-0.043997	-0.096971	0.277405	-0.069297	-0.239137	0.100042	-0.076990	-0.228706	0.111745	-0.170312	-0.138163	0.037202	-0.070377	-0.127370	0.028085	-0.177116	-0.074866	0.036499	-0.131778	-0.322780	0.082488	-0.128837	-0.075766	0.745067	-0.342916	-0.022515	0.759188	-0.338737	-0.058961	0.711016	-0.346465	-0.010552	0.725722	-0.339554	0.011633	0.460670	-0.315529	0.013207	0.462758	-0.199859	-0.110321	0.428413	-0.344644	-0.082902	0.383334	-0.332193	-0.142410	0.403232	-0.345787	-0.120044	0.366940	-0.332938	-0.334168	0.307395	-0.331375	-0.315745	0.292978	-0.241879	-0.315882	0.159576	-0.361042	-0.322623	0.153644	-0.245769	-0.275998	0.124843	-0.301025	-0.398257	0.346733	-0.277340	-0.064530	1.332594	0.034062	-0.019956	1.355726	-0.329870	
84	0.4150	-0.051690	0.919875	-0.028452	-0.036510	0.925898	-0.292882	-0.196941	0.939216	-0.114201	-0.196522	0.939434	-0.216115	-0.077462	0.745261	-0.001084	-0.028352	0.752032	-0.017389	-0.076837	0.695454	-0.004225	-0.029630	0.704623	-0.017422	-0.032300	0.452687	-0.073929	-0.035639	0.460763	-0.161083	-0.115447	0.338126	-0.039794	-0.073004	0.318322	-0.069255	-0.139645	0.290597	-0.043826	-0.096068	0.277315	-0.069110	-0.239043	0.100430	-0.076897	-0.228573	0.112240	-0.170229	-0.138291	0.037481	-0.070371	-0.127500	0.028376	-0.177081	-0.075021	0.036647	-0.131781	-0.322701	0.083038	-0.128753	-0.071278	0.745529	-0.342322	-0.018099	0.759893	-0.338110	-0.054270	0.711551	-0.345858	-0.005934	0.726486	-0.338883	0.017762	0.461488	-0.314596	0.019261	0.463730	-0.198920	-0.103992	0.428594	-0.343513	-0.076353	0.383629	-0.331155	-0.135954	0.403248	-0.344715	-0.113406	0.367037	-0.331874	-0.327254	0.306249	-0.330205	-0.308716	0.292073	-0.240694	-0.307865	0.158414	-0.359663	-0.314616	0.152629	-0.244339	-0.267697	0.124021	-0.299577	-0.391724	0.345270	-0.276236	-0.060131	1.332892	0.034574	-0.016210	1.356002	-0.329495	
85	0.4200	-0.048460	0.920071	-0.028060	-0.033414	0.926224	-0.292494	-0.193720	0.939522	-0.113711	-0.193356	0.939729	-0.215616	-0.074673	0.745308	-0.000798	-0.025536	0.751882	-0.017093	-0.074280	0.695493	-0.003926	-0.027019	0.704446	-0.017131	-0.030963	0.452402	-0.073719	-0.034305	0.460467	-0.160865	-0.114559	0.338153	-0.039644	-0.072167	0.318185	-0.069088	-0.138923	0.290697	-0.043679	-0.095376	0.277263	-0.068949	-0.238952	0.100752	-0.076812	-0.228455	0.112652	-0.170152	-0.138381	0.037732	-0.070358	-0.127591	0.028643	-0.177044	-0.075140	0.036811	-0.131774	-0.322612	0.083486	-0.128675	-0.067681	0.745932	-0.341850	-0.014564	0.760490	-0.337607	-0.050511	0.712013	-0.345374	-0.002237	0.727131	-0.338345	0.022668	0.462181	-0.313847	0.024101	0.464551	-0.198165	-0.098924	0.428756	-0.342602	-0.071102	0.383885	-0.330321	-0.130779	0.403271	-0.343855	-0.108079	0.367128	-0.331019	-0.321703	0.305297	-0.329268	-0.303071	0.291328	-0.239743	-0.301413	0.157449	-0.358541	-0.308171	0.151797	-0.243177	-0.261011	0.123340	-0.298396	-0.386483	0.344062	-0.275358	-0.056602	1.333158	0.034979	-0.013216	1.356250	-0.329196	
