PathFileType	4	(X/Y/Z)	 P6 pr2 02.trc
DataRate	CameraRate	NumFrames	NumMarkers	Units	OrigDataRate	OrigDataStartFrame	OrigNumFrames
200	200	88	38	m	200	1	88
Frame#	Time	RASIS			LASIS			RPSIS			LPSIS			RThighRear1			RThighFront1			RThighRear2			RThighFront2			RKneeLat			RKneeMed			RShankRear1			RShankFront1			RShankRear2			RShankFront2			RAnkleLat			RAnkleMed			RM5			RM1			RMid			RHeel			LThighRear1			LThighFront1			LThighRear2			LThighFront2			LKneeLat			LKneeMed			LShankRear1			LShankFront1			LShankRear2			LShankFront2			LAnkleLat			LAnkleMed			LM5			LM1			LMid			LHeel			RShoulder			LShoulder			
		X1	Y1	Z1	X2	Y2	Z2	X3	Y3	Z3	X4	Y4	Z4	X5	Y5	Z5	X6	Y6	Z6	X7	Y7	Z7	X8	Y8	Z8	X9	Y9	Z9	X10	Y10	Z10	X11	Y11	Z11	X12	Y12	Z12	X13	Y13	Z13	X14	Y14	Z14	X15	Y15	Z15	X16	Y16	Z16	X17	Y17	Z17	X18	Y18	Z18	X19	Y19	Z19	X20	Y20	Z20	X21	Y21	Z21	X22	Y22	Z22	X23	Y23	Z23	X24	Y24	Z24	X25	Y25	Z25	X26	Y26	Z26	X27	Y27	Z27	X28	Y28	Z28	X29	Y29	Z29	X30	Y30	Z30	X31	Y31	Z31	X32	Y32	Z32	X33	Y33	Z33	X34	Y34	Z34	X35	Y35	Z35	X36	Y36	Z36	X37	Y37	Z37	X38	Y38	Z38	
1	0.0000	-1.602807	0.934907	-0.159379	-1.583945	0.926964	-0.421555	-1.744057	0.959579	-0.260036	-1.740207	0.951769	-0.350739	-1.667184	0.752859	-0.136941	-1.616639	0.748871	-0.144975	-1.677623	0.704647	-0.139418	-1.629401	0.701786	-0.141415	-1.721807	0.450546	-0.191601	-1.704013	0.449783	-0.295635	-1.865732	0.438875	-0.183270	-1.848198	0.388617	-0.201695	-1.913720	0.421535	-0.194485	-1.892550	0.378391	-0.206313	-2.109411	0.356968	-0.242361	-2.085702	0.351459	-0.328882	-2.162814	0.227045	-0.238755	-2.146945	0.221086	-0.340731	-2.127598	0.164308	-0.294508	-2.142137	0.420694	-0.295744	-1.608718	0.760994	-0.474373	-1.556886	0.781688	-0.460422	-1.587007	0.728591	-0.478097	-1.542715	0.749749	-0.461820	-1.468873	0.499384	-0.426297	-1.475501	0.507019	-0.322337	-1.483938	0.355033	-0.446665	-1.434596	0.373113	-0.435448	-1.466918	0.318093	-0.443273	-1.425999	0.332972	-0.432103	-1.401413	0.101229	-0.401688	-1.395747	0.128022	-0.315529	-1.257669	0.102951	-0.424819	-1.261333	0.113772	-0.312294	-1.223633	0.153701	-0.374032	-1.457683	0.054714	-0.343331	-1.524301	1.367571	-0.160002	-1.542611	1.347723	-0.517465	
2	0.0050	-1.586988	0.933068	-0.159357	-1.568487	0.925590	-0.421695	-1.728629	0.957350	-0.259790	-1.724859	0.949952	-0.350458	-1.649378	0.750978	-0.136234	-1.598782	0.747902	-0.144395	-1.658865	0.702683	-0.138308	-1.610614	0.700821	-0.140386	-1.696996	0.448305	-0.189377	-1.678759	0.447367	-0.293674	-1.840457	0.437252	-0.180940	-1.823186	0.386777	-0.199618	-1.888465	0.420259	-0.192280	-1.867613	0.376989	-0.204155	-2.084394	0.357637	-0.240030	-2.060768	0.351537	-0.326530	-2.136791	0.227778	-0.235302	-2.121352	0.221018	-0.337398	-2.101330	0.164714	-0.290766	-2.117786	0.420926	-0.293770	-1.593061	0.759407	-0.474144	-1.541213	0.780233	-0.460547	-1.571240	0.727042	-0.477624	-1.527003	0.748236	-0.461644	-1.453003	0.497569	-0.426050	-1.459349	0.505703	-0.322335	-1.471258	0.354044	-0.446390	-1.421716	0.370657	-0.434802	-1.455407	0.316853	-0.442868	-1.414340	0.330540	-0.431362	-1.397701	0.100225	-0.401051	-1.391326	0.126141	-0.314686	-1.254484	0.097086	-0.423704	-1.258160	0.107346	-0.311283	-1.219026	0.145807	-0.372584	-1.455386	0.055627	-0.343078	-1.508974	1.365062	-0.159505	-1.526133	1.344731	-0.517721	
3	0.0100	-1.570962	0.931207	-0.159338	-1.552808	0.924198	-0.421838	-1.712991	0.955098	-0.259560	-1.709295	0.948115	-0.350193	-1.631332	0.749087	-0.135515	-1.580689	0.746942	-0.143811	-1.639843	0.700713	-0.137186	-1.591568	0.699868	-0.139350	-1.671782	0.446087	-0.187129	-1.653108	0.444984	-0.291699	-1.814783	0.435621	-0.178582	-1.797764	0.384930	-0.197507	-1.862819	0.418972	-0.190032	-1.842271	0.375570	-0.201964	-2.058996	0.358239	-0.237653	-2.035453	0.351548	-0.324131	-2.110328	0.228423	-0.231792	-2.095321	0.220855	-0.334007	-2.074592	0.165040	-0.286966	-2.093092	0.421074	-0.291749	-1.577187	0.757782	-0.473922	-1.525319	0.778728	-0.460668	-1.555261	0.725448	-0.477157	-1.511076	0.746670	-0.461463	-1.436965	0.495670	-0.425791	-1.443027	0.504307	-0.322318	-1.458455	0.352999	-0.446106	-1.408717	0.368124	-0.434139	-1.443794	0.315561	-0.442450	-1.402582	0.328038	-0.430602	-1.394004	0.099220	-0.400399	-1.386911	0.124257	-0.313827	-1.251307	0.091262	-0.422591	-1.254989	0.100951	-0.310288	-1.214426	0.137912	-0.371137	-1.453107	0.056520	-0.342815	-1.493427	1.362511	-0.158993	-1.509423	1.341696	-0.517975	
4	0.0150	-1.554749	0.929341	-0.159321	-1.536917	0.922797	-0.421980	-1.697156	0.952838	-0.259350	-1.693526	0.946273	-0.349948	-1.613067	0.747210	-0.134783	-1.562385	0.746013	-0.143229	-1.620576	0.698763	-0.136056	-1.572285	0.698951	-0.138313	-1.646177	0.443938	-0.184868	-1.627077	0.442685	-0.289716	-1.788721	0.433996	-0.176204	-1.771934	0.383097	-0.195365	-1.836790	0.417679	-0.187740	-1.816520	0.374143	-0.199746	-2.033220	0.358723	-0.235230	-2.009757	0.351448	-0.321687	-2.083401	0.228924	-0.228230	-2.068823	0.220548	-0.330561	-2.047347	0.165240	-0.283115	-2.068067	0.421079	-0.289678	-1.561118	0.756123	-0.473707	-1.509224	0.777168	-0.460781	-1.539098	0.723810	-0.476698	-1.494959	0.745044	-0.461276	-1.420826	0.493675	-0.425517	-1.426603	0.502815	-0.322282	-1.445587	0.351893	-0.445810	-1.395663	0.365511	-0.433460	-1.432135	0.314215	-0.442021	-1.390786	0.325467	-0.429825	-1.390355	0.098228	-0.399735	-1.382538	0.122389	-0.312953	-1.248169	0.085538	-0.421491	-1.251849	0.094649	-0.309320	-1.209874	0.130082	-0.369703	-1.450870	0.057387	-0.342543	-1.477678	1.359932	-0.158465	-1.492491	1.338636	-0.518222	
5	0.0200	-1.538359	0.927486	-0.159307	-1.520816	0.921398	-0.422119	-1.681132	0.950587	-0.259165	-1.677555	0.944439	-0.349728	-1.594594	0.745373	-0.134040	-1.543886	0.745141	-0.142651	-1.601074	0.696860	-0.134921	-1.552776	0.698100	-0.137281	-1.620181	0.441909	-0.182600	-1.600673	0.440523	-0.287733	-1.762270	0.432395	-0.173813	-1.745684	0.381299	-0.193197	-1.810379	0.416387	-0.185407	-1.790349	0.372715	-0.197504	-2.007054	0.359037	-0.232760	-1.983668	0.351191	-0.319199	-2.055970	0.229223	-0.224620	-2.041812	0.220042	-0.327064	-2.019542	0.165270	-0.279219	-2.042712	0.420877	-0.287555	-1.544868	0.754435	-0.473500	-1.492942	0.775548	-0.460879	-1.522773	0.722129	-0.476251	-1.478671	0.743351	-0.461080	-1.404649	0.491572	-0.425228	-1.410140	0.501212	-0.322222	-1.432712	0.350723	-0.445502	-1.382615	0.362816	-0.432767	-1.420484	0.312814	-0.441580	-1.379010	0.322829	-0.429034	-1.386787	0.097259	-0.399059	-1.378241	0.120554	-0.312067	-1.245099	0.079970	-0.420414	-1.248769	0.088497	-0.308393	-1.205413	0.122380	-0.368294	-1.448698	0.058222	-0.342258	-1.461739	1.357338	-0.157917	-1.475343	1.335571	-0.518453	
6	0.0250	-1.521796	0.925658	-0.159294	-1.504499	0.920009	-0.422252	-1.664916	0.948363	-0.259011	-1.661377	0.942628	-0.349539	-1.575917	0.743603	-0.133286	-1.525197	0.744353	-0.142081	-1.581340	0.695033	-0.133784	-1.533049	0.697342	-0.136259	-1.593786	0.440049	-0.180336	-1.573894	0.438555	-0.285758	-1.735423	0.430833	-0.171414	-1.718995	0.379560	-0.191006	-1.783575	0.415100	-0.183033	-1.763734	0.371297	-0.195240	-1.980479	0.359129	-0.230244	-1.957162	0.350733	-0.316666	-2.027984	0.229263	-0.220966	-2.014233	0.219285	-0.323518	-1.991110	0.165083	-0.275284	-2.017018	0.420404	-0.285376	-1.528446	0.752722	-0.473303	-1.476480	0.773864	-0.460958	-1.506302	0.720407	-0.475817	-1.462225	0.741587	-0.460873	-1.388495	0.489350	-0.424921	-1.393703	0.499483	-0.322133	-1.419886	0.349484	-0.445180	-1.369632	0.360040	-0.432059	-1.408897	0.311359	-0.441126	-1.367310	0.320126	-0.428229	-1.383331	0.096328	-0.398373	-1.374054	0.118772	-0.311173	-1.242124	0.074611	-0.419371	-1.245776	0.082548	-0.307515	-1.201083	0.114866	-0.366920	-1.446614	0.059021	-0.341959	-1.445617	1.354748	-0.157346	-1.457975	1.332522	-0.518662	
7	0.0300	-1.505058	0.923875	-0.159281	-1.487957	0.918640	-0.422377	-1.648503	0.946182	-0.258891	-1.644982	0.940855	-0.349384	-1.557037	0.741929	-0.132519	-1.506323	0.743676	-0.141520	-1.561371	0.693313	-0.132649	-1.513104	0.696707	-0.135254	-1.566983	0.438408	-0.178083	-1.546736	0.436835	-0.283795	-1.708167	0.429328	-0.169015	-1.691842	0.377901	-0.188795	-1.756363	0.413824	-0.180621	-1.736649	0.369899	-0.192959	-1.953467	0.358945	-0.227681	-1.930209	0.350025	-0.314091	-1.999389	0.228989	-0.217272	-1.986021	0.218225	-0.319926	-1.961983	0.164636	-0.271315	-1.990967	0.419595	-0.283139	-1.511859	0.750991	-0.473112	-1.459844	0.772112	-0.461012	-1.489697	0.718646	-0.475399	-1.445633	0.739747	-0.460652	-1.372424	0.487003	-0.424593	-1.377352	0.497615	-0.322011	-1.407163	0.348176	-0.444844	-1.356772	0.357185	-0.431339	-1.397425	0.309850	-0.440660	-1.355743	0.317361	-0.427414	-1.380012	0.095444	-0.397680	-1.370007	0.117060	-0.310273	-1.239271	0.069509	-0.418371	-1.242895	0.076853	-0.306696	-1.196920	0.107598	-0.365590	-1.444637	0.059783	-0.341647	-1.429316	1.352178	-0.156749	-1.440379	1.329512	-0.518841	
8	0.0350	-1.488142	0.922157	-0.159267	-1.471179	0.917304	-0.422491	-1.631887	0.944065	-0.258808	-1.628361	0.939137	-0.349267	-1.537950	0.740380	-0.131742	-1.487264	0.743138	-0.140973	-1.541163	0.691730	-0.131519	-1.492940	0.696226	-0.134271	-1.539762	0.437038	-0.175849	-1.519195	0.435417	-0.281851	-1.680489	0.427895	-0.166621	-1.664202	0.376346	-0.186567	-1.728729	0.412564	-0.178172	-1.709068	0.368532	-0.190663	-1.925988	0.358434	-0.225071	-1.902777	0.349027	-0.311475	-1.970124	0.228349	-0.213544	-1.957112	0.216816	-0.316293	-1.932087	0.163891	-0.267318	-1.964537	0.418385	-0.280843	-1.495111	0.749249	-0.472928	-1.443036	0.770291	-0.461035	-1.472971	0.716851	-0.474995	-1.428903	0.737827	-0.460412	-1.356494	0.484524	-0.424244	-1.361148	0.495600	-0.321850	-1.394596	0.346801	-0.444491	-1.344091	0.354255	-0.430608	-1.386120	0.308293	-0.440180	-1.344361	0.314543	-0.426591	-1.376856	0.094621	-0.396981	-1.366126	0.115435	-0.309371	-1.236562	0.064706	-0.417423	-1.240151	0.071453	-0.305942	-1.192959	0.100630	-0.364313	-1.442784	0.060508	-0.341319	-1.412839	1.349648	-0.156123	-1.422548	1.326566	-0.518980	
9	0.0400	-1.471042	0.920522	-0.159251	-1.454150	0.916010	-0.422589	-1.615056	0.942028	-0.258764	-1.611500	0.937490	-0.349188	-1.518652	0.738984	-0.130954	-1.468016	0.742768	-0.140441	-1.520713	0.690315	-0.130397	-1.472555	0.695927	-0.133314	-1.512119	0.435986	-0.173641	-1.491270	0.434352	-0.279931	-1.652380	0.426552	-0.164240	-1.636054	0.374918	-0.184327	-1.700659	0.411324	-0.175691	-1.680966	0.367207	-0.188355	-1.898013	0.357551	-0.222417	-1.874833	0.347695	-0.308821	-1.940135	0.227295	-0.209786	-1.927443	0.215014	-0.312623	-1.901355	0.162813	-0.263301	-1.937705	0.416715	-0.278490	-1.478205	0.747505	-0.472748	-1.426060	0.768401	-0.461022	-1.456134	0.715028	-0.474605	-1.412045	0.735828	-0.460152	-1.340763	0.481914	-0.423870	-1.345150	0.493432	-0.321647	-1.382237	0.345364	-0.444120	-1.331643	0.351258	-0.429869	-1.375028	0.306696	-0.439687	-1.333215	0.311681	-0.425763	-1.373882	0.093869	-0.396280	-1.362433	0.113913	-0.308472	-1.234019	0.060237	-0.416533	-1.237565	0.066387	-0.305260	-1.189231	0.094007	-0.363096	-1.441068	0.061198	-0.340976	-1.396191	1.347180	-0.155464	-1.404471	1.323710	-0.519072	
10	0.0450	-1.453752	0.918989	-0.159230	-1.436860	0.914771	-0.422669	-1.598002	0.940092	-0.258759	-1.594388	0.935930	-0.349148	-1.499138	0.737771	-0.130156	-1.448579	0.742591	-0.139926	-1.500015	0.689096	-0.129286	-1.451948	0.695840	-0.132389	-1.484055	0.435297	-0.171467	-1.462967	0.433687	-0.278039	-1.623835	0.425313	-0.161877	-1.607383	0.373638	-0.182080	-1.672144	0.410108	-0.173183	-1.652325	0.365934	-0.186040	-1.869513	0.356250	-0.219720	-1.846346	0.345994	-0.306134	-1.909371	0.225789	-0.206007	-1.896954	0.212784	-0.308923	-1.869726	0.161374	-0.259271	-1.910449	0.414529	-0.276081	-1.461146	0.745771	-0.472569	-1.408919	0.766446	-0.460968	-1.439197	0.713187	-0.474228	-1.395067	0.733751	-0.459867	-1.325286	0.479177	-0.423472	-1.329417	0.491113	-0.321398	-1.370137	0.343874	-0.443730	-1.319480	0.348207	-0.429125	-1.364198	0.305069	-0.439180	-1.322353	0.308788	-0.424935	-1.371105	0.093200	-0.395580	-1.358948	0.112509	-0.307579	-1.231657	0.056128	-0.415709	-1.235155	0.061682	-0.304652	-1.185761	0.087772	-0.361945	-1.439501	0.061860	-0.340617	-1.379376	1.344797	-0.154772	-1.386138	1.320972	-0.519108	
11	0.0500	-1.436266	0.917580	-0.159202	-1.419299	0.913599	-0.422727	-1.580718	0.938275	-0.258791	-1.577015	0.934475	-0.349147	-1.479406	0.736769	-0.129349	-1.428952	0.742634	-0.139430	-1.479069	0.688104	-0.128189	-1.431120	0.695992	-0.131500	-1.455579	0.435014	-0.169334	-1.434298	0.433465	-0.276177	-1.594859	0.424194	-0.159540	-1.578185	0.372529	-0.179830	-1.643182	0.408920	-0.170654	-1.623135	0.364726	-0.183722	-1.840467	0.354495	-0.216987	-1.817291	0.343893	-0.303419	-1.877787	0.223797	-0.202216	-1.865598	0.210099	-0.305200	-1.837149	0.159555	-0.255238	-1.882746	0.411778	-0.273620	-1.443940	0.744059	-0.472387	-1.391620	0.764431	-0.460867	-1.422173	0.711339	-0.473861	-1.377983	0.731601	-0.459555	-1.310117	0.476323	-0.423049	-1.314003	0.488646	-0.321103	-1.358343	0.342344	-0.443322	-1.307651	0.345120	-0.428379	-1.353673	0.303425	-0.438662	-1.311821	0.305882	-0.424112	-1.368535	0.092625	-0.394885	-1.355682	0.111239	-0.306699	-1.229492	0.052399	-0.414955	-1.232936	0.057361	-0.304119	-1.182572	0.081958	-0.360864	-1.438088	0.062503	-0.340245	-1.362401	1.342523	-0.154044	-1.367543	1.318380	-0.519079	
12	0.0550	-1.418581	0.916314	-0.159165	-1.401461	0.912507	-0.422760	-1.563197	0.936597	-0.258860	-1.559373	0.933141	-0.349182	-1.459455	0.736003	-0.128534	-1.409135	0.742919	-0.138955	-1.457879	0.687364	-0.127109	-1.410076	0.696405	-0.130651	-1.426713	0.435171	-0.167251	-1.405287	0.433722	-0.274351	-1.565462	0.423206	-0.157235	-1.548462	0.371609	-0.177584	-1.613780	0.407762	-0.168112	-1.593396	0.363594	-0.181406	-1.810857	0.352254	-0.214222	-1.787649	0.341365	-0.300686	-1.845353	0.221297	-0.198421	-1.833334	0.206939	-0.301466	-1.803586	0.157345	-0.251211	-1.854579	0.408418	-0.271114	-1.426596	0.742384	-0.472197	-1.374172	0.762367	-0.460717	-1.405077	0.709498	-0.473502	-1.360804	0.729388	-0.459214	-1.295308	0.473369	-0.422602	-1.298963	0.486043	-0.320760	-1.346899	0.340791	-0.442895	-1.296200	0.342017	-0.427638	-1.343492	0.301783	-0.438135	-1.301657	0.302984	-0.423300	-1.366175	0.092153	-0.394200	-1.352645	0.110114	-0.305838	-1.227532	0.049060	-0.414275	-1.230921	0.053435	-0.303660	-1.179681	0.076590	-0.359856	-1.436829	0.063141	-0.339860	-1.345278	1.340383	-0.153279	-1.348683	1.315964	-0.518978	
13	0.0600	-1.400696	0.915210	-0.159116	-1.383343	0.911506	-0.422764	-1.545436	0.935076	-0.258959	-1.541459	0.931945	-0.349248	-1.439290	0.735499	-0.127713	-1.389135	0.743468	-0.138500	-1.436452	0.686900	-0.126049	-1.388824	0.697102	-0.129845	-1.397489	0.435799	-0.165223	-1.375968	0.434488	-0.272561	-1.535669	0.422362	-0.154969	-1.518233	0.370896	-0.175349	-1.583953	0.406637	-0.165567	-1.563120	0.362547	-0.179097	-1.780673	0.349503	-0.211434	-1.757409	0.338394	-0.297941	-1.812046	0.218276	-0.194636	-1.800136	0.203298	-0.297730	-1.769014	0.154741	-0.247202	-1.825933	0.404417	-0.268571	-1.409127	0.740762	-0.471994	-1.356588	0.760264	-0.460514	-1.387925	0.707680	-0.473145	-1.343549	0.727123	-0.458842	-1.280907	0.470335	-0.422133	-1.284345	0.483322	-0.320370	-1.335846	0.339236	-0.442452	-1.285168	0.338924	-0.426906	-1.333690	0.300164	-0.437600	-1.291898	0.300119	-0.422505	-1.364025	0.091796	-0.393533	-1.349836	0.109148	-0.305003	-1.225783	0.046112	-0.413672	-1.229117	0.049911	-0.303273	-1.177100	0.071688	-0.358923	-1.435720	0.063787	-0.339467	-1.328018	1.338403	-0.152477	-1.329559	1.313752	-0.518795	
14	0.0650	-1.382611	0.914285	-0.159051	-1.364948	0.910609	-0.422735	-1.527438	0.933729	-0.259084	-1.523274	0.930902	-0.349340	-1.418917	0.735278	-0.126886	-1.368956	0.744298	-0.138065	-1.414799	0.686736	-0.125011	-1.367376	0.698100	-0.129085	-1.367949	0.436920	-0.163257	-1.346382	0.435782	-0.270811	-1.505511	0.421669	-0.152749	-1.487524	0.370405	-0.173131	-1.553727	0.405545	-0.163029	-1.532328	0.361596	-0.176802	-1.749913	0.346225	-0.208632	-1.726565	0.334966	-0.295196	-1.777858	0.214730	-0.190874	-1.765990	0.199177	-0.294007	-1.733425	0.151752	-0.243225	-1.796799	0.399747	-0.266002	-1.391548	0.739212	-0.471774	-1.338884	0.758141	-0.460257	-1.370737	0.705905	-0.472788	-1.326236	0.724823	-0.458439	-1.266956	0.467250	-0.421645	-1.270192	0.480506	-0.319937	-1.325218	0.337704	-0.441995	-1.274588	0.335872	-0.426191	-1.324297	0.298593	-0.437061	-1.282573	0.297315	-0.421735	-1.362077	0.091563	-0.392889	-1.347253	0.108352	-0.304203	-1.224249	0.043549	-0.413147	-1.227530	0.046784	-0.302953	-1.174834	0.067258	-0.358065	-1.434753	0.064464	-0.339070	-1.310640	1.336608	-0.151638	-1.310175	1.311772	-0.518525	
15	0.0700	-1.364329	0.913558	-0.158969	-1.346282	0.909827	-0.422671	-1.509205	0.932573	-0.259228	-1.504823	0.930027	-0.349452	-1.398347	0.735359	-0.126056	-1.348609	0.745422	-0.137650	-1.392938	0.686887	-0.123997	-1.345750	0.699414	-0.128370	-1.338148	0.438549	-0.161361	-1.316586	0.437618	-0.269101	-1.475031	0.421133	-0.150582	-1.456375	0.370146	-0.170939	-1.523135	0.404486	-0.160509	-1.501054	0.360750	-0.174527	-1.718580	0.342412	-0.205827	-1.695123	0.331079	-0.292462	-1.742790	0.210667	-0.187149	-1.730893	0.194591	-0.290310	-1.696823	0.148395	-0.239294	-1.767169	0.394393	-0.263417	-1.373876	0.737753	-0.471531	-1.321077	0.756014	-0.459945	-1.353532	0.704193	-0.472425	-1.308885	0.722508	-0.458004	-1.253493	0.464147	-0.421142	-1.256541	0.477624	-0.319465	-1.315045	0.336224	-0.441528	-1.264488	0.332895	-0.425500	-1.315337	0.297097	-0.436524	-1.273704	0.294606	-0.420999	-1.360318	0.091465	-0.392276	-1.344885	0.107737	-0.303447	-1.222927	0.041354	-0.412701	-1.226160	0.044045	-0.302694	-1.172885	0.063303	-0.357281	-1.433913	0.065194	-0.338673	-1.293160	1.335023	-0.150762	-1.290540	1.310052	-0.518161	
16	0.0750	-1.345858	0.913043	-0.158866	-1.327354	0.909173	-0.422567	-1.490744	0.931623	-0.259382	-1.486112	0.929335	-0.349573	-1.377593	0.735757	-0.125223	-1.328107	0.746851	-0.137252	-1.370890	0.687368	-0.123009	-1.323965	0.701051	-0.127703	-1.308150	0.440691	-0.159541	-1.286640	0.439999	-0.267433	-1.444281	0.420755	-0.148473	-1.424837	0.370129	-0.168780	-1.492220	0.403458	-0.158019	-1.469343	0.360016	-0.172280	-1.686684	0.338061	-0.203030	-1.663091	0.326736	-0.289750	-1.706856	0.206106	-0.183476	-1.694856	0.189564	-0.286657	-1.659231	0.144698	-0.235422	-1.737041	0.388347	-0.260831	-1.356131	0.736406	-0.471259	-1.303190	0.753905	-0.459579	-1.336333	0.702568	-0.472052	-1.291520	0.720199	-0.457540	-1.240548	0.461063	-0.420630	-1.243421	0.474710	-0.318960	-1.305347	0.334829	-0.441056	-1.254888	0.330031	-0.424843	-1.306824	0.295708	-0.435995	-1.265304	0.292025	-0.420307	-1.358729	0.091513	-0.391704	-1.342714	0.107312	-0.302743	-1.221813	0.039507	-0.412334	-1.225005	0.041677	-0.302489	-1.171250	0.059813	-0.356570	-1.433180	0.066003	-0.338286	-1.275601	1.333669	-0.149852	-1.270667	1.308616	-0.517697	
17	0.0800	-1.327204	0.912754	-0.158739	-1.308179	0.908657	-0.422422	-1.472064	0.930892	-0.259537	-1.467154	0.928836	-0.349696	-1.356671	0.736482	-0.124389	-1.307464	0.748590	-0.136869	-1.348678	0.688188	-0.122048	-1.302044	0.703016	-0.127082	-1.278027	0.443344	-0.157801	-1.256617	0.442917	-0.265806	-1.413318	0.420535	-0.146429	-1.392969	0.370358	-0.166662	-1.461030	0.402459	-0.155572	-1.437246	0.359399	-0.170066	-1.654242	0.333180	-0.200254	-1.630486	0.321947	-0.287073	-1.670080	0.201074	-0.179872	-1.657901	0.184131	-0.283064	-1.620681	0.140700	-0.231626	-1.706413	0.381611	-0.258257	-1.338334	0.735193	-0.470955	-1.285245	0.751839	-0.459160	-1.319160	0.701053	-0.471664	-1.274162	0.717922	-0.457049	-1.228142	0.458041	-0.420115	-1.230851	0.471803	-0.318430	-1.296139	0.333553	-0.440585	-1.245798	0.327320	-0.424229	-1.298767	0.294459	-0.435479	-1.257380	0.289610	-0.419669	-1.357285	0.091718	-0.391181	-1.340719	0.107088	-0.302103	-1.220899	0.037977	-0.412042	-1.224058	0.039656	-0.302329	-1.169919	0.056771	-0.355930	-1.432529	0.066921	-0.337915	-1.257983	1.332569	-0.148909	-1.250571	1.307484	-0.517128	
18	0.0850	-1.308378	0.912700	-0.158585	-1.288775	0.908288	-0.422231	-1.453178	0.930392	-0.259682	-1.447963	0.928542	-0.349810	-1.335602	0.737541	-0.123553	-1.286695	0.750639	-0.136496	-1.326331	0.689352	-0.121117	-1.280013	0.705308	-0.126505	-1.247860	0.446495	-0.156147	-1.226592	0.446356	-0.264221	-1.382209	0.420467	-0.144456	-1.360839	0.370833	-0.164593	-1.429622	0.401483	-0.153180	-1.404826	0.358902	-0.167894	-1.621272	0.327782	-0.197512	-1.597329	0.316731	-0.284443	-1.632493	0.195609	-0.176352	-1.620060	0.178339	-0.279546	-1.581219	0.136446	-0.227919	-1.675288	0.374196	-0.255710	-1.320507	0.734135	-0.470612	-1.267266	0.749841	-0.458694	-1.302035	0.699675	-0.471257	-1.256836	0.715705	-0.456535	-1.216289	0.455127	-0.419604	-1.218839	0.468945	-0.317885	-1.287422	0.332432	-0.440123	-1.237219	0.324803	-0.423668	-1.291163	0.293383	-0.434986	-1.249927	0.287400	-0.419095	-1.355956	0.092091	-0.390718	-1.338872	0.107074	-0.301538	-1.220173	0.036732	-0.411825	-1.223311	0.037955	-0.302206	-1.168879	0.054153	-0.355356	-1.431931	0.067980	-0.337570	-1.240329	1.331739	-0.147935	-1.230272	1.306676	-0.516451	
19	0.0900	-1.289389	0.912890	-0.158402	-1.269161	0.908073	-0.421994	-1.434099	0.930131	-0.259806	-1.428556	0.928460	-0.349904	-1.314404	0.738935	-0.122718	-1.265819	0.752994	-0.136131	-1.303878	0.690858	-0.120214	-1.257897	0.707920	-0.125969	-1.217732	0.450123	-0.154583	-1.196646	0.450292	-0.262676	-1.351020	0.420542	-0.142557	-1.328521	0.371550	-0.162581	-1.398052	0.400524	-0.150855	-1.372148	0.358528	-0.165770	-1.587796	0.321887	-0.194816	-1.563645	0.311112	-0.281871	-1.594134	0.189756	-0.172932	-1.581372	0.172241	-0.276123	-1.540900	0.131992	-0.224317	-1.643666	0.366121	-0.253205	-1.302672	0.733253	-0.470227	-1.249277	0.747937	-0.458185	-1.284978	0.698458	-0.470827	-1.239562	0.713575	-0.456003	-1.204989	0.452368	-0.419107	-1.207385	0.466182	-0.317336	-1.279192	0.331506	-0.439678	-1.229141	0.322523	-0.423170	-1.284003	0.292515	-0.434523	-1.242932	0.285432	-0.418595	-1.354710	0.092644	-0.390325	-1.337140	0.107277	-0.301057	-1.219622	0.035733	-0.411679	-1.222750	0.036544	-0.302112	-1.168113	0.051929	-0.354846	-1.431352	0.069216	-0.337263	-1.222660	1.331195	-0.146933	-1.209790	1.306206	-0.515663	
20	0.0950	-1.270249	0.913328	-0.158189	-1.249357	0.908021	-0.421708	-1.414840	0.930114	-0.259899	-1.408950	0.928595	-0.349967	-1.293099	0.740660	-0.121881	-1.244851	0.755646	-0.135768	-1.281349	0.692701	-0.119340	-1.235723	0.710840	-0.125471	-1.187729	0.454196	-0.153113	-1.166862	0.454687	-0.261171	-1.319823	0.420748	-0.140737	-1.296092	0.372501	-0.160631	-1.366383	0.399574	-0.148608	-1.339283	0.358275	-0.163700	-1.553837	0.315524	-0.192180	-1.529461	0.305120	-0.279369	-1.555047	0.183571	-0.169629	-1.541883	0.165901	-0.272809	-1.499785	0.127398	-0.220834	-1.611550	0.357414	-0.250757	-1.284849	0.732566	-0.469797	-1.231299	0.746155	-0.457638	-1.268004	0.697426	-0.470369	-1.222361	0.711563	-0.455459	-1.194235	0.449811	-0.418632	-1.196474	0.463560	-0.316793	-1.271432	0.330811	-0.439259	-1.221547	0.320522	-0.422746	-1.277266	0.291892	-0.434101	-1.236371	0.283744	-0.418180	-1.353507	0.093390	-0.390011	-1.335486	0.107708	-0.300673	-1.219230	0.034941	-0.411599	-1.222359	0.035390	-0.302038	-1.167599	0.050060	-0.354396	-1.430754	0.070664	-0.337004	-1.204994	1.330948	-0.145905	-1.189148	1.306082	-0.514762	
21	0.1000	-1.250970	0.914015	-0.157942	-1.229386	0.908135	-0.421372	-1.395416	0.930345	-0.259949	-1.389166	0.928951	-0.349988	-1.271708	0.742705	-0.121045	-1.223810	0.758580	-0.135401	-1.258774	0.694868	-0.118495	-1.213518	0.714050	-0.125005	-1.157938	0.458677	-0.151739	-1.137321	0.459499	-0.259705	-1.288688	0.421066	-0.138999	-1.263632	0.373674	-0.158750	-1.334674	0.398623	-0.146448	-1.306303	0.358139	-0.161690	-1.519419	0.308724	-0.189616	-1.494805	0.298792	-0.276948	-1.515280	0.177113	-0.166456	-1.501647	0.159389	-0.269620	-1.457944	0.122735	-0.217483	-1.578940	0.348110	-0.248380	-1.267057	0.732095	-0.469318	-1.213355	0.744521	-0.457062	-1.251128	0.696605	-0.469883	-1.205248	0.709697	-0.454910	-1.184006	0.447503	-0.418187	-1.186079	0.461124	-0.316270	-1.264115	0.330384	-0.438875	-1.214405	0.318840	-0.422404	-1.270922	0.291545	-0.433727	-1.230212	0.282375	-0.417859	-1.352308	0.094342	-0.389789	-1.333868	0.108374	-0.300396	-1.218979	0.034316	-0.411583	-1.222121	0.034461	-0.301976	-1.167314	0.048506	-0.354001	-1.430097	0.072361	-0.336806	-1.187349	1.331003	-0.144853	-1.168366	1.306310	-0.513748	
22	0.1050	-1.231561	0.914947	-0.157661	-1.209271	0.908418	-0.420985	-1.375843	0.930823	-0.259946	-1.369222	0.929529	-0.349956	-1.250252	0.745054	-0.120207	-1.202710	0.761775	-0.135025	-1.236184	0.697341	-0.117677	-1.191308	0.717528	-0.124566	-1.128444	0.463518	-0.150462	-1.108105	0.464675	-0.258275	-1.257685	0.421478	-0.137345	-1.231221	0.375053	-0.156942	-1.302987	0.397661	-0.144385	-1.273280	0.358114	-0.159746	-1.484567	0.301525	-0.187135	-1.459707	0.292168	-0.274616	-1.474882	0.170449	-0.163427	-1.460720	0.152780	-0.266572	-1.415448	0.118073	-0.214275	-1.545837	0.338249	-0.246087	-1.249310	0.731854	-0.468790	-1.195460	0.743061	-0.456463	-1.234361	0.696014	-0.469364	-1.188237	0.708007	-0.454362	-1.174271	0.445491	-0.417782	-1.176165	0.458920	-0.315777	-1.257205	0.330259	-0.438537	-1.207677	0.317515	-0.422155	-1.264933	0.291508	-0.433411	-1.224412	0.281356	-0.417640	-1.351069	0.095514	-0.389667	-1.332245	0.109284	-0.300235	-1.218849	0.033817	-0.411624	-1.222014	0.033725	-0.301919	-1.167230	0.047222	-0.353658	-1.429336	0.074346	-0.336683	-1.169737	1.331363	-0.143781	-1.147469	1.306888	-0.512622	
23	0.1100	-1.212034	0.916119	-0.157344	-1.189033	0.908872	-0.420547	-1.356134	0.931543	-0.259880	-1.349138	0.930324	-0.349863	-1.228750	0.747688	-0.119366	-1.181568	0.765206	-0.134633	-1.213605	0.700098	-0.116885	-1.169115	0.721245	-0.124148	-1.099327	0.468664	-0.149284	-1.079288	0.470158	-0.256881	-1.226880	0.421960	-0.135777	-1.198936	0.376617	-0.155211	-1.271379	0.396674	-0.142425	-1.240286	0.358192	-0.157872	-1.449302	0.293969	-0.184749	-1.424194	0.285291	-0.272380	-1.433906	0.163648	-0.160552	-1.419160	0.146153	-0.263676	-1.372374	0.113490	-0.211221	-1.512240	0.327879	-0.243891	-1.231621	0.731858	-0.468213	-1.177630	0.741798	-0.455851	-1.217707	0.695674	-0.468812	-1.171337	0.706517	-0.453823	-1.164989	0.443814	-0.417424	-1.166683	0.456989	-0.315325	-1.250655	0.330469	-0.438253	-1.201313	0.316580	-0.422004	-1.259250	0.291809	-0.433162	-1.218921	0.280719	-0.417530	-1.349746	0.096918	-0.389655	-1.330570	0.110445	-0.300200	-1.218820	0.033410	-0.411717	-1.222018	0.033154	-0.301863	-1.167319	0.046162	-0.353361	-1.428427	0.076654	-0.336647	-1.152169	1.332025	-0.142689	-1.126478	1.307813	-0.511384	
24	0.1150	-1.192399	0.917518	-0.156992	-1.168693	0.909494	-0.420059	-1.336303	0.932498	-0.259742	-1.328932	0.931332	-0.349698	-1.207221	0.750580	-0.118523	-1.160397	0.768845	-0.134221	-1.191065	0.703109	-0.116118	-1.146961	0.725167	-0.123744	-1.070662	0.474055	-0.148204	-1.050941	0.475881	-0.255521	-1.196333	0.422484	-0.134295	-1.166851	0.378342	-0.153560	-1.239903	0.395650	-0.140574	-1.207387	0.358361	-0.156071	-1.413645	0.286102	-0.182465	-1.388296	0.278207	-0.270247	-1.392403	0.156781	-0.157842	-1.377027	0.139590	-0.260944	-1.328798	0.109062	-0.208328	-1.478148	0.317051	-0.241802	-1.213998	0.732116	-0.467585	-1.159874	0.740753	-0.455234	-1.201166	0.695598	-0.468227	-1.154550	0.705252	-0.453301	-1.156105	0.442510	-0.417121	-1.157576	0.455370	-0.314924	-1.244410	0.331041	-0.438032	-1.195255	0.316064	-0.421959	-1.253819	0.292474	-0.432988	-1.213681	0.280489	-0.417534	-1.348293	0.098570	-0.389761	-1.328798	0.111868	-0.300299	-1.218871	0.033060	-0.411859	-1.222107	0.032722	-0.301802	-1.167552	0.045282	-0.353108	-1.427324	0.079322	-0.336712	-1.134650	1.332980	-0.141581	-1.105414	1.309072	-0.510036	
25	0.1200	-1.172663	0.919131	-0.156604	-1.148271	0.910281	-0.419522	-1.316362	0.933677	-0.259524	-1.308622	0.932544	-0.349456	-1.185681	0.753697	-0.117674	-1.139207	0.772656	-0.133782	-1.168587	0.706343	-0.115372	-1.124865	0.729257	-0.123348	-1.042517	0.479626	-0.147221	-1.023127	0.481777	-0.254192	-1.166099	0.423023	-0.132898	-1.135036	0.380201	-0.151991	-1.208608	0.394574	-0.138837	-1.174648	0.358609	-0.154346	-1.377617	0.277971	-0.180292	-1.352040	0.270966	-0.268220	-1.350425	0.149923	-0.155305	-1.334386	0.133173	-0.258384	-1.284796	0.104867	-0.205603	-1.443558	0.305822	-0.239828	-1.196444	0.732635	-0.466909	-1.142199	0.739941	-0.454619	-1.184735	0.695799	-0.467608	-1.137875	0.704231	-0.452802	-1.147559	0.441607	-0.416878	-1.148775	0.454094	-0.314582	-1.238405	0.331998	-0.437882	-1.189440	0.315988	-0.422023	-1.248577	0.293521	-0.432895	-1.208627	0.280686	-0.417655	-1.346667	0.100483	-0.389993	-1.326884	0.113560	-0.300537	-1.218980	0.032742	-0.412042	-1.222258	0.032410	-0.301734	-1.167897	0.044538	-0.352893	-1.425981	0.082384	-0.336890	-1.117182	1.334217	-0.140458	-1.084297	1.310651	-0.508582	
26	0.1250	-1.152833	0.920938	-0.156182	-1.127785	0.911226	-0.418938	-1.296321	0.935065	-0.259221	-1.288224	0.933948	-0.349130	-1.164145	0.757003	-0.116820	-1.118009	0.776601	-0.133312	-1.146191	0.709760	-0.114646	-1.102841	0.733473	-0.122952	-1.014950	0.485307	-0.146334	-0.995900	0.487771	-0.252896	-1.136228	0.423545	-0.131586	-1.103552	0.382165	-0.150503	-1.177537	0.393431	-0.137214	-1.142128	0.358920	-0.152700	-1.341237	0.269625	-0.178235	-1.315453	0.263616	-0.266304	-1.308026	0.143146	-0.152947	-1.291297	0.126981	-0.256004	-1.240447	0.100980	-0.203050	-1.408470	0.294250	-0.237978	-1.178959	0.733417	-0.466187	-1.124604	0.739378	-0.454016	-1.168403	0.696282	-0.466955	-1.121306	0.703469	-0.452333	-1.139280	0.441129	-0.416699	-1.140209	0.453189	-0.314305	-1.232570	0.333355	-0.437808	-1.183794	0.316369	-0.422198	-1.243455	0.294968	-0.432889	-1.203690	0.281324	-0.417892	-1.344823	0.102672	-0.390357	-1.324783	0.115529	-0.300920	-1.219125	0.032437	-0.412262	-1.222445	0.032206	-0.301659	-1.168324	0.043890	-0.352715	-1.424353	0.085872	-0.337193	-1.099762	1.335718	-0.139320	-1.063143	1.312529	-0.507024	
27	0.1300	-1.132917	0.922917	-0.155726	-1.107250	0.912322	-0.418309	-1.276192	0.936644	-0.258829	-1.267751	0.935529	-0.348716	-1.142626	0.760459	-0.115959	-1.096811	0.780639	-0.132806	-1.123895	0.713318	-0.113937	-1.080904	0.737769	-0.122550	-0.988009	0.491027	-0.145539	-0.969305	0.493789	-0.251629	-1.106759	0.424020	-0.130357	-1.072457	0.384201	-0.149096	-1.146730	0.392206	-0.135707	-1.109878	0.359278	-0.151132	-1.304523	0.261116	-0.176300	-1.278563	0.256206	-0.264498	-1.265257	0.136520	-0.150770	-1.247827	0.121091	-0.253807	-1.195826	0.097473	-0.200672	-1.372884	0.282397	-0.236256	-1.161537	0.734458	-0.465422	-1.107086	0.739069	-0.453429	-1.152155	0.697048	-0.466271	-1.104831	0.702976	-0.451897	-1.131191	0.441089	-0.416586	-1.131798	0.452673	-0.314095	-1.226831	0.335123	-0.437816	-1.178243	0.317214	-0.422483	-1.238382	0.296822	-0.432974	-1.198795	0.282411	-0.418244	-1.342720	0.105151	-0.390856	-1.322453	0.117785	-0.301450	-1.219284	0.032131	-0.412513	-1.222642	0.032104	-0.301577	-1.168802	0.043303	-0.352569	-1.422397	0.089814	-0.337632	-1.082385	1.337461	-0.138169	-1.041970	1.314681	-0.505368	
28	0.1350	-1.112920	0.925043	-0.155239	-1.086681	0.913557	-0.417640	-1.255983	0.938391	-0.258345	-1.247218	0.937269	-0.348213	-1.121134	0.764018	-0.115090	-1.075620	0.784723	-0.132260	-1.101714	0.716972	-0.113243	-1.059062	0.742098	-0.122136	-0.961732	0.496713	-0.144833	-0.943378	0.499757	-0.250394	-1.077726	0.424416	-0.129208	-1.041797	0.386276	-0.147768	-1.116217	0.390885	-0.134315	-1.077945	0.359664	-0.149643	-1.267498	0.252494	-0.174490	-1.241397	0.248784	-0.262802	-1.222173	0.130112	-0.148777	-1.204041	0.115576	-0.251795	-1.151010	0.094412	-0.198469	-1.336805	0.270326	-0.234665	-1.144168	0.735751	-0.464619	-1.089637	0.739017	-0.452867	-1.135973	0.698092	-0.465556	-1.088432	0.702756	-0.451499	-1.123209	0.441491	-0.416538	-1.123459	0.452556	-0.313953	-1.221105	0.337307	-0.437907	-1.172708	0.318525	-0.422874	-1.233282	0.299087	-0.433151	-1.193867	0.283947	-0.418706	-1.340319	0.107933	-0.391492	-1.319855	0.120336	-0.302128	-1.219436	0.031824	-0.412791	-1.222822	0.032105	-0.301491	-1.169300	0.042749	-0.352452	-1.420071	0.094235	-0.338217	-1.065041	1.339421	-0.137004	-1.020792	1.317080	-0.503617	
29	0.1400	-1.092847	0.927286	-0.154723	-1.066089	0.914917	-0.416934	-1.235701	0.940282	-0.257769	-1.226636	0.939148	-0.347621	-1.099678	0.767635	-0.114213	-1.054440	0.788808	-0.131673	-1.079659	0.720675	-0.112560	-1.037323	0.746408	-0.121705	-0.936148	0.502293	-0.144213	-0.918141	0.505599	-0.249189	-1.049154	0.424702	-0.128138	-1.011612	0.388356	-0.146519	-1.086025	0.389453	-0.133035	-1.046368	0.360059	-0.148234	-1.230181	0.243810	-0.172806	-1.203986	0.241397	-0.261216	-1.178829	0.123984	-0.146966	-1.160006	0.110500	-0.249969	-1.106076	0.091855	-0.196438	-1.300241	0.258102	-0.233208	-1.126838	0.737282	-0.463781	-1.072243	0.739220	-0.452331	-1.119831	0.699404	-0.464813	-1.072090	0.702809	-0.451139	-1.115249	0.442330	-0.416552	-1.115108	0.452840	-0.313875	-1.215312	0.339901	-0.438082	-1.167107	0.320292	-0.423364	-1.228077	0.301760	-0.433419	-1.188830	0.285926	-0.419268	-1.337584	0.111031	-0.392266	-1.316953	0.123192	-0.302952	-1.219559	0.031520	-0.413090	-1.222961	0.032219	-0.301404	-1.169789	0.042209	-0.352364	-1.417337	0.099156	-0.338953	-1.047718	1.341568	-0.135824	-0.999624	1.319695	-0.501775	
30	0.1450	-1.072701	0.929616	-0.154180	-1.045486	0.916388	-0.416195	-1.215354	0.942290	-0.257103	-1.206016	0.941142	-0.346942	-1.078266	0.771259	-0.113327	-1.033276	0.792843	-0.131043	-1.057739	0.724375	-0.111888	-1.015692	0.750649	-0.121252	-0.911270	0.507696	-0.143674	-0.893609	0.511245	-0.248015	-1.021061	0.424848	-0.127143	-0.981935	0.390406	-0.145343	-1.056174	0.387897	-0.131864	-1.015180	0.360443	-0.146901	-1.192600	0.235112	-0.171248	-1.166363	0.234089	-0.259737	-1.135282	0.118193	-0.145337	-1.115793	0.105918	-0.248326	-1.061100	0.089854	-0.194578	-1.263209	0.245788	-0.231884	-1.109531	0.739033	-0.462913	-1.054887	0.739668	-0.451825	-1.103704	0.700968	-0.464043	-1.055779	0.703126	-0.450817	-1.107222	0.443592	-0.416622	-1.106661	0.453519	-0.313855	-1.209368	0.342895	-0.438340	-1.161361	0.322499	-0.423945	-1.222691	0.304831	-0.433775	-1.183609	0.288333	-0.419921	-1.334484	0.114458	-0.393175	-1.313715	0.126359	-0.303918	-1.219631	0.031237	-0.413406	-1.223033	0.032463	-0.301322	-1.170241	0.041669	-0.352301	-1.414160	0.104592	-0.339848	-1.030402	1.343870	-0.134630	-0.978475	1.322492	-0.499849	
31	0.1500	-1.052488	0.931998	-0.153614	-1.024879	0.917950	-0.415430	-1.194949	0.944383	-0.256351	-1.185366	0.943225	-0.346179	-1.056905	0.774841	-0.112434	-1.012132	0.796780	-0.130371	-1.035961	0.728022	-0.111222	-0.994173	0.754769	-0.120774	-0.887105	0.512857	-0.143212	-0.869784	0.516626	-0.246875	-0.993457	0.424826	-0.126221	-0.952789	0.392392	-0.144240	-1.026681	0.386204	-0.130798	-0.984409	0.360797	-0.145646	-1.154784	0.226450	-0.169816	-1.128565	0.226901	-0.258361	-1.091596	0.112787	-0.143885	-1.071477	0.101877	-0.246862	-1.016160	0.088446	-0.192883	-1.225731	0.233449	-0.230692	-1.092225	0.740981	-0.462021	-1.037551	0.740346	-0.451350	-1.087561	0.702760	-0.463251	-1.039471	0.703692	-0.450531	-1.099041	0.445249	-0.416742	-1.098035	0.454575	-0.313883	-1.203191	0.346270	-0.438674	-1.155390	0.325123	-0.424604	-1.217047	0.308284	-0.434215	-1.178130	0.291148	-0.420652	-1.330990	0.118225	-0.394216	-1.310113	0.129849	-0.305020	-1.219631	0.030999	-0.413734	-1.223012	0.032863	-0.301251	-1.170629	0.041130	-0.352262	-1.410509	0.110557	-0.340902	-1.013076	1.346291	-0.133419	-0.957359	1.325434	-0.497843	
32	0.1550	-1.032213	0.934397	-0.153027	-1.004278	0.919584	-0.414642	-1.174492	0.946530	-0.255518	-1.164695	0.945371	-0.345340	-1.035599	0.778328	-0.111535	-0.991010	0.800570	-0.129657	-1.014329	0.731565	-0.110562	-0.972766	0.758716	-0.120269	-0.863646	0.517712	-0.142822	-0.846659	0.521679	-0.245771	-0.966345	0.424610	-0.125368	-0.924189	0.394279	-0.143206	-0.997555	0.384366	-0.129832	-0.954076	0.361099	-0.144465	-1.116771	0.217869	-0.168508	-1.090634	0.219870	-0.257086	-1.047836	0.107806	-0.142604	-1.027134	0.098412	-0.245572	-0.971336	0.087660	-0.191349	-1.187843	0.221149	-0.229629	-1.074898	0.743097	-0.461111	-1.020212	0.741234	-0.450904	-1.071371	0.704751	-0.462436	-1.023137	0.704487	-0.450276	-1.090620	0.447268	-0.416900	-1.089154	0.455984	-0.313947	-1.196701	0.350002	-0.439079	-1.149120	0.328132	-0.425328	-1.211073	0.312095	-0.434731	-1.172323	0.294342	-0.421443	-1.327077	0.122343	-0.395380	-1.306126	0.133668	-0.306249	-1.219537	0.030842	-0.414072	-1.222874	0.033450	-0.301198	-1.170926	0.040598	-0.352246	-1.406357	0.117056	-0.342117	-0.995725	1.348795	-0.132189	-0.936284	1.328485	-0.495762	
33	0.1600	-1.011880	0.936776	-0.152422	-0.983687	0.921267	-0.413839	-1.153991	0.948696	-0.254613	-1.144012	0.947549	-0.344431	-1.014355	0.781670	-0.110631	-0.969915	0.804164	-0.128905	-0.992845	0.734953	-0.109906	-0.951472	0.762441	-0.119736	-0.840876	0.522204	-0.142499	-0.824217	0.526348	-0.244704	-0.939722	0.424180	-0.124583	-0.896144	0.396037	-0.142238	-0.968805	0.382373	-0.128960	-0.924196	0.361331	-0.143357	-1.078604	0.209412	-0.167320	-1.052618	0.213027	-0.255906	-1.004078	0.103283	-0.141488	-0.982849	0.095544	-0.244448	-0.926711	0.087511	-0.189969	-1.149588	0.208950	-0.228691	-1.057526	0.745348	-0.460187	-1.002846	0.742304	-0.450484	-1.055100	0.706909	-0.461604	-1.006744	0.705483	-0.450045	-1.081876	0.449605	-0.417084	-1.079943	0.457712	-0.314032	-1.189821	0.354057	-0.439545	-1.142479	0.331486	-0.426099	-1.204700	0.316237	-0.435313	-1.166126	0.297883	-0.422279	-1.322726	0.126822	-0.396661	-1.301733	0.137824	-0.307594	-1.219328	0.030808	-0.414416	-1.222594	0.034264	-0.301172	-1.171107	0.040092	-0.352254	-1.401680	0.124093	-0.343488	-0.978333	1.351343	-0.130937	-0.915262	1.331606	-0.493611	
34	0.1650	-0.991497	0.939099	-0.151804	-0.963113	0.922977	-0.413026	-1.133452	0.950847	-0.253643	-1.123323	0.949728	-0.343462	-0.993176	0.784818	-0.109725	-0.948848	0.807515	-0.128118	-0.971511	0.738138	-0.109252	-0.930292	0.765896	-0.119174	-0.818770	0.526284	-0.142239	-0.802431	0.530584	-0.243680	-0.913580	0.423517	-0.123862	-0.868655	0.397635	-0.141333	-0.940436	0.380220	-0.128177	-0.894781	0.361473	-0.142321	-1.040337	0.201119	-0.166249	-1.014574	0.206402	-0.254820	-0.960401	0.099238	-0.140530	-0.938710	0.093283	-0.243483	-0.882371	0.087998	-0.188736	-1.111025	0.196911	-0.227874	-1.040085	0.747696	-0.459256	-0.985428	0.743527	-0.450086	-1.038717	0.709194	-0.460754	-0.990262	0.706650	-0.449832	-1.072729	0.452205	-0.417282	-1.070335	0.459716	-0.314122	-1.182480	0.358399	-0.440061	-1.135403	0.335141	-0.426901	-1.197863	0.320677	-0.435949	-1.159477	0.301731	-0.423141	-1.317919	0.131670	-0.398045	-1.296921	0.142327	-0.309042	-1.218982	0.030947	-0.414764	-1.222148	0.035346	-0.301179	-1.171150	0.039640	-0.352283	-1.396458	0.131666	-0.345011	-0.960884	1.353895	-0.129661	-0.894300	1.334760	-0.491397	
35	0.1700	-0.971071	0.941329	-0.151175	-0.942562	0.924688	-0.412208	-1.112885	0.952945	-0.252620	-1.102637	0.951877	-0.342443	-0.972068	0.787725	-0.108821	-0.927816	0.810580	-0.127301	-0.950326	0.741073	-0.108599	-0.909223	0.769037	-0.118585	-0.797294	0.529909	-0.142037	-0.781268	0.534345	-0.242700	-0.887907	0.422606	-0.123203	-0.841719	0.399047	-0.140491	-0.912448	0.377903	-0.127477	-0.865840	0.361508	-0.141356	-1.002032	0.193026	-0.165292	-0.976565	0.200017	-0.253823	-0.916893	0.095682	-0.139720	-0.894813	0.091624	-0.242667	-0.838405	0.089108	-0.187643	-1.072226	0.185091	-0.227171	-1.022551	0.750101	-0.458321	-0.967933	0.744867	-0.449704	-1.022189	0.711562	-0.459890	-0.973658	0.707950	-0.449625	-1.063110	0.455009	-0.417479	-1.060270	0.461946	-0.314198	-1.174611	0.362985	-0.440614	-1.127831	0.339047	-0.427714	-1.190503	0.325377	-0.436627	-1.152326	0.305843	-0.424008	-1.312645	0.136893	-0.399522	-1.291677	0.147181	-0.310579	-1.218476	0.031316	-0.415113	-1.221512	0.036745	-0.301228	-1.171029	0.039279	-0.352337	-1.390675	0.139767	-0.346675	-0.943364	1.356411	-0.128357	-0.873408	1.337909	-0.489124	
36	0.1750	-0.950610	0.943430	-0.150538	-0.922038	0.926375	-0.411391	-1.092298	0.954955	-0.251555	-1.081960	0.953961	-0.341386	-0.951035	0.790349	-0.107923	-0.906822	0.813319	-0.126459	-0.929289	0.743716	-0.107947	-0.888266	0.771824	-0.117970	-0.776404	0.533045	-0.141889	-0.760685	0.537599	-0.241770	-0.862686	0.421440	-0.122604	-0.815325	0.400246	-0.139709	-0.884845	0.375423	-0.126855	-0.837376	0.361420	-0.140462	-0.963762	0.185168	-0.164443	-0.938664	0.193889	-0.252912	-0.873651	0.092616	-0.139051	-0.851259	0.090548	-0.241991	-0.794908	0.090811	-0.186684	-1.033275	0.173546	-0.226577	-1.004899	0.752519	-0.457389	-0.950336	0.746283	-0.449330	-1.005486	0.713967	-0.459014	-0.956902	0.709341	-0.449414	-1.052952	0.457952	-0.417658	-1.049695	0.464348	-0.314241	-1.166156	0.367769	-0.441190	-1.119713	0.343149	-0.428518	-1.182570	0.330296	-0.437332	-1.144627	0.310172	-0.424862	-1.306891	0.142499	-0.401075	-1.285994	0.152393	-0.312189	-1.217785	0.031976	-0.415464	-1.220661	0.038508	-0.301326	-1.170723	0.039054	-0.352414	-1.384319	0.148386	-0.348470	-0.925761	1.358850	-0.127022	-0.852596	1.341015	-0.486798	
37	0.1800	-0.930125	0.945368	-0.149894	-0.901546	0.928009	-0.410581	-1.071701	0.956842	-0.250459	-1.061302	0.955948	-0.340303	-0.930083	0.792649	-0.107033	-0.885872	0.815696	-0.125600	-0.908398	0.746029	-0.107294	-0.867420	0.774222	-0.117334	-0.756053	0.535666	-0.141791	-0.740634	0.540322	-0.240892	-0.837899	0.420013	-0.122065	-0.789461	0.401212	-0.138986	-0.857625	0.372781	-0.126306	-0.809392	0.361192	-0.139638	-0.925611	0.177573	-0.163699	-0.900952	0.188031	-0.252085	-0.830780	0.090030	-0.138512	-0.808156	0.090022	-0.241445	-0.751976	0.093063	-0.185851	-0.994272	0.162327	-0.226086	-0.987109	0.754903	-0.456464	-0.932615	0.747735	-0.448957	-0.988580	0.716360	-0.458127	-0.939966	0.710780	-0.449189	-1.042198	0.460963	-0.417806	-1.038567	0.466860	-0.314233	-1.157063	0.372699	-0.441774	-1.111004	0.347390	-0.429295	-1.174016	0.335389	-0.438049	-1.136342	0.314667	-0.425683	-1.300651	0.148489	-0.402690	-1.279865	0.157968	-0.313854	-1.216884	0.032990	-0.415817	-1.219569	0.040685	-0.301480	-1.170209	0.039017	-0.352516	-1.377378	0.157508	-0.350378	-0.908065	1.361174	-0.125652	-0.831872	1.344044	-0.484424	
38	0.1850	-0.909627	0.947110	-0.149247	-0.881091	0.929565	-0.409781	-1.051106	0.958570	-0.249344	-1.040671	0.957806	-0.339206	-0.909217	0.794591	-0.106158	-0.864974	0.817680	-0.124730	-0.887653	0.747977	-0.106642	-0.846684	0.776200	-0.116680	-0.736187	0.537757	-0.141740	-0.721064	0.542500	-0.240072	-0.813526	0.418326	-0.121583	-0.764109	0.401928	-0.138324	-0.830790	0.369983	-0.125826	-0.781888	0.360812	-0.138885	-0.887672	0.170265	-0.163056	-0.863517	0.182450	-0.251341	-0.788393	0.087904	-0.138096	-0.765617	0.089999	-0.241020	-0.709713	0.095805	-0.185140	-0.955331	0.151483	-0.225691	-0.969161	0.757207	-0.455549	-0.914748	0.749177	-0.448575	-0.971447	0.718689	-0.457231	-0.922825	0.712219	-0.448937	-1.030800	0.463967	-0.417908	-1.026847	0.469417	-0.314155	-1.147287	0.377725	-0.442349	-1.101668	0.351710	-0.430024	-1.164803	0.340612	-0.438761	-1.127441	0.319279	-0.426452	-1.293916	0.154868	-0.404348	-1.273285	0.163908	-0.315556	-1.215746	0.034422	-0.416171	-1.218210	0.043325	-0.301695	-1.169462	0.039226	-0.352646	-1.369842	0.167115	-0.352384	-0.890269	1.363343	-0.124243	-0.811246	1.346960	-0.482008	
39	0.1900	-0.889129	0.948627	-0.148598	-0.860679	0.931014	-0.408995	-1.030524	0.960107	-0.248225	-1.020076	0.959500	-0.338107	-0.888443	0.796147	-0.105301	-0.844134	0.819247	-0.123857	-0.867049	0.749533	-0.105989	-0.826058	0.777737	-0.116013	-0.716747	0.539308	-0.141732	-0.701916	0.544129	-0.239313	-0.789544	0.416384	-0.121159	-0.739249	0.402378	-0.137723	-0.804341	0.367037	-0.125410	-0.754866	0.360269	-0.138205	-0.850049	0.163266	-0.162509	-0.826459	0.177146	-0.250679	-0.746611	0.086207	-0.137793	-0.723763	0.090422	-0.240707	-0.668223	0.098964	-0.184544	-0.916578	0.141060	-0.225386	-0.951037	0.759384	-0.454648	-0.896718	0.750565	-0.448177	-0.954066	0.720905	-0.456328	-0.905456	0.713611	-0.448649	-1.018719	0.466892	-0.417949	-1.014507	0.471952	-0.313991	-1.136791	0.382794	-0.442901	-1.091675	0.356051	-0.430689	-1.154901	0.345918	-0.439454	-1.117898	0.323956	-0.427154	-1.286681	0.161634	-0.406032	-1.266248	0.170215	-0.317277	-1.214339	0.036336	-0.416529	-1.216555	0.046472	-0.301977	-1.168458	0.039743	-0.352805	-1.361705	0.177184	-0.354465	-0.872366	1.365321	-0.122791	-0.790726	1.349733	-0.479556	
40	0.1950	-0.868646	0.949892	-0.147947	-0.840314	0.932332	-0.408228	-1.009970	0.961423	-0.247111	-0.999526	0.961002	-0.337018	-0.867767	0.797293	-0.104467	-0.823360	0.820378	-0.122986	-0.846585	0.750675	-0.105336	-0.805542	0.778813	-0.115337	-0.697673	0.540322	-0.141765	-0.683131	0.545211	-0.238617	-0.765932	0.414197	-0.120790	-0.714860	0.402552	-0.137185	-0.778279	0.363954	-0.125054	-0.728324	0.359552	-0.137598	-0.812854	0.156593	-0.162054	-0.789883	0.172118	-0.250098	-0.705561	0.084900	-0.137595	-0.682716	0.091220	-0.240497	-0.627615	0.102454	-0.184059	-0.878152	0.131097	-0.225166	-0.932725	0.761386	-0.453763	-0.878508	0.751856	-0.447754	-0.936421	0.722954	-0.455421	-0.887842	0.714909	-0.448313	-1.005923	0.469662	-0.417920	-1.001524	0.474397	-0.313727	-1.125546	0.387853	-0.443414	-1.081004	0.360353	-0.431274	-1.144282	0.351261	-0.440112	-1.107695	0.328647	-0.427773	-1.278938	0.168786	-0.407723	-1.258747	0.176885	-0.318996	-1.212630	0.038792	-0.416893	-1.214575	0.050167	-0.302329	-1.167170	0.040628	-0.352996	-1.352956	0.187691	-0.356599	-0.854356	1.367073	-0.121292	-0.770322	1.352332	-0.477072	
41	0.2000	-0.848191	0.950882	-0.147294	-0.820003	0.933491	-0.407480	-0.989456	0.962488	-0.246015	-0.979031	0.962280	-0.335950	-0.847195	0.798015	-0.103661	-0.802662	0.821060	-0.122125	-0.826257	0.751388	-0.104684	-0.785136	0.779421	-0.114657	-0.678903	0.540807	-0.141835	-0.664650	0.545760	-0.237989	-0.742670	0.411778	-0.120477	-0.690921	0.402442	-0.136712	-0.752608	0.360746	-0.124758	-0.702262	0.358653	-0.137068	-0.776209	0.150257	-0.161689	-0.753898	0.167356	-0.249599	-0.665374	0.083936	-0.137493	-0.642603	0.092315	-0.240382	-0.588000	0.106181	-0.183681	-0.840200	0.121631	-0.225024	-0.914214	0.763170	-0.452898	-0.860107	0.753004	-0.447299	-0.918497	0.724790	-0.454509	-0.869966	0.716066	-0.447922	-0.992389	0.472207	-0.417809	-0.987882	0.476683	-0.313351	-1.113528	0.392850	-0.443872	-1.069637	0.364559	-0.431764	-1.132928	0.356595	-0.440720	-1.096821	0.333303	-0.428297	-1.270680	0.176319	-0.409401	-1.250774	0.183915	-0.320696	-1.210584	0.041845	-0.417266	-1.212234	0.054444	-0.302753	-1.165567	0.041944	-0.353223	-1.343587	0.198605	-0.358762	-0.836237	1.368566	-0.119743	-0.750040	1.354730	-0.474564	
42	0.2050	-0.827780	0.951578	-0.146638	-0.799750	0.934468	-0.406754	-0.968995	0.963279	-0.244947	-0.958600	0.963309	-0.334914	-0.826731	0.798301	-0.102885	-0.782046	0.821289	-0.121279	-0.806061	0.751663	-0.104034	-0.764839	0.779557	-0.113980	-0.660375	0.540781	-0.141942	-0.646410	0.545795	-0.237430	-0.719738	0.409145	-0.120220	-0.667409	0.402046	-0.136306	-0.727334	0.357429	-0.124516	-0.676680	0.357567	-0.136618	-0.740241	0.144266	-0.161409	-0.718622	0.162849	-0.249184	-0.626187	0.083260	-0.137479	-0.603552	0.093620	-0.240355	-0.549487	0.110038	-0.183408	-0.802878	0.112694	-0.224956	-0.895497	0.764694	-0.452052	-0.841505	0.753971	-0.446804	-0.900288	0.726367	-0.453597	-0.851818	0.717039	-0.447468	-0.978102	0.474458	-0.417610	-0.973569	0.478746	-0.312855	-1.100721	0.397738	-0.444263	-1.057566	0.368617	-0.432149	-1.120824	0.361877	-0.441264	-1.085266	0.337878	-0.428717	-1.261894	0.184224	-0.411049	-1.242316	0.191297	-0.322358	-1.208159	0.045542	-0.417652	-1.209496	0.059329	-0.303250	-1.163617	0.043749	-0.353488	-1.333587	0.209896	-0.360926	-0.818011	1.369771	-0.118141	-0.729889	1.356903	-0.472037	
43	0.2100	-0.807428	0.951967	-0.145980	-0.779560	0.935242	-0.406049	-0.948602	0.963776	-0.243916	-0.938244	0.964064	-0.333918	-0.806381	0.798151	-0.102145	-0.761522	0.821067	-0.120454	-0.785993	0.751499	-0.103386	-0.744652	0.779224	-0.113310	-0.642027	0.540266	-0.142081	-0.628353	0.545343	-0.236942	-0.697120	0.406319	-0.120018	-0.644303	0.401363	-0.135972	-0.702465	0.354019	-0.124329	-0.651582	0.356290	-0.136251	-0.705079	0.138625	-0.161212	-0.684173	0.158583	-0.248856	-0.588136	0.082815	-0.137547	-0.565690	0.095043	-0.240409	-0.512186	0.113915	-0.183237	-0.766347	0.104310	-0.224956	-0.876571	0.765920	-0.451229	-0.822696	0.754719	-0.446265	-0.881788	0.727642	-0.452684	-0.833391	0.717788	-0.446946	-0.963054	0.476354	-0.417318	-0.958577	0.480521	-0.312235	-1.087114	0.402470	-0.444574	-1.044782	0.372478	-0.432420	-1.107960	0.367066	-0.441733	-1.073026	0.342330	-0.429026	-1.252567	0.192491	-0.412648	-1.233356	0.199018	-0.323963	-1.205310	0.049921	-0.418054	-1.206319	0.064840	-0.303819	-1.161282	0.046095	-0.353796	-1.322941	0.221528	-0.363065	-0.799682	1.370661	-0.116482	-0.709873	1.358830	-0.469498	
44	0.2150	-0.787147	0.952039	-0.145316	-0.759438	0.935793	-0.405366	-0.928289	0.963963	-0.242930	-0.917972	0.964526	-0.332969	-0.786147	0.797568	-0.101441	-0.741096	0.820400	-0.119653	-0.766047	0.750900	-0.102741	-0.724573	0.778435	-0.112650	-0.623801	0.539293	-0.142253	-0.610421	0.544436	-0.236524	-0.674799	0.403323	-0.119870	-0.621584	0.400395	-0.135711	-0.678010	0.350536	-0.124195	-0.626968	0.354820	-0.135969	-0.670856	0.133334	-0.161096	-0.650670	0.154539	-0.248615	-0.551355	0.082536	-0.137690	-0.529142	0.096489	-0.240539	-0.476203	0.117698	-0.183166	-0.730770	0.096501	-0.225020	-0.857435	0.766815	-0.450427	-0.803677	0.755215	-0.445678	-0.862998	0.728581	-0.451774	-0.814681	0.718279	-0.446353	-0.947243	0.477842	-0.416932	-0.942902	0.481954	-0.311488	-1.072699	0.407004	-0.444796	-1.031283	0.376096	-0.432572	-1.094328	0.372125	-0.442117	-1.060098	0.346619	-0.429221	-1.242680	0.201103	-0.414180	-1.223872	0.207062	-0.325494	-1.201987	0.055012	-0.418476	-1.202657	0.070983	-0.304457	-1.158518	0.049029	-0.354148	-1.311633	0.233464	-0.365150	-0.781255	1.371214	-0.114763	-0.689997	1.360492	-0.466954	
45	0.2200	-0.766951	0.951789	-0.144644	-0.739388	0.936105	-0.404703	-0.908066	0.963828	-0.241995	-0.897790	0.964677	-0.332073	-0.766033	0.796563	-0.100775	-0.720773	0.819306	-0.118879	-0.746217	0.749877	-0.102099	-0.704601	0.777207	-0.112006	-0.605642	0.537896	-0.142453	-0.592561	0.543112	-0.236176	-0.652766	0.400184	-0.119777	-0.599235	0.399149	-0.135528	-0.653982	0.346998	-0.124111	-0.602845	0.353156	-0.135776	-0.637703	0.128391	-0.161057	-0.618232	0.150698	-0.248464	-0.515975	0.082360	-0.137901	-0.494026	0.097864	-0.240740	-0.441640	0.121273	-0.183195	-0.696306	0.089283	-0.225143	-0.838091	0.767351	-0.449647	-0.784449	0.755434	-0.445041	-0.843918	0.729152	-0.450869	-0.795688	0.718482	-0.445689	-0.930671	0.478876	-0.416454	-0.926542	0.482993	-0.310619	-1.057473	0.411303	-0.444920	-1.017068	0.379436	-0.432601	-1.079924	0.377019	-0.442407	-1.046479	0.350711	-0.429303	-1.232210	0.210041	-0.415628	-1.213838	0.215407	-0.326936	-1.198135	0.060828	-0.418922	-1.198459	0.077753	-0.305161	-1.155276	0.052583	-0.354549	-1.299642	0.245661	-0.367153	-0.762734	1.371411	-0.112984	-0.670264	1.361876	-0.464411	
46	0.2250	-0.746850	0.951217	-0.143962	-0.719412	0.936166	-0.404056	-0.887944	0.963366	-0.241115	-0.877706	0.964506	-0.331234	-0.746037	0.795154	-0.100148	-0.700558	0.817803	-0.118134	-0.726496	0.748450	-0.101463	-0.684732	0.775564	-0.111379	-0.587501	0.536112	-0.142681	-0.574724	0.541411	-0.235896	-0.631010	0.396928	-0.119735	-0.577242	0.397632	-0.135424	-0.630393	0.343425	-0.124078	-0.579217	0.351301	-0.135674	-0.605750	0.123791	-0.161095	-0.586973	0.147041	-0.248405	-0.482122	0.082221	-0.138176	-0.460457	0.099077	-0.241007	-0.408593	0.124527	-0.183323	-0.663114	0.082664	-0.225322	-0.818544	0.767508	-0.448887	-0.765012	0.755356	-0.444353	-0.824555	0.729333	-0.449970	-0.776414	0.718377	-0.444955	-0.913343	0.479421	-0.415887	-0.909493	0.483597	-0.309634	-1.041434	0.415337	-0.444940	-1.002135	0.382465	-0.432509	-1.064744	0.381720	-0.442597	-1.032166	0.354579	-0.429272	-1.221128	0.219281	-0.416976	-1.203218	0.224028	-0.328273	-1.193694	0.067373	-0.419396	-1.193667	0.085133	-0.305926	-1.151503	0.056783	-0.355001	-1.286943	0.258075	-0.369045	-0.744125	1.371239	-0.111142	-0.650673	1.362969	-0.461877	
47	0.2300	-0.726852	0.950331	-0.143267	-0.699510	0.935967	-0.403423	-0.867928	0.962577	-0.240291	-0.857725	0.964007	-0.330452	-0.726159	0.793364	-0.099559	-0.680453	0.815920	-0.117419	-0.706876	0.746640	-0.100831	-0.664962	0.773534	-0.110773	-0.569334	0.533983	-0.142933	-0.556866	0.539376	-0.235682	-0.609529	0.393581	-0.119745	-0.555593	0.395855	-0.135401	-0.607261	0.339839	-0.124093	-0.556094	0.349258	-0.135666	-0.575117	0.119525	-0.161207	-0.557001	0.143548	-0.248441	-0.449909	0.082058	-0.138508	-0.428536	0.100041	-0.241338	-0.377148	0.127356	-0.183547	-0.631342	0.076650	-0.225552	-0.798799	0.767274	-0.448148	-0.745370	0.754966	-0.443615	-0.804917	0.729109	-0.449081	-0.756863	0.717947	-0.444155	-0.895269	0.479452	-0.415237	-0.891753	0.483731	-0.308541	-1.024582	0.419078	-0.444853	-0.986484	0.385159	-0.432299	-1.048784	0.386201	-0.442682	-1.017156	0.358199	-0.429135	-1.209399	0.228793	-0.418209	-1.191973	0.232891	-0.329491	-1.188596	0.074633	-0.419900	-1.188217	0.093095	-0.306744	-1.147134	0.061638	-0.355507	-1.273507	0.270658	-0.370801	-0.725433	1.370686	-0.109238	-0.631220	1.363765	-0.459359	
48	0.2350	-0.706960	0.949139	-0.142554	-0.679683	0.935503	-0.402801	-0.848023	0.961466	-0.239523	-0.837848	0.963178	-0.329727	-0.706393	0.791223	-0.099005	-0.660457	0.813686	-0.116730	-0.687348	0.744478	-0.100206	-0.645284	0.771152	-0.110188	-0.551104	0.531550	-0.143206	-0.538952	0.537051	-0.235529	-0.588321	0.390173	-0.119803	-0.534281	0.393831	-0.135461	-0.584602	0.336258	-0.124155	-0.533485	0.347032	-0.135752	-0.545918	0.115583	-0.161390	-0.528417	0.140198	-0.248571	-0.419441	0.081813	-0.138893	-0.398356	0.100678	-0.241727	-0.347383	0.129662	-0.183867	-0.601127	0.071239	-0.225830	-0.778864	0.766640	-0.447426	-0.725528	0.754260	-0.442830	-0.785010	0.728473	-0.448203	-0.737040	0.717187	-0.443296	-0.876457	0.478958	-0.414515	-0.873318	0.483374	-0.307355	-1.006918	0.422506	-0.444656	-0.970111	0.387503	-0.431975	-1.032040	0.390442	-0.442660	-1.001440	0.361553	-0.428898	-1.196985	0.238543	-0.419315	-1.180056	0.241961	-0.330579	-1.182771	0.082582	-0.420436	-1.182043	0.101596	-0.307608	-1.142102	0.067144	-0.356067	-1.259302	0.283358	-0.372394	-0.706660	1.369750	-0.107272	-0.611902	1.364260	-0.456865	
49	0.2400	-0.687178	0.947658	-0.141820	-0.659928	0.934776	-0.402183	-0.828228	0.960045	-0.238810	-0.818076	0.962023	-0.329056	-0.686733	0.788764	-0.098483	-0.640567	0.811140	-0.116067	-0.667899	0.741997	-0.099587	-0.625692	0.768455	-0.109624	-0.532782	0.528856	-0.143498	-0.520951	0.534479	-0.235432	-0.567389	0.386729	-0.119906	-0.513303	0.391575	-0.135604	-0.562435	0.332702	-0.124262	-0.511401	0.344630	-0.135932	-0.518254	0.111955	-0.161642	-0.501311	0.136975	-0.248797	-0.390805	0.081431	-0.139325	-0.369994	0.100920	-0.242173	-0.319361	0.131362	-0.184280	-0.572593	0.066424	-0.226150	-0.758745	0.765611	-0.446720	-0.705491	0.753239	-0.442002	-0.764844	0.727427	-0.447338	-0.716951	0.716099	-0.442385	-0.856917	0.477939	-0.413730	-0.854181	0.482512	-0.306089	-0.988441	0.425609	-0.444350	-0.953011	0.389486	-0.431547	-1.014506	0.394428	-0.442531	-0.985010	0.364629	-0.428569	-1.183839	0.248488	-0.420281	-1.167414	0.251193	-0.331526	-1.176140	0.091179	-0.421005	-1.175068	0.110582	-0.308508	-1.136327	0.073282	-0.356682	-1.244291	0.296119	-0.373800	-0.687808	1.368432	-0.105244	-0.592708	1.364454	-0.454403	
50	0.2450	-0.667500	0.945909	-0.141062	-0.640239	0.933791	-0.401566	-0.808542	0.958331	-0.238146	-0.798405	0.960552	-0.328435	-0.667169	0.786025	-0.097989	-0.620777	0.808318	-0.115425	-0.648520	0.739233	-0.098974	-0.606177	0.765484	-0.109081	-0.514348	0.525941	-0.143805	-0.502843	0.531703	-0.235386	-0.546741	0.383276	-0.120052	-0.492660	0.389101	-0.135827	-0.540781	0.329190	-0.124411	-0.489855	0.342062	-0.136205	-0.492214	0.108627	-0.161961	-0.475759	0.133864	-0.249117	-0.364076	0.080869	-0.139801	-0.343514	0.100713	-0.242672	-0.293135	0.132387	-0.184783	-0.545843	0.062194	-0.226510	-0.738448	0.764195	-0.446027	-0.685263	0.751916	-0.441136	-0.744427	0.725982	-0.446489	-0.696602	0.714693	-0.441430	-0.836655	0.476405	-0.412893	-0.834335	0.481147	-0.304760	-0.969149	0.428379	-0.443936	-0.935174	0.391107	-0.431022	-0.996175	0.398146	-0.442296	-0.967851	0.367421	-0.428159	-1.169912	0.258584	-0.421097	-1.153989	0.260540	-0.332323	-1.168621	0.100365	-0.421605	-1.167213	0.119987	-0.309435	-1.129727	0.080016	-0.357350	-1.228435	0.308881	-0.374997	-0.668878	1.366737	-0.103159	-0.573628	1.364351	-0.451980	
51	0.2500	-0.647920	0.943916	-0.140276	-0.620609	0.932558	-0.400943	-0.788955	0.956346	-0.237526	-0.778829	0.958781	-0.327857	-0.647690	0.783047	-0.097518	-0.601079	0.805262	-0.114799	-0.629198	0.736228	-0.098368	-0.586728	0.762282	-0.108556	-0.495790	0.522847	-0.144122	-0.484616	0.528764	-0.235383	-0.526387	0.379838	-0.120235	-0.472356	0.386428	-0.136129	-0.519660	0.325739	-0.124601	-0.468862	0.339337	-0.136568	-0.467869	0.105588	-0.162342	-0.451825	0.130853	-0.249529	-0.339308	0.080088	-0.140316	-0.318960	0.100016	-0.243221	-0.268742	0.132683	-0.185373	-0.520965	0.058534	-0.226905	-0.717979	0.762411	-0.445343	-0.664848	0.750307	-0.440236	-0.723766	0.724157	-0.445657	-0.675997	0.712989	-0.440440	-0.815678	0.474381	-0.412018	-0.813767	0.479288	-0.303385	-0.949038	0.430812	-0.443419	-0.916588	0.392371	-0.430410	-0.977035	0.401589	-0.441957	-0.949944	0.369928	-0.427676	-1.155149	0.268778	-0.421754	-1.139721	0.269948	-0.332961	-1.160127	0.110070	-0.422234	-1.158395	0.129735	-0.310375	-1.122212	0.087296	-0.358069	-1.211692	0.321580	-0.375967	-0.649867	1.364679	-0.101018	-0.554647	1.363959	-0.449604	
52	0.2550	-0.628426	0.941708	-0.139458	-0.601029	0.931092	-0.400308	-0.769458	0.954118	-0.236941	-0.759339	0.956732	-0.327313	-0.628282	0.779873	-0.097063	-0.581460	0.802016	-0.114183	-0.609920	0.733024	-0.097767	-0.567333	0.758892	-0.108046	-0.477107	0.519609	-0.144445	-0.466266	0.525698	-0.235416	-0.506344	0.376437	-0.120452	-0.452401	0.383573	-0.136505	-0.499093	0.322366	-0.124827	-0.448435	0.336468	-0.137016	-0.445272	0.102823	-0.162783	-0.429553	0.127933	-0.250030	-0.316535	0.079062	-0.140863	-0.296360	0.098803	-0.243816	-0.246204	0.132219	-0.186043	-0.498022	0.055422	-0.227330	-0.697343	0.760284	-0.444665	-0.644250	0.748439	-0.439309	-0.702867	0.721980	-0.444842	-0.655142	0.711014	-0.439425	-0.793989	0.471902	-0.411117	-0.792466	0.476961	-0.301982	-0.928104	0.432915	-0.442802	-0.897237	0.393292	-0.429722	-0.957075	0.404755	-0.441518	-0.931266	0.372152	-0.427130	-1.139494	0.279012	-0.422245	-1.124544	0.279359	-0.333434	-1.150569	0.120209	-0.422886	-1.148526	0.139739	-0.311317	-1.113683	0.095058	-0.358833	-1.194022	0.334151	-0.376694	-0.630769	1.362276	-0.098827	-0.535747	1.363291	-0.447284	
53	0.2600	-0.609002	0.939318	-0.138605	-0.581486	0.929414	-0.399657	-0.750035	0.951680	-0.236382	-0.739922	0.954431	-0.326794	-0.608929	0.776548	-0.096617	-0.561908	0.798622	-0.113572	-0.590673	0.729666	-0.097171	-0.547982	0.755358	-0.107548	-0.458304	0.516264	-0.144769	-0.447799	0.522541	-0.235478	-0.486629	0.373094	-0.120696	-0.432808	0.380555	-0.136950	-0.479100	0.319086	-0.125086	-0.428592	0.333468	-0.137544	-0.424461	0.100322	-0.163279	-0.408976	0.125100	-0.250614	-0.295772	0.077772	-0.141439	-0.275725	0.097065	-0.244453	-0.225526	0.130979	-0.186788	-0.477054	0.052836	-0.227780	-0.676541	0.757850	-0.443989	-0.623468	0.746345	-0.438360	-0.681735	0.719487	-0.444045	-0.634038	0.708803	-0.438395	-0.771588	0.469016	-0.410200	-0.770416	0.474199	-0.300567	-0.906340	0.434696	-0.442093	-0.877100	0.393886	-0.428968	-0.936279	0.407644	-0.440984	-0.911792	0.374102	-0.426531	-1.122888	0.289225	-0.422563	-1.108393	0.288710	-0.333736	-1.139853	0.130688	-0.423556	-1.137516	0.149905	-0.312247	-1.104043	0.103223	-0.359635	-1.175382	0.346522	-0.377163	-0.611577	1.359553	-0.096591	-0.516910	1.362364	-0.445025	
54	0.2650	-0.589630	0.936781	-0.137715	-0.561967	0.927549	-0.398982	-0.730668	0.949070	-0.235838	-0.720562	0.951913	-0.326288	-0.589614	0.773118	-0.096172	-0.542407	0.795124	-0.112957	-0.571446	0.726197	-0.096577	-0.528661	0.751724	-0.107057	-0.439400	0.512841	-0.145088	-0.429229	0.519321	-0.235561	-0.467263	0.369827	-0.120960	-0.413594	0.377394	-0.137455	-0.459704	0.315912	-0.125372	-0.409348	0.330353	-0.138143	-0.405449	0.098071	-0.163824	-0.390103	0.122353	-0.251275	-0.277014	0.076214	-0.142038	-0.257043	0.094809	-0.245127	-0.206698	0.128972	-0.187600	-0.458077	0.050749	-0.228250	-0.655573	0.755146	-0.443310	-0.602504	0.744066	-0.437394	-0.660369	0.716721	-0.443266	-0.612686	0.706399	-0.437358	-0.748473	0.465778	-0.409278	-0.747601	0.471051	-0.299156	-0.883738	0.436169	-0.441297	-0.856154	0.394180	-0.428159	-0.914631	0.410261	-0.440359	-0.891492	0.375790	-0.425886	-1.105273	0.299349	-0.422705	-1.091203	0.297937	-0.333864	-1.127889	0.141399	-0.424234	-1.125275	0.160131	-0.313150	-1.093187	0.111702	-0.360466	-1.155734	0.358620	-0.377366	-0.592281	1.356538	-0.094316	-0.498115	1.361197	-0.442835	
55	0.2700	-0.570287	0.934134	-0.136786	-0.542455	0.925526	-0.398278	-0.711335	0.946328	-0.235297	-0.701241	0.949212	-0.325784	-0.570319	0.769628	-0.095720	-0.522940	0.791563	-0.112331	-0.552225	0.722662	-0.095985	-0.509358	0.748030	-0.106568	-0.420419	0.509370	-0.145396	-0.410579	0.516065	-0.235655	-0.448272	0.366651	-0.121240	-0.394780	0.374110	-0.138014	-0.440924	0.312856	-0.125680	-0.390720	0.327140	-0.138804	-0.388232	0.096061	-0.164412	-0.372929	0.119696	-0.252004	-0.260232	0.074390	-0.142654	-0.240287	0.092058	-0.245833	-0.189695	0.126222	-0.188469	-0.441083	0.049131	-0.228733	-0.634437	0.752220	-0.442624	-0.581356	0.741647	-0.436417	-0.638770	0.713731	-0.442504	-0.591087	0.703851	-0.436322	-0.724639	0.462254	-0.408362	-0.724003	0.467572	-0.297761	-0.860289	0.437354	-0.440420	-0.834376	0.394202	-0.427302	-0.892116	0.412613	-0.439649	-0.870336	0.377231	-0.425202	-1.086594	0.309314	-0.422666	-1.072912	0.306972	-0.333815	-1.114585	0.152227	-0.424909	-1.111717	0.170310	-0.314011	-1.081013	0.120393	-0.361315	-1.135043	0.370370	-0.377297	-0.572870	1.353269	-0.092010	-0.479339	1.359814	-0.440720	
56	0.2750	-0.550947	0.931417	-0.135814	-0.522934	0.923378	-0.397541	-0.692012	0.943498	-0.234746	-0.681939	0.946370	-0.325269	-0.551027	0.766123	-0.095254	-0.503491	0.787979	-0.111688	-0.533003	0.719105	-0.095392	-0.490062	0.744317	-0.106074	-0.401397	0.505873	-0.145688	-0.391882	0.512795	-0.235754	-0.429682	0.363580	-0.121527	-0.376387	0.370725	-0.138615	-0.422777	0.309928	-0.126004	-0.372724	0.323847	-0.139517	-0.372784	0.094280	-0.165037	-0.357431	0.117136	-0.252792	-0.245382	0.072315	-0.143281	-0.225410	0.088849	-0.246565	-0.174473	0.122777	-0.189384	-0.426038	0.047953	-0.229225	-0.613131	0.749122	-0.441926	-0.560020	0.739139	-0.435431	-0.616937	0.710573	-0.441756	-0.569238	0.701211	-0.435292	-0.700082	0.458515	-0.407456	-0.699609	0.463829	-0.296395	-0.835985	0.438273	-0.439471	-0.811739	0.393985	-0.426405	-0.868717	0.414711	-0.438858	-0.848293	0.378444	-0.424482	-1.066799	0.319046	-0.422446	-1.053465	0.315745	-0.333587	-1.099855	0.163054	-0.425568	-1.096757	0.180334	-0.314814	-1.067421	0.129188	-0.362167	-1.113281	0.381696	-0.376952	-0.553330	1.349783	-0.089681	-0.460562	1.358243	-0.438687	
57	0.2800	-0.531585	0.928671	-0.134800	-0.503386	0.921141	-0.396764	-0.672675	0.940625	-0.234173	-0.662634	0.943432	-0.324729	-0.531723	0.762645	-0.094765	-0.484043	0.784410	-0.111022	-0.513771	0.715567	-0.094795	-0.470763	0.740620	-0.105571	-0.382375	0.502371	-0.145957	-0.373176	0.509528	-0.235849	-0.411522	0.360625	-0.121815	-0.358444	0.367260	-0.139248	-0.405283	0.307138	-0.126338	-0.355376	0.320495	-0.140269	-0.359062	0.092721	-0.165691	-0.343565	0.114684	-0.253629	-0.232396	0.070012	-0.143912	-0.212347	0.085234	-0.247315	-0.160977	0.118700	-0.190334	-0.412887	0.047182	-0.229718	-0.591650	0.745908	-0.441211	-0.538495	0.736595	-0.434439	-0.594865	0.707304	-0.441020	-0.547137	0.698538	-0.434274	-0.674796	0.454638	-0.406567	-0.674407	0.459895	-0.295065	-0.810823	0.438953	-0.438454	-0.788222	0.393566	-0.425474	-0.844422	0.416567	-0.437992	-0.825335	0.379447	-0.423730	-1.045844	0.328471	-0.422042	-1.032811	0.324188	-0.333178	-1.083620	0.173753	-0.426196	-1.080319	0.190092	-0.315544	-1.052316	0.137975	-0.363007	-1.090427	0.392520	-0.376333	-0.533649	1.346128	-0.087338	-0.441762	1.356515	-0.436741	
58	0.2850	-0.512174	0.925936	-0.133742	-0.483795	0.918853	-0.395943	-0.653298	0.937757	-0.233564	-0.643306	0.940443	-0.324154	-0.512391	0.759235	-0.094247	-0.464582	0.780889	-0.110325	-0.494525	0.712089	-0.094191	-0.451456	0.736973	-0.105052	-0.363402	0.498882	-0.146197	-0.354509	0.506279	-0.235933	-0.393821	0.357797	-0.122096	-0.340976	0.363737	-0.139901	-0.388456	0.304494	-0.126675	-0.338689	0.317104	-0.141048	-0.347003	0.091376	-0.166367	-0.331274	0.112354	-0.254502	-0.221191	0.067513	-0.144543	-0.201020	0.081274	-0.248077	-0.149135	0.114068	-0.191307	-0.401552	0.046787	-0.230206	-0.569988	0.742635	-0.440474	-0.516776	0.734072	-0.433443	-0.572551	0.703987	-0.440292	-0.524783	0.695891	-0.433269	-0.648777	0.450706	-0.405696	-0.648388	0.455852	-0.293778	-0.784801	0.439421	-0.437377	-0.763802	0.392984	-0.424512	-0.819221	0.418196	-0.437055	-0.801436	0.380264	-0.422944	-1.023693	0.337514	-0.421455	-1.010913	0.332233	-0.332591	-1.065807	0.184202	-0.426778	-1.062335	0.199478	-0.316184	-1.035610	0.146639	-0.363818	-1.066470	0.402767	-0.375445	-0.513814	1.342351	-0.084992	-0.422920	1.354662	-0.434886	
59	0.2900	-0.492691	0.923252	-0.132640	-0.464146	0.916555	-0.395075	-0.633859	0.934939	-0.232908	-0.623934	0.937451	-0.323529	-0.493021	0.755929	-0.093693	-0.445095	0.777449	-0.109593	-0.475264	0.708706	-0.093578	-0.432135	0.733405	-0.104511	-0.344533	0.495419	-0.146402	-0.335931	0.503058	-0.235999	-0.376610	0.355102	-0.122363	-0.324013	0.360178	-0.140561	-0.372309	0.302003	-0.127008	-0.322676	0.313697	-0.141838	-0.336527	0.090238	-0.167055	-0.320486	0.110162	-0.255398	-0.211669	0.064856	-0.145165	-0.191332	0.077040	-0.248843	-0.138866	0.108975	-0.192289	-0.391936	0.046737	-0.230683	-0.548142	0.739363	-0.439712	-0.494863	0.731627	-0.432443	-0.549992	0.700685	-0.439570	-0.502176	0.693331	-0.432279	-0.622025	0.446800	-0.404844	-0.621553	0.451783	-0.292534	-0.757922	0.439707	-0.436245	-0.738467	0.392280	-0.423522	-0.793113	0.419614	-0.436050	-0.776578	0.380917	-0.422125	-1.000324	0.346099	-0.420688	-0.987745	0.339816	-0.331825	-1.046362	0.194277	-0.427295	-1.042750	0.208387	-0.316718	-1.017231	0.155063	-0.364581	-1.041412	0.412363	-0.374294	-0.493813	1.338504	-0.082652	-0.404020	1.352721	-0.433126	
60	0.2950	-0.473112	0.920657	-0.131496	-0.444425	0.914286	-0.394157	-0.614335	0.932217	-0.232195	-0.604499	0.934505	-0.322846	-0.473606	0.752763	-0.093098	-0.425573	0.774115	-0.108821	-0.455992	0.705452	-0.092951	-0.412802	0.729943	-0.103944	-0.325829	0.491994	-0.146567	-0.317501	0.499874	-0.236040	-0.359919	0.352548	-0.122609	-0.307583	0.356607	-0.141216	-0.356854	0.299671	-0.127329	-0.307350	0.310297	-0.142627	-0.327539	0.089303	-0.167747	-0.311115	0.108126	-0.256305	-0.203718	0.062084	-0.145772	-0.183180	0.072610	-0.249605	-0.130076	0.103519	-0.193269	-0.383923	0.047002	-0.231141	-0.526109	0.736150	-0.438919	-0.472756	0.729317	-0.431438	-0.527189	0.697462	-0.438847	-0.479319	0.690919	-0.431303	-0.594546	0.443003	-0.404008	-0.593910	0.447775	-0.291333	-0.730201	0.439845	-0.435062	-0.712210	0.391494	-0.422503	-0.766103	0.420837	-0.434981	-0.750753	0.381431	-0.421269	-0.975727	0.354158	-0.419742	-0.963295	0.346874	-0.330885	-1.025241	0.203859	-0.427731	-1.021527	0.216721	-0.317130	-0.997119	0.163136	-0.365275	-1.015266	0.421239	-0.372891	-0.473638	1.334641	-0.080328	-0.385051	1.350729	-0.431464	
61	0.3000	-0.453421	0.918189	-0.130309	-0.424624	0.912088	-0.393187	-0.594710	0.929636	-0.231413	-0.584987	0.931650	-0.322093	-0.454145	0.749766	-0.092457	-0.406012	0.770912	-0.108008	-0.436718	0.702357	-0.092308	-0.393462	0.726608	-0.103346	-0.307352	0.488618	-0.146686	-0.299279	0.496732	-0.236051	-0.343779	0.350139	-0.122827	-0.291716	0.353046	-0.141853	-0.342100	0.297503	-0.127632	-0.292720	0.306927	-0.143398	-0.319933	0.088564	-0.168433	-0.303062	0.106263	-0.257209	-0.197216	0.059245	-0.146360	-0.176445	0.068065	-0.250354	-0.122663	0.097809	-0.194232	-0.377387	0.047551	-0.231575	-0.503891	0.733056	-0.438091	-0.450460	0.727197	-0.430426	-0.504145	0.694379	-0.438120	-0.456219	0.688712	-0.430337	-0.566355	0.439396	-0.403183	-0.565478	0.443914	-0.290171	-0.701659	0.439864	-0.433832	-0.685036	0.390666	-0.421454	-0.738209	0.421884	-0.433850	-0.723962	0.381828	-0.420370	-0.949909	0.361622	-0.418623	-0.937572	0.353352	-0.329773	-1.002422	0.212838	-0.428067	-0.998644	0.224392	-0.317407	-0.975236	0.170752	-0.365881	-0.988064	0.429330	-0.371251	-0.453285	1.330816	-0.078033	-0.366008	1.348723	-0.429902	
62	0.3050	-0.433606	0.915879	-0.129083	-0.404739	0.910001	-0.392163	-0.574973	0.927235	-0.230555	-0.565389	0.928933	-0.321264	-0.434642	0.746964	-0.091768	-0.386416	0.767858	-0.107150	-0.417455	0.699447	-0.091646	-0.374126	0.723419	-0.102712	-0.289169	0.485298	-0.146754	-0.281327	0.493638	-0.236028	-0.328218	0.347881	-0.123012	-0.276439	0.349519	-0.142458	-0.328053	0.295503	-0.127909	-0.278791	0.303613	-0.144139	-0.313591	0.088018	-0.169104	-0.296222	0.104591	-0.258096	-0.192033	0.056387	-0.146920	-0.171006	0.063486	-0.251082	-0.116518	0.091953	-0.195166	-0.372187	0.048358	-0.231979	-0.481494	0.730136	-0.437227	-0.427984	0.725317	-0.429404	-0.480867	0.691494	-0.437384	-0.432887	0.686766	-0.429379	-0.537474	0.436055	-0.402364	-0.536290	0.440285	-0.289043	-0.672331	0.439797	-0.432559	-0.656962	0.389836	-0.420372	-0.709461	0.422772	-0.432659	-0.696223	0.382131	-0.419423	-0.922896	0.368431	-0.417336	-0.910601	0.359202	-0.328494	-0.977905	0.221111	-0.428286	-0.974103	0.231319	-0.317534	-0.951565	0.177814	-0.366377	-0.959852	0.436580	-0.369390	-0.432756	1.327083	-0.075776	-0.346890	1.346742	-0.428440	
63	0.3100	-0.413663	0.913759	-0.127819	-0.384773	0.908060	-0.391086	-0.555120	0.925052	-0.229615	-0.545700	0.926395	-0.320352	-0.415108	0.744378	-0.091028	-0.366793	0.764970	-0.106248	-0.398225	0.696743	-0.090962	-0.354812	0.720390	-0.102039	-0.271345	0.482043	-0.146768	-0.263712	0.490595	-0.235965	-0.313263	0.345777	-0.123158	-0.261779	0.346048	-0.143020	-0.314715	0.293676	-0.128155	-0.265570	0.300377	-0.144835	-0.308391	0.087660	-0.169750	-0.290481	0.103129	-0.258953	-0.188032	0.053558	-0.147449	-0.166733	0.058954	-0.251783	-0.111527	0.086062	-0.196061	-0.368177	0.049398	-0.232347	-0.458929	0.727440	-0.436324	-0.405346	0.723726	-0.428370	-0.457371	0.688863	-0.436635	-0.409344	0.685130	-0.428422	-0.507940	0.433049	-0.401542	-0.506393	0.436968	-0.287940	-0.642267	0.439675	-0.431244	-0.628023	0.389040	-0.419253	-0.679904	0.423520	-0.431410	-0.667568	0.382364	-0.418421	-0.894736	0.374531	-0.415888	-0.882431	0.364381	-0.327056	-0.951715	0.228590	-0.428371	-0.947930	0.237436	-0.317499	-0.926117	0.184237	-0.366744	-0.930695	0.442940	-0.367326	-0.412060	1.323496	-0.073569	-0.327707	1.344823	-0.427080	
64	0.3150	-0.393599	0.911853	-0.126521	-0.364735	0.906299	-0.389956	-0.535156	0.923117	-0.228589	-0.525927	0.924073	-0.319354	-0.395565	0.742027	-0.090239	-0.347161	0.762258	-0.105303	-0.379053	0.694264	-0.090253	-0.335544	0.717533	-0.101327	-0.253946	0.478860	-0.146723	-0.246495	0.487607	-0.235860	-0.298939	0.343830	-0.123260	-0.247759	0.342658	-0.143528	-0.302087	0.292024	-0.128362	-0.253058	0.297245	-0.145473	-0.304204	0.087486	-0.170364	-0.285725	0.101891	-0.259768	-0.185077	0.050804	-0.147942	-0.163496	0.054544	-0.252447	-0.107573	0.080239	-0.196906	-0.365206	0.050647	-0.232674	-0.436218	0.725016	-0.435380	-0.382569	0.722462	-0.427320	-0.433682	0.686533	-0.435867	-0.385618	0.683848	-0.427461	-0.477806	0.430440	-0.400711	-0.475850	0.434035	-0.286854	-0.611532	0.439527	-0.429890	-0.598269	0.388312	-0.418093	-0.649599	0.424145	-0.430103	-0.638049	0.382547	-0.417359	-0.865496	0.379880	-0.414287	-0.853131	0.368858	-0.325466	-0.923904	0.235199	-0.428309	-0.920177	0.242690	-0.317294	-0.898932	0.189946	-0.366965	-0.900678	0.448372	-0.365080	-0.391214	1.320105	-0.071422	-0.308476	1.343001	-0.425819	
65	0.3200	-0.373428	0.910183	-0.125194	-0.344645	0.904750	-0.388777	-0.515095	0.921458	-0.227477	-0.506082	0.922000	-0.318268	-0.376039	0.739922	-0.089401	-0.327544	0.759732	-0.104317	-0.359975	0.692022	-0.089519	-0.316353	0.714855	-0.100574	-0.237036	0.475757	-0.146619	-0.229739	0.484678	-0.235710	-0.285268	0.342044	-0.123314	-0.234400	0.339369	-0.143972	-0.290167	0.290550	-0.128527	-0.241254	0.294238	-0.146042	-0.300900	0.087492	-0.170935	-0.281833	0.100890	-0.260529	-0.183030	0.048168	-0.148393	-0.161164	0.050324	-0.253069	-0.104541	0.074584	-0.197692	-0.363124	0.052083	-0.232956	-0.413388	0.722904	-0.434396	-0.359687	0.721561	-0.426251	-0.409831	0.684546	-0.435077	-0.361747	0.682955	-0.426491	-0.447138	0.428282	-0.399860	-0.444741	0.431552	-0.285773	-0.580206	0.439379	-0.428499	-0.567771	0.387681	-0.416886	-0.618628	0.424665	-0.428741	-0.607738	0.382699	-0.416230	-0.835267	0.384442	-0.412543	-0.822796	0.372609	-0.323734	-0.894553	0.240880	-0.428086	-0.890925	0.247043	-0.316910	-0.870079	0.194883	-0.367024	-0.869903	0.452849	-0.362674	-0.370245	1.316956	-0.069344	-0.289222	1.341310	-0.424658	
66	0.3250	-0.353179	0.908765	-0.123842	-0.324530	0.903436	-0.387550	-0.494965	0.920093	-0.226278	-0.486191	0.920204	-0.317096	-0.356567	0.738072	-0.088519	-0.307979	0.757396	-0.103295	-0.341030	0.690027	-0.088759	-0.297279	0.712363	-0.099780	-0.220676	0.472740	-0.146453	-0.213505	0.481811	-0.235515	-0.272267	0.340420	-0.123317	-0.221720	0.336205	-0.144343	-0.278950	0.289257	-0.128644	-0.230154	0.291379	-0.146531	-0.298350	0.087671	-0.171458	-0.278689	0.100136	-0.261227	-0.181756	0.045689	-0.148802	-0.159609	0.046357	-0.253643	-0.102312	0.069183	-0.198412	-0.361781	0.053687	-0.233188	-0.390479	0.721136	-0.433373	-0.336744	0.721047	-0.425159	-0.385864	0.682936	-0.434263	-0.337780	0.682477	-0.425506	-0.416022	0.426616	-0.398982	-0.413165	0.429572	-0.284687	-0.548391	0.439255	-0.427072	-0.536621	0.387174	-0.415630	-0.587088	0.425096	-0.427325	-0.576728	0.382837	-0.415029	-0.804166	0.388195	-0.410669	-0.791544	0.375624	-0.321871	-0.863774	0.245591	-0.427693	-0.860284	0.250473	-0.316343	-0.839662	0.199008	-0.366907	-0.838492	0.456356	-0.360133	-0.349188	1.314090	-0.067345	-0.269982	1.339780	-0.423592	
67	0.3300	-0.332890	0.907608	-0.122470	-0.304429	0.902377	-0.386281	-0.474801	0.919037	-0.224998	-0.466286	0.918704	-0.315842	-0.337196	0.736479	-0.087596	-0.288508	0.755254	-0.102242	-0.322266	0.688282	-0.087973	-0.278368	0.710058	-0.098948	-0.204923	0.469818	-0.146225	-0.197849	0.479014	-0.235272	-0.259953	0.338962	-0.123267	-0.209732	0.333185	-0.144633	-0.268427	0.288144	-0.128711	-0.219752	0.288688	-0.146932	-0.296431	0.088017	-0.171925	-0.276180	0.099633	-0.261853	-0.181126	0.043399	-0.149165	-0.158707	0.042691	-0.254165	-0.100775	0.064114	-0.199061	-0.361036	0.055442	-0.233368	-0.367541	0.719737	-0.432313	-0.313793	0.720938	-0.424043	-0.361837	0.681727	-0.433422	-0.313776	0.682433	-0.424501	-0.384561	0.425472	-0.398070	-0.381241	0.428137	-0.283587	-0.516204	0.439178	-0.425612	-0.504930	0.386811	-0.414321	-0.555099	0.425454	-0.425859	-0.545134	0.382978	-0.413754	-0.772329	0.391130	-0.408676	-0.759515	0.377901	-0.319889	-0.831710	0.249308	-0.427124	-0.828395	0.252974	-0.315592	-0.807819	0.202295	-0.366605	-0.806587	0.458894	-0.357481	-0.328093	1.311543	-0.065432	-0.250801	1.338438	-0.422620	
68	0.3350	-0.312613	0.906718	-0.121084	-0.284392	0.901587	-0.384975	-0.454654	0.918296	-0.223643	-0.446416	0.917515	-0.314513	-0.317980	0.735144	-0.086638	-0.269184	0.753305	-0.101164	-0.303738	0.686791	-0.087162	-0.259674	0.707941	-0.098080	-0.189828	0.467001	-0.145936	-0.182820	0.476292	-0.234983	-0.248335	0.337669	-0.123163	-0.198446	0.330328	-0.144839	-0.258588	0.287213	-0.128724	-0.210037	0.286183	-0.147238	-0.295022	0.088522	-0.172330	-0.274196	0.099385	-0.262399	-0.181017	0.041323	-0.149481	-0.158340	0.039368	-0.254631	-0.099821	0.059439	-0.199635	-0.360753	0.057329	-0.233495	-0.344635	0.718723	-0.431220	-0.290901	0.721240	-0.422901	-0.337818	0.680936	-0.432555	-0.289808	0.682830	-0.423472	-0.352876	0.424869	-0.397117	-0.349102	0.427275	-0.282465	-0.483781	0.439163	-0.424121	-0.472833	0.386608	-0.412956	-0.522797	0.425752	-0.424344	-0.513093	0.383133	-0.412403	-0.739918	0.393249	-0.406581	-0.726876	0.379452	-0.317804	-0.798536	0.252028	-0.426377	-0.795428	0.254557	-0.314659	-0.774720	0.204736	-0.366112	-0.774345	0.460476	-0.354743	-0.307017	1.309343	-0.063614	-0.231735	1.337304	-0.421737	
69	0.3400	-0.292412	0.906095	-0.119692	-0.264476	0.901073	-0.383640	-0.434586	0.917869	-0.222222	-0.426636	0.916642	-0.313118	-0.298982	0.734062	-0.085653	-0.250071	0.751547	-0.100067	-0.285504	0.685548	-0.086329	-0.241257	0.706012	-0.097181	-0.175437	0.464296	-0.145588	-0.168466	0.473653	-0.234648	-0.237421	0.336544	-0.123005	-0.187868	0.327651	-0.144956	-0.249421	0.286460	-0.128683	-0.200998	0.283878	-0.147446	-0.294016	0.089177	-0.172670	-0.272637	0.099387	-0.262862	-0.181317	0.039479	-0.149750	-0.158399	0.036414	-0.255039	-0.099348	0.055207	-0.200133	-0.360810	0.059335	-0.233567	-0.321836	0.718102	-0.430099	-0.268143	0.721951	-0.421735	-0.313887	0.680568	-0.431661	-0.265959	0.683665	-0.422417	-0.321109	0.424812	-0.396120	-0.316901	0.427001	-0.281313	-0.451275	0.439226	-0.422602	-0.440483	0.386576	-0.411537	-0.490340	0.426004	-0.422786	-0.480763	0.383314	-0.410977	-0.707112	0.394569	-0.404399	-0.693809	0.380298	-0.315631	-0.764453	0.253765	-0.425452	-0.761582	0.255250	-0.313549	-0.740568	0.206342	-0.365427	-0.741941	0.461130	-0.351946	-0.286031	1.307509	-0.061896	-0.212849	1.336395	-0.420940	
70	0.3450	-0.272362	0.905731	-0.118300	-0.244752	0.900835	-0.382283	-0.414668	0.917749	-0.220746	-0.407016	0.916084	-0.311667	-0.280271	0.733224	-0.084648	-0.231236	0.749975	-0.098960	-0.267631	0.684548	-0.085476	-0.223183	0.704266	-0.096255	-0.161789	0.461715	-0.145183	-0.154826	0.471106	-0.234270	-0.227213	0.335586	-0.122795	-0.177998	0.325170	-0.144985	-0.240908	0.285885	-0.128587	-0.192619	0.281786	-0.147553	-0.293310	0.089970	-0.172942	-0.271410	0.099633	-0.263238	-0.181921	0.037881	-0.149973	-0.158783	0.033848	-0.255388	-0.099261	0.051450	-0.200556	-0.361095	0.061441	-0.233585	-0.299227	0.717872	-0.428956	-0.245607	0.723059	-0.420544	-0.290138	0.680619	-0.430743	-0.242324	0.684925	-0.421335	-0.289414	0.425292	-0.395076	-0.284804	0.427314	-0.280127	-0.418855	0.439376	-0.421060	-0.408053	0.386719	-0.410065	-0.457898	0.426221	-0.421191	-0.448319	0.383528	-0.409480	-0.674111	0.395119	-0.402148	-0.660520	0.380472	-0.313387	-0.729692	0.254552	-0.424356	-0.727080	0.255094	-0.312272	-0.705597	0.207139	-0.364554	-0.709562	0.460899	-0.349116	-0.265216	1.306054	-0.060284	-0.194215	1.335721	-0.420223	
71	0.3500	-0.252549	0.905615	-0.116916	-0.225299	0.900869	-0.380913	-0.394985	0.917921	-0.219228	-0.387634	0.915833	-0.310174	-0.261925	0.732619	-0.083633	-0.212758	0.748584	-0.097852	-0.250186	0.683781	-0.084609	-0.205522	0.702699	-0.095310	-0.148917	0.459267	-0.144725	-0.141933	0.468661	-0.233850	-0.217710	0.334793	-0.122535	-0.168833	0.322895	-0.144924	-0.233035	0.285482	-0.128438	-0.184884	0.279917	-0.147560	-0.292816	0.090889	-0.173144	-0.270432	0.100109	-0.263526	-0.182739	0.036530	-0.150152	-0.159403	0.031675	-0.255679	-0.099473	0.048189	-0.200905	-0.361511	0.063634	-0.233549	-0.276902	0.718021	-0.427800	-0.223388	0.724544	-0.419333	-0.266673	0.681074	-0.429805	-0.219008	0.686586	-0.420228	-0.257963	0.426289	-0.393986	-0.252991	0.428200	-0.278904	-0.386703	0.439618	-0.419500	-0.375732	0.387036	-0.408545	-0.425659	0.426412	-0.419566	-0.415956	0.383781	-0.407918	-0.641130	0.394940	-0.399847	-0.627227	0.380017	-0.311092	-0.694507	0.254440	-0.423098	-0.692170	0.254149	-0.310840	-0.670065	0.207171	-0.363500	-0.677406	0.459838	-0.346278	-0.244661	1.304981	-0.058780	-0.175912	1.335287	-0.419583	
72	0.3550	-0.233068	0.905733	-0.115549	-0.206202	0.901161	-0.379540	-0.375628	0.918366	-0.217683	-0.368577	0.915876	-0.308654	-0.244025	0.732231	-0.082616	-0.194717	0.747365	-0.096750	-0.233243	0.683233	-0.083732	-0.188350	0.701306	-0.094352	-0.136844	0.456961	-0.144220	-0.129813	0.466328	-0.233393	-0.208905	0.334161	-0.122228	-0.160364	0.320835	-0.144779	-0.225780	0.285245	-0.128238	-0.177772	0.278276	-0.147469	-0.292457	0.091919	-0.173277	-0.269631	0.100800	-0.263728	-0.183688	0.035426	-0.150289	-0.160179	0.029889	-0.255913	-0.099906	0.045426	-0.201184	-0.361976	0.065896	-0.233463	-0.254966	0.718530	-0.426637	-0.201591	0.726374	-0.418107	-0.243605	0.681912	-0.428850	-0.196122	0.688617	-0.419097	-0.226936	0.427771	-0.392852	-0.221650	0.429630	-0.277646	-0.355009	0.439954	-0.417929	-0.343720	0.387522	-0.406983	-0.393818	0.426587	-0.417919	-0.383877	0.384075	-0.406300	-0.608395	0.394087	-0.397517	-0.594160	0.378987	-0.308766	-0.659169	0.253495	-0.421692	-0.657119	0.252484	-0.309271	-0.634254	0.206494	-0.362278	-0.645679	0.458018	-0.343457	-0.224465	1.304283	-0.057387	-0.158025	1.335091	-0.419013	
73	0.3600	-0.214018	0.906062	-0.114206	-0.187555	0.901695	-0.378173	-0.356697	0.919059	-0.216127	-0.349939	0.916189	-0.307122	-0.226656	0.732042	-0.081608	-0.177199	0.746311	-0.095664	-0.216875	0.682890	-0.082852	-0.171742	0.700080	-0.093390	-0.125588	0.454805	-0.143675	-0.118485	0.464117	-0.232903	-0.200790	0.333688	-0.121879	-0.152580	0.318997	-0.144553	-0.219123	0.285166	-0.127991	-0.171262	0.276863	-0.147286	-0.292168	0.093045	-0.173343	-0.268948	0.101686	-0.263845	-0.184702	0.034559	-0.150387	-0.161045	0.028476	-0.256092	-0.100491	0.043154	-0.201398	-0.362423	0.068211	-0.233329	-0.233528	0.719372	-0.425477	-0.180325	0.728514	-0.416871	-0.221052	0.683100	-0.427886	-0.173785	0.690977	-0.417948	-0.196524	0.429694	-0.391681	-0.190975	0.431563	-0.276356	-0.323970	0.440383	-0.416355	-0.312229	0.388167	-0.405390	-0.362579	0.426751	-0.416261	-0.352299	0.384411	-0.404637	-0.576137	0.392624	-0.395178	-0.561557	0.377443	-0.306430	-0.623965	0.251798	-0.420157	-0.622206	0.250180	-0.307583	-0.598461	0.205176	-0.360905	-0.614590	0.455517	-0.340679	-0.204730	1.303948	-0.056106	-0.140644	1.335126	-0.418508	
74	0.3650	-0.195507	0.906581	-0.112895	-0.169453	0.902447	-0.376825	-0.338294	0.919969	-0.214577	-0.331819	0.916748	-0.305594	-0.209901	0.732034	-0.080618	-0.160291	0.745411	-0.094603	-0.201154	0.682732	-0.081975	-0.155773	0.699011	-0.092430	-0.115158	0.452809	-0.143095	-0.107960	0.462038	-0.232384	-0.193351	0.333365	-0.121492	-0.145465	0.317381	-0.144254	-0.213042	0.285234	-0.127701	-0.165331	0.275676	-0.147018	-0.291899	0.094248	-0.173344	-0.268331	0.102741	-0.263883	-0.185723	0.033915	-0.150451	-0.161942	0.027414	-0.256222	-0.101171	0.041351	-0.201553	-0.362800	0.070561	-0.233152	-0.212702	0.720514	-0.424329	-0.159703	0.730918	-0.415633	-0.199138	0.684602	-0.426920	-0.152119	0.693618	-0.416788	-0.166918	0.432007	-0.390478	-0.161162	0.433944	-0.275040	-0.293786	0.440899	-0.414788	-0.281471	0.388955	-0.403775	-0.332148	0.426910	-0.414603	-0.321438	0.384787	-0.402944	-0.544593	0.390625	-0.392851	-0.529658	0.375453	-0.304105	-0.589189	0.249441	-0.418512	-0.587719	0.247329	-0.305798	-0.562996	0.203298	-0.359401	-0.584347	0.452427	-0.337966	-0.185564	1.303954	-0.054937	-0.123857	1.335378	-0.418063	
75	0.3700	-0.177640	0.907261	-0.111626	-0.151995	0.903389	-0.375505	-0.320524	0.921063	-0.213049	-0.314318	0.917522	-0.304088	-0.193847	0.732183	-0.079654	-0.144079	0.744655	-0.093574	-0.186151	0.682740	-0.081108	-0.140519	0.698092	-0.091483	-0.105557	0.450977	-0.142488	-0.098242	0.460099	-0.231844	-0.186569	0.333184	-0.121075	-0.138999	0.315986	-0.143891	-0.207513	0.285437	-0.127374	-0.159954	0.274710	-0.146674	-0.291610	0.095511	-0.173286	-0.267744	0.103939	-0.263849	-0.186707	0.033477	-0.150483	-0.162827	0.026674	-0.256305	-0.101896	0.039986	-0.201655	-0.363068	0.072926	-0.232936	-0.192605	0.721915	-0.423204	-0.139839	0.733537	-0.414402	-0.177987	0.686370	-0.425959	-0.131245	0.696486	-0.415624	-0.138311	0.434649	-0.389255	-0.132402	0.436712	-0.273706	-0.264651	0.441492	-0.413237	-0.251661	0.389867	-0.402152	-0.302728	0.427068	-0.412958	-0.291514	0.385199	-0.401237	-0.513992	0.388169	-0.390559	-0.498698	0.373090	-0.301812	-0.555136	0.246525	-0.416782	-0.553947	0.244028	-0.303943	-0.528168	0.200947	-0.357790	-0.555153	0.448845	-0.335341	-0.167076	1.304271	-0.053879	-0.107753	1.335830	-0.417674	
76	0.3750	-0.160522	0.908075	-0.110406	-0.135279	0.904491	-0.374223	-0.303492	0.922305	-0.211559	-0.297536	0.918476	-0.302619	-0.178573	0.732467	-0.078726	-0.128645	0.744030	-0.092586	-0.171934	0.682892	-0.080258	-0.126050	0.697313	-0.090556	-0.096780	0.449315	-0.141864	-0.089330	0.458307	-0.231287	-0.180424	0.333134	-0.120634	-0.133159	0.314807	-0.143472	-0.202512	0.285760	-0.127017	-0.155105	0.273954	-0.146264	-0.291273	0.096814	-0.173174	-0.267157	0.105252	-0.263749	-0.187620	0.033221	-0.150489	-0.163662	0.026221	-0.256348	-0.102625	0.039022	-0.201711	-0.363205	0.075285	-0.232689	-0.173350	0.723531	-0.422112	-0.120844	0.736318	-0.413189	-0.157722	0.688357	-0.425011	-0.111281	0.699524	-0.414467	-0.110888	0.437553	-0.388023	-0.104880	0.439795	-0.272366	-0.236754	0.442152	-0.411713	-0.223005	0.390883	-0.400535	-0.274515	0.427226	-0.411338	-0.262736	0.385643	-0.399532	-0.484559	0.385342	-0.388321	-0.468905	0.370431	-0.299574	-0.522095	0.243158	-0.414992	-0.521174	0.240377	-0.302042	-0.494284	0.198214	-0.356100	-0.527199	0.444874	-0.332822	-0.149371	1.304865	-0.052928	-0.092417	1.336458	-0.417333	
77	0.3800	-0.144253	0.908992	-0.109243	-0.119395	0.905718	-0.372991	-0.287295	0.923658	-0.210123	-0.281570	0.919574	-0.301202	-0.164154	0.732863	-0.077842	-0.114066	0.743527	-0.091645	-0.158562	0.683166	-0.079434	-0.112429	0.696664	-0.089658	-0.088813	0.447822	-0.141231	-0.081213	0.456669	-0.230722	-0.174894	0.333202	-0.120177	-0.127918	0.313834	-0.143009	-0.198014	0.286188	-0.126637	-0.150757	0.273394	-0.145801	-0.290873	0.098137	-0.173016	-0.266553	0.106647	-0.263593	-0.188438	0.033124	-0.150473	-0.164424	0.026018	-0.256355	-0.103327	0.038413	-0.201729	-0.363199	0.077619	-0.232415	-0.155047	0.725314	-0.421060	-0.102821	0.739204	-0.412002	-0.138459	0.690510	-0.424087	-0.092340	0.702672	-0.413327	-0.084823	0.440650	-0.386794	-0.078765	0.443117	-0.271031	-0.210270	0.442864	-0.410229	-0.195699	0.391979	-0.398941	-0.247692	0.427387	-0.409759	-0.235303	0.386110	-0.397848	-0.456500	0.382234	-0.386159	-0.440491	0.367554	-0.297410	-0.490340	0.239451	-0.413171	-0.489670	0.236478	-0.300124	-0.461638	0.195194	-0.354358	-0.500663	0.440619	-0.330429	-0.132550	1.305695	-0.052081	-0.077928	1.337237	-0.417038	
78	0.3850	-0.128925	0.909983	-0.108144	-0.104430	0.907037	-0.371817	-0.272026	0.925084	-0.208756	-0.266507	0.920778	-0.299853	-0.150655	0.733347	-0.077008	-0.100410	0.743131	-0.090758	-0.146088	0.683539	-0.078643	-0.099712	0.696132	-0.088796	-0.081637	0.446500	-0.140597	-0.073877	0.455188	-0.230155	-0.169949	0.333375	-0.119710	-0.123249	0.313055	-0.142514	-0.193992	0.286702	-0.126241	-0.146882	0.273013	-0.145296	-0.290403	0.099459	-0.172818	-0.265921	0.108095	-0.263390	-0.189147	0.033160	-0.150440	-0.165094	0.026023	-0.256332	-0.103980	0.038110	-0.201716	-0.363049	0.079905	-0.232123	-0.137795	0.727216	-0.420060	-0.085867	0.742139	-0.410853	-0.120305	0.692775	-0.423193	-0.074522	0.705869	-0.412215	-0.060272	0.443869	-0.385583	-0.054211	0.446599	-0.269715	-0.185354	0.443615	-0.408796	-0.169919	0.393128	-0.397386	-0.222423	0.427549	-0.408232	-0.209396	0.386594	-0.396202	-0.430003	0.378932	-0.384091	-0.413649	0.364537	-0.295339	-0.460127	0.235513	-0.411346	-0.459686	0.232433	-0.298216	-0.430503	0.191981	-0.352595	-0.475703	0.436186	-0.328176	-0.116706	1.306719	-0.051334	-0.064354	1.338137	-0.416783	
79	0.3900	-0.114619	0.911019	-0.107114	-0.090459	0.908412	-0.370711	-0.257765	0.926546	-0.207469	-0.252429	0.922051	-0.298582	-0.138133	0.733895	-0.076231	-0.087735	0.742830	-0.089929	-0.134554	0.683988	-0.077890	-0.087944	0.695708	-0.087978	-0.075228	0.445345	-0.139972	-0.067298	0.453864	-0.229594	-0.165563	0.333636	-0.119242	-0.119120	0.312455	-0.141998	-0.190419	0.287284	-0.125837	-0.143452	0.272792	-0.144764	-0.289863	0.100763	-0.172590	-0.265261	0.109565	-0.263151	-0.189740	0.033303	-0.150393	-0.165665	0.026199	-0.256286	-0.104566	0.038063	-0.201679	-0.362764	0.082121	-0.231818	-0.121684	0.729187	-0.419117	-0.070065	0.745069	-0.409752	-0.103355	0.695098	-0.422339	-0.057918	0.709057	-0.411141	-0.037372	0.447139	-0.384403	-0.031346	0.450161	-0.268433	-0.162141	0.444388	-0.407425	-0.145820	0.394306	-0.395885	-0.198850	0.427713	-0.406773	-0.185172	0.387085	-0.394613	-0.405233	0.375525	-0.382134	-0.388544	0.361455	-0.293378	-0.431682	0.231452	-0.409545	-0.431446	0.228337	-0.296344	-0.401125	0.188666	-0.350840	-0.452454	0.431678	-0.326076	-0.101919	1.307892	-0.050681	-0.051755	1.339128	-0.416564	
80	0.3950	-0.101400	0.912070	-0.106160	-0.077544	0.909808	-0.369680	-0.244578	0.928011	-0.206274	-0.239400	0.923356	-0.297401	-0.126631	0.734485	-0.075514	-0.076085	0.742613	-0.089164	-0.123991	0.684491	-0.077183	-0.077161	0.695378	-0.087210	-0.069554	0.444351	-0.139365	-0.061450	0.452697	-0.229046	-0.161703	0.333968	-0.118781	-0.115499	0.312016	-0.141473	-0.187269	0.287914	-0.125432	-0.140439	0.272711	-0.144218	-0.289262	0.102029	-0.172340	-0.264575	0.111026	-0.262885	-0.190216	0.033528	-0.150337	-0.166133	0.026504	-0.256222	-0.105077	0.038222	-0.201625	-0.362360	0.084247	-0.231508	-0.106787	0.731180	-0.418239	-0.055482	0.747942	-0.408709	-0.087686	0.697426	-0.421532	-0.042597	0.712179	-0.410116	-0.016233	0.450391	-0.383267	-0.010276	0.453726	-0.267199	-0.140738	0.445166	-0.406129	-0.123530	0.395488	-0.394453	-0.177089	0.427876	-0.405392	-0.162760	0.387576	-0.393098	-0.382321	0.372096	-0.380302	-0.365315	0.358378	-0.291544	-0.405197	0.227371	-0.407794	-0.405141	0.224281	-0.294535	-0.373715	0.185335	-0.349120	-0.431021	0.427192	-0.324140	-0.088257	1.309168	-0.050116	-0.040177	1.340177	-0.416377	
81	0.4000	-0.089319	0.913112	-0.105285	-0.065733	0.911193	-0.368729	-0.232518	0.929445	-0.205178	-0.227473	0.924660	-0.296318	-0.116176	0.735096	-0.074862	-0.065492	0.742466	-0.088466	-0.114419	0.685027	-0.076526	-0.067381	0.695131	-0.086498	-0.064578	0.443510	-0.138782	-0.056300	0.451681	-0.228518	-0.158335	0.334355	-0.118333	-0.112350	0.311719	-0.140952	-0.184514	0.288574	-0.125035	-0.137812	0.272745	-0.143670	-0.288614	0.103240	-0.172077	-0.263872	0.112452	-0.262602	-0.190582	0.033810	-0.150276	-0.166501	0.026902	-0.256145	-0.105509	0.038537	-0.201560	-0.361857	0.086263	-0.231199	-0.093160	0.733150	-0.417432	-0.042169	0.750709	-0.407733	-0.073358	0.699712	-0.420780	-0.028613	0.715183	-0.409150	0.003063	0.453562	-0.382188	0.008927	0.457222	-0.266026	-0.121223	0.445935	-0.404916	-0.103144	0.396648	-0.393104	-0.157224	0.428037	-0.404101	-0.142259	0.388057	-0.391671	-0.361368	0.368720	-0.378609	-0.344064	0.355371	-0.289847	-0.380828	0.223362	-0.406118	-0.380925	0.220345	-0.292811	-0.348445	0.182065	-0.347464	-0.411482	0.422817	-0.322375	-0.075769	1.310501	-0.049633	-0.029649	1.341256	-0.416217	
82	0.4050	-0.078406	0.914121	-0.104492	-0.055056	0.912537	-0.367864	-0.221615	0.930820	-0.204186	-0.216680	0.925931	-0.295337	-0.106782	0.735708	-0.074276	-0.055970	0.742378	-0.087835	-0.105841	0.685576	-0.075923	-0.058613	0.694955	-0.085846	-0.060260	0.442812	-0.138232	-0.051809	0.450811	-0.228017	-0.155426	0.334778	-0.117905	-0.109639	0.311544	-0.140444	-0.182124	0.289244	-0.124652	-0.135543	0.272874	-0.143132	-0.287935	0.104381	-0.171808	-0.263164	0.113817	-0.262313	-0.190847	0.034129	-0.150213	-0.166776	0.027359	-0.256060	-0.105862	0.038963	-0.201488	-0.361281	0.088150	-0.230898	-0.080839	0.735055	-0.416699	-0.030155	0.753329	-0.406830	-0.060408	0.701911	-0.420087	-0.015998	0.718026	-0.408252	0.020468	0.456597	-0.381179	0.026219	0.460583	-0.264927	-0.103641	0.446679	-0.403795	-0.084723	0.397767	-0.391851	-0.139306	0.428194	-0.402910	-0.123732	0.388520	-0.390346	-0.342438	0.365467	-0.377063	-0.324857	0.352493	-0.288297	-0.358684	0.219507	-0.404538	-0.358910	0.216601	-0.291193	-0.325439	0.178925	-0.345894	-0.393880	0.418632	-0.320784	-0.064487	1.311851	-0.049224	-0.020189	1.342333	-0.416082	
83	0.4100	-0.068674	0.915077	-0.103783	-0.045524	0.913815	-0.367086	-0.211884	0.932113	-0.203302	-0.207037	0.927142	-0.294463	-0.098447	0.736305	-0.073756	-0.047516	0.742337	-0.087273	-0.098248	0.686121	-0.075378	-0.050848	0.694838	-0.085256	-0.056554	0.442243	-0.137720	-0.047938	0.450078	-0.227548	-0.152940	0.335220	-0.117503	-0.107329	0.311468	-0.139959	-0.180073	0.289908	-0.124289	-0.133602	0.273072	-0.142617	-0.287243	0.105440	-0.171542	-0.262464	0.115100	-0.262026	-0.191022	0.034463	-0.150151	-0.166969	0.027845	-0.255973	-0.106141	0.039457	-0.201414	-0.360657	0.089893	-0.230611	-0.069839	0.736861	-0.416042	-0.019449	0.755766	-0.406007	-0.048850	0.703986	-0.419458	-0.004760	0.720669	-0.407429	0.035964	0.459446	-0.380248	0.041592	0.463751	-0.263911	-0.088004	0.447386	-0.402772	-0.068296	0.398824	-0.390704	-0.123353	0.428344	-0.401825	-0.107207	0.388959	-0.389134	-0.325557	0.362396	-0.375670	-0.307725	0.349789	-0.286901	-0.338832	0.215876	-0.403073	-0.339160	0.213107	-0.289698	-0.304778	0.175972	-0.344431	-0.378226	0.414706	-0.319369	-0.054423	1.313179	-0.048883	-0.011792	1.343383	-0.415969	
84	0.4150	-0.060114	0.915964	-0.103156	-0.037132	0.915004	-0.366398	-0.203317	0.933303	-0.202526	-0.198539	0.928272	-0.293695	-0.091150	0.736873	-0.073301	-0.040113	0.742332	-0.086779	-0.091616	0.686646	-0.074892	-0.044063	0.694769	-0.084731	-0.053414	0.441792	-0.137252	-0.044639	0.449472	-0.227116	-0.150839	0.335666	-0.117132	-0.105384	0.311472	-0.139505	-0.178331	0.290547	-0.123951	-0.131960	0.273320	-0.142132	-0.286557	0.106407	-0.171285	-0.261787	0.116283	-0.261749	-0.191123	0.034797	-0.150091	-0.167090	0.028334	-0.255886	-0.106352	0.039984	-0.201342	-0.360011	0.091479	-0.230341	-0.060152	0.738539	-0.415463	-0.010040	0.757993	-0.405269	-0.038676	0.705905	-0.418895	0.005114	0.723082	-0.406686	0.049569	0.462070	-0.379402	0.055068	0.466681	-0.262988	-0.074290	0.448043	-0.401854	-0.053850	0.399803	-0.389668	-0.109347	0.428484	-0.400851	-0.092673	0.389366	-0.388041	-0.310716	0.359555	-0.374434	-0.292656	0.347301	-0.285662	-0.321288	0.212527	-0.401738	-0.321697	0.209908	-0.288340	-0.286489	0.173252	-0.343091	-0.364496	0.411091	-0.318128	-0.045568	1.314450	-0.048601	-0.004442	1.344382	-0.415875	
85	0.4200	-0.052699	0.916769	-0.102611	-0.029852	0.916089	-0.365798	-0.195889	0.934378	-0.201857	-0.191163	0.929304	-0.293033	-0.084856	0.737399	-0.072911	-0.033726	0.742354	-0.086351	-0.085908	0.687139	-0.074466	-0.038221	0.694738	-0.084270	-0.050787	0.441443	-0.136831	-0.041867	0.448980	-0.226726	-0.149086	0.336101	-0.116796	-0.103767	0.311535	-0.139089	-0.176870	0.291150	-0.123644	-0.130588	0.273596	-0.141685	-0.285896	0.107274	-0.171044	-0.261145	0.117354	-0.261489	-0.191164	0.035117	-0.150035	-0.167154	0.028806	-0.255803	-0.106504	0.040514	-0.201274	-0.359369	0.092901	-0.230094	-0.051748	0.740065	-0.414960	-0.001894	0.759989	-0.404615	-0.029855	0.707645	-0.418400	0.013659	0.725245	-0.406026	0.061333	0.464439	-0.378648	0.066704	0.469336	-0.262162	-0.062444	0.448643	-0.401041	-0.041340	0.400693	-0.388749	-0.097236	0.428614	-0.399991	-0.080086	0.389736	-0.387073	-0.297866	0.356979	-0.373353	-0.279605	0.345055	-0.284579	-0.306026	0.209499	-0.400541	-0.306495	0.207037	-0.287126	-0.270553	0.170799	-0.341886	-0.352636	0.407829	-0.317056	-0.037892	1.315637	-0.048373	0.001898	1.345310	-0.415797	
86	0.4250	-0.046380	0.917485	-0.102145	-0.023641	0.917056	-0.365283	-0.189555	0.935328	-0.201289	-0.184865	0.930224	-0.292470	-0.079516	0.737875	-0.072580	-0.028305	0.742393	-0.085986	-0.081075	0.687589	-0.074099	-0.033272	0.694735	-0.083872	-0.048625	0.441181	-0.136460	-0.039571	0.448589	-0.226379	-0.147646	0.336513	-0.116497	-0.102441	0.311639	-0.138716	-0.175661	0.291704	-0.123369	-0.129456	0.273883	-0.141284	-0.285275	0.108038	-0.170822	-0.260551	0.118304	-0.261250	-0.191159	0.035413	-0.149986	-0.167173	0.029244	-0.255726	-0.106607	0.041020	-0.201213	-0.358752	0.094152	-0.229872	-0.044578	0.741424	-0.414530	0.005044	0.761745	-0.404048	-0.022332	0.709190	-0.417972	0.020934	0.727146	-0.405450	0.071335	0.466536	-0.377987	0.076584	0.471692	-0.261438	-0.052381	0.449179	-0.400334	-0.030688	0.401484	-0.387948	-0.086938	0.428732	-0.399244	-0.069367	0.390067	-0.386230	-0.286925	0.354692	-0.372425	-0.268490	0.343070	-0.283649	-0.292972	0.206819	-0.399489	-0.293485	0.204514	-0.286062	-0.256904	0.168632	-0.340823	-0.342558	0.404944	-0.316144	-0.031349	1.316719	-0.048191	0.007277	1.346152	-0.415733	
87	0.4300	-0.041095	0.918107	-0.101753	-0.018437	0.917899	-0.364850	-0.184251	0.936149	-0.200817	-0.179585	0.931026	-0.292003	-0.075066	0.738295	-0.072306	-0.023787	0.742444	-0.085681	-0.077054	0.687991	-0.073788	-0.029155	0.694751	-0.083536	-0.046873	0.440992	-0.136138	-0.037702	0.448287	-0.226077	-0.146480	0.336891	-0.116236	-0.101372	0.311767	-0.138389	-0.174677	0.292201	-0.123128	-0.128538	0.274165	-0.140930	-0.284708	0.108696	-0.170624	-0.260015	0.119128	-0.261037	-0.191122	0.035678	-0.149942	-0.167159	0.029637	-0.255657	-0.106670	0.041486	-0.201159	-0.358178	0.095232	-0.229677	-0.038570	0.742608	-0.414170	0.010846	0.763256	-0.403565	-0.016033	0.710531	-0.417609	0.027014	0.728781	-0.404957	0.079685	0.468352	-0.377419	0.084820	0.473738	-0.260814	-0.043988	0.449647	-0.399731	-0.021785	0.402173	-0.387264	-0.078342	0.428836	-0.398609	-0.060406	0.390356	-0.385511	-0.277781	0.352708	-0.371642	-0.259197	0.341353	-0.282864	-0.282017	0.204501	-0.398584	-0.282558	0.202342	-0.285147	-0.245431	0.166763	-0.339905	-0.334152	0.402447	-0.315383	-0.025872	1.317680	-0.048049	0.011757	1.346898	-0.415681	
88	0.4350	-0.036763	0.918634	-0.101431	-0.014166	0.918617	-0.364494	-0.179900	0.936842	-0.200433	-0.175249	0.931708	-0.291622	-0.071433	0.738657	-0.072084	-0.020097	0.742498	-0.085431	-0.073777	0.688340	-0.073530	-0.025798	0.694779	-0.083257	-0.045480	0.440861	-0.135867	-0.036207	0.448059	-0.225820	-0.145555	0.337229	-0.116015	-0.100525	0.311904	-0.138109	-0.173890	0.292636	-0.122923	-0.127806	0.274430	-0.140626	-0.284204	0.109252	-0.170451	-0.259543	0.119827	-0.260851	-0.191066	0.035908	-0.149906	-0.167124	0.029978	-0.255597	-0.106703	0.041899	-0.201113	-0.357662	0.096146	-0.229510	-0.033639	0.743613	-0.413875	0.015599	0.764527	-0.403163	-0.010865	0.711668	-0.417308	0.031994	0.730157	-0.404545	0.086512	0.469887	-0.376942	0.091547	0.475473	-0.260290	-0.037132	0.450046	-0.399227	-0.014494	0.402758	-0.386691	-0.071313	0.428925	-0.398079	-0.053069	0.390602	-0.384910	-0.270295	0.351026	-0.370995	-0.251586	0.339903	-0.282217	-0.273011	0.202544	-0.397821	-0.273569	0.200518	-0.284379	-0.235988	0.165187	-0.339130	-0.327281	0.400337	-0.314760	-0.021380	1.318511	-0.047939	0.015415	1.347542	-0.415640	
