PathFileType	4	(X/Y/Z)	 P8 -65r2 02.trc
DataRate	CameraRate	NumFrames	NumMarkers	Units	OrigDataRate	OrigDataStartFrame	OrigNumFrames
200	200	82	38	m	200	1	82
Frame#	Time	RASIS			LASIS			RPSIS			LPSIS			RThighRear1			RThighFront1			RThighRear2			RThighFront2			RKneeLat			RKneeMed			RShankRear1			RShankFront1			RShankRear2			RShankFront2			RAnkleLat			RAnkleMed			RM5			RM1			RMid			RHeel			LThighRear1			LThighFront1			LThighRear2			LThighFront2			LKneeLat			LKneeMed			LShankRear1			LShankFront1			LShankRear2			LShankFront2			LAnkleLat			LAnkleMed			LM5			LM1			LMid			LHeel			RShoulder			LShoulder			
		X1	Y1	Z1	X2	Y2	Z2	X3	Y3	Z3	X4	Y4	Z4	X5	Y5	Z5	X6	Y6	Z6	X7	Y7	Z7	X8	Y8	Z8	X9	Y9	Z9	X10	Y10	Z10	X11	Y11	Z11	X12	Y12	Z12	X13	Y13	Z13	X14	Y14	Z14	X15	Y15	Z15	X16	Y16	Z16	X17	Y17	Z17	X18	Y18	Z18	X19	Y19	Z19	X20	Y20	Z20	X21	Y21	Z21	X22	Y22	Z22	X23	Y23	Z23	X24	Y24	Z24	X25	Y25	Z25	X26	Y26	Z26	X27	Y27	Z27	X28	Y28	Z28	X29	Y29	Z29	X30	Y30	Z30	X31	Y31	Z31	X32	Y32	Z32	X33	Y33	Z33	X34	Y34	Z34	X35	Y35	Z35	X36	Y36	Z36	X37	Y37	Z37	X38	Y38	Z38	
1	0.0000	-1.320962	0.970255	-0.271346	-1.355302	0.968617	-0.527151	-1.512342	0.991872	-0.330538	-1.522123	0.990417	-0.414898	-1.356340	0.774673	-0.198454	-1.304807	0.779132	-0.213922	-1.349351	0.738559	-0.197575	-1.293677	0.741330	-0.216478	-1.352894	0.456073	-0.237591	-1.358487	0.443777	-0.348795	-1.489768	0.425878	-0.203089	-1.463213	0.386235	-0.220207	-1.529771	0.401769	-0.209271	-1.505654	0.365864	-0.220637	-1.716311	0.295455	-0.241224	-1.704565	0.279591	-0.335110	-1.730392	0.138259	-0.207656	-1.718245	0.134097	-0.327766	-1.682559	0.095852	-0.266752	-1.780587	0.346700	-0.293970	-1.369475	0.777579	-0.581950	-1.320046	0.797102	-0.575739	-1.362259	0.743143	-0.580489	-1.313060	0.761510	-0.579514	-1.268975	0.508441	-0.527104	-1.263091	0.505064	-0.412109	-1.330568	0.365278	-0.550158	-1.279948	0.367823	-0.545812	-1.334023	0.317530	-0.547338	-1.283267	0.323728	-0.546332	-1.293095	0.091508	-0.506225	-1.260324	0.119254	-0.413579	-1.160310	0.046752	-0.530467	-1.137429	0.052258	-0.415426	-1.076379	0.083622	-0.481486	-1.350603	0.061476	-0.449811	-1.309516	1.456552	-0.196813	-1.357319	1.485223	-0.550316	
2	0.0050	-1.307299	0.967948	-0.271657	-1.341204	0.967131	-0.527689	-1.499086	0.988898	-0.331259	-1.508601	0.988424	-0.415755	-1.339321	0.773254	-0.199529	-1.288046	0.778619	-0.215454	-1.331598	0.737444	-0.198535	-1.276263	0.741185	-0.217968	-1.330005	0.456055	-0.239354	-1.335527	0.444046	-0.350550	-1.466184	0.424460	-0.204600	-1.439356	0.385068	-0.221978	-1.506086	0.400073	-0.210686	-1.481710	0.364396	-0.222409	-1.692016	0.292482	-0.242744	-1.680496	0.277120	-0.336747	-1.702125	0.135739	-0.209197	-1.690637	0.131626	-0.329350	-1.653494	0.094480	-0.268626	-1.757778	0.342376	-0.295045	-1.356116	0.776163	-0.582690	-1.306571	0.795449	-0.576601	-1.349151	0.741724	-0.581228	-1.299923	0.759790	-0.580410	-1.257348	0.506386	-0.527514	-1.251693	0.503186	-0.412382	-1.320911	0.364481	-0.550258	-1.270467	0.366007	-0.545680	-1.325463	0.317042	-0.547455	-1.274759	0.322100	-0.546055	-1.291375	0.091593	-0.505370	-1.258405	0.118574	-0.412313	-1.159514	0.045990	-0.530348	-1.136412	0.049976	-0.414919	-1.075029	0.080168	-0.480430	-1.349809	0.061951	-0.449140	-1.298030	1.455067	-0.197328	-1.342674	1.482435	-0.552106	
3	0.0100	-1.293468	0.965646	-0.271960	-1.326911	0.965645	-0.528236	-1.485651	0.985906	-0.331990	-1.494890	0.986416	-0.416619	-1.322096	0.771861	-0.200610	-1.271084	0.778154	-0.216991	-1.313623	0.736363	-0.199508	-1.258635	0.741097	-0.219469	-1.306777	0.456111	-0.241157	-1.312249	0.444393	-0.352347	-1.442252	0.423058	-0.206154	-1.415131	0.383927	-0.223789	-1.482041	0.398371	-0.212141	-1.457387	0.362929	-0.224217	-1.667325	0.289402	-0.244282	-1.656028	0.274533	-0.338407	-1.673372	0.133132	-0.210742	-1.662540	0.129045	-0.330939	-1.623922	0.093038	-0.270507	-1.734602	0.337896	-0.296142	-1.342584	0.774729	-0.583423	-1.292923	0.793767	-0.577456	-1.335878	0.740286	-0.581962	-1.286621	0.758038	-0.581296	-1.245641	0.504288	-0.527929	-1.240201	0.501258	-0.412664	-1.311215	0.363667	-0.550364	-1.260949	0.364160	-0.545555	-1.316877	0.316542	-0.547572	-1.266227	0.320445	-0.545787	-1.289681	0.091677	-0.504519	-1.256510	0.117902	-0.411051	-1.158721	0.045221	-0.530234	-1.135393	0.047701	-0.414416	-1.073672	0.076747	-0.479384	-1.349064	0.062409	-0.448471	-1.286378	1.453575	-0.197848	-1.327791	1.479631	-0.553899	
4	0.0150	-1.279486	0.963376	-0.272250	-1.312434	0.964174	-0.528787	-1.472046	0.982922	-0.332730	-1.481001	0.984409	-0.417485	-1.304698	0.770524	-0.201691	-1.253953	0.777765	-0.218524	-1.295459	0.735347	-0.200491	-1.240826	0.741094	-0.220972	-1.283249	0.456275	-0.243001	-1.288694	0.444853	-0.354188	-1.418000	0.421689	-0.207752	-1.390557	0.382836	-0.225639	-1.457657	0.396672	-0.213639	-1.432698	0.361481	-0.226058	-1.642222	0.286192	-0.245840	-1.631139	0.271803	-0.340088	-1.644106	0.130436	-0.212286	-1.633921	0.126351	-0.332528	-1.593818	0.091532	-0.272384	-1.711033	0.333220	-0.297262	-1.328897	0.773285	-0.584141	-1.279122	0.792065	-0.578291	-1.322461	0.738841	-0.582683	-1.273172	0.756262	-0.582160	-1.233894	0.502154	-0.528349	-1.228653	0.499286	-0.412956	-1.301524	0.362849	-0.550477	-1.251441	0.362297	-0.545442	-1.308308	0.316044	-0.547692	-1.257716	0.318781	-0.545535	-1.288027	0.091772	-0.503685	-1.254653	0.117257	-0.409811	-1.157945	0.044447	-0.530130	-1.134389	0.045455	-0.413922	-1.072327	0.073397	-0.478357	-1.348379	0.062861	-0.447815	-1.274569	1.452094	-0.198370	-1.312672	1.476836	-0.555677	
5	0.0200	-1.265366	0.961166	-0.272526	-1.297777	0.962735	-0.529341	-1.458275	0.979974	-0.333479	-1.466933	0.982421	-0.418352	-1.287153	0.769274	-0.202766	-1.236678	0.777484	-0.220044	-1.277135	0.734426	-0.201486	-1.222862	0.741208	-0.222471	-1.259450	0.456582	-0.244887	-1.264897	0.445459	-0.356074	-1.393446	0.420369	-0.209399	-1.365648	0.381820	-0.227529	-1.432943	0.394986	-0.215183	-1.407647	0.360069	-0.227932	-1.616674	0.282828	-0.247418	-1.605791	0.268904	-0.341791	-1.614287	0.127652	-0.213822	-1.604729	0.123540	-0.334108	-1.563141	0.089973	-0.274246	-1.687032	0.328303	-0.298413	-1.315064	0.771844	-0.584834	-1.265178	0.790351	-0.579098	-1.308910	0.737399	-0.583384	-1.259587	0.754472	-0.582992	-1.222147	0.499994	-0.528774	-1.217082	0.497275	-0.413258	-1.291880	0.362041	-0.550601	-1.241985	0.360434	-0.545344	-1.299796	0.315563	-0.547815	-1.249268	0.317125	-0.545305	-1.286425	0.091896	-0.502880	-1.252845	0.116659	-0.408609	-1.157198	0.043672	-0.530037	-1.133417	0.043255	-0.413442	-1.071011	0.070154	-0.477361	-1.347763	0.063327	-0.447183	-1.262606	1.450638	-0.198890	-1.297312	1.474075	-0.557425	
6	0.0250	-1.251112	0.959045	-0.272782	-1.282936	0.961343	-0.529895	-1.444335	0.977089	-0.334237	-1.452684	0.980472	-0.419219	-1.269480	0.768141	-0.203833	-1.219279	0.777340	-0.221543	-1.258669	0.733631	-0.202490	-1.204764	0.741467	-0.223962	-1.235404	0.457068	-0.246815	-1.240883	0.446244	-0.358006	-1.368601	0.419114	-0.211095	-1.340409	0.380904	-0.229458	-1.407900	0.393323	-0.216776	-1.382230	0.358710	-0.229839	-1.590639	0.279285	-0.249016	-1.579937	0.265810	-0.343515	-1.583860	0.124782	-0.215346	-1.574904	0.120613	-0.335676	-1.531842	0.088372	-0.276086	-1.662545	0.323102	-0.299601	-1.301093	0.770416	-0.585495	-1.251100	0.788632	-0.579868	-1.295235	0.735974	-0.584057	-1.245875	0.752674	-0.583782	-1.210429	0.497815	-0.529200	-1.205515	0.495230	-0.413569	-1.282316	0.361259	-0.550737	-1.232617	0.358586	-0.545268	-1.291373	0.315116	-0.547941	-1.240916	0.315495	-0.545103	-1.284882	0.092064	-0.502116	-1.251095	0.116130	-0.407460	-1.156494	0.042897	-0.529957	-1.132495	0.041122	-0.412978	-1.069743	0.067051	-0.476404	-1.347219	0.063828	-0.446584	-1.250487	1.449228	-0.199406	-1.281703	1.471375	-0.559125	
7	0.0300	-1.236725	0.957041	-0.273016	-1.267906	0.960012	-0.530446	-1.430220	0.974297	-0.335005	-1.438244	0.978581	-0.420084	-1.251693	0.767156	-0.204886	-1.201768	0.777363	-0.223014	-1.240080	0.732991	-0.203505	-1.186547	0.741901	-0.225437	-1.211134	0.457764	-0.248784	-1.216679	0.447239	-0.359985	-1.343476	0.417939	-0.212845	-1.314846	0.380111	-0.231426	-1.382527	0.391690	-0.218419	-1.356441	0.357419	-0.231776	-1.564069	0.275542	-0.250638	-1.553522	0.262500	-0.345260	-1.552768	0.121831	-0.216854	-1.544377	0.117576	-0.337228	-1.499866	0.086748	-0.277894	-1.637513	0.317574	-0.300831	-1.286984	0.769014	-0.586116	-1.236888	0.786918	-0.580591	-1.281439	0.734576	-0.584695	-1.232038	0.750878	-0.584522	-1.198768	0.495628	-0.529627	-1.193977	0.493160	-0.413889	-1.272863	0.360521	-0.550888	-1.223368	0.356773	-0.545215	-1.283069	0.314724	-0.548071	-1.232692	0.313911	-0.544935	-1.283404	0.092297	-0.501404	-1.249407	0.115688	-0.406380	-1.155844	0.042126	-0.529894	-1.131639	0.039070	-0.412533	-1.068541	0.064117	-0.475496	-1.346749	0.064391	-0.446030	-1.238208	1.447879	-0.199914	-1.265833	1.468763	-0.560761	
8	0.0350	-1.222203	0.955181	-0.273225	-1.252675	0.958757	-0.530991	-1.415918	0.971627	-0.335784	-1.423602	0.976767	-0.420947	-1.233804	0.766349	-0.205922	-1.184158	0.777579	-0.224450	-1.221381	0.732537	-0.204529	-1.168224	0.742534	-0.226894	-1.186664	0.458700	-0.250794	-1.192307	0.448471	-0.362008	-1.318076	0.416854	-0.214647	-1.288960	0.379463	-0.233431	-1.356822	0.390095	-0.220113	-1.330274	0.356214	-0.233741	-1.536914	0.271580	-0.252286	-1.526491	0.258955	-0.347027	-1.520951	0.118810	-0.218344	-1.513083	0.114440	-0.338760	-1.467159	0.085123	-0.279663	-1.611873	0.311680	-0.302112	-1.272736	0.767648	-0.586691	-1.222544	0.785218	-0.581262	-1.267522	0.733219	-0.585293	-1.218079	0.749092	-0.585204	-1.187184	0.493445	-0.530053	-1.182488	0.491073	-0.414215	-1.263545	0.359844	-0.551057	-1.214263	0.355013	-0.545190	-1.274906	0.314404	-0.548206	-1.224619	0.312396	-0.544806	-1.281990	0.092614	-0.500756	-1.247783	0.115357	-0.405382	-1.155263	0.041360	-0.529847	-1.130866	0.037113	-0.412109	-1.067423	0.061375	-0.474641	-1.346347	0.065046	-0.445531	-1.225765	1.446610	-0.200412	-1.249690	1.466265	-0.562318	
9	0.0400	-1.207540	0.953492	-0.273410	-1.237234	0.957591	-0.531528	-1.401420	0.969106	-0.336575	-1.408747	0.975049	-0.421810	-1.215823	0.765744	-0.206938	-1.166456	0.778013	-0.225845	-1.202583	0.732293	-0.205562	-1.149807	0.743392	-0.228327	-1.162019	0.459901	-0.252841	-1.167792	0.449962	-0.364074	-1.292414	0.415871	-0.216502	-1.262760	0.378980	-0.235469	-1.330786	0.388546	-0.221858	-1.303726	0.355108	-0.235733	-1.509126	0.267383	-0.253963	-1.498790	0.255160	-0.348816	-1.488356	0.115732	-0.219815	-1.480959	0.111221	-0.340271	-1.433671	0.083523	-0.281388	-1.585562	0.305386	-0.303450	-1.258348	0.766331	-0.587213	-1.208064	0.783539	-0.581874	-1.253485	0.731913	-0.585843	-1.203995	0.747327	-0.585821	-1.175692	0.491278	-0.530477	-1.171062	0.488977	-0.414547	-1.254378	0.359248	-0.551245	-1.205321	0.353325	-0.545195	-1.266899	0.314180	-0.548348	-1.216715	0.310971	-0.544719	-1.280637	0.093038	-0.500183	-1.246217	0.115156	-0.404482	-1.154759	0.040601	-0.529819	-1.130194	0.035263	-0.411707	-1.066407	0.058847	-0.473846	-1.346005	0.065826	-0.445097	-1.213151	1.445440	-0.200895	-1.233265	1.463908	-0.563781	
10	0.0450	-1.192731	0.951997	-0.273567	-1.221572	0.956526	-0.532052	-1.386713	0.966763	-0.337380	-1.393666	0.973447	-0.422671	-1.197758	0.765367	-0.207930	-1.148671	0.778686	-0.227193	-1.183701	0.732281	-0.206604	-1.131306	0.744491	-0.229732	-1.137228	0.461388	-0.254921	-1.143161	0.451730	-0.366179	-1.266502	0.414997	-0.218407	-1.236257	0.378678	-0.237536	-1.304422	0.387047	-0.223650	-1.276798	0.354117	-0.237746	-1.480661	0.262941	-0.255672	-1.470370	0.251109	-0.350628	-1.454936	0.112614	-0.221267	-1.447950	0.107942	-0.341761	-1.399364	0.081979	-0.283064	-1.558523	0.298667	-0.304852	-1.243817	0.765075	-0.587679	-1.193448	0.781893	-0.582423	-1.239326	0.730672	-0.586343	-1.189786	0.745591	-0.586370	-1.164304	0.489140	-0.530896	-1.159710	0.486885	-0.414882	-1.245374	0.358753	-0.551454	-1.196554	0.351732	-0.545233	-1.259059	0.314071	-0.548495	-1.208991	0.309659	-0.544679	-1.279337	0.093590	-0.499693	-1.244703	0.115104	-0.403689	-1.154342	0.039851	-0.529810	-1.129636	0.033529	-0.411329	-1.065509	0.056545	-0.473114	-1.345706	0.066768	-0.444738	-1.200362	1.444384	-0.201362	-1.216553	1.461718	-0.565137	
11	0.0500	-1.177770	0.950720	-0.273698	-1.205681	0.955572	-0.532561	-1.371788	0.964625	-0.338200	-1.378351	0.971979	-0.423534	-1.179617	0.765238	-0.208896	-1.130811	0.779612	-0.228490	-1.164747	0.732521	-0.207653	-1.112733	0.745845	-0.231106	-1.112326	0.463173	-0.257029	-1.118445	0.453785	-0.368315	-1.240360	0.414237	-0.220357	-1.209472	0.378571	-0.239626	-1.277742	0.385603	-0.225487	-1.249502	0.353250	-0.239776	-1.451487	0.258249	-0.257416	-1.441195	0.246801	-0.352463	-1.420659	0.109480	-0.222701	-1.414019	0.104633	-0.343230	-1.364212	0.080526	-0.284689	-1.530708	0.291504	-0.306325	-1.229141	0.763891	-0.588084	-1.178693	0.780290	-0.582906	-1.225044	0.729508	-0.586789	-1.175451	0.743898	-0.586847	-1.153025	0.487046	-0.531309	-1.148440	0.484808	-0.415217	-1.236536	0.358379	-0.551686	-1.187967	0.350254	-0.545305	-1.251387	0.314102	-0.548650	-1.201452	0.308484	-0.544688	-1.278076	0.094294	-0.499294	-1.243227	0.115221	-0.403016	-1.154019	0.039114	-0.529819	-1.129204	0.031919	-0.410973	-1.064742	0.054478	-0.472448	-1.345428	0.067912	-0.444460	-1.187393	1.443461	-0.201809	-1.199551	1.459720	-0.566373	
12	0.0550	-1.162652	0.949679	-0.273803	-1.189555	0.954741	-0.533050	-1.356637	0.962715	-0.339035	-1.362793	0.970663	-0.424397	-1.161412	0.765372	-0.209834	-1.112884	0.780803	-0.229733	-1.145735	0.733026	-0.208710	-1.094100	0.747463	-0.232445	-1.087357	0.465262	-0.259158	-1.093682	0.456131	-0.370477	-1.214016	0.413593	-0.222346	-1.182431	0.378668	-0.241732	-1.250765	0.384216	-0.227362	-1.221857	0.352519	-0.241817	-1.421582	0.253308	-0.259198	-1.411237	0.242243	-0.354320	-1.385506	0.106355	-0.224122	-1.379143	0.101327	-0.344682	-1.328206	0.079201	-0.286260	-1.502075	0.283890	-0.307874	-1.214320	0.762793	-0.588427	-1.163798	0.778739	-0.583322	-1.210639	0.728432	-0.587178	-1.160990	0.742256	-0.587252	-1.141853	0.485012	-0.531715	-1.137254	0.482761	-0.415550	-1.227861	0.358147	-0.551943	-1.179557	0.348913	-0.545414	-1.243880	0.314293	-0.548814	-1.194092	0.307469	-0.544747	-1.276834	0.095174	-0.498995	-1.241768	0.115524	-0.402470	-1.153794	0.038396	-0.529848	-1.128910	0.030438	-0.410639	-1.064119	0.052648	-0.471848	-1.345141	0.069299	-0.444273	-1.174246	1.442684	-0.202233	-1.182264	1.457936	-0.567479	
13	0.0600	-1.147374	0.948888	-0.273885	-1.173190	0.954039	-0.533517	-1.341254	0.961056	-0.339886	-1.346988	0.969517	-0.425263	-1.143152	0.765779	-0.210743	-1.094899	0.782264	-0.230917	-1.126682	0.733803	-0.209773	-1.075422	0.749347	-0.233746	-1.062366	0.467656	-0.261298	-1.068912	0.458764	-0.372654	-1.187502	0.413062	-0.224366	-1.155171	0.378975	-0.243845	-1.223518	0.382887	-0.229268	-1.193893	0.351929	-0.243862	-1.390935	0.248127	-0.261020	-1.380484	0.237450	-0.356200	-1.349479	0.103268	-0.225532	-1.343316	0.098063	-0.346119	-1.291356	0.078043	-0.287779	-1.472601	0.275826	-0.309503	-1.199354	0.761792	-0.588709	-1.148764	0.777253	-0.583671	-1.196110	0.727456	-0.587510	-1.146402	0.740680	-0.587586	-1.130783	0.483055	-0.532114	-1.126148	0.480758	-0.415879	-1.219339	0.358077	-0.552225	-1.171316	0.347731	-0.545559	-1.236522	0.314666	-0.548986	-1.186902	0.306637	-0.544858	-1.275586	0.096253	-0.498801	-1.240302	0.116031	-0.402059	-1.153668	0.037702	-0.529893	-1.128759	0.029093	-0.410326	-1.063650	0.051052	-0.471314	-1.344809	0.070971	-0.444182	-1.160920	1.442068	-0.202632	-1.164704	1.456386	-0.568445	
14	0.0650	-1.131933	0.948360	-0.273944	-1.156589	0.953473	-0.533957	-1.325637	0.959668	-0.340752	-1.330935	0.968554	-0.426132	-1.124850	0.766466	-0.211620	-1.076869	0.783992	-0.232041	-1.107607	0.734856	-0.210838	-1.056714	0.751491	-0.235007	-1.037409	0.470344	-0.263439	-1.044183	0.461672	-0.374835	-1.160860	0.412639	-0.226408	-1.127739	0.379490	-0.245954	-1.196038	0.381615	-0.231195	-1.165650	0.351485	-0.245902	-1.359552	0.242719	-0.262883	-1.348940	0.232440	-0.358101	-1.312595	0.100252	-0.226938	-1.306557	0.094886	-0.347547	-1.253691	0.077094	-0.289248	-1.442272	0.267325	-0.311215	-1.184244	0.760899	-0.588929	-1.133592	0.775843	-0.583956	-1.181460	0.726592	-0.587785	-1.131689	0.739182	-0.587852	-1.119801	0.481192	-0.532505	-1.115114	0.478816	-0.416203	-1.210950	0.358188	-0.552534	-1.163226	0.346729	-0.545742	-1.229296	0.315242	-0.549169	-1.179861	0.306010	-0.545020	-1.274303	0.097557	-0.498715	-1.238800	0.116757	-0.401788	-1.153641	0.037040	-0.529956	-1.128755	0.027889	-0.410035	-1.063342	0.049682	-0.470844	-1.344390	0.072972	-0.444191	-1.147421	1.441624	-0.203004	-1.146888	1.455089	-0.569265	
15	0.0700	-1.116329	0.948100	-0.273985	-1.139756	0.953049	-0.534367	-1.309787	0.958565	-0.341633	-1.314637	0.967790	-0.427003	-1.106519	0.767432	-0.212464	-1.058803	0.785981	-0.233103	-1.088529	0.736181	-0.211905	-1.037993	0.753885	-0.236224	-1.012543	0.473311	-0.265571	-1.019546	0.464836	-0.377009	-1.134138	0.412316	-0.228459	-1.100188	0.380211	-0.248049	-1.168368	0.380398	-0.233133	-1.137177	0.351188	-0.247929	-1.327452	0.237105	-0.264790	-1.316626	0.227244	-0.360022	-1.274892	0.097339	-0.228347	-1.268902	0.091840	-0.348973	-1.215260	0.076393	-0.290671	-1.411095	0.258412	-0.313012	-1.168995	0.760126	-0.589091	-1.118284	0.774523	-0.584180	-1.166688	0.725850	-0.588007	-1.116852	0.737775	-0.588054	-1.108891	0.479439	-0.532889	-1.104139	0.476951	-0.416520	-1.202669	0.358500	-0.552871	-1.155261	0.345927	-0.545964	-1.222171	0.316041	-0.549364	-1.172943	0.305610	-0.545233	-1.272946	0.099108	-0.498740	-1.237224	0.117717	-0.401660	-1.153705	0.036422	-0.530032	-1.128895	0.026830	-0.409763	-1.063198	0.048526	-0.470437	-1.343834	0.075344	-0.444304	-1.133753	1.441362	-0.203346	-1.128839	1.454059	-0.569934	
16	0.0750	-1.100562	0.948112	-0.274010	-1.122699	0.952770	-0.534745	-1.293707	0.957761	-0.342526	-1.298100	0.967234	-0.427877	-1.088176	0.768670	-0.213276	-1.040716	0.788215	-0.234102	-1.069469	0.737768	-0.212969	-1.019276	0.756510	-0.237396	-0.987831	0.476532	-0.267681	-0.995054	0.468231	-0.379162	-1.107390	0.412081	-0.230508	-1.072579	0.381127	-0.250118	-1.140562	0.379229	-0.235071	-1.108533	0.351035	-0.249933	-1.294672	0.231310	-0.266740	-1.283577	0.221893	-0.361961	-1.236427	0.094564	-0.229766	-1.230412	0.088972	-0.350402	-1.176132	0.075978	-0.292056	-1.379088	0.249119	-0.314894	-1.153610	0.759482	-0.589198	-1.102845	0.773303	-0.584348	-1.151797	0.725240	-0.588177	-1.101894	0.736472	-0.588199	-1.098027	0.477812	-0.533268	-1.093201	0.475180	-0.416829	-1.194462	0.359028	-0.553236	-1.147390	0.345343	-0.546226	-1.215113	0.317080	-0.549572	-1.166112	0.305455	-0.545496	-1.271476	0.100931	-0.498879	-1.235534	0.118925	-0.401677	-1.153850	0.035861	-0.530121	-1.129173	0.025924	-0.409510	-1.063217	0.047565	-0.470089	-1.343086	0.078129	-0.444523	-1.119926	1.441290	-0.203656	-1.110588	1.453307	-0.570451	
17	0.0800	-1.084637	0.948392	-0.274024	-1.105431	0.952639	-0.535086	-1.277404	0.957262	-0.343428	-1.281334	0.966897	-0.428752	-1.069834	0.770168	-0.214053	-1.022620	0.790675	-0.235037	-1.050448	0.739601	-0.214028	-1.000584	0.759343	-0.238519	-0.963338	0.479976	-0.269758	-0.970766	0.471823	-0.381281	-1.080675	0.411917	-0.232541	-1.044980	0.382223	-0.252151	-1.112677	0.378102	-0.236997	-1.079785	0.351021	-0.251905	-1.261259	0.225364	-0.268734	-1.249846	0.216426	-0.363915	-1.197275	0.091960	-0.231205	-1.191165	0.086329	-0.351845	-1.136392	0.075885	-0.293410	-1.346288	0.239490	-0.316860	-1.138094	0.758977	-0.589258	-1.087278	0.772196	-0.584467	-1.136788	0.724770	-0.588302	-1.086817	0.735287	-0.588295	-1.087178	0.476328	-0.533645	-1.082276	0.473518	-0.417133	-1.186291	0.359787	-0.553631	-1.139572	0.344995	-0.546528	-1.208078	0.318374	-0.549797	-1.159328	0.305562	-0.545808	-1.269845	0.103046	-0.499129	-1.233684	0.120393	-0.401837	-1.154063	0.035374	-0.530221	-1.129577	0.025176	-0.409276	-1.063395	0.046780	-0.469798	-1.342085	0.081366	-0.444847	-1.105949	1.441410	-0.203934	-1.092167	1.452840	-0.570815	
18	0.0850	-1.068556	0.948932	-0.274030	-1.087965	0.952655	-0.535388	-1.260887	0.957071	-0.344338	-1.264351	0.966783	-0.429625	-1.051510	0.771907	-0.214796	-1.004530	0.793334	-0.235907	-1.031489	0.741658	-0.215078	-0.981934	0.762353	-0.239593	-0.939129	0.483606	-0.271790	-0.946739	0.475573	-0.383354	-1.054053	0.411808	-0.234544	-1.017460	0.383480	-0.254134	-1.084778	0.377008	-0.238899	-1.051004	0.351135	-0.253836	-1.227278	0.219302	-0.270770	-1.215502	0.210884	-0.365884	-1.157527	0.089558	-0.232674	-1.151260	0.083955	-0.353311	-1.096145	0.076144	-0.294744	-1.312749	0.229577	-0.318905	-1.122453	0.758618	-0.589275	-1.071589	0.771215	-0.584544	-1.121663	0.724448	-0.588387	-1.071622	0.734231	-0.588350	-1.076310	0.475000	-0.534024	-1.071330	0.471981	-0.417433	-1.178107	0.360790	-0.554058	-1.131763	0.344895	-0.546871	-1.201017	0.319936	-0.550040	-1.152540	0.305946	-0.546168	-1.268004	0.105475	-0.499491	-1.231625	0.122131	-0.402140	-1.154323	0.034978	-0.530329	-1.130088	0.024596	-0.409061	-1.063721	0.046148	-0.469560	-1.340765	0.085091	-0.445275	-1.091834	1.441726	-0.204177	-1.073616	1.452661	-0.571029	
19	0.0900	-1.052324	0.949721	-0.274032	-1.070320	0.952817	-0.535649	-1.244167	0.957186	-0.345249	-1.247165	0.966896	-0.430496	-1.033219	0.773865	-0.215504	-0.986457	0.796160	-0.236713	-1.012612	0.743911	-0.216114	-0.963346	0.765507	-0.240613	-0.915268	0.487377	-0.273765	-0.923031	0.479438	-0.385366	-1.027590	0.411733	-0.236505	-0.990094	0.384874	-0.256058	-1.056932	0.375934	-0.240765	-1.022267	0.351366	-0.255717	-1.192805	0.213161	-0.272846	-1.180627	0.205311	-0.367864	-1.117290	0.087386	-0.234183	-1.110811	0.081889	-0.354810	-1.055508	0.076776	-0.296070	-1.278539	0.219438	-0.321025	-1.106692	0.758412	-0.589259	-1.055783	0.770369	-0.584588	-1.106422	0.724278	-0.588440	-1.056310	0.733317	-0.588374	-1.065380	0.473839	-0.534411	-1.060327	0.470581	-0.417732	-1.169859	0.362044	-0.554517	-1.123909	0.345054	-0.547258	-1.193876	0.321774	-0.550304	-1.145695	0.306615	-0.546575	-1.265899	0.108236	-0.499959	-1.229302	0.124149	-0.402580	-1.154606	0.034698	-0.530443	-1.130682	0.024194	-0.408868	-1.064180	0.045646	-0.469374	-1.339060	0.089334	-0.445802	-1.077590	1.442234	-0.204385	-1.054976	1.452767	-0.571098	
20	0.0950	-1.035949	0.950740	-0.274035	-1.052514	0.953123	-0.535867	-1.227258	0.957598	-0.346157	-1.229794	0.967234	-0.431358	-1.014977	0.776011	-0.216177	-0.968416	0.799116	-0.237454	-0.993838	0.746329	-0.217131	-0.944836	0.768762	-0.241579	-0.891815	0.491241	-0.275671	-0.899696	0.483370	-0.387306	-1.001348	0.411667	-0.238410	-0.962956	0.386378	-0.257913	-1.029207	0.374869	-0.242585	-0.993652	0.351696	-0.257539	-1.157926	0.206980	-0.274961	-1.145317	0.199752	-0.369853	-1.076684	0.085465	-0.235744	-1.069951	0.080166	-0.356353	-1.014611	0.077799	-0.297402	-1.243739	0.209139	-0.323213	-1.090814	0.758362	-0.589218	-1.039862	0.769668	-0.584608	-1.091065	0.724264	-0.588468	-1.040881	0.732554	-0.588379	-1.054343	0.472854	-0.534811	-1.049224	0.469328	-0.418037	-1.161490	0.363555	-0.555010	-1.115954	0.345480	-0.547691	-1.186594	0.323892	-0.550593	-1.138734	0.307576	-0.547027	-1.263472	0.111346	-0.500531	-1.226659	0.126454	-0.403154	-1.154883	0.034556	-0.530561	-1.131329	0.023982	-0.408697	-1.064750	0.045248	-0.469237	-1.336897	0.094121	-0.446426	-1.063229	1.442930	-0.204559	-1.036289	1.453151	-0.571029	
21	0.1000	-1.019436	0.951968	-0.274041	-1.034569	0.953568	-0.536040	-1.210175	0.958296	-0.347058	-1.212256	0.967795	-0.432210	-0.996797	0.778311	-0.216815	-0.950416	0.802160	-0.238131	-0.975183	0.748873	-0.218124	-0.926420	0.772077	-0.242488	-0.868827	0.495147	-0.277500	-0.876788	0.487318	-0.389163	-0.975390	0.411588	-0.240248	-0.936118	0.387960	-0.259690	-1.001674	0.373798	-0.244348	-0.965239	0.352107	-0.259297	-1.122740	0.200797	-0.277111	-1.109678	0.194250	-0.371849	-1.035839	0.083814	-0.237366	-1.028823	0.078810	-0.357949	-0.973593	0.079218	-0.298754	-1.208447	0.198748	-0.325463	-1.074825	0.758470	-0.589162	-1.023832	0.769120	-0.584613	-1.075590	0.724405	-0.588480	-1.025334	0.731949	-0.588376	-1.043150	0.472050	-0.535234	-1.037972	0.468231	-0.418352	-1.152939	0.365325	-0.555539	-1.107839	0.346176	-0.548171	-1.179109	0.326293	-0.550910	-1.131594	0.308831	-0.547524	-1.260667	0.114818	-0.501200	-1.223640	0.129053	-0.403854	-1.155118	0.034579	-0.530683	-1.131990	0.023976	-0.408553	-1.065406	0.044930	-0.469148	-1.334206	0.099472	-0.447138	-1.048762	1.443805	-0.204697	-1.017599	1.453802	-0.570831	
22	0.1050	-1.002792	0.953380	-0.274053	-1.016505	0.954146	-0.536168	-1.192933	0.959259	-0.347943	-1.194569	0.968569	-0.433045	-0.978691	0.780727	-0.217418	-0.932470	0.805249	-0.238745	-0.956665	0.751503	-0.219089	-0.908112	0.775403	-0.243337	-0.846353	0.499041	-0.279243	-0.854351	0.491230	-0.390927	-0.949774	0.411469	-0.242009	-0.909649	0.389587	-0.261382	-0.974401	0.372705	-0.246047	-0.937106	0.352577	-0.260984	-1.087352	0.194653	-0.279291	-1.073826	0.188848	-0.373849	-0.994896	0.082443	-0.239061	-0.987578	0.077841	-0.359610	-0.932601	0.081029	-0.300141	-1.172769	0.188337	-0.327764	-1.058725	0.758733	-0.589099	-1.007692	0.768729	-0.584614	-1.059993	0.724700	-0.588487	-1.009666	0.731509	-0.588375	-1.031750	0.471429	-0.535687	-1.026521	0.467292	-0.418686	-1.144143	0.367350	-0.556107	-1.099500	0.347139	-0.548702	-1.171354	0.328971	-0.551260	-1.124208	0.310377	-0.548063	-1.257425	0.118662	-0.501960	-1.220187	0.131949	-0.404672	-1.155272	0.034796	-0.530807	-1.132622	0.024191	-0.408440	-1.066112	0.044671	-0.469107	-1.330918	0.105399	-0.447932	-1.034198	1.444847	-0.204801	-0.998947	1.454704	-0.570514	
23	0.1100	-0.986026	0.954946	-0.274074	-0.998344	0.954848	-0.536249	-1.175548	0.960467	-0.348808	-1.176754	0.969545	-0.433859	-0.960672	0.783217	-0.217984	-0.914585	0.808335	-0.239296	-0.938296	0.754173	-0.220018	-0.889924	0.778693	-0.244124	-0.824433	0.502866	-0.280893	-0.832428	0.495051	-0.392591	-0.924556	0.411286	-0.243683	-0.883614	0.391222	-0.262983	-0.947453	0.371574	-0.247673	-0.909328	0.353080	-0.262597	-1.051874	0.188583	-0.281498	-1.037885	0.183583	-0.375851	-0.953999	0.081355	-0.240838	-0.946378	0.077264	-0.361346	-0.891784	0.083217	-0.301578	-1.136825	0.177980	-0.330108	-1.042517	0.759148	-0.589041	-0.991445	0.768499	-0.584619	-1.044271	0.725143	-0.588497	-0.993872	0.731236	-0.588388	-1.020087	0.470990	-0.536180	-1.014817	0.466510	-0.419047	-1.135038	0.369623	-0.556715	-1.090872	0.348365	-0.549286	-1.163262	0.331918	-0.551646	-1.116512	0.312207	-0.548646	-1.253687	0.122885	-0.502803	-1.216241	0.135143	-0.405600	-1.155299	0.035235	-0.530933	-1.133174	0.024644	-0.408363	-1.066829	0.044449	-0.469115	-1.326964	0.111905	-0.448798	-1.019545	1.446040	-0.204872	-0.980374	1.455837	-0.570091	
24	0.1150	-0.969146	0.956635	-0.274105	-0.980107	0.955665	-0.536284	-1.158037	0.961890	-0.349647	-1.158829	0.970707	-0.434647	-0.942747	0.785737	-0.218514	-0.896770	0.811371	-0.239784	-0.920087	0.756839	-0.220907	-0.871865	0.781898	-0.244847	-0.803102	0.506569	-0.282446	-0.811051	0.498731	-0.394148	-0.899786	0.411012	-0.245264	-0.858071	0.392828	-0.264492	-0.920893	0.370387	-0.249222	-0.881974	0.353591	-0.264131	-1.016424	0.182624	-0.283727	-1.001983	0.178489	-0.377854	-0.913299	0.080544	-0.242705	-0.905388	0.077076	-0.363166	-0.851296	0.085756	-0.303081	-1.100741	0.167748	-0.332485	-1.026199	0.759708	-0.588997	-0.975091	0.768429	-0.584637	-1.028416	0.725726	-0.588521	-0.977946	0.731129	-0.588426	-1.008109	0.470725	-0.536723	-1.002806	0.465883	-0.419445	-1.125560	0.372131	-0.557367	-1.081893	0.349842	-0.549929	-1.154767	0.335121	-0.552072	-1.108438	0.314306	-0.549272	-1.249398	0.127488	-0.503723	-1.211747	0.138634	-0.406629	-1.155150	0.035926	-0.531063	-1.133589	0.025353	-0.408329	-1.067510	0.044247	-0.469174	-1.322281	0.118987	-0.449729	-1.004809	1.447367	-0.204910	-0.961918	1.457175	-0.569576	
25	0.1200	-0.952159	0.958413	-0.274147	-0.961815	0.956584	-0.536272	-1.140417	0.963497	-0.350453	-1.140813	0.972034	-0.435403	-0.924924	0.788242	-0.219007	-0.879028	0.814306	-0.240209	-0.902046	0.759453	-0.221750	-0.853943	0.784968	-0.245504	-0.782382	0.510094	-0.283898	-0.790247	0.502218	-0.395594	-0.875507	0.410623	-0.246748	-0.833071	0.394367	-0.265905	-0.894777	0.369128	-0.250691	-0.855111	0.354081	-0.265588	-0.981123	0.176806	-0.285971	-0.966254	0.173596	-0.379856	-0.872948	0.079997	-0.244670	-0.864774	0.077261	-0.365076	-0.811287	0.088607	-0.304664	-1.064652	0.157712	-0.334882	-1.009770	0.760401	-0.588977	-0.958626	0.768515	-0.584677	-1.012421	0.726437	-0.588567	-0.961882	0.731184	-0.588497	-0.995761	0.470625	-0.537325	-0.990432	0.465400	-0.419891	-1.115647	0.374859	-0.558064	-1.072499	0.351555	-0.550633	-1.145804	0.338562	-0.552545	-1.099922	0.316659	-0.549942	-1.244504	0.132470	-0.504711	-1.206652	0.142419	-0.407748	-1.154770	0.036896	-0.531197	-1.133805	0.026336	-0.408344	-1.068102	0.044051	-0.469288	-1.316811	0.126631	-0.450713	-0.989995	1.448805	-0.204919	-0.943612	1.458691	-0.568982	
26	0.1250	-0.935076	0.960244	-0.274200	-0.943488	0.957592	-0.536216	-1.122704	0.965251	-0.351221	-1.122727	0.973503	-0.436123	-0.907210	0.790684	-0.219463	-0.861366	0.817093	-0.240571	-0.884177	0.761967	-0.222542	-0.836161	0.787854	-0.246091	-0.762287	0.513392	-0.285250	-0.770031	0.505465	-0.396929	-0.851757	0.410097	-0.248132	-0.808659	0.395802	-0.267225	-0.869158	0.367780	-0.252080	-0.828795	0.354522	-0.266967	-0.946095	0.171157	-0.288226	-0.930831	0.168925	-0.381856	-0.833097	0.079693	-0.246737	-0.824702	0.077792	-0.367082	-0.771906	0.091723	-0.306340	-1.028698	0.147938	-0.337289	-0.993227	0.761214	-0.588989	-0.942048	0.768750	-0.584745	-0.996278	0.727261	-0.588645	-0.945670	0.731394	-0.588610	-0.982994	0.470674	-0.537997	-0.977642	0.465049	-0.420394	-1.105238	0.377786	-0.558811	-1.062631	0.353484	-0.551402	-1.136312	0.342217	-0.553068	-1.090902	0.319241	-0.550655	-1.238956	0.137821	-0.505758	-1.200907	0.146491	-0.408949	-1.154100	0.038171	-0.531338	-1.133755	0.027611	-0.408418	-1.068544	0.043851	-0.469462	-1.310503	0.134814	-0.451742	-0.975107	1.450330	-0.204898	-0.925489	1.460353	-0.568326	
27	0.1300	-0.917905	0.962093	-0.274263	-0.925143	0.958672	-0.536116	-1.104916	0.967114	-0.351946	-1.104588	0.975088	-0.436803	-0.889606	0.793017	-0.219881	-0.843784	0.819685	-0.240872	-0.866482	0.764334	-0.223278	-0.818523	0.790511	-0.246608	-0.742821	0.516413	-0.286501	-0.750414	0.508428	-0.398152	-0.828564	0.409413	-0.249418	-0.784867	0.397096	-0.268455	-0.844080	0.366329	-0.253390	-0.803077	0.354885	-0.268271	-0.911464	0.165700	-0.290485	-0.895849	0.164492	-0.383853	-0.793898	0.079603	-0.248910	-0.785335	0.078631	-0.369189	-0.733296	0.095042	-0.308120	-0.993023	0.138489	-0.339696	-0.976566	0.762129	-0.589040	-0.925354	0.769124	-0.584849	-0.979979	0.728180	-0.588762	-0.929303	0.731747	-0.588773	-0.969758	0.470856	-0.538748	-0.964386	0.464814	-0.420965	-1.094279	0.380887	-0.559611	-1.052233	0.355607	-0.552241	-1.126231	0.346059	-0.553646	-1.081320	0.322028	-0.551413	-1.232710	0.143530	-0.506858	-1.194467	0.150840	-0.410221	-1.153079	0.039775	-0.531490	-1.133368	0.029192	-0.408558	-1.068772	0.043641	-0.469701	-1.303313	0.143505	-0.452805	-0.960146	1.451916	-0.204852	-0.907572	1.462126	-0.567620	
28	0.1350	-0.900656	0.963923	-0.274333	-0.906798	0.959807	-0.535973	-1.087069	0.969044	-0.352624	-1.086414	0.976757	-0.437438	-0.872116	0.795196	-0.220260	-0.826286	0.822037	-0.241111	-0.848960	0.766511	-0.223953	-0.801026	0.792897	-0.247051	-0.723976	0.519116	-0.287656	-0.731394	0.511068	-0.399267	-0.805953	0.408553	-0.250609	-0.761723	0.398215	-0.269599	-0.819583	0.364761	-0.254624	-0.778001	0.355143	-0.269506	-0.877354	0.160454	-0.292741	-0.861439	0.160306	-0.385848	-0.755495	0.079691	-0.251189	-0.746830	0.079729	-0.371397	-0.695595	0.098497	-0.310014	-0.957772	0.129421	-0.342091	-0.959781	0.763126	-0.589138	-0.908538	0.769622	-0.584992	-0.963513	0.729174	-0.588928	-0.912771	0.732229	-0.588991	-0.956011	0.471148	-0.539586	-0.950616	0.464674	-0.421613	-1.082719	0.384134	-0.560466	-1.041254	0.357895	-0.553153	-1.115511	0.350058	-0.554285	-1.071124	0.324987	-0.552218	-1.225726	0.149578	-0.508000	-1.187295	0.155452	-0.411553	-1.151643	0.041727	-0.531657	-1.132569	0.031091	-0.408772	-1.068713	0.043419	-0.470011	-1.295208	0.152662	-0.453892	-0.945115	1.453534	-0.204782	-0.889884	1.463974	-0.566882	
29	0.1400	-0.883340	0.965700	-0.274408	-0.888469	0.960978	-0.535789	-1.069180	0.970999	-0.353250	-1.068222	0.978476	-0.438025	-0.854740	0.797179	-0.220601	-0.808871	0.824110	-0.241289	-0.831609	0.768455	-0.224563	-0.783671	0.794972	-0.247421	-0.705739	0.521463	-0.288719	-0.712962	0.513352	-0.400278	-0.783938	0.407502	-0.251709	-0.739244	0.399126	-0.270666	-0.795698	0.363063	-0.255787	-0.753601	0.355266	-0.270677	-0.843885	0.155430	-0.294989	-0.827731	0.156369	-0.387840	-0.718032	0.079913	-0.253570	-0.709337	0.081026	-0.373706	-0.658931	0.102011	-0.312027	-0.923092	0.120783	-0.344465	-0.942868	0.764182	-0.589288	-0.891595	0.770228	-0.585177	-0.946871	0.730219	-0.589146	-0.896064	0.732823	-0.589268	-0.941712	0.471528	-0.540519	-0.936291	0.464607	-0.422348	-1.070514	0.387496	-0.561382	-1.029650	0.360318	-0.554141	-1.104105	0.354180	-0.554988	-1.060269	0.328087	-0.553070	-1.217973	0.155940	-0.509180	-1.179357	0.160311	-0.412937	-1.149723	0.044040	-0.531844	-1.131282	0.033317	-0.409071	-1.068291	0.043189	-0.470401	-1.286164	0.162237	-0.454997	-0.930012	1.455154	-0.204690	-0.872440	1.465860	-0.566126	
30	0.1450	-0.865968	0.967388	-0.274484	-0.870168	0.962162	-0.535567	-1.051266	0.972934	-0.353824	-1.050029	0.980211	-0.438564	-0.837478	0.798926	-0.220902	-0.791540	0.825866	-0.241406	-0.814424	0.770129	-0.225105	-0.766453	0.796702	-0.247715	-0.688084	0.523422	-0.289697	-0.695104	0.515253	-0.401191	-0.762528	0.406250	-0.252726	-0.717439	0.399801	-0.271663	-0.772451	0.361227	-0.256887	-0.729904	0.355231	-0.271791	-0.811176	0.150639	-0.297222	-0.794849	0.152675	-0.389829	-0.681642	0.080224	-0.256050	-0.672997	0.082457	-0.376112	-0.623423	0.105501	-0.314163	-0.889126	0.112620	-0.346808	-0.925819	0.765273	-0.589495	-0.874520	0.770922	-0.585407	-0.930044	0.731289	-0.589423	-0.879174	0.733508	-0.589607	-0.926830	0.471969	-0.541553	-0.921374	0.464589	-0.423178	-1.057627	0.390940	-0.562360	-1.017382	0.362844	-0.555210	-1.091976	0.358388	-0.555761	-1.048713	0.331289	-0.553972	-1.209424	0.162587	-0.510389	-1.170629	0.165395	-0.414364	-1.147254	0.046722	-0.532059	-1.129429	0.035874	-0.409461	-1.067426	0.042955	-0.470878	-1.276168	0.172171	-0.456110	-0.914838	1.456744	-0.204578	-0.855253	1.467745	-0.565366	
31	0.1500	-0.848553	0.968957	-0.274557	-0.851911	0.963338	-0.535308	-1.033343	0.974805	-0.354343	-1.031850	0.981924	-0.439052	-0.820327	0.800401	-0.221164	-0.774291	0.827274	-0.241464	-0.797399	0.771499	-0.225576	-0.749367	0.798059	-0.247934	-0.670981	0.524970	-0.290597	-0.677794	0.516750	-0.402014	-0.741726	0.404788	-0.253670	-0.696309	0.400216	-0.272601	-0.749862	0.359246	-0.257932	-0.706929	0.355014	-0.272858	-0.779342	0.146083	-0.299433	-0.762911	0.149215	-0.391816	-0.646451	0.080573	-0.258620	-0.637941	0.083950	-0.378607	-0.589179	0.108880	-0.316422	-0.856016	0.104964	-0.349111	-0.908629	0.766372	-0.589759	-0.857308	0.771681	-0.585681	-0.913024	0.732358	-0.589763	-0.862094	0.734261	-0.590007	-0.911338	0.472445	-0.542691	-0.905835	0.464595	-0.424107	-1.044027	0.394431	-0.563406	-1.004419	0.365438	-0.556361	-1.079091	0.362645	-0.556607	-1.036426	0.334558	-0.554926	-1.200062	0.169484	-0.511622	-1.161090	0.170681	-0.415826	-1.144164	0.049774	-0.532307	-1.126932	0.038760	-0.409952	-1.066034	0.042727	-0.471450	-1.265217	0.182398	-0.457226	-0.899593	1.458273	-0.204449	-0.838329	1.469591	-0.564615	
32	0.1550	-0.831106	0.970376	-0.274623	-0.833707	0.964482	-0.535017	-1.015428	0.976569	-0.354807	-1.013701	0.983575	-0.439491	-0.803286	0.801575	-0.221386	-0.757123	0.828310	-0.241464	-0.780526	0.772538	-0.225975	-0.732408	0.799022	-0.248079	-0.654392	0.526088	-0.291429	-0.661002	0.517831	-0.402757	-0.721529	0.403115	-0.254550	-0.675849	0.400350	-0.273490	-0.727943	0.357115	-0.258931	-0.684688	0.354594	-0.273886	-0.748490	0.141762	-0.301616	-0.732027	0.145972	-0.393802	-0.612577	0.080908	-0.261268	-0.604286	0.085427	-0.381183	-0.556298	0.112059	-0.318802	-0.823897	0.097844	-0.351367	-0.891293	0.767450	-0.590084	-0.839954	0.772483	-0.585998	-0.895804	0.733399	-0.590166	-0.844814	0.735058	-0.590467	-0.895216	0.472930	-0.543937	-0.889652	0.464599	-0.425141	-1.029693	0.397934	-0.564521	-0.990738	0.368066	-0.557596	-1.065428	0.366911	-0.557532	-1.023383	0.337853	-0.555932	-1.189873	0.176591	-0.512874	-1.150730	0.176142	-0.417316	-1.140387	0.053190	-0.532598	-1.123713	0.041966	-0.410549	-1.064028	0.042519	-0.472125	-1.253318	0.192848	-0.458340	-0.884275	1.459710	-0.204304	-0.821671	1.471359	-0.563886	
33	0.1600	-0.813641	0.971620	-0.274677	-0.815566	0.965570	-0.534694	-0.997537	0.978186	-0.355216	-0.995596	0.985127	-0.439880	-0.786351	0.802422	-0.221569	-0.740035	0.828953	-0.241407	-0.763797	0.773225	-0.226302	-0.715568	0.799573	-0.248149	-0.638275	0.526766	-0.292202	-0.644694	0.518489	-0.403430	-0.701928	0.401230	-0.255380	-0.656045	0.400187	-0.274343	-0.706703	0.354835	-0.259895	-0.663187	0.353955	-0.274887	-0.718721	0.137673	-0.303765	-0.702298	0.142926	-0.395785	-0.580127	0.081177	-0.263982	-0.572136	0.086813	-0.383829	-0.524865	0.114952	-0.321296	-0.792898	0.091276	-0.353569	-0.873805	0.768481	-0.590467	-0.822454	0.773301	-0.586354	-0.878377	0.734384	-0.590634	-0.827332	0.735875	-0.590985	-0.878451	0.473397	-0.545289	-0.872810	0.464576	-0.426281	-1.014611	0.401413	-0.565709	-0.976323	0.370694	-0.558916	-1.050972	0.371146	-0.558538	-1.009568	0.341137	-0.556993	-1.178853	0.183863	-0.514141	-1.139542	0.181744	-0.418826	-1.135855	0.056953	-0.532940	-1.119699	0.045478	-0.411261	-1.061322	0.042344	-0.472909	-1.240489	0.203444	-0.459450	-0.868884	1.461024	-0.204145	-0.805277	1.473015	-0.563190	
34	0.1650	-0.796172	0.972666	-0.274714	-0.797499	0.966576	-0.534344	-0.979686	0.979615	-0.355572	-0.977549	0.986540	-0.440223	-0.769519	0.802925	-0.221714	-0.723025	0.829192	-0.241296	-0.747202	0.773543	-0.226556	-0.698842	0.799704	-0.248148	-0.622583	0.527002	-0.292926	-0.628828	0.518724	-0.404043	-0.682910	0.399139	-0.256171	-0.636881	0.399717	-0.275171	-0.686143	0.352408	-0.260833	-0.642423	0.353083	-0.275870	-0.690131	0.133806	-0.305875	-0.673816	0.140054	-0.397767	-0.549195	0.081328	-0.266744	-0.541583	0.088029	-0.386530	-0.494953	0.117474	-0.323894	-0.763138	0.085273	-0.355711	-0.856162	0.769436	-0.590907	-0.804805	0.774112	-0.586745	-0.860739	0.735285	-0.591167	-0.809641	0.736686	-0.591554	-0.861038	0.473822	-0.546747	-0.855301	0.464505	-0.427528	-0.998772	0.404834	-0.566973	-0.961164	0.373286	-0.560320	-1.035716	0.375314	-0.559628	-0.994970	0.344372	-0.558109	-1.167003	0.191251	-0.515421	-1.127527	0.187455	-0.420353	-1.130502	0.061041	-0.533341	-1.114816	0.049272	-0.412090	-1.057826	0.042216	-0.473810	-1.226757	0.214103	-0.460552	-0.853422	1.462186	-0.203974	-0.789144	1.474525	-0.562537	
35	0.1700	-0.778712	0.973496	-0.274729	-0.779513	0.967478	-0.533969	-0.961891	0.980824	-0.355877	-0.959575	0.987778	-0.440521	-0.752785	0.803069	-0.221822	-0.706093	0.829021	-0.241134	-0.730733	0.773484	-0.226740	-0.682222	0.799414	-0.248078	-0.607267	0.526800	-0.293612	-0.613363	0.518544	-0.404608	-0.664460	0.396851	-0.256937	-0.618335	0.398935	-0.275986	-0.666263	0.349840	-0.261757	-0.622392	0.351969	-0.276845	-0.662803	0.130154	-0.307939	-0.646664	0.137331	-0.399746	-0.519865	0.081316	-0.269537	-0.512701	0.089003	-0.389271	-0.466622	0.119547	-0.326585	-0.734728	0.079837	-0.357790	-0.838360	0.770289	-0.591400	-0.787005	0.774890	-0.587164	-0.842886	0.736078	-0.591760	-0.791741	0.737468	-0.592169	-0.842977	0.474184	-0.548306	-0.837124	0.464365	-0.428878	-0.982177	0.408163	-0.568314	-0.945258	0.375811	-0.561807	-1.019662	0.379377	-0.560804	-0.979589	0.347522	-0.559283	-1.154328	0.198701	-0.516712	-1.114693	0.193237	-0.421892	-1.124264	0.065422	-0.533811	-1.108997	0.053320	-0.413041	-1.053454	0.042153	-0.474832	-1.212156	0.224742	-0.461649	-0.837888	1.463168	-0.203792	-0.773263	1.475856	-0.561937	
36	0.1750	-0.761276	0.974096	-0.274719	-0.761614	0.968251	-0.533574	-0.944167	0.981779	-0.356134	-0.941685	0.988804	-0.440778	-0.736147	0.802852	-0.221894	-0.689238	0.828442	-0.240924	-0.714379	0.773047	-0.226855	-0.665700	0.798706	-0.247943	-0.592278	0.526169	-0.294269	-0.598254	0.517962	-0.405136	-0.646559	0.394380	-0.257690	-0.600381	0.397839	-0.276800	-0.647056	0.347141	-0.262677	-0.603082	0.350609	-0.277823	-0.636813	0.126704	-0.309953	-0.620911	0.134731	-0.401723	-0.492204	0.081097	-0.272341	-0.485551	0.089669	-0.392034	-0.439920	0.121101	-0.329352	-0.707765	0.074963	-0.359801	-0.820396	0.771015	-0.591941	-0.769053	0.775612	-0.587605	-0.824818	0.736740	-0.592412	-0.773630	0.738198	-0.592821	-0.824275	0.474464	-0.549957	-0.818285	0.464140	-0.430326	-0.964834	0.411372	-0.569733	-0.928611	0.378240	-0.563374	-1.002816	0.383300	-0.562069	-0.963427	0.350553	-0.560513	-1.140839	0.206158	-0.518013	-1.101048	0.199048	-0.423439	-1.117080	0.070056	-0.534357	-1.102177	0.057584	-0.414116	-1.048120	0.042167	-0.475980	-1.196725	0.235274	-0.462741	-0.822285	1.463947	-0.203599	-0.757623	1.476982	-0.561395	
37	0.1800	-0.743876	0.974456	-0.274679	-0.743808	0.968874	-0.533161	-0.926527	0.982456	-0.356345	-0.923890	0.989587	-0.440997	-0.719600	0.802273	-0.221932	-0.672457	0.827464	-0.240669	-0.698132	0.772237	-0.226907	-0.649270	0.797593	-0.247749	-0.577568	0.525128	-0.294908	-0.583455	0.516998	-0.405637	-0.629185	0.391742	-0.258443	-0.582991	0.396435	-0.277623	-0.628513	0.344323	-0.263601	-0.584479	0.349001	-0.278813	-0.612226	0.123444	-0.311911	-0.596615	0.132228	-0.403696	-0.466270	0.080637	-0.275136	-0.460177	0.089967	-0.394800	-0.414882	0.122078	-0.332177	-0.682333	0.070640	-0.361741	-0.802271	0.771594	-0.592524	-0.750951	0.776258	-0.588059	-0.806534	0.737249	-0.593117	-0.755310	0.738855	-0.593501	-0.804944	0.474648	-0.551694	-0.798795	0.463820	-0.431865	-0.946754	0.414431	-0.571231	-0.911230	0.380546	-0.565018	-0.985192	0.387053	-0.563421	-0.946493	0.353437	-0.561800	-1.126549	0.213564	-0.519324	-1.086607	0.204847	-0.424991	-1.108893	0.074896	-0.534989	-1.094298	0.062021	-0.415314	-1.041741	0.042272	-0.477255	-1.180511	0.245613	-0.463832	-0.806615	1.464501	-0.203397	-0.742211	1.477878	-0.560919	
38	0.1850	-0.726524	0.974572	-0.274606	-0.726099	0.969326	-0.532735	-0.908985	0.982833	-0.356515	-0.906203	0.990098	-0.441184	-0.703139	0.801341	-0.221939	-0.655751	0.826102	-0.240375	-0.681983	0.771067	-0.226899	-0.632925	0.796093	-0.247501	-0.563088	0.523699	-0.295537	-0.568922	0.515676	-0.406121	-0.612317	0.388956	-0.259206	-0.566138	0.394732	-0.278465	-0.610622	0.341401	-0.264538	-0.566565	0.347150	-0.279823	-0.589096	0.120363	-0.313810	-0.573823	0.129798	-0.405663	-0.442102	0.079906	-0.277898	-0.436607	0.089849	-0.397551	-0.391530	0.122431	-0.335042	-0.658502	0.066852	-0.363608	-0.783984	0.772007	-0.593142	-0.732699	0.776810	-0.588516	-0.788036	0.737591	-0.593868	-0.736783	0.739424	-0.594200	-0.785001	0.474727	-0.553504	-0.778672	0.463397	-0.433484	-0.927954	0.417317	-0.572807	-0.893129	0.382706	-0.566733	-0.966810	0.390608	-0.564861	-0.928803	0.356146	-0.563143	-1.111475	0.220857	-0.520646	-1.071387	0.210590	-0.426548	-1.099650	0.079888	-0.535714	-1.085306	0.066581	-0.416636	-1.034238	0.042478	-0.478660	-1.163559	0.255673	-0.464926	-0.790878	1.464813	-0.203186	-0.727011	1.478527	-0.560513	
39	0.1900	-0.709232	0.974443	-0.274497	-0.708491	0.969591	-0.532300	-0.891550	0.982895	-0.356648	-0.888630	0.990313	-0.441342	-0.686760	0.800071	-0.221917	-0.639118	0.824378	-0.240045	-0.665923	0.769554	-0.226836	-0.616659	0.794229	-0.247205	-0.548794	0.521908	-0.296163	-0.554611	0.514025	-0.406598	-0.595933	0.386046	-0.259990	-0.549792	0.392746	-0.279334	-0.593370	0.338395	-0.265495	-0.549320	0.345065	-0.280859	-0.567463	0.117448	-0.315646	-0.552568	0.127422	-0.407621	-0.419726	0.078887	-0.280606	-0.414855	0.089279	-0.400267	-0.369873	0.122130	-0.337924	-0.636326	0.063576	-0.365401	-0.765536	0.772240	-0.593786	-0.714301	0.777253	-0.588969	-0.769326	0.737752	-0.594659	-0.718054	0.739890	-0.594906	-0.764467	0.474696	-0.555374	-0.757937	0.462870	-0.435172	-0.908457	0.420010	-0.574457	-0.874325	0.384702	-0.568511	-0.947691	0.393941	-0.566386	-0.910374	0.358659	-0.564538	-1.095632	0.227977	-0.521982	-1.055404	0.216229	-0.428108	-1.089299	0.084972	-0.536538	-1.075152	0.071208	-0.418077	-1.025535	0.042793	-0.480191	-1.145919	0.265369	-0.466028	-0.775079	1.464869	-0.202966	-0.712006	1.478912	-0.560181	
40	0.1950	-0.692008	0.974074	-0.274350	-0.690984	0.969655	-0.531860	-0.874232	0.982635	-0.356747	-0.871178	0.990214	-0.441476	-0.670459	0.798483	-0.221869	-0.622557	0.822319	-0.239685	-0.649943	0.767724	-0.226726	-0.600464	0.792032	-0.246869	-0.534646	0.519788	-0.296794	-0.540482	0.512078	-0.407075	-0.580009	0.383037	-0.260804	-0.533924	0.390494	-0.280237	-0.576742	0.335324	-0.266478	-0.532725	0.342758	-0.281928	-0.547356	0.114689	-0.317414	-0.532870	0.125081	-0.409565	-0.399154	0.077569	-0.283239	-0.394917	0.088233	-0.402928	-0.349908	0.121157	-0.340801	-0.615843	0.060786	-0.367119	-0.746928	0.772284	-0.594449	-0.695759	0.777577	-0.589406	-0.750409	0.737726	-0.595481	-0.699128	0.740246	-0.595608	-0.743366	0.474558	-0.557289	-0.736614	0.462245	-0.436912	-0.888285	0.422494	-0.576179	-0.854837	0.386520	-0.570344	-0.927864	0.397032	-0.567992	-0.891226	0.360959	-0.565984	-1.079037	0.234864	-0.523332	-1.038674	0.221720	-0.429670	-1.077794	0.090084	-0.537469	-1.063792	0.075844	-0.419633	-1.015561	0.043220	-0.481847	-1.127637	0.274621	-0.467145	-0.759218	1.464663	-0.202738	-0.697176	1.479026	-0.559924	
41	0.2000	-0.674860	0.973474	-0.274164	-0.673579	0.969508	-0.531418	-0.857036	0.982050	-0.356816	-0.853853	0.989787	-0.441589	-0.654229	0.796604	-0.221798	-0.606065	0.819958	-0.239301	-0.634035	0.765605	-0.226575	-0.584335	0.789534	-0.246499	-0.520608	0.517372	-0.297434	-0.526499	0.509869	-0.407559	-0.564526	0.379955	-0.261652	-0.518508	0.388000	-0.281176	-0.560720	0.332212	-0.267489	-0.516756	0.340246	-0.283032	-0.528790	0.112077	-0.319113	-0.514735	0.122762	-0.411492	-0.380380	0.075952	-0.285777	-0.376775	0.086703	-0.405516	-0.331620	0.119513	-0.343652	-0.597074	0.058451	-0.368761	-0.728165	0.772134	-0.595121	-0.677080	0.777777	-0.589819	-0.731289	0.737511	-0.596326	-0.680012	0.740488	-0.596295	-0.721724	0.474320	-0.559233	-0.714732	0.461532	-0.438689	-0.867466	0.424759	-0.577966	-0.834685	0.388151	-0.572223	-0.907355	0.399866	-0.569675	-0.871379	0.363034	-0.567475	-1.061704	0.241458	-0.524698	-1.021212	0.227015	-0.431233	-1.065092	0.095157	-0.538509	-1.051188	0.080427	-0.421299	-1.004251	0.043758	-0.483622	-1.108757	0.283352	-0.468282	-0.743296	1.464191	-0.202503	-0.682501	1.478864	-0.559743	
42	0.2050	-0.657791	0.972656	-0.273940	-0.656274	0.969143	-0.530980	-0.839966	0.981144	-0.356859	-0.836656	0.989027	-0.441685	-0.638065	0.794465	-0.221707	-0.589641	0.817332	-0.238897	-0.618190	0.763231	-0.226390	-0.568264	0.786773	-0.246104	-0.506650	0.514698	-0.298087	-0.512629	0.507435	-0.408055	-0.549462	0.376827	-0.262540	-0.503519	0.385288	-0.282155	-0.545287	0.329082	-0.268530	-0.501393	0.337548	-0.284172	-0.511767	0.109605	-0.320739	-0.498156	0.120458	-0.413396	-0.363384	0.074044	-0.288199	-0.360398	0.084692	-0.408014	-0.314983	0.117214	-0.346452	-0.580022	0.056540	-0.370327	-0.709248	0.771793	-0.595793	-0.658267	0.777852	-0.590197	-0.711972	0.737111	-0.597183	-0.660712	0.740616	-0.596955	-0.699568	0.473994	-0.561188	-0.692320	0.460746	-0.440486	-0.846026	0.426797	-0.579812	-0.813891	0.389589	-0.574135	-0.886195	0.402433	-0.571426	-0.850858	0.364877	-0.569006	-1.043645	0.247700	-0.526083	-1.003032	0.232068	-0.432797	-1.051153	0.100124	-0.539662	-1.037304	0.084893	-0.423068	-0.991544	0.044404	-0.485509	-1.089315	0.291489	-0.469444	-0.727314	1.463455	-0.202262	-0.667958	1.478427	-0.559638	
43	0.2100	-0.640801	0.971639	-0.273677	-0.639064	0.968561	-0.530551	-0.823019	0.979929	-0.356880	-0.819585	0.987933	-0.441767	-0.621962	0.792101	-0.221601	-0.573281	0.814480	-0.238480	-0.602400	0.760640	-0.226179	-0.552247	0.783789	-0.245692	-0.492747	0.511803	-0.298754	-0.498845	0.504813	-0.408565	-0.534800	0.373682	-0.263470	-0.488933	0.382387	-0.283174	-0.530427	0.325959	-0.269602	-0.486612	0.334688	-0.285348	-0.496274	0.107268	-0.322290	-0.483114	0.118166	-0.415270	-0.348132	0.071865	-0.290489	-0.345739	0.082222	-0.410406	-0.299958	0.114293	-0.349181	-0.564674	0.055019	-0.371815	-0.690182	0.771266	-0.596455	-0.639325	0.777807	-0.590532	-0.692465	0.736535	-0.598044	-0.641238	0.740637	-0.597577	-0.676927	0.473600	-0.563135	-0.669409	0.459910	-0.442282	-0.823993	0.428606	-0.581707	-0.792475	0.390836	-0.576067	-0.864412	0.404727	-0.573238	-0.829682	0.366485	-0.570569	-1.024866	0.253535	-0.527488	-0.984139	0.236834	-0.434360	-1.035942	0.104915	-0.540929	-1.022112	0.089178	-0.424930	-0.977387	0.045148	-0.487501	-1.069343	0.298965	-0.470637	-0.711269	1.462463	-0.202015	-0.653525	1.477723	-0.559609	
44	0.2150	-0.623888	0.970442	-0.273378	-0.621944	0.967763	-0.530133	-0.806192	0.978422	-0.356882	-0.802636	0.986513	-0.441839	-0.605911	0.789550	-0.221481	-0.556982	0.811445	-0.238056	-0.586658	0.757873	-0.225949	-0.536277	0.780625	-0.245270	-0.478882	0.508727	-0.299436	-0.485126	0.502041	-0.409092	-0.520524	0.370549	-0.264440	-0.474732	0.379328	-0.284230	-0.516122	0.322868	-0.270701	-0.472395	0.331692	-0.286556	-0.482288	0.105065	-0.323764	-0.469576	0.115888	-0.417107	-0.334576	0.069442	-0.292632	-0.332741	0.079323	-0.412678	-0.286499	0.110798	-0.351817	-0.550998	0.053854	-0.373227	-0.670970	0.770567	-0.597100	-0.620261	0.777653	-0.590817	-0.672772	0.735798	-0.598899	-0.621596	0.740564	-0.598152	-0.653829	0.473159	-0.565054	-0.646029	0.459051	-0.444059	-0.801394	0.430188	-0.583639	-0.770458	0.391895	-0.578005	-0.842035	0.406745	-0.575100	-0.807874	0.367861	-0.572157	-1.005372	0.258910	-0.528912	-0.964540	0.241269	-0.435921	-1.019425	0.109465	-0.542310	-1.005583	0.093221	-0.426878	-0.961729	0.045978	-0.489588	-1.048865	0.305719	-0.471864	-0.695159	1.461228	-0.201765	-0.639177	1.476763	-0.559652	
45	0.2200	-0.607046	0.969090	-0.273045	-0.604905	0.966759	-0.529731	-0.789476	0.976646	-0.356868	-0.785801	0.984781	-0.441901	-0.589906	0.786852	-0.221352	-0.540737	0.808271	-0.237628	-0.570956	0.754969	-0.225707	-0.520348	0.777322	-0.244845	-0.465043	0.505508	-0.300130	-0.471456	0.499155	-0.409634	-0.506620	0.367454	-0.265448	-0.460900	0.376141	-0.285319	-0.502355	0.319834	-0.271824	-0.458720	0.328587	-0.287793	-0.469768	0.102995	-0.325159	-0.457498	0.113633	-0.418898	-0.322654	0.066809	-0.294614	-0.321332	0.076041	-0.414819	-0.274547	0.106788	-0.354341	-0.538948	0.053010	-0.374560	-0.651616	0.769713	-0.597717	-0.601079	0.777403	-0.591042	-0.652900	0.734920	-0.599737	-0.601795	0.740412	-0.598667	-0.630303	0.472700	-0.566928	-0.622212	0.458199	-0.445796	-0.778255	0.431548	-0.585597	-0.747859	0.392777	-0.579933	-0.819091	0.408488	-0.576999	-0.785452	0.369012	-0.573759	-0.985160	0.263778	-0.530355	-0.944230	0.245332	-0.437477	-1.001573	0.113711	-0.543801	-0.987693	0.096964	-0.428900	-0.944530	0.046879	-0.491759	-1.027893	0.311698	-0.473127	-0.678978	1.459769	-0.201513	-0.624889	1.475565	-0.559765	
46	0.2250	-0.590263	0.967611	-0.272682	-0.587936	0.965563	-0.529351	-0.772858	0.974631	-0.356840	-0.769068	0.982756	-0.441955	-0.573939	0.784049	-0.221216	-0.524541	0.805000	-0.237202	-0.555285	0.751973	-0.225460	-0.504452	0.773924	-0.244425	-0.451225	0.502183	-0.300833	-0.457826	0.496189	-0.410191	-0.493077	0.364424	-0.266489	-0.447423	0.372860	-0.286434	-0.489109	0.316882	-0.272964	-0.445569	0.325403	-0.289050	-0.458665	0.101062	-0.326475	-0.446821	0.111412	-0.420637	-0.312290	0.064006	-0.296427	-0.311432	0.072431	-0.416818	-0.264035	0.102337	-0.356734	-0.528460	0.052457	-0.375815	-0.632124	0.768727	-0.598299	-0.581783	0.777077	-0.591203	-0.632856	0.733925	-0.600548	-0.581842	0.740202	-0.599116	-0.606375	0.472254	-0.568736	-0.597989	0.457389	-0.447473	-0.754601	0.432695	-0.587564	-0.724696	0.393493	-0.581836	-0.795605	0.409963	-0.578920	-0.762434	0.369949	-0.575365	-0.964223	0.268095	-0.531815	-0.923205	0.248985	-0.439025	-0.982360	0.117595	-0.545399	-0.968421	0.100352	-0.430987	-0.925752	0.047833	-0.494002	-1.006432	0.316855	-0.474425	-0.662719	1.458110	-0.201261	-0.610636	1.474150	-0.559945	
47	0.2300	-0.573527	0.966031	-0.272291	-0.571025	0.964193	-0.528994	-0.756322	0.972408	-0.356800	-0.752423	0.980467	-0.442003	-0.558000	0.781182	-0.221078	-0.508386	0.801677	-0.236783	-0.539638	0.748926	-0.225214	-0.488585	0.770471	-0.244014	-0.437431	0.498788	-0.301540	-0.444233	0.493177	-0.410758	-0.479886	0.361484	-0.267555	-0.434293	0.369518	-0.287567	-0.476369	0.314036	-0.274115	-0.432924	0.322170	-0.290319	-0.448916	0.099271	-0.327708	-0.437479	0.109243	-0.422312	-0.303401	0.061079	-0.298064	-0.302951	0.068557	-0.418669	-0.254890	0.097527	-0.358983	-0.519457	0.052164	-0.376990	-0.612498	0.767635	-0.598838	-0.562378	0.776700	-0.591295	-0.612646	0.732843	-0.601324	-0.561744	0.739960	-0.599491	-0.582073	0.471855	-0.570460	-0.573391	0.456658	-0.449072	-0.730456	0.433642	-0.589524	-0.700984	0.394060	-0.583695	-0.771603	0.411177	-0.580849	-0.738837	0.370687	-0.576963	-0.942550	0.271823	-0.533288	-0.901452	0.252194	-0.440561	-0.961761	0.121065	-0.547097	-0.947749	0.103338	-0.433127	-0.905367	0.048821	-0.496306	-0.984476	0.321147	-0.475757	-0.646372	1.456277	-0.201015	-0.596391	1.472543	-0.560187	
48	0.2350	-0.556820	0.964383	-0.271878	-0.554157	0.962672	-0.528666	-0.739847	0.970017	-0.356751	-0.735848	0.977947	-0.442043	-0.542080	0.778293	-0.220938	-0.492265	0.798341	-0.236375	-0.524007	0.745869	-0.224976	-0.472738	0.767004	-0.243619	-0.423668	0.495357	-0.302244	-0.430679	0.490148	-0.411330	-0.467040	0.358657	-0.268638	-0.421503	0.366145	-0.288707	-0.464119	0.311317	-0.275267	-0.420770	0.318919	-0.291588	-0.440446	0.097628	-0.328859	-0.429393	0.107145	-0.423915	-0.295893	0.058076	-0.299520	-0.295793	0.064488	-0.420368	-0.247029	0.092447	-0.361074	-0.511849	0.052103	-0.378085	-0.592742	0.766470	-0.599329	-0.542869	0.776298	-0.591314	-0.592277	0.731706	-0.602055	-0.541510	0.739712	-0.599784	-0.557423	0.471539	-0.572082	-0.548446	0.456045	-0.450573	-0.705842	0.434402	-0.591459	-0.676740	0.394497	-0.585492	-0.747104	0.412139	-0.582768	-0.714675	0.371242	-0.578540	-0.920124	0.274928	-0.534769	-0.878953	0.254928	-0.442079	-0.939759	0.124078	-0.548887	-0.925659	0.105880	-0.435310	-0.883351	0.049822	-0.498657	-0.962011	0.324544	-0.477118	-0.629926	1.454305	-0.200776	-0.582130	1.470775	-0.560488	
49	0.2400	-0.540122	0.962696	-0.271448	-0.537316	0.961028	-0.528368	-0.723411	0.967498	-0.356692	-0.719320	0.975234	-0.442075	-0.526170	0.775420	-0.220800	-0.476169	0.795032	-0.235980	-0.508386	0.742841	-0.224750	-0.456906	0.763558	-0.243243	-0.409949	0.491922	-0.302937	-0.417171	0.487128	-0.411900	-0.454538	0.355962	-0.269726	-0.409051	0.362775	-0.289842	-0.452344	0.308745	-0.276411	-0.409092	0.315679	-0.292847	-0.433172	0.096142	-0.329927	-0.422478	0.105142	-0.425436	-0.289662	0.055046	-0.300795	-0.289855	0.060298	-0.421910	-0.240366	0.087190	-0.362997	-0.505533	0.052252	-0.379099	-0.572860	0.765263	-0.599766	-0.523258	0.775901	-0.591257	-0.571754	0.730550	-0.602734	-0.521146	0.739490	-0.599990	-0.532451	0.471343	-0.573587	-0.523187	0.455588	-0.451960	-0.680783	0.434991	-0.593349	-0.651979	0.394825	-0.587211	-0.722129	0.412864	-0.584657	-0.689962	0.371635	-0.580083	-0.896927	0.277384	-0.536252	-0.855689	0.257160	-0.443573	-0.916337	0.126599	-0.550760	-0.902138	0.107946	-0.437523	-0.859691	0.050818	-0.501043	-0.939013	0.327019	-0.478499	-0.613368	1.452228	-0.200550	-0.567828	1.468878	-0.560842	
50	0.2450	-0.523410	0.961001	-0.271004	-0.520484	0.959291	-0.528104	-0.706986	0.964895	-0.356625	-0.702816	0.972370	-0.442097	-0.510261	0.772600	-0.220667	-0.460088	0.791785	-0.235602	-0.492767	0.739877	-0.224540	-0.441084	0.760167	-0.242889	-0.396292	0.488509	-0.303610	-0.403724	0.484141	-0.412462	-0.442376	0.353419	-0.270807	-0.396935	0.359436	-0.290960	-0.441032	0.306339	-0.277536	-0.397876	0.312481	-0.294081	-0.427003	0.094822	-0.330910	-0.416640	0.103258	-0.426866	-0.284600	0.052039	-0.301890	-0.285028	0.056061	-0.423297	-0.234809	0.081850	-0.364744	-0.500401	0.052589	-0.380029	-0.552856	0.764053	-0.600144	-0.503551	0.775540	-0.591124	-0.551086	0.729411	-0.603352	-0.500661	0.739325	-0.600107	-0.507185	0.471303	-0.574959	-0.497643	0.455326	-0.453217	-0.655299	0.435426	-0.595174	-0.626718	0.395065	-0.588834	-0.696700	0.413364	-0.586498	-0.664711	0.371885	-0.581578	-0.872938	0.279172	-0.537726	-0.831636	0.258871	-0.445036	-0.891486	0.128602	-0.552703	-0.877176	0.109513	-0.439756	-0.834380	0.051791	-0.503452	-0.915452	0.328555	-0.479890	-0.596684	1.450085	-0.200341	-0.553461	1.466885	-0.561244	
51	0.2500	-0.506660	0.959330	-0.270554	-0.503643	0.957495	-0.527875	-0.690546	0.962251	-0.356549	-0.686312	0.969402	-0.442109	-0.494344	0.769868	-0.220538	-0.444014	0.788631	-0.235241	-0.477145	0.737012	-0.224349	-0.425266	0.756861	-0.242558	-0.382720	0.485146	-0.304253	-0.390354	0.481207	-0.413007	-0.430555	0.351041	-0.271869	-0.385158	0.356157	-0.292046	-0.430168	0.304112	-0.278630	-0.387110	0.309353	-0.295277	-0.421841	0.093677	-0.331809	-0.411778	0.101520	-0.428196	-0.280597	0.049102	-0.302809	-0.281204	0.051853	-0.424531	-0.230262	0.076519	-0.366312	-0.496333	0.053101	-0.380874	-0.532736	0.762875	-0.600460	-0.483751	0.775248	-0.590915	-0.530280	0.728327	-0.603904	-0.480061	0.739249	-0.600132	-0.481651	0.471453	-0.576186	-0.471845	0.455295	-0.454333	-0.629415	0.435725	-0.596913	-0.600972	0.395242	-0.590344	-0.670834	0.413654	-0.588271	-0.638939	0.372017	-0.583012	-0.848135	0.280278	-0.539183	-0.806772	0.260044	-0.446458	-0.865204	0.130069	-0.554705	-0.850769	0.110566	-0.441998	-0.807421	0.052725	-0.505871	-0.891295	0.329141	-0.481280	-0.579860	1.447915	-0.200154	-0.539007	1.464834	-0.561689	
52	0.2550	-0.489849	0.957710	-0.270101	-0.486775	0.955676	-0.527683	-0.674063	0.959612	-0.356465	-0.669783	0.966379	-0.442107	-0.478412	0.767255	-0.220417	-0.427938	0.785597	-0.234900	-0.461517	0.734274	-0.224179	-0.409447	0.753664	-0.242251	-0.369259	0.481853	-0.304857	-0.377084	0.478343	-0.413526	-0.419076	0.348841	-0.272898	-0.373723	0.352964	-0.293087	-0.419741	0.302080	-0.279682	-0.376781	0.306321	-0.296421	-0.417584	0.092719	-0.332621	-0.407789	0.099952	-0.429418	-0.277536	0.046279	-0.303560	-0.278271	0.047743	-0.425615	-0.226629	0.071286	-0.367699	-0.493206	0.053775	-0.381633	-0.512507	0.761767	-0.600711	-0.463865	0.775056	-0.590634	-0.509347	0.727336	-0.604385	-0.459359	0.739292	-0.600064	-0.455879	0.471825	-0.577258	-0.445828	0.455529	-0.455297	-0.603156	0.435906	-0.598545	-0.574763	0.395378	-0.591726	-0.644553	0.413749	-0.589954	-0.612662	0.372052	-0.584370	-0.822499	0.280696	-0.540610	-0.781073	0.260670	-0.447831	-0.837496	0.130996	-0.556750	-0.822918	0.111101	-0.444237	-0.778828	0.053609	-0.508290	-0.866502	0.328776	-0.482653	-0.562883	1.445762	-0.199996	-0.524448	1.462762	-0.562172	
53	0.2600	-0.472953	0.956170	-0.269652	-0.469863	0.953869	-0.527528	-0.657510	0.957022	-0.356372	-0.653204	0.963350	-0.442089	-0.462459	0.764786	-0.220302	-0.411853	0.782706	-0.234578	-0.445879	0.731689	-0.224030	-0.393627	0.750598	-0.241968	-0.355937	0.478651	-0.305411	-0.363938	0.475562	-0.414010	-0.407944	0.346830	-0.273881	-0.362635	0.349881	-0.294068	-0.409737	0.300251	-0.280680	-0.366880	0.303410	-0.297497	-0.414123	0.091957	-0.333348	-0.404566	0.098580	-0.430524	-0.275303	0.043608	-0.304152	-0.276120	0.043795	-0.426555	-0.223811	0.066232	-0.368905	-0.490896	0.054604	-0.382305	-0.492178	0.760764	-0.600898	-0.443898	0.774995	-0.590282	-0.488298	0.726472	-0.604789	-0.438563	0.739485	-0.599905	-0.429903	0.472449	-0.578166	-0.419626	0.456056	-0.456102	-0.576551	0.435985	-0.600050	-0.548114	0.395496	-0.592965	-0.617882	0.413663	-0.591529	-0.585900	0.372011	-0.585640	-0.796015	0.280426	-0.541994	-0.754522	0.260745	-0.449145	-0.808376	0.131385	-0.558825	-0.793631	0.111126	-0.446463	-0.748629	0.054434	-0.510698	-0.841039	0.327464	-0.483993	-0.545742	1.443664	-0.199872	-0.509767	1.460704	-0.562688	
54	0.2650	-0.455952	0.954734	-0.269212	-0.452894	0.952113	-0.527411	-0.640862	0.954525	-0.356269	-0.636552	0.960366	-0.442053	-0.446482	0.762484	-0.220196	-0.395753	0.779975	-0.234276	-0.430233	0.729276	-0.223904	-0.377804	0.747679	-0.241707	-0.342785	0.475555	-0.305904	-0.350942	0.472876	-0.414449	-0.397160	0.345014	-0.274803	-0.351899	0.346930	-0.294976	-0.400145	0.298633	-0.281615	-0.357394	0.300644	-0.298493	-0.411354	0.091400	-0.333988	-0.402003	0.097426	-0.431507	-0.273785	0.041124	-0.304594	-0.274641	0.040069	-0.427359	-0.221712	0.061431	-0.369936	-0.489277	0.055585	-0.382887	-0.471760	0.759900	-0.601018	-0.423862	0.775094	-0.589865	-0.467150	0.725768	-0.605114	-0.417690	0.739855	-0.599657	-0.403758	0.473347	-0.578905	-0.393279	0.456901	-0.456743	-0.549632	0.435980	-0.601407	-0.521056	0.395617	-0.594049	-0.590847	0.413411	-0.592975	-0.558682	0.371917	-0.586810	-0.768674	0.279476	-0.543322	-0.727105	0.260273	-0.450390	-0.777870	0.131250	-0.560913	-0.762928	0.110654	-0.448666	-0.716863	0.055196	-0.513084	-0.814869	0.325220	-0.485280	-0.528427	1.441664	-0.199788	-0.494953	1.458698	-0.563231	
55	0.2700	-0.438828	0.953425	-0.268786	-0.435856	0.950443	-0.527331	-0.624098	0.952159	-0.356155	-0.619809	0.957474	-0.441995	-0.430479	0.760368	-0.220099	-0.379638	0.777419	-0.233992	-0.414580	0.727054	-0.223799	-0.361981	0.744921	-0.241466	-0.329832	0.472581	-0.306327	-0.338126	0.470293	-0.414837	-0.386729	0.343398	-0.275651	-0.341521	0.344131	-0.295798	-0.390953	0.297233	-0.282476	-0.348313	0.298042	-0.299395	-0.409168	0.091054	-0.334542	-0.399993	0.096511	-0.432362	-0.272872	0.038852	-0.304900	-0.273732	0.036612	-0.428034	-0.220236	0.056943	-0.370796	-0.488224	0.056718	-0.383380	-0.451269	0.759207	-0.601075	-0.403769	0.775376	-0.589388	-0.445922	0.725256	-0.605358	-0.396755	0.740423	-0.599324	-0.377486	0.474538	-0.579473	-0.366830	0.458083	-0.457219	-0.522438	0.435905	-0.602599	-0.493625	0.395762	-0.594969	-0.563482	0.413008	-0.594274	-0.531038	0.371788	-0.587868	-0.740478	0.277861	-0.544578	-0.698819	0.259262	-0.451555	-0.746018	0.130614	-0.562998	-0.730842	0.109711	-0.450836	-0.683586	0.055897	-0.515439	-0.787967	0.322066	-0.486497	-0.510935	1.439798	-0.199749	-0.480001	1.456777	-0.563797	
56	0.2750	-0.421569	0.952260	-0.268378	-0.418742	0.948894	-0.527286	-0.607202	0.949963	-0.356028	-0.602960	0.954723	-0.441913	-0.414456	0.758451	-0.220008	-0.363508	0.775047	-0.233725	-0.398929	0.725033	-0.223713	-0.346164	0.742332	-0.241240	-0.317111	0.469740	-0.306671	-0.325518	0.467821	-0.415163	-0.376655	0.341986	-0.276416	-0.331507	0.341499	-0.296522	-0.382148	0.296053	-0.283253	-0.339626	0.295623	-0.300190	-0.407461	0.090928	-0.335010	-0.398432	0.095851	-0.433085	-0.272459	0.036813	-0.305083	-0.273292	0.033464	-0.428592	-0.219291	0.052821	-0.371496	-0.487617	0.058008	-0.383781	-0.430725	0.758712	-0.601068	-0.383635	0.775864	-0.588858	-0.424636	0.724959	-0.605520	-0.375782	0.741208	-0.598913	-0.351134	0.476034	-0.579870	-0.340328	0.459612	-0.457532	-0.495015	0.435773	-0.603610	-0.465865	0.395947	-0.595716	-0.535825	0.412465	-0.595411	-0.503010	0.371643	-0.588807	-0.711437	0.275604	-0.545749	-0.669672	0.257727	-0.452633	-0.712877	0.129508	-0.565064	-0.697418	0.108331	-0.452963	-0.648873	0.056540	-0.517756	-0.760315	0.318031	-0.487624	-0.493265	1.438104	-0.199760	-0.464909	1.454973	-0.564380	
57	0.2800	-0.404170	0.951256	-0.267992	-0.401552	0.947496	-0.527275	-0.590165	0.947968	-0.355886	-0.585997	0.952154	-0.441804	-0.398419	0.756744	-0.219925	-0.347370	0.772863	-0.233473	-0.383288	0.723223	-0.223644	-0.330363	0.739916	-0.241027	-0.304652	0.467041	-0.306929	-0.313149	0.465465	-0.415423	-0.366941	0.340778	-0.277085	-0.321859	0.339051	-0.297137	-0.373718	0.295094	-0.283939	-0.331322	0.293401	-0.300870	-0.406134	0.091024	-0.335391	-0.397221	0.095460	-0.433673	-0.272447	0.035019	-0.305157	-0.273229	0.030654	-0.429041	-0.218789	0.049103	-0.372046	-0.487342	0.059459	-0.384091	-0.410152	0.758436	-0.601002	-0.363483	0.776572	-0.588283	-0.403322	0.724898	-0.605602	-0.354796	0.742224	-0.598429	-0.324755	0.477840	-0.580098	-0.313827	0.461494	-0.457686	-0.467415	0.435596	-0.604426	-0.437831	0.396188	-0.596287	-0.507925	0.411796	-0.596371	-0.474649	0.371497	-0.589617	-0.681579	0.272733	-0.546821	-0.639687	0.255692	-0.453612	-0.678518	0.127968	-0.567095	-0.662720	0.106554	-0.455038	-0.612816	0.057135	-0.520026	-0.731909	0.313155	-0.488641	-0.475427	1.436611	-0.199826	-0.449685	1.453316	-0.564976	
58	0.2850	-0.386633	0.950422	-0.267633	-0.384291	0.946277	-0.527294	-0.572987	0.946203	-0.355729	-0.568920	0.949806	-0.441667	-0.382382	0.755250	-0.219848	-0.331234	0.770869	-0.233235	-0.367674	0.721628	-0.223588	-0.314592	0.737677	-0.240823	-0.292485	0.464492	-0.307095	-0.301048	0.463229	-0.415609	-0.357589	0.339774	-0.277650	-0.312582	0.336798	-0.297636	-0.365653	0.294356	-0.284528	-0.323389	0.291391	-0.301425	-0.405092	0.091344	-0.335688	-0.396268	0.095345	-0.434125	-0.272745	0.033475	-0.305135	-0.273457	0.028201	-0.429392	-0.218648	0.045813	-0.372457	-0.487295	0.061077	-0.384309	-0.389581	0.758395	-0.600879	-0.343339	0.777511	-0.587670	-0.382016	0.725087	-0.605605	-0.333830	0.743477	-0.597880	-0.298411	0.479955	-0.580162	-0.287386	0.463725	-0.457688	-0.439702	0.435383	-0.605037	-0.409587	0.396496	-0.596678	-0.479838	0.411012	-0.597143	-0.446015	0.371362	-0.590294	-0.650948	0.269285	-0.547780	-0.608903	0.253183	-0.454486	-0.643034	0.126041	-0.569074	-0.626833	0.104428	-0.457052	-0.575528	0.057697	-0.522242	-0.702760	0.307485	-0.489532	-0.457434	1.435347	-0.199950	-0.434343	1.451829	-0.565580	
59	0.2900	-0.368971	0.949768	-0.267302	-0.366974	0.945261	-0.527341	-0.555676	0.944688	-0.355553	-0.551738	0.947712	-0.441500	-0.366363	0.753974	-0.219775	-0.315118	0.769064	-0.233008	-0.352107	0.720249	-0.223544	-0.298871	0.735614	-0.240622	-0.280637	0.462101	-0.307163	-0.289241	0.461117	-0.415717	-0.348601	0.338971	-0.278104	-0.303678	0.334749	-0.298013	-0.357938	0.293834	-0.285014	-0.315816	0.289601	-0.301849	-0.404248	0.091888	-0.335900	-0.395485	0.095512	-0.434441	-0.273270	0.032182	-0.305033	-0.273899	0.026112	-0.429657	-0.218791	0.042965	-0.372744	-0.487376	0.062870	-0.384437	-0.369048	0.758602	-0.600704	-0.323238	0.778685	-0.587028	-0.360758	0.725535	-0.605532	-0.312923	0.744970	-0.597275	-0.272169	0.482371	-0.580071	-0.261074	0.466295	-0.457548	-0.411945	0.435143	-0.605435	-0.381208	0.396879	-0.596893	-0.451632	0.410123	-0.597718	-0.417182	0.371251	-0.590834	-0.619605	0.265300	-0.548615	-0.577378	0.250235	-0.455248	-0.606539	0.123776	-0.570988	-0.589859	0.102006	-0.458997	-0.537143	0.058239	-0.524398	-0.672900	0.301076	-0.490281	-0.439311	1.434333	-0.200135	-0.418906	1.450534	-0.566188	
60	0.2950	-0.351206	0.949296	-0.267004	-0.349622	0.944466	-0.527411	-0.538252	0.943442	-0.355360	-0.534469	0.945900	-0.441301	-0.350390	0.752912	-0.219705	-0.299046	0.767445	-0.232790	-0.336613	0.719083	-0.223507	-0.283226	0.733725	-0.240422	-0.269134	0.459873	-0.307132	-0.277758	0.459132	-0.415745	-0.339977	0.338366	-0.278443	-0.295148	0.332912	-0.298263	-0.350564	0.293526	-0.285394	-0.308591	0.288040	-0.302138	-0.403523	0.092652	-0.336029	-0.394797	0.095959	-0.434623	-0.273949	0.031132	-0.304865	-0.274485	0.024387	-0.429847	-0.219149	0.040561	-0.372919	-0.487502	0.064845	-0.384476	-0.348598	0.759061	-0.600482	-0.303220	0.780092	-0.586366	-0.339598	0.726243	-0.605388	-0.292121	0.746696	-0.596624	-0.246107	0.485071	-0.579834	-0.234963	0.469187	-0.457278	-0.384226	0.434881	-0.605618	-0.352781	0.397344	-0.596935	-0.423384	0.409140	-0.598091	-0.388235	0.371169	-0.591237	-0.587632	0.260828	-0.549316	-0.545191	0.246888	-0.455892	-0.569167	0.121225	-0.572822	-0.551928	0.099343	-0.460865	-0.497818	0.058781	-0.526489	-0.642381	0.293993	-0.490873	-0.421092	1.433587	-0.200382	-0.403403	1.449447	-0.566796	
61	0.3000	-0.333370	0.949005	-0.266738	-0.332266	0.943905	-0.527501	-0.520746	0.942473	-0.355146	-0.517143	0.944388	-0.441071	-0.334493	0.752060	-0.219637	-0.283048	0.766005	-0.232578	-0.321224	0.718125	-0.223473	-0.267687	0.732004	-0.240218	-0.258000	0.457811	-0.307000	-0.266622	0.457278	-0.415690	-0.331718	0.337953	-0.278665	-0.286990	0.331293	-0.298385	-0.343518	0.293425	-0.285667	-0.301701	0.286712	-0.302291	-0.402850	0.093630	-0.336078	-0.394136	0.096680	-0.434675	-0.274716	0.030312	-0.304645	-0.275154	0.023015	-0.429973	-0.219660	0.038590	-0.372999	-0.487597	0.067006	-0.384427	-0.328282	0.759770	-0.600218	-0.283332	0.781725	-0.585692	-0.318591	0.727205	-0.605178	-0.271475	0.748645	-0.595937	-0.220307	0.488034	-0.579464	-0.209136	0.472375	-0.456893	-0.356637	0.434601	-0.605586	-0.324403	0.397892	-0.596810	-0.395184	0.408071	-0.598262	-0.359269	0.371122	-0.591503	-0.555132	0.255922	-0.549876	-0.512443	0.243186	-0.456415	-0.531076	0.118446	-0.574563	-0.513191	0.096499	-0.462649	-0.457733	0.059342	-0.528508	-0.611278	0.286306	-0.491299	-0.402821	1.433116	-0.200692	-0.387874	1.448579	-0.567400	
62	0.3050	-0.315509	0.948891	-0.266506	-0.314949	0.943583	-0.527606	-0.503200	0.941787	-0.354913	-0.499800	0.943191	-0.440809	-0.318711	0.751410	-0.219569	-0.267163	0.764737	-0.232370	-0.305978	0.717368	-0.223439	-0.252291	0.730448	-0.240007	-0.247257	0.455920	-0.306770	-0.255857	0.455558	-0.415555	-0.323821	0.337728	-0.278768	-0.279204	0.329894	-0.298381	-0.336789	0.293522	-0.285833	-0.295136	0.285619	-0.302307	-0.402168	0.094811	-0.336050	-0.393444	0.097666	-0.434601	-0.275517	0.029705	-0.304385	-0.275856	0.021978	-0.430044	-0.220268	0.037032	-0.372998	-0.487600	0.069354	-0.384295	-0.308158	0.760720	-0.599917	-0.263630	0.783570	-0.585015	-0.297801	0.728412	-0.604908	-0.251047	0.750799	-0.595224	-0.194861	0.491229	-0.578973	-0.183678	0.475829	-0.456406	-0.329277	0.434307	-0.605344	-0.296183	0.398521	-0.596531	-0.367130	0.406925	-0.598231	-0.330395	0.371114	-0.591635	-0.522228	0.250640	-0.550289	-0.479257	0.239177	-0.456817	-0.492444	0.115495	-0.576201	-0.473823	0.093533	-0.464343	-0.417089	0.059940	-0.530450	-0.579690	0.278096	-0.491552	-0.384552	1.432926	-0.201063	-0.372368	1.447936	-0.567995	
63	0.3100	-0.297678	0.948947	-0.266308	-0.297719	0.943503	-0.527721	-0.485669	0.941380	-0.354659	-0.482491	0.942312	-0.440519	-0.303091	0.750953	-0.219499	-0.251436	0.763632	-0.232165	-0.290917	0.716801	-0.223401	-0.237082	0.729049	-0.239787	-0.236924	0.454201	-0.306444	-0.245485	0.453974	-0.415340	-0.316286	0.337682	-0.278756	-0.271787	0.328715	-0.298252	-0.330368	0.293808	-0.285894	-0.288883	0.284759	-0.302191	-0.401431	0.096183	-0.335947	-0.392676	0.098901	-0.434410	-0.276307	0.029291	-0.304097	-0.276549	0.021253	-0.430071	-0.220927	0.035861	-0.372930	-0.487462	0.071889	-0.384084	-0.288291	0.761899	-0.599586	-0.244177	0.785606	-0.584344	-0.277297	0.729846	-0.604584	-0.230902	0.753137	-0.594495	-0.169865	0.494625	-0.578378	-0.158683	0.479511	-0.455835	-0.302255	0.433999	-0.604899	-0.268238	0.399228	-0.596108	-0.339333	0.405713	-0.598005	-0.301733	0.371143	-0.591641	-0.489067	0.245045	-0.550553	-0.445778	0.234916	-0.457097	-0.453472	0.112428	-0.577726	-0.434024	0.090504	-0.465940	-0.376106	0.060594	-0.532310	-0.547741	0.269448	-0.491627	-0.366347	1.433012	-0.201493	-0.356940	1.447519	-0.568580	
64	0.3150	-0.279944	0.949161	-0.266145	-0.280639	0.943658	-0.527844	-0.468217	0.941245	-0.354387	-0.465280	0.941751	-0.440200	-0.287685	0.750676	-0.219426	-0.235918	0.762682	-0.231961	-0.276091	0.716413	-0.223357	-0.222110	0.727800	-0.239555	-0.227019	0.452656	-0.306028	-0.235526	0.452528	-0.415050	-0.309110	0.337807	-0.278632	-0.264734	0.327755	-0.298006	-0.324246	0.294272	-0.285855	-0.282934	0.284129	-0.301949	-0.400600	0.097730	-0.335775	-0.391794	0.100365	-0.434108	-0.277051	0.029046	-0.303791	-0.277198	0.020809	-0.430063	-0.221598	0.035042	-0.372810	-0.487146	0.074604	-0.383797	-0.268753	0.763287	-0.599230	-0.225040	0.787810	-0.583686	-0.257155	0.731485	-0.604215	-0.211113	0.755630	-0.593760	-0.145420	0.498181	-0.577693	-0.134248	0.483379	-0.455196	-0.275686	0.433678	-0.604265	-0.240695	0.400005	-0.595558	-0.311911	0.404442	-0.597595	-0.273412	0.371209	-0.591526	-0.455813	0.239204	-0.550670	-0.412171	0.230456	-0.457259	-0.414378	0.109301	-0.579130	-0.394013	0.087468	-0.467436	-0.335026	0.061321	-0.534085	-0.515578	0.260453	-0.491527	-0.348282	1.433365	-0.201977	-0.341654	1.447325	-0.569150	
65	0.3200	-0.262383	0.949521	-0.266014	-0.263774	0.944038	-0.527968	-0.450920	0.941368	-0.354097	-0.448237	0.941497	-0.439858	-0.272550	0.750565	-0.219348	-0.220669	0.761875	-0.231756	-0.261554	0.716190	-0.223304	-0.207427	0.726695	-0.239312	-0.217556	0.451283	-0.305529	-0.225996	0.451223	-0.414690	-0.302291	0.338094	-0.278403	-0.258044	0.327008	-0.297651	-0.318414	0.294902	-0.285721	-0.277279	0.283721	-0.301588	-0.399650	0.099434	-0.335537	-0.390777	0.102034	-0.433707	-0.277722	0.028946	-0.303479	-0.277778	0.020613	-0.430029	-0.222248	0.034536	-0.372651	-0.486628	0.077488	-0.383442	-0.249623	0.764860	-0.598855	-0.206294	0.790152	-0.583047	-0.237457	0.733301	-0.603808	-0.191758	0.758248	-0.593030	-0.121632	0.501855	-0.576936	-0.110473	0.487387	-0.454505	-0.249691	0.433345	-0.603458	-0.213687	0.400843	-0.594897	-0.284991	0.403122	-0.597013	-0.245569	0.371307	-0.591303	-0.422647	0.233184	-0.550643	-0.378620	0.225855	-0.457307	-0.375398	0.106166	-0.580408	-0.354032	0.084478	-0.468827	-0.294102	0.062132	-0.535768	-0.483368	0.251208	-0.491256	-0.330437	1.433970	-0.202511	-0.326580	1.447343	-0.569702	
66	0.3250	-0.245080	0.950010	-0.265913	-0.247203	0.944627	-0.528090	-0.433863	0.941730	-0.353791	-0.431443	0.941536	-0.439495	-0.257750	0.750605	-0.219264	-0.205752	0.761201	-0.231551	-0.247364	0.716118	-0.223240	-0.193092	0.725725	-0.239055	-0.208549	0.450083	-0.304957	-0.216913	0.450060	-0.414267	-0.295825	0.338530	-0.278077	-0.251711	0.326466	-0.297196	-0.312867	0.295682	-0.285500	-0.271910	0.283526	-0.301120	-0.398566	0.101274	-0.335241	-0.389608	0.103882	-0.433216	-0.278300	0.028966	-0.303167	-0.278271	0.020629	-0.429975	-0.222854	0.034301	-0.372464	-0.485897	0.080527	-0.383025	-0.230980	0.766590	-0.598468	-0.188019	0.792602	-0.582435	-0.218286	0.735264	-0.603371	-0.172918	0.760956	-0.592313	-0.098606	0.505603	-0.576124	-0.087460	0.491487	-0.453781	-0.224395	0.433000	-0.602496	-0.187349	0.401731	-0.594142	-0.258704	0.401763	-0.596277	-0.218348	0.371434	-0.590981	-0.389767	0.227056	-0.550479	-0.345327	0.221172	-0.457249	-0.336780	0.103073	-0.581557	-0.314335	0.081581	-0.470110	-0.253601	0.063037	-0.537357	-0.451300	0.241811	-0.490822	-0.312901	1.434807	-0.203087	-0.311793	1.447562	-0.570233	
67	0.3300	-0.228126	0.950610	-0.265842	-0.231004	0.945403	-0.528207	-0.417136	0.942308	-0.353473	-0.414986	0.941845	-0.439117	-0.243350	0.750779	-0.219174	-0.191233	0.760651	-0.231344	-0.233581	0.716180	-0.223164	-0.179168	0.724884	-0.238787	-0.200009	0.449050	-0.304322	-0.208291	0.449038	-0.413789	-0.289712	0.339102	-0.277665	-0.245731	0.326121	-0.296653	-0.307601	0.296596	-0.285199	-0.266821	0.283531	-0.300556	-0.397340	0.103225	-0.334891	-0.388285	0.105879	-0.432648	-0.278775	0.029081	-0.302862	-0.278667	0.020822	-0.429909	-0.223398	0.034293	-0.372262	-0.484953	0.083700	-0.382554	-0.212909	0.768445	-0.598074	-0.170296	0.795124	-0.581855	-0.199729	0.737341	-0.602913	-0.154678	0.763719	-0.591618	-0.076447	0.509378	-0.575273	-0.065310	0.495628	-0.453037	-0.199922	0.432641	-0.601403	-0.161820	0.402655	-0.593314	-0.233185	0.400375	-0.595404	-0.191895	0.371583	-0.590573	-0.357379	0.220890	-0.550189	-0.312502	0.216464	-0.457094	-0.298781	0.100065	-0.582576	-0.275189	0.078821	-0.471283	-0.213796	0.064042	-0.538849	-0.419576	0.232364	-0.490240	-0.295767	1.435850	-0.203699	-0.297370	1.447963	-0.570741	
68	0.3350	-0.211619	0.951302	-0.265796	-0.215265	0.946342	-0.528315	-0.400836	0.943076	-0.353146	-0.398958	0.942397	-0.438727	-0.229420	0.751069	-0.219076	-0.177183	0.760213	-0.231137	-0.220269	0.716361	-0.223075	-0.165717	0.724162	-0.238508	-0.191948	0.448182	-0.303636	-0.200142	0.448157	-0.413265	-0.283949	0.339796	-0.277179	-0.240103	0.325959	-0.296037	-0.302613	0.297627	-0.284829	-0.262008	0.283719	-0.299910	-0.395978	0.105262	-0.334497	-0.386814	0.107992	-0.432016	-0.279141	0.029266	-0.302571	-0.278960	0.021155	-0.429836	-0.223867	0.034469	-0.372052	-0.483804	0.086979	-0.382039	-0.195495	0.770392	-0.597678	-0.153207	0.797682	-0.581311	-0.181874	0.739495	-0.602443	-0.137121	0.766498	-0.590952	-0.055256	0.513135	-0.574399	-0.044119	0.499761	-0.452290	-0.176396	0.432270	-0.600202	-0.137236	0.403601	-0.592431	-0.208567	0.398971	-0.594418	-0.166353	0.371748	-0.590094	-0.325699	0.214754	-0.549785	-0.280365	0.211788	-0.456852	-0.261661	0.097181	-0.583466	-0.236867	0.076234	-0.472346	-0.174962	0.065145	-0.540239	-0.388409	0.222965	-0.489526	-0.279132	1.437069	-0.204338	-0.283393	1.448526	-0.571224	
69	0.3400	-0.195655	0.952066	-0.265773	-0.200071	0.947416	-0.528412	-0.385061	0.944004	-0.352814	-0.383452	0.943160	-0.438333	-0.216029	0.751458	-0.218972	-0.163673	0.759877	-0.230929	-0.207491	0.716644	-0.222974	-0.152804	0.723552	-0.238221	-0.184374	0.447470	-0.302911	-0.192477	0.447414	-0.412705	-0.278536	0.340596	-0.276630	-0.234823	0.325966	-0.295360	-0.297902	0.298755	-0.284401	-0.257467	0.284073	-0.299198	-0.394490	0.107358	-0.334065	-0.385207	0.110186	-0.431334	-0.279400	0.029501	-0.302296	-0.279152	0.021593	-0.429761	-0.224255	0.034787	-0.371844	-0.482468	0.090335	-0.381487	-0.178822	0.772396	-0.597287	-0.136837	0.800242	-0.580807	-0.164804	0.741690	-0.601967	-0.120331	0.769258	-0.590323	-0.035129	0.516827	-0.573519	-0.023982	0.503835	-0.451552	-0.153933	0.431887	-0.598918	-0.113727	0.404555	-0.591514	-0.184980	0.397562	-0.593341	-0.141865	0.371923	-0.589558	-0.294940	0.208717	-0.549281	-0.249138	0.207198	-0.456535	-0.225677	0.094455	-0.584230	-0.199642	0.073847	-0.473299	-0.137367	0.066343	-0.541525	-0.358018	0.213714	-0.488697	-0.263092	1.438434	-0.204995	-0.269940	1.449228	-0.571679	
70	0.3450	-0.180332	0.952883	-0.265769	-0.185508	0.948595	-0.528496	-0.369908	0.945060	-0.352481	-0.368562	0.944100	-0.437939	-0.203245	0.751927	-0.218860	-0.150771	0.759631	-0.230722	-0.195307	0.717010	-0.222860	-0.140491	0.723046	-0.237929	-0.177293	0.446907	-0.302160	-0.185304	0.446803	-0.412119	-0.273471	0.341484	-0.276034	-0.229888	0.326123	-0.294638	-0.293469	0.299960	-0.283925	-0.253199	0.284572	-0.298435	-0.392894	0.109485	-0.333605	-0.383485	0.112428	-0.430615	-0.279557	0.029765	-0.302042	-0.279247	0.022104	-0.429688	-0.224562	0.035207	-0.371643	-0.480972	0.093734	-0.380910	-0.162969	0.774423	-0.596905	-0.121262	0.802767	-0.580345	-0.148599	0.743892	-0.601494	-0.104386	0.771962	-0.589734	-0.016151	0.520413	-0.572646	-0.004983	0.507804	-0.450835	-0.132645	0.431493	-0.597580	-0.091414	0.405503	-0.590580	-0.162548	0.396159	-0.592198	-0.118563	0.372101	-0.588979	-0.265315	0.202840	-0.548695	-0.219037	0.202745	-0.456156	-0.191078	0.091912	-0.584874	-0.163777	0.071682	-0.474143	-0.101270	0.067625	-0.542707	-0.328622	0.204705	-0.487777	-0.247742	1.439909	-0.205660	-0.257089	1.450044	-0.572105	
71	0.3500	-0.165743	0.953732	-0.265782	-0.171660	0.949849	-0.528566	-0.355471	0.946211	-0.352151	-0.354379	0.945180	-0.437550	-0.191132	0.752458	-0.218743	-0.138544	0.759467	-0.230517	-0.183776	0.717444	-0.222735	-0.128836	0.722634	-0.237634	-0.170712	0.446482	-0.301397	-0.178632	0.446318	-0.411519	-0.268754	0.342441	-0.275403	-0.225297	0.326413	-0.293887	-0.289316	0.301219	-0.283416	-0.249203	0.285193	-0.297638	-0.391214	0.111614	-0.333124	-0.381674	0.114682	-0.429873	-0.279621	0.030041	-0.301811	-0.279253	0.022659	-0.429619	-0.224787	0.035694	-0.371456	-0.479345	0.097137	-0.380316	-0.148011	0.776439	-0.596536	-0.106558	0.805225	-0.579926	-0.133335	0.746064	-0.601031	-0.089359	0.774578	-0.589191	0.001601	0.523853	-0.571794	0.012805	0.511626	-0.450151	-0.112629	0.431090	-0.596212	-0.070408	0.406430	-0.589648	-0.141383	0.394777	-0.591013	-0.096569	0.372276	-0.588373	-0.237023	0.197184	-0.548044	-0.190272	0.198474	-0.455728	-0.158098	0.089573	-0.585404	-0.129524	0.069753	-0.474883	-0.066914	0.068978	-0.543783	-0.300433	0.196025	-0.486788	-0.233170	1.441459	-0.206324	-0.244911	1.450947	-0.572500	
72	0.3550	-0.151973	0.954594	-0.265807	-0.158602	0.951147	-0.528621	-0.341836	0.947427	-0.351829	-0.340986	0.946363	-0.437173	-0.179747	0.753034	-0.218621	-0.127050	0.759372	-0.230315	-0.172951	0.717927	-0.222602	-0.117895	0.722308	-0.237340	-0.164633	0.446183	-0.300634	-0.172463	0.445951	-0.410914	-0.264385	0.343448	-0.274752	-0.221048	0.326814	-0.293122	-0.285445	0.302511	-0.282883	-0.245481	0.285912	-0.296823	-0.389477	0.113716	-0.332632	-0.379804	0.116915	-0.429123	-0.279602	0.030314	-0.301603	-0.279182	0.023231	-0.429556	-0.224938	0.036216	-0.371285	-0.477624	0.100507	-0.379717	-0.134014	0.778413	-0.596184	-0.092788	0.807585	-0.579552	-0.119073	0.748176	-0.600584	-0.075313	0.777075	-0.588696	0.018067	0.527113	-0.570975	0.029320	0.515260	-0.449506	-0.093969	0.430681	-0.594840	-0.050803	0.407324	-0.588735	-0.121585	0.393428	-0.589812	-0.075988	0.372444	-0.587753	-0.210252	0.191799	-0.547347	-0.163034	0.194426	-0.455265	-0.126950	0.087451	-0.585828	-0.097115	0.068066	-0.475523	-0.034515	0.070384	-0.544754	-0.273650	0.187754	-0.485753	-0.219458	1.443050	-0.206977	-0.233471	1.451910	-0.572864	
73	0.3600	-0.139099	0.955452	-0.265842	-0.146402	0.952457	-0.528661	-0.329080	0.948674	-0.351519	-0.328456	0.947612	-0.436812	-0.169144	0.753637	-0.218495	-0.116344	0.759336	-0.230118	-0.162877	0.718443	-0.222462	-0.107712	0.722060	-0.237051	-0.159057	0.445997	-0.299883	-0.166801	0.445692	-0.410315	-0.260363	0.344484	-0.274094	-0.217140	0.327304	-0.292357	-0.281858	0.303813	-0.282340	-0.242033	0.286706	-0.296006	-0.387715	0.115765	-0.332137	-0.377907	0.119095	-0.428378	-0.279515	0.030575	-0.301418	-0.279046	0.023799	-0.429501	-0.225020	0.036745	-0.371133	-0.475846	0.103803	-0.379123	-0.121032	0.780315	-0.595853	-0.080009	0.809821	-0.579222	-0.105869	0.750198	-0.600159	-0.062301	0.779427	-0.588250	0.033199	0.530163	-0.570198	0.044515	0.518674	-0.448909	-0.076733	0.430271	-0.593491	-0.032675	0.408172	-0.587855	-0.103235	0.392124	-0.588616	-0.056911	0.372599	-0.587134	-0.185165	0.186734	-0.546622	-0.137495	0.190635	-0.454781	-0.097819	0.085555	-0.586157	-0.066751	0.066619	-0.476068	-0.004261	0.071822	-0.545621	-0.248453	0.179963	-0.484698	-0.206675	1.444647	-0.207611	-0.222824	1.452908	-0.573195	
74	0.3650	-0.127184	0.956289	-0.265883	-0.135117	0.953753	-0.528688	-0.317268	0.949923	-0.351224	-0.316854	0.948890	-0.436472	-0.159363	0.754250	-0.218368	-0.106467	0.759350	-0.229929	-0.153592	0.718977	-0.222317	-0.098327	0.721879	-0.236771	-0.153982	0.445909	-0.299158	-0.161644	0.445529	-0.409732	-0.256687	0.345528	-0.273443	-0.213569	0.327862	-0.291607	-0.278559	0.305103	-0.281797	-0.238862	0.287549	-0.295202	-0.385958	0.117735	-0.331649	-0.376017	0.121192	-0.427650	-0.279374	0.030813	-0.301258	-0.278859	0.024344	-0.429455	-0.225045	0.037261	-0.371001	-0.474049	0.106986	-0.378542	-0.109108	0.782120	-0.595545	-0.068264	0.811909	-0.578935	-0.093761	0.752106	-0.599760	-0.050363	0.781614	-0.587855	0.046970	0.532981	-0.569473	0.058361	0.521841	-0.448362	-0.060970	0.429862	-0.592184	-0.016081	0.408967	-0.587020	-0.086395	0.390878	-0.587449	-0.039402	0.372739	-0.586527	-0.161901	0.182024	-0.545887	-0.113799	0.187128	-0.454288	-0.070859	0.083884	-0.586400	-0.038604	0.065406	-0.476524	0.023694	0.073270	-0.546387	-0.224997	0.172708	-0.483644	-0.194879	1.446219	-0.208218	-0.213015	1.453915	-0.573494	
75	0.3700	-0.116277	0.957090	-0.265928	-0.124789	0.955008	-0.528701	-0.306450	0.951146	-0.350949	-0.306226	0.950164	-0.436156	-0.150434	0.754860	-0.218241	-0.097450	0.759403	-0.229748	-0.145121	0.719515	-0.222172	-0.089766	0.721757	-0.236503	-0.149402	0.445905	-0.298466	-0.156987	0.445450	-0.409172	-0.253352	0.346562	-0.272810	-0.210332	0.328465	-0.290884	-0.275550	0.306360	-0.281266	-0.235969	0.288416	-0.294425	-0.384236	0.119603	-0.331175	-0.374167	0.123180	-0.426950	-0.279191	0.031024	-0.301120	-0.278635	0.024854	-0.429417	-0.225021	0.037745	-0.370890	-0.472270	0.110021	-0.377983	-0.098270	0.783806	-0.595262	-0.057582	0.813833	-0.578688	-0.082775	0.753879	-0.599392	-0.039525	0.783618	-0.587509	0.059370	0.535548	-0.568804	0.070844	0.524739	-0.447870	-0.046705	0.429461	-0.590942	-0.001053	0.409699	-0.586242	-0.071107	0.389702	-0.586329	-0.023507	0.372862	-0.585944	-0.140567	0.177699	-0.545160	-0.092059	0.183927	-0.453799	-0.046187	0.082435	-0.586570	-0.012805	0.064414	-0.476899	0.049238	0.074703	-0.547056	-0.203409	0.166038	-0.482613	-0.184111	1.447737	-0.208790	-0.204075	1.454908	-0.573762	
76	0.3750	-0.106411	0.957844	-0.265974	-0.115447	0.956201	-0.528703	-0.296658	0.952320	-0.350695	-0.296606	0.951403	-0.435867	-0.142376	0.755452	-0.218117	-0.089313	0.759486	-0.229578	-0.137481	0.720042	-0.222028	-0.082044	0.721684	-0.236250	-0.145310	0.445968	-0.297818	-0.152823	0.445441	-0.408645	-0.250357	0.347566	-0.272207	-0.207425	0.329091	-0.290199	-0.272829	0.307565	-0.280756	-0.233353	0.289285	-0.293688	-0.382579	0.121350	-0.330722	-0.372388	0.125036	-0.426289	-0.278982	0.031204	-0.301003	-0.278387	0.025317	-0.429387	-0.224959	0.038186	-0.370798	-0.470544	0.112873	-0.377455	-0.088532	0.785358	-0.595006	-0.047977	0.815579	-0.578479	-0.072920	0.755501	-0.599056	-0.029796	0.785428	-0.587211	0.070406	0.537855	-0.568197	0.081972	0.527356	-0.447434	-0.033946	0.429072	-0.589779	0.012398	0.410362	-0.585527	-0.057387	0.388605	-0.585274	-0.009244	0.372965	-0.585394	-0.121237	0.173780	-0.544455	-0.072354	0.181042	-0.453325	-0.023877	0.081199	-0.586676	0.010558	0.063625	-0.477201	0.072298	0.076098	-0.547631	-0.183779	0.159984	-0.481625	-0.174398	1.449176	-0.209322	-0.196022	1.455865	-0.573997	
77	0.3800	-0.097600	0.958540	-0.266019	-0.107103	0.957312	-0.528695	-0.287910	0.953424	-0.350466	-0.288009	0.952583	-0.435608	-0.135194	0.756015	-0.217997	-0.082060	0.759591	-0.229420	-0.130674	0.720549	-0.221888	-0.075165	0.721651	-0.236015	-0.141691	0.446083	-0.297221	-0.149138	0.445488	-0.408155	-0.247692	0.348523	-0.271641	-0.204839	0.329721	-0.289562	-0.270396	0.308700	-0.280276	-0.231012	0.290135	-0.292999	-0.381013	0.122958	-0.330298	-0.370707	0.126743	-0.425675	-0.278759	0.031352	-0.300905	-0.278127	0.025729	-0.429365	-0.224870	0.038577	-0.370726	-0.468903	0.115514	-0.376963	-0.079889	0.786762	-0.594777	-0.039446	0.817139	-0.578305	-0.064188	0.756963	-0.598754	-0.021171	0.787039	-0.586958	0.080108	0.539898	-0.567655	0.091769	0.529685	-0.447053	-0.022675	0.428700	-0.588710	0.024288	0.410955	-0.584882	-0.045227	0.387595	-0.584297	0.003394	0.373049	-0.584884	-0.103949	0.170277	-0.543787	-0.054724	0.178481	-0.452875	-0.003964	0.080164	-0.586732	0.031440	0.063019	-0.477438	0.092848	0.077432	-0.548120	-0.166163	0.154565	-0.480696	-0.165747	1.450515	-0.209808	-0.188860	1.456770	-0.574203	
78	0.3850	-0.089839	0.959172	-0.266062	-0.099752	0.958327	-0.528680	-0.280201	0.954441	-0.350262	-0.280431	0.953682	-0.435378	-0.128878	0.756541	-0.217883	-0.075683	0.759709	-0.229276	-0.124691	0.721025	-0.221755	-0.069119	0.721651	-0.235801	-0.138529	0.446234	-0.296679	-0.145917	0.445577	-0.407709	-0.245350	0.349420	-0.271122	-0.202566	0.330337	-0.288979	-0.268245	0.309752	-0.279831	-0.228942	0.290946	-0.292369	-0.379561	0.124416	-0.329906	-0.369148	0.128286	-0.425114	-0.278533	0.031470	-0.300825	-0.277867	0.026085	-0.429350	-0.224764	0.038912	-0.370669	-0.467373	0.117922	-0.376513	-0.072321	0.788011	-0.594575	-0.031971	0.818512	-0.578164	-0.056554	0.758257	-0.598488	-0.013627	0.788450	-0.586747	0.088521	0.541678	-0.567177	0.100280	0.531725	-0.446726	-0.012852	0.428350	-0.587744	0.034655	0.411474	-0.584310	-0.034597	0.386680	-0.583409	0.014440	0.373115	-0.584420	-0.088702	0.167193	-0.543166	-0.039172	0.176240	-0.452456	0.013562	0.079312	-0.586746	0.049843	0.062572	-0.477619	0.110907	0.078685	-0.548529	-0.150577	0.149785	-0.479839	-0.158148	1.451737	-0.210245	-0.182578	1.457608	-0.574380	
79	0.3900	-0.083107	0.959735	-0.266102	-0.093372	0.959237	-0.528659	-0.273511	0.955360	-0.350083	-0.273854	0.954682	-0.435179	-0.123406	0.757020	-0.217777	-0.070159	0.759832	-0.229147	-0.119508	0.721462	-0.221631	-0.063883	0.721674	-0.235608	-0.135804	0.446409	-0.296197	-0.143138	0.445697	-0.407309	-0.243318	0.350242	-0.270653	-0.200595	0.330922	-0.288456	-0.266370	0.310708	-0.279428	-0.227136	0.291702	-0.291801	-0.378239	0.125715	-0.329552	-0.367729	0.129658	-0.424611	-0.278313	0.031558	-0.300760	-0.277616	0.026387	-0.429340	-0.224648	0.039191	-0.370628	-0.465975	0.120081	-0.376109	-0.065791	0.789104	-0.594401	-0.025518	0.819698	-0.578050	-0.049980	0.759383	-0.598258	-0.007125	0.789664	-0.586574	0.095710	0.543203	-0.566764	0.107564	0.533484	-0.446450	-0.004418	0.428026	-0.586888	0.043560	0.411922	-0.583811	-0.025442	0.385862	-0.582616	0.023950	0.373164	-0.584007	-0.075460	0.164520	-0.542602	-0.025661	0.174312	-0.452076	0.028755	0.078627	-0.586731	0.065813	0.062260	-0.477753	0.126535	0.079839	-0.548865	-0.136997	0.145637	-0.479065	-0.151574	1.452833	-0.210632	-0.177149	1.458368	-0.574529	
80	0.3950	-0.077364	0.960226	-0.266136	-0.087927	0.960035	-0.528635	-0.267802	0.956172	-0.349930	-0.268238	0.955573	-0.435010	-0.118742	0.757448	-0.217681	-0.065452	0.759955	-0.229032	-0.115091	0.721855	-0.221518	-0.059421	0.721713	-0.235438	-0.133488	0.446594	-0.295775	-0.140776	0.445833	-0.406958	-0.241581	0.350982	-0.270239	-0.198909	0.331464	-0.287996	-0.264759	0.311561	-0.279070	-0.225583	0.292392	-0.291301	-0.377061	0.126852	-0.329237	-0.366465	0.130856	-0.424168	-0.278107	0.031622	-0.300709	-0.277381	0.026635	-0.429334	-0.224530	0.039418	-0.370598	-0.464725	0.121981	-0.375753	-0.060249	0.790041	-0.594252	-0.020037	0.820705	-0.577961	-0.044408	0.760345	-0.598061	-0.001612	0.790691	-0.586435	0.101752	0.544487	-0.566413	0.113698	0.534972	-0.446221	0.002705	0.427732	-0.586142	0.051083	0.412300	-0.583384	-0.017685	0.385146	-0.581922	0.032005	0.373199	-0.583645	-0.064149	0.162243	-0.542099	-0.014120	0.172681	-0.451737	0.041705	0.078087	-0.586695	0.079443	0.062059	-0.477847	0.139836	0.080880	-0.549135	-0.125364	0.142097	-0.478381	-0.145979	1.453795	-0.210968	-0.172534	1.459042	-0.574654	
81	0.4000	-0.072554	0.960646	-0.266166	-0.083363	0.960720	-0.528609	-0.263018	0.956875	-0.349801	-0.263531	0.956349	-0.434869	-0.114838	0.757823	-0.217595	-0.061512	0.760073	-0.228933	-0.111394	0.722200	-0.221418	-0.055688	0.721762	-0.235291	-0.131555	0.446779	-0.295414	-0.138802	0.445976	-0.406655	-0.240120	0.351634	-0.269881	-0.197491	0.331952	-0.287599	-0.263399	0.312306	-0.278759	-0.224271	0.293005	-0.290869	-0.376033	0.127828	-0.328964	-0.365362	0.131881	-0.423787	-0.277920	0.031665	-0.300669	-0.277170	0.026834	-0.429333	-0.224417	0.039595	-0.370579	-0.463632	0.123620	-0.375446	-0.055629	0.790829	-0.594128	-0.015465	0.821543	-0.577892	-0.039772	0.761149	-0.597896	0.002979	0.791541	-0.586326	0.106740	0.545547	-0.566120	0.118772	0.536209	-0.446035	0.008614	0.427471	-0.585508	0.057326	0.412613	-0.583027	-0.011231	0.384529	-0.581329	0.038703	0.373220	-0.583336	-0.054666	0.160341	-0.541662	-0.004442	0.171328	-0.451443	0.052542	0.077672	-0.586645	0.090860	0.061943	-0.477911	0.150949	0.081800	-0.549349	-0.115582	0.139135	-0.477789	-0.141305	1.454621	-0.211253	-0.168683	1.459627	-0.574756	
82	0.4050	-0.068608	0.960997	-0.266192	-0.079616	0.961294	-0.528583	-0.259092	0.957468	-0.349696	-0.259666	0.957007	-0.434754	-0.111636	0.758142	-0.217520	-0.058281	0.760181	-0.228849	-0.108362	0.722496	-0.221330	-0.052627	0.721815	-0.235168	-0.129971	0.446954	-0.295112	-0.137183	0.446117	-0.406400	-0.238916	0.352194	-0.269578	-0.196322	0.332381	-0.287265	-0.262273	0.312941	-0.278495	-0.223184	0.293537	-0.290505	-0.375157	0.128647	-0.328731	-0.364422	0.132738	-0.423465	-0.277756	0.031690	-0.300639	-0.276984	0.026989	-0.429333	-0.224313	0.039730	-0.370567	-0.462699	0.125003	-0.375187	-0.051856	0.791476	-0.594027	-0.011728	0.822224	-0.577841	-0.035991	0.761808	-0.597762	0.006726	0.792230	-0.586243	0.110776	0.546402	-0.565881	0.122884	0.537213	-0.445887	0.013418	0.427245	-0.584979	0.062402	0.412865	-0.582734	-0.005970	0.384009	-0.580832	0.044162	0.373232	-0.583077	-0.046878	0.158783	-0.541291	0.003507	0.170230	-0.451193	0.061427	0.077362	-0.586590	0.100228	0.061892	-0.477950	0.160045	0.082593	-0.549514	-0.107527	0.136707	-0.477288	-0.137479	1.455315	-0.211491	-0.165535	1.460122	-0.574838	
