PathFileType	4	(X/Y/Z)	 P8 -65r2 05.trc
DataRate	CameraRate	NumFrames	NumMarkers	Units	OrigDataRate	OrigDataStartFrame	OrigNumFrames
200	200	87	38	m	200	1	87
Frame#	Time	RASIS			LASIS			RPSIS			LPSIS			RThighRear1			RThighFront1			RThighRear2			RThighFront2			RKneeLat			RKneeMed			RShankRear1			RShankFront1			RShankRear2			RShankFront2			RAnkleLat			RAnkleMed			RM5			RM1			RMid			RHeel			LThighRear1			LThighFront1			LThighRear2			LThighFront2			LKneeLat			LKneeMed			LShankRear1			LShankFront1			LShankRear2			LShankFront2			LAnkleLat			LAnkleMed			LM5			LM1			LMid			LHeel			RShoulder			LShoulder			
		X1	Y1	Z1	X2	Y2	Z2	X3	Y3	Z3	X4	Y4	Z4	X5	Y5	Z5	X6	Y6	Z6	X7	Y7	Z7	X8	Y8	Z8	X9	Y9	Z9	X10	Y10	Z10	X11	Y11	Z11	X12	Y12	Z12	X13	Y13	Z13	X14	Y14	Z14	X15	Y15	Z15	X16	Y16	Z16	X17	Y17	Z17	X18	Y18	Z18	X19	Y19	Z19	X20	Y20	Z20	X21	Y21	Z21	X22	Y22	Z22	X23	Y23	Z23	X24	Y24	Z24	X25	Y25	Z25	X26	Y26	Z26	X27	Y27	Z27	X28	Y28	Z28	X29	Y29	Z29	X30	Y30	Z30	X31	Y31	Z31	X32	Y32	Z32	X33	Y33	Z33	X34	Y34	Z34	X35	Y35	Z35	X36	Y36	Z36	X37	Y37	Z37	X38	Y38	Z38	
1	0.0000	-1.388314	0.961806	-0.252123	-1.411200	0.959620	-0.507928	-1.576175	0.988626	-0.319265	-1.582372	0.985497	-0.404328	-1.432843	0.765075	-0.184393	-1.379464	0.767155	-0.197963	-1.427372	0.728799	-0.184976	-1.370264	0.729228	-0.201175	-1.440993	0.446303	-0.234192	-1.446244	0.436330	-0.345704	-1.578111	0.414143	-0.200037	-1.550986	0.375289	-0.218421	-1.617669	0.390157	-0.206698	-1.593040	0.354701	-0.219403	-1.802822	0.281276	-0.241648	-1.790785	0.270114	-0.335845	-1.830037	0.123299	-0.218908	-1.814999	0.126541	-0.340083	-1.781271	0.080875	-0.281020	-1.860331	0.340001	-0.291397	-1.419452	0.771461	-0.564737	-1.370428	0.792051	-0.555050	-1.411479	0.737954	-0.564884	-1.362097	0.757014	-0.559182	-1.307291	0.508805	-0.505838	-1.309587	0.504667	-0.388023	-1.361916	0.363876	-0.536323	-1.311785	0.368702	-0.527078	-1.363257	0.316020	-0.533753	-1.313200	0.324443	-0.528473	-1.317170	0.091586	-0.491041	-1.290338	0.119306	-0.396730	-1.185301	0.050097	-0.508223	-1.168123	0.053457	-0.392886	-1.103068	0.088006	-0.453880	-1.378024	0.062306	-0.437897	-1.366965	1.447623	-0.193449	-1.402621	1.456891	-0.554652	
2	0.0050	-1.374191	0.959677	-0.252076	-1.396251	0.958593	-0.508209	-1.562398	0.985787	-0.319842	-1.568209	0.983626	-0.405004	-1.415396	0.763805	-0.184836	-1.362266	0.766794	-0.199018	-1.409170	0.727783	-0.185242	-1.352389	0.729221	-0.202155	-1.418027	0.446051	-0.234695	-1.423023	0.436233	-0.346151	-1.554618	0.412873	-0.200429	-1.527335	0.374231	-0.219060	-1.594157	0.388746	-0.207071	-1.569376	0.353462	-0.220146	-1.779109	0.279311	-0.242565	-1.767003	0.268460	-0.336764	-1.802656	0.121602	-0.219283	-1.787850	0.124690	-0.340457	-1.752929	0.080222	-0.281346	-1.838053	0.336783	-0.292253	-1.405269	0.770370	-0.565245	-1.356127	0.790775	-0.555895	-1.397517	0.736818	-0.565241	-1.348114	0.755630	-0.559991	-1.294953	0.506880	-0.506110	-1.297020	0.502934	-0.388497	-1.351727	0.363333	-0.536037	-1.301752	0.366947	-0.526747	-1.354355	0.315787	-0.533509	-1.304306	0.322874	-0.527982	-1.315568	0.091749	-0.490138	-1.288433	0.118619	-0.395388	-1.184429	0.049046	-0.508148	-1.167097	0.051005	-0.392364	-1.101723	0.084060	-0.453003	-1.377203	0.062780	-0.437239	-1.354465	1.446410	-0.193570	-1.387039	1.454636	-0.555654	
3	0.0100	-1.359889	0.957558	-0.252020	-1.381087	0.957579	-0.508494	-1.548426	0.982938	-0.320438	-1.553837	0.981756	-0.405693	-1.397718	0.762575	-0.185286	-1.344844	0.766495	-0.200086	-1.390719	0.726816	-0.185517	-1.334276	0.729280	-0.203153	-1.394701	0.445869	-0.235224	-1.399463	0.436211	-0.346627	-1.530756	0.411622	-0.200847	-1.503298	0.373196	-0.219727	-1.570269	0.387331	-0.207470	-1.545319	0.352226	-0.220912	-1.754994	0.277241	-0.243496	-1.742822	0.266702	-0.337704	-1.774770	0.119811	-0.219669	-1.760206	0.122737	-0.340844	-1.724061	0.079505	-0.281691	-1.815413	0.333413	-0.293119	-1.390910	0.769264	-0.565752	-1.341647	0.789470	-0.556739	-1.383389	0.735666	-0.565597	-1.333962	0.754214	-0.560799	-1.282537	0.504902	-0.506386	-1.284367	0.501147	-0.388973	-1.341495	0.362761	-0.535752	-1.291681	0.365153	-0.526419	-1.345423	0.315531	-0.533263	-1.295384	0.321270	-0.527494	-1.313981	0.091914	-0.489234	-1.286546	0.117942	-0.394046	-1.183558	0.048008	-0.508077	-1.166068	0.048572	-0.391847	-1.100375	0.080155	-0.452136	-1.376416	0.063237	-0.436575	-1.341797	1.445204	-0.193688	-1.371199	1.452368	-0.556645	
4	0.0150	-1.345423	0.955479	-0.251953	-1.365718	0.956594	-0.508782	-1.534268	0.980107	-0.321057	-1.539261	0.979908	-0.406397	-1.379834	0.761415	-0.185744	-1.327223	0.766290	-0.201162	-1.372049	0.725930	-0.185806	-1.315954	0.729439	-0.204169	-1.371041	0.445795	-0.235786	-1.375593	0.436302	-0.347141	-1.506541	0.410408	-0.201303	-1.478884	0.372209	-0.220427	-1.546015	0.385922	-0.207905	-1.520872	0.351008	-0.221705	-1.730450	0.275036	-0.244446	-1.718216	0.264808	-0.338667	-1.746335	0.117909	-0.220067	-1.732024	0.120669	-0.341247	-1.694628	0.078719	-0.282054	-1.792382	0.329846	-0.294000	-1.376397	0.768156	-0.566254	-1.327011	0.788143	-0.557574	-1.369122	0.734509	-0.565948	-1.319666	0.752772	-0.561597	-1.270101	0.502879	-0.506665	-1.271685	0.499311	-0.389447	-1.331278	0.362168	-0.535473	-1.281629	0.363332	-0.526101	-1.336512	0.315262	-0.533021	-1.286488	0.319646	-0.527017	-1.312422	0.092090	-0.488340	-1.284690	0.117296	-0.392720	-1.182699	0.046994	-0.508011	-1.165049	0.046181	-0.391341	-1.099041	0.076336	-0.451290	-1.375675	0.063688	-0.435915	-1.328977	1.444024	-0.193799	-1.355106	1.450111	-0.557608	
5	0.0200	-1.330801	0.953468	-0.251872	-1.350147	0.955656	-0.509072	-1.519924	0.977325	-0.321700	-1.524478	0.978106	-0.407116	-1.361765	0.760361	-0.186209	-1.309422	0.766214	-0.202243	-1.353179	0.725161	-0.186111	-1.297443	0.729730	-0.205201	-1.347064	0.445867	-0.236386	-1.351436	0.436545	-0.347700	-1.481982	0.409250	-0.201805	-1.454094	0.371294	-0.221167	-1.521395	0.384528	-0.208384	-1.496027	0.349823	-0.222529	-1.705439	0.272665	-0.245419	-1.693143	0.262747	-0.339657	-1.717295	0.115886	-0.220480	-1.703243	0.118473	-0.341666	-1.664575	0.077863	-0.282438	-1.768917	0.326029	-0.294903	-1.361746	0.767058	-0.566745	-1.312237	0.786801	-0.558391	-1.354734	0.733359	-0.566290	-1.305244	0.751310	-0.562376	-1.257697	0.500819	-0.506945	-1.259028	0.497435	-0.389915	-1.321128	0.361565	-0.535205	-1.271650	0.361499	-0.525796	-1.327670	0.314988	-0.532784	-1.277665	0.318017	-0.526558	-1.310899	0.092290	-0.487468	-1.282877	0.116698	-0.391426	-1.181864	0.046011	-0.507953	-1.164055	0.043856	-0.390850	-1.097738	0.072647	-0.450472	-1.374989	0.064147	-0.435268	-1.316018	1.442890	-0.193898	-1.338753	1.447889	-0.558528	
6	0.0250	-1.316027	0.951558	-0.251777	-1.334369	0.954780	-0.509362	-1.505386	0.974622	-0.322369	-1.509482	0.976374	-0.407849	-1.343521	0.759446	-0.186683	-1.291455	0.766299	-0.203323	-1.334124	0.724541	-0.186437	-1.278756	0.730187	-0.206247	-1.322783	0.446123	-0.237031	-1.327008	0.436976	-0.348312	-1.457081	0.408163	-0.202362	-1.428924	0.370474	-0.221953	-1.496401	0.383157	-0.208917	-1.470770	0.348686	-0.223389	-1.679910	0.270094	-0.246419	-1.667549	0.260487	-0.340681	-1.687585	0.113729	-0.220909	-1.673795	0.116142	-0.342106	-1.633839	0.076938	-0.282844	-1.744962	0.321912	-0.295835	-1.346968	0.765982	-0.567220	-1.297333	0.785451	-0.559182	-1.340240	0.732231	-0.566620	-1.290709	0.749837	-0.563128	-1.245375	0.498734	-0.507226	-1.246447	0.495526	-0.390372	-1.311093	0.360964	-0.534952	-1.261793	0.359670	-0.525512	-1.318940	0.314724	-0.532557	-1.268962	0.316402	-0.526124	-1.309421	0.092527	-0.486630	-1.281116	0.116170	-0.390181	-1.181065	0.045064	-0.507905	-1.163102	0.041617	-0.390377	-1.096482	0.069128	-0.449689	-1.374363	0.064629	-0.434643	-1.302924	1.441823	-0.193982	-1.322133	1.445725	-0.559388	
7	0.0300	-1.301097	0.949776	-0.251667	-1.318375	0.953982	-0.509649	-1.490646	0.972029	-0.323069	-1.494261	0.974734	-0.408598	-1.325112	0.758701	-0.187165	-1.273328	0.766577	-0.204398	-1.314893	0.724104	-0.186787	-1.259904	0.730839	-0.207304	-1.298210	0.446599	-0.237727	-1.302320	0.437633	-0.348982	-1.431836	0.407164	-0.202984	-1.403366	0.369772	-0.222790	-1.471024	0.381817	-0.209512	-1.445085	0.347613	-0.224289	-1.653807	0.267295	-0.247453	-1.641376	0.258001	-0.341743	-1.657133	0.111434	-0.221357	-1.643604	0.113671	-0.342566	-1.602351	0.075951	-0.283271	-1.720454	0.317448	-0.296804	-1.332067	0.764941	-0.567675	-1.282306	0.784100	-0.559938	-1.325648	0.731136	-0.566935	-1.276070	0.748361	-0.563844	-1.233176	0.496635	-0.507507	-1.233986	0.493596	-0.390815	-1.301216	0.360379	-0.534720	-1.252102	0.357863	-0.525251	-1.310361	0.314483	-0.532343	-1.260419	0.314819	-0.525724	-1.307993	0.092816	-0.485838	-1.279415	0.115731	-0.389000	-1.180314	0.044159	-0.507868	-1.162205	0.039482	-0.389926	-1.095290	0.065813	-0.448949	-1.373801	0.065156	-0.434052	-1.289701	1.440844	-0.194046	-1.305235	1.443646	-0.560172	
8	0.0350	-1.286006	0.948153	-0.251541	-1.302155	0.953278	-0.509931	-1.475690	0.969577	-0.323799	-1.478799	0.973209	-0.409364	-1.306546	0.758157	-0.187656	-1.255049	0.767077	-0.205464	-1.295497	0.723880	-0.187165	-1.240895	0.731716	-0.208370	-1.273358	0.447329	-0.238476	-1.277386	0.438547	-0.349716	-1.406246	0.406264	-0.203679	-1.377413	0.369212	-0.223681	-1.445252	0.380516	-0.210176	-1.418957	0.346619	-0.225232	-1.627075	0.264241	-0.248527	-1.614564	0.255265	-0.342847	-1.625869	0.108996	-0.221824	-1.612593	0.111060	-0.343050	-1.570045	0.074912	-0.283719	-1.695329	0.312590	-0.297822	-1.317046	0.763949	-0.568104	-1.267160	0.782757	-0.560651	-1.310964	0.730089	-0.567230	-1.261333	0.746889	-0.564518	-1.221140	0.494537	-0.507786	-1.221689	0.491656	-0.391240	-1.291537	0.359828	-0.534514	-1.242616	0.356097	-0.525020	-1.301967	0.314283	-0.532146	-1.252071	0.313289	-0.525363	-1.306617	0.093172	-0.485104	-1.277777	0.115401	-0.387899	-1.179620	0.043299	-0.507843	-1.161380	0.037467	-0.389499	-1.094176	0.062731	-0.448256	-1.373302	0.065752	-0.433504	-1.276350	1.439973	-0.194086	-1.288046	1.441676	-0.560865	
9	0.0400	-1.270746	0.946717	-0.251400	-1.285698	0.952679	-0.510207	-1.460504	0.967296	-0.324563	-1.463084	0.971821	-0.410147	-1.287826	0.757843	-0.188155	-1.236621	0.767824	-0.206515	-1.275944	0.723896	-0.187574	-1.221736	0.732841	-0.209439	-1.248241	0.448341	-0.239284	-1.252219	0.439748	-0.350517	-1.380315	0.405475	-0.204452	-1.351064	0.368812	-0.224630	-1.419078	0.379259	-0.210917	-1.392372	0.345718	-0.226220	-1.599659	0.260910	-0.249648	-1.587052	0.252257	-0.344000	-1.593730	0.106419	-0.222314	-1.580693	0.108316	-0.343558	-1.536862	0.073836	-0.284187	-1.669519	0.307301	-0.298899	-1.301907	0.763018	-0.568505	-1.251894	0.781431	-0.561312	-1.296192	0.729104	-0.567503	-1.246502	0.745432	-0.565140	-1.209300	0.492455	-0.508063	-1.209590	0.489722	-0.391644	-1.282087	0.359329	-0.534337	-1.233366	0.354396	-0.524822	-1.293786	0.314142	-0.531968	-1.243948	0.311835	-0.525048	-1.305293	0.093611	-0.484440	-1.276202	0.115198	-0.386892	-1.178994	0.042483	-0.507832	-1.160639	0.035583	-0.389097	-1.093155	0.059906	-0.447613	-1.372862	0.066442	-0.433011	-1.262873	1.439230	-0.194098	-1.270558	1.439842	-0.561452	
10	0.0450	-1.255308	0.945492	-0.251245	-1.268992	0.952198	-0.510472	-1.445074	0.965216	-0.325360	-1.447102	0.970591	-0.410949	-1.268960	0.757781	-0.188663	-1.218051	0.768838	-0.207545	-1.256244	0.724173	-0.188017	-1.202434	0.734234	-0.210508	-1.222882	0.449659	-0.240151	-1.226837	0.441257	-0.351387	-1.354050	0.404807	-0.205311	-1.324322	0.368590	-0.225637	-1.392502	0.378052	-0.211738	-1.365326	0.344923	-0.227255	-1.571510	0.257286	-0.250822	-1.558787	0.248965	-0.345206	-1.560662	0.103713	-0.222829	-1.547843	0.105452	-0.344092	-1.502754	0.072743	-0.284672	-1.642964	0.301548	-0.300044	-1.286648	0.762163	-0.568872	-1.236510	0.780132	-0.561915	-1.281335	0.728197	-0.567752	-1.231578	0.744002	-0.565706	-1.197681	0.490409	-0.508334	-1.197722	0.487809	-0.392023	-1.272892	0.358902	-0.534195	-1.224380	0.352781	-0.524661	-1.285840	0.314081	-0.531814	-1.236072	0.310482	-0.524784	-1.304015	0.094152	-0.483856	-1.274685	0.115139	-0.385994	-1.178443	0.041713	-0.507836	-1.159997	0.033838	-0.388722	-1.092240	0.057354	-0.447022	-1.372471	0.067256	-0.432584	-1.249270	1.438632	-0.194078	-1.252766	1.438168	-0.561920	
11	0.0500	-1.239684	0.944502	-0.251077	-1.252031	0.951844	-0.510726	-1.429390	0.963366	-0.326190	-1.430843	0.969538	-0.411770	-1.249957	0.757992	-0.189179	-1.199344	0.770137	-0.208549	-1.236409	0.724731	-0.188497	-1.183000	0.735908	-0.211571	-1.197309	0.451302	-0.241077	-1.201264	0.443092	-0.352326	-1.327466	0.404265	-0.206257	-1.297201	0.368562	-0.226702	-1.365528	0.376899	-0.212644	-1.337822	0.344246	-0.228338	-1.542590	0.253358	-0.252056	-1.529726	0.245382	-0.346469	-1.526627	0.100892	-0.223369	-1.513997	0.102487	-0.344653	-1.467688	0.071657	-0.285172	-1.615609	0.295310	-0.301269	-1.271271	0.761398	-0.569203	-1.221009	0.778871	-0.562452	-1.266394	0.727380	-0.567972	-1.216564	0.742609	-0.566209	-1.186306	0.488419	-0.508601	-1.186110	0.485936	-0.392374	-1.263971	0.358570	-0.534091	-1.215675	0.351279	-0.524540	-1.278142	0.314121	-0.531686	-1.228460	0.309255	-0.524576	-1.302776	0.094810	-0.483363	-1.273219	0.115242	-0.385217	-1.177975	0.040985	-0.507855	-1.159465	0.032238	-0.388373	-1.091444	0.055085	-0.446483	-1.372116	0.068227	-0.432233	-1.235545	1.438198	-0.194025	-1.234671	1.436678	-0.562257	
12	0.0550	-1.223867	0.943766	-0.250899	-1.234809	0.951626	-0.510963	-1.413441	0.961770	-0.327052	-1.414301	0.968678	-0.412608	-1.230826	0.758491	-0.189701	-1.180510	0.771727	-0.209522	-1.216455	0.725581	-0.189014	-1.163446	0.737873	-0.212622	-1.171560	0.453280	-0.242061	-1.175530	0.445262	-0.353332	-1.300586	0.403851	-0.207293	-1.269723	0.368737	-0.227824	-1.338171	0.375802	-0.213636	-1.309875	0.343696	-0.229467	-1.512871	0.249124	-0.253355	-1.499835	0.241510	-0.347791	-1.491602	0.097977	-0.223937	-1.479125	0.099449	-0.345241	-1.431649	0.070609	-0.285685	-1.587411	0.288575	-0.302584	-1.255775	0.760736	-0.569494	-1.205391	0.777660	-0.562920	-1.251371	0.726670	-0.568164	-1.201463	0.741268	-0.566644	-1.175188	0.486508	-0.508860	-1.174773	0.484124	-0.392696	-1.255334	0.358356	-0.534029	-1.207263	0.349914	-0.524462	-1.270702	0.314285	-0.531587	-1.221119	0.308180	-0.524428	-1.301563	0.095605	-0.482970	-1.271790	0.115521	-0.384571	-1.177595	0.040298	-0.507889	-1.159054	0.030787	-0.388049	-1.090776	0.053102	-0.445995	-1.371776	0.069389	-0.431968	-1.221701	1.437943	-0.193933	-1.216279	1.435395	-0.562454	
13	0.0600	-1.207852	0.943300	-0.250711	-1.217327	0.951550	-0.511182	-1.397223	0.960452	-0.327944	-1.397473	0.968029	-0.413463	-1.211583	0.759285	-0.190230	-1.161560	0.773613	-0.210457	-1.196401	0.726730	-0.189569	-1.143788	0.740128	-0.213654	-1.145681	0.455597	-0.243100	-1.149673	0.447770	-0.354400	-1.273444	0.403565	-0.208419	-1.241922	0.369124	-0.228998	-1.310458	0.374764	-0.214713	-1.281510	0.343280	-0.230640	-1.482338	0.244589	-0.254724	-1.469097	0.237356	-0.349175	-1.455584	0.094996	-0.224536	-1.443216	0.096371	-0.345859	-1.394641	0.069633	-0.286206	-1.558335	0.281342	-0.303998	-1.240163	0.760191	-0.569744	-1.189660	0.776513	-0.563314	-1.236269	0.726081	-0.568324	-1.186278	0.739994	-0.567010	-1.164333	0.484700	-0.509113	-1.163721	0.482393	-0.392987	-1.246985	0.358286	-0.534012	-1.199146	0.348714	-0.524430	-1.263517	0.314598	-0.531519	-1.214051	0.307284	-0.524343	-1.300358	0.096555	-0.482687	-1.270381	0.115991	-0.384067	-1.177305	0.039648	-0.507938	-1.158769	0.029486	-0.387750	-1.090243	0.051401	-0.445557	-1.371425	0.070777	-0.431800	-1.207742	1.437878	-0.193802	-1.197603	1.434339	-0.562503	
14	0.0650	-1.191636	0.943115	-0.250519	-1.199588	0.951620	-0.511379	-1.380734	0.959431	-0.328860	-1.380360	0.967602	-0.414331	-1.192243	0.760379	-0.190763	-1.142507	0.775790	-0.211347	-1.176270	0.728177	-0.190161	-1.124043	0.742667	-0.214660	-1.119723	0.458249	-0.244190	-1.123737	0.450608	-0.355526	-1.246080	0.403402	-0.209631	-1.213840	0.369725	-0.230221	-1.282421	0.373782	-0.215873	-1.252765	0.343005	-0.231855	-1.450993	0.239766	-0.256169	-1.437507	0.232939	-0.350622	-1.418589	0.091983	-0.225166	-1.406280	0.093293	-0.346506	-1.356691	0.068766	-0.286734	-1.528364	0.273621	-0.305520	-1.224438	0.759777	-0.569951	-1.173820	0.775442	-0.563631	-1.221090	0.725628	-0.568453	-1.171013	0.738800	-0.567303	-1.153741	0.483019	-0.509359	-1.152959	0.480768	-0.393248	-1.238917	0.358384	-0.534043	-1.191319	0.347705	-0.524446	-1.256581	0.315085	-0.531485	-1.207248	0.306593	-0.524325	-1.299141	0.097679	-0.482519	-1.268967	0.116664	-0.383712	-1.177107	0.039034	-0.508002	-1.158617	0.028333	-0.387474	-1.089851	0.049969	-0.445164	-1.371033	0.072427	-0.431736	-1.193676	1.438016	-0.193630	-1.178662	1.433531	-0.562399	
15	0.0700	-1.175220	0.943219	-0.250323	-1.181600	0.951839	-0.511551	-1.363975	0.958723	-0.329796	-1.362970	0.967409	-0.415209	-1.172825	0.761769	-0.191297	-1.123370	0.778249	-0.212188	-1.156086	0.729916	-0.190788	-1.104233	0.745479	-0.215632	-1.093749	0.461223	-0.245325	-1.097774	0.453765	-0.356702	-1.218544	0.403354	-0.210926	-1.185533	0.370539	-0.231485	-1.254106	0.372856	-0.217113	-1.223688	0.342873	-0.233108	-1.418850	0.234674	-0.257692	-1.405077	0.228283	-0.352132	-1.380652	0.088974	-0.225831	-1.368347	0.090260	-0.347184	-1.317844	0.068048	-0.287264	-1.497492	0.265434	-0.307156	-1.208605	0.759505	-0.570115	-1.157876	0.774463	-0.563870	-1.205838	0.725323	-0.568551	-1.155672	0.737705	-0.567524	-1.143403	0.481491	-0.509598	-1.142479	0.479271	-0.393478	-1.231117	0.358675	-0.534125	-1.183766	0.346913	-0.524511	-1.249875	0.315768	-0.531487	-1.200692	0.306134	-0.524376	-1.297885	0.098995	-0.482473	-1.267522	0.117550	-0.383514	-1.176997	0.038452	-0.508079	-1.158597	0.027329	-0.387220	-1.089603	0.048791	-0.444813	-1.370564	0.074377	-0.431785	-1.179509	1.438364	-0.193415	-1.159485	1.432985	-0.562140	
16	0.0750	-1.158605	0.943612	-0.250128	-1.163376	0.952209	-0.511695	-1.346953	0.958339	-0.330744	-1.345313	0.967459	-0.416092	-1.153353	0.763446	-0.191832	-1.104166	0.780970	-0.212973	-1.135878	0.731934	-0.191448	-1.084382	0.748543	-0.216563	-1.067824	0.464500	-0.246499	-1.071840	0.457219	-0.357920	-1.190894	0.403412	-0.212297	-1.157061	0.371559	-0.232785	-1.225566	0.371982	-0.218427	-1.194336	0.342884	-0.234392	-1.385939	0.229339	-0.259296	-1.371834	0.223419	-0.353705	-1.341829	0.086011	-0.226533	-1.329469	0.087320	-0.347893	-1.278166	0.067523	-0.287796	-1.465729	0.256812	-0.308912	-1.192669	0.759388	-0.570236	-1.141834	0.773591	-0.564033	-1.190516	0.725180	-0.568617	-1.140260	0.736723	-0.567675	-1.133302	0.480140	-0.509832	-1.132268	0.477925	-0.393680	-1.223561	0.359183	-0.534259	-1.176464	0.346365	-0.524629	-1.243376	0.316672	-0.531527	-1.194360	0.305932	-0.524497	-1.296561	0.100520	-0.482554	-1.266014	0.118661	-0.383475	-1.176971	0.037903	-0.508170	-1.158707	0.026470	-0.386986	-1.089498	0.047845	-0.444499	-1.369974	0.076662	-0.431952	-1.165250	1.438926	-0.193158	-1.140102	1.432715	-0.561726	
17	0.0800	-1.141795	0.944291	-0.249936	-1.144933	0.952729	-0.511807	-1.329676	0.958287	-0.331697	-1.327405	0.967756	-0.416974	-1.133848	0.765393	-0.192362	-1.084917	0.783931	-0.213697	-1.115674	0.734211	-0.192136	-1.064514	0.751833	-0.217445	-1.042019	0.468053	-0.247705	-1.045997	0.460941	-0.359171	-1.163192	0.403559	-0.213737	-1.128495	0.372776	-0.234111	-1.196860	0.371153	-0.219808	-1.164776	0.343036	-0.235704	-1.352303	0.223796	-0.260982	-1.337822	0.218386	-0.355338	-1.302192	0.083139	-0.227275	-1.289717	0.084527	-0.348635	-1.237743	0.067231	-0.288329	-1.433100	0.247799	-0.310790	-1.176637	0.759436	-0.570315	-1.125702	0.772840	-0.564122	-1.175127	0.725211	-0.568654	-1.124782	0.735871	-0.567758	-1.123412	0.478991	-0.510065	-1.122300	0.476752	-0.393859	-1.216218	0.359931	-0.534448	-1.169382	0.346083	-0.524802	-1.237050	0.317819	-0.531606	-1.188217	0.306009	-0.524690	-1.295134	0.102274	-0.482765	-1.264404	0.120005	-0.383600	-1.177021	0.037388	-0.508272	-1.158940	0.025756	-0.386771	-1.089533	0.047103	-0.444219	-1.369219	0.079318	-0.432243	-1.150905	1.439704	-0.192858	-1.120551	1.432730	-0.561159	
18	0.0850	-1.124797	0.945248	-0.249750	-1.126290	0.953397	-0.511886	-1.312159	0.958568	-0.332645	-1.309263	0.968303	-0.417847	-1.114337	0.767590	-0.192885	-1.065644	0.787101	-0.214355	-1.095505	0.736722	-0.192848	-1.044657	0.755318	-0.218271	-1.016407	0.471847	-0.248934	-1.020310	0.464898	-0.360445	-1.135504	0.403780	-0.215236	-1.099909	0.374174	-0.235455	-1.168053	0.370364	-0.221248	-1.135083	0.343323	-0.237036	-1.317999	0.218083	-0.262750	-1.303097	0.213226	-0.357029	-1.261831	0.080403	-0.228062	-1.249179	0.081934	-0.349414	-1.196675	0.067216	-0.288862	-1.399642	0.238445	-0.312791	-1.160517	0.759659	-0.570353	-1.109489	0.772225	-0.564141	-1.159674	0.725425	-0.568662	-1.109243	0.735165	-0.567778	-1.113700	0.478066	-0.510298	-1.112540	0.475772	-0.394018	-1.209047	0.360940	-0.534693	-1.162477	0.346088	-0.525030	-1.230856	0.319229	-0.531727	-1.182223	0.306386	-0.524955	-1.293567	0.104274	-0.483107	-1.262652	0.121589	-0.383889	-1.177135	0.036912	-0.508385	-1.159285	0.025187	-0.386574	-1.089701	0.046537	-0.443968	-1.368246	0.082377	-0.432659	-1.136485	1.440698	-0.192517	-1.100872	1.433036	-0.560444	
19	0.0900	-1.107620	0.946468	-0.249571	-1.107469	0.954211	-0.511928	-1.294414	0.959178	-0.333579	-1.290909	0.969101	-0.418704	-1.094843	0.770010	-0.193398	-1.046370	0.790447	-0.214941	-1.075401	0.739437	-0.193576	-1.024836	0.758961	-0.219034	-0.991061	0.475843	-0.250179	-0.994844	0.469050	-0.361733	-1.107901	0.404054	-0.216785	-1.071381	0.375736	-0.236809	-1.139217	0.369604	-0.222738	-1.105334	0.343737	-0.238382	-1.283095	0.212242	-0.264600	-1.267731	0.207988	-0.358773	-1.220846	0.077848	-0.228897	-1.207962	0.079594	-0.350231	-1.155077	0.067517	-0.289397	-1.365409	0.228809	-0.314915	-1.144315	0.760065	-0.570355	-1.093201	0.771759	-0.564095	-1.144160	0.725831	-0.568645	-1.093647	0.734621	-0.567742	-1.104124	0.477381	-0.510537	-1.102947	0.475002	-0.394164	-1.202002	0.362226	-0.534994	-1.155703	0.346399	-0.525318	-1.224745	0.320920	-0.531891	-1.176329	0.307080	-0.525294	-1.291818	0.106535	-0.483579	-1.260714	0.123418	-0.384341	-1.177299	0.036481	-0.508508	-1.159725	0.024764	-0.386396	-1.089992	0.046115	-0.443743	-1.367002	0.085871	-0.433203	-1.121994	1.441903	-0.192135	-1.081109	1.433634	-0.559588	
20	0.0950	-1.090271	0.947934	-0.249403	-1.088495	0.955166	-0.511932	-1.276461	0.960110	-0.334488	-1.272365	0.970147	-0.419535	-1.075390	0.772620	-0.193896	-1.027115	0.793928	-0.215453	-1.055391	0.742320	-0.194314	-1.005078	0.762720	-0.219728	-0.966052	0.479995	-0.251432	-0.969665	0.473350	-0.363025	-1.080451	0.404360	-0.218372	-1.042991	0.377437	-0.238164	-1.110421	0.368864	-0.224269	-1.075610	0.344267	-0.239735	-1.247670	0.206320	-0.266527	-1.231806	0.202721	-0.360568	-1.179353	0.075519	-0.229786	-1.166185	0.077558	-0.351092	-1.113075	0.068169	-0.289940	-1.330465	0.218955	-0.317158	-1.128038	0.760658	-0.570322	-1.076847	0.771456	-0.563994	-1.128586	0.726435	-0.568606	-1.077996	0.734250	-0.567657	-1.094636	0.476954	-0.510788	-1.093466	0.474456	-0.394305	-1.195026	0.363804	-0.535352	-1.149004	0.347028	-0.525666	-1.218665	0.322904	-0.532097	-1.170480	0.308103	-0.525705	-1.289844	0.109073	-0.484181	-1.258541	0.125499	-0.384953	-1.177493	0.036107	-0.508639	-1.160238	0.024492	-0.386236	-1.090391	0.045804	-0.443542	-1.365429	0.089824	-0.433873	-1.107438	1.443311	-0.191716	-1.061305	1.434523	-0.558600	
21	0.1000	-1.072763	0.949623	-0.249244	-1.069393	0.956257	-0.511894	-1.258316	0.961350	-0.335362	-1.253655	0.971433	-0.420332	-1.056003	0.775385	-0.194376	-1.007901	0.797501	-0.215885	-1.035502	0.745333	-0.195054	-0.985407	0.766550	-0.220347	-0.941449	0.484253	-0.252686	-0.944836	0.477751	-0.364310	-1.053223	0.404675	-0.219987	-1.014817	0.379253	-0.239511	-1.081739	0.368132	-0.225831	-1.045995	0.344898	-0.241090	-1.211810	0.200363	-0.268530	-1.195416	0.197476	-0.362407	-1.137475	0.073455	-0.230734	-1.123977	0.075874	-0.352000	-1.070805	0.069204	-0.290495	-1.294887	0.208955	-0.319513	-1.111692	0.761442	-0.570259	-1.060432	0.771324	-0.563844	-1.112953	0.727239	-0.568547	-1.062292	0.734065	-0.567533	-1.085180	0.476795	-0.511056	-1.084039	0.474143	-0.394449	-1.188059	0.365684	-0.535768	-1.142319	0.347986	-0.526078	-1.212553	0.325194	-0.532349	-1.164617	0.309466	-0.526189	-1.287600	0.111902	-0.484908	-1.256086	0.127834	-0.385721	-1.177695	0.035802	-0.508778	-1.160798	0.024377	-0.386098	-1.090879	0.045573	-0.443363	-1.363469	0.094260	-0.434666	-1.092820	1.444912	-0.191261	-1.041503	1.435695	-0.557492	
22	0.1050	-1.055106	0.951508	-0.249096	-1.050188	0.957478	-0.511814	-1.240001	0.962880	-0.336190	-1.234804	0.972952	-0.421086	-1.036701	0.778264	-0.194832	-0.988748	0.801121	-0.216237	-1.015758	0.748433	-0.195788	-0.965846	0.770405	-0.220886	-0.917313	0.488565	-0.253934	-0.920418	0.482200	-0.365582	-1.026283	0.404974	-0.221617	-0.986935	0.381155	-0.240845	-1.053241	0.367395	-0.227414	-1.016570	0.345615	-0.242441	-1.175610	0.194420	-0.270604	-1.158661	0.192303	-0.364285	-1.095340	0.071693	-0.231750	-1.081481	0.074584	-0.352963	-1.028407	0.070647	-0.291070	-1.258762	0.198880	-0.321972	-1.095283	0.762418	-0.570171	-1.043962	0.771374	-0.563656	-1.097258	0.728244	-0.568475	-1.046534	0.734074	-0.567377	-1.075698	0.476909	-0.511349	-1.074597	0.474066	-0.394606	-1.181034	0.367871	-0.536240	-1.135584	0.349276	-0.526556	-1.206346	0.327793	-0.532645	-1.158672	0.311170	-0.526745	-1.285037	0.115034	-0.485755	-1.253298	0.130426	-0.386639	-1.177878	0.035587	-0.508925	-1.161372	0.024426	-0.385983	-1.091433	0.045390	-0.443207	-1.361061	0.099195	-0.435578	-1.078142	1.446691	-0.190773	-1.021747	1.437139	-0.556276	
23	0.1100	-1.037312	0.953560	-0.248959	-1.030905	0.958822	-0.511690	-1.221534	0.964676	-0.336963	-1.215836	0.974691	-0.421786	-1.017504	0.781215	-0.195261	-0.969671	0.804740	-0.216505	-0.996182	0.751576	-0.196506	-0.946415	0.774233	-0.221344	-0.893699	0.492877	-0.255169	-0.896465	0.486645	-0.366832	-0.999690	0.405234	-0.223252	-0.959415	0.383112	-0.242157	-1.024995	0.366641	-0.229008	-0.987411	0.346400	-0.243782	-1.139169	0.188539	-0.272743	-1.121650	0.187253	-0.366199	-1.053082	0.070262	-0.232840	-1.038841	0.073721	-0.353988	-0.986024	0.072513	-0.291676	-1.222186	0.188803	-0.324526	-1.078814	0.763583	-0.570063	-1.027441	0.771609	-0.563441	-1.081498	0.729446	-0.568392	-1.030721	0.734282	-0.567203	-1.066123	0.477296	-0.511676	-1.065070	0.474224	-0.394787	-1.173883	0.370365	-0.536768	-1.128728	0.350897	-0.527103	-1.199976	0.330704	-0.532987	-1.152580	0.313215	-0.527372	-1.282110	0.118478	-0.486716	-1.250125	0.133276	-0.387698	-1.178013	0.035482	-0.509079	-1.161923	0.024654	-0.385897	-1.092026	0.045229	-0.443077	-1.358149	0.104641	-0.436599	-1.063403	1.448633	-0.190255	-1.002074	1.438841	-0.554965	
24	0.1150	-1.019392	0.955745	-0.248830	-1.011569	0.960279	-0.511522	-1.202936	0.966710	-0.337671	-1.196774	0.976634	-0.422425	-0.998428	0.784194	-0.195659	-0.950687	0.808308	-0.216690	-0.976789	0.754716	-0.197199	-0.927129	0.777987	-0.221716	-0.870654	0.497133	-0.256387	-0.873028	0.491032	-0.368053	-0.973499	0.405429	-0.224881	-0.932323	0.385092	-0.243444	-0.997063	0.365855	-0.230606	-0.958593	0.347232	-0.245109	-1.102591	0.182763	-0.274941	-1.084498	0.182370	-0.368141	-1.010837	0.069184	-0.234013	-0.996207	0.073312	-0.355082	-0.943801	0.074809	-0.292325	-1.185264	0.178798	-0.327161	-1.062285	0.764930	-0.569940	-1.010870	0.772034	-0.563209	-1.065669	0.730839	-0.568304	-1.014848	0.734691	-0.567019	-1.056389	0.477951	-0.512044	-1.055382	0.474610	-0.395002	-1.166533	0.373161	-0.537352	-1.121681	0.352843	-0.527721	-1.193373	0.333923	-0.533375	-1.146269	0.315594	-0.528068	-1.278771	0.122243	-0.487782	-1.246518	0.136384	-0.388890	-1.178066	0.035512	-0.509241	-1.162408	0.025072	-0.385843	-1.092625	0.045065	-0.442976	-1.354673	0.110604	-0.437722	-1.048600	1.450718	-0.189711	-0.982521	1.440781	-0.553575	
25	0.1200	-1.001359	0.958031	-0.248708	-0.992202	0.961840	-0.511309	-1.184225	0.968952	-0.338309	-1.177640	0.978762	-0.422996	-0.979486	0.787155	-0.196021	-0.931807	0.811779	-0.216791	-0.957595	0.757805	-0.197859	-0.908004	0.781616	-0.222003	-0.848214	0.501279	-0.257583	-0.850147	0.495307	-0.369242	-0.947757	0.405536	-0.226494	-0.905717	0.387061	-0.244701	-0.969504	0.365023	-0.232197	-0.930183	0.348089	-0.246418	-1.065980	0.177135	-0.277190	-1.047321	0.177696	-0.370107	-0.968740	0.068473	-0.235277	-0.953731	0.073372	-0.356254	-0.901878	0.077534	-0.293031	-1.148106	0.168934	-0.329865	-1.045698	0.766452	-0.569807	-0.994248	0.772646	-0.562973	-1.049764	0.732411	-0.568215	-0.998908	0.735300	-0.566839	-1.046426	0.478861	-0.512462	-1.045454	0.475211	-0.395265	-1.158910	0.376247	-0.537991	-1.114371	0.355101	-0.528414	-1.186468	0.337439	-0.533808	-1.139670	0.318292	-0.528832	-1.274974	0.126334	-0.488945	-1.242428	0.139748	-0.390205	-1.177997	0.035706	-0.509413	-1.162780	0.025699	-0.385830	-1.093195	0.044879	-0.442912	-1.350580	0.117081	-0.438936	-1.033726	1.452924	-0.189144	-0.963118	1.442936	-0.552119	
26	0.1250	-0.983223	0.960380	-0.248591	-0.972825	0.963493	-0.511050	-1.165420	0.971367	-0.338869	-1.158454	0.981055	-0.423491	-0.960687	0.790053	-0.196345	-0.913041	0.815104	-0.216810	-0.938607	0.760800	-0.198477	-0.889049	0.785072	-0.222203	-0.826408	0.505262	-0.258755	-0.827856	0.499420	-0.370394	-0.922506	0.405532	-0.228083	-0.879644	0.388985	-0.245925	-0.942369	0.364132	-0.233776	-0.902242	0.348948	-0.247707	-1.029445	0.171691	-0.279484	-1.010238	0.173264	-0.372092	-0.926925	0.068134	-0.236643	-0.911564	0.073906	-0.357515	-0.860394	0.080675	-0.293809	-1.110828	0.159281	-0.332621	-1.029049	0.768134	-0.569672	-0.977573	0.773440	-0.562743	-1.033774	0.734150	-0.568132	-0.982893	0.736102	-0.566672	-1.036165	0.480008	-0.512941	-1.035210	0.476005	-0.395585	-1.150942	0.379608	-0.538683	-1.106727	0.357654	-0.529184	-1.179189	0.341239	-0.534289	-1.132712	0.321293	-0.529662	-1.270676	0.130754	-0.490195	-1.237811	0.143365	-0.391630	-1.177767	0.036094	-0.509597	-1.162987	0.026553	-0.385865	-1.093693	0.044659	-0.442891	-1.345819	0.124065	-0.440227	-1.018775	1.455228	-0.188558	-0.943893	1.445280	-0.550614	
27	0.1300	-0.964997	0.962758	-0.248475	-0.953456	0.965228	-0.510747	-1.146540	0.973916	-0.339348	-1.139236	0.983487	-0.423906	-0.942037	0.792843	-0.196627	-0.894394	0.818237	-0.216749	-0.919832	0.763655	-0.199044	-0.870271	0.788309	-0.222319	-0.805249	0.509030	-0.259901	-0.806180	0.503320	-0.371508	-0.897777	0.405397	-0.229640	-0.854146	0.390831	-0.247116	-0.915704	0.363167	-0.235336	-0.874823	0.349786	-0.248976	-0.993092	0.166464	-0.281814	-0.973369	0.169104	-0.374093	-0.885523	0.068161	-0.238118	-0.869853	0.074904	-0.358873	-0.819481	0.084206	-0.294676	-1.073552	0.149899	-0.335414	-1.012336	0.769960	-0.569540	-0.960841	0.774408	-0.562530	-1.017688	0.736036	-0.568058	-0.966792	0.737087	-0.566529	-1.025540	0.481368	-0.513488	-1.024575	0.476970	-0.395975	-1.142560	0.383222	-0.539427	-1.098681	0.360476	-0.530032	-1.171471	0.345303	-0.534815	-1.125329	0.324573	-0.530555	-1.265837	0.135503	-0.491519	-1.232625	0.147230	-0.393154	-1.177331	0.036710	-0.509796	-1.162972	0.027652	-0.385957	-1.094076	0.044395	-0.442925	-1.340347	0.131543	-0.441582	-1.003739	1.457602	-0.187956	-0.924865	1.447783	-0.549074	
28	0.1350	-0.946690	0.965128	-0.248357	-0.934113	0.967029	-0.510400	-1.127599	0.976560	-0.339743	-1.120000	0.986030	-0.424239	-0.923540	0.795483	-0.196865	-0.875870	0.821136	-0.216610	-0.901271	0.766328	-0.199553	-0.851672	0.791285	-0.222353	-0.784746	0.512539	-0.261021	-0.785136	0.506963	-0.372583	-0.873593	0.405112	-0.231159	-0.829254	0.392567	-0.248275	-0.889545	0.362117	-0.236873	-0.847970	0.350578	-0.250223	-0.957026	0.161479	-0.284173	-0.936832	0.165236	-0.376105	-0.844660	0.068540	-0.239712	-0.828741	0.076347	-0.360339	-0.779262	0.088091	-0.295650	-1.036401	0.140845	-0.338228	-0.995552	0.771912	-0.569416	-0.944045	0.775537	-0.562344	-1.001496	0.738049	-0.568000	-0.950593	0.738242	-0.566420	-1.014483	0.482913	-0.514113	-1.013475	0.478073	-0.396446	-1.133694	0.387063	-0.540222	-1.090167	0.363540	-0.530963	-1.163248	0.349608	-0.535389	-1.117458	0.328102	-0.531510	-1.260418	0.140578	-0.492907	-1.226830	0.151338	-0.394765	-1.176642	0.037587	-0.510014	-1.162679	0.029018	-0.386116	-1.094294	0.044088	-0.443027	-1.334122	0.139491	-0.442986	-0.988607	1.460020	-0.187340	-0.906051	1.450413	-0.547513	
29	0.1400	-0.928315	0.967455	-0.248233	-0.914808	0.968881	-0.510010	-1.108616	0.979258	-0.340053	-1.100764	0.988656	-0.424487	-0.905196	0.797933	-0.197057	-0.857471	0.823762	-0.216399	-0.882920	0.768779	-0.199998	-0.833253	0.793960	-0.222307	-0.764892	0.515745	-0.262115	-0.764732	0.510308	-0.373619	-0.849971	0.404661	-0.232637	-0.804988	0.394161	-0.249403	-0.863925	0.360969	-0.238383	-0.821720	0.351299	-0.251451	-0.921354	0.156756	-0.286552	-0.900743	0.161672	-0.378127	-0.804457	0.069245	-0.241434	-0.788366	0.078202	-0.361921	-0.739854	0.092283	-0.296748	-0.999500	0.132168	-0.341047	-0.978689	0.773964	-0.569306	-0.927176	0.776810	-0.562194	-0.985185	0.740161	-0.567963	-0.934283	0.739547	-0.566355	-1.002937	0.484606	-0.514825	-1.001845	0.479281	-0.397008	-1.124283	0.391100	-0.541068	-1.081127	0.366814	-0.531976	-1.154462	0.354123	-0.536009	-1.109041	0.331849	-0.532524	-1.254387	0.145971	-0.494346	-1.220395	0.155679	-0.396448	-1.175651	0.038757	-0.510255	-1.162044	0.030669	-0.386352	-1.094293	0.043742	-0.443209	-1.327114	0.147883	-0.444423	-0.973370	1.462452	-0.186714	-0.887460	1.453135	-0.545945	
30	0.1450	-0.909881	0.969706	-0.248100	-0.895555	0.970768	-0.509579	-1.089603	0.981968	-0.340280	-1.081539	0.991331	-0.424650	-0.887003	0.800156	-0.197202	-0.839195	0.826079	-0.216120	-0.864775	0.770973	-0.200374	-0.815010	0.796299	-0.222188	-0.745675	0.518612	-0.263184	-0.744964	0.513319	-0.374621	-0.826920	0.404029	-0.234070	-0.781364	0.395584	-0.250505	-0.838866	0.359713	-0.239863	-0.796101	0.351925	-0.252661	-0.886176	0.152307	-0.288943	-0.865215	0.158414	-0.380156	-0.765029	0.070243	-0.243290	-0.748857	0.080422	-0.363630	-0.701364	0.096725	-0.297988	-0.962975	0.123910	-0.343853	-0.961740	0.776092	-0.569216	-0.910226	0.778207	-0.562087	-0.968741	0.742345	-0.567950	-0.917847	0.740980	-0.566339	-0.990844	0.486411	-0.515630	-0.989626	0.480555	-0.397670	-1.114270	0.395299	-0.541963	-1.071505	0.370259	-0.533074	-1.145058	0.358817	-0.536678	-1.100023	0.335776	-0.533595	-1.247716	0.151675	-0.495824	-1.213293	0.160245	-0.398191	-1.174305	0.040254	-0.510527	-1.161007	0.032624	-0.386676	-1.094019	0.043370	-0.443487	-1.319298	0.156684	-0.445877	-0.958017	1.464869	-0.186079	-0.869099	1.455912	-0.544383	
31	0.1500	-0.891400	0.971848	-0.247952	-0.876363	0.972671	-0.509109	-1.070575	0.984646	-0.340425	-1.062337	0.994020	-0.424731	-0.868954	0.802117	-0.197300	-0.821039	0.828056	-0.215780	-0.846826	0.772877	-0.200678	-0.796937	0.798273	-0.221999	-0.727070	0.521108	-0.264232	-0.725825	0.515964	-0.375590	-0.804440	0.403207	-0.235457	-0.758383	0.396809	-0.251585	-0.814387	0.358338	-0.241314	-0.771132	0.352434	-0.253858	-0.851591	0.148138	-0.291338	-0.830358	0.155460	-0.382191	-0.726484	0.071490	-0.245286	-0.710335	0.082952	-0.365472	-0.663889	0.101347	-0.299385	-0.926952	0.116106	-0.346632	-0.944695	0.778266	-0.569150	-0.893184	0.779705	-0.562028	-0.952151	0.744571	-0.567968	-0.901269	0.742516	-0.566381	-0.978156	0.488284	-0.516535	-0.976764	0.481854	-0.398441	-1.103605	0.399622	-0.542907	-1.061255	0.373838	-0.534257	-1.134988	0.363655	-0.537396	-1.090360	0.339845	-0.534720	-1.240381	0.157676	-0.497329	-1.205501	0.165025	-0.399981	-1.172552	0.042106	-0.510836	-1.159505	0.034899	-0.387100	-1.093413	0.042989	-0.443877	-1.310657	0.165855	-0.447332	-0.942540	1.467239	-0.185437	-0.850968	1.458707	-0.542840	
32	0.1550	-0.872882	0.973851	-0.247787	-0.857239	0.974570	-0.508602	-1.051546	0.987252	-0.340494	-1.043168	0.996687	-0.424733	-0.851045	0.803789	-0.197352	-0.802997	0.829667	-0.215384	-0.829063	0.774466	-0.200906	-0.779028	0.799856	-0.221748	-0.709047	0.523209	-0.265261	-0.707295	0.518220	-0.376531	-0.782526	0.402187	-0.236799	-0.736045	0.397813	-0.252650	-0.790497	0.356839	-0.242735	-0.746826	0.352803	-0.255047	-0.817696	0.144248	-0.293731	-0.796273	0.152795	-0.384232	-0.688926	0.072935	-0.247426	-0.672911	0.085723	-0.367453	-0.627516	0.106073	-0.300955	-0.891556	0.108781	-0.349370	-0.927543	0.780454	-0.569114	-0.876039	0.781277	-0.562023	-0.935402	0.746803	-0.568021	-0.884535	0.744127	-0.566484	-0.964832	0.490183	-0.517547	-0.963219	0.483135	-0.399328	-1.092246	0.404029	-0.543900	-1.050337	0.377507	-0.535527	-1.124213	0.368598	-0.538165	-1.080013	0.344014	-0.535897	-1.232365	0.163958	-0.498851	-1.197006	0.170004	-0.401806	-1.170340	0.044341	-0.511191	-1.157476	0.037506	-0.387635	-1.092416	0.042622	-0.444397	-1.301183	0.175350	-0.448773	-0.926930	1.469532	-0.184790	-0.833065	1.461481	-0.541324	
33	0.1600	-0.854337	0.975690	-0.247602	-0.838190	0.976443	-0.508061	-1.032529	0.989743	-0.340491	-1.024042	0.999294	-0.424661	-0.833266	0.805147	-0.197359	-0.785064	0.830893	-0.214941	-0.811473	0.775717	-0.201059	-0.761272	0.801031	-0.221441	-0.691569	0.524897	-0.266276	-0.689351	0.520068	-0.377450	-0.761169	0.400965	-0.238099	-0.714337	0.398574	-0.253706	-0.767204	0.355209	-0.244129	-0.723190	0.353012	-0.256232	-0.784581	0.140630	-0.296115	-0.763059	0.150399	-0.386282	-0.652448	0.074521	-0.249712	-0.636688	0.088658	-0.369578	-0.592322	0.110818	-0.302711	-0.856906	0.101953	-0.352055	-0.910274	0.782624	-0.569111	-0.858779	0.782893	-0.562073	-0.918479	0.749008	-0.568113	-0.867630	0.745781	-0.566651	-0.950839	0.492063	-0.518671	-0.948956	0.484355	-0.400336	-1.080157	0.408480	-0.544943	-1.038719	0.381223	-0.536884	-1.112700	0.373607	-0.538987	-1.068950	0.348240	-0.537124	-1.223655	0.170501	-0.500378	-1.187796	0.175169	-0.403655	-1.167615	0.046979	-0.511599	-1.154859	0.040454	-0.388293	-1.090966	0.042297	-0.445062	-1.290875	0.185121	-0.450186	-0.911182	1.471717	-0.184136	-0.815382	1.464197	-0.539847	
34	0.1650	-0.835776	0.977340	-0.247393	-0.819222	0.978270	-0.507490	-1.013535	0.992081	-0.340421	-1.004968	1.001803	-0.424521	-0.815608	0.806173	-0.197325	-0.767231	0.831719	-0.214458	-0.794041	0.776613	-0.201138	-0.743657	0.801783	-0.221086	-0.674591	0.526159	-0.267282	-0.671960	0.521497	-0.378354	-0.740353	0.399540	-0.239359	-0.693244	0.399074	-0.254762	-0.744508	0.353443	-0.245499	-0.700222	0.353041	-0.257422	-0.752333	0.137271	-0.298483	-0.730807	0.148245	-0.388340	-0.617139	0.076186	-0.252143	-0.601756	0.091673	-0.371849	-0.558375	0.115492	-0.304661	-0.823121	0.095631	-0.354676	-0.892878	0.784742	-0.569144	-0.841394	0.784524	-0.562178	-0.901371	0.751149	-0.568247	-0.850539	0.747446	-0.566883	-0.936152	0.493878	-0.519910	-0.933954	0.485472	-0.401470	-1.067313	0.412933	-0.546036	-1.026378	0.384943	-0.538326	-1.100424	0.378642	-0.539864	-1.057151	0.352481	-0.538400	-1.214244	0.177284	-0.501902	-1.177870	0.180502	-0.405516	-1.164324	0.050036	-0.512072	-1.151596	0.043747	-0.389083	-1.089002	0.042044	-0.445891	-1.279742	0.195115	-0.451559	-0.895291	1.473764	-0.183477	-0.797912	1.466815	-0.538415	
35	0.1700	-0.817210	0.978780	-0.247158	-0.800338	0.980025	-0.506892	-0.994579	0.994229	-0.340292	-0.985953	1.004175	-0.424319	-0.798060	0.806852	-0.197251	-0.749491	0.832135	-0.213945	-0.776752	0.777143	-0.201146	-0.726173	0.802108	-0.220692	-0.658067	0.526990	-0.268283	-0.655088	0.522500	-0.379248	-0.720059	0.397912	-0.240586	-0.672745	0.399301	-0.255825	-0.722407	0.351540	-0.246848	-0.677916	0.352874	-0.258622	-0.721035	0.134154	-0.300830	-0.699599	0.146301	-0.390410	-0.583079	0.077865	-0.254717	-0.568196	0.094679	-0.374265	-0.525732	0.120001	-0.306813	-0.790313	0.089819	-0.357223	-0.875345	0.786772	-0.569216	-0.823872	0.786137	-0.562338	-0.884067	0.753192	-0.568427	-0.833250	0.749090	-0.567181	-0.920753	0.495584	-0.521266	-0.918200	0.486446	-0.402731	-1.053697	0.417347	-0.547182	-1.013297	0.388625	-0.539855	-1.087369	0.383661	-0.540799	-1.044598	0.356693	-0.539724	-1.204128	0.184280	-0.503414	-1.167229	0.185985	-0.407380	-1.160418	0.053522	-0.512620	-1.147634	0.047383	-0.390015	-1.086463	0.041898	-0.446898	-1.267798	0.205276	-0.452880	-0.879256	1.475643	-0.182811	-0.780644	1.469300	-0.537036	
36	0.1750	-0.798651	0.979993	-0.246896	-0.781540	0.981684	-0.506270	-0.975671	0.996153	-0.340110	-0.967007	1.006373	-0.424063	-0.780613	0.807176	-0.197143	-0.731837	0.832140	-0.213409	-0.759591	0.777301	-0.201088	-0.708807	0.802003	-0.220268	-0.641945	0.527391	-0.269285	-0.638692	0.523080	-0.380139	-0.700266	0.396089	-0.241783	-0.652815	0.399245	-0.256906	-0.700895	0.349501	-0.248183	-0.656264	0.352498	-0.259841	-0.690763	0.131258	-0.303152	-0.669513	0.144528	-0.392494	-0.550342	0.079490	-0.257428	-0.536076	0.097583	-0.376823	-0.494441	0.124251	-0.309170	-0.758588	0.084513	-0.359692	-0.857664	0.788681	-0.569328	-0.806205	0.787699	-0.562550	-0.866555	0.755099	-0.568655	-0.815752	0.750678	-0.567543	-0.904637	0.497141	-0.522741	-0.901692	0.487239	-0.404121	-1.039300	0.421681	-0.548381	-0.999470	0.392225	-0.541467	-1.073526	0.388624	-0.541794	-1.031287	0.360836	-0.541096	-1.193310	0.191460	-0.504908	-1.155881	0.191597	-0.409240	-1.155846	0.057439	-0.513252	-1.142922	0.051354	-0.391098	-1.083290	0.041892	-0.448098	-1.255067	0.215545	-0.454142	-0.863077	1.477328	-0.182137	-0.763565	1.471616	-0.535715	
37	0.1800	-0.780110	0.980965	-0.246605	-0.762833	0.983224	-0.505628	-0.956825	0.997822	-0.339880	-0.948136	1.008358	-0.423760	-0.763255	0.807143	-0.197006	-0.714261	0.831736	-0.212860	-0.742542	0.777087	-0.200969	-0.691547	0.801474	-0.219821	-0.626173	0.527369	-0.270292	-0.622728	0.523243	-0.381035	-0.680952	0.394077	-0.242960	-0.633426	0.398898	-0.258012	-0.679962	0.347326	-0.249508	-0.635250	0.351900	-0.261086	-0.661587	0.128557	-0.305443	-0.640617	0.142886	-0.394597	-0.518991	0.080996	-0.260266	-0.505456	0.100293	-0.379518	-0.464541	0.128146	-0.311732	-0.728046	0.079701	-0.362076	-0.839829	0.790436	-0.569483	-0.788384	0.789180	-0.562807	-0.848830	0.756838	-0.568934	-0.798034	0.752179	-0.567963	-0.887802	0.498509	-0.524333	-0.884436	0.487817	-0.405637	-1.024120	0.425896	-0.549638	-0.984897	0.395706	-0.543162	-1.058895	0.393494	-0.542855	-1.017217	0.364870	-0.542514	-1.181796	0.198792	-0.506380	-1.143838	0.197316	-0.411089	-1.150561	0.061780	-0.513982	-1.137416	0.055645	-0.392339	-1.079425	0.042059	-0.449503	-1.241576	0.225865	-0.455337	-0.846757	1.478792	-0.181453	-0.746664	1.473730	-0.534456	
38	0.1850	-0.761598	0.981684	-0.246284	-0.744217	0.984620	-0.504970	-0.938052	0.999209	-0.339610	-0.929349	1.010097	-0.423417	-0.745977	0.806754	-0.196845	-0.696755	0.830933	-0.212307	-0.725591	0.776507	-0.200798	-0.674379	0.800533	-0.219362	-0.610698	0.526938	-0.271309	-0.607150	0.523002	-0.381941	-0.662093	0.391888	-0.244123	-0.614549	0.398259	-0.259151	-0.659598	0.345022	-0.250829	-0.614860	0.351073	-0.262364	-0.633573	0.126026	-0.307702	-0.612969	0.141335	-0.396720	-0.489087	0.082318	-0.263219	-0.476382	0.102718	-0.382340	-0.436064	0.131596	-0.314495	-0.698778	0.075369	-0.364374	-0.821833	0.792005	-0.569679	-0.770404	0.790548	-0.563105	-0.830883	0.758376	-0.569265	-0.780091	0.753561	-0.568438	-0.870257	0.499656	-0.526040	-0.866448	0.488153	-0.407278	-1.008164	0.429958	-0.550954	-0.969584	0.399029	-0.544936	-1.043482	0.398234	-0.543984	-1.002396	0.368760	-0.543980	-1.169596	0.206243	-0.507825	-1.131114	0.203116	-0.412922	-1.144521	0.066530	-0.514818	-1.131076	0.060235	-0.393744	-1.074813	0.042431	-0.451125	-1.227359	0.236175	-0.456463	-0.830304	1.480012	-0.180757	-0.729927	1.475613	-0.533264	
39	0.1900	-0.743127	0.982144	-0.245933	-0.725695	0.985848	-0.504301	-0.919366	1.000293	-0.339304	-0.910654	1.011555	-0.423042	-0.728768	0.806018	-0.196666	-0.679312	0.829743	-0.211759	-0.708724	0.775569	-0.200583	-0.657293	0.799196	-0.218900	-0.595467	0.526115	-0.272342	-0.591909	0.522375	-0.382864	-0.643664	0.389534	-0.245280	-0.596152	0.397329	-0.260333	-0.639792	0.342594	-0.252152	-0.595073	0.350011	-0.263685	-0.606779	0.123637	-0.309925	-0.586622	0.139831	-0.398867	-0.460677	0.083398	-0.266274	-0.448891	0.104772	-0.385279	-0.409033	0.134517	-0.317448	-0.670865	0.071497	-0.366585	-0.803670	0.793359	-0.569915	-0.752258	0.791774	-0.563435	-0.812712	0.759687	-0.569647	-0.761916	0.754796	-0.568961	-0.852018	0.500553	-0.527859	-0.847750	0.488224	-0.409038	-0.991446	0.433833	-0.552333	-0.953544	0.402163	-0.546787	-1.027300	0.402809	-0.545185	-0.986835	0.372472	-0.545494	-1.156721	0.213775	-0.509244	-1.117728	0.208972	-0.414737	-1.137684	0.071666	-0.515774	-1.123868	0.065097	-0.395318	-1.069401	0.043036	-0.452970	-1.212452	0.246415	-0.457518	-0.813725	1.480969	-0.180045	-0.713343	1.477237	-0.532139	
40	0.1950	-0.724708	0.982341	-0.245553	-0.707268	0.986886	-0.503623	-0.900778	1.001054	-0.338967	-0.892061	1.012705	-0.422640	-0.711621	0.804947	-0.196475	-0.661927	0.828187	-0.211223	-0.691926	0.774291	-0.200333	-0.640278	0.797485	-0.218442	-0.580430	0.524922	-0.273395	-0.576957	0.521385	-0.383809	-0.625642	0.387031	-0.246438	-0.578207	0.396113	-0.261563	-0.620531	0.340052	-0.253485	-0.575871	0.348712	-0.265052	-0.581256	0.121365	-0.312111	-0.561618	0.138336	-0.401041	-0.433805	0.084181	-0.269413	-0.423008	0.106378	-0.388319	-0.383464	0.136832	-0.320581	-0.644378	0.068060	-0.368710	-0.785338	0.794473	-0.570190	-0.733945	0.792834	-0.563788	-0.794314	0.760744	-0.570082	-0.743509	0.755858	-0.569524	-0.833105	0.501178	-0.529783	-0.828372	0.488012	-0.410910	-0.973986	0.437493	-0.553777	-0.936794	0.405078	-0.548710	-1.010367	0.407190	-0.546461	-0.970555	0.375978	-0.547057	-1.143185	0.221348	-0.510636	-1.103700	0.214855	-0.416530	-1.130013	0.077156	-0.516858	-1.115764	0.070195	-0.397063	-1.063140	0.043897	-0.455043	-1.196894	0.256528	-0.458504	-0.797030	1.481644	-0.179316	-0.696899	1.478581	-0.531084	
41	0.2000	-0.706352	0.982274	-0.245145	-0.688937	0.987712	-0.502942	-0.882299	1.001480	-0.338602	-0.873577	1.013520	-0.422219	-0.694528	0.803558	-0.196278	-0.644595	0.826289	-0.210708	-0.675187	0.772690	-0.200059	-0.623324	0.795426	-0.217998	-0.565539	0.523386	-0.274470	-0.562246	0.520059	-0.384780	-0.608005	0.384396	-0.247606	-0.560682	0.394621	-0.262848	-0.601802	0.337407	-0.254832	-0.557234	0.347179	-0.266474	-0.557048	0.119183	-0.314257	-0.537991	0.136812	-0.403244	-0.408502	0.084624	-0.272617	-0.398747	0.107465	-0.391446	-0.359365	0.138476	-0.323876	-0.619379	0.065034	-0.370753	-0.766834	0.795326	-0.570501	-0.715465	0.793704	-0.564155	-0.775690	0.761527	-0.570566	-0.724869	0.756728	-0.570117	-0.813545	0.501514	-0.531806	-0.808347	0.487508	-0.412886	-0.955805	0.440913	-0.555289	-0.919357	0.407750	-0.550701	-0.992707	0.411348	-0.547815	-0.953575	0.379253	-0.548669	-1.129002	0.228921	-0.512005	-1.089051	0.220736	-0.418303	-1.121474	0.082959	-0.518080	-1.106740	0.075489	-0.398980	-1.055985	0.045030	-0.457347	-1.180727	0.266456	-0.459426	-0.780232	1.482025	-0.178565	-0.680584	1.479625	-0.530098	
42	0.2050	-0.688070	0.981947	-0.244708	-0.670703	0.988308	-0.502260	-0.863941	1.001563	-0.338214	-0.855210	1.013980	-0.421784	-0.677480	0.801871	-0.196082	-0.627312	0.824077	-0.210222	-0.658494	0.770792	-0.199772	-0.606422	0.793051	-0.217575	-0.550748	0.521536	-0.275571	-0.547728	0.518428	-0.385783	-0.590732	0.381650	-0.248791	-0.543551	0.392865	-0.264193	-0.583592	0.334671	-0.256198	-0.539142	0.345415	-0.267953	-0.534190	0.117070	-0.316362	-0.515764	0.135226	-0.405476	-0.384794	0.084690	-0.275864	-0.376115	0.107977	-0.394639	-0.336738	0.139396	-0.327314	-0.595917	0.062391	-0.372718	-0.748158	0.795901	-0.570844	-0.696817	0.794368	-0.564525	-0.756841	0.762023	-0.571098	-0.705999	0.757388	-0.570732	-0.793368	0.501552	-0.533917	-0.787713	0.486710	-0.414955	-0.936934	0.444072	-0.556872	-0.901256	0.410159	-0.552753	-0.974345	0.415261	-0.549251	-0.935920	0.382276	-0.550332	-1.114188	0.236452	-0.513353	-1.073799	0.226582	-0.420056	-1.112035	0.089028	-0.519449	-1.096780	0.080932	-0.401067	-1.047894	0.046445	-0.459878	-1.163989	0.276143	-0.460292	-0.763341	1.482101	-0.177791	-0.664389	1.480357	-0.529183	
43	0.2100	-0.669871	0.981365	-0.244245	-0.652566	0.988659	-0.501580	-0.845712	1.001299	-0.337803	-0.836968	1.014069	-0.421338	-0.660474	0.799912	-0.195893	-0.610075	0.821582	-0.209769	-0.641840	0.768622	-0.199481	-0.589564	0.790394	-0.217180	-0.536018	0.519405	-0.276698	-0.533361	0.516526	-0.386817	-0.573804	0.378812	-0.249999	-0.526786	0.390860	-0.265600	-0.565888	0.331861	-0.257589	-0.521575	0.343431	-0.269493	-0.512709	0.115005	-0.318425	-0.494953	0.133552	-0.407738	-0.362694	0.084352	-0.279131	-0.355106	0.107872	-0.397878	-0.315579	0.139552	-0.330870	-0.574026	0.060102	-0.374608	-0.729312	0.796187	-0.571214	-0.678005	0.794810	-0.564887	-0.737772	0.762221	-0.571673	-0.686903	0.757826	-0.571357	-0.772608	0.501292	-0.536106	-0.766511	0.485622	-0.417105	-0.917401	0.446954	-0.558527	-0.882517	0.412291	-0.554859	-0.955312	0.418909	-0.550769	-0.917617	0.385033	-0.552044	-1.098754	0.243895	-0.514686	-1.057964	0.232361	-0.421792	-1.101670	0.095307	-0.520971	-1.085869	0.086474	-0.403323	-1.038828	0.048143	-0.462632	-1.146719	0.285536	-0.461110	-0.746372	1.481869	-0.176989	-0.648305	1.480767	-0.528335	
44	0.2150	-0.651765	0.980539	-0.243755	-0.634527	0.988751	-0.500906	-0.827622	1.000692	-0.337373	-0.818857	1.013778	-0.420886	-0.643503	0.797707	-0.195714	-0.592882	0.818840	-0.209354	-0.625216	0.766212	-0.199197	-0.572743	0.787491	-0.216820	-0.521312	0.517026	-0.277854	-0.519102	0.514388	-0.387886	-0.557206	0.375906	-0.251235	-0.510364	0.388625	-0.267071	-0.548680	0.328993	-0.259007	-0.504514	0.341238	-0.271096	-0.492624	0.112974	-0.320445	-0.475564	0.131769	-0.410028	-0.342210	0.083597	-0.282394	-0.335706	0.107119	-0.401143	-0.295878	0.138924	-0.334520	-0.553733	0.058139	-0.376429	-0.710298	0.796177	-0.571604	-0.659034	0.795024	-0.565230	-0.718487	0.762117	-0.572288	-0.667588	0.758037	-0.571980	-0.751299	0.500739	-0.538359	-0.744780	0.484256	-0.419322	-0.897238	0.449548	-0.560253	-0.863166	0.414135	-0.557011	-0.935636	0.422276	-0.552369	-0.898691	0.387511	-0.553806	-1.082713	0.251204	-0.516011	-1.041561	0.238039	-0.423512	-1.090351	0.101735	-0.522652	-1.073998	0.092057	-0.405742	-1.028750	0.050118	-0.465601	-1.128950	0.294585	-0.461891	-0.729337	1.481326	-0.176159	-0.632322	1.480852	-0.527555	
45	0.2200	-0.633756	0.979481	-0.243240	-0.616583	0.988577	-0.500238	-0.809676	0.999747	-0.336923	-0.800881	1.013103	-0.420430	-0.626564	0.795288	-0.195551	-0.575730	0.815887	-0.208982	-0.608614	0.763592	-0.198930	-0.555954	0.784381	-0.216499	-0.506600	0.514435	-0.279037	-0.504913	0.512050	-0.388988	-0.540922	0.372954	-0.252503	-0.494265	0.386180	-0.268605	-0.531955	0.326085	-0.260454	-0.487943	0.338850	-0.272760	-0.473944	0.110965	-0.322421	-0.457595	0.129863	-0.412342	-0.323336	0.082420	-0.285628	-0.317890	0.105708	-0.404409	-0.277618	0.137504	-0.338234	-0.535045	0.056474	-0.378187	-0.691121	0.795872	-0.572008	-0.639908	0.795008	-0.565541	-0.698993	0.761715	-0.572934	-0.648062	0.758021	-0.572589	-0.729477	0.499907	-0.540660	-0.722562	0.482631	-0.421589	-0.876476	0.451846	-0.562050	-0.843228	0.415687	-0.559199	-0.915349	0.425352	-0.554051	-0.879168	0.389706	-0.555615	-1.066073	0.258335	-0.517333	-1.024603	0.243579	-0.425220	-1.078057	0.108246	-0.524494	-1.061158	0.097625	-0.408318	-1.017627	0.052353	-0.468772	-1.110714	0.303241	-0.462648	-0.712247	1.480478	-0.175296	-0.616433	1.480614	-0.526840	
46	0.2250	-0.615851	0.978206	-0.242699	-0.598731	0.988131	-0.499580	-0.791877	0.998479	-0.336455	-0.783044	1.012047	-0.419973	-0.609653	0.792685	-0.195407	-0.558619	0.812762	-0.208655	-0.592030	0.760797	-0.198686	-0.539192	0.781104	-0.216220	-0.491857	0.511666	-0.280246	-0.490762	0.509550	-0.390121	-0.524941	0.369979	-0.253805	-0.478471	0.383550	-0.270199	-0.515703	0.323159	-0.261930	-0.471846	0.336286	-0.274483	-0.456669	0.108972	-0.324350	-0.441033	0.127830	-0.414675	-0.306058	0.080831	-0.288809	-0.301627	0.103642	-0.407654	-0.260777	0.135304	-0.341982	-0.517960	0.055081	-0.379885	-0.671784	0.795278	-0.572419	-0.620633	0.794763	-0.565809	-0.679298	0.761024	-0.573606	-0.628334	0.757784	-0.573173	-0.707175	0.498815	-0.542994	-0.699895	0.480772	-0.423888	-0.855147	0.453846	-0.563914	-0.822727	0.416948	-0.561412	-0.894481	0.428127	-0.555813	-0.859071	0.391615	-0.557467	-1.048838	0.265240	-0.518660	-1.007099	0.248946	-0.426920	-1.064763	0.114770	-0.526499	-1.047344	0.103115	-0.411043	-1.005427	0.054825	-0.472130	-1.092035	0.311458	-0.463394	-0.695111	1.479333	-0.174400	-0.600630	1.480059	-0.526188	
47	0.2300	-0.598052	0.976733	-0.242133	-0.580969	0.987414	-0.498932	-0.774228	0.996903	-0.335969	-0.765346	1.010619	-0.419516	-0.592767	0.789933	-0.195285	-0.541547	0.809504	-0.208372	-0.575458	0.757863	-0.198473	-0.522454	0.777701	-0.215986	-0.477065	0.508754	-0.281476	-0.476619	0.506923	-0.391282	-0.509254	0.367007	-0.255141	-0.462968	0.380759	-0.271849	-0.499915	0.320235	-0.263434	-0.456208	0.333568	-0.276261	-0.440789	0.106993	-0.326232	-0.425856	0.125671	-0.417021	-0.290353	0.078849	-0.291911	-0.286875	0.100942	-0.410855	-0.245328	0.132352	-0.345734	-0.502462	0.053935	-0.381528	-0.652292	0.794407	-0.572828	-0.601218	0.794301	-0.566024	-0.659408	0.760059	-0.574294	-0.608413	0.757337	-0.573718	-0.684427	0.497489	-0.545340	-0.676814	0.478711	-0.426199	-0.833279	0.455551	-0.565840	-0.801683	0.417922	-0.563638	-0.873059	0.430600	-0.557648	-0.838421	0.393240	-0.559359	-1.031011	0.271872	-0.519999	-0.989052	0.254102	-0.428614	-1.050449	0.121236	-0.528666	-1.032550	0.108467	-0.413908	-0.992121	0.057502	-0.475658	-1.072932	0.319192	-0.464144	-0.677937	1.477905	-0.173470	-0.584906	1.479202	-0.525595	
48	0.2350	-0.580359	0.975081	-0.241541	-0.563289	0.986432	-0.498294	-0.756725	0.995043	-0.335467	-0.747784	1.008835	-0.419060	-0.575904	0.787065	-0.195184	-0.524514	0.806152	-0.208134	-0.558895	0.754824	-0.198297	-0.505736	0.774212	-0.215797	-0.462210	0.505735	-0.282724	-0.462461	0.504206	-0.392465	-0.493856	0.364059	-0.256509	-0.447744	0.377833	-0.273546	-0.484581	0.317336	-0.264964	-0.441016	0.330717	-0.278086	-0.426284	0.105032	-0.328062	-0.412036	0.123396	-0.419370	-0.276185	0.076503	-0.294912	-0.273587	0.097643	-0.413990	-0.231237	0.128693	-0.349458	-0.488519	0.053015	-0.383119	-0.632652	0.793278	-0.573226	-0.581667	0.793636	-0.566173	-0.639332	0.758841	-0.574989	-0.588308	0.756699	-0.574211	-0.661263	0.495964	-0.547677	-0.653355	0.476486	-0.428502	-0.810900	0.456964	-0.567822	-0.780116	0.418619	-0.565861	-0.851109	0.432768	-0.559551	-0.817236	0.394587	-0.561283	-1.012587	0.278187	-0.521357	-0.970460	0.259011	-0.430306	-1.035093	0.127570	-0.530990	-1.016768	0.113617	-0.416902	-0.977678	0.060343	-0.479334	-1.053414	0.326403	-0.464910	-0.660730	1.476213	-0.172506	-0.569252	1.478058	-0.525058	
49	0.2400	-0.562768	0.973276	-0.240923	-0.545684	0.985194	-0.497665	-0.739363	0.992926	-0.334947	-0.730353	1.006718	-0.418606	-0.559062	0.784116	-0.195105	-0.507518	0.802744	-0.207937	-0.542337	0.751717	-0.198160	-0.489035	0.770675	-0.215651	-0.447286	0.502639	-0.283983	-0.448269	0.501433	-0.393663	-0.478740	0.361160	-0.257905	-0.432792	0.374801	-0.275282	-0.469694	0.314483	-0.266513	-0.426261	0.327759	-0.279949	-0.413124	0.103097	-0.329840	-0.399533	0.121024	-0.421712	-0.263512	0.073833	-0.297788	-0.261708	0.093797	-0.417036	-0.218466	0.124387	-0.353124	-0.476090	0.052301	-0.384659	-0.612866	0.791915	-0.573603	-0.561987	0.792790	-0.566247	-0.619076	0.757398	-0.575680	-0.568031	0.755893	-0.574640	-0.637711	0.494277	-0.549984	-0.629544	0.474137	-0.430772	-0.788032	0.458097	-0.569848	-0.758039	0.419052	-0.568067	-0.828653	0.434636	-0.561513	-0.795529	0.395666	-0.563230	-0.993560	0.284138	-0.522740	-0.951316	0.263636	-0.431997	-1.018673	0.133700	-0.533467	-0.999991	0.118506	-0.420012	-0.962069	0.063303	-0.483138	-1.033487	0.333052	-0.465705	-0.643490	1.474279	-0.171508	-0.553658	1.476652	-0.524574	
50	0.2450	-0.545274	0.971341	-0.240276	-0.528144	0.983717	-0.497044	-0.722132	0.990581	-0.334413	-0.713044	1.004297	-0.418153	-0.542237	0.781119	-0.195046	-0.490558	0.799317	-0.207776	-0.525782	0.748574	-0.198065	-0.472350	0.767128	-0.215546	-0.432292	0.499499	-0.285245	-0.434030	0.498634	-0.394868	-0.463907	0.358333	-0.259325	-0.418108	0.371690	-0.277045	-0.455246	0.311699	-0.268074	-0.411932	0.324721	-0.281838	-0.401269	0.101200	-0.331560	-0.388300	0.118578	-0.424034	-0.252279	0.070886	-0.300521	-0.251174	0.089468	-0.419973	-0.206972	0.119507	-0.356699	-0.465119	0.051777	-0.386149	-0.592941	0.790347	-0.573951	-0.542185	0.791788	-0.566236	-0.598647	0.755762	-0.576355	-0.547589	0.754948	-0.574992	-0.613795	0.492471	-0.552237	-0.605410	0.471713	-0.432987	-0.764695	0.458960	-0.571908	-0.735463	0.419239	-0.570238	-0.805710	0.436208	-0.563523	-0.773309	0.396489	-0.565189	-0.973916	0.289683	-0.524151	-0.931606	0.267940	-0.433688	-1.001167	0.139556	-0.536087	-0.982208	0.123075	-0.423223	-0.945265	0.066332	-0.487044	-1.013145	0.339101	-0.466541	-0.626215	1.472133	-0.170477	-0.538116	1.475009	-0.524139	
51	0.2500	-0.527866	0.969305	-0.239599	-0.510657	0.982021	-0.496431	-0.705019	0.988044	-0.333863	-0.695843	1.001605	-0.417703	-0.525429	0.778107	-0.195004	-0.473631	0.795906	-0.207647	-0.509229	0.745431	-0.198011	-0.455678	0.763605	-0.215477	-0.417234	0.496342	-0.286501	-0.419738	0.495839	-0.396070	-0.449357	0.355598	-0.260758	-0.403690	0.368529	-0.278820	-0.441230	0.309007	-0.269640	-0.398022	0.321631	-0.283739	-0.390672	0.099357	-0.333219	-0.378282	0.116090	-0.426321	-0.242425	0.067716	-0.303092	-0.241918	0.084731	-0.422783	-0.196706	0.114140	-0.360157	-0.455540	0.051431	-0.387587	-0.572878	0.788609	-0.574258	-0.522264	0.790663	-0.566131	-0.578051	0.753970	-0.577002	-0.526990	0.753896	-0.575255	-0.589536	0.490591	-0.554410	-0.580972	0.469262	-0.435121	-0.740908	0.459570	-0.573987	-0.712397	0.419201	-0.572356	-0.782295	0.437493	-0.565567	-0.750584	0.397072	-0.567148	-0.953638	0.294780	-0.525594	-0.911311	0.271888	-0.435379	-0.982551	0.145069	-0.538838	-0.963402	0.127269	-0.426521	-0.927237	0.069376	-0.491026	-0.992378	0.344518	-0.467427	-0.608899	1.469805	-0.169416	-0.522613	1.473162	-0.523749	
52	0.2550	-0.510532	0.967195	-0.238890	-0.493211	0.980130	-0.495822	-0.688005	0.985350	-0.333300	-0.678736	0.998683	-0.417253	-0.508633	0.775112	-0.194976	-0.456734	0.792543	-0.207542	-0.492676	0.742317	-0.197994	-0.439018	0.760137	-0.215438	-0.402123	0.493194	-0.287740	-0.405391	0.493073	-0.397257	-0.435091	0.352975	-0.262195	-0.389540	0.365345	-0.280593	-0.427641	0.306427	-0.271199	-0.384524	0.318517	-0.285637	-0.381274	0.097588	-0.334812	-0.369417	0.113593	-0.428560	-0.233879	0.064380	-0.305486	-0.233866	0.079670	-0.425449	-0.187613	0.108380	-0.363471	-0.447274	0.051253	-0.388970	-0.552682	0.786740	-0.574516	-0.502228	0.789448	-0.565925	-0.557293	0.752063	-0.577609	-0.506242	0.752774	-0.575417	-0.564950	0.488687	-0.556479	-0.556250	0.466834	-0.437148	-0.716684	0.459945	-0.576068	-0.688843	0.418960	-0.574401	-0.758421	0.438500	-0.567630	-0.727355	0.397431	-0.569090	-0.932706	0.299390	-0.527071	-0.890410	0.275445	-0.437067	-0.962803	0.150179	-0.541708	-0.943558	0.131038	-0.429890	-0.907954	0.072380	-0.495059	-0.971167	0.349268	-0.468372	-0.591532	1.467330	-0.168329	-0.507138	1.471145	-0.523398	
53	0.2600	-0.493255	0.965041	-0.238147	-0.475789	0.978076	-0.495215	-0.671071	0.982541	-0.332726	-0.661702	0.995574	-0.416803	-0.491848	0.772164	-0.194954	-0.439864	0.789257	-0.207452	-0.476121	0.739263	-0.198012	-0.422368	0.756752	-0.215420	-0.386976	0.490077	-0.288950	-0.390994	0.490358	-0.398416	-0.421115	0.350483	-0.263625	-0.375662	0.362166	-0.282346	-0.414473	0.303981	-0.272739	-0.371434	0.315407	-0.287515	-0.373010	0.095912	-0.336333	-0.361636	0.111127	-0.430733	-0.226562	0.060940	-0.307690	-0.226942	0.074374	-0.427957	-0.179635	0.102328	-0.366616	-0.440235	0.051237	-0.390294	-0.532355	0.784781	-0.574715	-0.482081	0.788182	-0.565610	-0.536377	0.750084	-0.578163	-0.485351	0.751622	-0.575468	-0.540054	0.486809	-0.558418	-0.531258	0.464483	-0.439043	-0.692033	0.460103	-0.578131	-0.664804	0.418544	-0.576355	-0.734096	0.439243	-0.569693	-0.703621	0.397585	-0.571000	-0.911097	0.303477	-0.528580	-0.868873	0.278581	-0.438749	-0.941896	0.154827	-0.544680	-0.922654	0.134337	-0.433311	-0.887388	0.075288	-0.499113	-0.949487	0.353321	-0.469380	-0.574103	1.464746	-0.167217	-0.491677	1.468995	-0.523083	
54	0.2650	-0.476017	0.962873	-0.237368	-0.458375	0.975893	-0.494606	-0.654192	0.979658	-0.332140	-0.644719	0.992327	-0.416351	-0.475069	0.769290	-0.194934	-0.423017	0.786073	-0.207367	-0.459565	0.736296	-0.198057	-0.405726	0.753473	-0.215414	-0.371815	0.487013	-0.290117	-0.376557	0.487711	-0.399533	-0.407435	0.348138	-0.265032	-0.362063	0.359017	-0.284060	-0.401721	0.301686	-0.274248	-0.358749	0.312329	-0.289353	-0.365805	0.094354	-0.337777	-0.354863	0.108732	-0.432823	-0.220392	0.057457	-0.309696	-0.221063	0.068937	-0.430296	-0.172711	0.096090	-0.369572	-0.434329	0.051380	-0.391553	-0.511898	0.782776	-0.574847	-0.461824	0.786908	-0.565182	-0.515307	0.748079	-0.578651	-0.464322	0.750481	-0.575398	-0.514859	0.485007	-0.560201	-0.506010	0.462260	-0.440781	-0.666967	0.460068	-0.580155	-0.640281	0.417980	-0.578195	-0.709327	0.439735	-0.571737	-0.679381	0.397555	-0.572859	-0.888785	0.307007	-0.530118	-0.846672	0.281265	-0.440420	-0.919809	0.158963	-0.547736	-0.900666	0.137127	-0.436767	-0.865509	0.078048	-0.503162	-0.927310	0.356650	-0.470453	-0.556595	1.462094	-0.166088	-0.476216	1.466753	-0.522798	
55	0.2700	-0.458795	0.960721	-0.236551	-0.440951	0.973617	-0.493993	-0.637342	0.976743	-0.331545	-0.627762	0.988992	-0.415896	-0.458294	0.766516	-0.194909	-0.406187	0.783013	-0.207278	-0.443006	0.733438	-0.198122	-0.389091	0.750322	-0.215411	-0.356665	0.484017	-0.291229	-0.362094	0.485149	-0.400595	-0.394059	0.345953	-0.266403	-0.348753	0.355925	-0.285715	-0.389380	0.299559	-0.275709	-0.346465	0.309310	-0.291131	-0.359582	0.092935	-0.339136	-0.349017	0.106452	-0.434812	-0.215278	0.053992	-0.311495	-0.216147	0.063454	-0.432455	-0.166773	0.089770	-0.372321	-0.429454	0.051684	-0.392740	-0.491312	0.780772	-0.574903	-0.441459	0.785665	-0.564636	-0.494086	0.746096	-0.579060	-0.443161	0.749393	-0.575199	-0.489377	0.483331	-0.561803	-0.480516	0.460217	-0.442337	-0.641494	0.459859	-0.582116	-0.615274	0.417296	-0.579903	-0.684121	0.439989	-0.573741	-0.654630	0.397362	-0.574646	-0.865743	0.309950	-0.531681	-0.823775	0.283472	-0.442072	-0.896518	0.162545	-0.550855	-0.877569	0.139376	-0.440236	-0.842292	0.080609	-0.507177	-0.904603	0.359228	-0.471591	-0.538991	1.459415	-0.164945	-0.460740	1.464459	-0.522539	
56	0.2750	-0.441568	0.958615	-0.235694	-0.423501	0.971289	-0.493372	-0.620491	0.973839	-0.330942	-0.610806	0.985622	-0.415436	-0.441520	0.763863	-0.194870	-0.389370	0.780093	-0.207175	-0.426446	0.730712	-0.198198	-0.372462	0.747312	-0.215398	-0.341557	0.481103	-0.292268	-0.347626	0.482681	-0.401585	-0.380994	0.343941	-0.267721	-0.335740	0.352911	-0.287293	-0.377445	0.297616	-0.277110	-0.334580	0.306376	-0.292831	-0.354254	0.091680	-0.340404	-0.344014	0.104329	-0.436685	-0.211129	0.050601	-0.313087	-0.212106	0.058015	-0.434429	-0.161753	0.083472	-0.374849	-0.425505	0.052151	-0.393848	-0.470601	0.778815	-0.574875	-0.420988	0.784498	-0.563971	-0.472718	0.744180	-0.579379	-0.421873	0.748402	-0.574863	-0.463619	0.481829	-0.563202	-0.454788	0.458402	-0.443686	-0.615623	0.459502	-0.583992	-0.589785	0.416523	-0.581457	-0.658482	0.440021	-0.575681	-0.629366	0.397028	-0.576342	-0.841948	0.312282	-0.533260	-0.800151	0.285178	-0.443698	-0.872005	0.165538	-0.554015	-0.853338	0.141061	-0.443699	-0.817714	0.082927	-0.511130	-0.881332	0.361034	-0.472790	-0.521273	1.456752	-0.163795	-0.445234	1.462155	-0.522301	
57	0.2800	-0.424312	0.956583	-0.234798	-0.406007	0.968951	-0.492741	-0.603612	0.970988	-0.330331	-0.593824	0.982269	-0.414967	-0.424746	0.761352	-0.194810	-0.372561	0.777328	-0.207045	-0.409887	0.728135	-0.198275	-0.355840	0.744457	-0.215364	-0.326526	0.478284	-0.293222	-0.333176	0.480315	-0.402489	-0.368251	0.342111	-0.268969	-0.323038	0.349997	-0.288773	-0.365913	0.295868	-0.278433	-0.323092	0.303551	-0.294430	-0.349732	0.090608	-0.341576	-0.339767	0.102401	-0.438422	-0.207847	0.047336	-0.314469	-0.208855	0.052708	-0.436215	-0.157578	0.077294	-0.377147	-0.422371	0.052788	-0.394867	-0.449767	0.776949	-0.574758	-0.400412	0.783448	-0.563184	-0.451209	0.742378	-0.579597	-0.400463	0.747547	-0.574387	-0.437598	0.480546	-0.564375	-0.428839	0.456860	-0.444809	-0.589365	0.459019	-0.585756	-0.563818	0.415690	-0.582838	-0.632418	0.439847	-0.577535	-0.603590	0.396573	-0.577924	-0.817377	0.313982	-0.534847	-0.775771	0.286364	-0.445287	-0.846254	0.167917	-0.557192	-0.827950	0.142165	-0.447135	-0.791758	0.084963	-0.514996	-0.857463	0.362047	-0.474043	-0.503423	1.454146	-0.162644	-0.429684	1.459882	-0.522078	
58	0.2850	-0.407002	0.954652	-0.233862	-0.388454	0.966644	-0.492095	-0.586675	0.968233	-0.329711	-0.576791	0.978984	-0.414486	-0.407969	0.758998	-0.194721	-0.355758	0.774726	-0.206879	-0.393332	0.725722	-0.198342	-0.339226	0.741763	-0.215297	-0.311607	0.475567	-0.294074	-0.318773	0.478056	-0.403293	-0.355839	0.340470	-0.270131	-0.310658	0.347202	-0.290135	-0.354778	0.294327	-0.279664	-0.312001	0.300858	-0.295910	-0.345924	0.089742	-0.342642	-0.336185	0.100708	-0.440010	-0.205337	0.044246	-0.315647	-0.206308	0.047614	-0.437811	-0.154175	0.071327	-0.379209	-0.419942	0.053603	-0.395789	-0.428815	0.775219	-0.574547	-0.379737	0.782555	-0.562278	-0.429565	0.740732	-0.579706	-0.378940	0.746867	-0.573766	-0.411328	0.479522	-0.565303	-0.402684	0.455632	-0.445686	-0.562736	0.458433	-0.587384	-0.537382	0.414827	-0.584030	-0.605940	0.439483	-0.579279	-0.577304	0.396020	-0.579373	-0.792014	0.315034	-0.536429	-0.750613	0.287017	-0.446828	-0.819260	0.169665	-0.560361	-0.801386	0.142679	-0.450522	-0.764415	0.086687	-0.518747	-0.832967	0.362253	-0.475342	-0.485424	1.451639	-0.161499	-0.414079	1.457679	-0.521866	
59	0.2900	-0.389617	0.952847	-0.232887	-0.370831	0.964413	-0.491434	-0.569654	0.965612	-0.329084	-0.559682	0.975819	-0.413990	-0.391190	0.756817	-0.194596	-0.338957	0.772296	-0.206666	-0.376786	0.723485	-0.198389	-0.322622	0.739234	-0.215186	-0.296839	0.472961	-0.294810	-0.304448	0.475905	-0.403981	-0.343770	0.339023	-0.271189	-0.298613	0.344543	-0.291361	-0.344037	0.292999	-0.280787	-0.301304	0.298316	-0.297250	-0.342739	0.089097	-0.343599	-0.333178	0.099282	-0.441434	-0.203504	0.041368	-0.316625	-0.204380	0.042804	-0.439218	-0.151469	0.065653	-0.381032	-0.418108	0.054605	-0.396605	-0.407753	0.773665	-0.574238	-0.358968	0.781857	-0.561255	-0.407797	0.739281	-0.579695	-0.357313	0.746397	-0.572999	-0.384831	0.478795	-0.565970	-0.376343	0.454752	-0.446300	-0.535754	0.457766	-0.588851	-0.510491	0.413962	-0.585015	-0.579061	0.438945	-0.580888	-0.550520	0.395389	-0.580667	-0.765848	0.315429	-0.537994	-0.724659	0.287127	-0.448310	-0.791023	0.170775	-0.563497	-0.773634	0.142606	-0.453837	-0.735686	0.088075	-0.522358	-0.807818	0.361642	-0.476676	-0.467262	1.449270	-0.160366	-0.398408	1.455586	-0.521659	
60	0.2950	-0.372139	0.951191	-0.231875	-0.353129	0.962298	-0.490754	-0.552527	0.963162	-0.328446	-0.542479	0.972822	-0.413474	-0.374414	0.754818	-0.194428	-0.322160	0.770038	-0.206398	-0.360256	0.721432	-0.198405	-0.306035	0.736873	-0.215019	-0.282261	0.470469	-0.295417	-0.290236	0.473864	-0.404543	-0.332053	0.337772	-0.272129	-0.286917	0.342036	-0.292433	-0.333686	0.291890	-0.281790	-0.291001	0.295944	-0.298434	-0.340082	0.088689	-0.344439	-0.330656	0.098151	-0.442681	-0.202252	0.038733	-0.317411	-0.202987	0.038338	-0.440441	-0.149385	0.060341	-0.382619	-0.416760	0.055805	-0.397306	-0.386592	0.772325	-0.573829	-0.338115	0.781385	-0.560118	-0.385918	0.738062	-0.579561	-0.335596	0.746169	-0.572088	-0.358131	0.478393	-0.566364	-0.349839	0.454250	-0.446639	-0.508446	0.457039	-0.590133	-0.483170	0.413121	-0.585780	-0.551805	0.438249	-0.582341	-0.523254	0.394701	-0.581789	-0.738879	0.315161	-0.539528	-0.697902	0.286692	-0.449719	-0.761558	0.171248	-0.566573	-0.744691	0.141953	-0.457059	-0.705586	0.089115	-0.525806	-0.782000	0.360209	-0.478029	-0.448928	1.447076	-0.159252	-0.382664	1.453636	-0.521455	
61	0.3000	-0.354553	0.949701	-0.230829	-0.335344	0.960337	-0.490054	-0.535275	0.960915	-0.327797	-0.525166	0.970034	-0.412934	-0.357645	0.753010	-0.194210	-0.305370	0.767954	-0.206067	-0.343752	0.719571	-0.198379	-0.289472	0.734676	-0.214786	-0.267914	0.468096	-0.295881	-0.276172	0.471931	-0.404965	-0.320699	0.336719	-0.272936	-0.275582	0.339694	-0.293337	-0.323719	0.291002	-0.282660	-0.281089	0.293757	-0.299445	-0.337864	0.088528	-0.345157	-0.328533	0.097339	-0.443741	-0.201491	0.036366	-0.318018	-0.202051	0.034265	-0.441487	-0.147849	0.055447	-0.383975	-0.415795	0.057213	-0.397886	-0.365347	0.771230	-0.573319	-0.317192	0.781167	-0.558875	-0.363947	0.737105	-0.579297	-0.313808	0.746206	-0.571035	-0.331260	0.478341	-0.566474	-0.323204	0.454147	-0.446694	-0.480847	0.456273	-0.591209	-0.455449	0.412330	-0.586314	-0.524199	0.437410	-0.583616	-0.495535	0.393973	-0.582723	-0.711120	0.314235	-0.541015	-0.670347	0.285713	-0.451045	-0.730892	0.171096	-0.569564	-0.714568	0.140740	-0.460167	-0.674143	0.089800	-0.529069	-0.755505	0.357956	-0.479388	-0.430417	1.445088	-0.158164	-0.366846	1.451862	-0.521248	
62	0.3050	-0.336850	0.948396	-0.229754	-0.317478	0.958568	-0.489335	-0.517887	0.958900	-0.327133	-0.507734	0.967496	-0.412365	-0.340893	0.751398	-0.193938	-0.288594	0.766041	-0.205667	-0.327289	0.717905	-0.198302	-0.272946	0.732641	-0.214480	-0.253838	0.465845	-0.296194	-0.262295	0.470102	-0.405238	-0.309716	0.335862	-0.273596	-0.264620	0.337527	-0.294059	-0.314132	0.290336	-0.283384	-0.271567	0.291768	-0.300271	-0.335998	0.088622	-0.345749	-0.326723	0.096862	-0.444606	-0.201134	0.034281	-0.318456	-0.201496	0.030621	-0.442362	-0.146789	0.051014	-0.385108	-0.415113	0.058839	-0.398338	-0.344042	0.770406	-0.572709	-0.296219	0.781227	-0.557533	-0.341909	0.736433	-0.578903	-0.291971	0.746528	-0.569847	-0.304261	0.478656	-0.566296	-0.296476	0.454457	-0.446461	-0.453000	0.455485	-0.592059	-0.427373	0.411610	-0.586610	-0.496284	0.436444	-0.584693	-0.467402	0.393223	-0.583453	-0.682595	0.312660	-0.542440	-0.642014	0.284199	-0.452273	-0.699070	0.170338	-0.572445	-0.683293	0.138990	-0.463138	-0.641406	0.090135	-0.532128	-0.728341	0.354894	-0.480735	-0.411732	1.443337	-0.157108	-0.350957	1.450291	-0.521034	
63	0.3100	-0.319031	0.947286	-0.228654	-0.299543	0.957022	-0.488595	-0.500361	0.957141	-0.326452	-0.490185	0.965239	-0.411764	-0.324174	0.749985	-0.193607	-0.271845	0.764294	-0.205193	-0.310884	0.716434	-0.198166	-0.256473	0.730761	-0.214092	-0.240073	0.463718	-0.296345	-0.248642	0.468376	-0.405356	-0.299115	0.335199	-0.274100	-0.254042	0.335544	-0.294590	-0.304922	0.289890	-0.283956	-0.262432	0.289986	-0.300900	-0.334399	0.088973	-0.346212	-0.325148	0.096730	-0.445270	-0.201101	0.032483	-0.318742	-0.201251	0.027431	-0.443078	-0.146135	0.047072	-0.386031	-0.414623	0.060691	-0.398655	-0.322703	0.769874	-0.572001	-0.275222	0.781579	-0.556102	-0.319835	0.736063	-0.578378	-0.270117	0.747148	-0.568532	-0.277182	0.479345	-0.565831	-0.269705	0.455187	-0.445939	-0.424959	0.454693	-0.592668	-0.398998	0.410982	-0.586664	-0.468110	0.435365	-0.585558	-0.438905	0.392468	-0.583970	-0.653348	0.310451	-0.543788	-0.612938	0.282166	-0.453394	-0.666158	0.169004	-0.575191	-0.650910	0.136738	-0.465953	-0.607445	0.090131	-0.534964	-0.700530	0.351040	-0.482055	-0.392887	1.441845	-0.156090	-0.335007	1.448944	-0.520811	
64	0.3150	-0.301101	0.946380	-0.227536	-0.281555	0.955725	-0.487836	-0.482703	0.955656	-0.325749	-0.472527	0.963291	-0.411124	-0.307507	0.748771	-0.193214	-0.255141	0.762708	-0.204642	-0.294560	0.715158	-0.197965	-0.240072	0.729031	-0.213618	-0.226656	0.461717	-0.296329	-0.235254	0.466749	-0.405314	-0.288903	0.334725	-0.274440	-0.243857	0.333752	-0.294923	-0.296082	0.289659	-0.284368	-0.253680	0.288421	-0.301325	-0.332993	0.089582	-0.346544	-0.323735	0.096946	-0.445732	-0.201317	0.030972	-0.318889	-0.201249	0.024705	-0.443645	-0.145820	0.043636	-0.386757	-0.414240	0.062776	-0.398836	-0.301366	0.769646	-0.571201	-0.254233	0.782233	-0.554593	-0.297766	0.736008	-0.577725	-0.248284	0.748072	-0.567099	-0.250086	0.480411	-0.565081	-0.242947	0.456334	-0.445132	-0.396790	0.453910	-0.593023	-0.370391	0.410460	-0.586474	-0.439739	0.434190	-0.586195	-0.410112	0.391721	-0.584266	-0.623435	0.307633	-0.545042	-0.583173	0.279635	-0.454396	-0.632238	0.167129	-0.577780	-0.617489	0.134024	-0.468595	-0.572349	0.089810	-0.537564	-0.672111	0.346420	-0.483329	-0.373901	1.440629	-0.155114	-0.319012	1.447839	-0.520576	
65	0.3200	-0.283080	0.945683	-0.226406	-0.263541	0.954699	-0.487059	-0.464930	0.954458	-0.325022	-0.454779	0.961670	-0.410444	-0.290917	0.747754	-0.192759	-0.238505	0.761276	-0.204014	-0.278343	0.714074	-0.197693	-0.223772	0.727443	-0.213056	-0.213624	0.459843	-0.296143	-0.222167	0.465219	-0.405109	-0.279088	0.334437	-0.274609	-0.234075	0.332156	-0.295053	-0.287609	0.289637	-0.284617	-0.245309	0.287076	-0.301542	-0.331710	0.090441	-0.346744	-0.322417	0.097506	-0.445991	-0.201714	0.029738	-0.318914	-0.201433	0.022444	-0.444076	-0.145782	0.040708	-0.387303	-0.413891	0.065097	-0.398877	-0.280077	0.769730	-0.570313	-0.233295	0.783189	-0.553017	-0.275749	0.736269	-0.576948	-0.226515	0.749297	-0.565563	-0.223044	0.481846	-0.564057	-0.216270	0.457888	-0.444051	-0.368571	0.453148	-0.593117	-0.341635	0.410057	-0.586044	-0.411247	0.432931	-0.586597	-0.381102	0.390995	-0.584338	-0.592937	0.304238	-0.546191	-0.552793	0.276636	-0.455271	-0.597421	0.164757	-0.580193	-0.583118	0.130894	-0.471045	-0.536237	0.089199	-0.539915	-0.643142	0.341073	-0.484543	-0.354808	1.439704	-0.154185	-0.302999	1.446988	-0.520328	
66	0.3250	-0.264996	0.945194	-0.225274	-0.245537	0.953957	-0.486267	-0.447072	0.953553	-0.324268	-0.436973	0.960388	-0.409720	-0.274436	0.746930	-0.192242	-0.221968	0.759991	-0.203310	-0.262267	0.713177	-0.197347	-0.207603	0.725990	-0.212404	-0.201010	0.458098	-0.295788	-0.209421	0.463783	-0.404744	-0.269674	0.334326	-0.274607	-0.224702	0.330760	-0.294982	-0.279498	0.289817	-0.284700	-0.237313	0.285955	-0.301551	-0.330489	0.091542	-0.346814	-0.321136	0.098400	-0.446052	-0.202232	0.028767	-0.318834	-0.201748	0.020635	-0.444384	-0.145961	0.038278	-0.387685	-0.413512	0.067654	-0.398780	-0.258885	0.770124	-0.569344	-0.212456	0.784443	-0.551389	-0.253839	0.736843	-0.576054	-0.204867	0.750814	-0.563936	-0.196139	0.483637	-0.562772	-0.189752	0.459830	-0.442709	-0.340392	0.452418	-0.592946	-0.312826	0.409782	-0.585383	-0.382722	0.431603	-0.586759	-0.351969	0.390300	-0.584186	-0.561951	0.300304	-0.547221	-0.521892	0.273202	-0.456011	-0.561836	0.161936	-0.582412	-0.547916	0.127401	-0.473290	-0.499249	0.088329	-0.542010	-0.613702	0.335043	-0.485679	-0.335650	1.439073	-0.153307	-0.287000	1.446396	-0.520064	
67	0.3300	-0.246889	0.944911	-0.224146	-0.227589	0.953508	-0.485464	-0.429169	0.952942	-0.323483	-0.419148	0.959450	-0.408949	-0.258102	0.746294	-0.191663	-0.205569	0.758845	-0.202535	-0.246368	0.712461	-0.196926	-0.191604	0.724664	-0.211665	-0.188847	0.456485	-0.295266	-0.197052	0.462441	-0.404221	-0.260669	0.334385	-0.274434	-0.215744	0.329563	-0.294714	-0.271744	0.290189	-0.284621	-0.229689	0.285057	-0.301356	-0.329277	0.092870	-0.346756	-0.319844	0.099610	-0.445921	-0.202819	0.028040	-0.318666	-0.202147	0.019258	-0.444584	-0.146307	0.036324	-0.387924	-0.413049	0.070440	-0.398548	-0.237853	0.770819	-0.568304	-0.191775	0.785980	-0.549724	-0.232103	0.737719	-0.575053	-0.183401	0.752608	-0.562235	-0.169464	0.485761	-0.561245	-0.163479	0.462134	-0.441125	-0.312353	0.451728	-0.592513	-0.284073	0.409639	-0.584500	-0.354267	0.430219	-0.586679	-0.322824	0.389646	-0.583815	-0.530595	0.295877	-0.548122	-0.490587	0.269376	-0.456611	-0.525640	0.158722	-0.584423	-0.512023	0.123600	-0.475319	-0.461552	0.087240	-0.543842	-0.583891	0.328387	-0.486724	-0.316481	1.438738	-0.152484	-0.271057	1.446064	-0.519784	
68	0.3350	-0.228810	0.944825	-0.223032	-0.209752	0.953353	-0.484653	-0.411275	0.952620	-0.322666	-0.401361	0.958851	-0.408133	-0.241960	0.745837	-0.191028	-0.189351	0.757830	-0.201693	-0.230691	0.711918	-0.196431	-0.175817	0.723459	-0.210844	-0.177162	0.455004	-0.294584	-0.185095	0.461193	-0.403548	-0.252074	0.334606	-0.274094	-0.207206	0.328566	-0.294255	-0.264345	0.290741	-0.284384	-0.222432	0.284378	-0.300962	-0.328032	0.094409	-0.346575	-0.318500	0.101114	-0.445608	-0.203432	0.027531	-0.318425	-0.202590	0.018284	-0.444688	-0.146770	0.034818	-0.388038	-0.412461	0.073447	-0.398184	-0.217049	0.771801	-0.567203	-0.171317	0.787782	-0.548035	-0.210614	0.738879	-0.573956	-0.162188	0.754656	-0.560478	-0.143121	0.488191	-0.559497	-0.137548	0.464767	-0.439322	-0.284567	0.451083	-0.591825	-0.255497	0.409631	-0.583413	-0.325993	0.428792	-0.586362	-0.293789	0.389038	-0.583234	-0.499006	0.291012	-0.548886	-0.459012	0.265204	-0.457069	-0.489011	0.155174	-0.586216	-0.475608	0.119552	-0.477123	-0.423338	0.085971	-0.545411	-0.553828	0.321171	-0.487667	-0.297368	1.438692	-0.151716	-0.255221	1.445986	-0.519489	
69	0.3400	-0.210823	0.944926	-0.221939	-0.192089	0.953486	-0.483838	-0.393453	0.952576	-0.321817	-0.383673	0.958582	-0.407271	-0.226061	0.745549	-0.190340	-0.173366	0.756940	-0.200792	-0.215285	0.711538	-0.195865	-0.160292	0.722369	-0.209948	-0.165982	0.453657	-0.293752	-0.173585	0.460039	-0.402736	-0.243895	0.334979	-0.273596	-0.199091	0.327765	-0.293617	-0.257297	0.291460	-0.283995	-0.215537	0.283914	-0.300382	-0.326722	0.096137	-0.346277	-0.317073	0.102884	-0.445125	-0.204033	0.027215	-0.318128	-0.203044	0.017677	-0.444711	-0.147310	0.033721	-0.388046	-0.411717	0.076660	-0.397696	-0.196549	0.773048	-0.566050	-0.151157	0.789822	-0.546340	-0.189452	0.740299	-0.572775	-0.141305	0.756930	-0.558683	-0.117221	0.490890	-0.557555	-0.112064	0.467689	-0.437325	-0.257156	0.450487	-0.590894	-0.227229	0.409753	-0.582139	-0.298027	0.427336	-0.585818	-0.264999	0.388482	-0.582456	-0.467341	0.285766	-0.549509	-0.427325	0.260739	-0.457384	-0.452149	0.151353	-0.587783	-0.438863	0.115317	-0.478697	-0.384824	0.084565	-0.546718	-0.523652	0.313471	-0.488498	-0.278385	1.438922	-0.151005	-0.239549	1.446151	-0.519179	
70	0.3450	-0.193000	0.945199	-0.220875	-0.174673	0.953895	-0.483025	-0.375781	0.952792	-0.320936	-0.366161	0.958625	-0.406367	-0.210461	0.745420	-0.189605	-0.157672	0.756166	-0.199841	-0.200202	0.711312	-0.195234	-0.145084	0.721387	-0.208986	-0.155330	0.452446	-0.292782	-0.162551	0.458979	-0.401797	-0.236133	0.335493	-0.272949	-0.191401	0.327156	-0.292815	-0.250597	0.292331	-0.283466	-0.209002	0.283657	-0.299629	-0.325322	0.098030	-0.345870	-0.315543	0.104886	-0.444487	-0.204596	0.027064	-0.317789	-0.203481	0.017396	-0.444668	-0.147890	0.032990	-0.387967	-0.410797	0.080057	-0.397093	-0.176438	0.774534	-0.564858	-0.131375	0.792070	-0.544652	-0.168704	0.741950	-0.571526	-0.120838	0.759397	-0.556869	-0.091881	0.493820	-0.555448	-0.087135	0.470857	-0.435166	-0.230248	0.449941	-0.589738	-0.199411	0.410001	-0.580700	-0.270501	0.425863	-0.585060	-0.236599	0.387982	-0.581499	-0.435772	0.280205	-0.549987	-0.395697	0.256036	-0.457560	-0.415273	0.147324	-0.589123	-0.402002	0.110959	-0.480039	-0.346244	0.083065	-0.547770	-0.493521	0.305369	-0.489209	-0.259619	1.439411	-0.150353	-0.224107	1.446544	-0.518856	
71	0.3500	-0.175426	0.945628	-0.219849	-0.157582	0.954560	-0.482219	-0.358342	0.953249	-0.320026	-0.348906	0.958957	-0.405425	-0.195222	0.745437	-0.188832	-0.142331	0.755502	-0.198852	-0.185500	0.711227	-0.194543	-0.130251	0.720509	-0.207969	-0.145224	0.451370	-0.291691	-0.152023	0.458015	-0.400747	-0.228791	0.336135	-0.272168	-0.184138	0.326730	-0.291865	-0.244244	0.293338	-0.282809	-0.202821	0.283594	-0.298720	-0.323821	0.100061	-0.345364	-0.313899	0.107086	-0.443711	-0.205098	0.027048	-0.317421	-0.203880	0.017399	-0.444569	-0.148481	0.032578	-0.387820	-0.409694	0.083614	-0.396388	-0.156802	0.776226	-0.563639	-0.112057	0.794489	-0.542989	-0.148463	0.743799	-0.570223	-0.100875	0.762018	-0.555056	-0.067222	0.496936	-0.553208	-0.062878	0.474219	-0.432875	-0.203978	0.449446	-0.588377	-0.172188	0.410365	-0.579122	-0.243557	0.424386	-0.584106	-0.208742	0.387538	-0.580383	-0.404484	0.274400	-0.550322	-0.364317	0.251155	-0.457601	-0.378619	0.143151	-0.590236	-0.365260	0.106538	-0.481153	-0.307852	0.081513	-0.548576	-0.463606	0.296958	-0.489797	-0.241163	1.440137	-0.149757	-0.208965	1.447144	-0.518522	
72	0.3550	-0.158189	0.946194	-0.218868	-0.140900	0.955458	-0.481425	-0.341230	0.953920	-0.319091	-0.332000	0.959549	-0.404451	-0.180409	0.745586	-0.188028	-0.127411	0.754941	-0.197835	-0.171238	0.711270	-0.193802	-0.115854	0.719730	-0.206909	-0.135681	0.450430	-0.290495	-0.142026	0.457148	-0.399603	-0.221870	0.336891	-0.271269	-0.177302	0.326479	-0.290789	-0.238237	0.294463	-0.282039	-0.196993	0.283714	-0.297676	-0.322212	0.102201	-0.344770	-0.312138	0.109442	-0.442817	-0.205525	0.027139	-0.317038	-0.204227	0.017638	-0.444429	-0.149058	0.032437	-0.387620	-0.408407	0.087301	-0.395592	-0.137735	0.778090	-0.562407	-0.093293	0.797041	-0.541364	-0.128825	0.745807	-0.568884	-0.081509	0.764755	-0.553263	-0.043366	0.500190	-0.550869	-0.039407	0.477726	-0.430488	-0.178482	0.449001	-0.586840	-0.145710	0.410832	-0.577432	-0.217338	0.422916	-0.582977	-0.181585	0.387150	-0.579130	-0.373674	0.268423	-0.550518	-0.333382	0.246158	-0.457516	-0.342434	0.138898	-0.591127	-0.328884	0.102117	-0.482045	-0.269912	0.079949	-0.549149	-0.434092	0.288333	-0.490260	-0.223115	1.441072	-0.149219	-0.194199	1.447928	-0.518179	
73	0.3600	-0.141387	0.946875	-0.217937	-0.124715	0.956559	-0.480649	-0.324543	0.954777	-0.318137	-0.315536	0.960368	-0.403453	-0.166090	0.745852	-0.187202	-0.112981	0.754476	-0.196802	-0.157480	0.711427	-0.193021	-0.101958	0.719044	-0.205821	-0.126714	0.449623	-0.289216	-0.132584	0.456379	-0.398383	-0.215371	0.337748	-0.270270	-0.170893	0.326391	-0.289607	-0.232574	0.295686	-0.281173	-0.191514	0.284000	-0.296518	-0.320501	0.104420	-0.344102	-0.310266	0.111916	-0.441824	-0.205869	0.027310	-0.316650	-0.204510	0.018069	-0.444258	-0.149601	0.032518	-0.387384	-0.406948	0.091081	-0.394722	-0.119329	0.780087	-0.561174	-0.075174	0.799684	-0.539791	-0.109885	0.747936	-0.567526	-0.062834	0.767564	-0.551508	-0.020434	0.503534	-0.548466	-0.016839	0.481323	-0.428040	-0.153896	0.448604	-0.585154	-0.120126	0.411390	-0.575657	-0.191989	0.421466	-0.581701	-0.155285	0.386818	-0.577767	-0.343543	0.262350	-0.550581	-0.303098	0.241108	-0.457313	-0.306970	0.134629	-0.591806	-0.293134	0.097752	-0.482723	-0.232698	0.078410	-0.549506	-0.405172	0.279595	-0.490601	-0.205578	1.442187	-0.148735	-0.179886	1.448870	-0.517832	
74	0.3650	-0.125117	0.947650	-0.217063	-0.109114	0.957831	-0.479896	-0.308380	0.955788	-0.317171	-0.299613	0.961378	-0.402440	-0.152334	0.746219	-0.186365	-0.099111	0.754101	-0.195768	-0.144286	0.711685	-0.192211	-0.088627	0.718448	-0.204719	-0.118333	0.448946	-0.287875	-0.123715	0.455708	-0.397110	-0.209293	0.338689	-0.269191	-0.164910	0.326453	-0.288344	-0.227258	0.296988	-0.280230	-0.186381	0.284434	-0.295271	-0.318697	0.106686	-0.343372	-0.308296	0.114463	-0.440754	-0.206127	0.027536	-0.316266	-0.204726	0.018648	-0.444066	-0.150098	0.032772	-0.387125	-0.405334	0.094916	-0.393792	-0.101677	0.782177	-0.559954	-0.057790	0.802376	-0.538284	-0.091739	0.750145	-0.566166	-0.044942	0.770402	-0.549808	0.001458	0.506917	-0.546034	0.004717	0.484957	-0.425567	-0.130353	0.448250	-0.583352	-0.095581	0.412021	-0.573828	-0.167652	0.420046	-0.580303	-0.129996	0.386538	-0.576320	-0.314294	0.256256	-0.550521	-0.273672	0.236067	-0.457006	-0.272483	0.130402	-0.592286	-0.258271	0.093497	-0.483201	-0.196481	0.076927	-0.549666	-0.377041	0.270846	-0.490823	-0.188655	1.443448	-0.148304	-0.166105	1.449940	-0.517483	
75	0.3700	-0.109478	0.948495	-0.216248	-0.094185	0.959239	-0.479172	-0.292843	0.956921	-0.316202	-0.284324	0.962541	-0.401423	-0.139206	0.746671	-0.185527	-0.085869	0.753807	-0.194744	-0.131718	0.712028	-0.191382	-0.075922	0.717937	-0.203618	-0.110545	0.448395	-0.286494	-0.115435	0.455133	-0.395804	-0.203638	0.339697	-0.268054	-0.159352	0.326648	-0.287024	-0.222288	0.298347	-0.279229	-0.181594	0.284996	-0.293960	-0.316819	0.108967	-0.342596	-0.306248	0.117044	-0.439630	-0.206300	0.027796	-0.315894	-0.204872	0.019332	-0.443863	-0.150539	0.033156	-0.386856	-0.403590	0.098766	-0.392820	-0.084868	0.784320	-0.558759	-0.041230	0.805074	-0.536853	-0.074478	0.752393	-0.564820	-0.027921	0.773228	-0.548179	0.022201	0.510290	-0.543608	0.025155	0.488574	-0.423102	-0.107975	0.447937	-0.581469	-0.072212	0.412709	-0.571974	-0.144462	0.418668	-0.578815	-0.105867	0.386307	-0.574817	-0.286127	0.250216	-0.550350	-0.245308	0.231097	-0.456609	-0.239220	0.126272	-0.592582	-0.224555	0.089400	-0.483496	-0.161529	0.075528	-0.549650	-0.349893	0.262188	-0.490935	-0.172446	1.444822	-0.147923	-0.152931	1.451108	-0.517136	
76	0.3750	-0.094565	0.949389	-0.215497	-0.080010	0.960746	-0.478482	-0.278027	0.958142	-0.315238	-0.269764	0.963817	-0.400413	-0.126770	0.747189	-0.184698	-0.073323	0.753589	-0.193743	-0.119832	0.712440	-0.190549	-0.063904	0.717506	-0.202533	-0.103352	0.447963	-0.285097	-0.107756	0.454652	-0.394485	-0.198403	0.340754	-0.266881	-0.154214	0.326959	-0.285672	-0.217665	0.299742	-0.278190	-0.177150	0.285665	-0.292609	-0.314889	0.111234	-0.341788	-0.304146	0.119618	-0.438474	-0.206393	0.028069	-0.315542	-0.204951	0.020084	-0.443657	-0.150918	0.033628	-0.386586	-0.401746	0.102587	-0.391823	-0.068985	0.786477	-0.557601	-0.025576	0.807738	-0.535509	-0.058184	0.754641	-0.563506	-0.011854	0.776002	-0.546635	0.041699	0.513606	-0.541221	0.044381	0.492125	-0.420680	-0.086877	0.447661	-0.579539	-0.050144	0.413436	-0.570125	-0.122543	0.417341	-0.577268	-0.083033	0.386121	-0.573287	-0.259231	0.244304	-0.550082	-0.218200	0.226256	-0.456137	-0.207418	0.122290	-0.592713	-0.192233	0.085504	-0.483625	-0.128095	0.074236	-0.549483	-0.323915	0.253721	-0.490946	-0.157047	1.446273	-0.147589	-0.140438	1.452344	-0.516794	
77	0.3800	-0.080469	0.950309	-0.214810	-0.066664	0.962313	-0.477830	-0.264024	0.959417	-0.314291	-0.256018	0.965168	-0.399421	-0.115086	0.747758	-0.183888	-0.061531	0.753439	-0.192777	-0.108681	0.712906	-0.189722	-0.052625	0.717150	-0.201478	-0.096755	0.447642	-0.283704	-0.100684	0.454262	-0.393175	-0.193585	0.341842	-0.265693	-0.149495	0.327368	-0.284314	-0.213390	0.301149	-0.277133	-0.173048	0.286417	-0.291246	-0.312933	0.113454	-0.340965	-0.302019	0.122145	-0.437308	-0.206415	0.028341	-0.315212	-0.204967	0.020869	-0.443453	-0.151234	0.034152	-0.386325	-0.399835	0.106336	-0.390819	-0.054102	0.788609	-0.556492	-0.010900	0.810330	-0.534259	-0.042932	0.756851	-0.562237	0.003187	0.778685	-0.545187	0.059868	0.516821	-0.538904	0.062314	0.495563	-0.418333	-0.067157	0.447418	-0.577596	-0.029488	0.414186	-0.568307	-0.102005	0.416076	-0.575691	-0.061615	0.385976	-0.571756	-0.233782	0.238586	-0.549733	-0.192530	0.221597	-0.455606	-0.177295	0.118500	-0.592700	-0.161539	0.081846	-0.483610	-0.096413	0.073066	-0.549188	-0.299281	0.245536	-0.490867	-0.142545	1.447768	-0.147299	-0.128691	1.453617	-0.516462	
78	0.3850	-0.067269	0.951235	-0.214190	-0.054214	0.963905	-0.477220	-0.250913	0.960715	-0.313370	-0.243161	0.966555	-0.398459	-0.104203	0.748361	-0.183106	-0.050547	0.753348	-0.191856	-0.098309	0.713409	-0.188913	-0.042133	0.716863	-0.200465	-0.090747	0.447422	-0.282339	-0.094223	0.453956	-0.391895	-0.189182	0.342941	-0.264512	-0.145187	0.327856	-0.282971	-0.209463	0.302549	-0.276078	-0.169285	0.287231	-0.289892	-0.310980	0.115602	-0.340140	-0.299897	0.124591	-0.436153	-0.206374	0.028598	-0.314910	-0.204929	0.021657	-0.443258	-0.151488	0.034697	-0.386077	-0.397893	0.109969	-0.389825	-0.040281	0.790683	-0.555442	0.002735	0.812816	-0.533109	-0.028786	0.758989	-0.561029	0.017141	0.781245	-0.543847	0.076642	0.519894	-0.536686	0.078889	0.498846	-0.416087	-0.048895	0.447203	-0.575675	-0.010335	0.414939	-0.566547	-0.082942	0.414881	-0.574117	-0.041714	0.385865	-0.570251	-0.209935	0.233124	-0.549320	-0.168457	0.217169	-0.455034	-0.149044	0.114939	-0.592565	-0.132680	0.078453	-0.483473	-0.066690	0.072030	-0.548791	-0.276149	0.237721	-0.490712	-0.129016	1.449272	-0.147050	-0.117747	1.454900	-0.516143	
79	0.3900	-0.055032	0.952146	-0.213635	-0.042714	0.965486	-0.476656	-0.238762	0.962006	-0.312487	-0.231258	0.967945	-0.397537	-0.094164	0.748980	-0.182361	-0.040413	0.753308	-0.190990	-0.088753	0.713935	-0.188135	-0.032466	0.716639	-0.199507	-0.085322	0.447293	-0.281021	-0.088368	0.453730	-0.390661	-0.185188	0.344034	-0.263358	-0.141286	0.328401	-0.281666	-0.205881	0.303919	-0.275044	-0.165858	0.288083	-0.288573	-0.309059	0.117651	-0.339328	-0.297812	0.126924	-0.435027	-0.206282	0.028832	-0.314637	-0.204845	0.022424	-0.443076	-0.151683	0.035236	-0.385850	-0.395956	0.113448	-0.388855	-0.027572	0.792667	-0.554458	0.015280	0.815164	-0.532064	-0.015792	0.761025	-0.559892	0.029960	0.783653	-0.542619	0.091975	0.522793	-0.534591	0.094057	0.501938	-0.413968	-0.032153	0.447014	-0.573807	0.007246	0.415682	-0.564867	-0.065423	0.413763	-0.572573	-0.023411	0.385785	-0.568795	-0.187820	0.227974	-0.548859	-0.146117	0.213013	-0.454437	-0.122828	0.111638	-0.592332	-0.105836	0.075346	-0.483236	-0.039101	0.071131	-0.548317	-0.254652	0.230351	-0.490495	-0.116522	1.450755	-0.146838	-0.107653	1.456164	-0.515841	
80	0.3950	-0.043812	0.953026	-0.213144	-0.032206	0.967026	-0.476139	-0.227625	0.963262	-0.311649	-0.220358	0.969304	-0.396666	-0.084999	0.749601	-0.181661	-0.031161	0.753312	-0.190186	-0.080038	0.714469	-0.187395	-0.023649	0.716472	-0.198613	-0.080465	0.447242	-0.279768	-0.083113	0.453574	-0.389490	-0.181594	0.345102	-0.262248	-0.137780	0.328985	-0.280419	-0.202642	0.305241	-0.274046	-0.162762	0.288950	-0.287307	-0.307198	0.119579	-0.338543	-0.295793	0.129117	-0.433949	-0.206150	0.029036	-0.314395	-0.204723	0.023149	-0.442908	-0.151825	0.035749	-0.385645	-0.394059	0.116736	-0.387926	-0.016009	0.794535	-0.553549	0.026700	0.817351	-0.531124	-0.003984	0.762934	-0.558836	0.041613	0.785885	-0.541509	0.105839	0.525487	-0.532639	0.107790	0.504809	-0.411997	-0.016969	0.446846	-0.572020	0.023209	0.416399	-0.563288	-0.049498	0.412728	-0.571085	-0.006760	0.385729	-0.567410	-0.167539	0.223181	-0.548368	-0.125616	0.209163	-0.453831	-0.098774	0.108618	-0.592022	-0.081148	0.072541	-0.482924	-0.013783	0.070371	-0.547791	-0.234896	0.223491	-0.490231	-0.105110	1.452189	-0.146659	-0.098442	1.457386	-0.515557	
81	0.4000	-0.033646	0.953859	-0.212716	-0.022714	0.968495	-0.475671	-0.217538	0.964460	-0.310867	-0.210494	0.970606	-0.395855	-0.076727	0.750209	-0.181013	-0.022810	0.753351	-0.189451	-0.072180	0.714997	-0.186704	-0.015698	0.716353	-0.197791	-0.076159	0.447255	-0.278595	-0.078442	0.453480	-0.388396	-0.178391	0.346129	-0.261200	-0.134660	0.329587	-0.279246	-0.199740	0.306496	-0.273101	-0.159991	0.289811	-0.286114	-0.305424	0.121368	-0.337797	-0.293869	0.131148	-0.432933	-0.205991	0.029207	-0.314183	-0.204575	0.023819	-0.442759	-0.151921	0.036222	-0.385464	-0.392235	0.119800	-0.387049	-0.005607	0.796264	-0.552719	0.036977	0.819356	-0.530291	0.006625	0.764694	-0.557870	0.052085	0.787924	-0.540519	0.118230	0.527955	-0.530847	0.120082	0.507436	-0.410188	-0.003357	0.446698	-0.570339	0.037534	0.417077	-0.561825	-0.035190	0.411782	-0.569676	0.008210	0.385694	-0.566113	-0.149162	0.218780	-0.547864	-0.107028	0.205645	-0.453231	-0.076969	0.105895	-0.591660	-0.058719	0.070042	-0.482558	0.009170	0.069744	-0.547237	-0.216958	0.217191	-0.489934	-0.094809	1.453549	-0.146510	-0.090134	1.458545	-0.515296	
82	0.4050	-0.024552	0.954634	-0.212346	-0.014248	0.969870	-0.475253	-0.208518	0.965581	-0.310146	-0.201680	0.971827	-0.395110	-0.069350	0.750792	-0.180420	-0.015365	0.753417	-0.188788	-0.065179	0.715508	-0.186067	-0.008616	0.716277	-0.197047	-0.072384	0.447321	-0.277515	-0.074338	0.453438	-0.387391	-0.175567	0.347099	-0.260227	-0.131912	0.330190	-0.278161	-0.197168	0.307669	-0.272221	-0.157537	0.290647	-0.285007	-0.303761	0.123003	-0.337099	-0.292066	0.132999	-0.431992	-0.205815	0.029345	-0.314001	-0.204409	0.024423	-0.442627	-0.151977	0.036644	-0.385308	-0.390512	0.122614	-0.386235	0.003633	0.797840	-0.551971	0.046112	0.821166	-0.529561	0.016039	0.766292	-0.556998	0.061380	0.789757	-0.539648	0.129167	0.530181	-0.529227	0.130948	0.509804	-0.408554	0.008692	0.446567	-0.568784	0.050227	0.417708	-0.560492	-0.022497	0.410927	-0.568366	0.021499	0.385674	-0.564920	-0.132725	0.214799	-0.547362	-0.090393	0.202477	-0.452652	-0.057460	0.103474	-0.591265	-0.038608	0.067849	-0.482159	0.029707	0.069242	-0.546674	-0.200880	0.211488	-0.489618	-0.085628	1.454816	-0.146387	-0.082736	1.459624	-0.515057	
83	0.4100	-0.016529	0.955342	-0.212032	-0.006800	0.971132	-0.474885	-0.200564	0.966608	-0.309493	-0.193914	0.972949	-0.394438	-0.062862	0.751338	-0.179888	-0.008816	0.753502	-0.188200	-0.059025	0.715992	-0.185491	-0.002392	0.716236	-0.196384	-0.069114	0.447426	-0.276536	-0.070776	0.453439	-0.386481	-0.173105	0.348000	-0.259338	-0.129519	0.330777	-0.277176	-0.194915	0.308747	-0.271416	-0.155388	0.291440	-0.283999	-0.302229	0.124475	-0.336458	-0.290406	0.134660	-0.431135	-0.205631	0.029450	-0.313847	-0.204235	0.024954	-0.442515	-0.152001	0.037009	-0.385177	-0.388915	0.125160	-0.385493	0.011730	0.799251	-0.551309	0.054122	0.822773	-0.528932	0.024278	0.767718	-0.556223	0.069517	0.791379	-0.538893	0.138687	0.532158	-0.527784	0.140422	0.511905	-0.407101	0.019214	0.446451	-0.567371	0.061319	0.418282	-0.559296	-0.011389	0.410165	-0.567170	0.033133	0.385666	-0.563840	-0.118227	0.211252	-0.546876	-0.075712	0.199667	-0.452105	-0.040251	0.101356	-0.590857	-0.020831	0.065954	-0.481748	0.047825	0.068854	-0.546123	-0.186670	0.206404	-0.489297	-0.077559	1.455974	-0.146288	-0.076237	1.460609	-0.514843	
84	0.4150	-0.009558	0.955975	-0.211768	-0.000345	0.972268	-0.474565	-0.193657	0.967532	-0.308912	-0.187174	0.973958	-0.393841	-0.057238	0.751841	-0.179417	-0.003141	0.753599	-0.187687	-0.053695	0.716439	-0.184979	0.002999	0.716223	-0.195803	-0.066317	0.447557	-0.275666	-0.067726	0.453472	-0.385674	-0.170987	0.348822	-0.258542	-0.127463	0.331333	-0.276296	-0.192968	0.309721	-0.270693	-0.153531	0.292177	-0.283097	-0.300843	0.125777	-0.335881	-0.288904	0.136124	-0.430369	-0.205449	0.029526	-0.313719	-0.204061	0.025412	-0.442420	-0.152000	0.037316	-0.385068	-0.387464	0.127425	-0.384828	0.018721	0.800492	-0.550730	0.061042	0.824176	-0.528398	0.031383	0.768967	-0.555545	0.076538	0.792790	-0.538249	0.146853	0.533883	-0.526521	0.148561	0.513737	-0.405830	0.028264	0.446349	-0.566109	0.070869	0.418795	-0.558242	-0.001814	0.409496	-0.566097	0.043167	0.385667	-0.562881	-0.105632	0.208143	-0.546417	-0.062953	0.197215	-0.451600	-0.025300	0.099534	-0.590454	-0.005357	0.064345	-0.481341	0.063563	0.068565	-0.545598	-0.174302	0.201945	-0.488982	-0.070573	1.457012	-0.146208	-0.070614	1.461492	-0.514655	
85	0.4200	-0.003602	0.956530	-0.211551	0.005158	0.973269	-0.474293	-0.187758	0.968344	-0.308403	-0.181421	0.974847	-0.393320	-0.052442	0.752293	-0.179007	0.001697	0.753702	-0.187247	-0.049152	0.716843	-0.184531	0.007591	0.716230	-0.195304	-0.063963	0.447703	-0.274906	-0.065153	0.453528	-0.384969	-0.169191	0.349558	-0.257842	-0.125722	0.331848	-0.275526	-0.191310	0.310584	-0.270056	-0.151950	0.292845	-0.282305	-0.299614	0.126908	-0.335370	-0.287571	0.137392	-0.429697	-0.205276	0.029576	-0.313615	-0.203893	0.025797	-0.442342	-0.151982	0.037567	-0.384981	-0.386171	0.129404	-0.384244	0.024660	0.801562	-0.550233	0.066923	0.825378	-0.527952	0.037412	0.770042	-0.554963	0.082496	0.793994	-0.537709	0.153742	0.535361	-0.525435	0.155439	0.515305	-0.404739	0.035923	0.446260	-0.565005	0.078955	0.419244	-0.557329	0.006304	0.408919	-0.565155	0.051677	0.385672	-0.562044	-0.094874	0.205466	-0.545996	-0.052049	0.195114	-0.451143	-0.012530	0.097993	-0.590070	0.007886	0.063001	-0.480952	0.077006	0.068362	-0.545112	-0.163717	0.198103	-0.488684	-0.064624	1.457923	-0.146145	-0.065828	1.462266	-0.514491	
86	0.4250	0.001395	0.957007	-0.211375	0.009764	0.974132	-0.474064	-0.182812	0.969044	-0.307967	-0.176600	0.975613	-0.392876	-0.048426	0.752690	-0.178659	0.005747	0.753803	-0.186877	-0.045349	0.717200	-0.184148	0.011435	0.716252	-0.194883	-0.062012	0.447854	-0.274255	-0.063021	0.453598	-0.384367	-0.167695	0.350201	-0.257240	-0.124272	0.332311	-0.274866	-0.189922	0.311333	-0.269506	-0.150626	0.293438	-0.281625	-0.298547	0.127873	-0.334928	-0.286414	0.138468	-0.429120	-0.205117	0.029605	-0.313532	-0.203738	0.026113	-0.442280	-0.151953	0.037765	-0.384913	-0.385044	0.131099	-0.383742	0.029613	0.802466	-0.549815	0.071831	0.826386	-0.527587	0.042434	0.770947	-0.554473	0.087461	0.795002	-0.537265	0.159449	0.536603	-0.524520	0.161147	0.516623	-0.403819	0.042286	0.446182	-0.564058	0.085679	0.419628	-0.556555	0.013063	0.408429	-0.564344	0.058766	0.385681	-0.561330	-0.085852	0.203205	-0.545618	-0.042902	0.193346	-0.450740	-0.001821	0.096716	-0.589715	0.019011	0.061903	-0.480593	0.088277	0.068227	-0.544676	-0.154823	0.194857	-0.488409	-0.059652	1.458706	-0.146096	-0.061828	1.462931	-0.514352	
87	0.4300	0.005501	0.957407	-0.211235	0.013541	0.974858	-0.473876	-0.178750	0.969632	-0.307602	-0.172643	0.976257	-0.392504	-0.045130	0.753030	-0.178368	0.009070	0.753900	-0.186573	-0.042230	0.717508	-0.183828	0.014587	0.716282	-0.194536	-0.060427	0.448000	-0.273711	-0.061286	0.453675	-0.383864	-0.166471	0.350752	-0.256733	-0.123086	0.332717	-0.274312	-0.188782	0.311969	-0.269043	-0.149539	0.293950	-0.281054	-0.297641	0.128677	-0.334553	-0.285432	0.139362	-0.428635	-0.204977	0.029618	-0.313467	-0.203598	0.026365	-0.442231	-0.151918	0.037915	-0.384861	-0.384085	0.132520	-0.383319	0.033661	0.803214	-0.549471	0.075845	0.827215	-0.527294	0.046533	0.771693	-0.554069	0.091516	0.795827	-0.536907	0.164081	0.537624	-0.523765	0.165790	0.517705	-0.403062	0.047467	0.446116	-0.563265	0.091156	0.419949	-0.555913	0.018577	0.408022	-0.563663	0.064549	0.385691	-0.560734	-0.078441	0.201336	-0.545289	-0.035384	0.191892	-0.450394	0.006974	0.095680	-0.589398	0.028163	0.061023	-0.480273	0.097532	0.068147	-0.544294	-0.147504	0.192171	-0.488164	-0.055580	1.459364	-0.146059	-0.058553	1.463489	-0.514237	
