PathFileType	4	(X/Y/Z)	 P8 250r2 06.trc
DataRate	CameraRate	NumFrames	NumMarkers	Units	OrigDataRate	OrigDataStartFrame	OrigNumFrames
200	200	78	38	m	200	1	78
Frame#	Time	RASIS			LASIS			RPSIS			LPSIS			RThighRear1			RThighFront1			RThighRear2			RThighFront2			RKneeLat			RKneeMed			RShankRear1			RShankFront1			RShankRear2			RShankFront2			RAnkleLat			RAnkleMed			RM5			RM1			RMid			RHeel			LThighRear1			LThighFront1			LThighRear2			LThighFront2			LKneeLat			LKneeMed			LShankRear1			LShankFront1			LShankRear2			LShankFront2			LAnkleLat			LAnkleMed			LM5			LM1			LMid			LHeel			RShoulder			LShoulder			
		X1	Y1	Z1	X2	Y2	Z2	X3	Y3	Z3	X4	Y4	Z4	X5	Y5	Z5	X6	Y6	Z6	X7	Y7	Z7	X8	Y8	Z8	X9	Y9	Z9	X10	Y10	Z10	X11	Y11	Z11	X12	Y12	Z12	X13	Y13	Z13	X14	Y14	Z14	X15	Y15	Z15	X16	Y16	Z16	X17	Y17	Z17	X18	Y18	Z18	X19	Y19	Z19	X20	Y20	Z20	X21	Y21	Z21	X22	Y22	Z22	X23	Y23	Z23	X24	Y24	Z24	X25	Y25	Z25	X26	Y26	Z26	X27	Y27	Z27	X28	Y28	Z28	X29	Y29	Z29	X30	Y30	Z30	X31	Y31	Z31	X32	Y32	Z32	X33	Y33	Z33	X34	Y34	Z34	X35	Y35	Z35	X36	Y36	Z36	X37	Y37	Z37	X38	Y38	Z38	
1	0.0000	-1.380764	0.976180	-0.159854	-1.396519	0.976492	-0.412492	-1.565445	1.014141	-0.226100	-1.572623	1.011437	-0.311019	-1.445663	0.780850	-0.091212	-1.394318	0.773720	-0.103696	-1.443894	0.744625	-0.091700	-1.388685	0.739852	-0.104817	-1.481618	0.465287	-0.139681	-1.483991	0.454106	-0.250704	-1.620903	0.438290	-0.111671	-1.594323	0.398277	-0.127407	-1.660957	0.415381	-0.119127	-1.636751	0.378249	-0.129462	-1.848042	0.309102	-0.157010	-1.832818	0.293738	-0.250749	-1.874398	0.152390	-0.131484	-1.857697	0.149241	-0.248836	-1.827179	0.105062	-0.191378	-1.904682	0.366211	-0.212610	-1.421117	0.801320	-0.484235	-1.371031	0.818555	-0.473086	-1.414452	0.767714	-0.487505	-1.364284	0.783801	-0.479808	-1.323794	0.529291	-0.450859	-1.325085	0.512520	-0.336264	-1.378663	0.390403	-0.498967	-1.329944	0.392763	-0.485527	-1.380471	0.342621	-0.498784	-1.331585	0.349483	-0.492197	-1.346522	0.112540	-0.480938	-1.320515	0.129496	-0.382735	-1.227806	0.039620	-0.497105	-1.211564	0.034096	-0.375436	-1.140509	0.049938	-0.435705	-1.418576	0.085114	-0.431244	-1.350282	1.474932	-0.128296	-1.376988	1.467768	-0.487641	
2	0.0050	-1.366014	0.974878	-0.159157	-1.379360	0.974781	-0.412058	-1.550638	1.011248	-0.227575	-1.556764	1.009282	-0.312598	-1.428102	0.779800	-0.090851	-1.376585	0.773236	-0.103347	-1.425605	0.743654	-0.091147	-1.370262	0.739885	-0.104203	-1.457553	0.464655	-0.138720	-1.459395	0.453401	-0.249702	-1.596621	0.436820	-0.110916	-1.569746	0.396899	-0.126526	-1.636593	0.413716	-0.118371	-1.612150	0.376705	-0.128717	-1.823236	0.306799	-0.156660	-1.807891	0.291620	-0.250394	-1.846040	0.150442	-0.130262	-1.829601	0.146901	-0.247595	-1.797826	0.103894	-0.189976	-1.881199	0.362632	-0.212294	-1.405277	0.799170	-0.483939	-1.355145	0.815827	-0.472807	-1.399205	0.765519	-0.487140	-1.349023	0.780915	-0.479514	-1.312991	0.525939	-0.450141	-1.314860	0.509294	-0.335511	-1.370201	0.388655	-0.498125	-1.321758	0.389739	-0.484554	-1.373403	0.341144	-0.498139	-1.324554	0.346647	-0.491172	-1.346277	0.111726	-0.480071	-1.320876	0.127961	-0.381374	-1.227686	0.039507	-0.497324	-1.211423	0.033797	-0.375441	-1.140748	0.049654	-0.435441	-1.419093	0.083848	-0.430756	-1.338176	1.473813	-0.128117	-1.359762	1.465585	-0.488213	
3	0.0100	-1.351074	0.973589	-0.158436	-1.361962	0.973071	-0.411604	-1.535620	1.008360	-0.229069	-1.540676	1.007136	-0.314190	-1.410301	0.778782	-0.090479	-1.358607	0.772808	-0.102980	-1.407060	0.742721	-0.090579	-1.351585	0.739978	-0.103571	-1.433113	0.464090	-0.137744	-1.434424	0.452767	-0.248687	-1.571951	0.435355	-0.110153	-1.544761	0.395534	-0.125635	-1.611838	0.412035	-0.117605	-1.587138	0.375154	-0.127960	-1.798017	0.304383	-0.156305	-1.782553	0.289394	-0.250037	-1.817172	0.148411	-0.129023	-1.800995	0.144477	-0.246339	-1.767939	0.102678	-0.188558	-1.857335	0.358889	-0.211972	-1.389243	0.797022	-0.483628	-1.339066	0.813083	-0.472499	-1.383777	0.763327	-0.486763	-1.333583	0.778015	-0.479193	-1.302142	0.522596	-0.449428	-1.304616	0.506077	-0.334760	-1.361719	0.386937	-0.497299	-1.313556	0.386736	-0.483596	-1.366323	0.339700	-0.497512	-1.317514	0.343835	-0.490164	-1.346048	0.110935	-0.479237	-1.321247	0.126459	-0.380046	-1.227582	0.039356	-0.497550	-1.211302	0.033476	-0.375443	-1.140989	0.049384	-0.435169	-1.419639	0.082622	-0.430302	-1.325917	1.472712	-0.127931	-1.342260	1.463401	-0.488758	
4	0.0150	-1.335961	0.972335	-0.157691	-1.344341	0.971382	-0.411123	-1.520399	1.005514	-0.230572	-1.524367	1.005028	-0.315785	-1.392281	0.777828	-0.090092	-1.340405	0.772473	-0.102592	-1.388281	0.741860	-0.089997	-1.332679	0.740163	-0.102921	-1.408322	0.463630	-0.136752	-1.409106	0.452246	-0.247660	-1.546907	0.433910	-0.109379	-1.519377	0.394205	-0.124733	-1.586697	0.410348	-0.116825	-1.561715	0.373610	-0.127189	-1.772360	0.301824	-0.155937	-1.756777	0.287033	-0.249671	-1.787755	0.146284	-0.127762	-1.771839	0.141960	-0.245063	-1.737482	0.101417	-0.187122	-1.833063	0.354935	-0.211635	-1.373044	0.794902	-0.483299	-1.322824	0.810345	-0.472156	-1.368199	0.761169	-0.486371	-1.317993	0.775126	-0.478840	-1.291291	0.519302	-0.448728	-1.294400	0.502909	-0.334018	-1.353254	0.385287	-0.496502	-1.305373	0.383798	-0.482665	-1.359259	0.338326	-0.496913	-1.310496	0.341093	-0.489188	-1.345824	0.110199	-0.478457	-1.321609	0.125026	-0.378775	-1.227498	0.039158	-0.497781	-1.211208	0.033131	-0.375441	-1.141234	0.049129	-0.434890	-1.420196	0.081486	-0.429899	-1.313517	1.471652	-0.127734	-1.324488	1.461245	-0.489256	
5	0.0200	-1.320680	0.971142	-0.156919	-1.326506	0.969738	-0.410611	-1.504973	1.002748	-0.232078	-1.507836	1.002990	-0.317373	-1.374054	0.776969	-0.089689	-1.321995	0.772270	-0.102179	-1.369281	0.741107	-0.089399	-1.313560	0.740477	-0.102253	-1.383200	0.463319	-0.135744	-1.383459	0.451883	-0.246621	-1.521491	0.432500	-0.108592	-1.493590	0.392938	-0.123819	-1.561166	0.408662	-0.116026	-1.535869	0.372090	-0.126400	-1.746224	0.299090	-0.155549	-1.730523	0.284508	-0.249289	-1.757732	0.144051	-0.126474	-1.742071	0.139342	-0.243763	-1.706399	0.100112	-0.185661	-1.808336	0.350719	-0.211277	-1.356700	0.792839	-0.482947	-1.306439	0.807639	-0.471772	-1.352489	0.759072	-0.485962	-1.302274	0.772277	-0.478448	-1.280476	0.516100	-0.448049	-1.284251	0.499832	-0.333291	-1.344837	0.383746	-0.495746	-1.297241	0.380974	-0.481774	-1.352235	0.337062	-0.496352	-1.303525	0.338468	-0.488260	-1.345590	0.109552	-0.477749	-1.321938	0.123700	-0.377585	-1.227440	0.038907	-0.498019	-1.211152	0.032760	-0.375436	-1.141486	0.048888	-0.434606	-1.420741	0.080495	-0.429563	-1.300982	1.470660	-0.127522	-1.306446	1.459147	-0.489684	
6	0.0250	-1.305232	0.970031	-0.156118	-1.308459	0.968163	-0.410062	-1.489334	1.000101	-0.233578	-1.491080	1.001055	-0.318943	-1.355626	0.776241	-0.089266	-1.303383	0.772238	-0.101735	-1.350067	0.740497	-0.088785	-1.294236	0.740953	-0.101563	-1.357757	0.463196	-0.134720	-1.357499	0.451719	-0.245570	-1.495699	0.431140	-0.107789	-1.467392	0.391756	-0.122891	-1.535232	0.406986	-0.115204	-1.509584	0.370609	-0.125589	-1.719558	0.296149	-0.155133	-1.703736	0.281789	-0.248882	-1.727038	0.141702	-0.125152	-1.711622	0.136617	-0.242430	-1.674627	0.098770	-0.184172	-1.783098	0.346194	-0.210890	-1.340223	0.790861	-0.482569	-1.289925	0.804990	-0.471340	-1.336663	0.757068	-0.485534	-1.286441	0.769495	-0.478013	-1.269727	0.513031	-0.447396	-1.274199	0.496888	-0.332584	-1.336495	0.382354	-0.495043	-1.289184	0.378308	-0.480937	-1.345271	0.335950	-0.495837	-1.296620	0.336006	-0.487392	-1.345327	0.109031	-0.477133	-1.322208	0.122518	-0.376500	-1.227412	0.038598	-0.498262	-1.211142	0.032365	-0.375428	-1.141749	0.048662	-0.434316	-1.421248	0.079705	-0.429308	-1.288309	1.469761	-0.127290	-1.288127	1.457137	-0.490020	
7	0.0300	-1.289612	0.969029	-0.155288	-1.290199	0.966678	-0.409470	-1.473470	0.997611	-0.235063	-1.474086	0.999255	-0.320484	-1.337001	0.775676	-0.088821	-1.284573	0.772415	-0.101257	-1.330644	0.740066	-0.088152	-1.274714	0.741626	-0.100852	-1.332005	0.463302	-0.133678	-1.331237	0.451795	-0.244507	-1.469522	0.429846	-0.106965	-1.440770	0.390686	-0.121946	-1.508879	0.405328	-0.114353	-1.482838	0.369184	-0.124750	-1.692303	0.292972	-0.154682	-1.676356	0.278850	-0.248441	-1.695600	0.139228	-0.123786	-1.680415	0.133782	-0.241058	-1.642096	0.097397	-0.182645	-1.757286	0.341312	-0.210464	-1.323622	0.788996	-0.482161	-1.273292	0.802422	-0.470857	-1.320730	0.755186	-0.485084	-1.270505	0.766806	-0.477532	-1.259064	0.510137	-0.446778	-1.264267	0.494116	-0.331903	-1.328246	0.381152	-0.494402	-1.281220	0.375846	-0.480163	-1.338377	0.335028	-0.495378	-1.289794	0.333755	-0.486599	-1.345014	0.108670	-0.476625	-1.322390	0.121520	-0.375540	-1.227418	0.038228	-0.498512	-1.211185	0.031946	-0.375418	-1.142026	0.048447	-0.434022	-1.421689	0.079174	-0.429148	-1.275495	1.468981	-0.127035	-1.269523	1.455248	-0.490242	
8	0.0350	-1.273812	0.968159	-0.154428	-1.271721	0.965308	-0.408831	-1.457365	0.995316	-0.236523	-1.456844	0.997622	-0.321986	-1.318177	0.775305	-0.088352	-1.265566	0.772838	-0.100741	-1.311013	0.739847	-0.087502	-1.254998	0.742529	-0.100120	-1.305953	0.463675	-0.132618	-1.304683	0.452150	-0.243432	-1.442955	0.428632	-0.106115	-1.413713	0.389750	-0.120983	-1.482090	0.403694	-0.113469	-1.455609	0.367833	-0.123878	-1.664398	0.289533	-0.154184	-1.648321	0.275668	-0.247956	-1.663345	0.136626	-0.122370	-1.648373	0.130837	-0.239638	-1.608737	0.096006	-0.181073	-1.730832	0.336030	-0.209991	-1.306902	0.787271	-0.481722	-1.256545	0.799962	-0.470318	-1.304694	0.753455	-0.484609	-1.254470	0.764240	-0.477001	-1.248504	0.507457	-0.446200	-1.254469	0.491558	-0.331253	-1.320101	0.380180	-0.493834	-1.273359	0.373634	-0.479465	-1.331560	0.334337	-0.494979	-1.283054	0.331758	-0.485891	-1.344627	0.108505	-0.476240	-1.322451	0.120739	-0.374725	-1.227458	0.037797	-0.498767	-1.211288	0.031507	-0.375407	-1.142323	0.048240	-0.433725	-1.422029	0.078959	-0.429096	-1.262531	1.468343	-0.126750	-1.250625	1.453511	-0.490329	
9	0.0400	-1.257822	0.967444	-0.153540	-1.253021	0.964074	-0.408141	-1.441004	0.993255	-0.237949	-1.439341	0.996185	-0.323437	-1.299154	0.775160	-0.087856	-1.246365	0.773538	-0.100186	-1.291174	0.739872	-0.086835	-1.235089	0.743690	-0.099365	-1.279617	0.464346	-0.131539	-1.277854	0.452816	-0.242342	-1.415993	0.427509	-0.105235	-1.386215	0.388973	-0.119997	-1.454853	0.402094	-0.112543	-1.427881	0.366570	-0.122969	-1.635786	0.285811	-0.153632	-1.619570	0.272226	-0.247416	-1.630206	0.133896	-0.120895	-1.615424	0.127786	-0.238161	-1.574487	0.094607	-0.179448	-1.703668	0.330313	-0.209460	-1.290065	0.785713	-0.481248	-1.239687	0.797634	-0.469723	-1.288559	0.751902	-0.484110	-1.238340	0.761822	-0.476419	-1.238053	0.505029	-0.445669	-1.244809	0.489249	-0.330638	-1.312065	0.379475	-0.493346	-1.265605	0.371713	-0.478850	-1.324819	0.333914	-0.494648	-1.276400	0.330058	-0.485279	-1.344139	0.108573	-0.475989	-1.322357	0.120211	-0.374071	-1.227535	0.037308	-0.499028	-1.211455	0.031053	-0.375397	-1.142643	0.048037	-0.433428	-1.422231	0.079118	-0.429160	-1.249406	1.467872	-0.126432	-1.231427	1.451957	-0.490259	
10	0.0450	-1.241631	0.966904	-0.152626	-1.234096	0.962997	-0.407397	-1.424370	0.991460	-0.239329	-1.421566	0.994973	-0.324827	-1.279933	0.775265	-0.087333	-1.226970	0.774546	-0.099588	-1.271132	0.740168	-0.086149	-1.214993	0.745135	-0.098589	-1.253016	0.465345	-0.130440	-1.250769	0.453822	-0.241239	-1.388638	0.426489	-0.104320	-1.358276	0.388374	-0.118985	-1.427160	0.400533	-0.111572	-1.399644	0.365413	-0.122015	-1.606414	0.281792	-0.153016	-1.590047	0.268511	-0.246810	-1.596126	0.131042	-0.119351	-1.581507	0.124637	-0.236619	-1.539294	0.093218	-0.177760	-1.675731	0.324134	-0.208863	-1.273112	0.784346	-0.480740	-1.222721	0.795462	-0.469071	-1.272324	0.750553	-0.483585	-1.222117	0.759577	-0.475787	-1.227711	0.502886	-0.445187	-1.235281	0.487222	-0.330062	-1.304134	0.379071	-0.492944	-1.257955	0.370120	-0.478326	-1.318145	0.333793	-0.494386	-1.269824	0.328693	-0.484769	-1.343518	0.108908	-0.475881	-1.322072	0.119966	-0.373589	-1.227645	0.036767	-0.499295	-1.211689	0.030591	-0.375391	-1.142989	0.047832	-0.433132	-1.422255	0.079703	-0.429347	-1.236109	1.467590	-0.126076	-1.211926	1.450614	-0.490016	
11	0.0500	-1.225229	0.966558	-0.151689	-1.214944	0.962099	-0.406598	-1.407452	0.989963	-0.240654	-1.403510	0.994012	-0.326144	-1.260515	0.775646	-0.086782	-1.207388	0.775884	-0.098947	-1.250893	0.740759	-0.085447	-1.194717	0.746883	-0.097792	-1.226179	0.466693	-0.129321	-1.223456	0.455189	-0.240122	-1.360899	0.425583	-0.103364	-1.329905	0.387973	-0.117945	-1.399011	0.399019	-0.110550	-1.370899	0.364376	-0.121012	-1.576239	0.277466	-0.152327	-1.559705	0.264517	-0.246128	-1.561061	0.128072	-0.117731	-1.546573	0.121402	-0.235002	-1.503122	0.091855	-0.176002	-1.646969	0.317476	-0.208191	-1.256045	0.783193	-0.480196	-1.205647	0.793468	-0.468364	-1.255990	0.749433	-0.483034	-1.205801	0.757531	-0.475108	-1.217468	0.501058	-0.444760	-1.225872	0.485508	-0.329528	-1.296299	0.379000	-0.492632	-1.250396	0.368889	-0.477898	-1.311525	0.334006	-0.494194	-1.263311	0.327698	-0.484369	-1.342731	0.109541	-0.475921	-1.321558	0.120033	-0.373288	-1.227786	0.036185	-0.499566	-1.211989	0.030131	-0.375390	-1.143364	0.047620	-0.432841	-1.422057	0.080766	-0.429658	-1.222630	1.467515	-0.125677	-1.192126	1.449512	-0.489583	
12	0.0550	-1.208607	0.966424	-0.150732	-1.195569	0.961396	-0.405742	-1.390239	0.988791	-0.241914	-1.385170	0.993324	-0.327378	-1.240907	0.776318	-0.086202	-1.187626	0.777569	-0.098263	-1.230467	0.741663	-0.084730	-1.174272	0.748948	-0.096976	-1.199141	0.468405	-0.128183	-1.195950	0.456931	-0.238991	-1.332797	0.424795	-0.102362	-1.301122	0.387784	-0.116873	-1.370417	0.397557	-0.109471	-1.341655	0.363472	-0.119956	-1.545228	0.272833	-0.151555	-1.528511	0.260244	-0.245358	-1.524984	0.125000	-0.116028	-1.510593	0.118100	-0.233304	-1.465950	0.090540	-0.174165	-1.617335	0.310331	-0.207435	-1.238864	0.782273	-0.479618	-1.188467	0.791676	-0.467606	-1.239556	0.748559	-0.482457	-1.189391	0.755705	-0.474384	-1.207309	0.499570	-0.444390	-1.216557	0.484129	-0.329037	-1.288541	0.379286	-0.492410	-1.242910	0.368049	-0.477568	-1.304938	0.334577	-0.494072	-1.256842	0.327102	-0.484079	-1.341744	0.110504	-0.476109	-1.320777	0.120435	-0.373172	-1.227950	0.035578	-0.499839	-1.212351	0.029687	-0.375398	-1.143770	0.047395	-0.432558	-1.421590	0.082352	-0.430092	-1.208958	1.467663	-0.125231	-1.172035	1.448675	-0.488948	
13	0.0600	-1.191760	0.966512	-0.149762	-1.175978	0.960904	-0.404832	-1.372725	0.987968	-0.243097	-1.366546	0.992928	-0.328519	-1.221118	0.777297	-0.085593	-1.167698	0.779612	-0.097538	-1.209867	0.742893	-0.083999	-1.153671	0.751337	-0.096144	-1.171946	0.470489	-0.127027	-1.168295	0.459052	-0.237846	-1.304360	0.424132	-0.101311	-1.271960	0.387820	-0.115767	-1.341399	0.396152	-0.108330	-1.311937	0.362714	-0.118841	-1.513364	0.267899	-0.150693	-1.496442	0.255703	-0.244489	-1.487887	0.121843	-0.114235	-1.473554	0.114749	-0.231517	-1.427779	0.089292	-0.172243	-1.586800	0.302706	-0.206586	-1.221572	0.781603	-0.479007	-1.171185	0.790102	-0.466803	-1.223022	0.747951	-0.481856	-1.172889	0.754118	-0.473621	-1.197210	0.498441	-0.444078	-1.207305	0.483106	-0.328590	-1.280836	0.379950	-0.492278	-1.235471	0.367621	-0.477338	-1.298355	0.335529	-0.494016	-1.250388	0.326926	-0.483900	-1.340520	0.111823	-0.476442	-1.319689	0.121192	-0.373241	-1.228127	0.034966	-0.500115	-1.212769	0.029272	-0.375416	-1.144207	0.047151	-0.432287	-1.420808	0.084502	-0.430643	-1.195085	1.468047	-0.124735	-1.151671	1.448123	-0.488101	
14	0.0650	-1.174685	0.966833	-0.148782	-1.156182	0.960635	-0.403869	-1.354911	0.987510	-0.244195	-1.347644	0.992837	-0.329559	-1.201164	0.778587	-0.084956	-1.147619	0.782015	-0.096772	-1.189114	0.744455	-0.083257	-1.132935	0.754050	-0.095298	-1.144650	0.472942	-0.125854	-1.140543	0.461550	-0.236687	-1.275629	0.423595	-0.100206	-1.242462	0.388089	-0.114624	-1.311990	0.394809	-0.107125	-1.281780	0.362112	-0.117665	-1.480645	0.262680	-0.149731	-1.463494	0.250907	-0.243511	-1.449783	0.118620	-0.112348	-1.435467	0.111375	-0.229636	-1.388629	0.088132	-0.170230	-1.555345	0.294616	-0.205638	-1.204173	0.781197	-0.478364	-1.153804	0.788766	-0.465961	-1.206390	0.747619	-0.481232	-1.156296	0.752788	-0.472826	-1.187141	0.497685	-0.443823	-1.198074	0.482450	-0.328188	-1.273150	0.381008	-0.492231	-1.228048	0.367622	-0.477205	-1.291743	0.336876	-0.494020	-1.243917	0.327188	-0.483829	-1.339020	0.113522	-0.476911	-1.318254	0.122320	-0.373488	-1.228306	0.034373	-0.500389	-1.213230	0.028906	-0.375450	-1.144671	0.046883	-0.432034	-1.419661	0.087249	-0.431301	-1.181001	1.468676	-0.124186	-1.131056	1.447876	-0.487036	
15	0.0700	-1.157383	0.967391	-0.147800	-1.136197	0.960600	-0.402855	-1.336800	0.987428	-0.245197	-1.328476	0.993063	-0.330489	-1.181062	0.780191	-0.084292	-1.127409	0.784771	-0.095968	-1.168231	0.746346	-0.082506	-1.112086	0.757078	-0.094442	-1.117311	0.475757	-0.124666	-1.112755	0.464412	-0.235517	-1.246652	0.423183	-0.099044	-1.212682	0.388594	-0.113443	-1.282232	0.393530	-0.105851	-1.251232	0.361673	-0.116424	-1.447082	0.257196	-0.148665	-1.429675	0.245879	-0.242417	-1.410704	0.115357	-0.110363	-1.396363	0.108003	-0.227655	-1.348542	0.087083	-0.168120	-1.522971	0.286092	-0.204583	-1.186673	0.781062	-0.477695	-1.136330	0.787679	-0.465089	-1.189661	0.747574	-0.480587	-1.139612	0.751727	-0.472008	-1.177065	0.497307	-0.443626	-1.188815	0.482167	-0.327830	-1.265444	0.382466	-0.492263	-1.220601	0.368060	-0.477165	-1.285063	0.338629	-0.494076	-1.237389	0.327898	-0.483860	-1.337207	0.115623	-0.477504	-1.316434	0.123831	-0.373903	-1.228471	0.033829	-0.500660	-1.213718	0.028608	-0.375501	-1.145158	0.046586	-0.431805	-1.418100	0.090621	-0.432051	-1.166703	1.469554	-0.123579	-1.110220	1.447947	-0.485752	
16	0.0750	-1.139855	0.968188	-0.146821	-1.116043	0.960805	-0.401795	-1.318402	0.987727	-0.246097	-1.309055	0.993609	-0.331304	-1.160833	0.782102	-0.083604	-1.107093	0.787869	-0.095129	-1.147245	0.748559	-0.081748	-1.091150	0.760405	-0.093579	-1.089998	0.478915	-0.123468	-1.084997	0.467618	-0.234337	-1.217487	0.422891	-0.097822	-1.182685	0.389334	-0.112223	-1.252179	0.392317	-0.104508	-1.220353	0.361401	-0.115116	-1.412705	0.251477	-0.147486	-1.395013	0.240647	-0.241196	-1.370703	0.112079	-0.108278	-1.356293	0.104661	-0.225574	-1.307580	0.086163	-0.165913	-1.489690	0.277172	-0.203417	-1.169078	0.781205	-0.477002	-1.118768	0.786855	-0.464197	-1.172836	0.747818	-0.479925	-1.122840	0.750946	-0.471176	-1.166937	0.497308	-0.443483	-1.179474	0.482254	-0.327515	-1.257676	0.384327	-0.492366	-1.213086	0.368936	-0.477212	-1.278271	0.340790	-0.494174	-1.230761	0.329057	-0.483985	-1.335041	0.118142	-0.478205	-1.314190	0.125731	-0.374471	-1.228602	0.033368	-0.500925	-1.214215	0.028403	-0.375574	-1.145659	0.046257	-0.431606	-1.416074	0.094636	-0.432873	-1.152184	1.470681	-0.122914	-1.089200	1.448343	-0.484248	
17	0.0800	-1.122110	0.969219	-0.145851	-1.095743	0.961252	-0.400694	-1.299732	0.988406	-0.246886	-1.289404	0.994475	-0.331997	-1.140503	0.784308	-0.082894	-1.086696	0.791286	-0.094260	-1.126187	0.751079	-0.080986	-1.070157	0.764008	-0.092714	-1.062783	0.482390	-0.122261	-1.057340	0.471139	-0.233150	-1.188201	0.422712	-0.096540	-1.152543	0.390303	-0.110963	-1.221893	0.391167	-0.103095	-1.189210	0.361300	-0.113742	-1.377555	0.245557	-0.146192	-1.359548	0.235247	-0.239844	-1.329853	0.108813	-0.106093	-1.315332	0.101379	-0.223390	-1.265826	0.085390	-0.163607	-1.455534	0.267906	-0.202134	-1.151395	0.781626	-0.476289	-1.101124	0.786299	-0.463295	-1.155918	0.748351	-0.479247	-1.105981	0.750450	-0.470338	-1.156710	0.497679	-0.443391	-1.169989	0.482702	-0.327240	-1.249794	0.386586	-0.492529	-1.205454	0.370245	-0.477336	-1.271318	0.343357	-0.494301	-1.223983	0.330661	-0.484192	-1.332485	0.121092	-0.478991	-1.311486	0.128023	-0.375173	-1.228678	0.033030	-0.501180	-1.214694	0.028314	-0.375670	-1.146162	0.045896	-0.431444	-1.413537	0.099307	-0.433743	-1.137444	1.472051	-0.122187	-1.068035	1.449067	-0.482532	
18	0.0850	-1.104156	0.970476	-0.144895	-1.075324	0.961940	-0.399557	-1.280806	0.989454	-0.247561	-1.269547	0.995656	-0.332564	-1.120099	0.786789	-0.082163	-1.066248	0.794993	-0.093364	-1.105090	0.753882	-0.080223	-1.049137	0.767855	-0.091848	-1.035741	0.486148	-0.121052	-1.029858	0.474938	-0.231959	-1.158864	0.422635	-0.095198	-1.122336	0.391491	-0.109665	-1.191442	0.390080	-0.101610	-1.157882	0.361367	-0.112300	-1.341693	0.239477	-0.144778	-1.323337	0.229715	-0.238356	-1.288244	0.105586	-0.103810	-1.273571	0.098185	-0.221106	-1.223377	0.084779	-0.161204	-1.420548	0.258353	-0.200732	-1.133631	0.782320	-0.475562	-1.083407	0.786016	-0.462394	-1.138910	0.749167	-0.478558	-1.089037	0.750241	-0.469506	-1.146329	0.498406	-0.443345	-1.160295	0.483496	-0.327002	-1.241744	0.389231	-0.492737	-1.197653	0.371974	-0.477526	-1.264152	0.346320	-0.494444	-1.217005	0.332698	-0.484468	-1.329502	0.124484	-0.479841	-1.308287	0.130705	-0.375986	-1.228672	0.032855	-0.501420	-1.215127	0.028371	-0.375794	-1.146653	0.045504	-0.431327	-1.410442	0.104637	-0.434636	-1.122479	1.473657	-0.121397	-1.046770	1.450117	-0.480612	
19	0.0900	-1.086005	0.971946	-0.143958	-1.054814	0.962865	-0.398389	-1.261649	0.990856	-0.248116	-1.249511	0.997140	-0.333005	-1.099650	0.789520	-0.081415	-1.045776	0.798954	-0.092446	-1.083988	0.756939	-0.079460	-1.028122	0.771908	-0.090987	-1.008948	0.490149	-0.119844	-1.002627	0.478970	-0.230766	-1.129550	0.422647	-0.093795	-1.092147	0.392882	-0.108329	-1.160901	0.389051	-0.100058	-1.126452	0.361597	-0.110794	-1.305188	0.233279	-0.143243	-1.286453	0.224093	-0.236728	-1.245981	0.102425	-0.101435	-1.231119	0.095104	-0.218725	-1.180348	0.084339	-0.158708	-1.384793	0.248578	-0.199210	-1.115796	0.783280	-0.474826	-1.065623	0.786005	-0.461503	-1.121814	0.750255	-0.477861	-1.072009	0.750315	-0.468688	-1.135740	0.499466	-0.443340	-1.150323	0.484610	-0.326797	-1.233470	0.392244	-0.492976	-1.189626	0.374101	-0.477771	-1.256719	0.349664	-0.494587	-1.209774	0.335150	-0.484799	-1.326055	0.128322	-0.480726	-1.304561	0.133772	-0.376884	-1.228555	0.032888	-0.501642	-1.215479	0.028601	-0.375948	-1.147110	0.045086	-0.431264	-1.406746	0.110622	-0.435520	-1.107291	1.475483	-0.120543	-1.025453	1.451484	-0.478501	
20	0.0950	-1.067672	0.973613	-0.143044	-1.034242	0.964017	-0.397197	-1.242285	0.992590	-0.248550	-1.229326	0.998910	-0.333317	-1.079186	0.792469	-0.080653	-1.025312	0.803124	-0.091510	-1.062916	0.760213	-0.078700	-1.007146	0.776122	-0.090133	-0.982477	0.494346	-0.118643	-0.975720	0.483185	-0.229578	-1.100338	0.422732	-0.092334	-1.062062	0.394456	-0.106957	-1.130348	0.388073	-0.098440	-1.095007	0.361983	-0.109225	-1.268124	0.227012	-0.141586	-1.248978	0.218425	-0.234961	-1.203186	0.099353	-0.098973	-1.188099	0.092163	-0.216254	-1.136865	0.084078	-0.156127	-1.348343	0.238654	-0.197567	-1.097895	0.784492	-0.474084	-1.047777	0.786260	-0.460635	-1.104631	0.751600	-0.477160	-1.054898	0.750666	-0.467894	-1.124881	0.500831	-0.443368	-1.140003	0.486014	-0.326622	-1.224912	0.395600	-0.493231	-1.181318	0.376601	-0.478057	-1.248964	0.353367	-0.494716	-1.202234	0.337992	-0.485166	-1.322114	0.132606	-0.481618	-1.300280	0.137215	-0.377837	-1.228295	0.033175	-0.501839	-1.215712	0.029034	-0.376134	-1.147510	0.044649	-0.431261	-1.402410	0.117249	-0.436363	-1.091880	1.477512	-0.119623	-1.004130	1.453155	-0.476213	
21	0.1000	-1.049171	0.975456	-0.142155	-1.013638	0.965385	-0.395986	-1.222741	0.994625	-0.248861	-1.209023	1.000946	-0.333502	-1.058737	0.795598	-0.079879	-1.004883	0.807455	-0.090561	-1.041908	0.763662	-0.077944	-0.986239	0.780448	-0.089288	-0.956400	0.498687	-0.117456	-0.949209	0.487528	-0.228397	-1.071303	0.422869	-0.090820	-1.032166	0.396188	-0.105554	-1.099862	0.387139	-0.096760	-1.063636	0.362511	-0.107598	-1.230595	0.220721	-0.139810	-1.211007	0.212755	-0.233057	-1.159988	0.096392	-0.096435	-1.144647	0.089380	-0.213702	-1.093066	0.083996	-0.153470	-1.311287	0.228654	-0.195805	-1.079936	0.785939	-0.473343	-1.029877	0.786774	-0.459796	-1.087363	0.753180	-0.476457	-1.037702	0.751281	-0.467132	-1.113695	0.502466	-0.443424	-1.129267	0.487671	-0.326472	-1.216010	0.399271	-0.493483	-1.172669	0.379440	-0.478368	-1.240829	0.357404	-0.494812	-1.194332	0.341191	-0.485552	-1.317646	0.137335	-0.482486	-1.295417	0.141023	-0.378815	-1.227858	0.033763	-0.502007	-1.215783	0.029699	-0.376352	-1.147823	0.044203	-0.431327	-1.397399	0.124497	-0.437131	-1.076248	1.479721	-0.118637	-0.982849	1.455109	-0.473768	
22	0.1050	-1.030520	0.977450	-0.141294	-0.993032	0.966952	-0.394763	-1.203047	0.996927	-0.249050	-1.188635	1.003220	-0.333563	-1.038331	0.798865	-0.079096	-0.984518	0.811891	-0.089601	-1.020997	0.767241	-0.077192	-0.965430	0.784832	-0.088455	-0.930782	0.503115	-0.116287	-0.923160	0.491940	-0.227229	-1.042520	0.423040	-0.089256	-1.002543	0.398050	-0.104123	-1.069524	0.386239	-0.095026	-1.032427	0.363167	-0.105919	-1.192703	0.214454	-0.137919	-1.172646	0.207126	-0.231020	-1.116527	0.093561	-0.093831	-1.100911	0.086773	-0.211081	-1.049093	0.084088	-0.150749	-1.273722	0.218654	-0.193928	-1.061925	0.787599	-0.472607	-1.011926	0.787532	-0.458996	-1.070009	0.754972	-0.475757	-1.020421	0.752143	-0.466410	-1.102121	0.504330	-0.443499	-1.118045	0.489538	-0.326342	-1.206704	0.403221	-0.493715	-1.163624	0.382580	-0.478690	-1.232261	0.361743	-0.494860	-1.186014	0.344713	-0.485938	-1.312626	0.142500	-0.483299	-1.289951	0.145180	-0.379787	-1.227203	0.034697	-0.502141	-1.215645	0.030626	-0.376603	-1.148015	0.043763	-0.431469	-1.391683	0.132338	-0.437788	-1.060398	1.482084	-0.117585	-0.961657	1.457320	-0.471187	
23	0.1100	-1.011738	0.979567	-0.140459	-0.972452	0.968699	-0.393532	-1.183232	0.999455	-0.249119	-1.168194	1.005702	-0.333502	-1.017995	0.802225	-0.078306	-0.964241	0.816376	-0.088635	-1.000213	0.770897	-0.076444	-0.944748	0.789215	-0.087636	-0.905680	0.507572	-0.115143	-0.897633	0.496360	-0.226079	-1.014058	0.423220	-0.087649	-0.973272	0.400010	-0.102669	-1.039409	0.385360	-0.093244	-1.001467	0.363932	-0.104195	-1.154557	0.208258	-0.135917	-1.134009	0.201578	-0.228858	-1.072948	0.090874	-0.091176	-1.057042	0.084354	-0.208404	-1.005097	0.084343	-0.147980	-1.235759	0.208731	-0.191942	-1.043866	0.789446	-0.471879	-0.993926	0.788517	-0.458241	-1.052567	0.756945	-0.475062	-1.003051	0.753233	-0.465732	-1.090102	0.506380	-0.443587	-1.106275	0.491567	-0.326229	-1.196937	0.407412	-0.493910	-1.154129	0.385978	-0.479007	-1.223206	0.366349	-0.494845	-1.177230	0.348517	-0.486306	-1.307030	0.148091	-0.484024	-1.283863	0.149669	-0.380718	-1.226292	0.036022	-0.502233	-1.215249	0.031841	-0.376886	-1.148048	0.043347	-0.431693	-1.385237	0.140738	-0.438300	-1.044333	1.484572	-0.116465	-0.940597	1.459760	-0.468490	
24	0.1150	-0.992841	0.981777	-0.139650	-0.951924	0.970604	-0.392299	-1.163328	1.002165	-0.249073	-1.147730	1.008355	-0.333324	-0.997755	0.805627	-0.077512	-0.944074	0.820846	-0.087666	-0.979581	0.774577	-0.075701	-0.924216	0.793538	-0.086830	-0.881145	0.511998	-0.114030	-0.872679	0.500725	-0.224953	-0.985984	0.423385	-0.086007	-0.944426	0.402033	-0.101199	-1.009593	0.384489	-0.091423	-0.970838	0.364782	-0.102434	-1.116273	0.202174	-0.133814	-1.095216	0.196151	-0.226583	-1.029403	0.088339	-0.088486	-1.013199	0.082129	-0.205690	-0.961229	0.084745	-0.145182	-1.197516	0.198957	-0.189854	-1.025760	0.791450	-0.471163	-0.975879	0.789707	-0.457536	-1.035036	0.759067	-0.474375	-0.985587	0.754525	-0.465104	-1.077584	0.508566	-0.443680	-1.093895	0.493708	-0.326127	-1.186655	0.411801	-0.494050	-1.144131	0.389586	-0.479305	-1.213614	0.371183	-0.494749	-1.167931	0.352557	-0.486637	-1.300838	0.154091	-0.484633	-1.277139	0.154469	-0.381579	-1.225079	0.037776	-0.502279	-1.214542	0.033370	-0.377199	-1.147877	0.042974	-0.432004	-1.378044	0.149653	-0.438632	-1.028058	1.487152	-0.115279	-0.919708	1.462394	-0.465703	
25	0.1200	-0.973849	0.984047	-0.138864	-0.931471	0.972640	-0.391067	-1.143362	1.005006	-0.248914	-1.127273	1.011142	-0.333035	-0.977631	0.809020	-0.076714	-0.924036	0.825239	-0.086696	-0.959126	0.778226	-0.074960	-0.903855	0.797742	-0.086037	-0.857215	0.516330	-0.112954	-0.848342	0.504973	-0.223855	-0.958356	0.423510	-0.084339	-0.916070	0.404082	-0.099720	-0.980144	0.383612	-0.089573	-0.940617	0.365694	-0.100647	-1.077972	0.196243	-0.131621	-1.056392	0.190878	-0.224206	-0.986041	0.085960	-0.085780	-0.969543	0.080099	-0.202958	-0.917639	0.085272	-0.142375	-1.159118	0.189401	-0.187675	-1.007609	0.793579	-0.470462	-0.957785	0.791078	-0.456884	-1.017409	0.761303	-0.473698	-0.968023	0.755990	-0.464528	-1.064515	0.510836	-0.443772	-1.080853	0.495905	-0.326032	-1.175805	0.416344	-0.494119	-1.133584	0.393357	-0.479569	-1.203440	0.376203	-0.494560	-1.158075	0.356788	-0.486913	-1.294034	0.160482	-0.485094	-1.269767	0.159558	-0.382338	-1.223521	0.039994	-0.502271	-1.213468	0.035234	-0.377539	-1.147455	0.042670	-0.432406	-1.370091	0.159037	-0.438753	-1.011577	1.489790	-0.114025	-0.899027	1.465183	-0.462850	
26	0.1250	-0.954779	0.986344	-0.138098	-0.911116	0.974781	-0.389840	-1.123364	1.007929	-0.248650	-1.106852	1.014021	-0.332642	-0.957642	0.812351	-0.075913	-0.904142	0.829493	-0.085727	-0.938865	0.781785	-0.074220	-0.883679	0.801765	-0.085257	-0.833921	0.520509	-0.111922	-0.824654	0.509044	-0.222791	-0.931225	0.423570	-0.082655	-0.888262	0.406117	-0.098240	-0.951127	0.382711	-0.087705	-0.910875	0.366638	-0.098843	-1.039775	0.190497	-0.129349	-1.017667	0.185787	-0.221746	-0.943015	0.083737	-0.083079	-0.926234	0.078258	-0.200228	-0.874477	0.085896	-0.139582	-1.120697	0.180126	-0.185416	-0.989412	0.795798	-0.469778	-0.939641	0.792600	-0.456285	-0.999683	0.763614	-0.473033	-0.950352	0.757597	-0.464003	-1.050850	0.513139	-0.443857	-1.067104	0.498104	-0.325941	-1.164343	0.420994	-0.494102	-1.122446	0.397238	-0.479786	-1.192642	0.381368	-0.494265	-1.147623	0.361160	-0.487119	-1.286605	0.167237	-0.485383	-1.261742	0.164913	-0.382966	-1.221570	0.042704	-0.502204	-1.211970	0.037450	-0.377899	-1.146728	0.042458	-0.432898	-1.361371	0.168834	-0.438635	-0.994896	1.492449	-0.112704	-0.878585	1.468086	-0.459955	
27	0.1300	-0.935649	0.988633	-0.137346	-0.890876	0.976996	-0.388621	-1.103361	1.010880	-0.248285	-1.086490	1.016946	-0.332152	-0.937803	0.815568	-0.075111	-0.884403	0.833543	-0.084762	-0.918813	0.785201	-0.073478	-0.863701	0.805551	-0.084488	-0.811280	0.524478	-0.110937	-0.801639	0.512879	-0.221767	-0.904633	0.423541	-0.080965	-0.861049	0.408098	-0.096768	-0.922596	0.381772	-0.085832	-0.881672	0.367586	-0.097035	-1.001808	0.184966	-0.127015	-0.979175	0.180902	-0.219221	-0.900474	0.081665	-0.080403	-0.883431	0.076596	-0.197525	-0.831891	0.086586	-0.136828	-1.082389	0.171187	-0.183091	-0.971164	0.798068	-0.469112	-0.921442	0.794242	-0.455738	-0.981850	0.765960	-0.472381	-0.932566	0.759312	-0.463529	-1.036551	0.515421	-0.443928	-1.052609	0.500250	-0.325850	-1.152228	0.425704	-0.493986	-1.110681	0.401178	-0.479943	-1.181186	0.386631	-0.493854	-1.136542	0.365623	-0.487239	-1.278543	0.174331	-0.485474	-1.253058	0.170506	-0.383438	-1.219177	0.045927	-0.502071	-1.209989	0.040032	-0.378274	-1.145640	0.042366	-0.433481	-1.351886	0.178987	-0.438251	-0.978022	1.495091	-0.111317	-0.858407	1.471059	-0.457044	
28	0.1350	-0.916475	0.990878	-0.136602	-0.870765	0.979254	-0.387412	-1.083377	1.013804	-0.247825	-1.066211	1.019874	-0.331570	-0.918123	0.818620	-0.074307	-0.864825	0.837330	-0.083801	-0.898976	0.788417	-0.072732	-0.843928	0.809044	-0.083728	-0.789300	0.528182	-0.110007	-0.779307	0.516425	-0.220787	-0.878617	0.423396	-0.079283	-0.834469	0.409985	-0.095313	-0.894604	0.380775	-0.083968	-0.853064	0.368505	-0.095236	-0.964196	0.179671	-0.124635	-0.941049	0.176237	-0.216654	-0.858564	0.079732	-0.077776	-0.841291	0.075099	-0.194874	-0.790020	0.087305	-0.134140	-1.044334	0.162631	-0.180715	-0.952862	0.800352	-0.468465	-0.903183	0.795970	-0.455240	-0.963901	0.768300	-0.471743	-0.914655	0.761100	-0.463102	-1.021585	0.517629	-0.443981	-1.037340	0.502288	-0.325756	-1.139428	0.430427	-0.493760	-1.098257	0.405126	-0.480031	-1.169040	0.391947	-0.493319	-1.124806	0.370128	-0.487262	-1.269840	0.181728	-0.485348	-1.243716	0.176311	-0.383730	-1.216292	0.049672	-0.501866	-1.207467	0.042984	-0.378654	-1.144130	0.042423	-0.434149	-1.341640	0.189432	-0.437581	-0.960960	1.497679	-0.109863	-0.838514	1.474057	-0.454139	
29	0.1400	-0.897271	0.993046	-0.135861	-0.850794	0.981524	-0.386213	-1.063435	1.016650	-0.247278	-1.046034	1.022755	-0.330905	-0.898608	0.821456	-0.073501	-0.845409	0.840798	-0.082845	-0.879361	0.791383	-0.071978	-0.824361	0.812193	-0.082975	-0.767977	0.531570	-0.109134	-0.757662	0.519634	-0.219856	-0.853201	0.423114	-0.077620	-0.808552	0.411738	-0.093884	-0.867191	0.379705	-0.082127	-0.825096	0.369362	-0.093461	-0.927063	0.174628	-0.122228	-0.903422	0.171805	-0.214067	-0.817426	0.077926	-0.075222	-0.799964	0.073746	-0.192300	-0.749000	0.088014	-0.131544	-1.006674	0.154498	-0.178307	-0.934499	0.802610	-0.467835	-0.884857	0.797750	-0.454786	-0.945828	0.770592	-0.471119	-0.896610	0.762922	-0.462718	-1.005927	0.519714	-0.444012	-1.021277	0.504168	-0.325658	-1.125916	0.435116	-0.493415	-1.085152	0.409032	-0.480042	-1.156183	0.397272	-0.492653	-1.112392	0.374626	-0.487176	-1.260494	0.189394	-0.484989	-1.233715	0.182297	-0.383824	-1.212865	0.053942	-0.501582	-1.204343	0.046308	-0.379029	-1.142133	0.042653	-0.434896	-1.330642	0.200102	-0.436611	-0.943719	1.500175	-0.108344	-0.818921	1.477036	-0.451264	
30	0.1450	-0.878051	0.995103	-0.135115	-0.830973	0.983771	-0.385026	-1.043554	1.019365	-0.246648	-1.025976	1.025545	-0.330162	-0.879260	0.824031	-0.072692	-0.826155	0.843894	-0.081894	-0.859964	0.794052	-0.071214	-0.804998	0.814954	-0.082225	-0.747297	0.534598	-0.108324	-0.736695	0.522462	-0.218979	-0.828403	0.422673	-0.075989	-0.783315	0.413318	-0.092493	-0.840394	0.378544	-0.080323	-0.797805	0.370124	-0.091723	-0.890532	0.169845	-0.119814	-0.866428	0.167607	-0.211489	-0.777195	0.076227	-0.072764	-0.759593	0.072513	-0.189829	-0.708959	0.088673	-0.129068	-0.969550	0.146814	-0.175885	-0.916066	0.804802	-0.467223	-0.866457	0.799545	-0.454369	-0.927622	0.772795	-0.470510	-0.878419	0.764741	-0.462370	-0.989560	0.521628	-0.444019	-1.004410	0.505841	-0.325551	-1.111671	0.439726	-0.492944	-1.071349	0.412847	-0.479968	-1.142597	0.402560	-0.491853	-1.099285	0.379068	-0.486974	-1.250501	0.197286	-0.484385	-1.223059	0.188434	-0.383704	-1.208842	0.058725	-0.501214	-1.200557	0.049995	-0.379388	-1.139583	0.043084	-0.435710	-1.318909	0.210929	-0.435329	-0.926306	1.502542	-0.106760	-0.799638	1.479949	-0.448440	
31	0.1500	-0.858827	0.997018	-0.134358	-0.811304	0.985963	-0.383850	-1.023751	1.021899	-0.245942	-1.006049	1.028196	-0.329349	-0.860077	0.826304	-0.071880	-0.807055	0.846571	-0.080951	-0.840780	0.796381	-0.070436	-0.785833	0.817287	-0.081476	-0.727238	0.537226	-0.107579	-0.716390	0.524875	-0.218159	-0.804234	0.422054	-0.074404	-0.758770	0.414689	-0.091150	-0.814241	0.377275	-0.078570	-0.771221	0.370757	-0.090039	-0.854724	0.165326	-0.117417	-0.830198	0.163641	-0.208944	-0.738001	0.074618	-0.070427	-0.720316	0.071374	-0.187488	-0.670017	0.089240	-0.126740	-0.933104	0.139598	-0.173469	-0.897556	0.806889	-0.466625	-0.847972	0.801319	-0.453983	-0.909272	0.774870	-0.469914	-0.860072	0.766520	-0.462050	-0.972475	0.523328	-0.443998	-0.986739	0.507266	-0.325437	-1.096682	0.444215	-0.492344	-1.056834	0.416526	-0.479805	-1.128271	0.407769	-0.490918	-1.085475	0.383410	-0.486651	-1.239862	0.205359	-0.483528	-1.211750	0.194688	-0.383358	-1.204171	0.064000	-0.500754	-1.196050	0.054032	-0.379716	-1.136410	0.043738	-0.436578	-1.306456	0.221840	-0.433733	-0.908731	1.504743	-0.105111	-0.780670	1.482752	-0.445687	
32	0.1550	-0.839607	0.998760	-0.133582	-0.791789	0.988068	-0.382685	-1.004039	1.024207	-0.245163	-0.986263	1.030663	-0.328470	-0.841052	0.828237	-0.071063	-0.788101	0.848790	-0.080015	-0.821798	0.798333	-0.069643	-0.766855	0.819160	-0.080727	-0.707769	0.539423	-0.106902	-0.696720	0.526843	-0.217400	-0.780696	0.421240	-0.072878	-0.734918	0.415817	-0.089866	-0.788753	0.375885	-0.076885	-0.745365	0.371230	-0.088422	-0.819756	0.161065	-0.115057	-0.794859	0.159898	-0.206463	-0.699962	0.073075	-0.068231	-0.682259	0.070301	-0.185302	-0.632286	0.089676	-0.124584	-0.897474	0.132859	-0.171080	-0.878958	0.808835	-0.466039	-0.829394	0.803035	-0.453616	-0.890768	0.776779	-0.469330	-0.841560	0.768223	-0.461751	-0.954667	0.524778	-0.443950	-0.968268	0.508404	-0.325311	-1.080941	0.448544	-0.491614	-1.041604	0.420028	-0.479551	-1.113198	0.412857	-0.489850	-1.070957	0.387609	-0.486204	-1.228575	0.213564	-0.482416	-1.199792	0.201025	-0.382781	-1.198799	0.069733	-0.500197	-1.190764	0.058396	-0.379998	-1.132541	0.044633	-0.437481	-1.293303	0.232762	-0.431824	-0.891003	1.506745	-0.103398	-0.762017	1.485404	-0.443021	
33	0.1600	-0.820399	1.000303	-0.132780	-0.772427	0.990055	-0.381530	-0.984428	1.026248	-0.244315	-0.966624	1.032903	-0.327530	-0.822174	0.829801	-0.070240	-0.769278	0.850519	-0.079088	-0.803004	0.799880	-0.068831	-0.748049	0.820550	-0.079974	-0.688852	0.541163	-0.106296	-0.677656	0.528346	-0.216704	-0.757787	0.420218	-0.071423	-0.711754	0.416670	-0.088650	-0.763948	0.374359	-0.075280	-0.720251	0.371511	-0.086887	-0.785742	0.157054	-0.112758	-0.760533	0.156366	-0.204073	-0.663193	0.071578	-0.066198	-0.645542	0.069264	-0.183294	-0.595870	0.089943	-0.122625	-0.862795	0.126598	-0.168740	-0.860261	0.810604	-0.465462	-0.810712	0.804661	-0.453261	-0.872102	0.778487	-0.468756	-0.822871	0.769816	-0.461463	-0.936142	0.525944	-0.443872	-0.949014	0.509226	-0.325175	-1.064449	0.452674	-0.490755	-1.025657	0.423315	-0.479204	-1.097378	0.417783	-0.488653	-1.055729	0.391626	-0.485632	-1.216638	0.221847	-0.481052	-1.187186	0.207408	-0.381968	-1.192671	0.075880	-0.499536	-1.184641	0.063056	-0.380218	-1.127903	0.045784	-0.438401	-1.279471	0.243621	-0.429612	-0.873129	1.508518	-0.101623	-0.743674	1.487866	-0.440458	
34	0.1650	-0.801207	1.001624	-0.131948	-0.753212	0.991894	-0.380384	-0.964925	1.027985	-0.243402	-0.947137	1.034878	-0.326532	-0.803429	0.830971	-0.069411	-0.750571	0.851734	-0.078171	-0.784379	0.800998	-0.068000	-0.729398	0.821440	-0.079217	-0.670442	0.542429	-0.105761	-0.659157	0.529371	-0.216075	-0.735499	0.418979	-0.070051	-0.689267	0.417221	-0.087513	-0.739834	0.372688	-0.073771	-0.695888	0.371572	-0.085450	-0.752787	0.153279	-0.110543	-0.727337	0.153026	-0.201800	-0.627796	0.070105	-0.064346	-0.610271	0.068235	-0.181484	-0.560863	0.090004	-0.120884	-0.829196	0.120806	-0.166467	-0.841455	0.812164	-0.464890	-0.791916	0.806163	-0.452907	-0.853261	0.779963	-0.468189	-0.803998	0.771266	-0.461178	-0.916908	0.526802	-0.443765	-0.928997	0.509710	-0.325025	-1.047210	0.456574	-0.489771	-1.008995	0.426355	-0.478766	-1.080815	0.422512	-0.487333	-1.039793	0.395425	-0.484937	-1.204049	0.230153	-0.479440	-1.173934	0.213798	-0.380921	-1.185731	0.082385	-0.498767	-1.177625	0.067976	-0.380359	-1.122420	0.047198	-0.439312	-1.264978	0.254343	-0.427109	-0.855119	1.510034	-0.099785	-0.725634	1.490102	-0.438010	
35	0.1700	-0.782032	1.002703	-0.131078	-0.734137	0.993557	-0.379245	-0.945534	1.029386	-0.242424	-0.927800	1.036551	-0.325481	-0.784801	0.831731	-0.068574	-0.731960	0.852420	-0.077266	-0.765901	0.801674	-0.067149	-0.710882	0.821822	-0.078455	-0.652494	0.543209	-0.105299	-0.641183	0.529911	-0.215512	-0.713818	0.417515	-0.068773	-0.667439	0.417449	-0.086463	-0.716420	0.370861	-0.072368	-0.672278	0.371387	-0.084122	-0.720995	0.149723	-0.108433	-0.695382	0.149857	-0.199673	-0.593866	0.068635	-0.062689	-0.576544	0.067185	-0.179892	-0.527349	0.089829	-0.119378	-0.796800	0.115468	-0.164284	-0.822528	0.813487	-0.464320	-0.772996	0.807513	-0.452544	-0.834239	0.781180	-0.467628	-0.784931	0.772547	-0.460885	-0.896981	0.527334	-0.443630	-0.908243	0.509841	-0.324862	-1.029233	0.460214	-0.488669	-0.991626	0.429120	-0.478238	-1.063515	0.427010	-0.485898	-1.023153	0.398975	-0.484123	-1.190802	0.238422	-0.477592	-1.160032	0.220157	-0.379646	-1.177923	0.089182	-0.497883	-1.169659	0.073110	-0.380402	-1.116017	0.048877	-0.440189	-1.249844	0.264854	-0.424336	-0.836981	1.511270	-0.097888	-0.707885	1.492081	-0.435688	
36	0.1750	-0.762874	1.003524	-0.130168	-0.715193	0.995021	-0.378114	-0.926253	1.030429	-0.241382	-0.908612	1.037890	-0.324378	-0.766268	0.832071	-0.067730	-0.713426	0.852571	-0.076375	-0.747546	0.801900	-0.066278	-0.692477	0.821697	-0.077688	-0.634957	0.543500	-0.104908	-0.623689	0.529970	-0.215018	-0.692729	0.415825	-0.067598	-0.646252	0.417335	-0.085508	-0.693706	0.368874	-0.071084	-0.649419	0.370934	-0.082917	-0.690458	0.146367	-0.106449	-0.664769	0.146838	-0.197713	-0.561487	0.067151	-0.061241	-0.544445	0.066091	-0.178531	-0.495404	0.089394	-0.118123	-0.765719	0.110562	-0.162209	-0.803470	0.814549	-0.463745	-0.753941	0.808685	-0.452161	-0.815024	0.782116	-0.467069	-0.765662	0.773634	-0.460576	-0.876379	0.527529	-0.443465	-0.886781	0.509613	-0.324682	-1.010530	0.463569	-0.487456	-0.973556	0.431586	-0.477625	-1.045486	0.431243	-0.484359	-1.005814	0.402247	-0.483196	-1.176889	0.246591	-0.475522	-1.145474	0.226444	-0.378150	-1.169192	0.096196	-0.496878	-1.160689	0.078408	-0.380329	-1.108616	0.050813	-0.441003	-1.234083	0.275081	-0.421317	-0.818722	1.512205	-0.095932	-0.690412	1.493778	-0.433498	
37	0.1800	-0.743728	1.004075	-0.129215	-0.696367	0.996263	-0.376990	-0.907081	1.031096	-0.240276	-0.889565	1.038871	-0.323224	-0.747809	0.831991	-0.066878	-0.694945	0.852189	-0.075500	-0.729288	0.801679	-0.065389	-0.674159	0.821074	-0.076917	-0.617780	0.543308	-0.104589	-0.606627	0.529557	-0.214591	-0.672216	0.413911	-0.066536	-0.625682	0.416868	-0.084656	-0.671692	0.366725	-0.069928	-0.627306	0.370195	-0.081843	-0.661263	0.143188	-0.104609	-0.635591	0.143944	-0.195944	-0.530733	0.065638	-0.060009	-0.514048	0.064929	-0.177413	-0.465092	0.088681	-0.117126	-0.736059	0.106064	-0.160260	-0.784269	0.815331	-0.463162	-0.734743	0.809658	-0.451750	-0.795610	0.782754	-0.466509	-0.746183	0.774508	-0.460242	-0.855124	0.527385	-0.443272	-0.864643	0.509029	-0.324485	-0.991114	0.466619	-0.486143	-0.954796	0.433737	-0.476929	-1.026740	0.435186	-0.482728	-0.987782	0.405220	-0.482162	-1.162296	0.254596	-0.473247	-1.130252	0.232615	-0.376445	-1.159480	0.103344	-0.495749	-1.150661	0.083813	-0.380122	-1.100143	0.052994	-0.441724	-1.217706	0.284954	-0.418080	-0.800347	1.512825	-0.093920	-0.673196	1.495171	-0.431445	
38	0.1850	-0.724587	1.004350	-0.128216	-0.677644	0.997267	-0.375872	-0.888008	1.031376	-0.239106	-0.870651	1.039472	-0.322019	-0.729399	0.831495	-0.066020	-0.676493	0.851288	-0.074645	-0.711099	0.801019	-0.064485	-0.655904	0.819970	-0.076144	-0.600913	0.542644	-0.104339	-0.589950	0.528689	-0.214231	-0.652258	0.411780	-0.065592	-0.605706	0.416041	-0.083911	-0.650375	0.364415	-0.068906	-0.605932	0.369159	-0.080911	-0.633487	0.140167	-0.102929	-0.607928	0.141153	-0.194381	-0.501665	0.064084	-0.058997	-0.485412	0.063681	-0.176543	-0.436469	0.087677	-0.116392	-0.707912	0.101944	-0.158451	-0.764914	0.815819	-0.462567	-0.715391	0.810416	-0.451303	-0.775987	0.783084	-0.465943	-0.726490	0.775157	-0.459876	-0.833239	0.526907	-0.443049	-0.841864	0.508098	-0.324268	-0.971002	0.469346	-0.484741	-0.935355	0.435560	-0.476155	-1.007287	0.438813	-0.481016	-0.969061	0.407873	-0.481030	-1.147007	0.262373	-0.470787	-1.114350	0.238628	-0.374544	-1.148728	0.110539	-0.494491	-1.139524	0.089263	-0.379764	-1.090519	0.055396	-0.442322	-1.200721	0.294402	-0.414658	-0.781860	1.513122	-0.091854	-0.656218	1.496246	-0.429533	
39	0.1900	-0.705442	1.004347	-0.127171	-0.659010	0.998017	-0.374762	-0.869026	1.031266	-0.237869	-0.851859	1.039680	-0.320764	-0.711013	0.830598	-0.065156	-0.658047	0.849887	-0.073813	-0.692950	0.799939	-0.063569	-0.637684	0.818410	-0.075372	-0.584308	0.541526	-0.104156	-0.573613	0.527388	-0.213935	-0.632836	0.409441	-0.064771	-0.586298	0.414854	-0.083277	-0.629749	0.361950	-0.068026	-0.585285	0.367819	-0.080125	-0.607197	0.137283	-0.101423	-0.581851	0.138445	-0.193040	-0.474336	0.062482	-0.058205	-0.458584	0.062335	-0.175922	-0.409579	0.086379	-0.115922	-0.681357	0.098173	-0.156795	-0.745396	0.816007	-0.461954	-0.695876	0.810949	-0.450811	-0.756149	0.783101	-0.465368	-0.706575	0.775572	-0.459469	-0.810749	0.526107	-0.442796	-0.818477	0.506841	-0.324026	-0.950208	0.471739	-0.483263	-0.915240	0.437049	-0.475308	-0.987138	0.442103	-0.479238	-0.949656	0.410194	-0.479809	-1.131002	0.269856	-0.468163	-1.097751	0.244439	-0.372463	-1.136878	0.117687	-0.493100	-1.127225	0.094695	-0.379237	-1.079671	0.057991	-0.442765	-1.183127	0.303361	-0.411085	-0.763262	1.513091	-0.089737	-0.639455	1.496995	-0.427761	
40	0.1950	-0.686279	1.004068	-0.126081	-0.640447	0.998505	-0.373659	-0.850121	1.030771	-0.236563	-0.833174	1.039488	-0.319457	-0.692625	0.829320	-0.064288	-0.639583	0.848016	-0.073007	-0.674814	0.798463	-0.062645	-0.619474	0.816424	-0.074604	-0.567918	0.539978	-0.104037	-0.557571	0.525684	-0.213703	-0.613933	0.406911	-0.064074	-0.567437	0.413314	-0.082756	-0.609808	0.359341	-0.067289	-0.565355	0.366173	-0.079489	-0.582448	0.134519	-0.100098	-0.557416	0.135801	-0.191929	-0.448785	0.060829	-0.057628	-0.433597	0.060882	-0.175547	-0.384454	0.084792	-0.115709	-0.656460	0.094721	-0.155301	-0.725703	0.815892	-0.461318	-0.676189	0.811252	-0.450269	-0.736089	0.782806	-0.464779	-0.686433	0.775752	-0.459017	-0.787678	0.525006	-0.442510	-0.794513	0.505284	-0.323756	-0.928748	0.473789	-0.481720	-0.894459	0.438201	-0.474393	-0.966301	0.445038	-0.477407	-0.929566	0.412172	-0.478506	-1.114254	0.276978	-0.465400	-1.080430	0.250005	-0.370219	-1.123873	0.124694	-0.491573	-1.113714	0.100040	-0.378527	-1.067525	0.060742	-0.443024	-1.164920	0.311767	-0.407396	-0.744552	1.512733	-0.087573	-0.622882	1.497414	-0.426126	
41	0.2000	-0.667083	1.003520	-0.124948	-0.621935	0.998727	-0.372567	-0.831276	1.029901	-0.235187	-0.814578	1.038896	-0.318099	-0.674209	0.827688	-0.063418	-0.621077	0.845710	-0.072231	-0.656663	0.796621	-0.061718	-0.601248	0.814050	-0.073845	-0.551704	0.538031	-0.103976	-0.541785	0.523610	-0.213529	-0.595531	0.404210	-0.063503	-0.549098	0.411432	-0.082347	-0.590544	0.356600	-0.066696	-0.546129	0.364227	-0.079004	-0.559283	0.131859	-0.098962	-0.534666	0.133208	-0.191052	-0.425038	0.059125	-0.057258	-0.410470	0.059319	-0.175409	-0.361117	0.082928	-0.115743	-0.633272	0.091562	-0.153974	-0.705826	0.815479	-0.460656	-0.656321	0.811325	-0.449671	-0.715801	0.782208	-0.464172	-0.666060	0.775700	-0.458515	-0.764050	0.523629	-0.442189	-0.770005	0.503462	-0.323453	-0.906634	0.475493	-0.480127	-0.873017	0.439020	-0.473413	-0.944786	0.447605	-0.475538	-0.908792	0.413801	-0.477131	-1.096734	0.283677	-0.462521	-1.062361	0.255281	-0.367830	-1.109654	0.131467	-0.489909	-1.098941	0.105233	-0.377621	-1.054011	0.063606	-0.443071	-1.146088	0.319560	-0.403628	-0.725728	1.512057	-0.085366	-0.606474	1.497509	-0.424624	
42	0.2050	-0.647838	1.002715	-0.123775	-0.603456	0.998683	-0.371486	-0.812473	1.028676	-0.233739	-0.796055	1.037912	-0.316687	-0.655741	0.825735	-0.062548	-0.602508	0.843014	-0.071490	-0.638471	0.794452	-0.060795	-0.582984	0.811330	-0.073099	-0.535628	0.535719	-0.103970	-0.526217	0.521205	-0.213409	-0.577615	0.401360	-0.063054	-0.531261	0.409227	-0.082048	-0.571950	0.353746	-0.066245	-0.527595	0.361992	-0.078668	-0.537734	0.129294	-0.098015	-0.513629	0.130655	-0.190408	-0.403110	0.057377	-0.057081	-0.389210	0.057650	-0.175496	-0.339578	0.080806	-0.116009	-0.611827	0.088671	-0.152819	-0.685758	0.814779	-0.459964	-0.636266	0.811177	-0.449014	-0.695279	0.781320	-0.463543	-0.645453	0.775428	-0.457957	-0.739887	0.522012	-0.441829	-0.744980	0.501414	-0.323110	-0.883880	0.476850	-0.478496	-0.850918	0.439514	-0.472371	-0.922599	0.449794	-0.473644	-0.887331	0.415082	-0.475691	-1.078409	0.289892	-0.459549	-1.043511	0.260226	-0.365314	-1.094164	0.137913	-0.488106	-1.082860	0.110205	-0.376509	-1.039060	0.066536	-0.442880	-1.126614	0.326685	-0.399815	-0.706783	1.511074	-0.083120	-0.590204	1.497289	-0.423250	
43	0.2100	-0.628525	1.001671	-0.122568	-0.584989	0.998379	-0.370421	-0.793692	1.027120	-0.232217	-0.777583	1.036551	-0.315222	-0.637197	0.823500	-0.061682	-0.583855	0.839975	-0.070785	-0.620215	0.791996	-0.059879	-0.564659	0.808309	-0.072371	-0.519661	0.533083	-0.104011	-0.510837	0.518511	-0.213339	-0.560170	0.398390	-0.062724	-0.513909	0.406723	-0.081854	-0.554017	0.350803	-0.065929	-0.509740	0.359487	-0.078475	-0.517817	0.126817	-0.097255	-0.494317	0.128140	-0.189992	-0.383001	0.055594	-0.057082	-0.369807	0.055881	-0.175790	-0.319835	0.078453	-0.116485	-0.592143	0.086027	-0.151831	-0.665489	0.813809	-0.459238	-0.616016	0.810820	-0.448296	-0.674518	0.780164	-0.462887	-0.624609	0.774952	-0.457342	-0.715211	0.520191	-0.441425	-0.719464	0.499188	-0.322720	-0.860496	0.477864	-0.476838	-0.828162	0.439694	-0.471270	-0.899745	0.451599	-0.471737	-0.865178	0.416015	-0.474194	-1.059243	0.295564	-0.456507	-1.023846	0.264799	-0.362689	-1.077348	0.143944	-0.486164	-1.065425	0.114892	-0.375182	-1.022611	0.069480	-0.442429	-1.106476	0.333093	-0.395993	-0.687708	1.509805	-0.080841	-0.574044	1.496771	-0.421996	
44	0.2150	-0.609125	1.000407	-0.121331	-0.566514	0.997825	-0.369375	-0.774910	1.025265	-0.230620	-0.759141	1.034835	-0.313702	-0.618556	0.821025	-0.060823	-0.565101	0.836646	-0.070120	-0.601872	0.789299	-0.058978	-0.546253	0.805038	-0.071667	-0.503778	0.530165	-0.104093	-0.495617	0.515572	-0.213311	-0.543185	0.395330	-0.062503	-0.497027	0.403951	-0.081757	-0.536735	0.347795	-0.065742	-0.492552	0.356736	-0.078416	-0.499534	0.124427	-0.096675	-0.476725	0.125663	-0.189791	-0.364699	0.053787	-0.057240	-0.352238	0.054026	-0.176271	-0.301874	0.075902	-0.117150	-0.574218	0.083616	-0.151007	-0.645013	0.812591	-0.458475	-0.595566	0.810274	-0.447515	-0.653516	0.778766	-0.462200	-0.603525	0.774295	-0.456667	-0.690043	0.518211	-0.440971	-0.693482	0.496835	-0.322276	-0.836492	0.478542	-0.475165	-0.804749	0.439579	-0.470111	-0.876229	0.453017	-0.469829	-0.842326	0.416610	-0.472647	-1.039198	0.300640	-0.453418	-1.003331	0.268960	-0.359973	-1.059156	0.149480	-0.484086	-1.046594	0.119233	-0.373636	-1.004606	0.072385	-0.441701	-1.085647	0.338737	-0.392191	-0.668493	1.508272	-0.078535	-0.557967	1.495976	-0.420853	
45	0.2200	-0.589618	0.998950	-0.120072	-0.548012	0.997036	-0.368352	-0.756105	1.023146	-0.228949	-0.740707	1.032792	-0.312129	-0.599801	0.818357	-0.059972	-0.546233	0.833083	-0.069497	-0.583426	0.786411	-0.058098	-0.527753	0.801566	-0.070990	-0.487963	0.527013	-0.104208	-0.480539	0.512436	-0.213318	-0.526651	0.392216	-0.062384	-0.480601	0.400946	-0.081748	-0.520096	0.344755	-0.065673	-0.476018	0.353769	-0.078481	-0.482874	0.122127	-0.096265	-0.460833	0.123233	-0.189788	-0.348179	0.051973	-0.057534	-0.336467	0.052102	-0.176914	-0.285668	0.073191	-0.117977	-0.558035	0.081429	-0.150337	-0.624327	0.811155	-0.457673	-0.574912	0.809563	-0.446671	-0.632270	0.777156	-0.461479	-0.582202	0.773483	-0.455932	-0.664401	0.516119	-0.440460	-0.667055	0.494408	-0.321770	-0.811876	0.478896	-0.473487	-0.780680	0.439187	-0.468895	-0.852054	0.454051	-0.467930	-0.818770	0.416876	-0.471054	-1.018237	0.305073	-0.450301	-0.981928	0.272675	-0.357181	-1.039540	0.154447	-0.481874	-1.026330	0.123172	-0.371870	-0.984995	0.075196	-0.440681	-1.064095	0.343577	-0.388439	-0.649127	1.506506	-0.076210	-0.541947	1.494932	-0.419810	
46	0.2250	-0.569986	0.997327	-0.118797	-0.529465	0.996033	-0.367356	-0.737255	1.020805	-0.227206	-0.722259	1.030459	-0.310503	-0.580917	0.815542	-0.059134	-0.527239	0.829344	-0.068917	-0.564865	0.783383	-0.057242	-0.509146	0.797947	-0.070345	-0.472206	0.523673	-0.104346	-0.465586	0.509149	-0.213352	-0.510562	0.389083	-0.062354	-0.464623	0.397747	-0.081817	-0.504089	0.341714	-0.065709	-0.460126	0.350623	-0.078656	-0.467811	0.119927	-0.096010	-0.446605	0.120863	-0.189965	-0.333400	0.050168	-0.057940	-0.322445	0.050129	-0.177692	-0.271180	0.070361	-0.118937	-0.543559	0.079460	-0.149808	-0.603427	0.809533	-0.456830	-0.554051	0.808716	-0.445768	-0.610780	0.775372	-0.460719	-0.560642	0.772549	-0.455137	-0.638306	0.513965	-0.439885	-0.640204	0.491966	-0.321193	-0.786658	0.478941	-0.471811	-0.755955	0.438544	-0.467621	-0.827226	0.454705	-0.466049	-0.794503	0.416828	-0.469419	-0.996324	0.308821	-0.447175	-0.959603	0.275912	-0.354329	-1.018459	0.158783	-0.479533	-1.004601	0.126658	-0.369886	-0.963737	0.077862	-0.439362	-1.041791	0.347581	-0.384762	-0.629596	1.504539	-0.073873	-0.525956	1.493670	-0.418859	
47	0.2300	-0.550212	0.995569	-0.117515	-0.510857	0.994841	-0.366392	-0.718338	1.018287	-0.225394	-0.703777	1.027875	-0.308827	-0.561895	0.812631	-0.058310	-0.508114	0.825487	-0.068382	-0.546180	0.780265	-0.056416	-0.490426	0.794232	-0.069736	-0.456503	0.520196	-0.104498	-0.450751	0.505761	-0.213405	-0.494912	0.385970	-0.062399	-0.449086	0.394399	-0.081949	-0.488706	0.338707	-0.065835	-0.444864	0.347338	-0.078923	-0.454302	0.117840	-0.095892	-0.433986	0.118571	-0.190294	-0.320312	0.048391	-0.058434	-0.310107	0.048131	-0.178578	-0.258358	0.067459	-0.119999	-0.530737	0.077714	-0.149406	-0.582313	0.807763	-0.455945	-0.532984	0.807767	-0.444805	-0.589050	0.773451	-0.459917	-0.538849	0.771528	-0.454283	-0.611778	0.511801	-0.439238	-0.612951	0.489565	-0.320535	-0.760848	0.478692	-0.470143	-0.730576	0.437674	-0.466288	-0.801750	0.454990	-0.464193	-0.769524	0.416485	-0.467746	-0.973429	0.311849	-0.444055	-0.936324	0.278642	-0.351432	-0.995883	0.162435	-0.477069	-0.981384	0.129649	-0.367690	-0.940801	0.080333	-0.437743	-1.018703	0.350721	-0.381179	-0.609888	1.502408	-0.071534	-0.509972	1.492226	-0.417987	
48	0.2350	-0.530285	0.993711	-0.116232	-0.492175	0.993488	-0.365465	-0.699335	1.015639	-0.223516	-0.685241	1.025088	-0.307103	-0.542731	0.809674	-0.057503	-0.488857	0.821569	-0.067891	-0.527369	0.777110	-0.055624	-0.471591	0.790472	-0.069165	-0.440860	0.516631	-0.104654	-0.436033	0.502318	-0.213466	-0.479699	0.382917	-0.062505	-0.433986	0.390948	-0.082131	-0.473936	0.335773	-0.066034	-0.430222	0.343958	-0.079265	-0.442294	0.115883	-0.095892	-0.422910	0.116379	-0.190748	-0.308850	0.046661	-0.058989	-0.299380	0.046135	-0.179541	-0.247139	0.064528	-0.121134	-0.519502	0.076199	-0.149111	-0.560990	0.805884	-0.455018	-0.511716	0.806752	-0.443789	-0.567085	0.771439	-0.459072	-0.516829	0.770460	-0.453372	-0.584839	0.509680	-0.438512	-0.585317	0.487264	-0.319790	-0.734463	0.478172	-0.468488	-0.704550	0.436609	-0.464893	-0.775639	0.454919	-0.462366	-0.743832	0.415868	-0.466035	-0.949525	0.314134	-0.440956	-0.912067	0.280843	-0.348502	-0.971790	0.165364	-0.474490	-0.956663	0.132109	-0.365291	-0.916172	0.082564	-0.435825	-0.994804	0.352977	-0.377707	-0.589993	1.500154	-0.069200	-0.493973	1.490639	-0.417184	
49	0.2400	-0.510193	0.991788	-0.114957	-0.473408	0.992006	-0.364578	-0.680230	1.012911	-0.221579	-0.666635	1.022146	-0.305335	-0.523428	0.806720	-0.056716	-0.469474	0.817648	-0.067443	-0.508437	0.773967	-0.054868	-0.452645	0.786715	-0.068634	-0.425287	0.513029	-0.104802	-0.421434	0.498869	-0.213526	-0.464924	0.379962	-0.062654	-0.419323	0.387443	-0.082345	-0.459768	0.332948	-0.066288	-0.416186	0.340532	-0.079661	-0.431718	0.114075	-0.095985	-0.413293	0.114316	-0.191297	-0.298938	0.044995	-0.059581	-0.290178	0.044165	-0.180554	-0.237452	0.061616	-0.122310	-0.509769	0.074926	-0.148905	-0.539466	0.803941	-0.454050	-0.490254	0.805710	-0.442722	-0.544896	0.769378	-0.458180	-0.494596	0.769384	-0.452405	-0.557516	0.507652	-0.437698	-0.557329	0.485118	-0.318948	-0.707518	0.477402	-0.466848	-0.677888	0.435379	-0.463435	-0.748908	0.454508	-0.460570	-0.717436	0.415002	-0.464288	-0.924597	0.315657	-0.437889	-0.886813	0.282498	-0.345551	-0.946172	0.167542	-0.471805	-0.930436	0.134013	-0.362701	-0.889846	0.084515	-0.433619	-0.970072	0.354337	-0.374357	-0.569902	1.497819	-0.066883	-0.477942	1.488950	-0.416440	
50	0.2450	-0.489935	0.989836	-0.113699	-0.454554	0.990430	-0.363737	-0.661011	1.010154	-0.219592	-0.647947	1.019103	-0.303528	-0.503994	0.803815	-0.055948	-0.449975	0.813776	-0.067035	-0.489393	0.770884	-0.054150	-0.433599	0.783008	-0.068142	-0.409802	0.509438	-0.104930	-0.406965	0.495457	-0.213575	-0.450586	0.377146	-0.062830	-0.405096	0.383934	-0.082577	-0.446190	0.330270	-0.066578	-0.402745	0.337108	-0.080089	-0.422494	0.112440	-0.096149	-0.405041	0.112408	-0.191909	-0.290489	0.043412	-0.060186	-0.282406	0.042249	-0.181588	-0.229212	0.058765	-0.123499	-0.501443	0.073914	-0.148765	-0.517754	0.801977	-0.453042	-0.468613	0.804682	-0.441609	-0.522499	0.767315	-0.457242	-0.472166	0.768342	-0.451387	-0.529839	0.505768	-0.436790	-0.529017	0.483181	-0.318003	-0.680042	0.476408	-0.465223	-0.650612	0.434016	-0.461910	-0.721579	0.453778	-0.458808	-0.690353	0.413912	-0.462504	-0.898640	0.316410	-0.434861	-0.860557	0.283595	-0.342588	-0.919036	0.168958	-0.469026	-0.902714	0.135344	-0.359936	-0.861839	0.086155	-0.431139	-0.944492	0.354796	-0.371138	-0.549610	1.495447	-0.064592	-0.461865	1.487201	-0.415744	
51	0.2500	-0.469514	0.987890	-0.112464	-0.435612	0.988795	-0.362944	-0.641675	1.007418	-0.217562	-0.629171	1.016012	-0.301690	-0.484446	0.801004	-0.055202	-0.430380	0.810002	-0.066665	-0.470256	0.767906	-0.053469	-0.414472	0.779392	-0.067690	-0.394428	0.505903	-0.105028	-0.392640	0.492125	-0.213601	-0.436690	0.374504	-0.063013	-0.391309	0.380472	-0.082807	-0.433191	0.327776	-0.066883	-0.389887	0.333737	-0.080527	-0.414529	0.111002	-0.096358	-0.398049	0.110687	-0.192549	-0.283409	0.041926	-0.060782	-0.275961	0.040412	-0.182616	-0.222328	0.056017	-0.124673	-0.494416	0.073180	-0.148669	-0.495873	0.800037	-0.451995	-0.446810	0.803708	-0.440457	-0.499914	0.765295	-0.456257	-0.449560	0.767375	-0.450320	-0.501847	0.504074	-0.435781	-0.500417	0.481503	-0.316949	-0.652066	0.475216	-0.463612	-0.622750	0.432555	-0.460318	-0.693685	0.452752	-0.457078	-0.662608	0.412629	-0.460684	-0.871661	0.316397	-0.431881	-0.833306	0.284131	-0.339623	-0.890407	0.169610	-0.466164	-0.873525	0.136097	-0.357016	-0.832186	0.087460	-0.428406	-0.918063	0.354361	-0.368051	-0.529119	1.493081	-0.062339	-0.445736	1.485436	-0.415087	
52	0.2550	-0.448940	0.985988	-0.111261	-0.416590	0.987141	-0.362203	-0.622220	1.004750	-0.215500	-0.610307	1.012928	-0.299827	-0.464807	0.798328	-0.054477	-0.410714	0.806372	-0.066327	-0.451051	0.765074	-0.052827	-0.395287	0.775907	-0.067275	-0.379196	0.502470	-0.105084	-0.378479	0.488912	-0.213594	-0.423237	0.372072	-0.063188	-0.377966	0.377104	-0.083019	-0.420759	0.325500	-0.067184	-0.377600	0.330467	-0.080953	-0.407725	0.109782	-0.096587	-0.392201	0.109184	-0.193187	-0.277594	0.040550	-0.061348	-0.270734	0.038678	-0.183613	-0.216699	0.053410	-0.125807	-0.488570	0.072748	-0.148596	-0.473850	0.798165	-0.450914	-0.424872	0.802827	-0.439272	-0.477172	0.763363	-0.455225	-0.426808	0.766522	-0.449209	-0.473586	0.502614	-0.434668	-0.471573	0.480126	-0.315782	-0.623635	0.473856	-0.462013	-0.594343	0.431030	-0.458655	-0.665269	0.451457	-0.455377	-0.634241	0.411183	-0.458826	-0.843687	0.315628	-0.428952	-0.805082	0.284107	-0.336664	-0.860330	0.169513	-0.463234	-0.842915	0.136274	-0.353961	-0.800945	0.088415	-0.425445	-0.890794	0.353043	-0.365097	-0.508436	1.490766	-0.060135	-0.429553	1.483695	-0.414459	
53	0.2600	-0.428234	0.984163	-0.110095	-0.397504	0.985503	-0.361516	-0.602658	1.002197	-0.213419	-0.591361	1.009904	-0.297948	-0.445109	0.795823	-0.053773	-0.391008	0.802923	-0.066017	-0.431810	0.762423	-0.052220	-0.376077	0.772585	-0.066895	-0.364138	0.499178	-0.105087	-0.364505	0.485853	-0.213545	-0.410235	0.369881	-0.063335	-0.365072	0.373877	-0.083197	-0.408881	0.323473	-0.067463	-0.365872	0.327346	-0.081346	-0.401974	0.108803	-0.096813	-0.387378	0.107925	-0.193790	-0.272935	0.039294	-0.061869	-0.266609	0.037068	-0.184558	-0.212220	0.050976	-0.126881	-0.483782	0.072637	-0.148522	-0.451718	0.796402	-0.449802	-0.402832	0.802076	-0.438059	-0.454307	0.761560	-0.454150	-0.403946	0.765820	-0.448059	-0.445110	0.501423	-0.433448	-0.442540	0.479088	-0.314500	-0.594805	0.472357	-0.460421	-0.565445	0.429473	-0.456923	-0.636385	0.449922	-0.453701	-0.605305	0.409605	-0.456931	-0.814760	0.314127	-0.426079	-0.775926	0.283533	-0.333719	-0.828874	0.168692	-0.460251	-0.810953	0.135888	-0.350796	-0.768196	0.089014	-0.422286	-0.862715	0.350867	-0.362273	-0.487579	1.488543	-0.057992	-0.413322	1.482020	-0.413854	
54	0.2650	-0.407426	0.982447	-0.108973	-0.378377	0.983919	-0.360884	-0.583007	0.999802	-0.211331	-0.572348	1.006992	-0.296063	-0.425393	0.793520	-0.053090	-0.371304	0.799690	-0.065730	-0.412576	0.759984	-0.051647	-0.356882	0.769455	-0.066545	-0.349292	0.496064	-0.105028	-0.350748	0.482979	-0.213445	-0.397688	0.367958	-0.063440	-0.352636	0.370835	-0.083325	-0.397545	0.321721	-0.067701	-0.354690	0.324419	-0.081685	-0.397165	0.108086	-0.097013	-0.383454	0.106939	-0.194331	-0.269319	0.038165	-0.062328	-0.263470	0.035600	-0.185432	-0.208780	0.048741	-0.127876	-0.479924	0.072866	-0.148430	-0.429520	0.794788	-0.448664	-0.380733	0.801490	-0.436827	-0.431364	0.759924	-0.453033	-0.381020	0.765302	-0.446874	-0.416486	0.500535	-0.432120	-0.413382	0.478418	-0.313103	-0.565643	0.470749	-0.458833	-0.536124	0.427918	-0.455120	-0.607104	0.448178	-0.452047	-0.575868	0.407928	-0.454999	-0.784943	0.311924	-0.423262	-0.745900	0.282427	-0.330794	-0.796129	0.167187	-0.457232	-0.777729	0.134963	-0.347545	-0.734046	0.089260	-0.418962	-0.833870	0.347864	-0.359572	-0.466573	1.486449	-0.055919	-0.397058	1.480447	-0.413265	
55	0.2700	-0.386555	0.980869	-0.107901	-0.359241	0.982423	-0.360308	-0.563296	0.997601	-0.209250	-0.553295	1.004240	-0.294181	-0.405707	0.791445	-0.052427	-0.351650	0.796700	-0.065460	-0.393395	0.757782	-0.051104	-0.337748	0.766541	-0.066220	-0.334702	0.493159	-0.104896	-0.337237	0.480316	-0.213285	-0.385603	0.366326	-0.063487	-0.340664	0.368016	-0.083388	-0.386740	0.320268	-0.067883	-0.344042	0.321725	-0.081952	-0.393183	0.107644	-0.097166	-0.380303	0.106245	-0.194782	-0.266629	0.037168	-0.062716	-0.261199	0.034287	-0.186219	-0.206266	0.046725	-0.128777	-0.476868	0.073451	-0.148299	-0.407307	0.793356	-0.447505	-0.358624	0.801097	-0.435581	-0.408398	0.758489	-0.451878	-0.358084	0.764996	-0.445661	-0.387790	0.499972	-0.430687	-0.384175	0.478139	-0.311596	-0.536233	0.469061	-0.457241	-0.506466	0.426394	-0.453250	-0.577509	0.446256	-0.450409	-0.546016	0.406185	-0.453032	-0.754324	0.309060	-0.420504	-0.715085	0.280811	-0.327896	-0.762215	0.165044	-0.454192	-0.743359	0.133530	-0.344236	-0.698627	0.089165	-0.415508	-0.804325	0.344077	-0.356986	-0.445454	1.484521	-0.053930	-0.380782	1.479012	-0.412686	
56	0.2750	-0.365673	0.979453	-0.106882	-0.340137	0.981047	-0.359786	-0.543563	0.995628	-0.207190	-0.534236	1.001689	-0.292313	-0.386107	0.789617	-0.051781	-0.332102	0.793973	-0.065201	-0.374323	0.755836	-0.050588	-0.318731	0.763860	-0.065916	-0.320411	0.490490	-0.104686	-0.324006	0.477886	-0.213060	-0.373988	0.365000	-0.063465	-0.329164	0.365453	-0.083376	-0.376452	0.319129	-0.067994	-0.333918	0.319298	-0.082131	-0.389914	0.107491	-0.097255	-0.377801	0.105861	-0.195123	-0.264749	0.036302	-0.063024	-0.259678	0.033141	-0.186908	-0.204566	0.044944	-0.129574	-0.474486	0.074404	-0.148116	-0.385138	0.792136	-0.446331	-0.336566	0.800922	-0.434329	-0.385472	0.757284	-0.450691	-0.335200	0.764925	-0.444425	-0.359112	0.499752	-0.429152	-0.355006	0.478263	-0.309982	-0.506671	0.467325	-0.455643	-0.476569	0.424932	-0.451317	-0.547697	0.444191	-0.448781	-0.515851	0.404407	-0.451032	-0.723008	0.305586	-0.417806	-0.683587	0.278718	-0.325033	-0.727273	0.162323	-0.451150	-0.707983	0.131628	-0.340895	-0.662099	0.088749	-0.411963	-0.774169	0.339559	-0.354508	-0.424272	1.482789	-0.052032	-0.364527	1.477744	-0.412114	
57	0.2800	-0.344840	0.978220	-0.105921	-0.321117	0.979819	-0.359318	-0.523858	0.993908	-0.205163	-0.515216	0.999377	-0.290470	-0.366658	0.788051	-0.051153	-0.312721	0.791523	-0.064948	-0.355424	0.754158	-0.050094	-0.299892	0.761425	-0.065626	-0.306464	0.488077	-0.104393	-0.311092	0.475705	-0.212763	-0.362851	0.363991	-0.063363	-0.318145	0.363174	-0.083278	-0.366671	0.318315	-0.068023	-0.324304	0.317167	-0.082209	-0.387246	0.107632	-0.097266	-0.375828	0.105796	-0.195335	-0.263566	0.035566	-0.063248	-0.258793	0.032167	-0.187492	-0.203565	0.043404	-0.130261	-0.472655	0.075730	-0.147866	-0.363082	0.791152	-0.445149	-0.314626	0.800983	-0.433079	-0.362658	0.756332	-0.449478	-0.312441	0.765104	-0.443174	-0.330553	0.499883	-0.427523	-0.325976	0.478794	-0.308270	-0.477068	0.465568	-0.454034	-0.446549	0.423555	-0.449327	-0.517785	0.442016	-0.447160	-0.485493	0.402624	-0.449004	-0.691128	0.301560	-0.415169	-0.651532	0.276184	-0.322211	-0.691475	0.159090	-0.448124	-0.671767	0.129304	-0.337550	-0.624650	0.088039	-0.408365	-0.743511	0.334370	-0.352128	-0.403084	1.481278	-0.050237	-0.348333	1.476667	-0.411545	
58	0.2850	-0.324130	0.977185	-0.105020	-0.302240	0.978762	-0.358901	-0.504243	0.992462	-0.203186	-0.496290	0.997334	-0.288662	-0.347431	0.786753	-0.050542	-0.293579	0.789359	-0.064694	-0.336766	0.752754	-0.049619	-0.281297	0.759244	-0.065344	-0.292910	0.485937	-0.104011	-0.298532	0.473783	-0.212393	-0.352199	0.363303	-0.063175	-0.307615	0.361198	-0.083087	-0.357386	0.317829	-0.067962	-0.315191	0.315353	-0.082177	-0.385073	0.108067	-0.097188	-0.374270	0.106055	-0.195406	-0.262967	0.034955	-0.063385	-0.258435	0.031366	-0.187967	-0.203155	0.042107	-0.130834	-0.471257	0.077427	-0.147542	-0.341219	0.790421	-0.443965	-0.292882	0.801291	-0.431838	-0.340038	0.755646	-0.448245	-0.289888	0.765544	-0.441913	-0.302224	0.500365	-0.425810	-0.297196	0.479725	-0.306471	-0.447550	0.463817	-0.452409	-0.416539	0.422288	-0.447288	-0.487899	0.439765	-0.445540	-0.455077	0.400865	-0.446954	-0.658834	0.297046	-0.412593	-0.619072	0.273254	-0.319439	-0.655015	0.155417	-0.445133	-0.634903	0.126611	-0.334229	-0.586492	0.087068	-0.404753	-0.712483	0.328580	-0.349837	-0.381962	1.480007	-0.048551	-0.332248	1.475800	-0.410979	
59	0.2900	-0.303622	0.976358	-0.104180	-0.283575	0.977896	-0.358532	-0.484788	0.991300	-0.201269	-0.477524	0.995582	-0.286901	-0.328502	0.785725	-0.049944	-0.274748	0.787482	-0.064435	-0.318422	0.751626	-0.049158	-0.263021	0.757319	-0.065067	-0.279796	0.484077	-0.103542	-0.286363	0.472125	-0.211947	-0.342042	0.362934	-0.062896	-0.297583	0.359539	-0.082800	-0.348589	0.317668	-0.067807	-0.306569	0.313868	-0.082027	-0.383293	0.108791	-0.097013	-0.373021	0.106634	-0.195328	-0.262848	0.034461	-0.063439	-0.258499	0.030738	-0.188331	-0.203229	0.041047	-0.131294	-0.470185	0.079486	-0.147138	-0.319632	0.789953	-0.442788	-0.271420	0.801850	-0.430612	-0.317701	0.755237	-0.447002	-0.267630	0.766245	-0.440650	-0.274247	0.501190	-0.424025	-0.268788	0.481041	-0.304599	-0.418253	0.462098	-0.450769	-0.386681	0.421146	-0.445210	-0.458182	0.437471	-0.443920	-0.424753	0.399157	-0.444888	-0.626302	0.292117	-0.410083	-0.586375	0.269977	-0.316724	-0.618112	0.151382	-0.442194	-0.597607	0.123605	-0.330958	-0.547860	0.085874	-0.401165	-0.681239	0.322269	-0.347628	-0.360989	1.478988	-0.046983	-0.316329	1.475155	-0.410415	
60	0.2950	-0.283407	0.975745	-0.103403	-0.265198	0.977232	-0.358207	-0.465573	0.990429	-0.199426	-0.458993	0.994136	-0.285196	-0.309953	0.784962	-0.049361	-0.256309	0.785888	-0.064167	-0.300472	0.750768	-0.048709	-0.245139	0.755648	-0.064787	-0.267167	0.482502	-0.102986	-0.274624	0.470732	-0.211428	-0.332388	0.362875	-0.062525	-0.288057	0.358203	-0.082416	-0.340271	0.317822	-0.067554	-0.298428	0.312719	-0.081759	-0.381814	0.109790	-0.096740	-0.371988	0.107521	-0.195099	-0.263108	0.034075	-0.063411	-0.258890	0.030274	-0.188589	-0.203690	0.040216	-0.131645	-0.469342	0.081889	-0.146651	-0.298415	0.789752	-0.441624	-0.250331	0.802658	-0.429410	-0.295745	0.755105	-0.445755	-0.245763	0.767202	-0.439393	-0.246754	0.502342	-0.422183	-0.240882	0.482718	-0.302669	-0.389325	0.460434	-0.449112	-0.357134	0.420146	-0.443106	-0.428787	0.435166	-0.442299	-0.394686	0.397523	-0.442816	-0.593722	0.286848	-0.407640	-0.553632	0.266408	-0.314076	-0.581007	0.147064	-0.439325	-0.560114	0.120349	-0.327762	-0.509013	0.084497	-0.397638	-0.649951	0.315520	-0.345494	-0.340255	1.478229	-0.045538	-0.300642	1.474739	-0.409854	
61	0.3000	-0.263582	0.975346	-0.102690	-0.247191	0.976778	-0.357922	-0.446687	0.989847	-0.197668	-0.440779	0.993003	-0.283558	-0.291869	0.784453	-0.048792	-0.238344	0.784567	-0.063887	-0.282995	0.750169	-0.048269	-0.227732	0.754223	-0.064502	-0.255068	0.481209	-0.102348	-0.263353	0.469599	-0.210838	-0.323246	0.363109	-0.062064	-0.279045	0.357189	-0.081936	-0.332427	0.318275	-0.067206	-0.290761	0.311904	-0.081374	-0.380555	0.111047	-0.096368	-0.371087	0.108697	-0.194722	-0.263656	0.033786	-0.063309	-0.259521	0.029966	-0.188744	-0.204444	0.039600	-0.131893	-0.468641	0.084611	-0.146084	-0.277666	0.789812	-0.440482	-0.229713	0.803704	-0.428238	-0.274272	0.755244	-0.444514	-0.224388	0.768402	-0.438151	-0.219880	0.503797	-0.420300	-0.213614	0.484725	-0.300699	-0.360923	0.458844	-0.447441	-0.328063	0.419296	-0.440989	-0.399876	0.432881	-0.440676	-0.365047	0.395982	-0.440749	-0.561302	0.281320	-0.405268	-0.521049	0.262602	-0.311504	-0.543955	0.142544	-0.436544	-0.522679	0.116903	-0.324665	-0.470224	0.082981	-0.394206	-0.618806	0.308426	-0.343430	-0.319862	1.477727	-0.044219	-0.285257	1.474551	-0.409297	
62	0.3050	-0.244247	0.975153	-0.102038	-0.229641	0.976534	-0.357672	-0.428223	0.989543	-0.196004	-0.422971	0.992180	-0.281995	-0.274338	0.784183	-0.048237	-0.220938	0.783508	-0.063592	-0.266074	0.749813	-0.047835	-0.210880	0.753036	-0.064208	-0.243540	0.480190	-0.101635	-0.252584	0.468717	-0.210183	-0.314622	0.363617	-0.061519	-0.270554	0.356487	-0.081367	-0.325049	0.319004	-0.066767	-0.283562	0.311411	-0.080876	-0.379445	0.112536	-0.095903	-0.370250	0.110138	-0.194205	-0.264409	0.033583	-0.063141	-0.260313	0.029801	-0.188806	-0.205409	0.039178	-0.132046	-0.468010	0.087616	-0.145441	-0.257487	0.790125	-0.439368	-0.209666	0.804971	-0.427102	-0.253389	0.755641	-0.443290	-0.203610	0.769827	-0.436930	-0.193765	0.505523	-0.418394	-0.187125	0.487021	-0.298707	-0.333208	0.457345	-0.445760	-0.299638	0.418603	-0.438876	-0.371616	0.430642	-0.439056	-0.336017	0.394551	-0.438699	-0.529260	0.275613	-0.402974	-0.488841	0.258622	-0.309017	-0.507227	0.137902	-0.433866	-0.485568	0.113332	-0.321690	-0.431779	0.081369	-0.390901	-0.588008	0.301082	-0.341434	-0.299917	1.477477	-0.043029	-0.270248	1.474586	-0.408747	
63	0.3100	-0.225506	0.975156	-0.101448	-0.212639	0.976496	-0.357454	-0.410282	0.989504	-0.194442	-0.405662	0.991660	-0.280515	-0.257446	0.784134	-0.047695	-0.204174	0.782691	-0.063282	-0.249791	0.749681	-0.047407	-0.194664	0.752072	-0.063903	-0.232623	0.479432	-0.100855	-0.242353	0.468070	-0.209471	-0.306524	0.364371	-0.060897	-0.262589	0.356082	-0.080715	-0.318134	0.319981	-0.066245	-0.276822	0.311224	-0.080276	-0.378425	0.114229	-0.095351	-0.369421	0.111810	-0.193558	-0.265295	0.033454	-0.062916	-0.261198	0.029765	-0.188783	-0.206511	0.038932	-0.132114	-0.467393	0.090864	-0.144731	-0.237981	0.790671	-0.438292	-0.190294	0.806436	-0.426010	-0.233202	0.756277	-0.442090	-0.183536	0.771450	-0.435739	-0.168550	0.507485	-0.416485	-0.161555	0.489562	-0.296715	-0.306341	0.455952	-0.444075	-0.272034	0.418065	-0.436782	-0.344177	0.428476	-0.437443	-0.307778	0.393243	-0.436679	-0.497822	0.269810	-0.400763	-0.457235	0.254527	-0.306626	-0.471099	0.133216	-0.431306	-0.449057	0.109698	-0.318854	-0.393971	0.079704	-0.387750	-0.557767	0.293586	-0.339505	-0.280529	1.477466	-0.041968	-0.255695	1.474830	-0.408206	
64	0.3150	-0.207463	0.975340	-0.100916	-0.196274	0.976651	-0.357262	-0.392962	0.989707	-0.192989	-0.388948	0.991424	-0.279125	-0.241276	0.784280	-0.047169	-0.188134	0.782096	-0.062958	-0.234224	0.749749	-0.046983	-0.179161	0.751314	-0.063586	-0.222349	0.478918	-0.100019	-0.232689	0.467642	-0.208711	-0.298958	0.365340	-0.060209	-0.255155	0.355954	-0.079993	-0.311677	0.321172	-0.065650	-0.270539	0.311320	-0.079584	-0.377449	0.116090	-0.094724	-0.368558	0.113679	-0.192799	-0.266251	0.033387	-0.062645	-0.262119	0.029842	-0.188688	-0.207683	0.038838	-0.132109	-0.466743	0.094307	-0.143963	-0.219249	0.791429	-0.437259	-0.171697	0.808072	-0.424967	-0.213819	0.757127	-0.440925	-0.164270	0.773240	-0.434586	-0.144371	0.509639	-0.414592	-0.137041	0.492296	-0.294743	-0.280483	0.454674	-0.442395	-0.245422	0.417680	-0.434724	-0.317726	0.426403	-0.435843	-0.280511	0.392066	-0.434704	-0.467216	0.263992	-0.398641	-0.426456	0.250380	-0.304341	-0.435849	0.128559	-0.428877	-0.413423	0.106060	-0.316176	-0.357092	0.078025	-0.384777	-0.528296	0.286036	-0.337645	-0.261812	1.477674	-0.041033	-0.241676	1.475267	-0.407679	
65	0.3200	-0.190219	0.975685	-0.100442	-0.180634	0.976985	-0.357092	-0.376362	0.990127	-0.191649	-0.372922	0.991449	-0.277830	-0.225909	0.784598	-0.046660	-0.172895	0.781700	-0.062619	-0.219447	0.749992	-0.046565	-0.164446	0.750743	-0.063257	-0.212746	0.478626	-0.099140	-0.223621	0.467413	-0.207914	-0.291928	0.366491	-0.059467	-0.248255	0.356074	-0.079213	-0.305677	0.322542	-0.064994	-0.264705	0.311668	-0.078815	-0.376481	0.118083	-0.094034	-0.367634	0.115702	-0.191945	-0.267224	0.033368	-0.062338	-0.263030	0.030012	-0.188532	-0.208873	0.038873	-0.132043	-0.466031	0.097893	-0.143151	-0.201390	0.792370	-0.436276	-0.153972	0.809844	-0.423978	-0.195341	0.758161	-0.439804	-0.145913	0.775162	-0.433478	-0.121360	0.511942	-0.412735	-0.113715	0.495170	-0.292811	-0.255787	0.453517	-0.440731	-0.219965	0.417441	-0.432721	-0.292426	0.424444	-0.434266	-0.254389	0.391026	-0.432787	-0.437664	0.258236	-0.396616	-0.396729	0.246240	-0.302170	-0.401749	0.123998	-0.426592	-0.378938	0.102474	-0.313668	-0.321430	0.076371	-0.382000	-0.499809	0.278530	-0.335857	-0.243874	1.478079	-0.040223	-0.228268	1.475874	-0.407168	
66	0.3250	-0.173868	0.976170	-0.100022	-0.165803	0.977477	-0.356941	-0.360578	0.990733	-0.190424	-0.357676	0.991708	-0.276633	-0.211417	0.785059	-0.046169	-0.158527	0.781478	-0.062270	-0.205527	0.750381	-0.046154	-0.150584	0.750339	-0.062917	-0.203838	0.478531	-0.098232	-0.215171	0.467358	-0.207094	-0.285435	0.367786	-0.058686	-0.241888	0.356413	-0.078389	-0.300128	0.324052	-0.064292	-0.259317	0.312236	-0.077986	-0.375498	0.120168	-0.093297	-0.366632	0.117835	-0.191017	-0.268173	0.033388	-0.062006	-0.263892	0.030259	-0.188328	-0.210036	0.039011	-0.131927	-0.465238	0.101564	-0.142309	-0.184495	0.793463	-0.435348	-0.137209	0.811717	-0.423048	-0.177863	0.759346	-0.438735	-0.128557	0.777180	-0.432424	-0.099636	0.514344	-0.410933	-0.091695	0.498130	-0.290939	-0.232395	0.452487	-0.439094	-0.195818	0.417336	-0.430789	-0.268425	0.422613	-0.432721	-0.229575	0.390123	-0.430943	-0.409380	0.252616	-0.394697	-0.368268	0.242165	-0.300124	-0.369060	0.119594	-0.424459	-0.345865	0.098992	-0.311342	-0.287254	0.074773	-0.379435	-0.472510	0.271163	-0.334147	-0.226822	1.478654	-0.039531	-0.215544	1.476626	-0.406679	
67	0.3300	-0.158497	0.976769	-0.099652	-0.151856	0.978103	-0.356805	-0.345695	0.991491	-0.189316	-0.343294	0.992167	-0.275538	-0.197864	0.785633	-0.045699	-0.145094	0.781405	-0.061914	-0.192524	0.750889	-0.045751	-0.137634	0.750082	-0.062571	-0.195638	0.478608	-0.097310	-0.207356	0.467453	-0.206261	-0.279479	0.369187	-0.057880	-0.236054	0.356937	-0.077537	-0.295027	0.325660	-0.063558	-0.254369	0.312987	-0.077114	-0.374488	0.122303	-0.092528	-0.365550	0.120035	-0.190039	-0.269064	0.033436	-0.061659	-0.264680	0.030564	-0.188089	-0.211136	0.039229	-0.131774	-0.464359	0.105262	-0.141451	-0.168647	0.794673	-0.434482	-0.121490	0.813654	-0.422181	-0.161471	0.760646	-0.437725	-0.112287	0.779252	-0.431428	-0.079303	0.516799	-0.409205	-0.071089	0.501120	-0.289145	-0.210433	0.451582	-0.437497	-0.173117	0.417352	-0.428944	-0.245858	0.420921	-0.431220	-0.206215	0.389355	-0.429186	-0.382562	0.247199	-0.392890	-0.341271	0.238209	-0.298211	-0.338021	0.115402	-0.422486	-0.314444	0.095659	-0.309205	-0.254818	0.073260	-0.377092	-0.446590	0.264022	-0.332519	-0.210750	1.479368	-0.038950	-0.203572	1.477494	-0.406213	
68	0.3350	-0.144178	0.977456	-0.099330	-0.138861	0.978836	-0.356681	-0.331792	0.992367	-0.188324	-0.329851	0.992791	-0.274546	-0.185304	0.786293	-0.045252	-0.132646	0.781454	-0.061554	-0.180486	0.751486	-0.045360	-0.125645	0.749947	-0.062220	-0.188155	0.478827	-0.096390	-0.200188	0.467673	-0.205431	-0.274056	0.370655	-0.057064	-0.230746	0.357609	-0.076673	-0.290369	0.327326	-0.062807	-0.249854	0.313880	-0.076219	-0.373448	0.124449	-0.091744	-0.364393	0.122256	-0.189033	-0.269875	0.033503	-0.061308	-0.265375	0.030909	-0.187826	-0.212148	0.039506	-0.131595	-0.463397	0.108930	-0.140594	-0.153915	0.795965	-0.433680	-0.106882	0.815614	-0.421380	-0.146237	0.762025	-0.436782	-0.097173	0.781339	-0.430497	-0.060451	0.519258	-0.407567	-0.051983	0.504086	-0.287447	-0.190009	0.450800	-0.435955	-0.151979	0.417471	-0.427201	-0.224843	0.419377	-0.429774	-0.184436	0.388716	-0.427528	-0.357384	0.242045	-0.391202	-0.315917	0.234420	-0.296437	-0.308847	0.111464	-0.420679	-0.284894	0.092514	-0.307262	-0.224342	0.071852	-0.374975	-0.422223	0.257187	-0.330982	-0.195745	1.480190	-0.038473	-0.192409	1.478448	-0.405775	
69	0.3400	-0.130973	0.978204	-0.099052	-0.126870	0.979649	-0.356568	-0.318933	0.993327	-0.187445	-0.317409	0.993541	-0.273655	-0.173777	0.787009	-0.044831	-0.121221	0.781600	-0.061195	-0.169448	0.752144	-0.044984	-0.114651	0.749915	-0.061869	-0.181389	0.479161	-0.095485	-0.193672	0.467990	-0.204616	-0.269159	0.372153	-0.056255	-0.225956	0.358392	-0.075814	-0.286149	0.329011	-0.062056	-0.245764	0.314878	-0.075319	-0.372383	0.126565	-0.090961	-0.363176	0.124455	-0.188022	-0.270589	0.033580	-0.060962	-0.265966	0.031279	-0.187550	-0.213055	0.039820	-0.131400	-0.462364	0.112511	-0.139751	-0.140355	0.797303	-0.432946	-0.093442	0.817562	-0.420647	-0.132218	0.763444	-0.435910	-0.083271	0.783403	-0.429636	-0.043145	0.521676	-0.406032	-0.034445	0.506978	-0.285858	-0.171209	0.450137	-0.434480	-0.132499	0.417677	-0.425573	-0.205471	0.417985	-0.428396	-0.164341	0.388199	-0.425981	-0.333997	0.237205	-0.389641	-0.292355	0.230840	-0.294809	-0.281720	0.107817	-0.419039	-0.257399	0.089588	-0.305513	-0.196017	0.070568	-0.373086	-0.399554	0.250731	-0.329541	-0.181875	1.481087	-0.038090	-0.182105	1.479457	-0.405367	
70	0.3450	-0.118925	0.978989	-0.098815	-0.115924	0.980512	-0.356462	-0.307166	0.994334	-0.186675	-0.306016	0.994381	-0.272865	-0.163307	0.787754	-0.044437	-0.110846	0.781819	-0.060844	-0.159433	0.752836	-0.044625	-0.104676	0.749964	-0.061522	-0.175332	0.479579	-0.094610	-0.187806	0.468381	-0.203828	-0.264776	0.373645	-0.055466	-0.221673	0.359251	-0.074974	-0.282356	0.330678	-0.061319	-0.242092	0.315940	-0.074432	-0.371302	0.128616	-0.090193	-0.361919	0.126592	-0.187027	-0.271201	0.033662	-0.060629	-0.266450	0.031659	-0.187272	-0.213847	0.040153	-0.131200	-0.461280	0.115953	-0.138938	-0.128005	0.798653	-0.432281	-0.081206	0.819460	-0.419984	-0.119454	0.764868	-0.435114	-0.070618	0.785406	-0.428848	-0.027430	0.524012	-0.404614	-0.018520	0.509751	-0.284391	-0.154093	0.449584	-0.433087	-0.114745	0.417950	-0.424070	-0.187809	0.416747	-0.427096	-0.146003	0.387792	-0.424553	-0.312518	0.232720	-0.388210	-0.270706	0.227505	-0.293328	-0.256784	0.104486	-0.417568	-0.232108	0.086905	-0.303957	-0.169992	0.069418	-0.371421	-0.378704	0.244714	-0.328205	-0.169194	1.482029	-0.037792	-0.172694	1.480493	-0.404993	
71	0.3500	-0.108060	0.979784	-0.098614	-0.106046	0.981398	-0.356364	-0.296525	0.995357	-0.186008	-0.295706	0.995274	-0.272171	-0.153907	0.788505	-0.044073	-0.101530	0.782088	-0.060504	-0.150448	0.753539	-0.044286	-0.095726	0.750075	-0.061186	-0.169969	0.480055	-0.093779	-0.182582	0.468819	-0.203080	-0.260893	0.375098	-0.054711	-0.217880	0.360151	-0.074168	-0.278979	0.332292	-0.060610	-0.238823	0.317029	-0.073575	-0.370223	0.130569	-0.089456	-0.360646	0.128631	-0.186067	-0.271707	0.033743	-0.060315	-0.266830	0.032035	-0.187000	-0.214520	0.040490	-0.131000	-0.460167	0.119209	-0.138167	-0.116886	0.799981	-0.431686	-0.070193	0.821277	-0.419390	-0.107966	0.766265	-0.434395	-0.059236	0.787317	-0.428136	-0.013326	0.526229	-0.403320	-0.004227	0.512365	-0.283055	-0.138692	0.449134	-0.431786	-0.098754	0.418272	-0.422701	-0.171895	0.415659	-0.425885	-0.129468	0.387485	-0.423252	-0.293029	0.228623	-0.386913	-0.251055	0.224442	-0.291998	-0.234142	0.101488	-0.416263	-0.209127	0.084482	-0.302589	-0.146371	0.068407	-0.369972	-0.359757	0.239182	-0.326977	-0.157735	1.482985	-0.037567	-0.164198	1.481526	-0.404652	
72	0.3550	-0.098385	0.980567	-0.098445	-0.097243	0.982280	-0.356273	-0.287021	0.996366	-0.185439	-0.286492	0.996185	-0.271571	-0.145571	0.789240	-0.043741	-0.093268	0.782388	-0.060180	-0.142487	0.754230	-0.043971	-0.087795	0.750228	-0.060864	-0.165276	0.480563	-0.093001	-0.177983	0.469283	-0.202381	-0.257491	0.376484	-0.054002	-0.214559	0.361059	-0.073409	-0.276006	0.333823	-0.059940	-0.235945	0.318113	-0.072763	-0.369162	0.132396	-0.088761	-0.359384	0.130540	-0.185161	-0.272112	0.033819	-0.060024	-0.267113	0.032397	-0.186742	-0.215078	0.040817	-0.130809	-0.459052	0.122238	-0.137448	-0.107000	0.801259	-0.431160	-0.060405	0.822985	-0.418865	-0.097756	0.767605	-0.433756	-0.049122	0.789106	-0.427499	-0.000827	0.528296	-0.402156	0.008441	0.514787	-0.281854	-0.125011	0.448774	-0.430588	-0.084535	0.418624	-0.421470	-0.157740	0.414718	-0.424772	-0.114749	0.387263	-0.422082	-0.275576	0.224933	-0.385753	-0.233448	0.221672	-0.290817	-0.213853	0.098829	-0.415120	-0.188519	0.082326	-0.301402	-0.125213	0.067536	-0.368730	-0.342764	0.234171	-0.325864	-0.147511	1.483927	-0.037405	-0.156625	1.482531	-0.404348	
73	0.3600	-0.089886	0.981318	-0.098306	-0.089504	0.983134	-0.356189	-0.278650	0.997334	-0.184959	-0.278369	0.997084	-0.271058	-0.138278	0.789938	-0.043442	-0.086039	0.782700	-0.059878	-0.135527	0.754891	-0.043683	-0.080861	0.750408	-0.060562	-0.161222	0.481081	-0.092287	-0.173985	0.469752	-0.201738	-0.254546	0.377778	-0.053347	-0.211685	0.361947	-0.072707	-0.273419	0.335247	-0.059320	-0.233440	0.319159	-0.072008	-0.368139	0.134073	-0.088120	-0.358161	0.132295	-0.184321	-0.272424	0.033888	-0.059762	-0.267309	0.032735	-0.186503	-0.215528	0.041125	-0.130631	-0.457960	0.125008	-0.136790	-0.098328	0.802462	-0.430703	-0.051824	0.824559	-0.418407	-0.088803	0.768862	-0.433195	-0.040259	0.790751	-0.426939	0.010099	0.530187	-0.401125	0.019515	0.516991	-0.280792	-0.113024	0.448495	-0.429500	-0.072066	0.418990	-0.420380	-0.145322	0.413915	-0.423764	-0.101828	0.387113	-0.421045	-0.260166	0.221662	-0.384727	-0.217896	0.219205	-0.289783	-0.195929	0.096509	-0.414132	-0.170300	0.080440	-0.300386	-0.106531	0.066800	-0.367681	-0.327736	0.229700	-0.324868	-0.138515	1.484832	-0.037296	-0.149966	1.483486	-0.404079	
74	0.3650	-0.082531	0.982020	-0.098192	-0.082802	0.983941	-0.356111	-0.271387	0.998239	-0.184561	-0.271317	0.997943	-0.270626	-0.131990	0.790587	-0.043177	-0.079805	0.783008	-0.059600	-0.129531	0.755506	-0.043422	-0.074887	0.750601	-0.060282	-0.157770	0.481587	-0.091643	-0.170559	0.470209	-0.201159	-0.252032	0.378961	-0.052755	-0.209231	0.362790	-0.072070	-0.271197	0.336544	-0.058757	-0.231289	0.320144	-0.071321	-0.367173	0.135585	-0.087538	-0.357002	0.133877	-0.183560	-0.272654	0.033948	-0.059530	-0.267431	0.033044	-0.186287	-0.215878	0.041406	-0.130470	-0.456916	0.127496	-0.136199	-0.090835	0.803568	-0.430310	-0.044411	0.825983	-0.418014	-0.081070	0.770016	-0.432710	-0.032605	0.792235	-0.426453	0.019507	0.531886	-0.400228	0.029052	0.518961	-0.279867	-0.102681	0.448285	-0.428530	-0.061298	0.419353	-0.419430	-0.134591	0.413242	-0.422865	-0.090658	0.387022	-0.420140	-0.246767	0.218810	-0.383834	-0.204367	0.217045	-0.288891	-0.180338	0.094518	-0.413291	-0.154439	0.078817	-0.299529	-0.090287	0.066193	-0.366809	-0.314649	0.225778	-0.323989	-0.130718	1.485678	-0.037228	-0.144197	1.484371	-0.403845	
75	0.3700	-0.076271	0.982660	-0.098101	-0.077092	0.984683	-0.356040	-0.265188	0.999065	-0.184236	-0.265293	0.998742	-0.270268	-0.126657	0.791174	-0.042945	-0.074517	0.783302	-0.059350	-0.124449	0.756065	-0.043192	-0.069822	0.750794	-0.060030	-0.154875	0.482066	-0.091074	-0.167668	0.470640	-0.200647	-0.249917	0.380020	-0.052231	-0.207168	0.363569	-0.071504	-0.269317	0.337701	-0.058256	-0.229469	0.321046	-0.070708	-0.366280	0.136921	-0.087022	-0.355928	0.135276	-0.182883	-0.272812	0.033998	-0.059329	-0.267494	0.033318	-0.186096	-0.216142	0.041654	-0.130328	-0.455943	0.129689	-0.135679	-0.084465	0.804564	-0.429979	-0.038112	0.827245	-0.417681	-0.074498	0.771052	-0.432298	-0.026104	0.793547	-0.426039	0.027475	0.533382	-0.399459	0.037130	0.520688	-0.279077	-0.093901	0.448132	-0.427678	-0.052151	0.419702	-0.418616	-0.125472	0.412687	-0.422078	-0.081160	0.386977	-0.419364	-0.235312	0.216366	-0.383070	-0.192796	0.215188	-0.288134	-0.167003	0.092841	-0.412586	-0.140864	0.077446	-0.298819	-0.076399	0.065703	-0.366097	-0.303443	0.222398	-0.323227	-0.124072	1.486450	-0.037194	-0.139282	1.485173	-0.403646	
76	0.3750	-0.071039	0.983229	-0.098029	-0.072315	0.985348	-0.355976	-0.259993	0.999799	-0.183976	-0.260242	0.999463	-0.269976	-0.122214	0.791692	-0.042747	-0.070110	0.783572	-0.059129	-0.120218	0.756560	-0.042991	-0.065606	0.750978	-0.059806	-0.152491	0.482504	-0.090581	-0.165272	0.471033	-0.200203	-0.248169	0.380946	-0.051776	-0.205463	0.364269	-0.071011	-0.267753	0.338710	-0.057821	-0.227953	0.321852	-0.070173	-0.365474	0.138076	-0.086575	-0.354958	0.136484	-0.182296	-0.272913	0.034038	-0.059159	-0.267510	0.033556	-0.185933	-0.216332	0.041868	-0.130207	-0.455058	0.131581	-0.135231	-0.079147	0.805439	-0.429704	-0.032855	0.828339	-0.417405	-0.069015	0.771961	-0.431955	-0.020681	0.794682	-0.425692	0.034102	0.534672	-0.398814	0.043849	0.522169	-0.278414	-0.086585	0.448026	-0.426946	-0.044523	0.420024	-0.417932	-0.117863	0.412238	-0.421401	-0.073231	0.386966	-0.418711	-0.225698	0.214313	-0.382427	-0.183081	0.213622	-0.287502	-0.155809	0.091455	-0.412006	-0.129458	0.076312	-0.298241	-0.064747	0.065319	-0.365527	-0.294025	0.219541	-0.322579	-0.118509	1.487136	-0.037183	-0.135170	1.485882	-0.403479	
77	0.3800	-0.066754	0.983722	-0.097973	-0.068400	0.985928	-0.355921	-0.255728	1.000434	-0.183772	-0.256092	1.000096	-0.269744	-0.118587	0.792137	-0.042580	-0.066513	0.783811	-0.058940	-0.116767	0.756986	-0.042821	-0.062166	0.751146	-0.059612	-0.150565	0.482893	-0.090164	-0.163323	0.471381	-0.199828	-0.246751	0.381736	-0.051390	-0.204079	0.364881	-0.070593	-0.266477	0.339569	-0.057452	-0.226716	0.322552	-0.069717	-0.364765	0.139053	-0.086196	-0.354104	0.137505	-0.181797	-0.272970	0.034070	-0.059019	-0.267493	0.033757	-0.185796	-0.216462	0.042047	-0.130105	-0.454276	0.133178	-0.134855	-0.074797	0.806190	-0.429482	-0.028557	0.829266	-0.417180	-0.064532	0.772738	-0.431675	-0.016249	0.795642	-0.425407	0.039501	0.535758	-0.398284	0.049325	0.523412	-0.277870	-0.080612	0.447956	-0.426329	-0.038291	0.420314	-0.417368	-0.111643	0.411883	-0.420831	-0.066748	0.386978	-0.418173	-0.217796	0.212624	-0.381897	-0.175092	0.212330	-0.286986	-0.146605	0.090335	-0.411539	-0.120074	0.075394	-0.297780	-0.055170	0.065025	-0.365080	-0.286272	0.217177	-0.322038	-0.113948	1.487731	-0.037188	-0.131799	1.486493	-0.403342	
78	0.3850	-0.063325	0.984137	-0.097930	-0.065264	0.986420	-0.355872	-0.252307	1.000969	-0.183615	-0.252760	1.000635	-0.269563	-0.115693	0.792509	-0.042444	-0.063641	0.784016	-0.058780	-0.114014	0.757342	-0.042680	-0.059423	0.751294	-0.059449	-0.149044	0.483227	-0.089820	-0.161773	0.471680	-0.199518	-0.245625	0.382393	-0.051072	-0.202981	0.365399	-0.070247	-0.265458	0.340282	-0.057146	-0.225728	0.323144	-0.069339	-0.364159	0.139857	-0.085883	-0.353373	0.138346	-0.181386	-0.272994	0.034093	-0.058906	-0.267456	0.033921	-0.185685	-0.216546	0.042193	-0.130023	-0.453603	0.134491	-0.134546	-0.071319	0.806816	-0.429305	-0.025123	0.830031	-0.417000	-0.060949	0.773386	-0.431452	-0.012708	0.796432	-0.425179	0.043801	0.536649	-0.397858	0.053686	0.524428	-0.277433	-0.075848	0.447914	-0.425821	-0.033316	0.420565	-0.416916	-0.106674	0.411609	-0.420364	-0.061568	0.387005	-0.417740	-0.211450	0.211268	-0.381471	-0.168673	0.211290	-0.286574	-0.139212	0.089451	-0.411170	-0.112530	0.074668	-0.297420	-0.047480	0.064807	-0.364738	-0.280036	0.215269	-0.321598	-0.110294	1.488231	-0.037204	-0.129099	1.487005	-0.403232	
