PathFileType	4	(X/Y/Z)	 P8 pr2 09.trc
DataRate	CameraRate	NumFrames	NumMarkers	Units	OrigDataRate	OrigDataStartFrame	OrigNumFrames
200	200	77	38	m	200	2	78
Frame#	Time	RASIS			LASIS			RPSIS			LPSIS			RThighRear1			RThighFront1			RThighRear2			RThighFront2			RKneeLat			RKneeMed			RShankRear1			RShankFront1			RShankRear2			RShankFront2			RAnkleLat			RAnkleMed			RM5			RM1			RMid			RHeel			LThighRear1			LThighFront1			LThighRear2			LThighFront2			LKneeLat			LKneeMed			LShankRear1			LShankFront1			LShankRear2			LShankFront2			LAnkleLat			LAnkleMed			LM5			LM1			LMid			LHeel			RShoulder			LShoulder			
		X1	Y1	Z1	X2	Y2	Z2	X3	Y3	Z3	X4	Y4	Z4	X5	Y5	Z5	X6	Y6	Z6	X7	Y7	Z7	X8	Y8	Z8	X9	Y9	Z9	X10	Y10	Z10	X11	Y11	Z11	X12	Y12	Z12	X13	Y13	Z13	X14	Y14	Z14	X15	Y15	Z15	X16	Y16	Z16	X17	Y17	Z17	X18	Y18	Z18	X19	Y19	Z19	X20	Y20	Z20	X21	Y21	Z21	X22	Y22	Z22	X23	Y23	Z23	X24	Y24	Z24	X25	Y25	Z25	X26	Y26	Z26	X27	Y27	Z27	X28	Y28	Z28	X29	Y29	Z29	X30	Y30	Z30	X31	Y31	Z31	X32	Y32	Z32	X33	Y33	Z33	X34	Y34	Z34	X35	Y35	Z35	X36	Y36	Z36	X37	Y37	Z37	X38	Y38	Z38	
1	0.0000	-1.347904	0.958943	-0.165708	-1.357089	0.951424	-0.423553	-1.528443	0.988228	-0.243604	-1.531485	0.983099	-0.328627	-1.422508	0.764156	-0.092092	-1.373587	0.762350	-0.100289	-1.423619	0.724464	-0.089683	-1.368568	0.718327	-0.097649	-1.467724	0.446562	-0.120803	-1.461706	0.427687	-0.230842	-1.612320	0.438877	-0.102212	-1.590601	0.395611	-0.114192	-1.654185	0.420287	-0.113897	-1.634607	0.381085	-0.119382	-1.848624	0.338639	-0.164340	-1.827930	0.313615	-0.254869	-1.904078	0.190130	-0.135807	-1.880525	0.177669	-0.248332	-1.869712	0.132520	-0.180778	-1.887134	0.399939	-0.227651	-1.358674	0.771697	-0.481421	-1.310940	0.794934	-0.465983	-1.347169	0.739071	-0.481973	-1.299277	0.760216	-0.470954	-1.231248	0.511306	-0.423306	-1.236350	0.505189	-0.307150	-1.293506	0.370309	-0.455818	-1.243973	0.372118	-0.446168	-1.298122	0.323085	-0.454456	-1.248065	0.328266	-0.448569	-1.267377	0.095206	-0.414602	-1.238760	0.118849	-0.318231	-1.140616	0.047215	-0.438411	-1.119482	0.047281	-0.321979	-1.057768	0.075130	-0.381036	-1.332569	0.066776	-0.361796	-1.272743	1.433441	-0.135133	-1.276145	1.437772	-0.489637	
2	0.0050	-1.333379	0.957496	-0.165951	-1.341304	0.950601	-0.423845	-1.513999	0.985752	-0.244614	-1.516506	0.981437	-0.329738	-1.404561	0.762668	-0.092315	-1.355637	0.761807	-0.100780	-1.404748	0.723057	-0.089808	-1.349613	0.718099	-0.098016	-1.442413	0.445404	-0.120876	-1.436412	0.427026	-0.231057	-1.586622	0.436820	-0.101640	-1.564895	0.393734	-0.114308	-1.628536	0.418263	-0.113413	-1.608982	0.379225	-0.119550	-1.823458	0.337359	-0.164157	-1.803150	0.313129	-0.254897	-1.876506	0.188224	-0.135843	-1.853757	0.176335	-0.248434	-1.841799	0.131138	-0.181338	-1.863446	0.398610	-0.226818	-1.343537	0.770215	-0.482012	-1.295585	0.793115	-0.466886	-1.332395	0.737459	-0.482418	-1.284358	0.758179	-0.471734	-1.219121	0.508744	-0.423190	-1.224200	0.502962	-0.307011	-1.283528	0.369243	-0.455187	-1.234169	0.369893	-0.445566	-1.289381	0.322390	-0.453930	-1.239360	0.326260	-0.447869	-1.265944	0.095333	-0.413657	-1.237241	0.118017	-0.316904	-1.140039	0.046527	-0.438441	-1.118689	0.045344	-0.321601	-1.056906	0.072012	-0.380512	-1.331823	0.067122	-0.361060	-1.261087	1.432987	-0.135221	-1.261154	1.435272	-0.490739	
3	0.0100	-1.318700	0.956071	-0.166183	-1.325318	0.949807	-0.424136	-1.499376	0.983292	-0.245654	-1.501328	0.979805	-0.330870	-1.386395	0.761225	-0.092556	-1.337472	0.761334	-0.101288	-1.385637	0.721705	-0.089949	-1.330422	0.717953	-0.098403	-1.416714	0.444355	-0.120982	-1.410741	0.426475	-0.231308	-1.560535	0.434803	-0.101109	-1.538768	0.391897	-0.114444	-1.602494	0.416249	-0.112952	-1.582932	0.377373	-0.119731	-1.797880	0.335925	-0.163956	-1.777955	0.312465	-0.254912	-1.848369	0.186155	-0.135811	-1.826440	0.174789	-0.248466	-1.813275	0.129597	-0.181824	-1.839412	0.397059	-0.225980	-1.328257	0.768738	-0.482606	-1.280084	0.791278	-0.467783	-1.317491	0.735846	-0.482868	-1.269307	0.756123	-0.472509	-1.206987	0.506138	-0.423095	-1.212029	0.500684	-0.306898	-1.273579	0.368151	-0.454574	-1.224399	0.367637	-0.444988	-1.280674	0.321676	-0.453418	-1.230694	0.324229	-0.447191	-1.264543	0.095463	-0.412723	-1.235756	0.117215	-0.315592	-1.139474	0.045857	-0.438473	-1.117912	0.043450	-0.321233	-1.056059	0.068970	-0.380001	-1.331121	0.067457	-0.360327	-1.249269	1.432560	-0.135307	-1.245901	1.432781	-0.491801	
4	0.0150	-1.303879	0.954690	-0.166401	-1.309136	0.949056	-0.424422	-1.484579	0.980876	-0.246727	-1.485953	0.978225	-0.332022	-1.368022	0.759857	-0.092820	-1.319106	0.760963	-0.101816	-1.366298	0.720444	-0.090112	-1.311010	0.717926	-0.098816	-1.390635	0.443463	-0.121132	-1.384704	0.426079	-0.231605	-1.534061	0.432848	-0.100636	-1.512211	0.390129	-0.114607	-1.576055	0.414257	-0.112525	-1.556446	0.375546	-0.119927	-1.771852	0.334289	-0.163737	-1.752304	0.311565	-0.254913	-1.819592	0.183888	-0.135693	-1.798493	0.172983	-0.248410	-1.784053	0.127874	-0.182210	-1.815004	0.395206	-0.225143	-1.312858	0.767279	-0.483198	-1.264462	0.789434	-0.468668	-1.302483	0.734250	-0.483318	-1.254151	0.754059	-0.473276	-1.194906	0.503500	-0.423029	-1.199893	0.498365	-0.306818	-1.263717	0.367048	-0.453990	-1.214719	0.365369	-0.444445	-1.272055	0.320957	-0.452928	-1.222119	0.322191	-0.446549	-1.263185	0.095605	-0.411814	-1.234314	0.116461	-0.314311	-1.138931	0.045208	-0.438507	-1.117163	0.041621	-0.320880	-1.055236	0.066039	-0.379509	-1.330471	0.067789	-0.359607	-1.237288	1.432175	-0.135389	-1.230371	1.430327	-0.492802	
5	0.0200	-1.288919	0.953375	-0.166601	-1.292757	0.948363	-0.424703	-1.469606	0.978530	-0.247834	-1.470377	0.976720	-0.333193	-1.349449	0.758599	-0.093111	-1.300549	0.760730	-0.102367	-1.346737	0.719309	-0.090303	-1.291387	0.718054	-0.099264	-1.364184	0.442777	-0.121338	-1.358307	0.425882	-0.231960	-1.507199	0.430979	-0.100238	-1.485213	0.388457	-0.114803	-1.549211	0.412300	-0.112144	-1.529502	0.373761	-0.120143	-1.745326	0.332401	-0.163502	-1.726140	0.310374	-0.254900	-1.790088	0.181394	-0.135472	-1.769822	0.170875	-0.248249	-1.754034	0.125948	-0.182473	-1.790175	0.392970	-0.224317	-1.297358	0.765854	-0.483786	-1.248737	0.787593	-0.469533	-1.287393	0.732685	-0.483767	-1.238911	0.751999	-0.474027	-1.182930	0.500845	-0.422997	-1.187844	0.496016	-0.306777	-1.253995	0.365948	-0.453444	-1.205185	0.363106	-0.443949	-1.263571	0.320245	-0.452470	-1.213687	0.320166	-0.445954	-1.261881	0.095767	-0.410945	-1.232924	0.115773	-0.313080	-1.138416	0.044582	-0.438544	-1.116451	0.039872	-0.320543	-1.054448	0.063251	-0.379040	-1.329879	0.068131	-0.358912	-1.225140	1.431852	-0.135464	-1.214545	1.427939	-0.493719	
6	0.0250	-1.273819	0.952152	-0.166783	-1.276177	0.947744	-0.424976	-1.454449	0.976281	-0.248976	-1.454592	0.975310	-0.334382	-1.330677	0.757483	-0.093435	-1.281803	0.760667	-0.102947	-1.326958	0.718336	-0.090530	-1.271558	0.718372	-0.099751	-1.337364	0.442344	-0.121609	-1.331553	0.425930	-0.232383	-1.479944	0.429218	-0.099930	-1.457758	0.386910	-0.115038	-1.521947	0.410387	-0.111821	-1.502077	0.372033	-0.120384	-1.718249	0.330210	-0.163251	-1.699401	0.308836	-0.254871	-1.759767	0.178646	-0.135134	-1.740327	0.168428	-0.247967	-1.723114	0.123805	-0.182592	-1.764873	0.390272	-0.223510	-1.281770	0.764479	-0.484366	-1.232924	0.785764	-0.470371	-1.272237	0.731169	-0.484213	-1.223604	0.749954	-0.474757	-1.171108	0.498188	-0.423005	-1.175932	0.493650	-0.306781	-1.244463	0.364869	-0.452947	-1.195844	0.360870	-0.443509	-1.255268	0.319559	-0.452050	-1.205442	0.318174	-0.445420	-1.260635	0.095958	-0.410128	-1.231591	0.115167	-0.311916	-1.137936	0.043977	-0.438583	-1.115787	0.038217	-0.320227	-1.053704	0.060632	-0.378598	-1.329349	0.068496	-0.358254	-1.212818	1.431606	-0.135530	-1.198399	1.425648	-0.494528	
7	0.0300	-1.258576	0.951043	-0.166943	-1.259387	0.947210	-0.425239	-1.439099	0.974155	-0.250154	-1.438587	0.974017	-0.335589	-1.311705	0.756541	-0.093797	-1.262871	0.760809	-0.103558	-1.306960	0.717559	-0.090799	-1.251526	0.718915	-0.100285	-1.310181	0.442208	-0.121956	-1.304447	0.426264	-0.232881	-1.452291	0.427584	-0.099726	-1.429831	0.385516	-0.115319	-1.494250	0.408531	-0.111568	-1.474148	0.370379	-0.120653	-1.690560	0.327673	-0.162988	-1.672019	0.306902	-0.254828	-1.728536	0.175623	-0.134668	-1.709906	0.165614	-0.247552	-1.691192	0.121438	-0.182550	-1.739038	0.387036	-0.222733	-1.266105	0.763170	-0.484933	-1.217033	0.783959	-0.471175	-1.257028	0.729717	-0.484652	-1.208245	0.747935	-0.475460	-1.159485	0.495549	-0.423060	-1.164201	0.491281	-0.306835	-1.235164	0.363829	-0.452507	-1.186741	0.358682	-0.443138	-1.247184	0.318916	-0.451677	-1.197425	0.316240	-0.444958	-1.259453	0.096188	-0.409377	-1.230317	0.114660	-0.310838	-1.137499	0.043392	-0.438627	-1.115182	0.036669	-0.319933	-1.053013	0.058204	-0.378186	-1.328882	0.068903	-0.357644	-1.200315	1.431458	-0.135584	-1.181912	1.423484	-0.495207	
8	0.0350	-1.243179	0.950073	-0.167082	-1.242381	0.946776	-0.425492	-1.423543	0.972179	-0.251368	-1.422351	0.972858	-0.336812	-1.292533	0.755805	-0.094202	-1.243752	0.761186	-0.104206	-1.286744	0.717013	-0.091117	-1.231295	0.719714	-0.100870	-1.282646	0.442411	-0.122387	-1.276999	0.426922	-0.233463	-1.424238	0.426097	-0.099642	-1.401422	0.384300	-0.115651	-1.466109	0.406738	-0.111393	-1.445697	0.368816	-0.120954	-1.662203	0.324746	-0.162717	-1.643928	0.304528	-0.254771	-1.696308	0.172312	-0.134066	-1.678461	0.162415	-0.246995	-1.658170	0.118849	-0.182331	-1.712606	0.383191	-0.221996	-1.250369	0.761940	-0.485485	-1.201074	0.782187	-0.471939	-1.241777	0.728345	-0.485082	-1.192844	0.745955	-0.476132	-1.148099	0.492945	-0.423164	-1.152691	0.488925	-0.306941	-1.226136	0.362849	-0.452135	-1.177913	0.356567	-0.442842	-1.239353	0.318337	-0.451358	-1.189669	0.314386	-0.444578	-1.258336	0.096470	-0.408708	-1.229101	0.114269	-0.309863	-1.137110	0.042823	-0.438675	-1.114644	0.035235	-0.319664	-1.052383	0.055983	-0.377804	-1.328475	0.069371	-0.357096	-1.187622	1.431425	-0.135624	-1.165063	1.421480	-0.495736	
9	0.0400	-1.227622	0.949264	-0.167198	-1.225150	0.946451	-0.425733	-1.407772	0.970377	-0.252615	-1.405874	0.971851	-0.338050	-1.273159	0.755305	-0.094654	-1.224450	0.761826	-0.104892	-1.266314	0.716728	-0.091490	-1.210868	0.720798	-0.101513	-1.254778	0.442987	-0.122909	-1.249222	0.427936	-0.234135	-1.395792	0.424771	-0.099687	-1.372531	0.383285	-0.116039	-1.437519	0.405018	-0.111308	-1.416710	0.367358	-0.121292	-1.633122	0.321395	-0.162445	-1.615065	0.301680	-0.254702	-1.663009	0.168706	-0.133325	-1.645903	0.158821	-0.246291	-1.623968	0.116047	-0.181927	-1.685517	0.378678	-0.221312	-1.234569	0.760804	-0.486018	-1.185053	0.780459	-0.472657	-1.226492	0.727070	-0.485501	-1.177411	0.744027	-0.476769	-1.136982	0.490399	-0.423321	-1.141436	0.486602	-0.307103	-1.217410	0.361952	-0.451836	-1.169392	0.354551	-0.442631	-1.231802	0.317842	-0.451098	-1.182202	0.312640	-0.444288	-1.257280	0.096816	-0.408132	-1.227937	0.114006	-0.309007	-1.136773	0.042265	-0.438729	-1.114182	0.033920	-0.319420	-1.051822	0.053980	-0.377453	-1.328118	0.069923	-0.356623	-1.174733	1.431524	-0.135647	-1.147837	1.419668	-0.496094	
10	0.0450	-1.211895	0.948638	-0.167293	-1.207689	0.946246	-0.425960	-1.391774	0.968773	-0.253893	-1.389148	0.971013	-0.339299	-1.253585	0.755066	-0.095156	-1.204967	0.762753	-0.105619	-1.245674	0.716732	-0.091923	-1.190256	0.722191	-0.102216	-1.226603	0.443966	-0.123528	-1.221143	0.429332	-0.234902	-1.366965	0.423618	-0.099871	-1.343165	0.382493	-0.116486	-1.408484	0.403376	-0.111320	-1.387188	0.366019	-0.121668	-1.603273	0.317593	-0.162179	-1.585374	0.298332	-0.254626	-1.628576	0.164810	-0.132445	-1.612158	0.154839	-0.245440	-1.588517	0.113053	-0.181332	-1.657711	0.373444	-0.220690	-1.218710	0.759777	-0.486529	-1.168977	0.778788	-0.473324	-1.211181	0.725906	-0.485905	-1.161955	0.742161	-0.477366	-1.126160	0.487935	-0.423533	-1.130466	0.484332	-0.307320	-1.209008	0.361164	-0.451619	-1.161200	0.352662	-0.442511	-1.224550	0.317456	-0.450903	-1.175045	0.311028	-0.444098	-1.256279	0.097238	-0.407662	-1.226817	0.113886	-0.308286	-1.136491	0.041713	-0.438789	-1.113800	0.032728	-0.319201	-1.051334	0.052198	-0.377133	-1.327802	0.070588	-0.356237	-1.161641	1.431770	-0.135650	-1.130225	1.418077	-0.496265	
11	0.0500	-1.195988	0.948214	-0.167368	-1.189997	0.946167	-0.426172	-1.375541	0.967389	-0.255198	-1.372167	0.970357	-0.340556	-1.233817	0.755113	-0.095711	-1.185309	0.763986	-0.106390	-1.224835	0.717048	-0.092420	-1.169468	0.723910	-0.102984	-1.198160	0.445369	-0.124249	-1.192794	0.431131	-0.235766	-1.337781	0.422648	-0.100201	-1.313344	0.381940	-0.116996	-1.379017	0.401814	-0.111437	-1.357139	0.364811	-0.122086	-1.572617	0.313320	-0.161926	-1.554811	0.294467	-0.254546	-1.592964	0.160636	-0.131431	-1.577166	0.150486	-0.244447	-1.551774	0.109897	-0.180547	-1.629137	0.367452	-0.220144	-1.202797	0.758873	-0.487013	-1.152853	0.777183	-0.473937	-1.195851	0.724869	-0.486292	-1.146483	0.740373	-0.477920	-1.115652	0.485576	-0.423800	-1.119802	0.482137	-0.307593	-1.200946	0.360510	-0.451487	-1.153353	0.350927	-0.442488	-1.217609	0.317203	-0.450778	-1.168208	0.309578	-0.444014	-1.255324	0.097753	-0.407310	-1.225727	0.113920	-0.307714	-1.136267	0.041161	-0.438857	-1.113504	0.031656	-0.319009	-1.050925	0.050638	-0.376842	-1.327507	0.071392	-0.355951	-1.148345	1.432180	-0.135631	-1.112223	1.416739	-0.496235	
12	0.0550	-1.179895	0.948009	-0.167423	-1.172073	0.946221	-0.426369	-1.359067	0.966245	-0.256523	-1.354931	0.969895	-0.341816	-1.213863	0.755463	-0.096319	-1.165487	0.765540	-0.107204	-1.203812	0.717694	-0.092985	-1.148521	0.725969	-0.103818	-1.169497	0.447210	-0.125072	-1.164220	0.433342	-0.236727	-1.308273	0.421863	-0.100680	-1.283101	0.381639	-0.117570	-1.349141	0.400336	-0.111662	-1.326586	0.363745	-0.122548	-1.541130	0.308565	-0.161697	-1.523343	0.290084	-0.254468	-1.556149	0.156205	-0.130295	-1.540892	0.145793	-0.243321	-1.513715	0.106617	-0.179579	-1.599749	0.360677	-0.219684	-1.186836	0.758103	-0.487468	-1.136687	0.775659	-0.474492	-1.180508	0.723974	-0.486660	-1.131003	0.738676	-0.478431	-1.105467	0.483349	-0.424124	-1.109460	0.480041	-0.307920	-1.193230	0.360017	-0.451446	-1.145855	0.349375	-0.442564	-1.210982	0.317110	-0.450725	-1.161696	0.308319	-0.444039	-1.254399	0.098374	-0.407085	-1.224651	0.114119	-0.307304	-1.136100	0.040604	-0.438932	-1.113295	0.030705	-0.318841	-1.050597	0.049290	-0.376579	-1.327214	0.072367	-0.355776	-1.134843	1.432765	-0.135587	-1.093839	1.415680	-0.495993	
13	0.0600	-1.163610	0.948037	-0.167462	-1.153924	0.946412	-0.426549	-1.342351	0.965358	-0.257861	-1.337442	0.969636	-0.343073	-1.193736	0.756131	-0.096980	-1.145515	0.767423	-0.108062	-1.182623	0.718683	-0.093619	-1.127435	0.728373	-0.104718	-1.140675	0.449493	-0.125998	-1.135476	0.435969	-0.237785	-1.278485	0.421263	-0.101308	-1.252482	0.381598	-0.118209	-1.318890	0.398939	-0.112000	-1.295565	0.362829	-0.123055	-1.508799	0.303329	-0.161502	-1.490950	0.285188	-0.254398	-1.518128	0.151549	-0.129051	-1.503318	0.140804	-0.242077	-1.474342	0.103261	-0.178440	-1.569514	0.353109	-0.219323	-1.170834	0.757480	-0.487891	-1.120488	0.774227	-0.474988	-1.165159	0.723233	-0.487006	-1.115521	0.737084	-0.478895	-1.095607	0.481280	-0.424502	-1.099444	0.478069	-0.308297	-1.185855	0.359712	-0.451498	-1.138704	0.348036	-0.442742	-1.204663	0.317201	-0.450747	-1.155502	0.307281	-0.444178	-1.253486	0.099121	-0.406998	-1.223567	0.114495	-0.307067	-1.135990	0.040037	-0.439017	-1.113175	0.029871	-0.318699	-1.050352	0.048144	-0.376341	-1.326896	0.073548	-0.355723	-1.121138	1.433536	-0.135516	-1.075088	1.414926	-0.495530	
14	0.0650	-1.147129	0.948308	-0.167488	-1.135558	0.946744	-0.426712	-1.325394	0.964741	-0.259202	-1.319708	0.969588	-0.344321	-1.173454	0.757126	-0.097693	-1.125409	0.769635	-0.108961	-1.161294	0.720022	-0.094323	-1.106234	0.731120	-0.105684	-1.111760	0.452213	-0.127026	-1.106625	0.439006	-0.238937	-1.248470	0.420842	-0.102084	-1.221541	0.381821	-0.118914	-1.288309	0.397620	-0.112453	-1.264122	0.362068	-0.123608	-1.475625	0.297619	-0.161353	-1.457629	0.279801	-0.254343	-1.478919	0.146707	-0.127719	-1.464452	0.135574	-0.240733	-1.433683	0.099885	-0.177147	-1.538407	0.344754	-0.219071	-1.154796	0.757016	-0.488280	-1.104262	0.772900	-0.475423	-1.149808	0.722661	-0.487329	-1.100045	0.735612	-0.479315	-1.086065	0.479396	-0.424934	-1.089751	0.476246	-0.308723	-1.178810	0.359624	-0.451646	-1.131885	0.346939	-0.443023	-1.198636	0.317504	-0.450845	-1.149611	0.306491	-0.444431	-1.252561	0.100010	-0.407055	-1.222450	0.115057	-0.307013	-1.135933	0.039458	-0.439111	-1.113142	0.029149	-0.318581	-1.050190	0.047183	-0.376126	-1.326521	0.074967	-0.355802	-1.107237	1.434501	-0.135417	-1.055992	1.414498	-0.494843	
15	0.0700	-1.130452	0.948828	-0.167502	-1.116990	0.947215	-0.426856	-1.308199	0.964407	-0.260537	-1.301738	0.969757	-0.345551	-1.153037	0.758450	-0.098455	-1.105190	0.772173	-0.109900	-1.139852	0.721710	-0.095097	-1.084946	0.734201	-0.106714	-1.082831	0.455356	-0.128152	-1.077740	0.442438	-0.240177	-1.218289	0.420589	-0.103003	-1.190349	0.382305	-0.119683	-1.257452	0.396374	-0.113019	-1.232317	0.361464	-0.124209	-1.441621	0.291457	-0.161261	-1.423390	0.273953	-0.254310	-1.438561	0.141726	-0.126322	-1.424324	0.130169	-0.239315	-1.391789	0.096551	-0.175723	-1.506417	0.335630	-0.218937	-1.138729	0.756721	-0.488634	-1.088017	0.771693	-0.475799	-1.134462	0.722269	-0.487626	-1.084580	0.734274	-0.479689	-1.076824	0.477723	-0.425416	-1.080370	0.474598	-0.309192	-1.172070	0.359778	-0.451889	-1.125377	0.346110	-0.443407	-1.192877	0.318044	-0.451021	-1.143999	0.305976	-0.444798	-1.251597	0.101062	-0.407264	-1.221271	0.115816	-0.307147	-1.135924	0.038866	-0.439216	-1.113191	0.028537	-0.318486	-1.050109	0.046385	-0.375932	-1.326055	0.076663	-0.356023	-1.093145	1.435666	-0.135286	-1.036583	1.414416	-0.493931	
16	0.0750	-1.113579	0.949600	-0.167508	-1.098236	0.947827	-0.426981	-1.290775	0.964361	-0.261853	-1.283549	0.970145	-0.346755	-1.132509	0.760100	-0.099262	-1.084881	0.775024	-0.110875	-1.118329	0.723742	-0.095937	-1.063602	0.737601	-0.107803	-1.053969	0.458898	-0.129371	-1.048899	0.446242	-0.241499	-1.188012	0.420488	-0.104057	-1.158979	0.383042	-0.120514	-1.226380	0.395189	-0.113697	-1.200220	0.361016	-0.124858	-1.406816	0.284868	-0.161238	-1.388260	0.267686	-0.254309	-1.397115	0.136658	-0.124887	-1.382988	0.124663	-0.237848	-1.348735	0.093323	-0.174198	-1.473545	0.325774	-0.218930	-1.122639	0.756604	-0.488950	-1.071762	0.770619	-0.476117	-1.119123	0.722068	-0.487896	-1.069131	0.733085	-0.480021	-1.067860	0.476284	-0.425947	-1.071276	0.473147	-0.309700	-1.165603	0.360200	-0.452228	-1.119146	0.345576	-0.443891	-1.187353	0.318846	-0.451273	-1.138632	0.305762	-0.445279	-1.250564	0.102298	-0.407627	-1.219998	0.116782	-0.307475	-1.135957	0.038263	-0.439333	-1.113316	0.028032	-0.318414	-1.050105	0.045729	-0.375755	-1.325458	0.078671	-0.356391	-1.078873	1.437035	-0.135123	-1.016900	1.414693	-0.492797	
17	0.0800	-1.096514	0.950620	-0.167510	-1.079316	0.948577	-0.427086	-1.273133	0.964608	-0.263139	-1.265156	0.970754	-0.347924	-1.111897	0.762066	-0.100109	-1.064506	0.778170	-0.111881	-1.096759	0.726103	-0.096841	-1.042235	0.741294	-0.108949	-1.025261	0.462806	-0.130678	-1.020185	0.450387	-0.242897	-1.157711	0.420520	-0.105234	-1.127517	0.384019	-0.121405	-1.195161	0.394056	-0.114483	-1.167907	0.360720	-0.125555	-1.371249	0.277891	-0.161296	-1.352280	0.261051	-0.254347	-1.354659	0.131561	-0.123446	-1.340517	0.119136	-0.236365	-1.304621	0.090270	-0.172603	-1.439802	0.315235	-0.219057	-1.106533	0.756672	-0.489228	-1.055502	0.769690	-0.476382	-1.103794	0.722065	-0.488138	-1.053701	0.732058	-0.480313	-1.059136	0.475102	-0.426523	-1.062437	0.471916	-0.310243	-1.159367	0.360913	-0.452660	-1.113150	0.345359	-0.444474	-1.182022	0.319931	-0.451602	-1.133468	0.305871	-0.445868	-1.249428	0.103739	-0.408148	-1.218595	0.117964	-0.307998	-1.136023	0.037655	-0.439462	-1.113506	0.027634	-0.318365	-1.050173	0.045189	-0.375595	-1.324688	0.081028	-0.356912	-1.064430	1.438606	-0.134926	-0.996989	1.415339	-0.491450	
18	0.0850	-1.079261	0.951882	-0.167509	-1.060252	0.949461	-0.427170	-1.255285	0.965148	-0.264382	-1.246582	0.971584	-0.349047	-1.091230	0.764332	-0.100989	-1.044092	0.781585	-0.112912	-1.075180	0.728772	-0.097802	-1.020879	0.745252	-0.110143	-0.996795	0.467040	-0.132066	-0.991683	0.454832	-0.244363	-1.127462	0.420658	-0.106524	-1.096050	0.385217	-0.122354	-1.163869	0.392960	-0.115372	-1.135461	0.360567	-0.126300	-1.334972	0.270570	-0.161445	-1.315506	0.254107	-0.254435	-1.311290	0.126493	-0.122030	-1.297008	0.113674	-0.234898	-1.259563	0.087460	-0.170975	-1.405215	0.304074	-0.219323	-1.090416	0.756932	-0.489468	-1.039246	0.768919	-0.476597	-1.088476	0.722270	-0.488353	-1.038292	0.731206	-0.480569	-1.050609	0.474196	-0.427143	-1.053811	0.470922	-0.310818	-1.153311	0.361935	-0.453184	-1.107339	0.345478	-0.445151	-1.176831	0.321321	-0.452005	-1.128456	0.306322	-0.446563	-1.248150	0.105407	-0.408826	-1.217025	0.119373	-0.308717	-1.136110	0.037053	-0.439605	-1.113750	0.027344	-0.318339	-1.050306	0.044741	-0.375451	-1.323700	0.083770	-0.357589	-1.049829	1.440377	-0.134694	-0.976900	1.416357	-0.489899	
19	0.0900	-1.061828	0.953374	-0.167509	-1.041068	0.950476	-0.427232	-1.237246	0.965976	-0.265568	-1.227847	0.972631	-0.350114	-1.070536	0.766875	-0.101895	-1.023665	0.785237	-0.113962	-1.053627	0.731723	-0.098816	-0.999566	0.749437	-0.111381	-0.968658	0.471551	-0.133526	-0.963477	0.459533	-0.245886	-1.097343	0.420875	-0.107912	-1.064669	0.386613	-0.123357	-1.132579	0.391885	-0.116356	-1.102972	0.360546	-0.127092	-1.298050	0.262954	-0.161697	-1.278007	0.246919	-0.254581	-1.267121	0.121515	-0.120674	-1.252575	0.108361	-0.233484	-1.213696	0.084959	-0.169352	-1.369822	0.292364	-0.219731	-1.074293	0.757388	-0.489671	-1.022996	0.768317	-0.476769	-1.073169	0.722685	-0.488540	-1.022903	0.730541	-0.480795	-1.042228	0.473579	-0.427802	-1.045345	0.470181	-0.311420	-1.147375	0.363285	-0.453796	-1.101654	0.345948	-0.445918	-1.171725	0.323031	-0.452479	-1.123539	0.307130	-0.447357	-1.246693	0.107327	-0.409661	-1.215249	0.121021	-0.309629	-1.136208	0.036471	-0.439764	-1.114033	0.027167	-0.318338	-1.050494	0.044360	-0.375323	-1.322445	0.086932	-0.358422	-1.035079	1.442341	-0.134426	-0.956686	1.417746	-0.488159	
20	0.0950	-1.044222	0.955079	-0.167511	-1.021790	0.951614	-0.427271	-1.219034	0.967083	-0.266686	-1.208975	0.973890	-0.351115	-1.049847	0.769667	-0.102819	-1.003253	0.789090	-0.115023	-1.032138	0.734921	-0.099873	-0.978332	0.753805	-0.112652	-0.940933	0.476284	-0.135050	-0.935652	0.464436	-0.247459	-1.067431	0.421139	-0.109383	-1.033464	0.388177	-0.124411	-1.101367	0.390814	-0.117429	-1.070528	0.360644	-0.127930	-1.260554	0.255101	-0.162061	-1.239864	0.239559	-0.254795	-1.222275	0.116687	-0.119413	-1.207349	0.103283	-0.232158	-1.167169	0.082827	-0.167776	-1.333673	0.280190	-0.220284	-1.058166	0.758042	-0.489839	-1.006757	0.767894	-0.476905	-1.057870	0.723313	-0.488700	-1.007532	0.730071	-0.480996	-1.033932	0.473262	-0.428500	-1.036978	0.469702	-0.312047	-1.141493	0.364972	-0.454493	-1.096031	0.346779	-0.446771	-1.166638	0.325075	-0.453024	-1.118653	0.308306	-0.448245	-1.245014	0.109522	-0.410648	-1.213227	0.122918	-0.310727	-1.136299	0.035929	-0.439938	-1.114337	0.027111	-0.318364	-1.050726	0.044025	-0.375212	-1.320876	0.090546	-0.359412	-1.020191	1.444490	-0.134121	-0.936405	1.419500	-0.486247	
21	0.1000	-1.026454	0.956976	-0.167516	-1.002442	0.952871	-0.427285	-1.200667	0.968456	-0.267724	-1.189989	0.975355	-0.352040	-1.029190	0.772674	-0.103751	-0.982879	0.793099	-0.116087	-1.010747	0.738328	-0.100964	-0.957206	0.758310	-0.113950	-0.913699	0.481180	-0.136631	-0.908284	0.469485	-0.249072	-1.037798	0.421417	-0.110921	-1.002524	0.389877	-0.125513	-1.070309	0.389727	-0.118580	-1.038219	0.360843	-0.128816	-1.222567	0.247070	-0.162544	-1.201169	0.232099	-0.255085	-1.176888	0.112065	-0.118281	-1.161475	0.098519	-0.230956	-1.120144	0.081120	-0.166289	-1.296832	0.267642	-0.220979	-1.042038	0.758893	-0.489973	-0.990531	0.767658	-0.477011	-1.042573	0.724154	-0.488836	-0.992175	0.729806	-0.481179	-1.025656	0.473248	-0.429234	-1.028642	0.469490	-0.312697	-1.135593	0.367003	-0.455270	-1.090399	0.347975	-0.447704	-1.161501	0.327460	-0.453634	-1.113730	0.309855	-0.449218	-1.243072	0.112015	-0.411782	-1.210919	0.125077	-0.312004	-1.136367	0.035450	-0.440130	-1.114641	0.027188	-0.318419	-1.050989	0.043715	-0.375120	-1.318944	0.094641	-0.360552	-1.005176	1.446812	-0.133779	-0.916113	1.421605	-0.484183	
22	0.1050	-1.008533	0.959042	-0.167527	-0.983049	0.954237	-0.427274	-1.182162	0.970079	-0.268670	-1.170915	0.977016	-0.352880	-1.008595	0.775856	-0.104683	-0.962568	0.797219	-0.117145	-0.989487	0.741899	-0.102082	-0.936217	0.762898	-0.115263	-0.887026	0.486174	-0.138258	-0.881447	0.474619	-0.250716	-1.008513	0.421674	-0.112510	-0.971933	0.391679	-0.126658	-1.039479	0.388606	-0.119802	-1.006132	0.361123	-0.129747	-1.184179	0.238923	-0.163154	-1.162026	0.224612	-0.255460	-1.131104	0.107700	-0.117311	-1.115109	0.094142	-0.229914	-1.072790	0.079882	-0.164933	-1.259373	0.254817	-0.221816	-1.025908	0.759937	-0.490077	-0.974317	0.767613	-0.477097	-1.027274	0.725203	-0.488950	-0.976824	0.729747	-0.481351	-1.017331	0.473535	-0.430004	-1.020265	0.469543	-0.313369	-1.129600	0.369378	-0.456123	-1.084684	0.349534	-0.448711	-1.156241	0.330191	-0.454308	-1.108698	0.311776	-0.450268	-1.240824	0.114829	-0.413054	-1.208284	0.127508	-0.313449	-1.136392	0.035065	-0.440342	-1.114922	0.027414	-0.318507	-1.051268	0.043415	-0.375053	-1.316600	0.099245	-0.361837	-0.990040	1.449290	-0.133399	-0.895867	1.424044	-0.481988	
23	0.1100	-0.990473	0.961248	-0.167541	-0.963636	0.955704	-0.427237	-1.163538	0.971931	-0.269515	-1.151774	0.978861	-0.353626	-0.988087	0.779169	-0.105606	-0.942342	0.801399	-0.118190	-0.968388	0.745584	-0.103214	-0.915392	0.767513	-0.116583	-0.860974	0.491200	-0.139926	-0.855203	0.479776	-0.252384	-0.979640	0.421875	-0.114136	-0.941770	0.393543	-0.127844	-1.008945	0.387430	-0.121084	-0.974351	0.361463	-0.130724	-1.145486	0.230724	-0.163896	-1.122544	0.217171	-0.255929	-1.085074	0.103638	-0.116536	-1.068418	0.090216	-0.229067	-1.025280	0.079148	-0.163747	-1.221381	0.241816	-0.222790	-1.009774	0.761170	-0.490155	-0.958112	0.767762	-0.477171	-1.011961	0.726453	-0.489044	-0.961470	0.729898	-0.481520	-1.008880	0.474115	-0.430809	-1.011766	0.469852	-0.314065	-1.123435	0.372094	-0.457047	-1.078809	0.351449	-0.449787	-1.150782	0.333264	-0.455042	-1.103482	0.314063	-0.451387	-1.238228	0.117985	-0.414456	-1.205283	0.130223	-0.315049	-1.136353	0.034808	-0.440574	-1.115152	0.027808	-0.318634	-1.051543	0.043113	-0.375016	-1.313795	0.104379	-0.363257	-0.974791	1.451907	-0.132980	-0.875721	1.426792	-0.479687	
24	0.1150	-0.972285	0.963564	-0.167560	-0.944227	0.957262	-0.427171	-1.144815	0.973987	-0.270250	-1.132589	0.980877	-0.354271	-0.967690	0.782566	-0.106510	-0.922220	0.805584	-0.119212	-0.947476	0.749332	-0.104351	-0.894752	0.772099	-0.117899	-0.835593	0.496191	-0.141625	-0.829608	0.484891	-0.254067	-0.951233	0.421985	-0.115783	-0.912104	0.395430	-0.129067	-0.978771	0.386182	-0.122418	-0.942954	0.361837	-0.131746	-1.106591	0.222534	-0.164772	-1.082843	0.209845	-0.256497	-1.038953	0.099916	-0.115984	-1.021575	0.086792	-0.228444	-0.977794	0.078940	-0.162772	-1.182953	0.228741	-0.223894	-0.993633	0.762580	-0.490209	-0.941911	0.768104	-0.477242	-0.996624	0.727893	-0.489122	-0.946101	0.730255	-0.481693	-1.000230	0.474973	-0.431650	-1.003066	0.470404	-0.314785	-1.117016	0.375138	-0.458037	-1.072696	0.353705	-0.450926	-1.145047	0.336672	-0.455832	-1.098007	0.316704	-0.452567	-1.235243	0.121503	-0.415974	-1.201880	0.133234	-0.316790	-1.136225	0.034716	-0.440830	-1.115303	0.028393	-0.318804	-1.051796	0.042806	-0.375014	-1.310486	0.110060	-0.364801	-0.959434	1.454643	-0.132524	-0.855726	1.429822	-0.477303	
25	0.1200	-0.953982	0.965956	-0.167581	-0.924841	0.958901	-0.427076	-1.126011	0.976219	-0.270869	-1.113381	0.983048	-0.354809	-0.947426	0.785996	-0.107386	-0.902218	0.809719	-0.120202	-0.926774	0.753087	-0.105480	-0.874314	0.776595	-0.119201	-0.810922	0.501079	-0.143349	-0.804704	0.489901	-0.255759	-0.923342	0.421971	-0.117438	-0.882998	0.397299	-0.130327	-0.949017	0.384842	-0.123795	-0.912013	0.362222	-0.132813	-1.067602	0.214413	-0.165783	-1.043045	0.202697	-0.257173	-0.992898	0.096562	-0.115682	-0.974758	0.083907	-0.228074	-0.930510	0.079267	-0.162044	-1.144196	0.215696	-0.225121	-0.977479	0.764156	-0.490246	-0.925708	0.768636	-0.477319	-0.981250	0.729509	-0.489189	-0.930702	0.730813	-0.481879	-0.991302	0.476087	-0.432530	-0.994083	0.471176	-0.315533	-1.110265	0.378495	-0.459089	-1.066268	0.356281	-0.452123	-1.138959	0.340402	-0.456675	-1.092200	0.319680	-0.453799	-1.231830	0.125403	-0.417596	-1.198038	0.136550	-0.318654	-1.135981	0.034831	-0.441112	-1.115343	0.029195	-0.319024	-1.052001	0.042491	-0.375058	-1.306628	0.116299	-0.366454	-0.943971	1.457473	-0.132029	-0.835928	1.433100	-0.474861	
26	0.1250	-0.935578	0.968389	-0.167602	-0.905500	0.960609	-0.426950	-1.107143	0.978594	-0.271367	-1.094170	0.985354	-0.355235	-0.927311	0.789408	-0.108227	-0.882349	0.813750	-0.121152	-0.906300	0.756793	-0.106593	-0.854093	0.780944	-0.120479	-0.786986	0.505800	-0.145093	-0.780525	0.494744	-0.257456	-0.896004	0.421804	-0.119091	-0.854503	0.399110	-0.131620	-0.919735	0.383395	-0.125206	-0.881592	0.362591	-0.133925	-1.028631	0.206420	-0.166930	-1.003280	0.195783	-0.257960	-0.947066	0.093594	-0.115650	-0.928149	0.081586	-0.227982	-0.883602	0.080121	-0.161593	-1.105227	0.202778	-0.226462	-0.961304	0.765881	-0.490271	-0.909494	0.769349	-0.477411	-0.965824	0.731282	-0.489248	-0.915259	0.731562	-0.482083	-0.982021	0.477429	-0.433449	-0.984735	0.472142	-0.316312	-1.103103	0.382140	-0.460197	-1.059450	0.359152	-0.453373	-1.132446	0.344437	-0.457568	-1.085989	0.322967	-0.455074	-1.227950	0.129698	-0.419307	-1.193726	0.140182	-0.320622	-1.135592	0.035197	-0.441422	-1.115236	0.030240	-0.319300	-1.052135	0.042177	-0.375156	-1.302181	0.123103	-0.368201	-0.928404	1.460374	-0.131496	-0.816369	1.436588	-0.472387	
27	0.1300	-0.917085	0.970827	-0.167621	-0.886219	0.962374	-0.426793	-1.088229	0.981079	-0.271742	-1.074972	0.987773	-0.355547	-0.907361	0.792749	-0.109025	-0.862623	0.817620	-0.122055	-0.886066	0.760394	-0.107677	-0.834096	0.785086	-0.121723	-0.763799	0.510292	-0.146852	-0.757092	0.499360	-0.259152	-0.869251	0.421456	-0.120731	-0.826663	0.400823	-0.132946	-0.890969	0.381826	-0.126645	-0.851747	0.362918	-0.135084	-0.989792	0.198606	-0.168209	-0.963681	0.189153	-0.258865	-0.901616	0.091021	-0.115907	-0.881927	0.079834	-0.228187	-0.837244	0.081481	-0.161450	-1.066169	0.190086	-0.227907	-0.945099	0.767737	-0.490288	-0.893258	0.770231	-0.477524	-0.950330	0.733190	-0.489306	-0.899754	0.732488	-0.482314	-0.972314	0.478966	-0.434411	-0.974944	0.473268	-0.317129	-1.095454	0.386046	-0.461358	-1.052168	0.362284	-0.454670	-1.125434	0.348751	-0.458509	-1.079305	0.326536	-0.456384	-1.223570	0.134401	-0.421091	-1.188912	0.144136	-0.322676	-1.135025	0.035860	-0.441762	-1.114944	0.031559	-0.319639	-1.052166	0.041876	-0.375319	-1.297111	0.130469	-0.370023	-0.912734	1.463316	-0.130924	-0.797084	1.440247	-0.469906	
28	0.1350	-0.898516	0.973235	-0.167635	-0.867015	0.964181	-0.426604	-1.069284	0.983637	-0.271993	-1.055804	0.990281	-0.355742	-0.887584	0.795964	-0.109773	-0.843047	0.821276	-0.122904	-0.866081	0.763835	-0.108723	-0.814329	0.788968	-0.122923	-0.741361	0.514497	-0.148622	-0.734414	0.503693	-0.260846	-0.843105	0.420905	-0.122352	-0.799508	0.402400	-0.134303	-0.862758	0.380123	-0.128104	-0.822527	0.363179	-0.136290	-0.951204	0.191018	-0.169617	-0.924381	0.182847	-0.259891	-0.856702	0.088838	-0.116465	-0.836271	0.078643	-0.228703	-0.791601	0.083311	-0.161636	-1.027155	0.177707	-0.229445	-0.928853	0.769702	-0.490303	-0.876987	0.771268	-0.477666	-0.934751	0.735208	-0.489367	-0.884168	0.733573	-0.482577	-0.962112	0.480660	-0.435420	-0.964637	0.474516	-0.317988	-1.087250	0.390180	-0.462567	-1.044357	0.365642	-0.456011	-1.117856	0.353317	-0.459493	-1.072083	0.330353	-0.457721	-1.218656	0.139522	-0.422931	-1.183570	0.148418	-0.324795	-1.134245	0.036866	-0.442137	-1.114428	0.033181	-0.320050	-1.052063	0.041605	-0.375557	-1.291383	0.138391	-0.371901	-0.896960	1.466272	-0.130312	-0.778102	1.444031	-0.467442	
29	0.1400	-0.879886	0.975576	-0.167640	-0.847899	0.966015	-0.426383	-1.050324	0.986227	-0.272121	-1.036680	0.992852	-0.355821	-0.867989	0.799005	-0.110466	-0.823623	0.824667	-0.123693	-0.846348	0.767060	-0.109722	-0.794791	0.792536	-0.124073	-0.719660	0.518363	-0.150400	-0.712489	0.507694	-0.262535	-0.817580	0.420131	-0.123949	-0.773060	0.403806	-0.135693	-0.835134	0.378277	-0.129580	-0.793970	0.363347	-0.137544	-0.912984	0.183698	-0.171146	-0.885516	0.176894	-0.261040	-0.812476	0.087034	-0.117333	-0.791356	0.077986	-0.229541	-0.746832	0.085560	-0.162170	-0.988323	0.165724	-0.231064	-0.912553	0.771749	-0.490322	-0.860668	0.772441	-0.477843	-0.919068	0.737309	-0.489438	-0.868481	0.734798	-0.482878	-0.951350	0.482468	-0.436479	-0.953745	0.475846	-0.318896	-1.078423	0.394504	-0.463820	-1.035953	0.369185	-0.457391	-1.109651	0.358103	-0.460519	-1.064266	0.334381	-0.459080	-1.213181	0.145064	-0.424809	-1.177675	0.153030	-0.326958	-1.133214	0.038258	-0.442550	-1.113644	0.035134	-0.320539	-1.051788	0.041389	-0.375884	-1.284971	0.146854	-0.373813	-0.881079	1.469211	-0.129661	-0.759446	1.447894	-0.465016	
30	0.1450	-0.861206	0.977816	-0.167632	-0.828881	0.967862	-0.426129	-1.031361	0.988811	-0.272128	-1.017611	0.995454	-0.355786	-0.848578	0.801820	-0.111101	-0.804352	0.827745	-0.124418	-0.826864	0.770020	-0.110665	-0.775478	0.795743	-0.125163	-0.698676	0.521845	-0.152187	-0.691303	0.511318	-0.264219	-0.792683	0.419121	-0.125519	-0.747332	0.405009	-0.137116	-0.808121	0.376282	-0.131067	-0.766108	0.363399	-0.138847	-0.875254	0.176680	-0.172790	-0.847219	0.171314	-0.262313	-0.769086	0.085583	-0.118512	-0.747353	0.077823	-0.230705	-0.703087	0.088165	-0.163064	-0.949818	0.154212	-0.232752	-0.896186	0.773852	-0.490351	-0.844284	0.773728	-0.478058	-0.903261	0.739461	-0.489523	-0.852673	0.736137	-0.483220	-0.939969	0.484345	-0.437595	-0.942205	0.477211	-0.319861	-1.068916	0.398979	-0.465114	-1.026902	0.372868	-0.458806	-1.100763	0.363071	-0.461585	-1.055800	0.338578	-0.460453	-1.207116	0.151026	-0.426707	-1.171205	0.157971	-0.329145	-1.131890	0.040080	-0.443004	-1.112544	0.037444	-0.321114	-1.051302	0.041256	-0.376309	-1.277850	0.155835	-0.375739	-0.865089	1.472101	-0.128969	-0.741130	1.451791	-0.462651	
31	0.1500	-0.842489	0.979921	-0.167608	-0.809969	0.969703	-0.425843	-1.012409	0.991347	-0.272019	-0.998607	0.998056	-0.355640	-0.829350	0.804365	-0.111675	-0.785230	0.830467	-0.125074	-0.807624	0.772669	-0.111547	-0.756381	0.798547	-0.126188	-0.678374	0.524903	-0.153980	-0.670834	0.514526	-0.265898	-0.768412	0.417868	-0.127062	-0.722326	0.405978	-0.138574	-0.781738	0.374133	-0.132564	-0.738963	0.363314	-0.140202	-0.838133	0.169991	-0.174540	-0.809625	0.166117	-0.263712	-0.726673	0.084454	-0.120002	-0.704423	0.078097	-0.232195	-0.660506	0.091051	-0.164323	-0.911786	0.143235	-0.234497	-0.879737	0.775980	-0.490394	-0.827820	0.775106	-0.478315	-0.887312	0.741632	-0.489628	-0.836723	0.737565	-0.483606	-0.927919	0.486243	-0.438771	-0.929966	0.478565	-0.320888	-1.058677	0.403561	-0.466446	-1.017154	0.376647	-0.460255	-1.091142	0.368185	-0.462689	-1.046639	0.342901	-0.461836	-1.200438	0.157403	-0.428608	-1.164140	0.163237	-0.331335	-1.130228	0.042368	-0.443503	-1.111082	0.040135	-0.321781	-1.050560	0.041238	-0.376846	-1.270000	0.165305	-0.377657	-0.848988	1.474911	-0.128237	-0.723165	1.455672	-0.460364	
32	0.1550	-0.823744	0.981862	-0.167565	-0.791168	0.971521	-0.425527	-0.993478	0.993793	-0.271798	-0.979676	1.000624	-0.355386	-0.810299	0.806598	-0.112186	-0.766251	0.832796	-0.125661	-0.788618	0.774964	-0.112361	-0.737489	0.800912	-0.127143	-0.658715	0.527506	-0.155781	-0.651050	0.517288	-0.267575	-0.744761	0.416366	-0.128579	-0.698037	0.406691	-0.140067	-0.755998	0.371832	-0.134068	-0.712552	0.363071	-0.141610	-0.801738	0.163651	-0.176386	-0.772861	0.161302	-0.265235	-0.685374	0.083604	-0.121794	-0.662719	0.078741	-0.234004	-0.619218	0.094131	-0.165949	-0.874374	0.132847	-0.236287	-0.863189	0.778104	-0.490457	-0.811258	0.776547	-0.478616	-0.871199	0.743789	-0.489760	-0.820610	0.739052	-0.484039	-0.915154	0.488115	-0.440012	-0.916980	0.479864	-0.321985	-1.047662	0.408206	-0.467814	-1.006667	0.380473	-0.461734	-1.080745	0.373401	-0.463831	-1.036744	0.347307	-0.463225	-1.193124	0.164185	-0.430495	-1.156461	0.168819	-0.333509	-1.128181	0.045155	-0.444051	-1.109203	0.043225	-0.322546	-1.049513	0.041370	-0.377506	-1.261405	0.175228	-0.379545	-0.832772	1.477609	-0.127462	-0.705550	1.459489	-0.458174	
33	0.1600	-0.804981	0.983611	-0.167498	-0.772479	0.973298	-0.425181	-0.974577	0.996109	-0.271472	-0.960823	1.003121	-0.355032	-0.791417	0.808484	-0.112633	-0.747407	0.834701	-0.126176	-0.769829	0.776871	-0.113103	-0.718785	0.802810	-0.128024	-0.639648	0.529631	-0.157590	-0.631911	0.519580	-0.269251	-0.721716	0.414619	-0.130074	-0.674452	0.407127	-0.141599	-0.730908	0.369381	-0.135580	-0.686882	0.362652	-0.143074	-0.766186	0.157672	-0.178316	-0.737055	0.156860	-0.266879	-0.645315	0.082986	-0.123878	-0.622385	0.079676	-0.236123	-0.579341	0.097312	-0.167936	-0.837733	0.123093	-0.238111	-0.846525	0.780189	-0.490544	-0.794581	0.778024	-0.478959	-0.854904	0.745895	-0.489922	-0.804311	0.740570	-0.484519	-0.901639	0.489913	-0.441323	-0.903211	0.481059	-0.323159	-1.035834	0.412868	-0.469216	-0.995408	0.384300	-0.463243	-1.069537	0.378679	-0.465008	-1.026082	0.351750	-0.464618	-1.185154	0.171353	-0.432352	-1.148152	0.174703	-0.335650	-1.125695	0.048465	-0.444652	-1.106854	0.046727	-0.323415	-1.048106	0.041687	-0.378299	-1.252050	0.185560	-0.381382	-0.816438	1.480164	-0.126644	-0.688283	1.463197	-0.456096	
34	0.1650	-0.786209	0.985142	-0.167406	-0.753902	0.975014	-0.424808	-0.955713	0.998256	-0.271048	-0.942052	1.005510	-0.354581	-0.772692	0.809992	-0.113020	-0.728684	0.836157	-0.126621	-0.751240	0.778361	-0.113771	-0.700252	0.804217	-0.128828	-0.621121	0.531262	-0.159409	-0.613372	0.521386	-0.270928	-0.699261	0.412632	-0.131551	-0.651551	0.407269	-0.143171	-0.706471	0.366786	-0.137099	-0.661956	0.362042	-0.144595	-0.731590	0.152060	-0.180320	-0.702324	0.152774	-0.268643	-0.606616	0.082548	-0.126236	-0.583552	0.080816	-0.238535	-0.540981	0.100499	-0.170274	-0.802007	0.114006	-0.239956	-0.829728	0.782204	-0.490658	-0.777769	0.779507	-0.479344	-0.838404	0.747918	-0.490120	-0.787807	0.742086	-0.485045	-0.887343	0.491593	-0.442709	-0.888631	0.482110	-0.324414	-1.023165	0.417504	-0.470649	-0.983347	0.388083	-0.464778	-1.057489	0.383977	-0.466221	-1.014625	0.356187	-0.466014	-1.176509	0.178886	-0.434163	-1.139196	0.180872	-0.337742	-1.122717	0.052314	-0.445311	-1.103977	0.050646	-0.324392	-1.046281	0.042224	-0.379234	-1.241925	0.196250	-0.383149	-0.799985	1.482544	-0.125783	-0.671353	1.466749	-0.454141	
35	0.1700	-0.767433	0.986436	-0.167284	-0.735433	0.976650	-0.424411	-0.936892	1.000196	-0.270532	-0.923365	1.007753	-0.354042	-0.754110	0.811100	-0.113347	-0.710070	0.837147	-0.126999	-0.732829	0.779413	-0.114364	-0.681868	0.805121	-0.129555	-0.603073	0.532392	-0.161240	-0.595379	0.522700	-0.272611	-0.677375	0.410418	-0.133015	-0.629312	0.407106	-0.144786	-0.682687	0.364056	-0.138628	-0.637770	0.361229	-0.146176	-0.698056	0.146815	-0.182386	-0.668781	0.149019	-0.270522	-0.569388	0.082232	-0.128849	-0.546339	0.082068	-0.241222	-0.504231	0.103589	-0.172947	-0.767339	0.105610	-0.241812	-0.812780	0.784117	-0.490804	-0.760804	0.780968	-0.479768	-0.821681	0.749823	-0.490357	-0.771076	0.743571	-0.485614	-0.872246	0.493113	-0.444174	-0.873218	0.482977	-0.325757	-1.009631	0.422070	-0.472113	-0.970463	0.391779	-0.466341	-1.044579	0.389252	-0.467468	-1.002354	0.360575	-0.467411	-1.167169	0.186753	-0.435915	-1.129574	0.187303	-0.339770	-1.119184	0.056709	-0.446031	-1.100510	0.054982	-0.325479	-1.043973	0.043017	-0.380318	-1.231021	0.207242	-0.384827	-0.783408	1.484720	-0.124877	-0.654743	1.470104	-0.452321	
36	0.1750	-0.748657	0.987476	-0.167132	-0.717068	0.978186	-0.423992	-0.918116	1.001896	-0.269932	-0.904760	1.009814	-0.353421	-0.735651	0.811790	-0.113618	-0.691548	0.837661	-0.127311	-0.714571	0.780012	-0.114883	-0.663610	0.805516	-0.130206	-0.585445	0.533022	-0.163083	-0.577880	0.523520	-0.274300	-0.656034	0.407991	-0.134473	-0.607704	0.406633	-0.146446	-0.659552	0.361201	-0.140165	-0.614316	0.360205	-0.147817	-0.665688	0.141931	-0.184500	-0.636530	0.145564	-0.272509	-0.533731	0.081980	-0.131694	-0.510851	0.083340	-0.244161	-0.469172	0.106485	-0.175934	-0.733865	0.097917	-0.243668	-0.795660	0.785897	-0.490983	-0.743668	0.782376	-0.480226	-0.804715	0.751578	-0.490638	-0.754099	0.744995	-0.486224	-0.856332	0.494436	-0.445721	-0.856962	0.483625	-0.327191	-0.995218	0.426525	-0.473607	-0.956742	0.395346	-0.467930	-1.030791	0.394463	-0.468751	-0.989252	0.364875	-0.468812	-1.157115	0.194919	-0.437597	-1.119268	0.193965	-0.341723	-1.115036	0.061646	-0.446816	-1.096391	0.059723	-0.326677	-1.041113	0.044093	-0.381559	-1.219329	0.218473	-0.386402	-0.766706	1.486665	-0.123925	-0.638434	1.473223	-0.450642	
37	0.1800	-0.729883	0.988248	-0.166948	-0.698798	0.979603	-0.423554	-0.899387	1.003325	-0.269254	-0.886235	1.011654	-0.352726	-0.717295	0.812054	-0.113837	-0.673100	0.837698	-0.127562	-0.696438	0.780152	-0.115329	-0.645453	0.805403	-0.130781	-0.568174	0.533157	-0.164941	-0.560817	0.523854	-0.275999	-0.635214	0.405370	-0.135932	-0.586698	0.405848	-0.148152	-0.637057	0.358236	-0.141715	-0.591584	0.358962	-0.149521	-0.634579	0.137398	-0.186650	-0.605666	0.142378	-0.274598	-0.499732	0.081736	-0.134744	-0.477178	0.084538	-0.247326	-0.435870	0.109090	-0.179210	-0.701711	0.090931	-0.245516	-0.778350	0.787515	-0.491196	-0.726341	0.783706	-0.480714	-0.787486	0.753154	-0.490965	-0.736855	0.746331	-0.486871	-0.839594	0.495530	-0.447351	-0.839855	0.484026	-0.328719	-0.979917	0.430832	-0.475130	-0.942172	0.398749	-0.469546	-1.016114	0.399572	-0.470067	-0.975308	0.369050	-0.470217	-1.146327	0.203342	-0.439199	-1.108259	0.200826	-0.343591	-1.110203	0.067110	-0.447670	-1.091552	0.064852	-0.327988	-1.037628	0.045480	-0.382959	-1.206843	0.229875	-0.387860	-0.749876	1.488353	-0.122928	-0.622399	1.476070	-0.449112	
38	0.1850	-0.711110	0.988747	-0.166730	-0.680613	0.980882	-0.423103	-0.880703	1.004456	-0.268504	-0.867784	1.013240	-0.351962	-0.699020	0.811890	-0.114009	-0.654706	0.837264	-0.127758	-0.678404	0.779837	-0.115706	-0.627370	0.804794	-0.131285	-0.551198	0.532813	-0.166814	-0.544131	0.523715	-0.277710	-0.614889	0.402576	-0.137396	-0.566261	0.404753	-0.149907	-0.615195	0.355176	-0.143277	-0.569558	0.357499	-0.151285	-0.604815	0.133201	-0.188824	-0.576271	0.139422	-0.276781	-0.467470	0.081443	-0.137970	-0.445395	0.085574	-0.250687	-0.404382	0.111318	-0.182747	-0.670995	0.084648	-0.247345	-0.760830	0.788945	-0.491445	-0.708805	0.784932	-0.481224	-0.769976	0.754525	-0.491340	-0.719327	0.747554	-0.487548	-0.822028	0.496371	-0.449066	-0.821898	0.484159	-0.330340	-0.963723	0.434957	-0.476681	-0.926748	0.401956	-0.471187	-1.000541	0.404543	-0.471417	-0.960515	0.373066	-0.471629	-1.134782	0.211973	-0.440714	-1.096523	0.207846	-0.345367	-1.104617	0.073072	-0.448595	-1.085925	0.070338	-0.329410	-1.033437	0.047197	-0.384521	-1.193553	0.241376	-0.389190	-0.732916	1.489763	-0.121883	-0.606611	1.478615	-0.447734	
39	0.1900	-0.692333	0.988967	-0.166479	-0.662499	0.982005	-0.422641	-0.862060	1.005267	-0.267690	-0.849401	1.014539	-0.351138	-0.680801	0.811304	-0.114140	-0.636345	0.836371	-0.127904	-0.660438	0.779074	-0.116018	-0.609336	0.803704	-0.131720	-0.534460	0.532010	-0.168701	-0.527767	0.523124	-0.279432	-0.595034	0.399636	-0.138870	-0.546361	0.403355	-0.151708	-0.593956	0.352037	-0.144853	-0.548222	0.355816	-0.153111	-0.576473	0.129322	-0.191009	-0.548418	0.136661	-0.279049	-0.437009	0.081052	-0.141341	-0.415560	0.086367	-0.254214	-0.374747	0.113087	-0.186512	-0.641820	0.079055	-0.249148	-0.743082	0.790163	-0.491728	-0.691042	0.786032	-0.481749	-0.752167	0.755669	-0.491763	-0.701496	0.748642	-0.488251	-0.803638	0.496942	-0.450865	-0.803097	0.484010	-0.332055	-0.946636	0.438869	-0.478258	-0.910466	0.404940	-0.472854	-0.984072	0.409341	-0.472801	-0.944867	0.376896	-0.473052	-1.122457	0.220760	-0.442136	-1.084035	0.214982	-0.347047	-1.098202	0.079495	-0.449596	-1.079438	0.076146	-0.330940	-1.028456	0.049253	-0.386244	-1.179452	0.252898	-0.390385	-0.715822	1.490875	-0.120793	-0.591036	1.480831	-0.446509	
40	0.1950	-0.673548	0.988910	-0.166194	-0.644441	0.982956	-0.422172	-0.843452	1.005743	-0.266817	-0.831075	1.015523	-0.350260	-0.662613	0.810310	-0.114234	-0.617998	0.835040	-0.128006	-0.642511	0.777881	-0.116270	-0.591324	0.802158	-0.132093	-0.517904	0.530772	-0.170600	-0.511669	0.522107	-0.281166	-0.575624	0.396574	-0.140360	-0.526964	0.401665	-0.153557	-0.573327	0.348840	-0.146443	-0.527558	0.353916	-0.154996	-0.549619	0.125743	-0.193193	-0.522167	0.134059	-0.281391	-0.408400	0.080516	-0.144825	-0.387716	0.086844	-0.257875	-0.346995	0.114330	-0.190471	-0.614277	0.074131	-0.250917	-0.725085	0.791153	-0.492045	-0.673034	0.786987	-0.482283	-0.734041	0.756569	-0.492235	-0.683347	0.749578	-0.488973	-0.784430	0.497231	-0.452745	-0.783461	0.483574	-0.333859	-0.928661	0.442542	-0.479862	-0.893327	0.407681	-0.474546	-0.966707	0.413936	-0.474217	-0.928362	0.380513	-0.474488	-1.109326	0.229642	-0.443464	-1.070766	0.222184	-0.348629	-1.090883	0.086328	-0.450672	-1.072018	0.082230	-0.332573	-1.022598	0.051654	-0.388124	-1.164529	0.264363	-0.391440	-0.698592	1.491674	-0.119656	-0.575641	1.482697	-0.445437	
41	0.2000	-0.654745	0.988581	-0.165876	-0.626424	0.983721	-0.421701	-0.824871	1.005872	-0.265889	-0.812795	1.016169	-0.349333	-0.644432	0.808927	-0.114297	-0.599642	0.833297	-0.128070	-0.624594	0.776283	-0.116469	-0.573309	0.800186	-0.132409	-0.501480	0.529130	-0.172510	-0.495786	0.520693	-0.282910	-0.556636	0.393417	-0.141868	-0.508040	0.399698	-0.155449	-0.553297	0.345602	-0.148046	-0.507547	0.351807	-0.156936	-0.524307	0.122443	-0.195364	-0.497562	0.131582	-0.283794	-0.381680	0.079799	-0.148389	-0.361889	0.086944	-0.261637	-0.321141	0.114994	-0.194588	-0.588440	0.069852	-0.252644	-0.706823	0.791898	-0.492392	-0.654764	0.787783	-0.482816	-0.715583	0.757213	-0.492752	-0.664865	0.750349	-0.489706	-0.764414	0.497239	-0.454702	-0.763004	0.482853	-0.335747	-0.909805	0.445957	-0.481490	-0.875331	0.410161	-0.476262	-0.948449	0.418303	-0.475664	-0.910999	0.383898	-0.475940	-1.095360	0.238558	-0.444696	-1.056687	0.229402	-0.350112	-1.082582	0.093510	-0.451827	-1.063590	0.088534	-0.334305	-1.015772	0.054392	-0.390157	-1.148775	0.275689	-0.392355	-0.681222	1.492149	-0.118475	-0.560388	1.484200	-0.444516	
42	0.2050	-0.635914	0.987990	-0.165527	-0.608428	0.984288	-0.421231	-0.806304	1.005651	-0.264912	-0.794548	1.016456	-0.348365	-0.626232	0.807180	-0.114335	-0.581257	0.831174	-0.128103	-0.606660	0.774308	-0.116621	-0.555265	0.797825	-0.132673	-0.485145	0.527116	-0.174425	-0.480070	0.518918	-0.284661	-0.538050	0.390195	-0.143395	-0.489562	0.397472	-0.157381	-0.533856	0.342346	-0.149662	-0.488170	0.349499	-0.158926	-0.500580	0.119402	-0.197510	-0.474637	0.129202	-0.286245	-0.356872	0.078869	-0.151998	-0.338086	0.086620	-0.265464	-0.297187	0.115039	-0.198822	-0.564367	0.066187	-0.254323	-0.688277	0.792391	-0.492767	-0.636218	0.788409	-0.483340	-0.696779	0.757594	-0.493314	-0.646036	0.750948	-0.490443	-0.743603	0.496970	-0.456730	-0.741741	0.481858	-0.337713	-0.890076	0.449097	-0.483141	-0.856483	0.412373	-0.478000	-0.929306	0.422417	-0.477141	-0.892777	0.387037	-0.477411	-1.080530	0.247439	-0.445834	-1.041763	0.236578	-0.351500	-1.073219	0.100970	-0.453060	-1.054081	0.094996	-0.336128	-1.007884	0.057451	-0.392334	-1.132177	0.286793	-0.393132	-0.663706	1.492293	-0.117250	-0.545242	1.485329	-0.443744	
43	0.2100	-0.617043	0.987152	-0.165147	-0.590434	0.984648	-0.420766	-0.787741	1.005082	-0.263889	-0.776319	1.016374	-0.347361	-0.607991	0.805102	-0.114351	-0.562824	0.828708	-0.128111	-0.588683	0.771993	-0.116733	-0.537172	0.795114	-0.132891	-0.468860	0.524769	-0.176341	-0.464480	0.516818	-0.286414	-0.519849	0.386935	-0.144939	-0.471503	0.395007	-0.159348	-0.514992	0.339090	-0.151286	-0.469410	0.347005	-0.160960	-0.478464	0.116602	-0.199620	-0.453408	0.126893	-0.288730	-0.333985	0.077706	-0.155619	-0.316301	0.085841	-0.269324	-0.275124	0.114444	-0.203135	-0.542098	0.063102	-0.255947	-0.669432	0.792626	-0.493164	-0.617381	0.788862	-0.483848	-0.677616	0.757710	-0.493916	-0.626849	0.751371	-0.491177	-0.722013	0.496440	-0.458821	-0.719690	0.480608	-0.339746	-0.869486	0.451952	-0.484812	-0.836786	0.414311	-0.479757	-0.909285	0.426260	-0.478645	-0.873695	0.389916	-0.478902	-1.064805	0.256215	-0.446882	-1.025960	0.243656	-0.352795	-1.062716	0.108630	-0.454371	-1.043416	0.101550	-0.338036	-0.998843	0.060805	-0.394645	-1.114721	0.297592	-0.393775	-0.646041	1.492104	-0.115985	-0.530165	1.486082	-0.443114	
44	0.2150	-0.598118	0.986082	-0.164739	-0.572421	0.984794	-0.420309	-0.769167	1.004172	-0.262824	-0.758091	1.015915	-0.346326	-0.589686	0.802729	-0.114350	-0.544325	0.825940	-0.128099	-0.570641	0.769377	-0.116811	-0.519009	0.792096	-0.133070	-0.452599	0.522125	-0.178249	-0.448981	0.514434	-0.288162	-0.502018	0.383664	-0.146500	-0.453845	0.392328	-0.161342	-0.496695	0.335857	-0.152916	-0.451251	0.344342	-0.163028	-0.457976	0.114023	-0.201683	-0.433879	0.124638	-0.291233	-0.313014	0.076301	-0.159220	-0.296509	0.084588	-0.273183	-0.254930	0.113204	-0.207487	-0.521654	0.060561	-0.257510	-0.650275	0.792607	-0.493580	-0.598243	0.789140	-0.484331	-0.658085	0.757568	-0.494552	-0.607296	0.751621	-0.491899	-0.699662	0.495669	-0.460963	-0.696871	0.479130	-0.341835	-0.848048	0.454516	-0.486501	-0.816245	0.415977	-0.481530	-0.888395	0.429816	-0.480173	-0.853754	0.392531	-0.480414	-1.048152	0.264814	-0.447844	-1.009243	0.250576	-0.354003	-1.050996	0.116402	-0.455758	-1.031525	0.108121	-0.340018	-0.988554	0.064420	-0.397077	-1.096395	0.308004	-0.394292	-0.628220	1.491586	-0.114682	-0.515119	1.486462	-0.442622	
45	0.2200	-0.579124	0.984803	-0.164304	-0.554372	0.984723	-0.419863	-0.750568	1.002937	-0.261722	-0.739849	1.015080	-0.345265	-0.571301	0.800101	-0.114335	-0.525747	0.822914	-0.128070	-0.552517	0.766503	-0.116860	-0.500762	0.788819	-0.133215	-0.436341	0.519224	-0.180140	-0.433545	0.511805	-0.289899	-0.484549	0.380409	-0.148071	-0.436569	0.389459	-0.163354	-0.478957	0.332667	-0.154546	-0.433677	0.341527	-0.165122	-0.439116	0.111651	-0.203689	-0.416038	0.122421	-0.293737	-0.293936	0.074650	-0.162768	-0.278671	0.082862	-0.277009	-0.236570	0.111330	-0.211837	-0.503038	0.058524	-0.259006	-0.630795	0.792340	-0.494007	-0.578793	0.789249	-0.484782	-0.638178	0.757177	-0.495218	-0.587371	0.751707	-0.492602	-0.676570	0.494687	-0.463145	-0.673304	0.477457	-0.343965	-0.825777	0.456786	-0.488203	-0.794867	0.417376	-0.483313	-0.866648	0.433074	-0.481722	-0.832957	0.394878	-0.481946	-1.030541	0.273164	-0.448728	-0.991575	0.257279	-0.355129	-1.037986	0.124195	-0.457219	-1.018338	0.114634	-0.342066	-0.976928	0.068251	-0.399617	-1.077185	0.317949	-0.394694	-0.610238	1.490745	-0.113344	-0.500071	1.486476	-0.442260	
46	0.2250	-0.560049	0.983337	-0.163844	-0.536265	0.984438	-0.419429	-0.731928	1.001397	-0.260587	-0.721576	1.013879	-0.344183	-0.552820	0.797260	-0.114308	-0.507077	0.819675	-0.128028	-0.534295	0.763418	-0.116888	-0.482419	0.785328	-0.133330	-0.420076	0.516107	-0.182006	-0.418150	0.508972	-0.291613	-0.467435	0.377196	-0.149646	-0.419666	0.386427	-0.165373	-0.461772	0.329540	-0.156168	-0.416677	0.338582	-0.167229	-0.421871	0.109473	-0.205628	-0.399859	0.120238	-0.296224	-0.276717	0.072764	-0.166234	-0.262733	0.080677	-0.280769	-0.219999	0.108850	-0.216147	-0.486232	0.056954	-0.260430	-0.610985	0.791838	-0.494440	-0.559027	0.789201	-0.485194	-0.617892	0.756555	-0.495905	-0.567071	0.751641	-0.493278	-0.652758	0.493528	-0.465351	-0.649013	0.475629	-0.346121	-0.802691	0.458765	-0.489915	-0.772660	0.418519	-0.485100	-0.844058	0.436026	-0.483286	-0.811305	0.396957	-0.483497	-1.011942	0.281192	-0.449540	-0.972926	0.263705	-0.356181	-1.023618	0.131917	-0.458751	-1.003795	0.121009	-0.344170	-0.963882	0.072246	-0.402248	-1.057081	0.327352	-0.394991	-0.592089	1.489596	-0.111978	-0.484987	1.486140	-0.442020	
47	0.2300	-0.540879	0.981710	-0.163361	-0.518086	0.983941	-0.419010	-0.713234	0.999579	-0.259422	-0.703257	1.012324	-0.343085	-0.534234	0.794251	-0.114270	-0.488308	0.816270	-0.127976	-0.515970	0.760169	-0.116897	-0.463974	0.781672	-0.133419	-0.403801	0.512814	-0.183833	-0.402785	0.505976	-0.293295	-0.450676	0.374048	-0.151217	-0.403129	0.383261	-0.167387	-0.445135	0.326496	-0.157775	-0.400239	0.335529	-0.169335	-0.406217	0.107477	-0.207490	-0.385302	0.118088	-0.298676	-0.261309	0.070658	-0.169587	-0.248627	0.078062	-0.284435	-0.205161	0.105810	-0.220377	-0.471204	0.055811	-0.261775	-0.590843	0.791119	-0.494871	-0.538943	0.789009	-0.485561	-0.597228	0.755722	-0.496606	-0.546400	0.751443	-0.493920	-0.628251	0.492231	-0.467566	-0.624024	0.473690	-0.348285	-0.778809	0.460460	-0.491629	-0.749633	0.419420	-0.486883	-0.820642	0.438666	-0.484862	-0.788805	0.398774	-0.485061	-0.992330	0.288828	-0.450288	-0.953265	0.269798	-0.357165	-1.007833	0.139470	-0.460349	-0.987841	0.127168	-0.346318	-0.949340	0.076348	-0.404953	-1.036075	0.336139	-0.395198	-0.573769	1.488156	-0.110588	-0.469837	1.485473	-0.441893	
48	0.2350	-0.521605	0.979951	-0.162857	-0.499818	0.983243	-0.418606	-0.694474	0.997513	-0.258232	-0.684878	1.010440	-0.341975	-0.515539	0.791120	-0.114222	-0.469439	0.812746	-0.127914	-0.497539	0.756803	-0.116893	-0.445428	0.777898	-0.133485	-0.387526	0.509382	-0.185610	-0.387446	0.502857	-0.294932	-0.434275	0.370987	-0.152775	-0.386958	0.379990	-0.169382	-0.429042	0.323552	-0.159358	-0.384358	0.332394	-0.171426	-0.392111	0.105656	-0.209267	-0.372314	0.115976	-0.301076	-0.247650	0.068359	-0.172804	-0.236272	0.075058	-0.287978	-0.191991	0.102265	-0.224493	-0.457902	0.055056	-0.263037	-0.570370	0.790206	-0.495294	-0.518545	0.788693	-0.485877	-0.576191	0.754705	-0.497311	-0.525364	0.751133	-0.494520	-0.603079	0.490840	-0.469771	-0.598366	0.471689	-0.350437	-0.754157	0.461881	-0.493341	-0.725802	0.420096	-0.488653	-0.796421	0.440994	-0.486441	-0.765466	0.400336	-0.486634	-0.971687	0.296006	-0.450982	-0.932571	0.275502	-0.358087	-0.990580	0.146762	-0.462007	-0.970432	0.133035	-0.348500	-0.933235	0.080492	-0.407712	-1.014164	0.344245	-0.395329	-0.555275	1.486446	-0.109180	-0.454598	1.484499	-0.441871	
49	0.2400	-0.502219	0.978089	-0.162335	-0.481453	0.982354	-0.418219	-0.675638	0.995235	-0.257021	-0.666428	1.008254	-0.340858	-0.496739	0.787912	-0.114164	-0.450473	0.809147	-0.127842	-0.479007	0.753368	-0.116877	-0.426786	0.774051	-0.133530	-0.371267	0.505850	-0.187323	-0.372137	0.499650	-0.296512	-0.418241	0.368033	-0.154307	-0.371156	0.376642	-0.171343	-0.413493	0.320725	-0.160908	-0.369027	0.329199	-0.173487	-0.379505	0.104005	-0.210950	-0.360831	0.113913	-0.303403	-0.235666	0.065897	-0.175859	-0.225575	0.071719	-0.291374	-0.180412	0.098286	-0.228459	-0.446257	0.054653	-0.264212	-0.549576	0.789124	-0.495701	-0.497841	0.788277	-0.486137	-0.554795	0.753533	-0.498013	-0.503976	0.750738	-0.495073	-0.577274	0.489400	-0.471948	-0.572074	0.469677	-0.352559	-0.728763	0.463041	-0.495043	-0.701185	0.420567	-0.490400	-0.771421	0.443012	-0.488019	-0.741303	0.401650	-0.488207	-0.950001	0.302661	-0.451629	-0.910830	0.280768	-0.358955	-0.971824	0.153701	-0.463718	-0.951535	0.138536	-0.350703	-0.915517	0.084613	-0.410508	-0.991352	0.351609	-0.395398	-0.536607	1.484495	-0.107761	-0.439250	1.483248	-0.441942	
50	0.2450	-0.482720	0.976155	-0.161797	-0.462983	0.981292	-0.417849	-0.656720	0.992783	-0.255796	-0.647902	1.005801	-0.339738	-0.477842	0.784672	-0.114093	-0.431421	0.805518	-0.127759	-0.460387	0.749908	-0.116852	-0.408062	0.770175	-0.133554	-0.355050	0.502254	-0.188959	-0.356871	0.496393	-0.298022	-0.402587	0.365201	-0.155803	-0.355735	0.373248	-0.173254	-0.398490	0.318031	-0.162412	-0.354246	0.325973	-0.175499	-0.368332	0.102519	-0.212533	-0.350776	0.111914	-0.305641	-0.225272	0.063312	-0.178732	-0.216437	0.068107	-0.294599	-0.170343	0.093951	-0.232244	-0.436189	0.054564	-0.265295	-0.528474	0.787904	-0.496085	-0.476847	0.787787	-0.486338	-0.533056	0.752240	-0.498701	-0.482256	0.750287	-0.495573	-0.550876	0.487959	-0.474075	-0.545187	0.467704	-0.354628	-0.702663	0.463955	-0.496725	-0.675809	0.420856	-0.492111	-0.745676	0.444724	-0.489587	-0.716338	0.402730	-0.489771	-0.927271	0.308739	-0.452237	-0.888038	0.285551	-0.359773	-0.951544	0.160204	-0.465475	-0.931134	0.143602	-0.352917	-0.896150	0.088643	-0.413319	-0.967652	0.358180	-0.395421	-0.517765	1.482331	-0.106339	-0.423778	1.481752	-0.442099	
51	0.2500	-0.463111	0.974177	-0.161243	-0.444410	0.980075	-0.417494	-0.637721	0.990201	-0.254560	-0.629298	1.003121	-0.338621	-0.458866	0.781441	-0.114008	-0.412299	0.801898	-0.127663	-0.441700	0.746467	-0.116818	-0.389277	0.766309	-0.133558	-0.338911	0.498627	-0.190503	-0.341670	0.493117	-0.299448	-0.387329	0.362507	-0.157248	-0.340707	0.369835	-0.175099	-0.384036	0.315483	-0.163861	-0.340015	0.322741	-0.177447	-0.358522	0.101197	-0.214009	-0.342064	0.109998	-0.307771	-0.216374	0.060643	-0.181406	-0.208746	0.064291	-0.297635	-0.161691	0.089346	-0.235822	-0.427602	0.054757	-0.266282	-0.507088	0.786580	-0.496439	-0.455585	0.787252	-0.486476	-0.511002	0.750861	-0.499366	-0.460231	0.749810	-0.496013	-0.523930	0.486564	-0.476134	-0.517752	0.465823	-0.356624	-0.675902	0.464640	-0.498381	-0.649707	0.420986	-0.493775	-0.719227	0.446137	-0.491136	-0.690600	0.403588	-0.491316	-0.903510	0.314189	-0.452814	-0.864207	0.289812	-0.360548	-0.929735	0.166193	-0.467268	-0.909230	0.148174	-0.355130	-0.875118	0.092516	-0.416126	-0.943085	0.363915	-0.395411	-0.498759	1.479989	-0.104921	-0.408176	1.480047	-0.442329	
52	0.2550	-0.443401	0.972187	-0.160678	-0.425741	0.978726	-0.417156	-0.618645	0.987530	-0.253322	-0.610620	1.000258	-0.337511	-0.439837	0.778260	-0.113907	-0.393133	0.798326	-0.127551	-0.422975	0.743084	-0.116775	-0.370458	0.762491	-0.133539	-0.322891	0.495000	-0.191942	-0.326564	0.489851	-0.300778	-0.372488	0.359962	-0.158631	-0.326093	0.366432	-0.176862	-0.370137	0.313092	-0.165243	-0.326337	0.319527	-0.179312	-0.349990	0.100040	-0.215372	-0.334601	0.108186	-0.309778	-0.208870	0.057935	-0.183867	-0.202387	0.060343	-0.300464	-0.154359	0.084559	-0.239168	-0.420392	0.055199	-0.267171	-0.485449	0.785185	-0.496757	-0.434087	0.786702	-0.486551	-0.488667	0.749433	-0.499998	-0.437936	0.749337	-0.496390	-0.496490	0.485259	-0.478104	-0.489825	0.464083	-0.358527	-0.648531	0.465115	-0.500000	-0.622926	0.420980	-0.495379	-0.692125	0.447260	-0.492659	-0.664132	0.404238	-0.492830	-0.878744	0.318970	-0.453366	-0.839362	0.293518	-0.361281	-0.906417	0.171600	-0.469088	-0.885841	0.152198	-0.357330	-0.852428	0.096169	-0.418910	-0.917688	0.368780	-0.395381	-0.479601	1.477505	-0.103515	-0.392446	1.478171	-0.442624	
53	0.2600	-0.423610	0.970213	-0.160102	-0.406990	0.977269	-0.416832	-0.599506	0.984815	-0.252086	-0.591879	0.997260	-0.336413	-0.420788	0.775165	-0.113786	-0.373955	0.794836	-0.127419	-0.404249	0.739796	-0.116723	-0.351642	0.758752	-0.133496	-0.307040	0.491402	-0.193264	-0.311587	0.486621	-0.301999	-0.358089	0.357574	-0.159938	-0.311914	0.363064	-0.178528	-0.356799	0.310868	-0.166548	-0.313217	0.316359	-0.181080	-0.342649	0.099046	-0.216619	-0.328288	0.106498	-0.311646	-0.202650	0.055231	-0.186106	-0.197241	0.056339	-0.303075	-0.148248	0.079681	-0.242262	-0.414444	0.055862	-0.267959	-0.463598	0.783754	-0.497033	-0.412391	0.786167	-0.486562	-0.466095	0.747992	-0.500589	-0.415415	0.748901	-0.496700	-0.468621	0.484089	-0.479965	-0.461471	0.462530	-0.360316	-0.620615	0.465401	-0.501573	-0.595520	0.420863	-0.496910	-0.664433	0.448107	-0.494146	-0.636987	0.404697	-0.494299	-0.853017	0.323050	-0.453897	-0.813546	0.296647	-0.361977	-0.881629	0.176369	-0.470924	-0.861012	0.155631	-0.359505	-0.828112	0.099543	-0.421650	-0.891511	0.372753	-0.395345	-0.460309	1.474916	-0.102132	-0.376598	1.476164	-0.442972	
54	0.2650	-0.403764	0.968283	-0.159518	-0.388182	0.975731	-0.416522	-0.580324	0.982099	-0.250859	-0.573096	0.994175	-0.335331	-0.401761	0.772187	-0.113643	-0.354806	0.791456	-0.127263	-0.385566	0.736633	-0.116660	-0.332874	0.755122	-0.133426	-0.291412	0.487857	-0.194457	-0.296785	0.483451	-0.303100	-0.344158	0.355350	-0.161157	-0.298197	0.359755	-0.180080	-0.344031	0.308815	-0.167765	-0.300663	0.313258	-0.182733	-0.336402	0.098218	-0.217746	-0.323021	0.104957	-0.313364	-0.197602	0.052575	-0.188115	-0.193184	0.052350	-0.305456	-0.143251	0.074800	-0.245090	-0.409640	0.056717	-0.268645	-0.441583	0.782324	-0.497262	-0.390547	0.785676	-0.486508	-0.443340	0.746576	-0.501130	-0.392722	0.748532	-0.496939	-0.440396	0.483091	-0.481700	-0.432766	0.461206	-0.361972	-0.592231	0.465518	-0.503089	-0.567560	0.420658	-0.498353	-0.636225	0.448690	-0.495588	-0.609232	0.404979	-0.495710	-0.826392	0.326408	-0.454412	-0.786820	0.299183	-0.362636	-0.855438	0.180456	-0.472765	-0.834808	0.158441	-0.361644	-0.802229	0.102586	-0.424328	-0.864619	0.375823	-0.395312	-0.440911	1.472262	-0.100777	-0.360651	1.474065	-0.443364	
55	0.2700	-0.383899	0.966421	-0.158929	-0.369348	0.974140	-0.416225	-0.561128	0.979423	-0.249649	-0.554299	0.991054	-0.334269	-0.382806	0.769356	-0.113476	-0.335733	0.788211	-0.127079	-0.366980	0.733624	-0.116583	-0.314204	0.751624	-0.133326	-0.276065	0.484389	-0.195510	-0.282204	0.480359	-0.304071	-0.330724	0.353293	-0.162277	-0.284969	0.356530	-0.181507	-0.331842	0.306939	-0.168885	-0.288683	0.310247	-0.184259	-0.331151	0.097555	-0.218751	-0.318692	0.103583	-0.314920	-0.193609	0.050007	-0.189892	-0.190093	0.048447	-0.307604	-0.139261	0.070001	-0.247641	-0.405855	0.057740	-0.269229	-0.419466	0.780927	-0.497440	-0.368614	0.785258	-0.486391	-0.420463	0.745218	-0.501614	-0.369921	0.748256	-0.497105	-0.411901	0.482299	-0.483292	-0.403799	0.460145	-0.363481	-0.563467	0.465488	-0.504538	-0.539130	0.420388	-0.499698	-0.607591	0.449027	-0.496974	-0.580950	0.405102	-0.497050	-0.798951	0.329032	-0.454915	-0.759268	0.301119	-0.363260	-0.827934	0.183830	-0.474599	-0.807319	0.160609	-0.363737	-0.774867	0.105254	-0.426928	-0.837095	0.377992	-0.395290	-0.421442	1.469582	-0.099461	-0.344633	1.471914	-0.443790	
56	0.2750	-0.364060	0.964651	-0.158336	-0.350532	0.972524	-0.415939	-0.541959	0.976828	-0.248462	-0.535527	0.987944	-0.333232	-0.363981	0.766694	-0.113281	-0.316794	0.785124	-0.126864	-0.348550	0.730791	-0.116491	-0.295690	0.748279	-0.133192	-0.261062	0.481018	-0.196417	-0.267898	0.477363	-0.304904	-0.317816	0.351404	-0.163288	-0.272259	0.353407	-0.182795	-0.320242	0.305241	-0.169900	-0.277287	0.307346	-0.185644	-0.326794	0.097056	-0.219634	-0.315194	0.102392	-0.316308	-0.190555	0.047565	-0.191438	-0.187848	0.044693	-0.309514	-0.136170	0.065362	-0.249910	-0.402966	0.058907	-0.269711	-0.397316	0.779597	-0.497564	-0.346658	0.784938	-0.486214	-0.397540	0.743950	-0.502035	-0.347083	0.748099	-0.497199	-0.383235	0.481740	-0.484727	-0.374670	0.459378	-0.364827	-0.534426	0.465332	-0.505911	-0.510328	0.420074	-0.500932	-0.578633	0.449133	-0.498297	-0.552242	0.405082	-0.498306	-0.770796	0.330923	-0.455405	-0.730993	0.302459	-0.363848	-0.799238	0.186475	-0.476415	-0.778666	0.162126	-0.365772	-0.746143	0.107513	-0.429432	-0.809040	0.379271	-0.395287	-0.401945	1.466913	-0.098192	-0.328583	1.469752	-0.444241	
57	0.2800	-0.344303	0.962993	-0.157743	-0.331786	0.970912	-0.415664	-0.522863	0.974349	-0.247305	-0.516825	0.984894	-0.332223	-0.345353	0.764219	-0.113059	-0.298050	0.782209	-0.126615	-0.330343	0.728150	-0.116382	-0.277398	0.745101	-0.133022	-0.246465	0.477761	-0.197171	-0.253923	0.474475	-0.305595	-0.305464	0.349680	-0.164182	-0.260096	0.350406	-0.183936	-0.309241	0.303720	-0.170804	-0.266482	0.304573	-0.186879	-0.323231	0.096720	-0.220395	-0.312422	0.101400	-0.317520	-0.188321	0.045280	-0.192759	-0.186328	0.041144	-0.311190	-0.133872	0.060950	-0.251897	-0.400851	0.060197	-0.270093	-0.375212	0.778361	-0.497632	-0.324758	0.784739	-0.485979	-0.374653	0.742801	-0.502388	-0.324293	0.748081	-0.497220	-0.354508	0.481436	-0.485994	-0.345494	0.458925	-0.366000	-0.505224	0.465070	-0.507198	-0.481272	0.419736	-0.502046	-0.549468	0.449029	-0.499547	-0.523221	0.404937	-0.499466	-0.742053	0.332093	-0.455883	-0.702121	0.303214	-0.364399	-0.769495	0.188387	-0.478201	-0.748990	0.162995	-0.367740	-0.716206	0.109339	-0.431826	-0.780571	0.379687	-0.395306	-0.382475	1.464292	-0.096976	-0.312548	1.467614	-0.444708	
58	0.2850	-0.324692	0.961461	-0.157154	-0.313170	0.969331	-0.415399	-0.503901	0.972018	-0.246183	-0.498252	0.981948	-0.331248	-0.326990	0.761945	-0.112806	-0.279572	0.779479	-0.126329	-0.312429	0.725715	-0.116253	-0.259398	0.742102	-0.132813	-0.232338	0.474633	-0.197769	-0.240337	0.471707	-0.306138	-0.293696	0.348119	-0.164954	-0.248508	0.347541	-0.184923	-0.298847	0.302372	-0.171593	-0.256279	0.301944	-0.187957	-0.320362	0.096541	-0.221037	-0.310271	0.100617	-0.318557	-0.186796	0.043178	-0.193861	-0.185421	0.037850	-0.312635	-0.132261	0.056826	-0.253605	-0.399389	0.061589	-0.270379	-0.353242	0.777245	-0.497644	-0.302999	0.784678	-0.485690	-0.351894	0.741793	-0.502669	-0.301641	0.748218	-0.497169	-0.325842	0.481400	-0.487084	-0.316394	0.458798	-0.366992	-0.475993	0.464722	-0.508391	-0.452090	0.419391	-0.503031	-0.520229	0.448736	-0.500716	-0.494021	0.404684	-0.500519	-0.712865	0.332565	-0.456350	-0.672796	0.303407	-0.364912	-0.738878	0.189579	-0.479944	-0.718463	0.163235	-0.369631	-0.685234	0.110719	-0.434099	-0.751824	0.379278	-0.395351	-0.363094	1.461753	-0.095821	-0.296584	1.465534	-0.445182	
59	0.2900	-0.305301	0.960071	-0.156570	-0.294754	0.967806	-0.415143	-0.485138	0.969862	-0.245102	-0.479873	0.979144	-0.330308	-0.308971	0.759882	-0.112524	-0.261434	0.776942	-0.126005	-0.294885	0.723493	-0.116103	-0.241765	0.739290	-0.132563	-0.218742	0.471646	-0.198211	-0.227198	0.469066	-0.306535	-0.282541	0.346716	-0.165600	-0.237524	0.344827	-0.185751	-0.289069	0.301193	-0.172263	-0.246685	0.299469	-0.188874	-0.318090	0.096515	-0.221564	-0.308644	0.100048	-0.319417	-0.185868	0.041280	-0.194755	-0.185019	0.034846	-0.313858	-0.131236	0.053035	-0.255044	-0.398466	0.063065	-0.270573	-0.331504	0.776270	-0.497600	-0.281477	0.784768	-0.485354	-0.329365	0.740947	-0.502877	-0.279227	0.748521	-0.497051	-0.297371	0.481637	-0.487993	-0.287508	0.459003	-0.367799	-0.446875	0.464308	-0.509484	-0.422927	0.419054	-0.503882	-0.491060	0.448274	-0.501797	-0.464788	0.404339	-0.501457	-0.683396	0.332373	-0.456802	-0.643183	0.303068	-0.365385	-0.707586	0.190076	-0.481633	-0.687279	0.162872	-0.371437	-0.653433	0.111650	-0.436237	-0.722951	0.378093	-0.395423	-0.343874	1.459328	-0.094734	-0.280757	1.463545	-0.445658	
60	0.2950	-0.286212	0.958829	-0.155995	-0.276616	0.966360	-0.414896	-0.466650	0.967902	-0.244068	-0.461761	0.976518	-0.329407	-0.291375	0.758033	-0.112213	-0.243714	0.774601	-0.125643	-0.277789	0.721488	-0.115932	-0.224574	0.736670	-0.132271	-0.205736	0.468810	-0.198500	-0.214563	0.466560	-0.306788	-0.272021	0.345462	-0.166118	-0.227165	0.342273	-0.186420	-0.279912	0.300174	-0.172814	-0.237705	0.297160	-0.189627	-0.316324	0.096633	-0.221981	-0.307448	0.099693	-0.320106	-0.185435	0.039600	-0.195456	-0.185021	0.032161	-0.314870	-0.130702	0.049614	-0.256226	-0.397976	0.064606	-0.270679	-0.310099	0.775452	-0.497504	-0.260291	0.785018	-0.484974	-0.307172	0.740275	-0.503012	-0.257159	0.748995	-0.496867	-0.269239	0.482145	-0.488719	-0.258981	0.459533	-0.368420	-0.418024	0.463846	-0.510469	-0.393941	0.418738	-0.504594	-0.462117	0.447665	-0.502784	-0.435682	0.403918	-0.502274	-0.653827	0.331561	-0.457237	-0.613466	0.302234	-0.365816	-0.675838	0.189917	-0.483257	-0.655654	0.161947	-0.373149	-0.621033	0.112141	-0.438234	-0.694118	0.376193	-0.395520	-0.324896	1.457042	-0.093718	-0.265139	1.461671	-0.446127	
61	0.3000	-0.267511	0.957743	-0.155434	-0.258840	0.965013	-0.414657	-0.448520	0.966155	-0.243085	-0.443997	0.974097	-0.328548	-0.274283	0.756397	-0.111875	-0.226493	0.772457	-0.125244	-0.261220	0.719699	-0.115738	-0.207906	0.734243	-0.131938	-0.193374	0.466133	-0.198640	-0.202487	0.464192	-0.306901	-0.262157	0.344351	-0.166511	-0.217454	0.339889	-0.186931	-0.271380	0.299308	-0.173249	-0.229344	0.295024	-0.190219	-0.314977	0.096885	-0.222293	-0.306597	0.099548	-0.320630	-0.185399	0.038144	-0.195980	-0.185336	0.029812	-0.315684	-0.130566	0.046586	-0.257167	-0.397821	0.066195	-0.270705	-0.289137	0.774801	-0.497356	-0.239548	0.785429	-0.484558	-0.285430	0.739786	-0.503075	-0.235546	0.749641	-0.496624	-0.241594	0.482914	-0.489266	-0.230967	0.460376	-0.368859	-0.389601	0.463351	-0.511344	-0.365300	0.418453	-0.505167	-0.433564	0.446934	-0.503671	-0.406877	0.403438	-0.502965	-0.624352	0.330184	-0.457653	-0.583840	0.300953	-0.366204	-0.643876	0.189151	-0.484806	-0.623824	0.160508	-0.374761	-0.588288	0.112212	-0.440083	-0.665503	0.373648	-0.395640	-0.306246	1.454920	-0.092779	-0.249806	1.459937	-0.446583	
62	0.3050	-0.249292	0.956813	-0.154889	-0.241514	0.963782	-0.414427	-0.430834	0.964628	-0.242157	-0.426667	0.971905	-0.327732	-0.257779	0.754972	-0.111513	-0.209853	0.770509	-0.124810	-0.245256	0.718122	-0.115522	-0.191837	0.732009	-0.131566	-0.181702	0.463621	-0.198640	-0.191020	0.461966	-0.306882	-0.252966	0.343373	-0.166781	-0.208405	0.337678	-0.187289	-0.263475	0.298583	-0.173570	-0.221602	0.293064	-0.190655	-0.313970	0.097258	-0.222509	-0.306015	0.099604	-0.320999	-0.185671	0.036913	-0.196342	-0.185881	0.027806	-0.316316	-0.130746	0.043961	-0.257887	-0.397912	0.067816	-0.270657	-0.268728	0.774323	-0.497163	-0.219356	0.786000	-0.484113	-0.264252	0.739482	-0.503069	-0.214505	0.750450	-0.496327	-0.214594	0.483928	-0.489638	-0.203623	0.461511	-0.369122	-0.361775	0.462840	-0.512105	-0.337179	0.418208	-0.505602	-0.405575	0.446103	-0.504457	-0.378552	0.402914	-0.503529	-0.595178	0.328304	-0.458046	-0.554513	0.299276	-0.366546	-0.611952	0.187839	-0.486272	-0.592038	0.158614	-0.376268	-0.555467	0.111890	-0.441778	-0.637292	0.370538	-0.395781	-0.288018	1.452978	-0.091919	-0.234840	1.458360	-0.447022	
63	0.3100	-0.231648	0.956038	-0.154363	-0.224728	0.962680	-0.414206	-0.413684	0.963327	-0.241286	-0.409861	0.969955	-0.326961	-0.241941	0.753749	-0.111130	-0.193875	0.768750	-0.124345	-0.229973	0.716749	-0.115286	-0.176445	0.729964	-0.131156	-0.170761	0.461278	-0.198512	-0.180208	0.459884	-0.306742	-0.244458	0.342519	-0.166936	-0.200030	0.335645	-0.187503	-0.256193	0.297989	-0.173784	-0.214477	0.291283	-0.190943	-0.313233	0.097738	-0.222637	-0.305633	0.099846	-0.321223	-0.186171	0.035904	-0.196564	-0.186584	0.026139	-0.316784	-0.131165	0.041739	-0.258407	-0.398173	0.069451	-0.270545	-0.248984	0.774017	-0.496929	-0.199826	0.786721	-0.483645	-0.243757	0.739360	-0.503000	-0.194149	0.751413	-0.495983	-0.188394	0.485163	-0.489846	-0.177108	0.462908	-0.369221	-0.334716	0.462326	-0.512753	-0.309757	0.418007	-0.505905	-0.378323	0.445195	-0.505140	-0.350891	0.402360	-0.503968	-0.566515	0.325990	-0.458414	-0.525697	0.297261	-0.366844	-0.580332	0.186049	-0.487646	-0.560555	0.156329	-0.377665	-0.522854	0.111212	-0.443318	-0.609678	0.366951	-0.395937	-0.270308	1.451230	-0.091140	-0.220325	1.456951	-0.447440	
64	0.3150	-0.214673	0.955412	-0.153861	-0.208573	0.961714	-0.413995	-0.397162	0.962250	-0.240475	-0.393668	0.968257	-0.326238	-0.226846	0.752719	-0.110731	-0.178633	0.767176	-0.123854	-0.215443	0.715571	-0.115032	-0.161800	0.728103	-0.130714	-0.160585	0.459108	-0.198267	-0.170088	0.457946	-0.306493	-0.236638	0.341779	-0.166983	-0.192334	0.333791	-0.187583	-0.249529	0.297513	-0.173899	-0.207962	0.289679	-0.191092	-0.312703	0.098309	-0.222686	-0.305394	0.100256	-0.321317	-0.186827	0.035104	-0.196662	-0.187382	0.024800	-0.317105	-0.131756	0.039910	-0.258750	-0.398538	0.071085	-0.270376	-0.230014	0.773879	-0.496660	-0.181063	0.787579	-0.483163	-0.224058	0.739411	-0.502873	-0.174592	0.752512	-0.495600	-0.163151	0.486591	-0.489902	-0.151578	0.464534	-0.369169	-0.308593	0.461820	-0.513289	-0.283212	0.417853	-0.506082	-0.351981	0.444232	-0.505719	-0.324080	0.401789	-0.504285	-0.538577	0.323315	-0.458753	-0.497608	0.294969	-0.367095	-0.549283	0.183856	-0.488922	-0.529640	0.153724	-0.378949	-0.490734	0.110223	-0.444703	-0.582852	0.362976	-0.396104	-0.253214	1.449682	-0.090442	-0.206343	1.455718	-0.447831	
65	0.3200	-0.198461	0.954928	-0.153385	-0.193138	0.960890	-0.413793	-0.381357	0.961390	-0.239725	-0.378176	0.966811	-0.325562	-0.212566	0.751867	-0.110321	-0.164201	0.765777	-0.123343	-0.201729	0.714574	-0.114762	-0.147967	0.726420	-0.130245	-0.151194	0.457111	-0.197921	-0.160692	0.456154	-0.306149	-0.229505	0.341143	-0.166934	-0.185315	0.332114	-0.187542	-0.243473	0.297142	-0.173923	-0.202047	0.288249	-0.191117	-0.312325	0.098954	-0.222667	-0.305248	0.100813	-0.321295	-0.187580	0.034501	-0.196658	-0.188222	0.023769	-0.317298	-0.132459	0.038454	-0.258940	-0.398950	0.072701	-0.270160	-0.211923	0.773898	-0.496364	-0.163172	0.788557	-0.482673	-0.205265	0.739621	-0.502695	-0.155942	0.753727	-0.495187	-0.139013	0.488178	-0.489821	-0.127184	0.466348	-0.368981	-0.283568	0.461332	-0.513716	-0.257719	0.417748	-0.506142	-0.326718	0.443237	-0.506198	-0.298297	0.401214	-0.504488	-0.511574	0.320358	-0.459062	-0.470458	0.292463	-0.367302	-0.519070	0.181339	-0.490096	-0.499553	0.150872	-0.380118	-0.459393	0.108970	-0.445935	-0.557002	0.358711	-0.396277	-0.236831	1.448337	-0.089824	-0.192976	1.454665	-0.448195	
66	0.3250	-0.183096	0.954574	-0.152938	-0.178506	0.960206	-0.413602	-0.366355	0.960733	-0.239036	-0.363470	0.965612	-0.324934	-0.199162	0.751179	-0.109906	-0.150642	0.764543	-0.122818	-0.188889	0.713745	-0.114480	-0.135006	0.724908	-0.129755	-0.142604	0.455286	-0.197492	-0.152040	0.454505	-0.305726	-0.223053	0.340601	-0.166800	-0.178966	0.330611	-0.187395	-0.238010	0.296865	-0.173868	-0.196718	0.286987	-0.191032	-0.312054	0.099655	-0.222589	-0.305156	0.101491	-0.321175	-0.188378	0.034075	-0.196571	-0.189061	0.023022	-0.317385	-0.133223	0.037343	-0.259002	-0.399367	0.074286	-0.269907	-0.194808	0.774060	-0.496046	-0.146247	0.789634	-0.482183	-0.187480	0.739975	-0.502473	-0.138297	0.755034	-0.494753	-0.116121	0.489887	-0.489621	-0.104065	0.468306	-0.368678	-0.259794	0.460871	-0.514042	-0.233441	0.417689	-0.506099	-0.302690	0.442231	-0.506580	-0.273715	0.400646	-0.504585	-0.485707	0.317197	-0.459337	-0.444447	0.289808	-0.367466	-0.489948	0.178580	-0.491164	-0.470547	0.147847	-0.381173	-0.429109	0.107507	-0.447019	-0.532306	0.354250	-0.396451	-0.221253	1.447193	-0.089284	-0.180300	1.453787	-0.448529	
67	0.3300	-0.168659	0.954338	-0.152522	-0.164753	0.959661	-0.413422	-0.352235	0.960266	-0.238409	-0.349628	0.964649	-0.324355	-0.186687	0.750639	-0.109492	-0.138010	0.763464	-0.122288	-0.176968	0.713067	-0.114191	-0.122962	0.723558	-0.129252	-0.134817	0.453632	-0.196995	-0.144146	0.453000	-0.305241	-0.217266	0.340143	-0.166594	-0.173274	0.329276	-0.187158	-0.233123	0.296668	-0.173745	-0.191955	0.285887	-0.190853	-0.311854	0.100394	-0.222463	-0.305086	0.102265	-0.320974	-0.189178	0.033807	-0.196418	-0.189867	0.022529	-0.317382	-0.134005	0.036545	-0.258959	-0.399756	0.075822	-0.269626	-0.178754	0.774348	-0.495715	-0.130373	0.790786	-0.481700	-0.170792	0.740450	-0.502218	-0.121747	0.756405	-0.494305	-0.094599	0.491679	-0.489321	-0.082346	0.470362	-0.368278	-0.237409	0.460442	-0.514272	-0.210529	0.417675	-0.505965	-0.280042	0.441231	-0.506872	-0.250489	0.400095	-0.504587	-0.461160	0.313911	-0.459580	-0.419762	0.287067	-0.367588	-0.462158	0.175659	-0.492125	-0.442858	0.144723	-0.382115	-0.400141	0.105886	-0.447960	-0.508928	0.349690	-0.396621	-0.206564	1.446243	-0.088818	-0.168383	1.453079	-0.448832	
68	0.3350	-0.155216	0.954205	-0.152140	-0.151943	0.959246	-0.413255	-0.339066	0.959967	-0.237842	-0.336717	0.963907	-0.323825	-0.175183	0.750230	-0.109083	-0.126349	0.762528	-0.121760	-0.166002	0.712526	-0.113899	-0.111873	0.722362	-0.128744	-0.127826	0.452146	-0.196450	-0.137012	0.451634	-0.304712	-0.212125	0.339760	-0.166330	-0.168218	0.328103	-0.186849	-0.228789	0.296539	-0.173567	-0.187737	0.284940	-0.190597	-0.311696	0.101154	-0.222299	-0.305016	0.103109	-0.320708	-0.189948	0.033673	-0.196218	-0.190614	0.022255	-0.317309	-0.134774	0.036021	-0.258835	-0.400093	0.077298	-0.269326	-0.163835	0.774741	-0.495378	-0.115622	0.791986	-0.481231	-0.155278	0.741024	-0.501938	-0.106368	0.757813	-0.493854	-0.074556	0.493515	-0.488941	-0.062134	0.472471	-0.367802	-0.216532	0.460050	-0.514416	-0.189114	0.417701	-0.505754	-0.258898	0.440257	-0.507080	-0.228758	0.399570	-0.504508	-0.438099	0.310576	-0.459788	-0.396571	0.284300	-0.367673	-0.435914	0.172655	-0.492981	-0.416702	0.141570	-0.382945	-0.372727	0.104163	-0.448766	-0.487015	0.345120	-0.396785	-0.192840	1.445475	-0.088424	-0.157284	1.452530	-0.449103	
69	0.3400	-0.142822	0.954160	-0.151792	-0.140131	0.958951	-0.413100	-0.326905	0.959815	-0.237333	-0.324793	0.963364	-0.323342	-0.164677	0.749934	-0.108687	-0.115689	0.761723	-0.121242	-0.156013	0.712104	-0.113608	-0.101763	0.721311	-0.128239	-0.121614	0.450822	-0.195875	-0.130631	0.450406	-0.304154	-0.207603	0.339444	-0.166023	-0.163772	0.327084	-0.186485	-0.224982	0.296466	-0.173346	-0.184037	0.284134	-0.190281	-0.311558	0.101915	-0.222109	-0.304932	0.103994	-0.320396	-0.190663	0.033651	-0.195985	-0.191286	0.022166	-0.317182	-0.135501	0.035732	-0.258651	-0.400363	0.078700	-0.269017	-0.150108	0.775218	-0.495041	-0.102050	0.793209	-0.480782	-0.141000	0.741673	-0.501641	-0.092218	0.759230	-0.493407	-0.056078	0.495356	-0.488501	-0.043514	0.474586	-0.367273	-0.197261	0.459698	-0.514485	-0.169304	0.417761	-0.505484	-0.239360	0.439323	-0.507214	-0.208635	0.399076	-0.504360	-0.416665	0.307264	-0.459963	-0.375014	0.281565	-0.367724	-0.411407	0.169642	-0.493732	-0.392264	0.138456	-0.383670	-0.347075	0.102388	-0.449447	-0.466689	0.340628	-0.396937	-0.180143	1.444875	-0.088095	-0.147052	1.452127	-0.449343	
70	0.3450	-0.131517	0.954188	-0.151479	-0.129355	0.958763	-0.412958	-0.315793	0.959788	-0.236882	-0.313897	0.962998	-0.322907	-0.155186	0.749733	-0.108307	-0.106046	0.761039	-0.120741	-0.147011	0.711785	-0.113323	-0.092642	0.720394	-0.127744	-0.116156	0.449655	-0.195286	-0.124986	0.449311	-0.303585	-0.203669	0.339186	-0.165686	-0.159905	0.326209	-0.186083	-0.221672	0.296439	-0.173094	-0.180824	0.283458	-0.189925	-0.311426	0.102664	-0.221900	-0.304825	0.104896	-0.320052	-0.191307	0.033718	-0.195735	-0.191872	0.022225	-0.317019	-0.136169	0.035637	-0.258426	-0.400561	0.080015	-0.268706	-0.137614	0.775755	-0.494712	-0.089696	0.794429	-0.480358	-0.127999	0.742372	-0.501338	-0.079338	0.760627	-0.492972	-0.039228	0.497164	-0.488021	-0.026546	0.476664	-0.366711	-0.179667	0.459387	-0.514490	-0.151181	0.417849	-0.505168	-0.221505	0.438442	-0.507282	-0.190209	0.398620	-0.504159	-0.396969	0.304038	-0.460106	-0.355204	0.278914	-0.367746	-0.388787	0.166687	-0.494384	-0.369698	0.135440	-0.384294	-0.323355	0.100612	-0.450013	-0.448045	0.336291	-0.397075	-0.168522	1.444427	-0.087825	-0.137719	1.451852	-0.449553	
71	0.3500	-0.121324	0.954273	-0.151202	-0.119637	0.958668	-0.412830	-0.305758	0.959860	-0.236485	-0.304056	0.962784	-0.322518	-0.146708	0.749611	-0.107950	-0.097424	0.760462	-0.120265	-0.138989	0.711552	-0.113049	-0.084508	0.719602	-0.127269	-0.111418	0.448638	-0.194701	-0.120051	0.448346	-0.303020	-0.200287	0.338978	-0.165334	-0.156581	0.325467	-0.185661	-0.218825	0.296447	-0.172824	-0.178066	0.282901	-0.189543	-0.311291	0.103385	-0.221683	-0.304692	0.105790	-0.319692	-0.191871	0.033852	-0.195480	-0.192368	0.022399	-0.316832	-0.136765	0.035695	-0.258177	-0.400686	0.081236	-0.268402	-0.126371	0.776330	-0.494396	-0.078581	0.795619	-0.479963	-0.116298	0.743095	-0.501035	-0.067750	0.761979	-0.492558	-0.024042	0.498906	-0.487521	-0.011265	0.478667	-0.366135	-0.163793	0.459118	-0.514441	-0.134800	0.417959	-0.504824	-0.205380	0.437625	-0.507296	-0.173539	0.398206	-0.503919	-0.379090	0.300959	-0.460219	-0.337220	0.276392	-0.367743	-0.368172	0.163850	-0.494940	-0.349121	0.132574	-0.384823	-0.301697	0.098878	-0.450475	-0.431149	0.332177	-0.397199	-0.158007	1.444110	-0.087609	-0.129308	1.451689	-0.449733	
72	0.3550	-0.112248	0.954399	-0.150959	-0.110983	0.958649	-0.412715	-0.296807	0.960009	-0.236139	-0.295278	0.962694	-0.322174	-0.139229	0.749551	-0.107619	-0.089809	0.759981	-0.119820	-0.131930	0.711392	-0.112789	-0.077342	0.718925	-0.126819	-0.107356	0.447761	-0.194132	-0.115791	0.447503	-0.302473	-0.197415	0.338813	-0.164978	-0.153760	0.324846	-0.185234	-0.216408	0.296480	-0.172546	-0.175728	0.282449	-0.189151	-0.311149	0.104065	-0.221466	-0.304535	0.106655	-0.319330	-0.192350	0.034033	-0.195229	-0.192777	0.022654	-0.316634	-0.137282	0.035867	-0.257921	-0.400743	0.082352	-0.268111	-0.116382	0.776921	-0.494099	-0.068705	0.796759	-0.479602	-0.105899	0.743821	-0.500741	-0.057454	0.763263	-0.492169	-0.010529	0.500553	-0.487017	0.002322	0.480559	-0.365563	-0.149653	0.458889	-0.514352	-0.120182	0.418083	-0.504465	-0.191004	0.436880	-0.507266	-0.158650	0.397836	-0.503653	-0.363073	0.298073	-0.460306	-0.321107	0.274036	-0.367720	-0.349633	0.161181	-0.495408	-0.330605	0.129901	-0.385265	-0.282190	0.097223	-0.450844	-0.416033	0.328343	-0.397305	-0.148613	1.443906	-0.087441	-0.121822	1.451618	-0.449887	
73	0.3600	-0.104277	0.954552	-0.150749	-0.103381	0.958691	-0.412614	-0.288932	0.960211	-0.235842	-0.287555	0.962703	-0.321873	-0.132720	0.749540	-0.107318	-0.083174	0.759586	-0.119410	-0.125801	0.711289	-0.112548	-0.071115	0.718352	-0.126401	-0.103922	0.447015	-0.193594	-0.112165	0.446777	-0.301956	-0.195010	0.338685	-0.164631	-0.151398	0.324336	-0.184815	-0.214381	0.296532	-0.172271	-0.173771	0.282089	-0.188764	-0.310999	0.104694	-0.221254	-0.304357	0.107471	-0.318978	-0.192745	0.034241	-0.194991	-0.193102	0.022961	-0.316436	-0.137721	0.036118	-0.257668	-0.400741	0.083360	-0.267839	-0.107627	0.777508	-0.493825	-0.060050	0.797827	-0.479277	-0.096783	0.744527	-0.500461	-0.048430	0.764457	-0.491811	0.001330	0.502079	-0.486526	0.014239	0.482312	-0.365012	-0.137233	0.458698	-0.514233	-0.107318	0.418216	-0.504105	-0.178364	0.436211	-0.507202	-0.145539	0.397510	-0.503376	-0.348926	0.295420	-0.460368	-0.306875	0.271877	-0.367682	-0.333201	0.158721	-0.495795	-0.314183	0.127456	-0.385629	-0.264873	0.095681	-0.451134	-0.402700	0.324835	-0.397395	-0.140334	1.443794	-0.087312	-0.115251	1.451621	-0.450015	
74	0.3650	-0.097379	0.954720	-0.150572	-0.096802	0.958778	-0.412526	-0.282108	0.960447	-0.235589	-0.280862	0.962785	-0.321613	-0.127139	0.749562	-0.107048	-0.077477	0.759264	-0.119040	-0.120558	0.711231	-0.112328	-0.065783	0.717874	-0.126020	-0.101064	0.446389	-0.193096	-0.109126	0.446160	-0.301477	-0.193027	0.338587	-0.164300	-0.149451	0.323922	-0.184416	-0.212707	0.296594	-0.172007	-0.172157	0.281809	-0.188393	-0.310843	0.105265	-0.221054	-0.304167	0.108225	-0.318645	-0.193062	0.034461	-0.194772	-0.193352	0.023294	-0.316245	-0.138081	0.036416	-0.257428	-0.400690	0.084255	-0.267589	-0.100068	0.778072	-0.493576	-0.052576	0.798808	-0.478989	-0.088909	0.745197	-0.500202	-0.040640	0.765547	-0.491488	0.011582	0.503466	-0.486061	0.024534	0.483904	-0.364494	-0.126486	0.458542	-0.514097	-0.096171	0.418351	-0.503757	-0.167419	0.435623	-0.507115	-0.134167	0.397229	-0.503099	-0.336621	0.293028	-0.460410	-0.294495	0.269936	-0.367633	-0.318863	0.156500	-0.496109	-0.299844	0.125262	-0.385922	-0.249742	0.094274	-0.451354	-0.391117	0.321684	-0.397469	-0.133146	1.443754	-0.087218	-0.109570	1.451678	-0.450121	
75	0.3700	-0.091509	0.954892	-0.150423	-0.091203	0.958894	-0.412451	-0.276290	0.960697	-0.235378	-0.275155	0.962917	-0.321391	-0.122430	0.749608	-0.106810	-0.072666	0.759007	-0.118712	-0.116145	0.711206	-0.112131	-0.061290	0.717481	-0.125680	-0.098723	0.445874	-0.192646	-0.106619	0.445643	-0.301046	-0.191418	0.338514	-0.163995	-0.147872	0.323593	-0.184048	-0.211346	0.296661	-0.171762	-0.170848	0.281596	-0.188047	-0.310686	0.105773	-0.220870	-0.303970	0.108904	-0.318340	-0.193306	0.034680	-0.194576	-0.193536	0.023630	-0.316068	-0.138370	0.036735	-0.257209	-0.400603	0.085037	-0.267366	-0.093647	0.778600	-0.493356	-0.046229	0.799690	-0.478738	-0.082220	0.745815	-0.499968	-0.034023	0.766522	-0.491202	0.020298	0.504700	-0.485633	0.033282	0.485320	-0.364019	-0.117342	0.458417	-0.513951	-0.086670	0.418483	-0.503430	-0.158097	0.435114	-0.507014	-0.124468	0.396991	-0.502833	-0.326099	0.290915	-0.460435	-0.283908	0.268226	-0.367579	-0.306564	0.154535	-0.496359	-0.287536	0.123334	-0.386154	-0.236744	0.093020	-0.451518	-0.381223	0.318910	-0.397528	-0.127008	1.443767	-0.087151	-0.104738	1.451774	-0.450206	
76	0.3750	-0.086602	0.955059	-0.150302	-0.086522	0.959027	-0.412388	-0.271420	0.960946	-0.235203	-0.270378	0.963077	-0.321206	-0.118528	0.749667	-0.106606	-0.068675	0.758805	-0.118428	-0.112497	0.711204	-0.111958	-0.057572	0.717162	-0.125383	-0.096842	0.445456	-0.192249	-0.104590	0.445218	-0.300665	-0.190136	0.338461	-0.163720	-0.146614	0.323337	-0.183716	-0.210259	0.296728	-0.171539	-0.169805	0.281439	-0.187735	-0.310531	0.106214	-0.220706	-0.303776	0.109502	-0.318066	-0.193489	0.034887	-0.194406	-0.193665	0.023952	-0.315910	-0.138594	0.037052	-0.257015	-0.400492	0.085707	-0.267170	-0.088292	0.779079	-0.493164	-0.040935	0.800464	-0.478525	-0.076640	0.746370	-0.499760	-0.028505	0.767373	-0.490953	0.027575	0.505773	-0.485248	0.040580	0.486551	-0.363597	-0.109703	0.458320	-0.513806	-0.078720	0.418607	-0.503131	-0.150302	0.434683	-0.506908	-0.116348	0.396793	-0.502585	-0.317267	0.289089	-0.460447	-0.275020	0.266751	-0.367524	-0.296211	0.152837	-0.496554	-0.277168	0.121674	-0.386334	-0.225789	0.091928	-0.451634	-0.372925	0.316518	-0.397573	-0.121860	1.443818	-0.087107	-0.100704	1.451891	-0.450274	
77	0.3800	-0.082584	0.955214	-0.150205	-0.082690	0.959164	-0.412336	-0.267425	0.961181	-0.235062	-0.266460	0.963249	-0.321053	-0.115360	0.749731	-0.106434	-0.065430	0.758649	-0.118187	-0.109541	0.711217	-0.111811	-0.054557	0.716908	-0.125128	-0.095360	0.445123	-0.191907	-0.102980	0.444875	-0.300338	-0.189135	0.338424	-0.163480	-0.145633	0.323142	-0.183426	-0.209408	0.296791	-0.171343	-0.168989	0.281327	-0.187461	-0.310385	0.106588	-0.220564	-0.303592	0.110015	-0.317829	-0.193618	0.035074	-0.194262	-0.193750	0.024247	-0.315773	-0.138762	0.037350	-0.256849	-0.400370	0.086269	-0.267003	-0.083916	0.779502	-0.493002	-0.036608	0.801129	-0.478346	-0.072079	0.746856	-0.499582	-0.023996	0.768100	-0.490743	0.033527	0.506686	-0.484913	0.046546	0.487597	-0.363230	-0.103450	0.458247	-0.513668	-0.072205	0.418719	-0.502867	-0.143918	0.434326	-0.506802	-0.109687	0.396633	-0.502362	-0.310006	0.287547	-0.460449	-0.267712	0.265508	-0.367469	-0.287676	0.151404	-0.496701	-0.268615	0.120280	-0.386469	-0.216748	0.091001	-0.451715	-0.366108	0.314503	-0.397607	-0.117632	1.443890	-0.087079	-0.097404	1.452019	-0.450326	
