PathFileType	4	(X/Y/Z)	 P8 pr2 03.trc
DataRate	CameraRate	NumFrames	NumMarkers	Units	OrigDataRate	OrigDataStartFrame	OrigNumFrames
200	200	89	38	m	200	1	89
Frame#	Time	RASIS			LASIS			RPSIS			LPSIS			RThighRear1			RThighFront1			RThighRear2			RThighFront2			RKneeLat			RKneeMed			RShankRear1			RShankFront1			RShankRear2			RShankFront2			RAnkleLat			RAnkleMed			RM5			RM1			RMid			RHeel			LThighRear1			LThighFront1			LThighRear2			LThighFront2			LKneeLat			LKneeMed			LShankRear1			LShankFront1			LShankRear2			LShankFront2			LAnkleLat			LAnkleMed			LM5			LM1			LMid			LHeel			RShoulder			LShoulder			
		X1	Y1	Z1	X2	Y2	Z2	X3	Y3	Z3	X4	Y4	Z4	X5	Y5	Z5	X6	Y6	Z6	X7	Y7	Z7	X8	Y8	Z8	X9	Y9	Z9	X10	Y10	Z10	X11	Y11	Z11	X12	Y12	Z12	X13	Y13	Z13	X14	Y14	Z14	X15	Y15	Z15	X16	Y16	Z16	X17	Y17	Z17	X18	Y18	Z18	X19	Y19	Z19	X20	Y20	Z20	X21	Y21	Z21	X22	Y22	Z22	X23	Y23	Z23	X24	Y24	Z24	X25	Y25	Z25	X26	Y26	Z26	X27	Y27	Z27	X28	Y28	Z28	X29	Y29	Z29	X30	Y30	Z30	X31	Y31	Z31	X32	Y32	Z32	X33	Y33	Z33	X34	Y34	Z34	X35	Y35	Z35	X36	Y36	Z36	X37	Y37	Z37	X38	Y38	Z38	
1	0.0000	-1.258988	0.943255	-0.189233	-1.294545	0.949954	-0.443500	-1.444343	0.991879	-0.248398	-1.456994	0.988824	-0.333078	-1.350251	0.753396	-0.121867	-1.303222	0.743034	-0.137956	-1.358879	0.715096	-0.121984	-1.306901	0.699191	-0.138008	-1.456808	0.450007	-0.163072	-1.468610	0.438215	-0.272690	-1.598772	0.443395	-0.127367	-1.577336	0.399861	-0.141446	-1.641851	0.424309	-0.131160	-1.621524	0.383689	-0.139859	-1.840006	0.337504	-0.158483	-1.828625	0.312621	-0.251925	-1.931079	0.202150	-0.141100	-1.908250	0.192668	-0.255674	-1.910399	0.148591	-0.193531	-1.869033	0.406932	-0.217756	-1.301424	0.772421	-0.500358	-1.252078	0.794611	-0.484962	-1.289862	0.739113	-0.500219	-1.240922	0.758780	-0.490176	-1.177327	0.507113	-0.438440	-1.179939	0.506047	-0.320792	-1.249281	0.368112	-0.463361	-1.198929	0.367804	-0.454635	-1.256041	0.320698	-0.458733	-1.205149	0.323896	-0.455114	-1.239156	0.095562	-0.409332	-1.204348	0.119471	-0.315356	-1.117496	0.040486	-0.436671	-1.092277	0.037360	-0.320690	-1.032923	0.059017	-0.385449	-1.306154	0.069420	-0.351997	-1.194583	1.432575	-0.145779	-1.246045	1.455647	-0.493774	
2	0.0050	-1.245248	0.941824	-0.188772	-1.279591	0.948150	-0.443476	-1.430865	0.988820	-0.248637	-1.443042	0.986130	-0.333451	-1.334672	0.751556	-0.121011	-1.287538	0.742056	-0.136824	-1.342614	0.713145	-0.120962	-1.290413	0.698177	-0.136733	-1.436428	0.447545	-0.161207	-1.447484	0.435211	-0.270913	-1.578237	0.442657	-0.125969	-1.557353	0.398648	-0.140208	-1.621486	0.424256	-0.129819	-1.601733	0.383279	-0.138700	-1.820654	0.340220	-0.158313	-1.808949	0.315711	-0.251588	-1.914503	0.206299	-0.142848	-1.890554	0.197369	-0.257119	-1.894160	0.152709	-0.195481	-1.848007	0.410642	-0.217008	-1.286984	0.769817	-0.500119	-1.237463	0.791771	-0.485239	-1.275672	0.736404	-0.499871	-1.226677	0.755793	-0.490293	-1.165013	0.503882	-0.437967	-1.167281	0.502921	-0.320310	-1.239286	0.366893	-0.462531	-1.189186	0.365326	-0.453870	-1.247327	0.320005	-0.457950	-1.196585	0.321806	-0.454266	-1.237862	0.096086	-0.408376	-1.202756	0.119106	-0.313990	-1.117070	0.040501	-0.436814	-1.091347	0.036577	-0.320648	-1.032417	0.057571	-0.385332	-1.305256	0.069846	-0.351235	-1.183307	1.431291	-0.145643	-1.232092	1.452835	-0.494965	
3	0.0100	-1.231342	0.940395	-0.188288	-1.264409	0.946342	-0.443434	-1.417202	0.985763	-0.248910	-1.428876	0.983452	-0.333856	-1.318887	0.749714	-0.120139	-1.271639	0.741087	-0.135675	-1.326127	0.711196	-0.119920	-1.273694	0.697176	-0.135435	-1.415713	0.445073	-0.159318	-1.426012	0.432198	-0.269115	-1.557360	0.441893	-0.124537	-1.537030	0.397411	-0.138956	-1.600783	0.424180	-0.128450	-1.581604	0.382849	-0.137529	-1.800965	0.342919	-0.158147	-1.788943	0.318794	-0.251258	-1.897559	0.210377	-0.144599	-1.872514	0.202018	-0.258574	-1.877543	0.156750	-0.197436	-1.826677	0.414347	-0.216255	-1.272382	0.767198	-0.499881	-1.222676	0.788895	-0.485520	-1.261332	0.733674	-0.499523	-1.212276	0.752767	-0.490414	-1.152634	0.500582	-0.437501	-1.154537	0.499717	-0.319841	-1.229250	0.365626	-0.461701	-1.179408	0.362789	-0.453105	-1.238585	0.319274	-0.457167	-1.187997	0.319665	-0.453417	-1.236585	0.096605	-0.407419	-1.201184	0.118749	-0.312622	-1.116653	0.040520	-0.436952	-1.090423	0.035800	-0.320606	-1.031914	0.056145	-0.385215	-1.304390	0.070274	-0.350466	-1.171885	1.430020	-0.145498	-1.217920	1.449996	-0.496161	
4	0.0150	-1.217292	0.938991	-0.187775	-1.249005	0.944547	-0.443366	-1.403365	0.982744	-0.249226	-1.414501	0.980822	-0.334298	-1.302912	0.747901	-0.119254	-1.255541	0.740152	-0.134511	-1.309433	0.709279	-0.118859	-1.256763	0.696218	-0.134119	-1.394658	0.442626	-0.157415	-1.404190	0.429216	-0.267303	-1.536137	0.441107	-0.123077	-1.516355	0.396162	-0.137697	-1.579735	0.424076	-0.127062	-1.561122	0.382399	-0.136357	-1.780921	0.345557	-0.157994	-1.768592	0.321827	-0.250948	-1.880171	0.214306	-0.146335	-1.854072	0.206531	-0.260025	-1.860456	0.160637	-0.199374	-1.805060	0.417989	-0.215513	-1.257646	0.764586	-0.499644	-1.207749	0.786000	-0.485801	-1.246878	0.730947	-0.499176	-1.197755	0.749718	-0.490538	-1.140261	0.497229	-0.437047	-1.141777	0.496446	-0.319390	-1.219234	0.364319	-0.460881	-1.169659	0.360208	-0.452350	-1.229871	0.318511	-0.456393	-1.179444	0.317487	-0.452578	-1.235336	0.097123	-0.406475	-1.199642	0.118411	-0.311269	-1.116252	0.040541	-0.437085	-1.089519	0.035035	-0.320562	-1.031425	0.054759	-0.385099	-1.303568	0.070715	-0.349699	-1.160333	1.428786	-0.145341	-1.203528	1.447153	-0.497349	
5	0.0200	-1.203111	0.937635	-0.187228	-1.233378	0.942786	-0.443264	-1.389358	0.979796	-0.249594	-1.399915	0.978276	-0.334785	-1.286758	0.746144	-0.118356	-1.239252	0.739279	-0.133335	-1.292540	0.707425	-0.117779	-1.239625	0.695334	-0.132786	-1.373249	0.440239	-0.155506	-1.382005	0.426306	-0.265488	-1.514556	0.440305	-0.121597	-1.495307	0.394912	-0.136440	-1.558328	0.423939	-0.125662	-1.540264	0.381930	-0.135195	-1.760495	0.348088	-0.157866	-1.747867	0.324760	-0.250669	-1.862251	0.218004	-0.148038	-1.835154	0.210824	-0.261460	-1.842793	0.164288	-0.201274	-1.783164	0.421504	-0.214798	-1.242802	0.762004	-0.499409	-1.192705	0.783102	-0.486077	-1.232339	0.728245	-0.498830	-1.183140	0.746664	-0.490661	-1.127962	0.493837	-0.436612	-1.129070	0.493121	-0.318964	-1.209298	0.362982	-0.460081	-1.159997	0.357600	-0.451615	-1.221238	0.317727	-0.455637	-1.170977	0.315286	-0.451758	-1.234123	0.097646	-0.405558	-1.198143	0.118107	-0.309948	-1.115874	0.040561	-0.437211	-1.088650	0.034289	-0.320515	-1.030958	0.053429	-0.384983	-1.302796	0.071185	-0.348946	-1.148661	1.427614	-0.145167	-1.188907	1.444332	-0.498514	
6	0.0250	-1.188808	0.936351	-0.186645	-1.217520	0.941077	-0.443120	-1.375178	0.976956	-0.250022	-1.385107	0.975847	-0.335324	-1.270426	0.744475	-0.117444	-1.222775	0.738500	-0.132147	-1.275448	0.705668	-0.116680	-1.222282	0.694558	-0.131438	-1.351465	0.437949	-0.153600	-1.359435	0.423513	-0.263677	-1.492596	0.439494	-0.120106	-1.473856	0.393675	-0.135193	-1.536539	0.423768	-0.124263	-1.518997	0.381444	-0.134052	-1.739650	0.350464	-0.157773	-1.726732	0.327545	-0.250434	-1.843699	0.221392	-0.149690	-1.815675	0.214810	-0.262863	-1.824438	0.167626	-0.203112	-1.760988	0.424829	-0.214130	-1.227868	0.759478	-0.499173	-1.177561	0.780218	-0.486340	-1.217737	0.725594	-0.498486	-1.168455	0.743620	-0.490779	-1.115800	0.490427	-0.436201	-1.116480	0.489757	-0.318570	-1.199497	0.361629	-0.459309	-1.150477	0.354982	-0.450909	-1.212735	0.316933	-0.454908	-1.162649	0.313082	-0.450968	-1.232950	0.098183	-0.404684	-1.196693	0.117852	-0.308678	-1.115528	0.040577	-0.437331	-1.087828	0.033568	-0.320466	-1.030524	0.052173	-0.384869	-1.302079	0.071701	-0.348220	-1.136878	1.426530	-0.144971	-1.174043	1.441558	-0.499641	
7	0.0300	-1.174385	0.935165	-0.186020	-1.201423	0.939440	-0.442927	-1.360819	0.974257	-0.250518	-1.370066	0.973567	-0.335918	-1.253914	0.742926	-0.116520	-1.206108	0.737844	-0.130951	-1.258155	0.704041	-0.115564	-1.204733	0.693923	-0.130078	-1.329282	0.435797	-0.151706	-1.336456	0.420882	-0.261881	-1.470233	0.438683	-0.118616	-1.451968	0.392465	-0.133967	-1.514342	0.423561	-0.122876	-1.497287	0.380943	-0.132940	-1.718347	0.352640	-0.157726	-1.705147	0.330132	-0.250257	-1.824411	0.224390	-0.151274	-1.795544	0.218404	-0.264222	-1.805271	0.170575	-0.204868	-1.738529	0.427899	-0.213529	-1.212856	0.757031	-0.498936	-1.162332	0.777363	-0.486585	-1.203091	0.723017	-0.498144	-1.153716	0.740606	-0.490888	-1.103833	0.487018	-0.435818	-1.104067	0.486371	-0.318212	-1.189881	0.360276	-0.458576	-1.141152	0.352377	-0.450240	-1.204407	0.316144	-0.454215	-1.154503	0.310896	-0.450218	-1.231822	0.098741	-0.403868	-1.195299	0.117659	-0.307478	-1.115218	0.040586	-0.437443	-1.087067	0.032876	-0.320414	-1.030130	0.051005	-0.384757	-1.301420	0.072283	-0.347532	-1.124985	1.425559	-0.144748	-1.158916	1.438859	-0.500714	
8	0.0350	-1.159842	0.934101	-0.185351	-1.185074	0.937894	-0.442680	-1.346272	0.971734	-0.251088	-1.354779	0.971467	-0.336574	-1.237217	0.741528	-0.115585	-1.189245	0.737345	-0.129747	-1.240653	0.702578	-0.114432	-1.186971	0.693464	-0.128707	-1.306674	0.433822	-0.149834	-1.313043	0.418458	-0.260110	-1.447445	0.437882	-0.117138	-1.429612	0.391300	-0.132769	-1.491713	0.423316	-0.121514	-1.475097	0.380433	-0.131870	-1.696545	0.354569	-0.157739	-1.683069	0.332473	-0.250151	-1.804283	0.226925	-0.152770	-1.774670	0.221524	-0.265521	-1.785170	0.173063	-0.206517	-1.715780	0.430647	-0.213017	-1.197776	0.754686	-0.498696	-1.147029	0.774556	-0.486803	-1.188416	0.720540	-0.497802	-1.138939	0.737639	-0.490980	-1.092113	0.483636	-0.435467	-1.091891	0.482985	-0.317893	-1.180497	0.358943	-0.457891	-1.132065	0.349810	-0.449617	-1.196295	0.315378	-0.453568	-1.146580	0.308752	-0.449516	-1.230739	0.099333	-0.403125	-1.193964	0.117543	-0.306366	-1.114950	0.040583	-0.437550	-1.086380	0.032216	-0.320358	-1.029785	0.049937	-0.384646	-1.300816	0.072953	-0.346898	-1.112986	1.424727	-0.144495	-1.143507	1.436263	-0.501719	
9	0.0400	-1.145177	0.933184	-0.184637	-1.168464	0.936458	-0.442371	-1.331527	0.969419	-0.251736	-1.339232	0.969577	-0.337293	-1.220328	0.740313	-0.114638	-1.172181	0.737033	-0.128538	-1.222936	0.701312	-0.113287	-1.168991	0.693214	-0.127331	-1.283621	0.432063	-0.147992	-1.289173	0.416288	-0.258372	-1.424210	0.437103	-0.115687	-1.406755	0.390197	-0.131611	-1.468626	0.423037	-0.120194	-1.452395	0.379919	-0.130854	-1.674205	0.356207	-0.157824	-1.660456	0.334519	-0.250129	-1.783216	0.228927	-0.154163	-1.752961	0.224093	-0.266745	-1.764018	0.175026	-0.208039	-1.692733	0.433008	-0.212616	-1.182636	0.752468	-0.498450	-1.131659	0.771814	-0.486987	-1.173722	0.718187	-0.497459	-1.124135	0.734740	-0.491051	-1.080688	0.480306	-0.435149	-1.080004	0.479622	-0.317615	-1.171383	0.357652	-0.457262	-1.123257	0.347308	-0.449046	-1.188430	0.314654	-0.452975	-1.138914	0.306675	-0.448871	-1.229699	0.099971	-0.402469	-1.192685	0.117519	-0.305360	-1.114730	0.040566	-0.437652	-1.085776	0.031593	-0.320298	-1.029498	0.048979	-0.384536	-1.300263	0.073734	-0.346330	-1.100881	1.424057	-0.144208	-1.127796	1.433800	-0.502638	
10	0.0450	-1.130385	0.932438	-0.183876	-1.151584	0.935149	-0.441998	-1.316574	0.967343	-0.252463	-1.323415	0.967922	-0.338076	-1.203240	0.739312	-0.113683	-1.154912	0.736940	-0.127327	-1.204995	0.700275	-0.112129	-1.150788	0.693208	-0.125951	-1.260105	0.430561	-0.146192	-1.264829	0.414415	-0.256679	-1.400514	0.436358	-0.114279	-1.383373	0.389174	-0.130502	-1.445064	0.422726	-0.118930	-1.429153	0.379408	-0.129905	-1.651295	0.357512	-0.157993	-1.637272	0.336224	-0.250204	-1.761116	0.230336	-0.155436	-1.730332	0.226039	-0.267881	-1.741708	0.176409	-0.209413	-1.669383	0.434918	-0.212348	-1.167441	0.750400	-0.498195	-1.116229	0.769156	-0.487128	-1.159018	0.715981	-0.497114	-1.109313	0.731926	-0.491094	-1.069599	0.477058	-0.434865	-1.068455	0.476311	-0.317379	-1.162574	0.356429	-0.456697	-1.114761	0.344901	-0.448535	-1.180843	0.313997	-0.452443	-1.131535	0.304696	-0.448293	-1.228697	0.100670	-0.401916	-1.191459	0.117601	-0.304476	-1.114559	0.040529	-0.437752	-1.085264	0.031007	-0.320233	-1.029274	0.048137	-0.384428	-1.299751	0.074650	-0.345844	-1.088670	1.423572	-0.143882	-1.111767	1.431499	-0.503455	
11	0.0500	-1.115464	0.931885	-0.183071	-1.134429	0.933984	-0.441556	-1.301405	0.965534	-0.253270	-1.307318	0.966525	-0.338922	-1.185948	0.738555	-0.112720	-1.137435	0.737095	-0.126117	-1.186827	0.699499	-0.110964	-1.132360	0.693474	-0.124574	-1.236116	0.429353	-0.144443	-1.240002	0.412882	-0.255041	-1.376349	0.435663	-0.112932	-1.359449	0.388252	-0.129453	-1.421016	0.422386	-0.117740	-1.405350	0.378909	-0.129034	-1.627787	0.358445	-0.158258	-1.613485	0.337546	-0.250388	-1.737902	0.231099	-0.156574	-1.706706	0.227301	-0.268915	-1.718143	0.177165	-0.210619	-1.645726	0.436318	-0.212237	-1.152196	0.748502	-0.497927	-1.100747	0.766599	-0.487216	-1.144311	0.713948	-0.496765	-1.094481	0.729220	-0.491102	-1.058880	0.473926	-0.434617	-1.057288	0.473083	-0.317185	-1.154096	0.355302	-0.456203	-1.106603	0.342623	-0.448089	-1.173553	0.313432	-0.451981	-1.124462	0.302845	-0.447787	-1.227724	0.101443	-0.401479	-1.190277	0.117801	-0.303731	-1.114438	0.040469	-0.437852	-1.084853	0.030459	-0.320164	-1.029119	0.047414	-0.384320	-1.299264	0.075728	-0.345455	-1.076354	1.423293	-0.143516	-1.095406	1.429390	-0.504157	
12	0.0550	-1.100409	0.931546	-0.182222	-1.117000	0.932978	-0.441043	-1.286013	0.964017	-0.254154	-1.290938	0.965406	-0.339828	-1.168449	0.738068	-0.111753	-1.119748	0.737526	-0.124911	-1.168430	0.699010	-0.109795	-1.113708	0.694043	-0.123204	-1.211655	0.428474	-0.142756	-1.214692	0.411729	-0.253469	-1.351715	0.435031	-0.111665	-1.334974	0.387447	-0.128475	-1.396478	0.422024	-0.116643	-1.380976	0.378429	-0.128252	-1.603661	0.358970	-0.158631	-1.589070	0.338445	-0.250691	-1.713507	0.231176	-0.157566	-1.682016	0.227827	-0.269836	-1.693243	0.177259	-0.211642	-1.621760	0.437148	-0.212303	-1.136903	0.746796	-0.497643	-1.085219	0.764164	-0.487244	-1.129607	0.712109	-0.496408	-1.079646	0.726641	-0.491068	-1.048556	0.470942	-0.434404	-1.046539	0.469972	-0.317030	-1.145969	0.354302	-0.455787	-1.098801	0.340508	-0.447713	-1.166575	0.312986	-0.451595	-1.117710	0.301156	-0.447360	-1.226766	0.102308	-0.401170	-1.189128	0.118133	-0.303140	-1.114368	0.040382	-0.437955	-1.084547	0.029952	-0.320092	-1.029037	0.046810	-0.384214	-1.298785	0.076993	-0.345176	-1.063934	1.423239	-0.143107	-1.078703	1.427503	-0.504726	
13	0.0600	-1.085217	0.931438	-0.181334	-1.099300	0.932146	-0.440459	-1.270394	0.962813	-0.255109	-1.274275	0.964581	-0.340789	-1.150743	0.737876	-0.110784	-1.101857	0.738257	-0.123714	-1.149806	0.698833	-0.108628	-1.094836	0.694939	-0.121846	-1.186732	0.427957	-0.141141	-1.188910	0.410993	-0.251973	-1.326623	0.434476	-0.110495	-1.309950	0.386780	-0.127576	-1.371457	0.421644	-0.115656	-1.356029	0.377978	-0.127570	-1.578906	0.359057	-0.159122	-1.564010	0.338884	-0.251123	-1.687877	0.230536	-0.158402	-1.656209	0.227577	-0.270631	-1.666947	0.176671	-0.212466	-1.597488	0.437356	-0.212567	-1.121568	0.745302	-0.497338	-1.069651	0.761868	-0.487204	-1.114911	0.710486	-0.496041	-1.064816	0.724211	-0.490985	-1.038646	0.468144	-0.434223	-1.036238	0.467015	-0.316911	-1.138205	0.353462	-0.455455	-1.091367	0.338593	-0.447412	-1.159915	0.312690	-0.451289	-1.111286	0.299663	-0.447018	-1.225807	0.103282	-0.401002	-1.187994	0.118608	-0.302717	-1.114345	0.040267	-0.438064	-1.084349	0.029484	-0.320016	-1.029030	0.046322	-0.384108	-1.298289	0.078472	-0.345021	-1.051413	1.423426	-0.142653	-1.061657	1.425865	-0.505151	
14	0.0650	-1.069888	0.931578	-0.180410	-1.081339	0.931500	-0.439805	-1.254549	0.961940	-0.256127	-1.257333	0.964060	-0.341796	-1.132832	0.738001	-0.109817	-1.083767	0.739311	-0.122528	-1.130960	0.698991	-0.107467	-1.075754	0.696183	-0.120508	-1.161367	0.427831	-0.139610	-1.162677	0.410704	-0.250566	-1.301094	0.434012	-0.109443	-1.284391	0.386268	-0.126768	-1.345971	0.421252	-0.114797	-1.330519	0.377564	-0.126999	-1.553521	0.358677	-0.159740	-1.538298	0.338834	-0.251690	-1.660979	0.229160	-0.159074	-1.629242	0.226524	-0.271294	-1.639211	0.175390	-0.213082	-1.572914	0.436896	-0.213047	-1.106194	0.744037	-0.497010	-1.054052	0.759730	-0.487087	-1.100225	0.709098	-0.495662	-1.049995	0.721949	-0.490845	-1.029160	0.465570	-0.434073	-1.026405	0.464251	-0.316825	-1.130808	0.352816	-0.455210	-1.084301	0.336916	-0.447189	-1.153573	0.312574	-0.451070	-1.105186	0.298402	-0.446766	-1.224827	0.104381	-0.400984	-1.186856	0.119237	-0.302472	-1.114366	0.040120	-0.438183	-1.084259	0.029056	-0.319939	-1.029099	0.045942	-0.384003	-1.297750	0.080190	-0.345004	-1.038793	1.423866	-0.142154	-1.044269	1.424505	-0.505418	
15	0.0700	-1.054420	0.931978	-0.179458	-1.063132	0.931049	-0.439083	-1.238481	0.961412	-0.257197	-1.240123	0.963853	-0.342839	-1.114723	0.738460	-0.108854	-1.065489	0.740705	-0.121359	-1.111902	0.699501	-0.106319	-1.056475	0.697792	-0.119195	-1.135592	0.428119	-0.138172	-1.136026	0.410891	-0.249256	-1.275159	0.433650	-0.108528	-1.258319	0.385926	-0.126059	-1.320043	0.420853	-0.114085	-1.304467	0.377195	-0.126548	-1.527511	0.357809	-0.160492	-1.511933	0.338269	-0.252401	-1.632792	0.227042	-0.159580	-1.601091	0.224654	-0.271818	-1.610012	0.173420	-0.213483	-1.548045	0.435723	-0.213758	-1.090786	0.743016	-0.496654	-1.038429	0.757768	-0.486888	-1.085554	0.707965	-0.495267	-1.035190	0.719877	-0.490645	-1.020098	0.463256	-0.433951	-1.017053	0.461720	-0.316765	-1.123774	0.352398	-0.455057	-1.077600	0.335514	-0.447045	-1.147540	0.312669	-0.450941	-1.099401	0.297408	-0.446607	-1.223802	0.105624	-0.401124	-1.185688	0.120030	-0.302415	-1.114423	0.039940	-0.438315	-1.084273	0.028668	-0.319861	-1.029241	0.045659	-0.383899	-1.297134	0.082173	-0.345136	-1.026080	1.424568	-0.141611	-1.026550	1.423446	-0.505517	
16	0.0750	-1.038817	0.932646	-0.178482	-1.044697	0.930801	-0.438295	-1.222194	0.961237	-0.258307	-1.222660	0.963963	-0.343908	-1.096426	0.739267	-0.107901	-1.047036	0.742451	-0.120211	-1.092646	0.700376	-0.105190	-1.037016	0.699779	-0.117915	-1.109448	0.428840	-0.136837	-1.109000	0.411572	-0.248054	-1.248857	0.433402	-0.107768	-1.231770	0.385768	-0.125458	-1.293708	0.420451	-0.113534	-1.277901	0.376879	-0.126226	-1.500891	0.356434	-0.161386	-1.484922	0.337171	-0.253257	-1.603317	0.224190	-0.159917	-1.571743	0.221969	-0.272200	-1.579347	0.170781	-0.213665	-1.522888	0.433805	-0.214712	-1.075348	0.742253	-0.496267	-1.022790	0.756000	-0.486600	-1.070898	0.707102	-0.494854	-1.020406	0.718012	-0.490377	-1.011453	0.461240	-0.433854	-1.008184	0.459462	-0.316727	-1.117091	0.352244	-0.454999	-1.071246	0.334424	-0.446984	-1.141799	0.313006	-0.450904	-1.093915	0.296715	-0.446545	-1.222704	0.107027	-0.401430	-1.184462	0.120995	-0.302554	-1.114508	0.039728	-0.438465	-1.084387	0.028321	-0.319785	-1.029453	0.045462	-0.383796	-1.296405	0.084444	-0.345428	-1.013277	1.425537	-0.141025	-1.008513	1.422710	-0.505438	
17	0.0800	-1.023081	0.933587	-0.177490	-1.026058	0.930763	-0.437447	-1.205698	0.961421	-0.259442	-1.204961	0.964389	-0.344987	-1.077954	0.740430	-0.106960	-1.028427	0.744558	-0.119090	-1.073209	0.701624	-0.104088	-1.017397	0.702149	-0.116676	-1.082987	0.430007	-0.135616	-1.081651	0.412763	-0.246970	-1.222235	0.433272	-0.107179	-1.204786	0.385802	-0.124973	-1.267008	0.420050	-0.113161	-1.250860	0.376621	-0.126038	-1.473681	0.354539	-0.162426	-1.457280	0.335526	-0.254261	-1.572567	0.220623	-0.160091	-1.541200	0.218483	-0.272440	-1.547232	0.167503	-0.213631	-1.497451	0.431112	-0.215918	-1.059884	0.741760	-0.495844	-1.007142	0.754439	-0.486220	-1.056260	0.706522	-0.494420	-1.005645	0.716373	-0.490038	-1.003208	0.459556	-0.433778	-0.999792	0.457515	-0.316705	-1.110737	0.352386	-0.455035	-1.065219	0.333681	-0.447004	-1.136327	0.313614	-0.450961	-1.088700	0.296356	-0.446581	-1.221504	0.108609	-0.401905	-1.183148	0.122141	-0.302894	-1.114610	0.039485	-0.438634	-1.084592	0.028016	-0.319713	-1.029728	0.045333	-0.383696	-1.295526	0.087027	-0.345889	-1.000389	1.426777	-0.140397	-0.990179	1.422316	-0.505174	
18	0.0850	-1.007215	0.934802	-0.176490	-1.007240	0.930938	-0.436542	-1.189004	0.961963	-0.260586	-1.187047	0.965129	-0.346064	-1.059321	0.741953	-0.106036	-1.009679	0.747029	-0.118000	-1.053613	0.703249	-0.103018	-0.997642	0.704904	-0.115483	-1.056266	0.431625	-0.134516	-1.054041	0.414470	-0.246011	-1.195347	0.433266	-0.106776	-1.177419	0.386037	-0.124611	-1.239991	0.419651	-0.112976	-1.223390	0.376426	-0.125990	-1.445907	0.352116	-0.163612	-1.429027	0.333326	-0.255413	-1.540573	0.216370	-0.160109	-1.509476	0.214226	-0.272541	-1.513702	0.163629	-0.213386	-1.471737	0.427623	-0.217380	-1.044397	0.741544	-0.495385	-0.991494	0.753102	-0.485744	-1.041638	0.706237	-0.493963	-0.990911	0.714977	-0.489624	-0.995335	0.458238	-0.433721	-0.991858	0.455917	-0.316694	-1.104684	0.352855	-0.455168	-1.059486	0.333317	-0.447107	-1.131091	0.314520	-0.451111	-1.083724	0.296360	-0.446715	-1.220167	0.110384	-0.402554	-1.181711	0.123473	-0.303437	-1.114715	0.039216	-0.438827	-1.084876	0.027755	-0.319648	-1.030059	0.045256	-0.383598	-1.294454	0.089941	-0.346524	-0.987421	1.428284	-0.139732	-0.971574	1.422279	-0.504721	
19	0.0900	-0.991225	0.936288	-0.175489	-0.988272	0.931327	-0.435587	-1.172124	0.962859	-0.261723	-1.168943	0.966174	-0.347121	-1.040545	0.743836	-0.105133	-0.990815	0.749862	-0.116946	-1.033880	0.705248	-0.101989	-0.977777	0.708039	-0.114345	-1.029350	0.433693	-0.133545	-1.026238	0.416692	-0.245185	-1.168252	0.433384	-0.106571	-1.149725	0.386474	-0.124378	-1.212710	0.419251	-0.112989	-1.195545	0.376294	-0.126085	-1.417596	0.349163	-0.164947	-1.400185	0.330573	-0.256709	-1.507379	0.211473	-0.159980	-1.476599	0.209241	-0.272509	-1.478808	0.159215	-0.212941	-1.445752	0.423327	-0.219099	-1.028892	0.741611	-0.494885	-0.975850	0.752000	-0.485172	-1.027031	0.706253	-0.493479	-0.976205	0.713835	-0.489134	-0.987802	0.457313	-0.433678	-0.984353	0.454699	-0.316686	-1.098896	0.353678	-0.455395	-1.054010	0.333360	-0.447291	-1.126055	0.315749	-0.451355	-1.078947	0.296754	-0.446949	-1.218659	0.112369	-0.403376	-1.180114	0.124998	-0.304182	-1.114810	0.038926	-0.439046	-1.085224	0.027542	-0.319595	-1.030434	0.045211	-0.383504	-1.293146	0.093204	-0.347340	-0.974375	1.430055	-0.139031	-0.952727	1.422609	-0.504075	
20	0.0950	-0.975116	0.938038	-0.174493	-0.969182	0.931928	-0.434587	-1.155074	0.964101	-0.262834	-1.150674	0.967516	-0.348145	-1.021646	0.746072	-0.104255	-0.971856	0.753047	-0.115933	-1.014034	0.707613	-0.101006	-0.957828	0.711543	-0.113269	-1.002311	0.436204	-0.132710	-0.998314	0.419420	-0.244498	-1.141011	0.433620	-0.106573	-1.121767	0.387112	-0.124276	-1.185219	0.418848	-0.113208	-1.167380	0.376226	-0.126325	-1.388780	0.345680	-0.166427	-1.370782	0.327272	-0.258146	-1.473039	0.205984	-0.159720	-1.442605	0.203585	-0.272355	-1.442616	0.154325	-0.212312	-1.419494	0.418217	-0.221069	-1.013368	0.741964	-0.494344	-0.960218	0.751142	-0.484504	-1.012436	0.706576	-0.492969	-0.961527	0.712960	-0.488567	-0.980564	0.456806	-0.433646	-0.977240	0.453891	-0.316678	-1.093330	0.354879	-0.455716	-1.048745	0.333833	-0.447554	-1.121174	0.317322	-0.451689	-1.074323	0.297559	-0.447280	-1.216943	0.114577	-0.404370	-1.178321	0.126721	-0.305128	-1.114876	0.038623	-0.439294	-1.085620	0.027382	-0.319557	-1.030840	0.045178	-0.383417	-1.291559	0.096831	-0.348337	-0.961255	1.432079	-0.138301	-0.933669	1.423314	-0.503235	
21	0.1000	-0.958894	0.940040	-0.173510	-0.950001	0.932738	-0.433548	-1.137868	0.965675	-0.263902	-1.132266	0.969139	-0.349120	-1.002643	0.748649	-0.103407	-0.952826	0.756573	-0.114965	-0.994102	0.710331	-0.100076	-0.937824	0.715400	-0.112259	-0.975221	0.439141	-0.132016	-0.970346	0.422638	-0.243955	-1.113689	0.433966	-0.106787	-1.093611	0.387944	-0.124310	-1.157577	0.418435	-0.113635	-1.138956	0.376218	-0.126710	-1.359491	0.341675	-0.168049	-1.340846	0.323436	-0.259717	-1.437617	0.199961	-0.159346	-1.407541	0.197326	-0.272091	-1.405204	0.149034	-0.211519	-1.392959	0.412296	-0.223282	-0.997829	0.742601	-0.493761	-0.944600	0.750536	-0.483743	-0.997848	0.707205	-0.492429	-0.946874	0.712361	-0.487923	-0.973572	0.456733	-0.433622	-0.970470	0.453516	-0.316664	-1.087935	0.356477	-0.456127	-1.043639	0.334754	-0.447894	-1.116398	0.319256	-0.452110	-1.069802	0.298791	-0.447706	-1.214981	0.117019	-0.405532	-1.176293	0.128645	-0.306270	-1.114895	0.038319	-0.439572	-1.086042	0.027283	-0.319540	-1.031261	0.045138	-0.383338	-1.289647	0.100836	-0.349516	-0.948060	1.434345	-0.137545	-0.914435	1.424395	-0.502204	
22	0.1050	-0.942565	0.942279	-0.172545	-0.930756	0.933751	-0.432477	-1.120523	0.967565	-0.264912	-1.113745	0.971030	-0.350031	-0.983558	0.751549	-0.102590	-0.933747	0.760417	-0.114046	-0.974110	0.713383	-0.099204	-0.917791	0.719587	-0.111323	-0.948154	0.442484	-0.131468	-0.942413	0.426323	-0.243560	-1.086348	0.434410	-0.107215	-1.065324	0.388959	-0.124479	-1.129838	0.418002	-0.114270	-1.110332	0.376264	-0.127237	-1.329759	0.337156	-0.169806	-1.310407	0.319084	-0.261411	-1.401185	0.193472	-0.158879	-1.371462	0.190540	-0.271733	-1.366663	0.143421	-0.210583	-1.366138	0.405576	-0.225725	-0.982274	0.743519	-0.493134	-0.928999	0.750187	-0.482891	-0.983260	0.708138	-0.491858	-0.932243	0.712040	-0.487205	-0.966768	0.457108	-0.433603	-0.963986	0.453590	-0.316639	-1.082657	0.358484	-0.456624	-1.038636	0.336136	-0.448306	-1.111674	0.321561	-0.452614	-1.065327	0.300461	-0.448224	-1.212738	0.119706	-0.406856	-1.173993	0.130773	-0.307598	-1.114846	0.038027	-0.439882	-1.086469	0.027254	-0.319547	-1.031680	0.045072	-0.383270	-1.287370	0.105227	-0.350875	-0.934791	1.436839	-0.136769	-0.895060	1.425849	-0.500986	
23	0.1100	-0.926136	0.944737	-0.171603	-0.911475	0.934958	-0.431378	-1.103053	0.969750	-0.265847	-1.095136	0.973171	-0.350865	-0.964411	0.754751	-0.101809	-0.914641	0.764556	-0.113181	-0.954085	0.716747	-0.098396	-0.897757	0.724076	-0.110465	-0.921186	0.446201	-0.131068	-0.914591	0.430442	-0.243314	-1.059048	0.434934	-0.107855	-1.036972	0.390143	-0.124784	-1.102059	0.417538	-0.115110	-1.081572	0.376357	-0.127902	-1.299614	0.332140	-0.171689	-1.279493	0.314240	-0.263220	-1.363820	0.186588	-0.158341	-1.334428	0.183316	-0.271301	-1.327088	0.137572	-0.209533	-1.339018	0.398076	-0.228379	-0.966700	0.744711	-0.492465	-0.913413	0.750095	-0.481955	-0.968665	0.709369	-0.491257	-0.917626	0.712001	-0.486415	-0.960091	0.457934	-0.433586	-0.957724	0.454122	-0.316600	-1.077436	0.360908	-0.457202	-1.033675	0.337982	-0.448788	-1.106945	0.324244	-0.453196	-1.060839	0.302572	-0.448830	-1.210176	0.122647	-0.408335	-1.171383	0.133107	-0.309104	-1.114710	0.037764	-0.440225	-1.086874	0.027307	-0.319585	-1.032078	0.044963	-0.383216	-1.284685	0.110009	-0.352407	-0.921445	1.439542	-0.135979	-0.875580	1.427668	-0.499585	
24	0.1150	-0.909612	0.947392	-0.170689	-0.892185	0.936349	-0.430258	-1.085474	0.972207	-0.266695	-1.076462	0.975541	-0.351609	-0.945223	0.758226	-0.101068	-0.895528	0.768960	-0.112372	-0.934052	0.720392	-0.097657	-0.877746	0.728833	-0.109691	-0.894388	0.450259	-0.130817	-0.886959	0.434956	-0.243218	-1.031850	0.435516	-0.108701	-1.008621	0.391476	-0.125223	-1.074292	0.417029	-0.116147	-1.052733	0.376483	-0.128700	-1.269082	0.326646	-0.173690	-1.248134	0.308935	-0.265130	-1.325604	0.179385	-0.157757	-1.296507	0.175744	-0.270814	-1.286584	0.131577	-0.208398	-1.311580	0.389821	-0.231223	-0.951105	0.746167	-0.491754	-0.897842	0.750258	-0.480941	-0.954052	0.710886	-0.490623	-0.903017	0.712240	-0.485557	-0.953472	0.459208	-0.433569	-0.951612	0.455114	-0.316544	-1.072209	0.363748	-0.457855	-1.028692	0.340289	-0.449332	-1.102150	0.327306	-0.453848	-1.056279	0.305122	-0.449517	-1.207261	0.125847	-0.409959	-1.168429	0.135651	-0.310774	-1.114462	0.037548	-0.440600	-1.087232	0.027455	-0.319659	-1.032433	0.044795	-0.383179	-1.281555	0.115184	-0.354107	-0.908015	1.442435	-0.135179	-0.856030	1.429839	-0.498011	
25	0.1200	-0.892999	0.950219	-0.169804	-0.872906	0.937912	-0.429120	-1.067802	0.974911	-0.267443	-1.057747	0.978120	-0.352255	-0.926013	0.761945	-0.100368	-0.876429	0.773592	-0.111623	-0.914035	0.724285	-0.096989	-0.857782	0.733820	-0.109002	-0.867830	0.454615	-0.130717	-0.859588	0.439822	-0.243272	-1.004804	0.436130	-0.109744	-0.980333	0.392934	-0.125791	-1.046585	0.416457	-0.117372	-1.023872	0.376632	-0.129623	-1.238188	0.320696	-0.175795	-1.216357	0.303203	-0.267128	-1.286618	0.171940	-0.157153	-1.257768	0.167923	-0.270295	-1.245257	0.125523	-0.207209	-1.283803	0.380844	-0.234230	-0.935484	0.747872	-0.491002	-0.882280	0.750672	-0.479856	-0.939411	0.712677	-0.489957	-0.888405	0.712753	-0.484637	-0.946842	0.460919	-0.433548	-0.945573	0.456558	-0.316467	-1.066911	0.366998	-0.458576	-1.023623	0.343049	-0.449934	-1.097228	0.330742	-0.454564	-1.051583	0.308101	-0.450280	-1.203961	0.129311	-0.411716	-1.165099	0.138403	-0.312594	-1.114081	0.037404	-0.441008	-1.087514	0.027715	-0.319775	-1.032722	0.044558	-0.383163	-1.277947	0.120752	-0.355963	-0.894497	1.445495	-0.134375	-0.836442	1.432346	-0.496271	
26	0.1250	-0.876303	0.953191	-0.168951	-0.853661	0.939631	-0.427970	-1.050049	0.977830	-0.268084	-1.039009	0.980886	-0.352795	-0.906802	0.765869	-0.099712	-0.857358	0.778412	-0.110936	-0.894059	0.728390	-0.096397	-0.837886	0.738994	-0.108403	-0.841578	0.459222	-0.130766	-0.832548	0.444987	-0.243473	-0.977961	0.436748	-0.110972	-0.952168	0.394492	-0.126483	-1.018981	0.415804	-0.118769	-0.995044	0.376787	-0.130661	-1.206951	0.314316	-0.177990	-1.184188	0.297083	-0.269198	-1.246947	0.164332	-0.156554	-1.218286	0.159950	-0.269767	-1.203217	0.119500	-0.205998	-1.255664	0.371187	-0.237373	-0.919832	0.749811	-0.490212	-0.866721	0.751327	-0.478709	-0.924730	0.714722	-0.489260	-0.873778	0.713528	-0.483660	-0.940129	0.463048	-0.433521	-0.939528	0.458440	-0.316368	-1.061475	0.370644	-0.459356	-1.018402	0.346242	-0.450587	-1.092119	0.334539	-0.455336	-1.046691	0.311493	-0.451109	-1.200247	0.133041	-0.413593	-1.161367	0.141366	-0.314549	-1.113542	0.037356	-0.441447	-1.087690	0.028107	-0.319939	-1.032922	0.044244	-0.383172	-1.273830	0.126707	-0.357965	-0.880882	1.448700	-0.133574	-0.816848	1.435166	-0.494377	
27	0.1300	-0.859530	0.956278	-0.168130	-0.834466	0.941492	-0.426811	-1.032228	0.980936	-0.268611	-1.020266	0.983814	-0.353224	-0.887605	0.769960	-0.099101	-0.838333	0.783378	-0.110312	-0.874143	0.732663	-0.095881	-0.818079	0.744307	-0.107894	-0.815692	0.464031	-0.130963	-0.805903	0.450397	-0.243817	-0.951362	0.437340	-0.112367	-0.924179	0.396119	-0.127294	-0.991519	0.415050	-0.120323	-0.966298	0.376931	-0.131806	-1.175391	0.307536	-0.180262	-1.151654	0.290618	-0.271325	-1.206672	0.156638	-0.155988	-1.178137	0.151925	-0.269255	-1.160575	0.113593	-0.204800	-1.227136	0.360896	-0.240620	-0.904140	0.751963	-0.489386	-0.851157	0.752211	-0.477508	-0.909993	0.717001	-0.488530	-0.859123	0.714553	-0.482631	-0.933258	0.465569	-0.433487	-0.933395	0.460734	-0.316246	-1.055835	0.374667	-0.460188	-1.012963	0.349845	-0.451282	-1.086761	0.338682	-0.456154	-1.041543	0.315276	-0.451997	-1.196095	0.137037	-0.415575	-1.157208	0.144540	-0.316619	-1.112824	0.037431	-0.441917	-1.087730	0.028651	-0.320157	-1.033008	0.043850	-0.383211	-1.269183	0.133041	-0.360098	-0.867159	1.452026	-0.132778	-0.797276	1.438273	-0.492340	
28	0.1350	-0.842684	0.959450	-0.167341	-0.815335	0.943477	-0.425645	-1.014352	0.984194	-0.269020	-1.001533	0.986880	-0.353539	-0.868440	0.774174	-0.098539	-0.819365	0.788441	-0.109754	-0.854309	0.737061	-0.095444	-0.798375	0.749710	-0.107477	-0.790223	0.468986	-0.131305	-0.779709	0.455991	-0.244300	-0.925043	0.437872	-0.113911	-0.896416	0.397784	-0.128216	-0.964232	0.414175	-0.122016	-0.937678	0.377047	-0.133045	-1.143523	0.300390	-0.182594	-1.118778	0.283852	-0.273492	-1.165877	0.148932	-0.155478	-1.137400	0.143945	-0.268782	-1.117438	0.107883	-0.203646	-1.198196	0.350023	-0.243939	-0.888400	0.754306	-0.488526	-0.835578	0.753311	-0.476263	-0.895188	0.719490	-0.487770	-0.844424	0.715810	-0.481558	-0.926159	0.468446	-0.433441	-0.927091	0.463408	-0.316099	-1.049925	0.379040	-0.461062	-1.007243	0.353826	-0.452012	-1.081095	0.343147	-0.457010	-1.036081	0.319419	-0.452934	-1.191484	0.141298	-0.417648	-1.152603	0.147925	-0.318786	-1.111903	0.037661	-0.442415	-1.087602	0.029371	-0.320434	-1.032957	0.043379	-0.383283	-1.263985	0.139743	-0.362347	-0.853319	1.455445	-0.131993	-0.777753	1.441640	-0.490174	
29	0.1400	-0.825772	0.962675	-0.166582	-0.796279	0.945567	-0.424476	-0.996432	0.987571	-0.269311	-0.982824	0.990059	-0.353742	-0.849321	0.778467	-0.098025	-0.800466	0.793552	-0.109261	-0.834573	0.741536	-0.095084	-0.778789	0.755150	-0.107152	-0.765219	0.474032	-0.131788	-0.754017	0.461706	-0.244916	-0.899033	0.438310	-0.115584	-0.868921	0.399455	-0.129240	-0.937148	0.413159	-0.123826	-0.909224	0.377117	-0.134366	-1.111362	0.292912	-0.184969	-1.085586	0.276834	-0.275684	-1.124641	0.141286	-0.155047	-1.096156	0.136100	-0.268369	-1.073915	0.102443	-0.202568	-1.168819	0.338627	-0.247295	-0.872604	0.756815	-0.487635	-0.819971	0.754607	-0.474982	-0.880299	0.722160	-0.486979	-0.829665	0.717279	-0.480446	-0.918761	0.471640	-0.433383	-0.920534	0.466423	-0.315927	-1.043682	0.383730	-0.461967	-1.001183	0.358147	-0.452768	-1.075067	0.347909	-0.457893	-1.030251	0.323889	-0.453909	-1.186400	0.145821	-0.419795	-1.147541	0.151522	-0.321031	-1.110758	0.038078	-0.442941	-1.087278	0.030292	-0.320774	-1.032742	0.042839	-0.383392	-1.258226	0.146799	-0.364696	-0.839349	1.458933	-0.131221	-0.758299	1.445231	-0.487892	
30	0.1450	-0.808798	0.965920	-0.165849	-0.777306	0.947743	-0.423304	-0.978476	0.991030	-0.269487	-0.964147	0.993324	-0.353834	-0.830263	0.782791	-0.097561	-0.781644	0.798658	-0.108833	-0.814952	0.746040	-0.094803	-0.759333	0.760571	-0.106917	-0.740719	0.479109	-0.132407	-0.728870	0.467479	-0.245659	-0.873353	0.438622	-0.117364	-0.841731	0.401098	-0.130357	-0.910288	0.411982	-0.125732	-0.880972	0.377121	-0.135758	-1.078923	0.285142	-0.187369	-1.052105	0.269612	-0.277881	-1.083043	0.133766	-0.154718	-1.054487	0.128477	-0.268040	-1.030111	0.097340	-0.201596	-1.138988	0.326769	-0.250655	-0.856741	0.759462	-0.486718	-0.804325	0.756080	-0.473676	-0.865310	0.724982	-0.486159	-0.814830	0.718936	-0.479302	-0.910996	0.475102	-0.433310	-0.913647	0.469732	-0.315731	-1.037047	0.388700	-0.462893	-0.994725	0.362765	-0.453542	-1.068624	0.352936	-0.458794	-1.024003	0.328648	-0.454912	-1.180833	0.150603	-0.421998	-1.142012	0.155332	-0.323333	-1.109369	0.038716	-0.443492	-1.086727	0.031441	-0.321183	-1.032342	0.042247	-0.383545	-1.251899	0.154192	-0.367125	-0.825238	1.462463	-0.130466	-0.738934	1.449012	-0.485508	
31	0.1500	-0.791768	0.969154	-0.165142	-0.758423	0.949986	-0.422133	-0.960496	0.994536	-0.269551	-0.945513	0.996647	-0.353820	-0.811277	0.787096	-0.097147	-0.762906	0.803708	-0.108470	-0.795458	0.750522	-0.094598	-0.740016	0.765919	-0.106770	-0.716753	0.484159	-0.133157	-0.704301	0.473244	-0.246523	-0.848021	0.438774	-0.119226	-0.814878	0.402680	-0.131557	-0.883670	0.410626	-0.127712	-0.852951	0.377042	-0.137207	-1.046219	0.277118	-0.189777	-1.018363	0.262235	-0.280070	-1.041161	0.126431	-0.154507	-1.012478	0.121153	-0.267812	-0.986130	0.092630	-0.200758	-1.108689	0.314515	-0.253983	-0.840802	0.762220	-0.485778	-0.788625	0.757706	-0.472352	-0.850207	0.727922	-0.485312	-0.799901	0.720755	-0.478133	-0.902801	0.478781	-0.433220	-0.906355	0.473281	-0.315511	-1.029964	0.393909	-0.463830	-0.987820	0.367631	-0.454323	-1.061719	0.358193	-0.459704	-1.017293	0.333650	-0.455932	-1.174778	0.155638	-0.424241	-1.136016	0.159354	-0.325671	-1.107716	0.039611	-0.444066	-1.085921	0.032845	-0.321663	-1.031734	0.041623	-0.383744	-1.245004	0.161906	-0.369616	-0.810974	1.466008	-0.129728	-0.719673	1.452943	-0.483035	
32	0.1550	-0.774689	0.972344	-0.164455	-0.739633	0.952274	-0.420962	-0.942501	0.998052	-0.269511	-0.926929	1.000001	-0.353707	-0.792374	0.791335	-0.096782	-0.744256	0.808647	-0.108170	-0.776102	0.754931	-0.094466	-0.720844	0.771138	-0.106708	-0.693344	0.489125	-0.134034	-0.680339	0.478936	-0.247498	-0.823045	0.438737	-0.121147	-0.788387	0.404169	-0.132830	-0.857306	0.409073	-0.129742	-0.825189	0.376863	-0.138702	-1.013269	0.268884	-0.192176	-0.984390	0.254751	-0.282233	-0.999072	0.119335	-0.154430	-0.970215	0.114196	-0.267702	-0.942072	0.088359	-0.200076	-1.077916	0.301936	-0.257247	-0.824775	0.765056	-0.484818	-0.772858	0.759460	-0.471019	-0.834975	0.730947	-0.484439	-0.784861	0.722709	-0.476943	-0.894118	0.482619	-0.433112	-0.898590	0.477013	-0.315269	-1.022383	0.399311	-0.464766	-0.980420	0.372694	-0.455103	-1.054309	0.363644	-0.460613	-1.010084	0.338852	-0.456957	-1.168235	0.160922	-0.426505	-1.129555	0.163589	-0.328026	-1.105783	0.040798	-0.444662	-1.084833	0.034532	-0.322217	-1.030896	0.040996	-0.383994	-1.237548	0.169919	-0.372150	-0.796548	1.469542	-0.129007	-0.700529	1.456985	-0.480489	
33	0.1600	-0.757565	0.975459	-0.163784	-0.720939	0.954587	-0.419793	-0.924498	1.001539	-0.269376	-0.908400	1.003356	-0.353504	-0.773564	0.795458	-0.096467	-0.725700	0.813423	-0.107931	-0.756895	0.759217	-0.094405	-0.701824	0.776173	-0.106728	-0.670507	0.493951	-0.135030	-0.657000	0.484491	-0.248579	-0.798431	0.438481	-0.123105	-0.762278	0.405534	-0.134166	-0.831205	0.407311	-0.131801	-0.797705	0.376567	-0.140229	-0.980094	0.260482	-0.194548	-0.950223	0.247208	-0.284357	-0.956853	0.112524	-0.154499	-0.927789	0.107663	-0.267724	-0.898036	0.084563	-0.199571	-1.046672	0.289104	-0.260417	-0.808652	0.767939	-0.483843	-0.757009	0.761316	-0.469684	-0.819598	0.734021	-0.483542	-0.769694	0.724765	-0.475740	-0.884897	0.486557	-0.432984	-0.890291	0.480864	-0.315007	-1.014258	0.404858	-0.465691	-0.972487	0.377901	-0.455873	-1.046357	0.369249	-0.461512	-1.002341	0.344205	-0.457978	-1.161210	0.166447	-0.428775	-1.122638	0.168037	-0.330378	-1.103554	0.042314	-0.445277	-1.083439	0.036531	-0.322847	-1.029811	0.040399	-0.384299	-1.229541	0.178212	-0.374706	-0.781949	1.473036	-0.128302	-0.681510	1.461096	-0.477883	
34	0.1650	-0.740405	0.978469	-0.163127	-0.702341	0.956903	-0.418628	-0.906496	1.004960	-0.269154	-0.889932	1.006682	-0.353220	-0.754854	0.799417	-0.096200	-0.707238	0.817984	-0.107750	-0.737844	0.763330	-0.094411	-0.682958	0.780970	-0.106824	-0.648247	0.498582	-0.136140	-0.634296	0.489850	-0.249756	-0.774177	0.437983	-0.125076	-0.736564	0.406745	-0.135555	-0.805373	0.405328	-0.133867	-0.770520	0.376140	-0.141777	-0.946718	0.251957	-0.196876	-0.915901	0.239652	-0.286427	-0.914583	0.106037	-0.154721	-0.885292	0.101598	-0.267890	-0.854118	0.081264	-0.199260	-1.014973	0.276091	-0.263462	-0.792422	0.770835	-0.482856	-0.741066	0.763245	-0.468356	-0.804065	0.737105	-0.482625	-0.754382	0.726893	-0.474527	-0.875092	0.490532	-0.432837	-0.881402	0.484770	-0.314727	-1.005552	0.410502	-0.466594	-0.963987	0.383195	-0.456625	-1.037833	0.374967	-0.462392	-0.994039	0.349660	-0.458983	-1.153713	0.172209	-0.431033	-1.115278	0.172701	-0.332709	-1.101017	0.044195	-0.445911	-1.081717	0.038869	-0.323554	-1.028463	0.039873	-0.384664	-1.220998	0.186763	-0.377265	-0.767171	1.476466	-0.127612	-0.662623	1.465232	-0.475231	
35	0.1700	-0.723213	0.981345	-0.162478	-0.683838	0.959203	-0.417466	-0.888505	1.008279	-0.268857	-0.871529	1.009949	-0.352865	-0.736251	0.803165	-0.095981	-0.688872	0.822280	-0.107624	-0.718954	0.767221	-0.094479	-0.664247	0.785477	-0.106991	-0.626565	0.502968	-0.137357	-0.612230	0.494954	-0.251023	-0.750279	0.437222	-0.127039	-0.711255	0.407778	-0.136988	-0.779813	0.403116	-0.135920	-0.743646	0.375570	-0.143336	-0.913174	0.243355	-0.199145	-0.881470	0.232124	-0.288432	-0.872342	0.099906	-0.155101	-0.842820	0.096034	-0.268205	-0.810413	0.078474	-0.199154	-0.982845	0.262973	-0.266357	-0.776078	0.773711	-0.481863	-0.725014	0.765218	-0.467039	-0.788364	0.740164	-0.481690	-0.738912	0.729059	-0.473311	-0.864666	0.494481	-0.432672	-0.871878	0.488665	-0.314432	-0.996231	0.416194	-0.467466	-0.954896	0.388522	-0.457353	-1.028712	0.380760	-0.463246	-0.985159	0.355169	-0.459963	-1.145758	0.178202	-0.433263	-1.107490	0.177579	-0.335001	-1.098160	0.046475	-0.446561	-1.079647	0.041573	-0.324336	-1.026837	0.039463	-0.385090	-1.211938	0.195549	-0.379806	-0.752207	1.479805	-0.126931	-0.643872	1.469350	-0.472545	
36	0.1750	-0.705999	0.984059	-0.161834	-0.665431	0.961464	-0.416310	-0.870533	1.011458	-0.268496	-0.853197	1.013126	-0.352450	-0.717762	0.806658	-0.095807	-0.670603	0.826265	-0.107549	-0.700229	0.770846	-0.094604	-0.645691	0.789648	-0.107222	-0.605452	0.507064	-0.138674	-0.590798	0.499750	-0.252371	-0.726730	0.436183	-0.128975	-0.686356	0.408609	-0.138454	-0.754527	0.400672	-0.137943	-0.717098	0.374846	-0.144896	-0.879501	0.234720	-0.201340	-0.846984	0.224666	-0.290361	-0.830213	0.094152	-0.155638	-0.800472	0.090990	-0.268674	-0.767016	0.076191	-0.199261	-0.950328	0.249823	-0.269080	-0.759611	0.776533	-0.480868	-0.708843	0.767205	-0.465741	-0.772483	0.743160	-0.480741	-0.723268	0.731230	-0.472097	-0.853590	0.498342	-0.432489	-0.861681	0.492480	-0.314129	-0.986270	0.421883	-0.468297	-0.945192	0.393826	-0.458050	-1.018975	0.386587	-0.464067	-0.975687	0.360685	-0.460910	-1.137360	0.184421	-0.435452	-1.099293	0.182672	-0.337239	-1.094975	0.049187	-0.447227	-1.077211	0.044667	-0.325193	-1.024923	0.039219	-0.385582	-1.202381	0.204551	-0.382310	-0.737053	1.483026	-0.126257	-0.625259	1.473405	-0.469839	
37	0.1800	-0.688769	0.986587	-0.161191	-0.647117	0.963668	-0.415161	-0.852588	1.014461	-0.268081	-0.834938	1.016181	-0.351984	-0.699389	0.809855	-0.095676	-0.652429	0.829896	-0.107519	-0.681671	0.774162	-0.094781	-0.627290	0.793438	-0.107510	-0.584892	0.510829	-0.140084	-0.569988	0.504191	-0.253793	-0.703518	0.434853	-0.130867	-0.661869	0.409218	-0.139946	-0.729515	0.397995	-0.139918	-0.690886	0.373959	-0.146449	-0.845745	0.226097	-0.203449	-0.812501	0.217313	-0.292207	-0.788283	0.088792	-0.156330	-0.758351	0.086473	-0.269298	-0.724022	0.074403	-0.199585	-0.917475	0.236717	-0.271611	-0.743015	0.779268	-0.479876	-0.692542	0.769176	-0.464465	-0.756415	0.746055	-0.479783	-0.707440	0.733373	-0.470890	-0.841841	0.502054	-0.432293	-0.850782	0.496151	-0.313821	-0.975650	0.427524	-0.469079	-0.934865	0.399055	-0.458713	-1.008610	0.392410	-0.464849	-0.965618	0.366161	-0.461817	-1.128538	0.190859	-0.437583	-1.090707	0.187980	-0.339410	-1.091455	0.052361	-0.447908	-1.074395	0.048174	-0.326121	-1.022711	0.039193	-0.386143	-1.192349	0.213747	-0.384759	-0.721710	1.486105	-0.125581	-0.606784	1.477355	-0.467125	
38	0.1850	-0.671532	0.988905	-0.160546	-0.628897	0.965795	-0.414021	-0.834681	1.017254	-0.267624	-0.816759	1.019081	-0.351479	-0.681137	0.812719	-0.095586	-0.634351	0.833135	-0.107531	-0.663280	0.777130	-0.095004	-0.609040	0.796809	-0.107847	-0.564864	0.514225	-0.141581	-0.549783	0.508235	-0.255281	-0.680631	0.433229	-0.132701	-0.637791	0.409589	-0.141456	-0.704777	0.395089	-0.141833	-0.665018	0.372904	-0.147987	-0.811964	0.217531	-0.205459	-0.778090	0.210098	-0.293963	-0.746644	0.083834	-0.157170	-0.716567	0.082476	-0.270075	-0.681526	0.073085	-0.200125	-0.884355	0.223727	-0.273935	-0.726285	0.781883	-0.478891	-0.676102	0.771102	-0.463219	-0.740152	0.748814	-0.478821	-0.691416	0.735454	-0.469696	-0.829406	0.505558	-0.432088	-0.839161	0.499614	-0.313515	-0.964359	0.433070	-0.469805	-0.923907	0.404159	-0.459338	-0.997608	0.398193	-0.465587	-0.954948	0.371554	-0.462679	-1.119311	0.197513	-0.439646	-1.081753	0.193502	-0.341500	-1.087594	0.056023	-0.448602	-1.071186	0.052113	-0.327116	-1.020196	0.039441	-0.386773	-1.181865	0.223117	-0.387133	-0.706178	1.489015	-0.124898	-0.588446	1.481157	-0.464414	
39	0.1900	-0.654294	0.990994	-0.159896	-0.610769	0.967824	-0.412892	-0.816821	1.019802	-0.267134	-0.798663	1.021795	-0.350942	-0.663007	0.815214	-0.095534	-0.616366	0.835946	-0.107578	-0.645055	0.779716	-0.095265	-0.590939	0.799725	-0.108225	-0.545342	0.517223	-0.143157	-0.530159	0.511847	-0.256828	-0.658058	0.431308	-0.134464	-0.614118	0.409710	-0.142976	-0.680315	0.391961	-0.143675	-0.639503	0.371676	-0.149505	-0.778223	0.209063	-0.207361	-0.743826	0.203048	-0.295625	-0.705390	0.079277	-0.158148	-0.675230	0.078984	-0.270998	-0.639624	0.072203	-0.200877	-0.851049	0.210924	-0.276043	-0.709419	0.784347	-0.477920	-0.659515	0.772954	-0.462006	-0.723691	0.751402	-0.477860	-0.675190	0.737442	-0.468520	-0.816278	0.508800	-0.431880	-0.826805	0.502807	-0.313221	-0.952390	0.438480	-0.470470	-0.912318	0.409091	-0.459924	-0.985968	0.403903	-0.466277	-0.943683	0.376827	-0.463493	-1.109699	0.204378	-0.441630	-1.072450	0.199235	-0.343500	-1.083387	0.060197	-0.449309	-1.067574	0.056498	-0.328174	-1.017372	0.040018	-0.387475	-1.170949	0.232642	-0.389416	-0.690461	1.491731	-0.124199	-0.570244	1.484769	-0.461717	
40	0.1950	-0.637064	0.992835	-0.159239	-0.592733	0.969738	-0.411776	-0.799016	1.022076	-0.266618	-0.780656	1.024290	-0.350381	-0.645000	0.817313	-0.095517	-0.598473	0.838303	-0.107654	-0.626993	0.781889	-0.095560	-0.572981	0.802159	-0.108635	-0.526292	0.519798	-0.144805	-0.511089	0.514997	-0.258428	-0.635784	0.429096	-0.136148	-0.590843	0.409570	-0.144502	-0.656131	0.388623	-0.145436	-0.614349	0.370274	-0.150998	-0.744596	0.200735	-0.209149	-0.709792	0.196187	-0.297192	-0.664625	0.075117	-0.159253	-0.634455	0.075967	-0.272061	-0.598415	0.071712	-0.201833	-0.817654	0.198374	-0.277928	-0.692413	0.786630	-0.476968	-0.642778	0.774703	-0.460830	-0.707029	0.753787	-0.476907	-0.658754	0.739307	-0.467367	-0.802459	0.511730	-0.431679	-0.813711	0.505675	-0.312946	-0.939743	0.443716	-0.471071	-0.900104	0.413810	-0.460474	-0.973693	0.409508	-0.466919	-0.931829	0.381942	-0.464258	-1.099719	0.211448	-0.443523	-1.062816	0.205177	-0.345403	-1.078830	0.064900	-0.450029	-1.063548	0.061342	-0.329289	-1.014236	0.040977	-0.388251	-1.159620	0.242302	-0.391593	-0.674567	1.494229	-0.123476	-0.552175	1.488153	-0.459045	
41	0.2000	-0.619850	0.994411	-0.158573	-0.574788	0.971519	-0.410675	-0.781276	1.024045	-0.266084	-0.762743	1.026535	-0.349803	-0.627115	0.818991	-0.095530	-0.580669	0.840183	-0.107752	-0.609089	0.783625	-0.095881	-0.555161	0.804090	-0.109069	-0.507679	0.521931	-0.146518	-0.492539	0.517664	-0.260073	-0.613798	0.426601	-0.137746	-0.567960	0.409164	-0.146026	-0.632228	0.385087	-0.147110	-0.589564	0.368697	-0.152464	-0.711168	0.192585	-0.210815	-0.676079	0.189535	-0.298664	-0.624454	0.071342	-0.160470	-0.594361	0.073387	-0.273253	-0.557997	0.071562	-0.202982	-0.784277	0.186143	-0.279587	-0.675269	0.788703	-0.476040	-0.625886	0.776324	-0.459697	-0.690165	0.755939	-0.475970	-0.642106	0.741019	-0.466246	-0.787955	0.514304	-0.431494	-0.799881	0.508167	-0.312701	-0.926422	0.448743	-0.471605	-0.887272	0.418280	-0.460991	-0.960788	0.414981	-0.467511	-0.919398	0.386870	-0.464974	-1.089387	0.218719	-0.445319	-1.052864	0.211321	-0.347203	-1.073919	0.070146	-0.450761	-1.059102	0.066650	-0.330454	-1.010786	0.042371	-0.389100	-1.147891	0.252081	-0.393649	-0.658503	1.496486	-0.122719	-0.534236	1.491270	-0.456408	
42	0.2050	-0.602657	0.995711	-0.157895	-0.556934	0.973151	-0.409593	-0.763610	1.025682	-0.265538	-0.744930	1.028501	-0.349213	-0.609351	0.820230	-0.095570	-0.562952	0.841569	-0.107866	-0.591338	0.784906	-0.096222	-0.537472	0.805502	-0.109516	-0.489465	0.523609	-0.148286	-0.474472	0.519832	-0.261757	-0.592088	0.423839	-0.139255	-0.545459	0.408490	-0.147546	-0.608613	0.381372	-0.148692	-0.565158	0.366947	-0.153901	-0.678031	0.184649	-0.212357	-0.642784	0.183105	-0.300045	-0.584989	0.067935	-0.161783	-0.555070	0.071199	-0.274563	-0.518471	0.071693	-0.204310	-0.751038	0.174289	-0.281024	-0.657986	0.790541	-0.475143	-0.608839	0.777791	-0.458611	-0.673100	0.757830	-0.475056	-0.625243	0.742553	-0.465162	-0.772779	0.516483	-0.431337	-0.785322	0.510237	-0.312499	-0.912434	0.453532	-0.472073	-0.873837	0.422468	-0.461479	-0.947261	0.420298	-0.468055	-0.906404	0.391584	-0.465644	-1.078714	0.226186	-0.447011	-1.042605	0.217662	-0.348897	-1.068648	0.075942	-0.451503	-1.054226	0.072425	-0.331662	-1.007018	0.044247	-0.390022	-1.135775	0.261962	-0.395571	-0.642281	1.498478	-0.121919	-0.516426	1.494087	-0.453814	
43	0.2100	-0.585492	0.996724	-0.157206	-0.539172	0.974616	-0.408532	-0.746026	1.026966	-0.264982	-0.727221	1.030158	-0.348614	-0.591703	0.821016	-0.095633	-0.545317	0.842452	-0.107989	-0.573731	0.785718	-0.096577	-0.519908	0.806386	-0.109967	-0.471607	0.524827	-0.150101	-0.456850	0.521494	-0.263471	-0.570646	0.420826	-0.140674	-0.523333	0.407548	-0.149057	-0.585293	0.377498	-0.150181	-0.541138	0.365027	-0.155309	-0.645287	0.176960	-0.213774	-0.610010	0.176908	-0.301340	-0.546345	0.064876	-0.163176	-0.516702	0.069352	-0.275976	-0.479940	0.072043	-0.205803	-0.718068	0.162868	-0.282244	-0.640568	0.792122	-0.474282	-0.591636	0.779083	-0.457577	-0.655839	0.759438	-0.474174	-0.608166	0.743886	-0.464124	-0.756949	0.518236	-0.431221	-0.770050	0.511847	-0.312351	-0.897792	0.458058	-0.472477	-0.859813	0.426349	-0.461947	-0.933125	0.425438	-0.468552	-0.892862	0.396062	-0.466274	-1.067708	0.233841	-0.448593	-1.032042	0.224189	-0.350482	-1.063010	0.082289	-0.452257	-1.048912	0.078660	-0.332905	-1.002926	0.046647	-0.391018	-1.123274	0.271926	-0.397348	-0.625913	1.500184	-0.121066	-0.498741	1.496572	-0.451272	
44	0.2150	-0.568360	0.997442	-0.156502	-0.521501	0.975900	-0.407496	-0.728530	1.027876	-0.264418	-0.709621	1.031481	-0.348007	-0.574168	0.821343	-0.095715	-0.527763	0.842828	-0.108115	-0.556261	0.786054	-0.096938	-0.502460	0.806741	-0.110414	-0.454064	0.525581	-0.151956	-0.439630	0.522648	-0.265210	-0.549465	0.417584	-0.142003	-0.501574	0.406341	-0.150557	-0.562281	0.373486	-0.151579	-0.517518	0.362941	-0.156688	-0.613044	0.169549	-0.215068	-0.577864	0.170952	-0.302555	-0.508641	0.062138	-0.164631	-0.479381	0.067788	-0.277480	-0.442504	0.072546	-0.207442	-0.685502	0.151929	-0.283256	-0.623019	0.793425	-0.473464	-0.574281	0.780179	-0.456598	-0.638386	0.760742	-0.473333	-0.590878	0.744998	-0.463139	-0.740488	0.519540	-0.431161	-0.754079	0.512967	-0.312271	-0.882510	0.462300	-0.472821	-0.845218	0.429903	-0.462403	-0.918390	0.430383	-0.469006	-0.878787	0.400287	-0.466871	-1.056370	0.241676	-0.450062	-1.021175	0.230891	-0.351961	-1.056995	0.089181	-0.453020	-1.043149	0.085347	-0.334177	-0.998505	0.049604	-0.392086	-1.110389	0.281958	-0.398970	-0.609411	1.501584	-0.120150	-0.481179	1.498698	-0.448791	
45	0.2200	-0.551263	0.997860	-0.155785	-0.503922	0.976990	-0.406486	-0.711129	1.028396	-0.263847	-0.692133	1.032447	-0.347394	-0.556740	0.821209	-0.095811	-0.510283	0.842700	-0.108235	-0.538917	0.785914	-0.097302	-0.485118	0.806572	-0.110847	-0.436794	0.525877	-0.153839	-0.422771	0.523299	-0.266965	-0.528541	0.414137	-0.143246	-0.480175	0.404874	-0.152044	-0.539590	0.369359	-0.152886	-0.494309	0.360694	-0.158040	-0.581413	0.162441	-0.216240	-0.546457	0.165240	-0.303700	-0.471997	0.059697	-0.166132	-0.443228	0.066449	-0.279059	-0.406265	0.073133	-0.209210	-0.653484	0.141516	-0.284075	-0.605342	0.794435	-0.472694	-0.556776	0.781062	-0.455679	-0.620746	0.761726	-0.472542	-0.573382	0.745872	-0.462217	-0.723418	0.520378	-0.431174	-0.737432	0.513573	-0.312274	-0.866604	0.466243	-0.473111	-0.830067	0.433116	-0.462860	-0.903070	0.435118	-0.469422	-0.864193	0.404247	-0.467443	-1.044696	0.249681	-0.451416	-1.009995	0.237753	-0.353333	-1.050590	0.096605	-0.453792	-1.036924	0.092467	-0.335468	-0.993742	0.053142	-0.393225	-1.097113	0.292041	-0.400429	-0.592790	1.502659	-0.119162	-0.463738	1.500441	-0.446378	
46	0.2250	-0.534204	0.997977	-0.155052	-0.486432	0.977874	-0.405506	-0.693827	1.028516	-0.263268	-0.674760	1.033036	-0.346773	-0.539412	0.820619	-0.095916	-0.492874	0.842078	-0.108344	-0.521687	0.785303	-0.097660	-0.467874	0.805890	-0.111259	-0.419756	0.525723	-0.155742	-0.406229	0.523458	-0.268728	-0.507874	0.410514	-0.144409	-0.459132	0.403156	-0.153514	-0.517237	0.365142	-0.154106	-0.471525	0.358293	-0.159366	-0.550511	0.155660	-0.217297	-0.515901	0.159773	-0.304783	-0.436533	0.057521	-0.167660	-0.408360	0.065276	-0.280700	-0.371324	0.073740	-0.211086	-0.622159	0.131666	-0.284716	-0.587542	0.795140	-0.471979	-0.539126	0.781720	-0.454826	-0.602926	0.762379	-0.471809	-0.555684	0.746495	-0.461364	-0.705766	0.520742	-0.431274	-0.720128	0.513649	-0.312373	-0.850089	0.469877	-0.473356	-0.814378	0.435980	-0.463327	-0.887177	0.439634	-0.469807	-0.849094	0.407934	-0.468000	-1.032675	0.257843	-0.452654	-0.998485	0.244756	-0.354602	-1.043776	0.104540	-0.454571	-1.030222	0.099998	-0.336771	-0.988621	0.057277	-0.394432	-1.083432	0.302155	-0.401720	-0.576063	1.503394	-0.118094	-0.446416	1.501782	-0.444041	
47	0.2300	-0.517181	0.997794	-0.154303	-0.469030	0.978539	-0.404557	-0.676624	1.028229	-0.262678	-0.657501	1.033232	-0.346143	-0.522174	0.819583	-0.096026	-0.475529	0.840977	-0.108436	-0.504562	0.784233	-0.098010	-0.450717	0.804712	-0.111640	-0.402911	0.525132	-0.157653	-0.389962	0.523142	-0.270491	-0.487467	0.406741	-0.145497	-0.438443	0.401195	-0.154967	-0.495242	0.360862	-0.155246	-0.449184	0.355745	-0.160669	-0.520457	0.149224	-0.218244	-0.486307	0.154549	-0.305815	-0.402367	0.055582	-0.169199	-0.374892	0.064210	-0.282386	-0.337778	0.074303	-0.213053	-0.591675	0.122410	-0.285197	-0.569625	0.795531	-0.471323	-0.521335	0.782141	-0.454041	-0.584934	0.762694	-0.471146	-0.537788	0.746861	-0.460591	-0.687558	0.520630	-0.431479	-0.702190	0.513190	-0.312583	-0.832981	0.473195	-0.473566	-0.798166	0.438491	-0.463819	-0.870720	0.443920	-0.470167	-0.833501	0.411344	-0.468553	-1.020290	0.266147	-0.453776	-0.986623	0.251880	-0.355774	-1.036530	0.112958	-0.455355	-1.023022	0.107909	-0.338078	-0.983121	0.062012	-0.395705	-1.069325	0.312281	-0.402839	-0.559244	1.503774	-0.116938	-0.429212	1.502707	-0.441785	
48	0.2350	-0.500192	0.997314	-0.153537	-0.451714	0.978979	-0.403641	-0.659520	1.027535	-0.262074	-0.640357	1.033026	-0.345501	-0.505019	0.818119	-0.096136	-0.458242	0.839419	-0.108503	-0.487527	0.782721	-0.098344	-0.433637	0.803063	-0.111983	-0.386222	0.524122	-0.159562	-0.373928	0.522370	-0.272243	-0.467328	0.402848	-0.146516	-0.418106	0.399004	-0.156401	-0.473627	0.356543	-0.156310	-0.427303	0.353057	-0.161952	-0.491366	0.143149	-0.219091	-0.457784	0.149567	-0.306808	-0.369614	0.053850	-0.170734	-0.342928	0.063198	-0.284104	-0.305720	0.074762	-0.215089	-0.562173	0.113773	-0.285538	-0.551594	0.795604	-0.470732	-0.503409	0.782321	-0.453330	-0.566776	0.762669	-0.470558	-0.519701	0.746964	-0.459904	-0.668819	0.520050	-0.431803	-0.683638	0.512196	-0.312917	-0.815295	0.476194	-0.473751	-0.781442	0.440652	-0.464348	-0.853708	0.447970	-0.470511	-0.817419	0.414475	-0.469114	-1.007516	0.274572	-0.454782	-0.974380	0.259100	-0.356851	-1.028822	0.121823	-0.456144	-1.015299	0.116163	-0.339382	-0.977213	0.067337	-0.397039	-1.054769	0.322397	-0.403783	-0.542344	1.503790	-0.115688	-0.412123	1.503206	-0.439617	
49	0.2400	-0.483231	0.996545	-0.152753	-0.434477	0.979185	-0.402760	-0.642512	1.026438	-0.261452	-0.623321	1.032410	-0.344843	-0.487936	0.816248	-0.096240	-0.441006	0.837428	-0.108540	-0.470569	0.780789	-0.098659	-0.416622	0.800970	-0.112282	-0.369660	0.522714	-0.161456	-0.358090	0.521170	-0.273976	-0.447466	0.398867	-0.147476	-0.398126	0.396595	-0.157814	-0.452419	0.352211	-0.157305	-0.405902	0.350237	-0.163215	-0.463353	0.137446	-0.219846	-0.430436	0.144821	-0.307773	-0.338381	0.052296	-0.172250	-0.312568	0.062188	-0.285840	-0.275235	0.075064	-0.217175	-0.533793	0.105773	-0.285759	-0.533455	0.795360	-0.470210	-0.485352	0.782258	-0.452695	-0.548459	0.762307	-0.470055	-0.501429	0.746806	-0.459312	-0.649573	0.519016	-0.432263	-0.664492	0.510678	-0.313387	-0.797043	0.478877	-0.473925	-0.764216	0.442468	-0.464927	-0.836146	0.451781	-0.470848	-0.800853	0.417330	-0.469693	-0.994322	0.283097	-0.455676	-0.961717	0.266389	-0.357841	-1.020617	0.131089	-0.456933	-1.007023	0.124718	-0.340677	-0.970859	0.073232	-0.398431	-1.039731	0.332479	-0.404552	-0.525372	1.503435	-0.114338	-0.395147	1.503277	-0.437543	
50	0.2450	-0.466290	0.995495	-0.151950	-0.417315	0.979153	-0.401913	-0.625593	1.024949	-0.260806	-0.606389	1.031387	-0.344166	-0.470914	0.813996	-0.096334	-0.423814	0.835037	-0.108541	-0.453677	0.778467	-0.098950	-0.399662	0.798467	-0.112530	-0.353197	0.520931	-0.163323	-0.342412	0.519569	-0.275677	-0.427898	0.394828	-0.148383	-0.378509	0.393982	-0.159203	-0.431645	0.347893	-0.158237	-0.385003	0.347296	-0.164462	-0.436527	0.132125	-0.220520	-0.404363	0.140307	-0.308721	-0.308769	0.050892	-0.173735	-0.283900	0.061137	-0.287580	-0.246403	0.075166	-0.219292	-0.506664	0.098420	-0.285883	-0.515209	0.794805	-0.469761	-0.467168	0.781953	-0.452140	-0.529988	0.761617	-0.469643	-0.482977	0.746392	-0.458821	-0.629840	0.517549	-0.432870	-0.644769	0.508654	-0.314003	-0.778236	0.481248	-0.474102	-0.746493	0.443950	-0.465568	-0.818037	0.455349	-0.471185	-0.783800	0.419914	-0.470304	-0.980670	0.291694	-0.456459	-0.948592	0.273715	-0.358748	-1.011872	0.140706	-0.457722	-0.998158	0.133523	-0.341955	-0.964014	0.079663	-0.399876	-1.024176	0.342500	-0.405148	-0.508338	1.502707	-0.112885	-0.378282	1.502922	-0.435568	
51	0.2500	-0.449358	0.994177	-0.151126	-0.400219	0.978881	-0.401101	-0.608753	1.023083	-0.260132	-0.589549	1.029962	-0.343466	-0.453941	0.811396	-0.096414	-0.406656	0.832280	-0.108503	-0.436836	0.775786	-0.099213	-0.382745	0.795590	-0.112721	-0.336812	0.518802	-0.165152	-0.326864	0.517601	-0.277337	-0.408640	0.390760	-0.149244	-0.359262	0.391182	-0.160567	-0.411334	0.343612	-0.159113	-0.364629	0.344244	-0.165692	-0.410989	0.127190	-0.221122	-0.379651	0.136022	-0.309660	-0.280866	0.049613	-0.175177	-0.256997	0.060008	-0.289313	-0.219294	0.075030	-0.221422	-0.480905	0.091720	-0.285931	-0.496858	0.793947	-0.469385	-0.448860	0.781414	-0.451666	-0.511367	0.760610	-0.469327	-0.464350	0.745733	-0.458437	-0.609639	0.515679	-0.433635	-0.624482	0.506150	-0.314773	-0.758879	0.483316	-0.474294	-0.728273	0.445112	-0.466281	-0.799381	0.458674	-0.471533	-0.766255	0.422235	-0.470955	-0.966518	0.300331	-0.457135	-0.934955	0.281045	-0.359578	-1.002538	0.150613	-0.458507	-0.988661	0.142523	-0.343211	-0.956625	0.086583	-0.401367	-1.008067	0.352430	-0.405573	-0.491245	1.501608	-0.111326	-0.361524	1.502148	-0.433696	
52	0.2550	-0.432422	0.992608	-0.150280	-0.383178	0.978371	-0.400322	-0.591979	1.020862	-0.259426	-0.572790	1.028148	-0.342738	-0.437006	0.808482	-0.096473	-0.389525	0.829195	-0.108419	-0.420034	0.772783	-0.099444	-0.365860	0.792380	-0.112852	-0.320492	0.516354	-0.166928	-0.311420	0.515298	-0.278942	-0.389714	0.386694	-0.150065	-0.340400	0.388211	-0.161900	-0.391518	0.339393	-0.159939	-0.344804	0.341091	-0.166905	-0.386831	0.122644	-0.221665	-0.356381	0.131962	-0.310601	-0.254750	0.048436	-0.176565	-0.231921	0.058773	-0.291027	-0.193965	0.074629	-0.223546	-0.456621	0.085672	-0.285922	-0.478402	0.792803	-0.469086	-0.430429	0.780652	-0.451274	-0.492598	0.759306	-0.469111	-0.445549	0.744844	-0.458163	-0.588981	0.513439	-0.434566	-0.603643	0.503201	-0.315702	-0.738978	0.485090	-0.474515	-0.709553	0.445972	-0.467076	-0.780173	0.461756	-0.471900	-0.748207	0.424300	-0.471655	-0.951817	0.308974	-0.457708	-0.920754	0.288342	-0.360335	-0.992560	0.160743	-0.459286	-0.978484	0.151656	-0.344440	-0.948628	0.093935	-0.402899	-0.991361	0.362235	-0.405833	-0.474095	1.500145	-0.109661	-0.344869	1.500970	-0.431929	
53	0.2600	-0.415466	0.990804	-0.149411	-0.366179	0.977627	-0.399577	-0.575255	1.018314	-0.258681	-0.556096	1.025965	-0.341979	-0.420096	0.805294	-0.096507	-0.372412	0.825824	-0.108286	-0.403260	0.769499	-0.099639	-0.348998	0.788879	-0.112917	-0.304231	0.513620	-0.168639	-0.296060	0.512699	-0.280481	-0.371146	0.382657	-0.150853	-0.321937	0.385088	-0.163200	-0.372229	0.335259	-0.160719	-0.325555	0.337849	-0.168101	-0.364131	0.118485	-0.222157	-0.334616	0.128125	-0.311549	-0.230481	0.047342	-0.177892	-0.208718	0.057412	-0.292710	-0.170462	0.073948	-0.225648	-0.433901	0.080269	-0.285877	-0.459839	0.791392	-0.468861	-0.411874	0.779684	-0.450965	-0.473681	0.757727	-0.468997	-0.426576	0.743745	-0.458000	-0.567877	0.510870	-0.435666	-0.582258	0.499850	-0.316791	-0.718532	0.486584	-0.474780	-0.690325	0.446548	-0.467960	-0.760406	0.464596	-0.472295	-0.729640	0.426120	-0.472412	-0.936516	0.317581	-0.458181	-0.905932	0.295567	-0.361023	-0.981874	0.171023	-0.460055	-0.967575	0.160855	-0.345637	-0.939953	0.101650	-0.404463	-0.974019	0.371880	-0.405934	-0.456888	1.498330	-0.107892	-0.328313	1.499408	-0.430272	
54	0.2650	-0.398473	0.988788	-0.148517	-0.349209	0.976655	-0.398861	-0.558562	1.015472	-0.257893	-0.539449	1.023438	-0.341186	-0.403200	0.801873	-0.096511	-0.355308	0.822209	-0.108101	-0.386503	0.765976	-0.099795	-0.332149	0.785131	-0.112914	-0.288028	0.510631	-0.170272	-0.280771	0.509839	-0.281941	-0.352964	0.378677	-0.151612	-0.303893	0.381831	-0.164462	-0.353498	0.331231	-0.161458	-0.306905	0.334533	-0.169277	-0.342956	0.114711	-0.222607	-0.314409	0.124510	-0.312508	-0.208106	0.046313	-0.179150	-0.187416	0.055913	-0.294354	-0.148816	0.072980	-0.227711	-0.412817	0.075499	-0.285813	-0.441166	0.789737	-0.468710	-0.393194	0.778529	-0.450736	-0.454615	0.755901	-0.468985	-0.407431	0.742460	-0.457950	-0.546331	0.508017	-0.436936	-0.560331	0.496143	-0.318038	-0.697539	0.487813	-0.475100	-0.670576	0.446862	-0.468935	-0.740071	0.467197	-0.472725	-0.710536	0.427706	-0.473230	-0.920563	0.326110	-0.458557	-0.890431	0.302679	-0.361646	-0.970414	0.181374	-0.460811	-0.955875	0.170049	-0.346798	-0.930520	0.109648	-0.406052	-0.956000	0.381323	-0.405883	-0.439618	1.496180	-0.106022	-0.311849	1.497488	-0.428727	
55	0.2700	-0.381421	0.986582	-0.147597	-0.332252	0.975468	-0.398175	-0.541878	1.012373	-0.257060	-0.522828	1.020599	-0.340355	-0.386308	0.798264	-0.096480	-0.338204	0.818394	-0.107861	-0.369754	0.762259	-0.099908	-0.315306	0.781181	-0.112840	-0.271892	0.507422	-0.171815	-0.265546	0.506757	-0.283310	-0.335196	0.374778	-0.152343	-0.286288	0.378463	-0.165679	-0.335359	0.327330	-0.162159	-0.288882	0.331157	-0.170428	-0.323353	0.111316	-0.223026	-0.295795	0.121117	-0.313481	-0.187652	0.045338	-0.180334	-0.168027	0.054275	-0.295948	-0.129042	0.071729	-0.229720	-0.393420	0.071346	-0.285744	-0.422376	0.787867	-0.468630	-0.374385	0.777213	-0.450585	-0.435395	0.753859	-0.469073	-0.388112	0.741018	-0.458009	-0.524344	0.504929	-0.438370	-0.537864	0.492137	-0.319436	-0.675995	0.488792	-0.475486	-0.650291	0.446939	-0.470002	-0.719156	0.469560	-0.473196	-0.690873	0.429070	-0.474112	-0.903904	0.334512	-0.458841	-0.874194	0.309637	-0.362206	-0.958110	0.191711	-0.461551	-0.943323	0.179166	-0.347920	-0.920246	0.117844	-0.407656	-0.937266	0.390521	-0.405689	-0.422278	1.493720	-0.104056	-0.295470	1.495240	-0.427294	
56	0.2750	-0.364290	0.984213	-0.146649	-0.315289	0.974081	-0.397514	-0.525179	1.009060	-0.256176	-0.506211	1.017487	-0.339484	-0.369410	0.794512	-0.096410	-0.321094	0.814424	-0.107562	-0.353006	0.758396	-0.099974	-0.298463	0.777074	-0.112694	-0.255839	0.504028	-0.173254	-0.250385	0.503491	-0.284577	-0.317874	0.370986	-0.153048	-0.269147	0.375005	-0.166846	-0.317842	0.323576	-0.162823	-0.271511	0.327738	-0.171549	-0.305357	0.108294	-0.223418	-0.278792	0.117949	-0.314468	-0.169127	0.044406	-0.181439	-0.150544	0.052504	-0.297483	-0.111141	0.070209	-0.231660	-0.375743	0.067790	-0.285683	-0.403464	0.785815	-0.468617	-0.355440	0.775764	-0.450507	-0.416017	0.751637	-0.469257	-0.368616	0.739451	-0.458174	-0.501913	0.501660	-0.439961	-0.514857	0.487891	-0.320977	-0.653894	0.489540	-0.475946	-0.629452	0.446801	-0.471160	-0.697647	0.471690	-0.473713	-0.670625	0.430224	-0.475056	-0.886487	0.342737	-0.459037	-0.857164	0.316397	-0.362704	-0.944889	0.201945	-0.462272	-0.929855	0.188126	-0.348998	-0.909042	0.126143	-0.409266	-0.917783	0.399428	-0.405362	-0.404858	1.490977	-0.102000	-0.279170	1.492703	-0.425974	
57	0.2800	-0.347059	0.981709	-0.145674	-0.298304	0.972512	-0.396875	-0.508440	1.005579	-0.255240	-0.489574	1.014144	-0.338570	-0.352498	0.790663	-0.096296	-0.303970	0.810344	-0.107203	-0.336254	0.754434	-0.099991	-0.281615	0.772855	-0.112475	-0.239891	0.500484	-0.174579	-0.235298	0.500081	-0.285730	-0.301031	0.367322	-0.153726	-0.252495	0.371480	-0.167955	-0.300978	0.319986	-0.163452	-0.254814	0.324294	-0.172634	-0.288981	0.105635	-0.223790	-0.263402	0.115009	-0.315465	-0.152522	0.043510	-0.182462	-0.134941	0.050612	-0.298954	-0.095095	0.068442	-0.233520	-0.359795	0.064808	-0.285639	-0.384420	0.783614	-0.468663	-0.336355	0.774214	-0.450498	-0.396474	0.749273	-0.469531	-0.348937	0.737794	-0.458436	-0.479033	0.498263	-0.441694	-0.491307	0.483470	-0.322644	-0.631228	0.490074	-0.476486	-0.608040	0.446476	-0.472401	-0.675534	0.473591	-0.474280	-0.649770	0.431179	-0.476059	-0.868263	0.350733	-0.459147	-0.839291	0.322915	-0.363139	-0.930678	0.211987	-0.462971	-0.915408	0.196853	-0.350031	-0.896815	0.134447	-0.410872	-0.897523	0.407997	-0.404911	-0.387344	1.487985	-0.099864	-0.262940	1.489916	-0.424767	
58	0.2850	-0.329705	0.979100	-0.144670	-0.281278	0.970784	-0.396256	-0.491636	1.001979	-0.254249	-0.472892	1.010618	-0.337611	-0.335565	0.786765	-0.096135	-0.286829	0.806197	-0.106783	-0.319496	0.750420	-0.099956	-0.264762	0.768567	-0.112181	-0.224079	0.496826	-0.175780	-0.220298	0.496563	-0.286758	-0.284699	0.363806	-0.154374	-0.236359	0.367914	-0.168998	-0.284792	0.316577	-0.164043	-0.238815	0.320844	-0.173676	-0.274222	0.103330	-0.224144	-0.249608	0.112303	-0.316467	-0.137805	0.042647	-0.183401	-0.121175	0.048619	-0.300351	-0.080870	0.066459	-0.235288	-0.345565	0.062373	-0.285619	-0.365237	0.781305	-0.468763	-0.317122	0.772598	-0.450549	-0.376758	0.746810	-0.469886	-0.329073	0.736085	-0.458787	-0.455698	0.494797	-0.443553	-0.467214	0.478941	-0.324419	-0.607992	0.490415	-0.477111	-0.586037	0.445987	-0.473716	-0.652806	0.475266	-0.474896	-0.628283	0.431949	-0.477115	-0.849189	0.358443	-0.459175	-0.820527	0.329150	-0.363511	-0.915405	0.221744	-0.463645	-0.899919	0.205268	-0.351016	-0.883477	0.142655	-0.412461	-0.876467	0.416178	-0.404349	-0.369722	1.484782	-0.097656	-0.246774	1.486925	-0.423671	
59	0.2900	-0.312210	0.976417	-0.143637	-0.264194	0.968923	-0.395653	-0.474742	0.998311	-0.253203	-0.456144	1.006960	-0.336607	-0.318610	0.782862	-0.095923	-0.269668	0.802026	-0.106300	-0.302734	0.746400	-0.099865	-0.247904	0.764252	-0.111814	-0.208437	0.493091	-0.176846	-0.205410	0.492975	-0.287652	-0.268911	0.360456	-0.154989	-0.220765	0.364331	-0.169967	-0.269310	0.313364	-0.164594	-0.223532	0.317409	-0.174665	-0.261057	0.101366	-0.224483	-0.237377	0.109838	-0.317465	-0.124928	0.041815	-0.184254	-0.109186	0.046551	-0.301669	-0.068415	0.064295	-0.236952	-0.333019	0.060457	-0.285624	-0.345908	0.778928	-0.468907	-0.297734	0.770954	-0.450652	-0.356863	0.744290	-0.470312	-0.309017	0.734364	-0.459216	-0.431901	0.491319	-0.445515	-0.442577	0.474374	-0.326280	-0.584182	0.490581	-0.477819	-0.563426	0.445361	-0.475091	-0.629455	0.476723	-0.475562	-0.606144	0.432546	-0.478212	-0.829229	0.365814	-0.459123	-0.800836	0.335060	-0.363817	-0.899005	0.231125	-0.464290	-0.883332	0.213294	-0.351950	-0.868940	0.150668	-0.414023	-0.854602	0.423921	-0.403687	-0.351977	1.481411	-0.095389	-0.230663	1.483780	-0.422684	
60	0.2950	-0.294555	0.973692	-0.142578	-0.247037	0.966958	-0.395063	-0.457734	0.994629	-0.252100	-0.439305	1.003225	-0.335557	-0.301632	0.779001	-0.095658	-0.252486	0.797872	-0.105755	-0.285972	0.742420	-0.099716	-0.231047	0.759950	-0.111375	-0.193008	0.489314	-0.177769	-0.190662	0.489353	-0.288405	-0.253697	0.357290	-0.155565	-0.205740	0.360760	-0.170853	-0.254553	0.310361	-0.165102	-0.208983	0.314012	-0.175593	-0.249445	0.099731	-0.224806	-0.226658	0.107620	-0.318448	-0.113824	0.041015	-0.185022	-0.098897	0.044437	-0.302902	-0.057664	0.061993	-0.238505	-0.322107	0.059032	-0.285656	-0.326425	0.776524	-0.469086	-0.278187	0.769320	-0.450799	-0.336784	0.741757	-0.470798	-0.288768	0.732673	-0.459710	-0.407638	0.487885	-0.447555	-0.417402	0.469841	-0.328201	-0.559799	0.490592	-0.478609	-0.540195	0.444624	-0.476511	-0.605479	0.477965	-0.476273	-0.583338	0.432982	-0.479340	-0.808357	0.372791	-0.458994	-0.780189	0.340606	-0.364054	-0.881421	0.240040	-0.464906	-0.865595	0.220857	-0.352832	-0.853123	0.158384	-0.415547	-0.831929	0.431176	-0.402936	-0.334095	1.477918	-0.093075	-0.214602	1.480530	-0.421804	
61	0.3000	-0.276727	0.970959	-0.141492	-0.229793	0.964920	-0.394483	-0.440591	0.990984	-0.250940	-0.422359	0.999468	-0.334459	-0.284633	0.775223	-0.095336	-0.235289	0.793772	-0.105148	-0.269218	0.738523	-0.099508	-0.214198	0.755697	-0.110865	-0.177836	0.485531	-0.178544	-0.176091	0.485731	-0.289010	-0.239087	0.354323	-0.156094	-0.191312	0.357227	-0.171648	-0.240538	0.307579	-0.165563	-0.195182	0.310677	-0.176448	-0.239330	0.098413	-0.225110	-0.217384	0.105657	-0.319404	-0.104408	0.040249	-0.185704	-0.090215	0.042307	-0.304047	-0.048534	0.059597	-0.239939	-0.312756	0.058067	-0.285711	-0.306785	0.774137	-0.469290	-0.258478	0.767737	-0.450980	-0.316517	0.739257	-0.471329	-0.268325	0.731051	-0.460255	-0.382910	0.484551	-0.449644	-0.391698	0.465412	-0.330153	-0.534849	0.490468	-0.479473	-0.516337	0.443798	-0.477955	-0.580882	0.479002	-0.477025	-0.559856	0.433270	-0.480482	-0.786558	0.379321	-0.458790	-0.758572	0.345751	-0.364217	-0.862603	0.248403	-0.465488	-0.846667	0.227885	-0.353658	-0.835956	0.165708	-0.417019	-0.808458	0.437896	-0.402107	-0.316063	1.474351	-0.090727	-0.198585	1.477228	-0.421025	
62	0.3050	-0.258716	0.968251	-0.140384	-0.212454	0.962844	-0.393910	-0.423299	0.987429	-0.249725	-0.405289	0.995745	-0.333315	-0.267623	0.771569	-0.094957	-0.218083	0.789763	-0.104480	-0.252485	0.734750	-0.099239	-0.197371	0.751529	-0.110286	-0.162970	0.481777	-0.179164	-0.161736	0.482142	-0.289463	-0.225108	0.351565	-0.156570	-0.177504	0.353761	-0.172343	-0.227277	0.305030	-0.165971	-0.182138	0.307427	-0.177222	-0.230637	0.097397	-0.225393	-0.209474	0.103957	-0.320320	-0.096581	0.039521	-0.186302	-0.083037	0.040196	-0.305098	-0.040930	0.057152	-0.241249	-0.304878	0.057532	-0.285783	-0.286988	0.771810	-0.469508	-0.238607	0.766242	-0.451183	-0.296062	0.736832	-0.471892	-0.247692	0.729540	-0.460835	-0.357720	0.481371	-0.451750	-0.365480	0.461154	-0.332106	-0.509345	0.490228	-0.480403	-0.491856	0.442910	-0.479404	-0.555678	0.479839	-0.477810	-0.535698	0.433420	-0.481622	-0.763832	0.385354	-0.458514	-0.735983	0.350463	-0.364304	-0.842520	0.256135	-0.466036	-0.826521	0.234313	-0.354428	-0.817385	0.172551	-0.418430	-0.784216	0.444035	-0.401213	-0.297872	1.470762	-0.088359	-0.182613	1.473929	-0.420344	
63	0.3100	-0.240519	0.965599	-0.139256	-0.195016	0.960765	-0.393342	-0.405845	0.984013	-0.248457	-0.388086	0.992112	-0.332125	-0.250612	0.768076	-0.094519	-0.200880	0.785877	-0.103753	-0.235788	0.731138	-0.098909	-0.180581	0.747474	-0.109642	-0.148460	0.478087	-0.179628	-0.147642	0.478619	-0.289762	-0.211783	0.349030	-0.156984	-0.164338	0.350389	-0.172931	-0.214779	0.302722	-0.166321	-0.169857	0.304288	-0.177904	-0.223278	0.096668	-0.225648	-0.202834	0.102524	-0.321180	-0.090230	0.038834	-0.186819	-0.077246	0.038134	-0.306054	-0.034745	0.054704	-0.242432	-0.298371	0.057398	-0.285865	-0.267038	0.769584	-0.469729	-0.218580	0.764876	-0.451398	-0.275427	0.734527	-0.472471	-0.226877	0.728177	-0.461433	-0.332084	0.478393	-0.453843	-0.338775	0.457133	-0.334028	-0.483310	0.489892	-0.481385	-0.466762	0.441981	-0.480833	-0.529890	0.480486	-0.478618	-0.510876	0.433447	-0.482741	-0.740193	0.390844	-0.458168	-0.712438	0.354712	-0.364308	-0.821154	0.263163	-0.466546	-0.805143	0.240084	-0.355139	-0.797371	0.178832	-0.419767	-0.759240	0.449553	-0.400264	-0.279517	1.467201	-0.085986	-0.166685	1.470683	-0.419756	
64	0.3150	-0.222140	0.963035	-0.138112	-0.177481	0.958718	-0.392778	-0.388226	0.980784	-0.247136	-0.370749	0.988620	-0.330890	-0.233618	0.764778	-0.094024	-0.183698	0.782142	-0.102969	-0.219151	0.727721	-0.098517	-0.163851	0.743562	-0.108937	-0.134357	0.474492	-0.179933	-0.133859	0.475191	-0.289906	-0.199131	0.346726	-0.157327	-0.151835	0.347139	-0.173405	-0.203046	0.300663	-0.166606	-0.158340	0.301284	-0.178485	-0.217155	0.096212	-0.225869	-0.197361	0.101366	-0.321969	-0.085231	0.038193	-0.187257	-0.072720	0.036154	-0.306913	-0.029863	0.052298	-0.243486	-0.293120	0.057634	-0.285946	-0.246947	0.767499	-0.469943	-0.198410	0.763674	-0.451614	-0.254623	0.732379	-0.473050	-0.205895	0.727000	-0.462035	-0.306024	0.475663	-0.455887	-0.311619	0.453410	-0.335887	-0.456779	0.489477	-0.482405	-0.441081	0.441033	-0.482219	-0.503553	0.480953	-0.479437	-0.485415	0.433361	-0.483819	-0.715674	0.395751	-0.457753	-0.687969	0.358475	-0.364227	-0.798507	0.269424	-0.467016	-0.782539	0.245147	-0.355790	-0.775898	0.184480	-0.421020	-0.733585	0.454413	-0.399271	-0.260999	1.463719	-0.083623	-0.150809	1.467543	-0.419254	
65	0.3200	-0.203591	0.960588	-0.136958	-0.159859	0.956741	-0.392216	-0.370448	0.977784	-0.245767	-0.353282	0.985320	-0.329611	-0.216664	0.761703	-0.093473	-0.166558	0.778585	-0.102133	-0.202598	0.724528	-0.098064	-0.147206	0.739817	-0.108174	-0.120710	0.471024	-0.180081	-0.120435	0.471884	-0.289898	-0.187168	0.344659	-0.157592	-0.140009	0.344038	-0.173758	-0.192077	0.298857	-0.166821	-0.147584	0.298440	-0.178957	-0.212158	0.096011	-0.226051	-0.192943	0.100484	-0.322672	-0.081454	0.037601	-0.187619	-0.069329	0.034284	-0.307674	-0.026160	0.049973	-0.244411	-0.289001	0.058211	-0.286016	-0.226733	0.765590	-0.470138	-0.178114	0.762669	-0.451821	-0.233670	0.730427	-0.473616	-0.184769	0.726039	-0.462622	-0.279574	0.473222	-0.457851	-0.284060	0.450038	-0.337651	-0.429797	0.489002	-0.483445	-0.414850	0.440085	-0.483536	-0.476715	0.481249	-0.480256	-0.459354	0.433175	-0.484836	-0.690324	0.400041	-0.457273	-0.662627	0.361733	-0.364057	-0.774606	0.274864	-0.467446	-0.758735	0.249463	-0.356379	-0.752972	0.189433	-0.422179	-0.707321	0.458585	-0.398243	-0.242326	1.460365	-0.081284	-0.134993	1.464555	-0.418833	
66	0.3250	-0.184894	0.958285	-0.135798	-0.142167	0.954866	-0.391656	-0.352524	0.975051	-0.244352	-0.335699	0.982257	-0.328291	-0.199777	0.758877	-0.092868	-0.149488	0.775227	-0.101249	-0.186161	0.721585	-0.097552	-0.130677	0.736258	-0.107360	-0.107568	0.467711	-0.180074	-0.107421	0.468724	-0.289742	-0.175906	0.342835	-0.157771	-0.128872	0.341112	-0.173987	-0.181866	0.297308	-0.166960	-0.137582	0.295779	-0.179314	-0.208170	0.096051	-0.226184	-0.189462	0.099880	-0.323275	-0.078762	0.037062	-0.187909	-0.066940	0.032549	-0.308338	-0.023506	0.047768	-0.245210	-0.285884	0.059102	-0.286063	-0.206422	0.763892	-0.470304	-0.157720	0.761889	-0.452009	-0.212597	0.728701	-0.474153	-0.163530	0.725323	-0.463181	-0.252784	0.471102	-0.459702	-0.256159	0.447065	-0.339290	-0.402426	0.488482	-0.484485	-0.388124	0.439157	-0.484762	-0.449441	0.481387	-0.481060	-0.432750	0.432901	-0.485774	-0.664214	0.403688	-0.456728	-0.636483	0.364473	-0.363794	-0.749498	0.279445	-0.467835	-0.733780	0.253000	-0.356904	-0.728629	0.193647	-0.423237	-0.680533	0.462049	-0.397191	-0.223516	1.457184	-0.078985	-0.119256	1.461765	-0.418485	
67	0.3300	-0.166081	0.956149	-0.134641	-0.124432	0.953127	-0.391096	-0.334477	0.972616	-0.242896	-0.318024	0.979469	-0.326932	-0.182991	0.756320	-0.092212	-0.132522	0.772086	-0.100323	-0.169876	0.718911	-0.096983	-0.114300	0.732904	-0.106500	-0.094976	0.464581	-0.179918	-0.094866	0.465733	-0.289444	-0.165351	0.341258	-0.157857	-0.118432	0.338383	-0.174089	-0.172400	0.296017	-0.167019	-0.128320	0.293321	-0.179549	-0.205073	0.096313	-0.226263	-0.186800	0.099552	-0.323765	-0.077016	0.036579	-0.188132	-0.065420	0.030968	-0.308907	-0.021772	0.045713	-0.245886	-0.283638	0.060279	-0.286075	-0.186052	0.762431	-0.470434	-0.137265	0.761360	-0.452168	-0.191443	0.727230	-0.474647	-0.142217	0.724874	-0.463697	-0.225716	0.469331	-0.461412	-0.227993	0.444528	-0.340777	-0.374739	0.487934	-0.485506	-0.360974	0.438263	-0.485874	-0.421809	0.481378	-0.481834	-0.405675	0.432551	-0.486613	-0.637433	0.406674	-0.456123	-0.609629	0.366691	-0.363438	-0.723261	0.283138	-0.468179	-0.707748	0.255741	-0.357365	-0.702933	0.197087	-0.424186	-0.653322	0.464790	-0.396123	-0.204594	1.454219	-0.076739	-0.103619	1.459210	-0.418203	
68	0.3350	-0.147194	0.954201	-0.133491	-0.106689	0.951553	-0.390539	-0.316344	0.970505	-0.241404	-0.300292	0.976990	-0.325538	-0.166347	0.754047	-0.091509	-0.115701	0.769176	-0.099360	-0.153781	0.716522	-0.096362	-0.098116	0.729768	-0.105601	-0.082974	0.461656	-0.179620	-0.082819	0.462931	-0.289014	-0.155504	0.339927	-0.157846	-0.108692	0.335874	-0.174063	-0.163663	0.294982	-0.166995	-0.119783	0.291086	-0.179660	-0.202745	0.096779	-0.226281	-0.184835	0.099495	-0.324131	-0.076079	0.036152	-0.188292	-0.064636	0.029560	-0.309384	-0.020826	0.043834	-0.246445	-0.282129	0.061713	-0.286042	-0.165666	0.761230	-0.470518	-0.116796	0.761098	-0.452292	-0.170256	0.726033	-0.475086	-0.120883	0.724708	-0.464157	-0.198448	0.467929	-0.462955	-0.199651	0.442458	-0.342088	-0.346827	0.487371	-0.486487	-0.333485	0.437420	-0.486851	-0.393913	0.481236	-0.482565	-0.378219	0.432137	-0.487337	-0.610090	0.408992	-0.455461	-0.582175	0.368387	-0.362987	-0.695994	0.285931	-0.468480	-0.680735	0.257681	-0.357761	-0.675979	0.199737	-0.425021	-0.625803	0.466805	-0.395046	-0.185598	1.451506	-0.074558	-0.088110	1.456924	-0.417980	
69	0.3400	-0.128287	0.952456	-0.132357	-0.088983	0.950170	-0.389984	-0.298171	0.968735	-0.239883	-0.282547	0.974844	-0.324114	-0.149890	0.752067	-0.090766	-0.099069	0.766508	-0.098367	-0.137924	0.714428	-0.095693	-0.082170	0.726860	-0.104671	-0.071598	0.458957	-0.179188	-0.071321	0.460335	-0.288462	-0.146361	0.338842	-0.157735	-0.099649	0.333601	-0.173910	-0.155636	0.294201	-0.166886	-0.111950	0.289090	-0.179645	-0.201065	0.097432	-0.226233	-0.183452	0.099700	-0.324366	-0.075815	0.035783	-0.188395	-0.064462	0.028333	-0.309773	-0.020539	0.042150	-0.246893	-0.281229	0.063379	-0.285954	-0.145323	0.760305	-0.470551	-0.096368	0.761117	-0.452373	-0.149098	0.725127	-0.475459	-0.099588	0.724834	-0.464551	-0.171073	0.466906	-0.464308	-0.171240	0.440872	-0.343203	-0.318796	0.486807	-0.487409	-0.305764	0.436638	-0.487677	-0.365862	0.480974	-0.483237	-0.350491	0.431670	-0.487931	-0.582313	0.410644	-0.454746	-0.554252	0.369568	-0.362444	-0.667829	0.287827	-0.468737	-0.652868	0.258827	-0.358091	-0.647892	0.201593	-0.425739	-0.598107	0.468100	-0.393969	-0.166577	1.449076	-0.072457	-0.072765	1.454934	-0.417810	
70	0.3450	-0.109423	0.950928	-0.131246	-0.071369	0.948999	-0.389433	-0.280016	0.967317	-0.238339	-0.264846	0.973050	-0.322664	-0.133671	0.750384	-0.089987	-0.082677	0.764087	-0.097353	-0.122352	0.712633	-0.094981	-0.066511	0.724187	-0.103716	-0.060876	0.456500	-0.178633	-0.060413	0.457957	-0.287800	-0.137915	0.337998	-0.157523	-0.091297	0.331579	-0.173634	-0.148294	0.293667	-0.166691	-0.104796	0.287345	-0.179507	-0.199918	0.098252	-0.226113	-0.182537	0.100155	-0.324463	-0.076094	0.035471	-0.188447	-0.064777	0.027294	-0.310079	-0.020790	0.040674	-0.247239	-0.280812	0.065251	-0.285802	-0.125088	0.759667	-0.470529	-0.076048	0.761421	-0.452406	-0.128037	0.724518	-0.475758	-0.078405	0.725256	-0.464871	-0.143699	0.466267	-0.465454	-0.142878	0.439779	-0.344106	-0.290764	0.486253	-0.488252	-0.277930	0.435927	-0.488337	-0.337781	0.480608	-0.483839	-0.322616	0.431163	-0.488384	-0.554247	0.411641	-0.453983	-0.526008	0.370250	-0.361811	-0.638919	0.288843	-0.468949	-0.624294	0.259199	-0.358357	-0.618829	0.202667	-0.426337	-0.570374	0.468691	-0.392897	-0.147589	1.446954	-0.070444	-0.057626	1.453260	-0.417684	
71	0.3500	-0.090677	0.949623	-0.130165	-0.053910	0.948054	-0.388887	-0.261946	0.966254	-0.236779	-0.247253	0.971616	-0.321196	-0.117746	0.748999	-0.089181	-0.066584	0.761917	-0.096326	-0.107117	0.711137	-0.094233	-0.051194	0.721753	-0.102747	-0.050832	0.454298	-0.177968	-0.050128	0.455809	-0.287042	-0.130153	0.337390	-0.157211	-0.083625	0.329819	-0.173241	-0.141609	0.293372	-0.166413	-0.098295	0.285860	-0.179248	-0.199194	0.099221	-0.225921	-0.181987	0.100845	-0.324420	-0.076796	0.035213	-0.188452	-0.065467	0.026444	-0.310308	-0.021463	0.039413	-0.247491	-0.280764	0.067300	-0.285581	-0.105036	0.759318	-0.470447	-0.055914	0.762008	-0.452390	-0.107156	0.724209	-0.475978	-0.057413	0.725968	-0.465109	-0.116449	0.466007	-0.466381	-0.114697	0.439176	-0.344789	-0.262864	0.485719	-0.489001	-0.250121	0.435296	-0.488821	-0.309806	0.480152	-0.484359	-0.294733	0.430625	-0.488688	-0.526056	0.412007	-0.453176	-0.497608	0.370454	-0.361094	-0.609444	0.289013	-0.469117	-0.595187	0.258830	-0.358559	-0.588975	0.202988	-0.426818	-0.542759	0.468607	-0.391838	-0.128704	1.445155	-0.068531	-0.042741	1.451912	-0.417595	
72	0.3550	-0.072132	0.948544	-0.129121	-0.036679	0.947347	-0.388349	-0.244041	0.965539	-0.235212	-0.229844	0.970542	-0.319715	-0.102174	0.747903	-0.088354	-0.050848	0.759997	-0.095294	-0.092275	0.709933	-0.093457	-0.036272	0.719557	-0.101770	-0.041482	0.452359	-0.177207	-0.040494	0.453896	-0.286203	-0.123056	0.337009	-0.156802	-0.076615	0.328327	-0.172737	-0.135552	0.293304	-0.166053	-0.092416	0.284639	-0.178875	-0.198792	0.100317	-0.225656	-0.181704	0.101750	-0.324239	-0.077809	0.035008	-0.188416	-0.066430	0.025779	-0.310466	-0.022449	0.038365	-0.247661	-0.280978	0.069500	-0.285286	-0.085253	0.759255	-0.470306	-0.036050	0.762871	-0.452322	-0.086544	0.724194	-0.476113	-0.036705	0.726960	-0.465264	-0.089458	0.466113	-0.467083	-0.086840	0.439051	-0.345246	-0.235241	0.485213	-0.489640	-0.222484	0.434748	-0.489124	-0.282088	0.479621	-0.484787	-0.266997	0.430069	-0.488839	-0.497913	0.411774	-0.452333	-0.469229	0.370210	-0.360299	-0.579607	0.288384	-0.469242	-0.565740	0.257765	-0.358699	-0.558544	0.202595	-0.427182	-0.515421	0.467885	-0.390795	-0.110003	1.443688	-0.066724	-0.028164	1.450896	-0.417538	
73	0.3600	-0.053878	0.947689	-0.128121	-0.019754	0.946880	-0.387821	-0.226386	0.965162	-0.233647	-0.212700	0.969823	-0.318231	-0.087018	0.747088	-0.087515	-0.035533	0.758321	-0.094267	-0.077883	0.709013	-0.092660	-0.021804	0.717599	-0.100796	-0.032833	0.450687	-0.176363	-0.031529	0.452222	-0.285299	-0.116605	0.336843	-0.156303	-0.070248	0.327103	-0.172134	-0.130089	0.293449	-0.165617	-0.087126	0.283682	-0.178396	-0.198620	0.101521	-0.225318	-0.181604	0.102849	-0.323924	-0.079031	0.034851	-0.188346	-0.067575	0.025290	-0.310561	-0.023652	0.037528	-0.247757	-0.281361	0.071825	-0.284917	-0.065831	0.759468	-0.470107	-0.016548	0.763992	-0.452202	-0.066299	0.724461	-0.476162	-0.016377	0.728213	-0.465333	-0.062871	0.466566	-0.467558	-0.059457	0.439379	-0.345479	-0.208046	0.484742	-0.490160	-0.195182	0.434288	-0.489246	-0.254783	0.479030	-0.485118	-0.239572	0.429503	-0.488837	-0.470005	0.410984	-0.451461	-0.441062	0.369551	-0.359436	-0.549627	0.287016	-0.469325	-0.536165	0.256061	-0.358780	-0.527770	0.201543	-0.427436	-0.488526	0.466572	-0.389776	-0.091573	1.442556	-0.065032	-0.013951	1.450207	-0.417506	
74	0.3650	-0.036012	0.947051	-0.127170	-0.003219	0.946651	-0.387305	-0.209076	0.965102	-0.232094	-0.195912	0.969442	-0.316753	-0.072344	0.746537	-0.086671	-0.020706	0.756883	-0.093253	-0.063998	0.708360	-0.091850	-0.007849	0.715871	-0.099833	-0.024888	0.449281	-0.175454	-0.023247	0.450786	-0.284346	-0.110774	0.336879	-0.155722	-0.064500	0.326145	-0.171443	-0.125188	0.293790	-0.165113	-0.082392	0.282983	-0.177822	-0.198598	0.102811	-0.224911	-0.181612	0.104116	-0.323483	-0.080375	0.034737	-0.188248	-0.068819	0.024965	-0.310599	-0.024986	0.036889	-0.247790	-0.281832	0.074245	-0.284474	-0.046867	0.759939	-0.469851	0.002493	0.765351	-0.452032	-0.046524	0.724990	-0.476128	0.003466	0.729702	-0.465320	-0.036839	0.467339	-0.467812	-0.032706	0.440130	-0.345496	-0.181439	0.484311	-0.490552	-0.168380	0.433915	-0.489189	-0.228054	0.478395	-0.485345	-0.212631	0.428938	-0.488686	-0.442523	0.409688	-0.450567	-0.413301	0.368520	-0.358514	-0.519738	0.284983	-0.469368	-0.506689	0.253785	-0.358805	-0.496907	0.199897	-0.427585	-0.462242	0.464725	-0.388784	-0.073511	1.441750	-0.063458	-0.000165	1.449834	-0.417493	
75	0.3700	-0.018635	0.946621	-0.126274	0.012837	0.946652	-0.386804	-0.192209	0.965333	-0.230563	-0.179572	0.969377	-0.315289	-0.058217	0.746231	-0.085833	-0.006432	0.755672	-0.092263	-0.050678	0.707956	-0.091036	0.005536	0.714367	-0.098890	-0.017640	0.448135	-0.174495	-0.015652	0.449583	-0.283361	-0.105535	0.337100	-0.155068	-0.059342	0.325443	-0.170677	-0.120812	0.294310	-0.164548	-0.078177	0.282534	-0.177165	-0.198659	0.104166	-0.224442	-0.181666	0.105524	-0.322927	-0.081766	0.034663	-0.188127	-0.070097	0.024790	-0.310591	-0.026378	0.036435	-0.247772	-0.282323	0.076733	-0.283962	-0.028461	0.760647	-0.469543	0.020972	0.766919	-0.451816	-0.027326	0.725758	-0.476013	0.022719	0.731398	-0.465227	-0.011520	0.468398	-0.467854	-0.006745	0.441260	-0.345308	-0.155580	0.483923	-0.490814	-0.142250	0.433628	-0.488963	-0.202067	0.477729	-0.485469	-0.186349	0.428383	-0.488393	-0.415662	0.407947	-0.449660	-0.386144	0.367161	-0.357546	-0.490185	0.282367	-0.469374	-0.477545	0.251014	-0.358778	-0.466221	0.197731	-0.427637	-0.436737	0.462410	-0.387823	-0.055916	1.441257	-0.062006	0.013132	1.449759	-0.417494	
76	0.3750	-0.001847	0.946382	-0.125438	0.028328	0.946867	-0.386321	-0.175885	0.965825	-0.229065	-0.163774	0.969601	-0.313851	-0.044700	0.746147	-0.085007	0.007223	0.754675	-0.091304	-0.037977	0.707778	-0.090228	0.018296	0.713077	-0.097975	-0.011077	0.447240	-0.173504	-0.008742	0.448605	-0.282360	-0.100857	0.337488	-0.154353	-0.054745	0.324986	-0.169850	-0.116925	0.294986	-0.163932	-0.074446	0.282318	-0.176439	-0.198746	0.105566	-0.223917	-0.181718	0.107044	-0.322269	-0.083139	0.034622	-0.187988	-0.071350	0.024748	-0.310542	-0.027764	0.036148	-0.247711	-0.282780	0.079260	-0.283388	-0.010717	0.761564	-0.469190	0.038787	0.768664	-0.451559	-0.008814	0.726737	-0.475824	0.041274	0.733266	-0.465060	0.012931	0.469706	-0.467700	0.018270	0.442723	-0.344933	-0.130630	0.483581	-0.490946	-0.116964	0.433423	-0.488581	-0.176985	0.477046	-0.485491	-0.160901	0.427844	-0.487969	-0.389614	0.405823	-0.448749	-0.359788	0.365524	-0.356545	-0.461213	0.279261	-0.469345	-0.448974	0.247829	-0.358705	-0.435984	0.195127	-0.427602	-0.412171	0.459699	-0.386899	-0.038891	1.441057	-0.060678	0.025877	1.449958	-0.417505	
77	0.3800	0.014251	0.946317	-0.124664	0.043165	0.947279	-0.385857	-0.160203	0.966543	-0.227611	-0.148613	0.970078	-0.312450	-0.031856	0.746259	-0.084202	0.020197	0.753876	-0.090384	-0.025948	0.707802	-0.089433	0.030376	0.711987	-0.097096	-0.005179	0.446580	-0.172496	-0.002506	0.447841	-0.281358	-0.096709	0.338022	-0.153591	-0.050676	0.324756	-0.168979	-0.113493	0.295795	-0.163277	-0.071162	0.282319	-0.175660	-0.198817	0.106989	-0.223345	-0.181728	0.108645	-0.321525	-0.084447	0.034610	-0.187837	-0.072537	0.024819	-0.310461	-0.029096	0.036008	-0.247618	-0.283163	0.081796	-0.282760	0.006267	0.762658	-0.468798	0.055838	0.770549	-0.451267	0.008908	0.727892	-0.475568	0.059028	0.735268	-0.464829	0.036363	0.471219	-0.467369	0.042189	0.444464	-0.344392	-0.106743	0.483286	-0.490954	-0.092688	0.433295	-0.488059	-0.152966	0.476360	-0.485416	-0.136457	0.427329	-0.487430	-0.364564	0.403388	-0.447843	-0.334422	0.363661	-0.355525	-0.433066	0.275761	-0.469285	-0.421212	0.244318	-0.358590	-0.406469	0.192173	-0.427492	-0.388699	0.456667	-0.386014	-0.022537	1.441122	-0.059474	0.038009	1.450400	-0.417521	
78	0.3850	0.029565	0.946406	-0.123955	0.057265	0.947861	-0.385417	-0.145259	0.967448	-0.226210	-0.134179	0.970772	-0.311094	-0.019742	0.746540	-0.083425	0.032432	0.753258	-0.089511	-0.014639	0.708000	-0.088660	0.041731	0.711085	-0.096260	0.000077	0.446140	-0.171488	0.003073	0.447276	-0.280371	-0.093055	0.338679	-0.152797	-0.047100	0.324732	-0.168080	-0.110478	0.296713	-0.162594	-0.068289	0.282513	-0.174843	-0.198838	0.108414	-0.222738	-0.181672	0.110295	-0.320714	-0.085650	0.034620	-0.187678	-0.073623	0.024983	-0.310355	-0.030335	0.035993	-0.247501	-0.283443	0.084314	-0.282089	0.022396	0.763896	-0.468376	0.072029	0.772536	-0.450946	0.025740	0.729188	-0.475255	0.075880	0.737363	-0.464542	0.058633	0.472894	-0.466885	0.064870	0.446426	-0.343709	-0.084062	0.483036	-0.490844	-0.069577	0.433237	-0.487416	-0.130156	0.475682	-0.485251	-0.113179	0.426843	-0.486792	-0.340687	0.400713	-0.446951	-0.310226	0.361626	-0.354500	-0.405979	0.271967	-0.469198	-0.394486	0.240570	-0.358441	-0.377939	0.188957	-0.427317	-0.366460	0.453395	-0.385174	-0.006954	1.441422	-0.058392	0.049470	1.451053	-0.417539	
79	0.3900	0.044007	0.946626	-0.123312	0.070551	0.948588	-0.385001	-0.131141	0.968500	-0.224874	-0.120554	0.971642	-0.309796	-0.008408	0.746960	-0.082685	0.043877	0.752802	-0.088691	-0.004090	0.708343	-0.087917	0.052318	0.710353	-0.095474	0.004722	0.445896	-0.170495	0.008019	0.446893	-0.279413	-0.089861	0.339436	-0.151984	-0.043981	0.324889	-0.167170	-0.107847	0.297714	-0.161896	-0.065791	0.282874	-0.174005	-0.198791	0.109823	-0.222105	-0.181535	0.111965	-0.319855	-0.086725	0.034648	-0.187517	-0.074588	0.025222	-0.310232	-0.031454	0.036082	-0.247369	-0.283605	0.086783	-0.281388	0.037583	0.765240	-0.467933	0.087273	0.774583	-0.450604	0.041589	0.730587	-0.474895	0.091740	0.739510	-0.464210	0.079610	0.474683	-0.466273	0.086188	0.448550	-0.342913	-0.062719	0.482830	-0.490628	-0.047776	0.433242	-0.486676	-0.108689	0.475024	-0.485006	-0.091212	0.426392	-0.486075	-0.318140	0.397873	-0.446083	-0.287360	0.359474	-0.353484	-0.380170	0.267981	-0.469088	-0.369012	0.236677	-0.358263	-0.350643	0.185569	-0.427090	-0.345578	0.449963	-0.384380	0.007768	1.441921	-0.057428	0.060209	1.451877	-0.417558	
80	0.3950	0.057499	0.946953	-0.122735	0.082955	0.949429	-0.384612	-0.117929	0.969658	-0.223612	-0.107813	0.972646	-0.308565	0.002105	0.747490	-0.081986	0.054490	0.752489	-0.087929	0.005666	0.708802	-0.087211	0.062104	0.709776	-0.094743	0.008790	0.445826	-0.169532	0.012362	0.446670	-0.278495	-0.087090	0.340267	-0.151167	-0.041284	0.325200	-0.166263	-0.105564	0.298771	-0.161195	-0.063634	0.283376	-0.173163	-0.198665	0.111196	-0.221460	-0.181310	0.113625	-0.318967	-0.087655	0.034688	-0.187356	-0.075418	0.025516	-0.310098	-0.032437	0.036252	-0.247229	-0.283643	0.089178	-0.280668	0.051752	0.766653	-0.467478	0.101495	0.776651	-0.450250	0.056375	0.732052	-0.474500	0.106530	0.741667	-0.463845	0.099182	0.476540	-0.465560	0.106034	0.450775	-0.342031	-0.042824	0.482665	-0.490322	-0.027409	0.433300	-0.485862	-0.088678	0.474394	-0.484694	-0.070683	0.425977	-0.485301	-0.297061	0.394940	-0.445247	-0.265966	0.357258	-0.352493	-0.355836	0.263901	-0.468960	-0.344980	0.232726	-0.358063	-0.324808	0.182096	-0.426823	-0.326159	0.446452	-0.383636	0.021548	1.442582	-0.056580	0.070181	1.452836	-0.417575	
81	0.4000	0.069979	0.947362	-0.122223	0.094423	0.950353	-0.384251	-0.105689	0.970882	-0.222431	-0.096018	0.973743	-0.307410	0.011762	0.748100	-0.081334	0.064238	0.752298	-0.087230	0.014603	0.709349	-0.086549	0.071066	0.709336	-0.094070	0.012317	0.445903	-0.168610	0.016136	0.446588	-0.277628	-0.084706	0.341149	-0.150362	-0.038970	0.325637	-0.165375	-0.103598	0.299859	-0.160503	-0.061785	0.283988	-0.172330	-0.198458	0.112516	-0.220815	-0.181001	0.115247	-0.318069	-0.088435	0.034737	-0.187200	-0.076109	0.025846	-0.309959	-0.033275	0.036482	-0.247087	-0.283562	0.091472	-0.279945	0.064840	0.768099	-0.467021	0.114630	0.778699	-0.449891	0.070032	0.733546	-0.474083	0.120184	0.743795	-0.463458	0.117256	0.478420	-0.464776	0.124324	0.453044	-0.341093	-0.024470	0.482538	-0.489941	-0.008578	0.433401	-0.484999	-0.070216	0.473800	-0.484328	-0.051698	0.425602	-0.484490	-0.277561	0.391984	-0.444452	-0.246161	0.355030	-0.351538	-0.333146	0.259820	-0.468818	-0.322559	0.228800	-0.357849	-0.300632	0.178620	-0.426529	-0.308283	0.442937	-0.382945	0.034316	1.443366	-0.055841	0.079353	1.453888	-0.417588	
82	0.4050	0.081397	0.947831	-0.121775	0.104910	0.951328	-0.383920	-0.094473	0.972134	-0.221339	-0.085216	0.974892	-0.306338	0.020543	0.748763	-0.080734	0.073098	0.752208	-0.086596	0.022708	0.709953	-0.085934	0.079189	0.709015	-0.093458	0.015346	0.446100	-0.167742	0.019381	0.446623	-0.276822	-0.082673	0.342056	-0.149582	-0.037004	0.326170	-0.164520	-0.101917	0.300951	-0.159832	-0.060211	0.284680	-0.171523	-0.198176	0.113768	-0.220180	-0.180616	0.116805	-0.317181	-0.089066	0.034791	-0.187051	-0.076664	0.026196	-0.309820	-0.033967	0.036752	-0.246947	-0.283371	0.093642	-0.279232	0.076801	0.769543	-0.466569	0.126633	0.780691	-0.449534	0.082511	0.735032	-0.473654	0.132655	0.745857	-0.463060	0.133763	0.480280	-0.463949	0.140994	0.455301	-0.340127	-0.007721	0.482445	-0.489504	0.008640	0.433536	-0.484111	-0.053369	0.473249	-0.483922	-0.034335	0.425267	-0.483663	-0.259725	0.389070	-0.443705	-0.228033	0.352837	-0.350632	-0.312237	0.255824	-0.468667	-0.301884	0.224975	-0.357627	-0.278279	0.175216	-0.426218	-0.292009	0.439490	-0.382310	0.046019	1.444235	-0.055204	0.087700	1.454997	-0.417598	
83	0.4100	0.091721	0.948335	-0.121388	0.114390	0.952324	-0.383619	-0.084316	0.973378	-0.220342	-0.075440	0.976056	-0.305355	0.028438	0.749451	-0.080188	0.081062	0.752201	-0.086029	0.029977	0.710590	-0.085372	0.086471	0.708795	-0.092909	0.017916	0.446390	-0.166936	0.022137	0.446752	-0.276083	-0.080958	0.342965	-0.148838	-0.035349	0.326770	-0.163711	-0.100491	0.302026	-0.159192	-0.058883	0.285423	-0.170753	-0.197830	0.114939	-0.219568	-0.180170	0.118277	-0.316319	-0.089556	0.034846	-0.186911	-0.077092	0.026552	-0.309685	-0.034521	0.037044	-0.246815	-0.283089	0.095669	-0.278541	0.087605	0.770952	-0.466133	0.137474	0.782594	-0.449188	0.093781	0.736479	-0.473226	0.143913	0.747819	-0.462662	0.148662	0.482082	-0.463105	0.156010	0.457497	-0.339160	0.007382	0.482381	-0.489028	0.024196	0.433695	-0.483223	-0.038178	0.472745	-0.483492	-0.018647	0.424972	-0.482843	-0.243607	0.386257	-0.443013	-0.211640	0.350722	-0.349785	-0.293210	0.251991	-0.468513	-0.283055	0.221321	-0.357403	-0.257873	0.171952	-0.425903	-0.277367	0.436176	-0.381730	0.056620	1.445152	-0.054663	0.095209	1.456124	-0.417603	
84	0.4150	0.100938	0.948854	-0.121057	0.122853	0.953311	-0.383350	-0.075235	0.974583	-0.219443	-0.066703	0.977201	-0.304467	0.035449	0.750140	-0.079699	0.088132	0.752257	-0.085528	0.036419	0.711235	-0.084866	0.092920	0.708658	-0.092424	0.020073	0.446747	-0.166199	0.024449	0.446952	-0.275414	-0.079524	0.343854	-0.148141	-0.033973	0.327408	-0.162958	-0.099293	0.303060	-0.158592	-0.057773	0.286189	-0.170033	-0.197435	0.116018	-0.218988	-0.179680	0.119645	-0.315501	-0.089918	0.034899	-0.186783	-0.077403	0.026899	-0.309557	-0.034947	0.037343	-0.246693	-0.282733	0.097534	-0.277884	0.097241	0.772298	-0.465720	0.147143	0.784379	-0.448858	0.103831	0.737857	-0.472808	0.153949	0.749654	-0.462275	0.161938	0.483792	-0.462269	0.169363	0.459587	-0.338217	0.020827	0.482341	-0.488533	0.038069	0.433869	-0.482356	-0.024655	0.472291	-0.483051	-0.004652	0.424718	-0.482046	-0.229232	0.383595	-0.442379	-0.197008	0.348723	-0.349005	-0.276127	0.248385	-0.468358	-0.266136	0.217894	-0.357183	-0.239498	0.168884	-0.425592	-0.264360	0.433050	-0.381209	0.066102	1.446083	-0.054208	0.101882	1.457237	-0.417604	
85	0.4200	0.109054	0.949369	-0.120779	0.130304	0.954264	-0.383112	-0.067227	0.975721	-0.218643	-0.059003	0.978296	-0.303674	0.041594	0.750810	-0.079266	0.094327	0.752359	-0.085092	0.042052	0.711867	-0.084415	0.098557	0.708588	-0.092000	0.021858	0.447145	-0.165537	0.026363	0.447201	-0.274820	-0.078340	0.344705	-0.147501	-0.032840	0.328058	-0.162269	-0.098295	0.304035	-0.158040	-0.056854	0.286951	-0.169370	-0.197007	0.116996	-0.218448	-0.179165	0.120894	-0.314738	-0.090169	0.034949	-0.186668	-0.077615	0.027229	-0.309440	-0.035258	0.037637	-0.246583	-0.282327	0.099226	-0.277271	0.105719	0.773557	-0.465335	0.155648	0.786022	-0.448550	0.112671	0.739143	-0.472411	0.162772	0.751338	-0.461907	0.173603	0.485382	-0.461464	0.181075	0.461535	-0.337320	0.032632	0.482321	-0.488035	0.050269	0.434050	-0.481530	-0.012783	0.471890	-0.482615	0.007656	0.424501	-0.481290	-0.216590	0.381127	-0.441809	-0.184130	0.346869	-0.348300	-0.261008	0.245060	-0.468208	-0.251150	0.214741	-0.356973	-0.223191	0.166056	-0.425295	-0.252964	0.430158	-0.380745	0.074465	1.446997	-0.053833	0.107732	1.458307	-0.417602	
86	0.4250	0.116094	0.949863	-0.120550	0.136767	0.955162	-0.382904	-0.060273	0.976773	-0.217943	-0.052318	0.979318	-0.302978	0.046901	0.751443	-0.078890	0.099675	0.752491	-0.084718	0.046907	0.712467	-0.084021	0.103412	0.708569	-0.091637	0.023316	0.447561	-0.164951	0.027923	0.447479	-0.274301	-0.077374	0.345499	-0.146923	-0.031920	0.328697	-0.161651	-0.097474	0.304936	-0.157541	-0.056101	0.287686	-0.168773	-0.196565	0.117869	-0.217957	-0.178645	0.122014	-0.314041	-0.090325	0.034994	-0.186566	-0.077742	0.027533	-0.309335	-0.035472	0.037914	-0.246487	-0.281894	0.100735	-0.276710	0.113066	0.774709	-0.464984	0.163019	0.787505	-0.448269	0.120330	0.740318	-0.472041	0.170415	0.752855	-0.461566	0.183699	0.486830	-0.460709	0.191193	0.463312	-0.336485	0.042841	0.482317	-0.487550	0.060837	0.434229	-0.480761	-0.002518	0.471540	-0.482194	0.018319	0.424320	-0.480589	-0.205640	0.378883	-0.441304	-0.172970	0.345184	-0.347671	-0.247837	0.242054	-0.468066	-0.238082	0.211897	-0.356776	-0.208948	0.163504	-0.425017	-0.243128	0.427535	-0.380338	0.081732	1.447867	-0.053527	0.112784	1.459309	-0.417597	
87	0.4300	0.122099	0.950322	-0.120363	0.142281	0.955985	-0.382725	-0.054332	0.977721	-0.217340	-0.046610	0.980247	-0.302378	0.051411	0.752025	-0.078568	0.104217	0.752638	-0.084404	0.051025	0.713021	-0.083683	0.107527	0.708586	-0.091330	0.024488	0.447975	-0.164443	0.029174	0.447768	-0.273855	-0.076598	0.346224	-0.146412	-0.031183	0.329305	-0.161106	-0.096806	0.305750	-0.157099	-0.055493	0.288375	-0.168244	-0.196127	0.118634	-0.217517	-0.178137	0.122999	-0.313418	-0.090407	0.035034	-0.186477	-0.077804	0.027805	-0.309242	-0.035606	0.038167	-0.246404	-0.281454	0.102059	-0.276208	0.119330	0.775741	-0.464671	0.169302	0.788818	-0.448017	0.126858	0.741368	-0.471706	0.176926	0.754194	-0.461256	0.192292	0.488121	-0.460017	0.199789	0.464899	-0.335729	0.051523	0.482324	-0.487092	0.069838	0.434400	-0.480061	0.006213	0.471242	-0.481800	0.027401	0.424171	-0.479954	-0.196316	0.376888	-0.440864	-0.163458	0.343685	-0.347123	-0.236557	0.239392	-0.467934	-0.226880	0.209383	-0.356596	-0.196719	0.161247	-0.424764	-0.234779	0.425204	-0.379986	0.087941	1.448673	-0.053282	0.117078	1.460224	-0.417589	
88	0.4350	0.127129	0.950738	-0.120214	0.146900	0.956722	-0.382574	-0.049351	0.978555	-0.216831	-0.041825	0.981071	-0.301870	0.055175	0.752545	-0.078298	0.108007	0.752790	-0.084145	0.054455	0.713520	-0.083397	0.110954	0.708628	-0.091076	0.025415	0.448370	-0.164010	0.030159	0.448053	-0.273480	-0.075983	0.346871	-0.145970	-0.030602	0.329865	-0.160636	-0.096270	0.306469	-0.156716	-0.055007	0.289003	-0.167787	-0.195708	0.119291	-0.217133	-0.177659	0.123848	-0.312873	-0.090431	0.035068	-0.186402	-0.077815	0.028043	-0.309163	-0.035677	0.038391	-0.246335	-0.281026	0.103197	-0.275768	0.124573	0.776644	-0.464398	0.174560	0.789956	-0.447796	0.132320	0.742286	-0.471408	0.182373	0.755351	-0.460981	0.199473	0.489246	-0.459400	0.206961	0.466284	-0.335058	0.058773	0.482338	-0.486672	0.077364	0.434559	-0.479440	0.013502	0.470992	-0.481441	0.034997	0.424052	-0.479391	-0.188520	0.375151	-0.440488	-0.155500	0.342381	-0.346653	-0.227076	0.237088	-0.467816	-0.217456	0.207208	-0.356437	-0.186417	0.159295	-0.424540	-0.227820	0.423177	-0.379688	0.093151	1.449399	-0.053091	0.120660	1.461038	-0.417580	
89	0.4400	0.131256	0.951103	-0.120098	0.150690	0.957363	-0.382450	-0.045259	0.979270	-0.216410	-0.037895	0.981783	-0.301448	0.058254	0.752998	-0.078076	0.111106	0.752936	-0.083935	0.057257	0.713955	-0.083162	0.113751	0.708685	-0.090870	0.026133	0.448732	-0.163650	0.030920	0.448320	-0.273171	-0.075504	0.347433	-0.145595	-0.030152	0.330365	-0.160239	-0.095848	0.307089	-0.156390	-0.054626	0.289559	-0.167400	-0.195322	0.119844	-0.216805	-0.177222	0.124562	-0.312408	-0.090416	0.035096	-0.186340	-0.077793	0.028244	-0.309098	-0.035702	0.038584	-0.246279	-0.280628	0.104155	-0.275392	0.128872	0.777415	-0.464165	0.178872	0.790918	-0.447608	0.136797	0.743069	-0.471151	0.186837	0.756329	-0.460745	0.205351	0.490203	-0.458864	0.212821	0.467463	-0.334480	0.064704	0.482356	-0.486298	0.083530	0.434701	-0.478903	0.019464	0.470787	-0.481124	0.041219	0.423958	-0.478905	-0.182135	0.373675	-0.440174	-0.148978	0.341271	-0.346260	-0.219273	0.235139	-0.467712	-0.209691	0.205371	-0.356298	-0.177919	0.157647	-0.424347	-0.222137	0.421457	-0.379440	0.097432	1.450034	-0.052943	0.123589	1.461743	-0.417570	
