PathFileType	4	(X/Y/Z)	 P4 130r2 03.trc
DataRate	CameraRate	NumFrames	NumMarkers	Units	OrigDataRate	OrigDataStartFrame	OrigNumFrames
200	200	84	38	m	200	2	85
Frame#	Time	RASIS			LASIS			RPSIS			LPSIS			RThighRear1			RThighFront1			RThighRear2			RThighFront2			RKneeLat			RKneeMed			RShankRear1			RShankFront1			RShankRear2			RShankFront2			RAnkleLat			RAnkleMed			RM5			RM1			RMid			RHeel			LThighRear1			LThighFront1			LThighRear2			LThighFront2			LKneeLat			LKneeMed			LShankRear1			LShankFront1			LShankRear2			LShankFront2			LAnkleLat			LAnkleMed			LM5			LM1			LMid			LHeel			RShoulder			LShoulder			
		X1	Y1	Z1	X2	Y2	Z2	X3	Y3	Z3	X4	Y4	Z4	X5	Y5	Z5	X6	Y6	Z6	X7	Y7	Z7	X8	Y8	Z8	X9	Y9	Z9	X10	Y10	Z10	X11	Y11	Z11	X12	Y12	Z12	X13	Y13	Z13	X14	Y14	Z14	X15	Y15	Z15	X16	Y16	Z16	X17	Y17	Z17	X18	Y18	Z18	X19	Y19	Z19	X20	Y20	Z20	X21	Y21	Z21	X22	Y22	Z22	X23	Y23	Z23	X24	Y24	Z24	X25	Y25	Z25	X26	Y26	Z26	X27	Y27	Z27	X28	Y28	Z28	X29	Y29	Z29	X30	Y30	Z30	X31	Y31	Z31	X32	Y32	Z32	X33	Y33	Z33	X34	Y34	Z34	X35	Y35	Z35	X36	Y36	Z36	X37	Y37	Z37	X38	Y38	Z38	
1	0.0000	-1.433968	0.931967	-0.290014	-1.427161	0.926899	-0.520675	-1.600262	0.956096	-0.352334	-1.595629	0.951473	-0.448934	-1.506814	0.736658	-0.221185	-1.453752	0.740595	-0.236856	-1.506603	0.699572	-0.220311	-1.454788	0.704014	-0.231492	-1.480413	0.454002	-0.231083	-1.491100	0.416087	-0.336054	-1.634612	0.474608	-0.232016	-1.622408	0.415511	-0.239097	-1.679137	0.469304	-0.243206	-1.670403	0.416543	-0.244793	-1.864463	0.439201	-0.308158	-1.841464	0.377286	-0.371216	-1.960819	0.335696	-0.256095	-1.934236	0.276996	-0.348591	-1.932940	0.238773	-0.272540	-1.891182	0.466247	-0.383571	-1.453000	0.745472	-0.569053	-1.401149	0.765980	-0.558812	-1.433606	0.704618	-0.566106	-1.387713	0.723635	-0.562695	-1.315671	0.480196	-0.519534	-1.300920	0.494795	-0.417077	-1.370720	0.353675	-0.524742	-1.324289	0.355861	-0.526533	-1.368448	0.300556	-0.519447	-1.322167	0.301494	-0.520531	-1.323170	0.096405	-0.459588	-1.292595	0.126246	-0.381636	-1.195949	0.051145	-0.489845	-1.178429	0.082582	-0.385030	-1.128382	0.114651	-0.448218	-1.370755	0.061486	-0.397808	-1.409448	1.391139	-0.220408	-1.427265	1.422209	-0.536458	
2	0.0050	-1.418113	0.928721	-0.288360	-1.411825	0.924529	-0.519559	-1.584887	0.952620	-0.350149	-1.580384	0.948663	-0.446783	-1.487211	0.733988	-0.219481	-1.434371	0.738999	-0.235365	-1.486128	0.696960	-0.218443	-1.434398	0.702616	-0.229815	-1.453244	0.453220	-0.229914	-1.463910	0.415628	-0.335012	-1.606846	0.472973	-0.229661	-1.594533	0.413885	-0.237581	-1.651471	0.467612	-0.240601	-1.642588	0.414792	-0.242969	-1.837452	0.437424	-0.305055	-1.814284	0.376294	-0.368790	-1.932002	0.332310	-0.253461	-1.905818	0.274916	-0.346684	-1.903061	0.235822	-0.271190	-1.865152	0.465046	-0.379826	-1.437878	0.743320	-0.567671	-1.386010	0.763599	-0.557489	-1.418641	0.702398	-0.564680	-1.372720	0.721191	-0.561220	-1.301670	0.477266	-0.517947	-1.287282	0.491918	-0.415373	-1.358583	0.352129	-0.523657	-1.312330	0.353307	-0.524656	-1.357645	0.299186	-0.518188	-1.311635	0.299119	-0.518508	-1.319840	0.096022	-0.457556	-1.288741	0.124151	-0.379072	-1.194550	0.049210	-0.489262	-1.176181	0.077997	-0.383360	-1.125041	0.108533	-0.446057	-1.369143	0.062020	-0.396365	-1.394713	1.388441	-0.218677	-1.410694	1.418746	-0.535597	
3	0.0100	-1.402066	0.925510	-0.286676	-1.396273	0.922181	-0.518415	-1.569313	0.949149	-0.347955	-1.564930	0.945865	-0.444621	-1.467345	0.731378	-0.217762	-1.414745	0.737490	-0.233881	-1.465373	0.694425	-0.216563	-1.413743	0.701317	-0.228148	-1.425691	0.452605	-0.228780	-1.436357	0.415331	-0.334006	-1.578707	0.471413	-0.227331	-1.566246	0.412334	-0.236079	-1.623436	0.465964	-0.237999	-1.614368	0.413082	-0.241143	-1.810100	0.435517	-0.301905	-1.786742	0.375201	-0.366327	-1.902753	0.328718	-0.250793	-1.876943	0.272661	-0.344750	-1.872668	0.232697	-0.269826	-1.838825	0.463695	-0.376017	-1.422583	0.741156	-0.566251	-1.370695	0.761191	-0.556125	-1.403525	0.700166	-0.563214	-1.357573	0.718713	-0.559702	-1.287642	0.474290	-0.516319	-1.273600	0.488977	-0.413631	-1.346472	0.350591	-0.522525	-1.300408	0.350740	-0.522761	-1.346884	0.297828	-0.516893	-1.301154	0.296738	-0.516472	-1.316586	0.095653	-0.455538	-1.284974	0.122087	-0.376515	-1.193173	0.047307	-0.488694	-1.173975	0.073486	-0.381718	-1.121756	0.102524	-0.443926	-1.367628	0.062525	-0.394937	-1.379808	1.385754	-0.216921	-1.393892	1.415314	-0.534700	
4	0.0150	-1.385835	0.922369	-0.284961	-1.380506	0.919882	-0.517237	-1.553545	0.945714	-0.345757	-1.549267	0.943104	-0.442454	-1.447225	0.728870	-0.216032	-1.394886	0.736114	-0.232414	-1.444349	0.692014	-0.214675	-1.392840	0.700164	-0.226502	-1.397781	0.452216	-0.227695	-1.408466	0.415252	-0.333049	-1.550217	0.469955	-0.225043	-1.537557	0.410890	-0.234599	-1.595054	0.464373	-0.235414	-1.585753	0.411433	-0.239321	-1.782412	0.433431	-0.298710	-1.758835	0.373966	-0.363829	-1.873048	0.324867	-0.248095	-1.847579	0.270182	-0.342792	-1.841717	0.229360	-0.268450	-1.812212	0.462130	-0.372144	-1.407126	0.738997	-0.564784	-1.355215	0.758769	-0.554713	-1.388279	0.697941	-0.561702	-1.342289	0.716212	-0.558135	-1.273642	0.471281	-0.514644	-1.259925	0.485981	-0.411847	-1.334447	0.349085	-0.521339	-1.288583	0.348184	-0.520849	-1.336222	0.296508	-0.515558	-1.290782	0.294378	-0.514428	-1.313433	0.095317	-0.453548	-1.281325	0.120084	-0.373982	-1.191839	0.045455	-0.488145	-1.171839	0.069093	-0.380123	-1.118570	0.096684	-0.441847	-1.366230	0.063014	-0.393538	-1.364751	1.383104	-0.215140	-1.376860	1.411950	-0.533756	
5	0.0200	-1.369421	0.919337	-0.283213	-1.364515	0.917658	-0.516019	-1.537579	0.942348	-0.343559	-1.533390	0.940409	-0.440285	-1.426857	0.726508	-0.214294	-1.374805	0.734914	-0.230970	-1.423059	0.689776	-0.212785	-1.371698	0.699204	-0.224888	-1.369534	0.452115	-0.226670	-1.380260	0.415449	-0.332151	-1.521394	0.468624	-0.222811	-1.508471	0.409586	-0.233150	-1.566339	0.462853	-0.232855	-1.556742	0.409866	-0.237509	-1.754384	0.431118	-0.295475	-1.730550	0.372549	-0.361295	-1.842849	0.320702	-0.245372	-1.817676	0.267430	-0.340812	-1.810152	0.225775	-0.267064	-1.785313	0.460284	-0.368211	-1.391514	0.736863	-0.563264	-1.339578	0.756348	-0.553243	-1.372915	0.695740	-0.560138	-1.326880	0.713703	-0.556508	-1.259720	0.468255	-0.512918	-1.246304	0.482939	-0.410017	-1.322564	0.347637	-0.520090	-1.276913	0.345663	-0.518926	-1.325713	0.295252	-0.514181	-1.280575	0.292065	-0.512383	-1.310405	0.095039	-0.451601	-1.277823	0.118172	-0.371490	-1.190566	0.043672	-0.487621	-1.169802	0.064858	-0.378591	-1.115522	0.091068	-0.439838	-1.364960	0.063506	-0.392177	-1.349556	1.380523	-0.213334	-1.359599	1.408695	-0.532751	
6	0.0250	-1.352822	0.916452	-0.281427	-1.348290	0.915538	-0.514753	-1.521407	0.939082	-0.341364	-1.517288	0.937810	-0.438118	-1.406240	0.724336	-0.212551	-1.354505	0.733938	-0.229554	-1.401507	0.687757	-0.210900	-1.350323	0.698483	-0.223311	-1.340967	0.452359	-0.225713	-1.351757	0.415978	-0.331321	-1.492252	0.467441	-0.220650	-1.478987	0.408452	-0.231736	-1.537301	0.461413	-0.230336	-1.527332	0.408395	-0.235712	-1.725999	0.428526	-0.292200	-1.701866	0.370908	-0.358728	-1.812108	0.316170	-0.242628	-1.787181	0.264357	-0.338812	-1.777907	0.221909	-0.265673	-1.758118	0.458090	-0.364220	-1.375750	0.734774	-0.561683	-1.323785	0.753944	-0.551705	-1.357442	0.693587	-0.558513	-1.311354	0.711202	-0.554814	-1.245919	0.465229	-0.511137	-1.232778	0.479863	-0.408135	-1.310869	0.346273	-0.518773	-1.265446	0.343204	-0.516993	-1.315401	0.294088	-0.512756	-1.270580	0.289827	-0.510343	-1.307517	0.094842	-0.449710	-1.274488	0.116380	-0.369057	-1.189371	0.041974	-0.487127	-1.167892	0.060813	-0.377136	-1.112650	0.085727	-0.437918	-1.363827	0.064022	-0.390863	-1.334233	1.378039	-0.211501	-1.342102	1.405590	-0.531673	
7	0.0300	-1.336029	0.913753	-0.279601	-1.331817	0.913549	-0.513432	-1.505019	0.935950	-0.339176	-1.500949	0.935336	-0.435954	-1.385376	0.722395	-0.210804	-1.333990	0.733228	-0.228170	-1.379691	0.686003	-0.209024	-1.328721	0.698047	-0.221781	-1.312103	0.453003	-0.224832	-1.322977	0.416890	-0.330564	-1.462807	0.466425	-0.218569	-1.449106	0.407516	-0.230363	-1.507948	0.460060	-0.227864	-1.497519	0.407037	-0.233933	-1.697239	0.425605	-0.288890	-1.672759	0.369000	-0.356128	-1.780772	0.311223	-0.239870	-1.756032	0.260920	-0.336795	-1.744915	0.217735	-0.264276	-1.730613	0.455480	-0.360174	-1.359832	0.732750	-0.560034	-1.307835	0.751574	-0.550090	-1.341864	0.691502	-0.556822	-1.295716	0.708725	-0.553043	-1.232276	0.462220	-0.509298	-1.219386	0.476768	-0.406197	-1.299404	0.345020	-0.517384	-1.254227	0.340834	-0.515055	-1.305325	0.293045	-0.511283	-1.260835	0.287695	-0.508314	-1.304781	0.094753	-0.447884	-1.271333	0.114740	-0.366698	-1.188270	0.040375	-0.486665	-1.166133	0.056990	-0.375773	-1.109989	0.080703	-0.436104	-1.362829	0.064592	-0.389606	-1.318790	1.375684	-0.209639	-1.324363	1.402674	-0.530509	
8	0.0350	-1.319037	0.911277	-0.277732	-1.315083	0.911716	-0.512048	-1.488403	0.932986	-0.336995	-1.484359	0.933015	-0.433796	-1.364264	0.720727	-0.209057	-1.313263	0.732825	-0.226820	-1.357615	0.684557	-0.207161	-1.306896	0.697936	-0.220301	-1.282964	0.454094	-0.224031	-1.293940	0.418229	-0.329885	-1.433075	0.465590	-0.216580	-1.418834	0.406803	-0.229032	-1.478291	0.458797	-0.225449	-1.467304	0.405804	-0.232176	-1.668083	0.422309	-0.285548	-1.643200	0.366786	-0.353496	-1.748787	0.305817	-0.237101	-1.724170	0.257080	-0.334762	-1.711110	0.213230	-0.262877	-1.702778	0.452388	-0.356079	-1.343759	0.730815	-0.558311	-1.291727	0.749256	-0.548389	-1.326183	0.689508	-0.555057	-1.279966	0.706290	-0.551184	-1.218821	0.459252	-0.507398	-1.206159	0.473670	-0.404198	-1.288202	0.343906	-0.515917	-1.243288	0.338580	-0.513114	-1.295517	0.292154	-0.509759	-1.251375	0.285699	-0.506301	-1.302200	0.094799	-0.446135	-1.268366	0.113278	-0.364427	-1.187279	0.038887	-0.486237	-1.164547	0.053411	-0.374513	-1.107570	0.076032	-0.434408	-1.361958	0.065247	-0.388412	-1.303234	1.373487	-0.207747	-1.306376	1.399988	-0.529244	
9	0.0400	-1.301837	0.909058	-0.275818	-1.298077	0.910065	-0.510594	-1.471548	0.930222	-0.334823	-1.467505	0.930876	-0.431643	-1.342907	0.719367	-0.207309	-1.292329	0.732765	-0.225505	-1.335283	0.683456	-0.205317	-1.284858	0.698188	-0.218875	-1.253584	0.455670	-0.223311	-1.264675	0.420032	-0.329285	-1.403078	0.464945	-0.214688	-1.388183	0.406334	-0.227745	-1.448345	0.457623	-0.223098	-1.436692	0.404705	-0.230443	-1.638508	0.418594	-0.282179	-1.613165	0.364230	-0.350836	-1.716104	0.299919	-0.234329	-1.691539	0.252808	-0.332719	-1.676434	0.208381	-0.261479	-1.674592	0.448753	-0.351941	-1.327528	0.728990	-0.556507	-1.275456	0.747011	-0.546592	-1.310398	0.687630	-0.553214	-1.264106	0.703920	-0.549231	-1.205582	0.456346	-0.505435	-1.193126	0.470587	-0.402133	-1.277287	0.342958	-0.514372	-1.232657	0.336472	-0.511174	-1.285998	0.291442	-0.508184	-1.242221	0.283868	-0.504310	-1.299771	0.095007	-0.444469	-1.265583	0.112022	-0.362259	-1.186408	0.037519	-0.485844	-1.163153	0.050096	-0.373365	-1.105419	0.071741	-0.432844	-1.361197	0.066026	-0.387286	-1.287576	1.371481	-0.205824	-1.288139	1.397569	-0.527868	
10	0.0450	-1.284423	0.907131	-0.273857	-1.280787	0.908621	-0.509064	-1.454444	0.927690	-0.332660	-1.450378	0.928947	-0.429497	-1.321313	0.718350	-0.205564	-1.271196	0.733079	-0.224224	-1.312706	0.682735	-0.203494	-1.262618	0.698833	-0.217505	-1.224003	0.457762	-0.222671	-1.235218	0.422326	-0.328760	-1.372845	0.464492	-0.212897	-1.357172	0.406122	-0.226501	-1.418131	0.456536	-0.220816	-1.405696	0.403746	-0.228734	-1.608497	0.414421	-0.278790	-1.582632	0.361300	-0.348150	-1.682676	0.293502	-0.231561	-1.658091	0.248083	-0.330668	-1.640836	0.203185	-0.260084	-1.646035	0.444521	-0.347770	-1.311135	0.727300	-0.554620	-1.259022	0.744860	-0.544692	-1.294511	0.685892	-0.551288	-1.248136	0.701636	-0.547176	-1.192574	0.453529	-0.503412	-1.180308	0.467541	-0.400001	-1.266677	0.342204	-0.512749	-1.222350	0.334540	-0.509237	-1.276782	0.290940	-0.506560	-1.233387	0.282236	-0.502347	-1.297480	0.095406	-0.442895	-1.262973	0.110998	-0.360205	-1.185669	0.036279	-0.485485	-1.161963	0.047056	-0.372337	-1.103558	0.067848	-0.431421	-1.360519	0.066968	-0.386230	-1.271823	1.369693	-0.203868	-1.269652	1.395454	-0.526367	
11	0.0500	-1.266790	0.905525	-0.271847	-1.263209	0.907404	-0.507451	-1.437084	0.925421	-0.330506	-1.432970	0.927255	-0.427357	-1.299494	0.717703	-0.203821	-1.249875	0.733793	-0.222975	-1.289899	0.682421	-0.201697	-1.240192	0.699895	-0.216191	-1.194269	0.460388	-0.222107	-1.205611	0.425128	-0.328305	-1.342414	0.464229	-0.211208	-1.325834	0.406177	-0.225296	-1.387678	0.455525	-0.218607	-1.374339	0.402928	-0.227049	-1.578034	0.409759	-0.275386	-1.551586	0.357969	-0.345442	-1.648466	0.286554	-0.228803	-1.623789	0.242892	-0.328614	-1.604281	0.197648	-0.258694	-1.617088	0.439643	-0.343576	-1.294582	0.725769	-0.552645	-1.242424	0.742825	-0.542684	-1.278520	0.684318	-0.549278	-1.232056	0.699463	-0.545014	-1.179810	0.450826	-0.501329	-1.167722	0.464557	-0.397801	-1.256378	0.341672	-0.511051	-1.212374	0.332814	-0.507310	-1.267872	0.290676	-0.504889	-1.224878	0.280833	-0.500417	-1.295309	0.096023	-0.441416	-1.260516	0.110229	-0.358276	-1.185065	0.035174	-0.485158	-1.160986	0.044298	-0.371432	-1.102000	0.064362	-0.430144	-1.359889	0.068118	-0.385248	-1.255987	1.368152	-0.201879	-1.250918	1.393676	-0.524734	
12	0.0550	-1.248937	0.904265	-0.269789	-1.245341	0.906435	-0.505753	-1.419464	0.923443	-0.328360	-1.415280	0.925822	-0.425223	-1.277467	0.717450	-0.202082	-1.228384	0.734925	-0.221754	-1.266885	0.682535	-0.199929	-1.217603	0.701391	-0.214932	-1.164444	0.463554	-0.221611	-1.175908	0.428444	-0.327913	-1.311830	0.464147	-0.209620	-1.294210	0.406504	-0.224126	-1.357021	0.454578	-0.216471	-1.342654	0.402250	-0.225387	-1.547111	0.404583	-0.271976	-1.520017	0.354218	-0.342718	-1.613447	0.279071	-0.226065	-1.588606	0.237236	-0.326563	-1.566749	0.191786	-0.257314	-1.587736	0.434081	-0.339370	-1.277867	0.724420	-0.550584	-1.225663	0.740929	-0.540565	-1.262426	0.682934	-0.547184	-1.215867	0.697424	-0.542742	-1.167294	0.448267	-0.499192	-1.155375	0.461662	-0.395534	-1.246388	0.341388	-0.509283	-1.202727	0.331322	-0.505395	-1.259263	0.290678	-0.503174	-1.216688	0.279690	-0.498525	-1.293228	0.096886	-0.440035	-1.258181	0.109737	-0.356482	-1.184601	0.034209	-0.484860	-1.160226	0.041826	-0.370653	-1.100755	0.061281	-0.429017	-1.359262	0.069522	-0.384338	-1.240079	1.366885	-0.199856	-1.231948	1.392263	-0.522958	
13	0.0600	-1.230865	0.903375	-0.267684	-1.227187	0.905730	-0.503965	-1.401585	0.921782	-0.326221	-1.397307	0.924672	-0.423092	-1.255257	0.717607	-0.200349	-1.206742	0.736484	-0.220556	-1.243691	0.683091	-0.198192	-1.194877	0.703328	-0.213723	-1.134595	0.467255	-0.221174	-1.146170	0.432267	-0.327573	-1.281145	0.464231	-0.208126	-1.262353	0.407098	-0.222987	-1.326203	0.453678	-0.214409	-1.310684	0.401706	-0.223746	-1.515724	0.398875	-0.268570	-1.487925	0.350032	-0.339984	-1.577602	0.271064	-0.223357	-1.552529	0.231126	-0.324521	-1.528233	0.185628	-0.255946	-1.557967	0.427804	-0.335169	-1.260995	0.723277	-0.548436	-1.208744	0.739196	-0.538334	-1.246229	0.681761	-0.545007	-1.199572	0.695546	-0.540359	-1.155021	0.445881	-0.497007	-1.143269	0.458883	-0.393203	-1.236694	0.341377	-0.507452	-1.193396	0.330095	-0.503499	-1.250939	0.290973	-0.501423	-1.208798	0.278836	-0.496676	-1.291202	0.098021	-0.438754	-1.255932	0.109539	-0.354829	-1.184274	0.033388	-0.484587	-1.159680	0.039638	-0.369999	-1.099824	0.058599	-0.428042	-1.358585	0.071227	-0.383498	-1.224113	1.365913	-0.197799	-1.212756	1.391240	-0.521035	
14	0.0650	-1.212579	0.902869	-0.265534	-1.208754	0.905305	-0.502087	-1.383450	0.920460	-0.324086	-1.379060	0.923822	-0.420963	-1.232891	0.718184	-0.198620	-1.184975	0.738474	-0.219374	-1.220352	0.684096	-0.196488	-1.172046	0.705706	-0.212560	-1.104800	0.471473	-0.220785	-1.116465	0.436578	-0.327271	-1.250422	0.464459	-0.206717	-1.230325	0.407950	-0.221869	-1.295274	0.452805	-0.212417	-1.278482	0.401287	-0.222125	-1.483877	0.392628	-0.265176	-1.455316	0.345406	-0.337245	-1.540929	0.262557	-0.220688	-1.515560	0.224585	-0.322495	-1.488748	0.179211	-0.254596	-1.527771	0.420795	-0.330985	-1.243970	0.722361	-0.546206	-1.191671	0.737650	-0.535992	-1.229929	0.680824	-0.542751	-1.183173	0.693854	-0.537867	-1.142980	0.443698	-0.494783	-1.131396	0.456252	-0.390814	-1.227275	0.341662	-0.505566	-1.184358	0.329159	-0.501627	-1.242873	0.291584	-0.499641	-1.201184	0.278300	-0.494876	-1.289188	0.099453	-0.437574	-1.253720	0.109652	-0.353325	-1.184078	0.032718	-0.484334	-1.159339	0.037728	-0.369465	-1.099202	0.056299	-0.427218	-1.357795	0.073280	-0.382725	-1.208104	1.365257	-0.195708	-1.193361	1.390626	-0.518959	
15	0.0700	-1.194087	0.902761	-0.263342	-1.190056	0.905170	-0.500118	-1.365067	0.919496	-0.321955	-1.360546	0.923288	-0.418835	-1.210403	0.719182	-0.196898	-1.163110	0.740888	-0.218201	-1.196908	0.685546	-0.194818	-1.149144	0.708515	-0.211435	-1.075144	0.476175	-0.220428	-1.086870	0.441347	-0.326993	-1.219725	0.464805	-0.205383	-1.198197	0.409045	-0.220766	-1.264291	0.451934	-0.210490	-1.246108	0.400978	-0.220518	-1.451579	0.385843	-0.261805	-1.422206	0.340340	-0.334510	-1.503433	0.253582	-0.218069	-1.477714	0.217648	-0.320493	-1.448323	0.172583	-0.253266	-1.497143	0.413046	-0.326835	-1.226799	0.721694	-0.543899	-1.174452	0.736312	-0.533543	-1.213528	0.680142	-0.540421	-1.166672	0.692373	-0.535272	-1.131151	0.441748	-0.492531	-1.119740	0.453799	-0.388375	-1.218100	0.342265	-0.503638	-1.175580	0.328542	-0.499784	-1.235032	0.292535	-0.497837	-1.193808	0.278108	-0.493130	-1.287135	0.101205	-0.436491	-1.251493	0.110089	-0.351972	-1.184003	0.032204	-0.484093	-1.159185	0.036089	-0.369046	-1.098877	0.054358	-0.426540	-1.356825	0.075727	-0.382013	-1.192065	1.364932	-0.193583	-1.173788	1.390433	-0.516728	
16	0.0750	-1.175400	0.903054	-0.261112	-1.171109	0.905332	-0.498061	-1.346446	0.918905	-0.319823	-1.341781	0.923082	-0.416704	-1.187831	0.720599	-0.195183	-1.141180	0.743711	-0.217028	-1.173403	0.687432	-0.193183	-1.126211	0.711736	-0.210340	-1.045713	0.481319	-0.220090	-1.057466	0.446531	-0.326721	-1.189125	0.465236	-0.204109	-1.166050	0.410360	-0.219668	-1.233315	0.451040	-0.208622	-1.213632	0.400763	-0.218923	-1.418846	0.378528	-0.258465	-1.388618	0.334844	-0.331785	-1.465135	0.244187	-0.215510	-1.439020	0.210360	-0.318522	-1.407003	0.165803	-0.251962	-1.466084	0.404561	-0.322735	-1.209489	0.721292	-0.541522	-1.157096	0.735204	-0.530995	-1.197027	0.679733	-0.538027	-1.150075	0.691127	-0.532581	-1.119506	0.440059	-0.490262	-1.108276	0.451554	-0.385897	-1.209127	0.343204	-0.501678	-1.167020	0.328267	-0.497977	-1.227370	0.293844	-0.496021	-1.186624	0.278283	-0.491442	-1.284986	0.103298	-0.435502	-1.249188	0.110862	-0.350772	-1.184032	0.031852	-0.483859	-1.159198	0.034713	-0.368734	-1.098829	0.052746	-0.426002	-1.355600	0.078610	-0.381355	-1.176010	1.364951	-0.191426	-1.154062	1.390671	-0.514342	
17	0.0800	-1.156531	0.903748	-0.258848	-1.151934	0.905795	-0.495920	-1.327601	0.918695	-0.317688	-1.322782	0.923211	-0.414567	-1.165214	0.722420	-0.193474	-1.119215	0.746921	-0.215845	-1.149884	0.689734	-0.191582	-1.103286	0.715341	-0.209265	-1.016600	0.486851	-0.219753	-1.028336	0.452077	-0.326437	-1.158695	0.465715	-0.202878	-1.133966	0.411868	-0.218567	-1.202407	0.450092	-0.206802	-1.181126	0.400622	-0.217335	-1.385698	0.370703	-0.255168	-1.354580	0.328934	-0.329078	-1.426065	0.234429	-0.213021	-1.399519	0.202777	-0.316589	-1.364849	0.158934	-0.250688	-1.434595	0.395354	-0.318700	-1.192048	0.721173	-0.539083	-1.139613	0.734346	-0.528357	-1.180427	0.679614	-0.535576	-1.133383	0.690138	-0.529805	-1.108010	0.438656	-0.487990	-1.096969	0.449548	-0.383391	-1.200309	0.344495	-0.499701	-1.158627	0.328354	-0.496213	-1.219836	0.295529	-0.494202	-1.179578	0.278844	-0.489816	-1.282682	0.105749	-0.434604	-1.246742	0.111977	-0.349727	-1.184144	0.031672	-0.483625	-1.159346	0.033591	-0.368519	-1.099031	0.051431	-0.425598	-1.354042	0.081971	-0.380743	-1.159953	1.365320	-0.189238	-1.134214	1.391338	-0.511803	
18	0.0850	-1.137494	0.904838	-0.256557	-1.132553	0.906561	-0.493699	-1.308549	0.918871	-0.315548	-1.303568	0.923678	-0.412422	-1.142595	0.724628	-0.191770	-1.097251	0.750486	-0.214642	-1.126401	0.692426	-0.190012	-1.080410	0.719294	-0.208199	-0.987895	0.492705	-0.219402	-0.999564	0.457923	-0.326124	-1.128508	0.466204	-0.201672	-1.102032	0.413535	-0.217451	-1.171632	0.449061	-0.205020	-1.148669	0.400531	-0.215749	-1.352162	0.362394	-0.251923	-1.320130	0.322636	-0.326397	-1.386264	0.224373	-0.210613	-1.359266	0.194962	-0.314703	-1.321937	0.152049	-0.249448	-1.402684	0.385453	-0.314746	-1.174487	0.721349	-0.536595	-1.122013	0.733755	-0.525640	-1.163729	0.679795	-0.533081	-1.116601	0.689425	-0.526955	-1.096622	0.437565	-0.485730	-1.085779	0.447807	-0.380873	-1.191589	0.346150	-0.497719	-1.150342	0.328820	-0.494497	-1.212370	0.297600	-0.492390	-1.172608	0.279808	-0.488255	-1.280157	0.108572	-0.433791	-1.244083	0.113439	-0.348834	-1.184312	0.031673	-0.483383	-1.159592	0.032715	-0.368389	-1.099449	0.050377	-0.425318	-1.352070	0.085843	-0.380169	-1.143905	1.366041	-0.187017	-1.114276	1.392429	-0.509116	
19	0.0900	-1.118305	0.906310	-0.254244	-1.112991	0.907625	-0.491404	-1.289306	0.919433	-0.313398	-1.284160	0.924481	-0.410266	-1.120015	0.727194	-0.190072	-1.075319	0.754368	-0.213409	-1.103002	0.695474	-0.188470	-1.057624	0.723551	-0.207129	-0.959687	0.498809	-0.219019	-0.971236	0.463998	-0.325763	-1.098636	0.466660	-0.200471	-1.070336	0.415326	-0.216312	-1.141054	0.447915	-0.203264	-1.116338	0.400467	-0.214159	-1.318268	0.353636	-0.248736	-1.285308	0.315978	-0.323748	-1.345784	0.214093	-0.208295	-1.318325	0.186987	-0.312871	-1.278353	0.145222	-0.248246	-1.370359	0.374895	-0.310886	-1.156813	0.721829	-0.534068	-1.104304	0.733445	-0.522859	-1.146932	0.680285	-0.530553	-1.099730	0.689005	-0.524047	-1.085293	0.436803	-0.483496	-1.074653	0.446356	-0.378357	-1.182906	0.348177	-0.495747	-1.142101	0.329679	-0.492836	-1.204906	0.300066	-0.490595	-1.165645	0.281186	-0.486763	-1.277345	0.111779	-0.433057	-1.241141	0.115250	-0.348089	-1.184504	0.031869	-0.483125	-1.159893	0.032078	-0.368331	-1.100042	0.049546	-0.425151	-1.349602	0.090253	-0.379622	-1.127873	1.367111	-0.184767	-1.094279	1.393931	-0.506286	
20	0.0950	-1.098982	0.908147	-0.251915	-1.093274	0.908981	-0.489044	-1.269893	0.920373	-0.311237	-1.264582	0.925614	-0.408097	-1.097516	0.730085	-0.188377	-1.053451	0.758521	-0.212135	-1.079736	0.698838	-0.186953	-1.034966	0.728061	-0.206044	-0.932060	0.505084	-0.218589	-0.943430	0.470226	-0.325336	-1.069146	0.467040	-0.199256	-1.038964	0.417200	-0.215141	-1.110733	0.446623	-0.201519	-1.084211	0.400403	-0.212562	-1.284048	0.344469	-0.245617	-1.250160	0.309000	-0.321138	-1.304684	0.203668	-0.206074	-1.276770	0.178927	-0.311100	-1.234193	0.138531	-0.247086	-1.337634	0.363726	-0.307132	-1.139034	0.722618	-0.531514	-1.086497	0.733428	-0.520029	-1.130035	0.681087	-0.528005	-1.082771	0.688890	-0.521096	-1.073971	0.436387	-0.481303	-1.063535	0.445215	-0.375859	-1.174190	0.350578	-0.493798	-1.133835	0.330937	-0.491236	-1.197376	0.302929	-0.488828	-1.158619	0.282984	-0.485341	-1.274178	0.115375	-0.432393	-1.237844	0.117410	-0.347488	-1.184683	0.032273	-0.482845	-1.160199	0.031675	-0.368331	-1.100761	0.048901	-0.425087	-1.346559	0.095222	-0.379091	-1.111864	1.368520	-0.182486	-1.074257	1.395827	-0.503322	
21	0.1000	-1.079541	0.910325	-0.249576	-1.073428	0.910619	-0.486625	-1.250328	0.921680	-0.309061	-1.244856	0.927068	-0.405911	-1.075138	0.733263	-0.186682	-1.031679	0.762894	-0.210810	-1.056649	0.702470	-0.185455	-1.012473	0.732768	-0.204929	-0.905091	0.511444	-0.218098	-0.916221	0.476523	-0.324827	-1.040101	0.467299	-0.198006	-1.007997	0.419113	-0.213929	-1.080726	0.445156	-0.199773	-1.052363	0.400311	-0.210952	-1.249541	0.334943	-0.242571	-1.214737	0.301743	-0.318574	-1.263032	0.193182	-0.203958	-1.234684	0.170863	-0.309395	-1.189564	0.132057	-0.245972	-1.304526	0.352002	-0.303497	-1.121158	0.723716	-0.528948	-1.068600	0.733709	-0.517165	-1.113036	0.682201	-0.525451	-1.065724	0.689087	-0.518120	-1.062596	0.436325	-0.479167	-1.052363	0.444398	-0.373398	-1.165373	0.353352	-0.491886	-1.125470	0.332598	-0.489701	-1.189706	0.306189	-0.487099	-1.151453	0.285202	-0.483991	-1.270591	0.119362	-0.431793	-1.234120	0.119914	-0.347022	-1.184804	0.032902	-0.482536	-1.160454	0.031504	-0.368375	-1.101552	0.048407	-0.425112	-1.342863	0.100763	-0.378567	-1.095880	1.370256	-0.180174	-1.054239	1.398090	-0.500232	
22	0.1050	-1.059999	0.912816	-0.247234	-1.053478	0.912523	-0.484156	-1.230631	0.923336	-0.306869	-1.225006	0.928825	-0.403707	-1.052917	0.736682	-0.184986	-1.010027	0.767431	-0.209424	-1.033786	0.706318	-0.183970	-0.990178	0.737611	-0.203772	-0.878847	0.517802	-0.217532	-0.889678	0.482807	-0.324221	-1.011557	0.467395	-0.196702	-0.977514	0.421022	-0.212671	-1.051087	0.443487	-0.198013	-1.020866	0.400167	-0.209324	-1.214787	0.325109	-0.239602	-1.179091	0.294254	-0.316061	-1.220902	0.182720	-0.201951	-1.192156	0.162875	-0.307763	-1.144578	0.125875	-0.244906	-1.271055	0.339789	-0.299987	-1.103189	0.725120	-0.526381	-1.050618	0.734291	-0.514286	-1.095931	0.683620	-0.522904	-1.048588	0.689601	-0.515137	-1.051110	0.436623	-0.477100	-1.041071	0.443917	-0.370988	-1.156382	0.356492	-0.490022	-1.116932	0.334657	-0.488237	-1.181823	0.309837	-0.485415	-1.144072	0.287835	-0.482710	-1.266517	0.123738	-0.431248	-1.229900	0.122757	-0.346684	-1.184818	0.033776	-0.482193	-1.160596	0.031566	-0.368448	-1.102355	0.048031	-0.425215	-1.338444	0.106877	-0.378039	-1.079919	1.372298	-0.177833	-1.034255	1.400692	-0.497027	
23	0.1100	-1.040373	0.915586	-0.244894	-1.033447	0.914677	-0.481647	-1.210821	0.925319	-0.304660	-1.205052	0.930867	-0.401483	-1.030887	0.740293	-0.183285	-0.988521	0.772071	-0.207967	-1.011184	0.710327	-0.182489	-0.968108	0.742524	-0.202559	-0.853386	0.524069	-0.216880	-0.863858	0.488991	-0.323505	-0.983562	0.467289	-0.195328	-0.947583	0.422882	-0.211360	-1.021860	0.441590	-0.196225	-0.989786	0.399942	-0.207677	-1.179829	0.315026	-0.236717	-1.143279	0.286584	-0.313603	-1.178377	0.172369	-0.200056	-1.149282	0.155045	-0.306206	-1.099352	0.120059	-0.243890	-1.237246	0.327156	-0.296610	-1.085133	0.726820	-0.523827	-1.032557	0.735171	-0.511407	-1.078714	0.685333	-0.520377	-1.031358	0.690428	-0.512163	-1.039451	0.437276	-0.475117	-1.029590	0.443772	-0.368647	-1.147143	0.359985	-0.488217	-1.108146	0.337104	-0.486846	-1.173651	0.313859	-0.483785	-1.136398	0.290871	-0.481499	-1.261895	0.128496	-0.430750	-1.225121	0.125928	-0.346461	-1.184672	0.034913	-0.481810	-1.160558	0.031864	-0.368537	-1.103104	0.047745	-0.425383	-1.333236	0.113559	-0.377497	-1.063977	1.374624	-0.175460	-1.014332	1.403598	-0.493719	
24	0.1150	-1.020678	0.918601	-0.242560	-1.013359	0.917061	-0.479105	-1.190916	0.927600	-0.302432	-1.185015	0.933169	-0.399240	-1.009076	0.744044	-0.181573	-0.967181	0.776752	-0.206431	-0.988878	0.714438	-0.181005	-0.946289	0.747442	-0.201279	-0.828753	0.530160	-0.216134	-0.838812	0.494992	-0.322670	-0.956156	0.466943	-0.193869	-0.918266	0.424649	-0.209993	-0.993086	0.439444	-0.194399	-0.959182	0.399612	-0.206007	-1.144713	0.304755	-0.233916	-1.107358	0.278786	-0.311205	-1.135543	0.162211	-0.198276	-1.106160	0.147449	-0.304727	-1.054006	0.114678	-0.242925	-1.203128	0.314181	-0.293371	-1.066990	0.728803	-0.521297	-1.014418	0.736343	-0.508545	-1.061380	0.687326	-0.517882	-1.014030	0.691561	-0.509217	-1.027556	0.438277	-0.473226	-1.017852	0.443962	-0.366388	-1.137585	0.363812	-0.486481	-1.099040	0.339924	-0.485531	-1.165119	0.318237	-0.482216	-1.128359	0.294291	-0.480353	-1.256670	0.133623	-0.430291	-1.219725	0.129418	-0.346343	-1.184307	0.036335	-0.481383	-1.160272	0.032406	-0.368628	-1.103727	0.047526	-0.425603	-1.327184	0.120791	-0.376931	-1.048047	1.377204	-0.173056	-0.994495	1.406769	-0.490319	
25	0.1200	-1.000929	0.921818	-0.240238	-0.993234	0.919650	-0.476539	-1.170934	0.930149	-0.300186	-1.164915	0.935704	-0.396977	-0.987510	0.747880	-0.179847	-0.946023	0.781409	-0.204809	-0.966896	0.718589	-0.179508	-0.924739	0.752295	-0.199920	-0.804981	0.535989	-0.215289	-0.814575	0.500727	-0.321707	-0.929371	0.466325	-0.192312	-0.889614	0.426282	-0.208569	-0.964797	0.437034	-0.192525	-0.929106	0.399155	-0.204312	-1.109489	0.294357	-0.231202	-1.071391	0.270914	-0.308870	-1.092494	0.152327	-0.196610	-1.062896	0.140160	-0.303327	-1.008665	0.109791	-0.242010	-1.168736	0.300943	-0.290272	-1.048760	0.731050	-0.518804	-0.996203	0.737794	-0.505715	-1.043921	0.689577	-0.515431	-0.996597	0.692988	-0.506314	-1.015365	0.439609	-0.471438	-1.005790	0.444474	-0.364224	-1.127638	0.367949	-0.484820	-1.089544	0.343095	-0.484292	-1.156158	0.322944	-0.480711	-1.119883	0.298072	-0.479270	-1.250790	0.139104	-0.429860	-1.213659	0.133212	-0.346316	-1.183660	0.038062	-0.480911	-1.159665	0.033199	-0.368709	-1.104150	0.047358	-0.425864	-1.320243	0.128548	-0.376332	-1.032117	1.380006	-0.170619	-0.974763	1.410164	-0.486840	
26	0.1250	-0.981138	0.925198	-0.237930	-0.973089	0.922418	-0.473955	-1.150891	0.932927	-0.297923	-1.144769	0.938439	-0.394695	-0.966208	0.751743	-0.178101	-0.925059	0.785978	-0.203094	-0.945261	0.722719	-0.177990	-0.903473	0.757016	-0.198471	-0.782090	0.541478	-0.214341	-0.791176	0.506122	-0.320614	-0.903227	0.465407	-0.190651	-0.861669	0.427740	-0.207086	-0.937020	0.434346	-0.190597	-0.899603	0.398549	-0.202593	-1.074208	0.283898	-0.228577	-1.035440	0.263023	-0.306601	-1.049329	0.142792	-0.195054	-1.019598	0.133245	-0.302005	-0.963450	0.105449	-0.241144	-1.134111	0.287526	-0.287317	-1.030444	0.733537	-0.516356	-0.977911	0.739505	-0.502932	-1.026329	0.692060	-0.513032	-0.979051	0.694689	-0.503468	-1.002820	0.441249	-0.469759	-0.993340	0.445292	-0.362166	-1.117239	0.372366	-0.483241	-1.079591	0.346586	-0.483130	-1.146702	0.327951	-0.479275	-1.110905	0.302183	-0.478242	-1.244211	0.144918	-0.429451	-1.206880	0.137294	-0.346366	-1.182665	0.040114	-0.480392	-1.158662	0.034256	-0.368769	-1.104296	0.047231	-0.426155	-1.312380	0.136794	-0.375692	-1.016173	1.382995	-0.168148	-0.955154	1.413738	-0.483294	
27	0.1300	-0.961318	0.928695	-0.235639	-0.952941	0.925338	-0.471361	-1.130801	0.935897	-0.295645	-1.124593	0.941342	-0.392396	-0.945185	0.755577	-0.176329	-0.904298	0.790396	-0.201282	-0.923990	0.726767	-0.176440	-0.882500	0.761541	-0.196924	-0.760086	0.546556	-0.213290	-0.768626	0.511107	-0.319388	-0.877737	0.464166	-0.188881	-0.834462	0.428988	-0.205547	-0.909775	0.431374	-0.188611	-0.870708	0.397778	-0.200850	-1.038927	0.273438	-0.226042	-0.999568	0.255164	-0.304399	-1.006151	0.133673	-0.193605	-0.976374	0.126759	-0.300759	-0.918487	0.101693	-0.240325	-1.099300	0.274015	-0.284504	-1.012036	0.736236	-0.513961	-0.959539	0.741456	-0.500207	-1.008596	0.694746	-0.510694	-0.961384	0.696640	-0.500692	-0.989866	0.443169	-0.468193	-0.980443	0.446390	-0.360219	-1.106326	0.377029	-0.481748	-1.069124	0.350365	-0.482042	-1.136694	0.333221	-0.477909	-1.101367	0.306588	-0.477264	-1.236898	0.151040	-0.429055	-1.199354	0.141649	-0.346477	-1.181253	0.042510	-0.479827	-1.157190	0.035589	-0.368800	-1.104084	0.047142	-0.426464	-1.303571	0.145485	-0.375006	-1.000201	1.386130	-0.165640	-0.935683	1.417446	-0.479694	
28	0.1350	-0.941480	0.932265	-0.233366	-0.932802	0.928378	-0.468762	-1.110680	0.939014	-0.293353	-1.104400	0.944374	-0.390083	-0.924451	0.759325	-0.174525	-0.883745	0.794601	-0.199369	-0.903093	0.730673	-0.174849	-0.861824	0.765807	-0.195270	-0.738963	0.551158	-0.212140	-0.746929	0.515619	-0.318033	-0.852906	0.462589	-0.187001	-0.808015	0.429994	-0.203957	-0.883075	0.428118	-0.186567	-0.842451	0.396825	-0.199088	-1.003706	0.263042	-0.223597	-0.963845	0.247390	-0.302269	-0.963067	0.125030	-0.192255	-0.933336	0.120750	-0.299585	-0.873898	0.098550	-0.239547	-1.064356	0.260493	-0.281834	-0.993534	0.739115	-0.511627	-0.941082	0.743618	-0.497549	-0.990713	0.697600	-0.508422	-0.943587	0.698813	-0.497994	-0.976454	0.445332	-0.466741	-0.967048	0.447740	-0.358391	-1.094847	0.381896	-0.480342	-1.058089	0.354391	-0.481025	-1.126079	0.338712	-0.476615	-1.091215	0.311245	-0.476328	-1.228822	0.157442	-0.428664	-1.191056	0.146255	-0.346634	-1.179354	0.045265	-0.479219	-1.155173	0.037209	-0.368794	-1.103434	0.047096	-0.426782	-1.293808	0.154569	-0.374269	-0.984183	1.389371	-0.163094	-0.916361	1.421241	-0.476052	
29	0.1400	-0.921634	0.935861	-0.231111	-0.912684	0.931506	-0.466162	-1.090539	0.942233	-0.291052	-1.084203	0.947496	-0.387759	-0.904011	0.762933	-0.172683	-0.863403	0.798536	-0.197354	-0.882576	0.734380	-0.173209	-0.841446	0.769756	-0.193505	-0.718701	0.555231	-0.210897	-0.726074	0.519608	-0.316553	-0.828731	0.460665	-0.185018	-0.782338	0.430731	-0.202322	-0.856927	0.424580	-0.184467	-0.814851	0.395681	-0.197309	-0.968609	0.252767	-0.221244	-0.928337	0.239747	-0.300210	-0.920192	0.116911	-0.190998	-0.890599	0.115254	-0.298478	-0.829806	0.096035	-0.238806	-1.029343	0.247045	-0.279306	-0.974933	0.742138	-0.509357	-0.922536	0.745961	-0.494966	-0.972672	0.700584	-0.506220	-0.925649	0.701173	-0.495383	-0.962539	0.447699	-0.465403	-0.953108	0.449304	-0.356680	-1.082754	0.386925	-0.479024	-1.046440	0.358621	-0.480075	-1.114814	0.344381	-0.475392	-1.080406	0.316109	-0.475426	-1.219962	0.164092	-0.428271	-1.181969	0.151094	-0.346822	-1.176897	0.048392	-0.478570	-1.152542	0.039129	-0.368748	-1.102263	0.047104	-0.427100	-1.283095	0.163988	-0.373477	-0.968103	1.392673	-0.160507	-0.897195	1.425076	-0.472379	
30	0.1450	-0.901790	0.939440	-0.228874	-0.892596	0.934687	-0.463565	-1.070391	0.945507	-0.288744	-1.064013	0.950668	-0.385428	-0.883866	0.766347	-0.170798	-0.843271	0.802148	-0.195236	-0.862437	0.737835	-0.171510	-0.821363	0.773335	-0.191624	-0.699269	0.558730	-0.209567	-0.706041	0.523031	-0.314958	-0.805201	0.458393	-0.182939	-0.757433	0.431176	-0.200650	-0.831336	0.420770	-0.182318	-0.787924	0.394337	-0.195521	-0.933705	0.242669	-0.218984	-0.893116	0.232278	-0.298226	-0.877641	0.109356	-0.189822	-0.848276	0.110292	-0.297431	-0.786328	0.094149	-0.238095	-0.994328	0.233749	-0.276921	-0.956225	0.745264	-0.507154	-0.903894	0.748449	-0.492462	-0.954463	0.703659	-0.504090	-0.907561	0.703684	-0.492862	-0.948083	0.450226	-0.464175	-0.938588	0.451041	-0.355087	-1.070010	0.392068	-0.477792	-1.034141	0.363006	-0.479185	-1.102861	0.350178	-0.474237	-1.068904	0.321130	-0.474549	-1.210308	0.170957	-0.427869	-1.172087	0.156142	-0.347024	-1.173813	0.051899	-0.477886	-1.149228	0.041359	-0.368659	-1.100494	0.047181	-0.427411	-1.271447	0.173679	-0.372628	-0.951943	1.395994	-0.157878	-0.878190	1.428906	-0.468686	
31	0.1500	-0.881955	0.942955	-0.226653	-0.872544	0.937886	-0.460972	-1.050247	0.948789	-0.286435	-1.043840	0.953846	-0.383094	-0.864013	0.769519	-0.168863	-0.823345	0.805389	-0.193018	-0.842670	0.740989	-0.169745	-0.801567	0.776498	-0.189626	-0.680628	0.561623	-0.208163	-0.686799	0.525857	-0.313259	-0.782300	0.455776	-0.180777	-0.733293	0.431313	-0.198950	-0.806301	0.416702	-0.180130	-0.761677	0.392788	-0.193730	-0.899066	0.232800	-0.216820	-0.858254	0.225022	-0.296320	-0.835535	0.102393	-0.188719	-0.806482	0.105876	-0.296437	-0.743583	0.092878	-0.237406	-0.959391	0.220683	-0.274677	-0.937407	0.748453	-0.505018	-0.885150	0.751044	-0.490039	-0.936081	0.706781	-0.502032	-0.889313	0.706306	-0.490433	-0.933055	0.452863	-0.463050	-0.923458	0.452907	-0.353607	-1.056584	0.397275	-0.476644	-1.021163	0.367495	-0.478351	-1.090192	0.356052	-0.473148	-1.056682	0.326257	-0.473689	-1.199855	0.178000	-0.427453	-1.161413	0.161376	-0.347226	-1.170032	0.055789	-0.477176	-1.145167	0.043907	-0.368526	-1.098047	0.047351	-0.427708	-1.258890	0.183572	-0.371723	-0.935686	1.399287	-0.155205	-0.859350	1.432686	-0.464983	
32	0.1550	-0.862137	0.946363	-0.224444	-0.852536	0.941067	-0.458385	-1.030119	0.952030	-0.284127	-1.023692	0.956989	-0.380761	-0.844445	0.772404	-0.166874	-0.803621	0.808217	-0.190702	-0.823266	0.743798	-0.167909	-0.782048	0.779205	-0.187511	-0.662726	0.563888	-0.206696	-0.668306	0.528066	-0.311469	-0.760007	0.452824	-0.178548	-0.709903	0.431129	-0.197234	-0.781818	0.412395	-0.177916	-0.736111	0.391032	-0.191945	-0.864769	0.223205	-0.214755	-0.823826	0.218009	-0.294493	-0.793998	0.096037	-0.187676	-0.765332	0.102002	-0.295488	-0.701682	0.092194	-0.236730	-0.924615	0.207918	-0.272577	-0.918471	0.751659	-0.502948	-0.866298	0.753705	-0.487697	-0.917519	0.709905	-0.500043	-0.870898	0.708993	-0.488094	-0.917431	0.455560	-0.462022	-0.907702	0.454853	-0.352233	-1.042452	0.402495	-0.475575	-1.007485	0.372034	-0.477563	-1.076786	0.361952	-0.472120	-1.043722	0.331436	-0.472836	-1.188608	0.185183	-0.427018	-1.149958	0.166773	-0.347412	-1.165489	0.060058	-0.476446	-1.140301	0.046777	-0.368353	-1.094850	0.047637	-0.427987	-1.245464	0.193598	-0.370765	-0.919317	1.402507	-0.152485	-0.840675	1.436373	-0.461278	
33	0.1600	-0.842345	0.949624	-0.222244	-0.832576	0.944193	-0.455805	-1.010018	0.955182	-0.281824	-1.003578	0.960053	-0.378433	-0.825152	0.774962	-0.164826	-0.784092	0.810598	-0.188293	-0.804210	0.746224	-0.165997	-0.762796	0.781425	-0.185282	-0.645508	0.565513	-0.205179	-0.650513	0.529650	-0.309604	-0.738298	0.449554	-0.176273	-0.687241	0.430619	-0.195514	-0.757882	0.407871	-0.175691	-0.711225	0.389071	-0.190176	-0.830896	0.213925	-0.212794	-0.789907	0.211265	-0.292751	-0.753155	0.090295	-0.186683	-0.724939	0.098653	-0.294574	-0.660736	0.092056	-0.236059	-0.890094	0.195519	-0.270621	-0.899413	0.754838	-0.500940	-0.847331	0.756391	-0.485431	-0.898771	0.712987	-0.498118	-0.852306	0.711703	-0.485843	-0.901193	0.458265	-0.461079	-0.891308	0.456832	-0.350954	-1.027600	0.407675	-0.474581	-0.993094	0.376572	-0.476816	-1.062630	0.367824	-0.471149	-1.030014	0.336613	-0.471983	-1.176576	0.192467	-0.426560	-1.137738	0.172306	-0.347570	-1.160123	0.064699	-0.475708	-1.134581	0.049969	-0.368143	-1.090833	0.048069	-0.428245	-1.231212	0.203685	-0.369755	-0.902823	1.405611	-0.149718	-0.822162	1.439927	-0.457579	
34	0.1650	-0.822584	0.952698	-0.220049	-0.812669	0.947228	-0.453230	-0.989952	0.958199	-0.279531	-0.983506	0.962997	-0.376114	-0.806123	0.777160	-0.162718	-0.764750	0.812504	-0.185797	-0.785482	0.748238	-0.164006	-0.743794	0.783133	-0.182942	-0.628908	0.566500	-0.203628	-0.633366	0.530610	-0.307681	-0.717146	0.445986	-0.173974	-0.665281	0.429779	-0.193802	-0.734487	0.403155	-0.173475	-0.687010	0.386909	-0.188434	-0.797531	0.204994	-0.210942	-0.756574	0.204810	-0.291096	-0.713134	0.085160	-0.185727	-0.685417	0.095800	-0.293688	-0.620850	0.092410	-0.235381	-0.855927	0.183545	-0.268814	-0.880229	0.757945	-0.498989	-0.828246	0.759057	-0.483237	-0.879833	0.715981	-0.496253	-0.833532	0.714388	-0.483671	-0.884329	0.460926	-0.460211	-0.874275	0.458793	-0.349761	-1.012020	0.412765	-0.473655	-0.977985	0.381052	-0.476100	-1.047719	0.373615	-0.470230	-1.015554	0.341734	-0.471123	-1.163776	0.199814	-0.426078	-1.124779	0.177950	-0.347687	-1.153878	0.069694	-0.474972	-1.127961	0.053478	-0.367903	-1.085933	0.048675	-0.428478	-1.216189	0.213763	-0.368702	-0.886192	1.408557	-0.146902	-0.803810	1.443309	-0.453893	
35	0.1700	-0.802863	0.955548	-0.217855	-0.792817	0.950136	-0.450660	-0.969934	0.961036	-0.277251	-0.963483	0.965779	-0.373808	-0.787342	0.778970	-0.160547	-0.745588	0.813916	-0.183221	-0.767063	0.749814	-0.161936	-0.725029	0.784316	-0.180499	-0.612859	0.566859	-0.202057	-0.616803	0.530958	-0.305718	-0.696524	0.442145	-0.171674	-0.643992	0.428614	-0.192113	-0.711627	0.398275	-0.171286	-0.663458	0.384550	-0.186730	-0.764763	0.196439	-0.209206	-0.723905	0.198653	-0.289534	-0.674061	0.080614	-0.184797	-0.646874	0.093404	-0.292820	-0.582123	0.093190	-0.234687	-0.822219	0.172046	-0.267161	-0.860914	0.760933	-0.497088	-0.809036	0.761660	-0.481106	-0.860704	0.718843	-0.494439	-0.814570	0.717005	-0.481572	-0.866835	0.463492	-0.459406	-0.856608	0.460687	-0.348641	-0.995712	0.417713	-0.472791	-0.962159	0.385424	-0.475408	-1.032056	0.379276	-0.469357	-1.000347	0.346747	-0.470251	-1.150230	0.207183	-0.425568	-1.111108	0.183676	-0.347755	-1.146704	0.075022	-0.474250	-1.120406	0.057293	-0.367641	-1.080094	0.049483	-0.428688	-1.200452	0.223761	-0.367610	-0.869416	1.411303	-0.144037	-0.785615	1.446484	-0.450227	
36	0.1750	-0.783187	0.958141	-0.215655	-0.773024	0.952881	-0.448094	-0.949974	0.963651	-0.274985	-0.943517	0.968360	-0.371517	-0.768794	0.780368	-0.158314	-0.726595	0.814822	-0.180575	-0.748928	0.750936	-0.159787	-0.706482	0.784965	-0.177959	-0.597291	0.566608	-0.200480	-0.600757	0.530717	-0.303734	-0.676403	0.438059	-0.169398	-0.623339	0.427130	-0.190458	-0.689293	0.393261	-0.169146	-0.640557	0.382002	-0.185076	-0.732680	0.188280	-0.207593	-0.691977	0.192801	-0.288072	-0.636063	0.076631	-0.183885	-0.609419	0.091414	-0.291963	-0.544651	0.094321	-0.233967	-0.789079	0.161067	-0.265667	-0.841467	0.763759	-0.495229	-0.789700	0.764159	-0.479030	-0.841381	0.721531	-0.492670	-0.795415	0.719508	-0.479536	-0.848713	0.465914	-0.458650	-0.838319	0.462467	-0.347579	-0.978682	0.422472	-0.471983	-0.945623	0.389637	-0.474733	-1.015648	0.384757	-0.468525	-0.984403	0.351602	-0.469362	-1.135962	0.214536	-0.425033	-1.096759	0.189457	-0.347765	-1.138559	0.080653	-0.473555	-1.111887	0.061396	-0.367366	-1.073266	0.050519	-0.428875	-1.184062	0.233614	-0.366488	-0.852488	1.413811	-0.141121	-0.767570	1.449422	-0.446585	
37	0.1800	-0.763562	0.960447	-0.213446	-0.753292	0.955430	-0.445529	-0.930080	0.966006	-0.272735	-0.923616	0.970704	-0.369242	-0.750460	0.781342	-0.156018	-0.707762	0.815218	-0.177866	-0.731052	0.751593	-0.157563	-0.688137	0.785081	-0.175334	-0.582132	0.565777	-0.198913	-0.585163	0.529916	-0.301746	-0.656754	0.433761	-0.167172	-0.603285	0.425337	-0.188853	-0.667482	0.388142	-0.167077	-0.618294	0.379275	-0.183485	-0.701375	0.180532	-0.206114	-0.660868	0.187252	-0.286714	-0.599261	0.073176	-0.182981	-0.573154	0.089770	-0.291109	-0.508521	0.095718	-0.233212	-0.756619	0.150644	-0.264340	-0.821886	0.766381	-0.493405	-0.770234	0.766512	-0.476999	-0.821866	0.724004	-0.490935	-0.776066	0.721856	-0.477552	-0.829967	0.468149	-0.457930	-0.819427	0.464089	-0.346562	-0.960939	0.426998	-0.471223	-0.928390	0.393645	-0.474068	-0.998509	0.390014	-0.467729	-0.967739	0.356252	-0.468454	-1.120999	0.221834	-0.424472	-1.081764	0.195264	-0.347712	-1.129407	0.086551	-0.472898	-1.102386	0.065766	-0.367090	-1.065406	0.051804	-0.429041	-1.167079	0.243259	-0.365347	-0.835404	1.416047	-0.138156	-0.749670	1.452092	-0.442971	
38	0.1850	-0.743996	0.962441	-0.211221	-0.733625	0.957749	-0.442965	-0.910263	0.968065	-0.270503	-0.903784	0.972775	-0.366985	-0.732322	0.781881	-0.153664	-0.689080	0.815109	-0.175107	-0.713407	0.751784	-0.155268	-0.669975	0.784674	-0.172634	-0.567309	0.564400	-0.197368	-0.569949	0.528594	-0.299774	-0.637551	0.429282	-0.165021	-0.583794	0.423247	-0.187307	-0.646187	0.382949	-0.165101	-0.596654	0.376377	-0.181968	-0.670936	0.173203	-0.204776	-0.630652	0.181998	-0.285469	-0.563775	0.070205	-0.182077	-0.538177	0.088407	-0.290253	-0.473815	0.097293	-0.232414	-0.724955	0.140804	-0.263188	-0.802171	0.768760	-0.491604	-0.750638	0.768681	-0.475001	-0.802158	0.726227	-0.489226	-0.756522	0.724010	-0.475608	-0.810609	0.470155	-0.457233	-0.799953	0.465514	-0.345577	-0.942501	0.431251	-0.470506	-0.910474	0.397404	-0.473406	-0.980656	0.395005	-0.466963	-0.950372	0.360657	-0.467526	-1.105369	0.229038	-0.423889	-1.066157	0.201066	-0.347591	-1.119220	0.092675	-0.472293	-1.091889	0.070371	-0.366823	-1.056481	0.053356	-0.429190	-1.149564	0.252639	-0.364196	-0.818163	1.417979	-0.135141	-0.731908	1.454470	-0.439389	
39	0.1900	-0.724491	0.964100	-0.208976	-0.714024	0.959810	-0.440399	-0.890531	0.969798	-0.268286	-0.884030	0.974545	-0.364744	-0.714360	0.781984	-0.151255	-0.670537	0.814505	-0.172306	-0.695965	0.751513	-0.152911	-0.651979	0.783761	-0.169871	-0.552753	0.562518	-0.195857	-0.555048	0.526793	-0.297833	-0.618769	0.424657	-0.162967	-0.564828	0.420877	-0.185833	-0.625405	0.377712	-0.163238	-0.575623	0.373318	-0.180536	-0.641454	0.166294	-0.203590	-0.601403	0.177027	-0.284344	-0.529717	0.067671	-0.181170	-0.504580	0.087254	-0.289390	-0.440607	0.098953	-0.231566	-0.694199	0.131566	-0.262220	-0.782323	0.770862	-0.489818	-0.730912	0.770632	-0.473024	-0.782261	0.728166	-0.487534	-0.736781	0.725935	-0.473692	-0.790652	0.471897	-0.456547	-0.779920	0.466706	-0.344609	-0.923384	0.435196	-0.469823	-0.891895	0.400879	-0.472743	-0.962109	0.399696	-0.466224	-0.932324	0.364779	-0.466579	-1.089098	0.236113	-0.423286	-1.049969	0.206832	-0.347402	-1.107977	0.098978	-0.471750	-1.080391	0.075178	-0.366577	-1.046464	0.055184	-0.429326	-1.131570	0.261700	-0.363046	-0.800766	1.419580	-0.132078	-0.714275	1.456535	-0.435843	
40	0.1950	-0.705054	0.965408	-0.206705	-0.694491	0.961586	-0.437831	-0.870892	0.971181	-0.266084	-0.864359	0.975985	-0.362519	-0.696554	0.781657	-0.148796	-0.652123	0.813426	-0.169475	-0.678698	0.750792	-0.150499	-0.634128	0.782365	-0.167057	-0.538396	0.560177	-0.194390	-0.540392	0.524561	-0.295939	-0.600384	0.419919	-0.161033	-0.546351	0.418245	-0.184441	-0.605134	0.372460	-0.161508	-0.555187	0.370109	-0.179200	-0.613012	0.159803	-0.202565	-0.573190	0.172320	-0.283347	-0.497190	0.065519	-0.180256	-0.472448	0.086239	-0.288518	-0.408960	0.100604	-0.230665	-0.664462	0.122943	-0.261444	-0.762343	0.772655	-0.488036	-0.711056	0.772334	-0.471058	-0.762178	0.729794	-0.485848	-0.716844	0.727600	-0.471794	-0.770113	0.473348	-0.455858	-0.759354	0.467637	-0.343646	-0.903611	0.438805	-0.469169	-0.872673	0.404035	-0.472073	-0.942891	0.404055	-0.465507	-0.913619	0.368588	-0.465616	-1.072213	0.243024	-0.422669	-1.033231	0.212532	-0.347147	-1.095665	0.105407	-0.471281	-1.067893	0.080146	-0.366363	-1.035335	0.057290	-0.429455	-1.113148	0.270398	-0.361908	-0.783216	1.420828	-0.128969	-0.696763	1.458269	-0.432333	
41	0.2000	-0.685687	0.966351	-0.204404	-0.675026	0.963052	-0.435259	-0.851353	0.972193	-0.263893	-0.844775	0.977074	-0.360306	-0.678883	0.780909	-0.146295	-0.633827	0.811896	-0.166624	-0.661577	0.749638	-0.148042	-0.616405	0.780515	-0.164208	-0.524175	0.557424	-0.192975	-0.525916	0.521949	-0.294104	-0.582377	0.415102	-0.159236	-0.528327	0.415367	-0.183138	-0.585371	0.367220	-0.159926	-0.535332	0.366761	-0.177967	-0.585694	0.153720	-0.201709	-0.546079	0.167859	-0.282484	-0.466288	0.063694	-0.179335	-0.441856	0.085289	-0.287637	-0.378932	0.102155	-0.229707	-0.635852	0.114940	-0.260869	-0.742234	0.774114	-0.486249	-0.691072	0.773761	-0.469091	-0.741910	0.731089	-0.484161	-0.696714	0.728981	-0.469902	-0.749009	0.474486	-0.455155	-0.738281	0.468286	-0.342676	-0.883202	0.442054	-0.468537	-0.852827	0.406850	-0.471393	-0.923025	0.408059	-0.464809	-0.894278	0.372057	-0.464642	-1.054736	0.249735	-0.422043	-1.015965	0.218132	-0.346827	-1.082277	0.111908	-0.470894	-1.054401	0.085228	-0.366191	-1.023082	0.059670	-0.429582	-1.094339	0.278690	-0.360793	-0.765516	1.421704	-0.125815	-0.679362	1.459658	-0.428863	
42	0.2050	-0.666392	0.966922	-0.202068	-0.655630	0.964190	-0.432681	-0.831919	0.972820	-0.261710	-0.825281	0.977795	-0.358102	-0.661327	0.779759	-0.143758	-0.615637	0.809946	-0.163764	-0.644572	0.748074	-0.145551	-0.598791	0.778248	-0.161335	-0.510030	0.554310	-0.191617	-0.511559	0.519009	-0.292339	-0.564729	0.410239	-0.157592	-0.510723	0.412265	-0.181931	-0.566117	0.362018	-0.158507	-0.516044	0.363285	-0.176847	-0.559572	0.148034	-0.201032	-0.520130	0.163621	-0.281763	-0.437095	0.062140	-0.178407	-0.412871	0.084334	-0.286748	-0.350569	0.103517	-0.228692	-0.608469	0.107557	-0.260502	-0.721998	0.775217	-0.484447	-0.670962	0.774892	-0.467113	-0.721462	0.732032	-0.482463	-0.676393	0.730057	-0.468006	-0.727359	0.475298	-0.454427	-0.716724	0.468636	-0.341688	-0.862180	0.444927	-0.467921	-0.832377	0.409303	-0.470698	-0.902535	0.411689	-0.464126	-0.874324	0.375167	-0.463662	-1.036686	0.256215	-0.421412	-0.998190	0.223601	-0.346448	-1.067813	0.118421	-0.470597	-1.039923	0.090376	-0.366071	-1.009697	0.062309	-0.429714	-1.075177	0.286542	-0.359711	-0.747672	1.422196	-0.122620	-0.662061	1.460693	-0.425435	
43	0.2100	-0.647169	0.967119	-0.199693	-0.636299	0.964983	-0.430099	-0.812591	0.973055	-0.259531	-0.805880	0.978135	-0.355902	-0.643863	0.778227	-0.141195	-0.597541	0.807612	-0.160906	-0.627655	0.746130	-0.143039	-0.581266	0.775601	-0.158453	-0.495908	0.550887	-0.190320	-0.497265	0.515793	-0.290654	-0.547424	0.405361	-0.156114	-0.493510	0.408959	-0.180824	-0.547372	0.356878	-0.157262	-0.497311	0.359690	-0.175844	-0.534713	0.142731	-0.200537	-0.495396	0.159581	-0.281189	-0.409677	0.060800	-0.177477	-0.385550	0.083309	-0.285854	-0.323905	0.104613	-0.227622	-0.582404	0.100785	-0.260347	-0.701637	0.775952	-0.482620	-0.650728	0.775714	-0.465113	-0.700837	0.732615	-0.480748	-0.655881	0.730818	-0.466097	-0.705183	0.475779	-0.453663	-0.694705	0.468682	-0.340674	-0.840567	0.447415	-0.467314	-0.811341	0.411382	-0.469987	-0.881441	0.414933	-0.463455	-0.853777	0.377908	-0.462681	-1.018075	0.262433	-0.420784	-0.979920	0.228905	-0.346016	-1.052276	0.124887	-0.470395	-1.024471	0.095535	-0.366010	-0.995178	0.065185	-0.429856	-1.055685	0.293923	-0.358672	-0.729688	1.422296	-0.119385	-0.644847	1.461367	-0.422049	
44	0.2150	-0.628017	0.966943	-0.197275	-0.617031	0.965421	-0.427510	-0.793371	0.972896	-0.257349	-0.786569	0.978089	-0.353701	-0.626472	0.776343	-0.138614	-0.579525	0.804933	-0.158057	-0.610797	0.743838	-0.140517	-0.563812	0.772620	-0.155574	-0.481761	0.547204	-0.189085	-0.482984	0.512355	-0.289053	-0.530450	0.400497	-0.154808	-0.476659	0.405469	-0.179819	-0.529136	0.351821	-0.156198	-0.479121	0.355989	-0.174961	-0.511176	0.137795	-0.200230	-0.471924	0.155717	-0.280769	-0.384091	0.059622	-0.176549	-0.359937	0.082155	-0.284961	-0.298966	0.105370	-0.226503	-0.557740	0.094613	-0.260407	-0.681153	0.776308	-0.480761	-0.630371	0.776218	-0.463085	-0.680037	0.732832	-0.479007	-0.635183	0.731256	-0.464167	-0.682498	0.475932	-0.452855	-0.672244	0.468425	-0.339624	-0.818381	0.449514	-0.466710	-0.789734	0.413084	-0.469256	-0.859764	0.417785	-0.462794	-0.832652	0.380273	-0.461707	-0.998912	0.268358	-0.420162	-0.961158	0.234012	-0.345537	-1.035672	0.131245	-0.470291	-1.008056	0.100652	-0.366014	-0.979524	0.068267	-0.430013	-1.035874	0.300810	-0.357683	-0.711570	1.422004	-0.116113	-0.627707	1.461679	-0.418708	
45	0.2200	-0.608930	0.966403	-0.194811	-0.597819	0.965499	-0.424914	-0.774254	0.972349	-0.255158	-0.767346	0.977656	-0.351493	-0.609131	0.774136	-0.136023	-0.561575	0.801951	-0.155226	-0.593973	0.741236	-0.137996	-0.546410	0.769348	-0.152710	-0.467550	0.543311	-0.187911	-0.468670	0.508742	-0.287539	-0.513795	0.395674	-0.153678	-0.460147	0.401816	-0.178917	-0.511409	0.346867	-0.155318	-0.461464	0.352193	-0.174202	-0.489007	0.133209	-0.200112	-0.449752	0.152007	-0.280504	-0.360374	0.058556	-0.175632	-0.336064	0.080822	-0.284076	-0.275765	0.105729	-0.225342	-0.534545	0.089026	-0.260681	-0.660548	0.776286	-0.478862	-0.609893	0.776402	-0.461020	-0.659064	0.732686	-0.477234	-0.614298	0.731372	-0.462210	-0.659323	0.475767	-0.451994	-0.649354	0.467873	-0.338532	-0.795642	0.451229	-0.466103	-0.767571	0.414410	-0.468503	-0.837521	0.420245	-0.462139	-0.810964	0.382262	-0.460745	-0.979199	0.273963	-0.419552	-0.941903	0.238890	-0.345017	-1.018010	0.137434	-0.470283	-0.990689	0.105669	-0.366086	-0.962737	0.071516	-0.430188	-1.015746	0.307182	-0.356751	-0.693321	1.421323	-0.112809	-0.610628	1.461632	-0.415412	
46	0.2250	-0.589902	0.965510	-0.192299	-0.578656	0.965216	-0.422311	-0.755235	0.971425	-0.252953	-0.748205	0.976841	-0.349271	-0.591819	0.771642	-0.133432	-0.543677	0.798711	-0.152421	-0.577155	0.738364	-0.135488	-0.529041	0.765832	-0.149871	-0.453240	0.539253	-0.186793	-0.454286	0.505003	-0.286114	-0.497451	0.390919	-0.152725	-0.443951	0.398021	-0.178114	-0.494191	0.342035	-0.154621	-0.444328	0.348313	-0.173565	-0.468241	0.128956	-0.200182	-0.428909	0.148432	-0.280396	-0.338547	0.057557	-0.174735	-0.313951	0.079269	-0.283206	-0.254304	0.105644	-0.224149	-0.512875	0.084004	-0.261167	-0.639822	0.775891	-0.476915	-0.589293	0.776272	-0.458913	-0.637918	0.732186	-0.475424	-0.593229	0.731175	-0.460221	-0.635671	0.475304	-0.451070	-0.626048	0.467044	-0.337389	-0.772365	0.452569	-0.465485	-0.744860	0.415370	-0.467723	-0.814727	0.422320	-0.461486	-0.788722	0.383883	-0.459801	-0.958932	0.279220	-0.418957	-0.922142	0.243506	-0.344464	-0.999299	0.143396	-0.470369	-0.972378	0.110531	-0.366224	-0.944821	0.074889	-0.430382	-0.995291	0.313022	-0.355881	-0.674946	1.420264	-0.109476	-0.593591	1.461233	-0.412165	
47	0.2300	-0.570923	0.964281	-0.189734	-0.559532	0.964578	-0.419701	-0.736305	0.970141	-0.250726	-0.729136	0.975656	-0.347027	-0.574517	0.768898	-0.130848	-0.525815	0.795258	-0.149646	-0.560320	0.735263	-0.133002	-0.511686	0.762122	-0.147068	-0.438805	0.535076	-0.185727	-0.439802	0.501181	-0.284775	-0.481409	0.386255	-0.151944	-0.428055	0.394107	-0.177408	-0.477481	0.337342	-0.154103	-0.427703	0.344363	-0.173047	-0.448902	0.125020	-0.200434	-0.409413	0.144976	-0.280445	-0.318616	0.056587	-0.173866	-0.293603	0.077468	-0.282361	-0.234573	0.105083	-0.222935	-0.492771	0.079528	-0.261856	-0.618974	0.775132	-0.474915	-0.568571	0.775837	-0.456759	-0.616599	0.731346	-0.473571	-0.571976	0.730679	-0.458196	-0.611559	0.474570	-0.450075	-0.602332	0.465962	-0.336190	-0.748563	0.453551	-0.464850	-0.721608	0.415979	-0.466914	-0.791392	0.424019	-0.460832	-0.765932	0.385147	-0.458878	-0.938098	0.284104	-0.418379	-0.901860	0.247829	-0.343884	-0.979547	0.149074	-0.470541	-0.953128	0.115182	-0.366426	-0.925776	0.078337	-0.430596	-0.974491	0.318315	-0.355074	-0.656446	1.418843	-0.106117	-0.576582	1.460493	-0.408966	
48	0.2350	-0.551982	0.962740	-0.187116	-0.540432	0.963596	-0.417082	-0.717450	0.968522	-0.248471	-0.710128	0.974120	-0.344757	-0.557203	0.765945	-0.128279	-0.507972	0.791640	-0.146906	-0.543444	0.731977	-0.130549	-0.494328	0.758262	-0.144307	-0.424223	0.530818	-0.184705	-0.425194	0.497315	-0.283517	-0.465665	0.381703	-0.151326	-0.412444	0.390095	-0.176792	-0.461275	0.332803	-0.153755	-0.411581	0.340357	-0.172643	-0.430999	0.121389	-0.200862	-0.391275	0.141628	-0.280647	-0.300565	0.055615	-0.173036	-0.275014	0.075402	-0.281551	-0.216551	0.104028	-0.221714	-0.474257	0.075574	-0.262737	-0.598003	0.774030	-0.472854	-0.547724	0.775116	-0.454555	-0.595106	0.730189	-0.471670	-0.550538	0.729906	-0.456132	-0.586998	0.473599	-0.449002	-0.578211	0.464660	-0.334928	-0.724246	0.454196	-0.464187	-0.697819	0.416259	-0.466069	-0.767524	0.425359	-0.460172	-0.742594	0.386073	-0.457978	-0.916683	0.288591	-0.417819	-0.881031	0.251832	-0.343280	-0.958760	0.154414	-0.470790	-0.932938	0.119569	-0.366685	-0.905603	0.081805	-0.430825	-0.953315	0.323051	-0.354332	-0.637820	1.417082	-0.102737	-0.559580	1.459427	-0.405817	
49	0.2400	-0.533064	0.960913	-0.184442	-0.521342	0.962286	-0.414454	-0.698654	0.966596	-0.246180	-0.691164	0.972255	-0.342452	-0.539857	0.762824	-0.125730	-0.490132	0.787901	-0.144204	-0.526506	0.728550	-0.128134	-0.476949	0.754300	-0.141596	-0.409484	0.526517	-0.183717	-0.410447	0.493441	-0.282335	-0.450214	0.377286	-0.150860	-0.397106	0.386006	-0.176259	-0.445571	0.328434	-0.153565	-0.395951	0.336311	-0.172345	-0.414529	0.118050	-0.201453	-0.374493	0.138381	-0.280996	-0.284366	0.054616	-0.172256	-0.258162	0.073065	-0.280785	-0.200204	0.102479	-0.220501	-0.457342	0.072122	-0.263795	-0.576906	0.772607	-0.470729	-0.526750	0.774134	-0.452297	-0.573437	0.728741	-0.469716	-0.528914	0.728882	-0.454028	-0.561999	0.472430	-0.447842	-0.553685	0.463176	-0.333598	-0.699422	0.454530	-0.463489	-0.673495	0.416238	-0.465184	-0.743129	0.426361	-0.459498	-0.718707	0.386682	-0.457101	-0.894664	0.292658	-0.417275	-0.859623	0.255487	-0.342655	-0.936941	0.159367	-0.471101	-0.911803	0.123643	-0.366991	-0.884300	0.085239	-0.431062	-0.931728	0.327220	-0.353650	-0.619069	1.415009	-0.099339	-0.542568	1.458056	-0.402719	
50	0.2450	-0.514150	0.958830	-0.181709	-0.502244	0.960672	-0.411814	-0.679898	0.964399	-0.243848	-0.672228	0.970091	-0.340106	-0.522462	0.759577	-0.123207	-0.472277	0.784084	-0.141542	-0.509487	0.725026	-0.125764	-0.459532	0.750279	-0.138937	-0.394580	0.522206	-0.182755	-0.395553	0.489589	-0.281219	-0.435052	0.373020	-0.150530	-0.382034	0.381865	-0.175797	-0.430362	0.324248	-0.153516	-0.380805	0.332242	-0.172145	-0.399473	0.114995	-0.202194	-0.359053	0.135234	-0.281484	-0.269969	0.053575	-0.171535	-0.243013	0.070465	-0.280072	-0.185489	0.100448	-0.219310	-0.442015	0.069150	-0.265010	-0.555678	0.770895	-0.468535	-0.505644	0.772919	-0.449986	-0.551588	0.727035	-0.467705	-0.507103	0.727642	-0.451883	-0.536572	0.471111	-0.446586	-0.528752	0.461555	-0.332191	-0.674099	0.454585	-0.462746	-0.648633	0.415948	-0.464250	-0.718210	0.427046	-0.458805	-0.694267	0.387001	-0.456243	-0.872016	0.296285	-0.416744	-0.837603	0.258769	-0.342011	-0.914093	0.163889	-0.471458	-0.889713	0.127359	-0.367329	-0.861862	0.088585	-0.431299	-0.909687	0.330813	-0.353024	-0.600189	1.412657	-0.095929	-0.525525	1.456404	-0.399674	
51	0.2500	-0.495223	0.956527	-0.178917	-0.483120	0.958782	-0.409162	-0.661159	0.961970	-0.241468	-0.653298	0.967664	-0.337714	-0.504999	0.756245	-0.120714	-0.454391	0.780232	-0.138918	-0.492372	0.721448	-0.123441	-0.442062	0.746240	-0.136334	-0.379514	0.517914	-0.181807	-0.380509	0.485787	-0.280160	-0.420178	0.368925	-0.150319	-0.367221	0.377693	-0.175397	-0.415642	0.320260	-0.153591	-0.366132	0.328169	-0.172029	-0.385803	0.112218	-0.203065	-0.344933	0.132192	-0.282098	-0.257313	0.052483	-0.170883	-0.229519	0.067619	-0.279422	-0.172351	0.097962	-0.218158	-0.428251	0.066638	-0.266359	-0.534316	0.768928	-0.466268	-0.484402	0.771507	-0.447620	-0.529556	0.725108	-0.465632	-0.485103	0.726223	-0.449696	-0.510726	0.469690	-0.445226	-0.503411	0.459847	-0.330700	-0.648281	0.454393	-0.461945	-0.623234	0.415425	-0.463258	-0.692767	0.427443	-0.458083	-0.669267	0.387059	-0.455398	-0.848709	0.299453	-0.416218	-0.814931	0.261656	-0.341344	-0.890212	0.167941	-0.471841	-0.866655	0.130676	-0.367683	-0.838281	0.091787	-0.431522	-0.887145	0.333822	-0.352447	-0.581176	1.410063	-0.092510	-0.508434	1.454499	-0.396683	
52	0.2550	-0.476261	0.954039	-0.176065	-0.463950	0.956649	-0.406496	-0.642412	0.959350	-0.239034	-0.634354	0.965011	-0.335270	-0.487453	0.752870	-0.118251	-0.436458	0.776384	-0.136333	-0.475147	0.717857	-0.121168	-0.424526	0.742222	-0.133787	-0.364293	0.513668	-0.180861	-0.365325	0.482057	-0.279147	-0.405589	0.365016	-0.150207	-0.352667	0.373516	-0.175047	-0.401402	0.316483	-0.153768	-0.351924	0.324114	-0.171986	-0.373473	0.109718	-0.204047	-0.332099	0.129264	-0.282824	-0.246319	0.051336	-0.170306	-0.217619	0.064557	-0.278842	-0.160728	0.095062	-0.217060	-0.416007	0.064566	-0.267817	-0.512814	0.766745	-0.463926	-0.463020	0.769935	-0.445201	-0.507339	0.723002	-0.463494	-0.462913	0.724668	-0.447468	-0.484472	0.468221	-0.443752	-0.477659	0.458106	-0.329117	-0.621975	0.453990	-0.461076	-0.597295	0.414709	-0.462198	-0.666801	0.427579	-0.457322	-0.643699	0.386888	-0.454556	-0.824714	0.302145	-0.415691	-0.791567	0.264131	-0.340650	-0.865294	0.171489	-0.472226	-0.842608	0.133560	-0.368031	-0.813547	0.094797	-0.431714	-0.864053	0.336240	-0.351909	-0.562025	1.407270	-0.089086	-0.491274	1.452373	-0.393746	
53	0.2600	-0.457243	0.951408	-0.173152	-0.444713	0.954312	-0.403812	-0.623634	0.956585	-0.236544	-0.615372	0.962176	-0.332769	-0.469811	0.749493	-0.115821	-0.418463	0.772576	-0.133784	-0.457802	0.714294	-0.118943	-0.406913	0.738259	-0.131296	-0.348931	0.509490	-0.179907	-0.350011	0.478418	-0.278167	-0.391286	0.361310	-0.150172	-0.338371	0.369356	-0.174732	-0.387632	0.312931	-0.154025	-0.338173	0.320098	-0.171999	-0.362430	0.107495	-0.205116	-0.320507	0.126463	-0.283646	-0.236895	0.050138	-0.169810	-0.207242	0.061315	-0.278336	-0.150546	0.091800	-0.216028	-0.405224	0.062919	-0.269354	-0.491169	0.764391	-0.461506	-0.441493	0.768249	-0.442729	-0.484935	0.720760	-0.461286	-0.440532	0.723022	-0.445200	-0.457820	0.466758	-0.442155	-0.451495	0.456386	-0.327434	-0.595187	0.453415	-0.460124	-0.570817	0.413842	-0.461059	-0.640315	0.427484	-0.456510	-0.617559	0.386522	-0.453706	-0.800002	0.304347	-0.415150	-0.767474	0.266177	-0.339922	-0.839334	0.174507	-0.472590	-0.817552	0.135985	-0.368350	-0.787651	0.097568	-0.431854	-0.840362	0.338062	-0.351397	-0.542731	1.404325	-0.085664	-0.474031	1.450062	-0.390864	
54	0.2650	-0.438147	0.948675	-0.170178	-0.425390	0.951810	-0.401108	-0.604797	0.953724	-0.233992	-0.596329	0.959206	-0.330209	-0.452062	0.746151	-0.113423	-0.400394	0.768840	-0.131268	-0.440331	0.710795	-0.116765	-0.389214	0.734383	-0.128858	-0.333447	0.505399	-0.178933	-0.334590	0.474885	-0.277209	-0.377270	0.357820	-0.150192	-0.324337	0.365241	-0.174440	-0.374322	0.309617	-0.154337	-0.324867	0.316145	-0.172053	-0.352606	0.105553	-0.206247	-0.310102	0.123809	-0.284544	-0.228940	0.048901	-0.169401	-0.198306	0.057938	-0.277910	-0.141726	0.088236	-0.215075	-0.395830	0.061681	-0.270939	-0.469379	0.761912	-0.459006	-0.419819	0.766491	-0.440207	-0.462345	0.718430	-0.459004	-0.417963	0.721332	-0.442892	-0.430784	0.465358	-0.440425	-0.424923	0.454745	-0.325641	-0.567928	0.452705	-0.459078	-0.543803	0.412867	-0.459828	-0.613314	0.427188	-0.455635	-0.590842	0.385995	-0.452833	-0.774546	0.306046	-0.414584	-0.742614	0.267784	-0.339151	-0.812324	0.176973	-0.472904	-0.791468	0.137928	-0.368615	-0.760583	0.100059	-0.431921	-0.816029	0.339282	-0.350898	-0.523292	1.401274	-0.082248	-0.456688	1.447605	-0.388038	
55	0.2700	-0.418956	0.945882	-0.167145	-0.405966	0.949191	-0.398382	-0.585877	0.950814	-0.231376	-0.577206	0.956148	-0.327587	-0.434200	0.742880	-0.111054	-0.382242	0.765205	-0.128781	-0.422732	0.707395	-0.114629	-0.371424	0.730620	-0.126470	-0.317869	0.501413	-0.177929	-0.319086	0.471470	-0.276259	-0.363541	0.354561	-0.150243	-0.310569	0.361193	-0.174156	-0.361459	0.306554	-0.154681	-0.312000	0.312282	-0.172132	-0.343926	0.103896	-0.207413	-0.300822	0.121323	-0.285497	-0.222341	0.047636	-0.169080	-0.190721	0.054476	-0.277564	-0.134180	0.084438	-0.214213	-0.387736	0.060842	-0.272542	-0.447444	0.759356	-0.456425	-0.397998	0.764711	-0.437637	-0.439570	0.716060	-0.456645	-0.395209	0.719647	-0.440545	-0.403381	0.464075	-0.438554	-0.397951	0.453240	-0.323728	-0.540210	0.451899	-0.457922	-0.516261	0.411828	-0.458492	-0.585804	0.426722	-0.454684	-0.563550	0.385342	-0.451918	-0.748325	0.307234	-0.413978	-0.716959	0.268946	-0.338324	-0.784263	0.178875	-0.473142	-0.764335	0.139378	-0.368798	-0.732337	0.102239	-0.431889	-0.791013	0.339896	-0.350397	-0.503703	1.398171	-0.078843	-0.439235	1.445042	-0.385268	
56	0.2750	-0.399650	0.943073	-0.164055	-0.386425	0.946501	-0.395632	-0.566853	0.947905	-0.228695	-0.557983	0.953054	-0.324900	-0.416221	0.739714	-0.108714	-0.364001	0.761696	-0.126320	-0.405008	0.704124	-0.112531	-0.353543	0.726994	-0.124129	-0.302227	0.497547	-0.176885	-0.303532	0.468182	-0.275307	-0.350104	0.351544	-0.150302	-0.297077	0.357240	-0.173866	-0.349032	0.303754	-0.155031	-0.299563	0.308535	-0.172216	-0.336305	0.102532	-0.208587	-0.292595	0.119030	-0.286483	-0.216981	0.046361	-0.168846	-0.184387	0.050982	-0.277298	-0.127817	0.080480	-0.213448	-0.380847	0.060390	-0.274129	-0.425366	0.756773	-0.453764	-0.376032	0.762954	-0.435022	-0.416620	0.713697	-0.454206	-0.372280	0.718015	-0.438160	-0.375635	0.462962	-0.436533	-0.370593	0.451927	-0.321686	-0.512055	0.451033	-0.456643	-0.488206	0.410767	-0.457036	-0.557801	0.426116	-0.453641	-0.535691	0.384597	-0.450942	-0.721325	0.307907	-0.413317	-0.690487	0.269660	-0.337429	-0.755152	0.180206	-0.473273	-0.736140	0.140328	-0.368869	-0.702914	0.104081	-0.431731	-0.765283	0.339901	-0.349878	-0.483967	1.395066	-0.075456	-0.421666	1.442416	-0.382553	
57	0.2800	-0.380218	0.940291	-0.160910	-0.366759	0.943788	-0.392856	-0.547706	0.945044	-0.225948	-0.538646	0.949972	-0.322150	-0.398128	0.736682	-0.106398	-0.345670	0.758334	-0.123880	-0.387168	0.701010	-0.110466	-0.335575	0.723523	-0.121829	-0.286557	0.493813	-0.175792	-0.287966	0.465031	-0.274339	-0.336961	0.348782	-0.150347	-0.283870	0.353406	-0.173555	-0.337028	0.301229	-0.155364	-0.287547	0.304929	-0.172288	-0.329654	0.101468	-0.209741	-0.285345	0.116953	-0.287478	-0.212734	0.045096	-0.168697	-0.179200	0.047511	-0.277110	-0.122540	0.076435	-0.212787	-0.375055	0.060317	-0.275669	-0.403154	0.754213	-0.451024	-0.353930	0.761269	-0.432366	-0.393505	0.711390	-0.451683	-0.349188	0.716484	-0.435737	-0.347574	0.462067	-0.434353	-0.342871	0.450857	-0.319506	-0.483487	0.450142	-0.455227	-0.459661	0.409726	-0.455447	-0.529325	0.425398	-0.452492	-0.507281	0.383792	-0.449886	-0.693542	0.308062	-0.412584	-0.663188	0.269930	-0.336451	-0.724999	0.180967	-0.473271	-0.706878	0.140782	-0.368802	-0.672322	0.105570	-0.431420	-0.738822	0.339299	-0.349322	-0.464086	1.392011	-0.072091	-0.403978	1.439769	-0.379893	
58	0.2850	-0.360650	0.937575	-0.157716	-0.346965	0.941102	-0.390052	-0.528424	0.942276	-0.223136	-0.519186	0.946953	-0.319338	-0.379928	0.733811	-0.104103	-0.327254	0.755136	-0.121457	-0.369225	0.698076	-0.108426	-0.317530	0.720224	-0.119567	-0.270900	0.490223	-0.174644	-0.272428	0.462020	-0.273347	-0.324120	0.346285	-0.150357	-0.270960	0.349715	-0.173210	-0.325436	0.298988	-0.155657	-0.275946	0.301492	-0.172332	-0.323877	0.100712	-0.210848	-0.278989	0.115119	-0.288459	-0.209476	0.043861	-0.168628	-0.175051	0.044115	-0.276994	-0.118252	0.072378	-0.212232	-0.370245	0.060615	-0.277131	-0.380822	0.751724	-0.448207	-0.331705	0.759700	-0.429673	-0.370244	0.709185	-0.449076	-0.325953	0.715099	-0.433279	-0.319235	0.461434	-0.432010	-0.314819	0.450078	-0.317179	-0.454544	0.449258	-0.453662	-0.430660	0.408744	-0.453714	-0.500409	0.424596	-0.451223	-0.478346	0.382959	-0.448729	-0.664985	0.307704	-0.411764	-0.635064	0.269763	-0.335374	-0.693824	0.181164	-0.473107	-0.676556	0.140748	-0.368566	-0.640581	0.106696	-0.430927	-0.711622	0.338092	-0.348715	-0.444072	1.389058	-0.068757	-0.386176	1.437146	-0.377289	
59	0.2900	-0.340946	0.934965	-0.154477	-0.327048	0.938490	-0.387221	-0.509001	0.939644	-0.220262	-0.499602	0.944042	-0.316465	-0.361637	0.731125	-0.101827	-0.308763	0.752117	-0.119050	-0.351200	0.695344	-0.106406	-0.299423	0.717109	-0.117338	-0.255300	0.486785	-0.173436	-0.256966	0.459155	-0.272319	-0.311589	0.344059	-0.150313	-0.258362	0.346192	-0.172819	-0.314246	0.297040	-0.155890	-0.264754	0.298248	-0.172331	-0.318877	0.100269	-0.211883	-0.273440	0.113550	-0.289402	-0.207080	0.042675	-0.168634	-0.171829	0.040846	-0.276945	-0.114852	0.068380	-0.211784	-0.366300	0.061279	-0.278487	-0.358389	0.749353	-0.445317	-0.309376	0.758289	-0.426949	-0.346864	0.707124	-0.446384	-0.302601	0.713899	-0.430787	-0.290664	0.461101	-0.429499	-0.286481	0.449631	-0.314700	-0.425271	0.448412	-0.451937	-0.401246	0.407855	-0.451824	-0.471092	0.423733	-0.449821	-0.448924	0.382126	-0.447450	-0.635676	0.306839	-0.410839	-0.606135	0.269172	-0.334184	-0.661661	0.180812	-0.472757	-0.645193	0.140244	-0.368136	-0.607728	0.107459	-0.430226	-0.683693	0.336290	-0.348039	-0.423938	1.386255	-0.065459	-0.368272	1.434587	-0.374738	
60	0.2950	-0.321113	0.932496	-0.151203	-0.307020	0.935997	-0.384364	-0.489439	0.937187	-0.217328	-0.479901	0.941285	-0.313535	-0.343275	0.728641	-0.099567	-0.290216	0.749287	-0.116655	-0.333119	0.692828	-0.104400	-0.281277	0.714187	-0.115138	-0.239807	0.483510	-0.172163	-0.241629	0.456440	-0.271250	-0.299376	0.342112	-0.150198	-0.246091	0.342858	-0.172371	-0.303447	0.295391	-0.156045	-0.253966	0.295222	-0.172270	-0.314556	0.100143	-0.212822	-0.268609	0.112267	-0.290284	-0.205422	0.041559	-0.168705	-0.169422	0.037751	-0.276954	-0.112241	0.064506	-0.211440	-0.363100	0.062301	-0.279711	-0.335884	0.747141	-0.442358	-0.286972	0.757076	-0.424199	-0.323396	0.705245	-0.443608	-0.279167	0.712923	-0.428262	-0.261917	0.461100	-0.426819	-0.257911	0.449552	-0.312063	-0.395724	0.447628	-0.450043	-0.371477	0.407092	-0.449769	-0.441429	0.422833	-0.448274	-0.419068	0.381319	-0.446032	-0.605656	0.305481	-0.409796	-0.576436	0.268174	-0.332867	-0.628558	0.179932	-0.472198	-0.612828	0.139293	-0.367487	-0.573815	0.107869	-0.429294	-0.655066	0.333903	-0.347280	-0.403708	1.383646	-0.062205	-0.350285	1.432135	-0.372242	
61	0.3000	-0.301167	0.930200	-0.147901	-0.286904	0.933667	-0.381483	-0.469752	0.934938	-0.214341	-0.460098	0.938720	-0.310555	-0.324871	0.726377	-0.097321	-0.271638	0.746652	-0.114273	-0.315016	0.690542	-0.102404	-0.263122	0.711464	-0.112965	-0.224471	0.480404	-0.170826	-0.226470	0.453876	-0.270132	-0.287493	0.340447	-0.149997	-0.234163	0.339733	-0.171855	-0.293034	0.294045	-0.156107	-0.243578	0.292434	-0.172134	-0.310816	0.100336	-0.213645	-0.264408	0.111289	-0.291085	-0.204380	0.040529	-0.168833	-0.167721	0.034869	-0.277012	-0.110321	0.060818	-0.211195	-0.360524	0.063673	-0.280783	-0.313343	0.745128	-0.439338	-0.264529	0.756093	-0.421429	-0.299885	0.703585	-0.440752	-0.255693	0.712201	-0.425709	-0.233061	0.461452	-0.423970	-0.229179	0.449865	-0.309268	-0.365975	0.446928	-0.447973	-0.341424	0.406479	-0.447543	-0.411488	0.421916	-0.446571	-0.388845	0.380560	-0.444458	-0.574983	0.303649	-0.408621	-0.546026	0.266791	-0.331410	-0.594585	0.178552	-0.471411	-0.579522	0.137926	-0.366600	-0.538918	0.107940	-0.428110	-0.625786	0.330950	-0.346423	-0.383414	1.381274	-0.059003	-0.332243	1.429825	-0.369799	
62	0.3050	-0.281133	0.928106	-0.144582	-0.266732	0.931537	-0.378583	-0.449964	0.932925	-0.211308	-0.440220	0.936382	-0.307530	-0.306462	0.724343	-0.095087	-0.253064	0.744218	-0.111904	-0.296932	0.688494	-0.100413	-0.244994	0.708942	-0.110818	-0.209346	0.477475	-0.169424	-0.211542	0.451466	-0.268963	-0.275953	0.339066	-0.149700	-0.222598	0.336836	-0.171264	-0.282999	0.293003	-0.156064	-0.233587	0.289904	-0.171913	-0.307564	0.100847	-0.214335	-0.260748	0.110627	-0.291786	-0.203842	0.039600	-0.169006	-0.166617	0.032235	-0.277109	-0.108996	0.057366	-0.211044	-0.358456	0.065385	-0.281684	-0.290813	0.743347	-0.436265	-0.242093	0.755367	-0.418647	-0.276382	0.702170	-0.437820	-0.232232	0.711756	-0.423130	-0.204175	0.462173	-0.420957	-0.200366	0.450587	-0.306315	-0.336106	0.446329	-0.445724	-0.311171	0.406039	-0.445142	-0.381348	0.420999	-0.444706	-0.358337	0.379868	-0.442717	-0.543735	0.301365	-0.407305	-0.514981	0.265049	-0.329803	-0.559831	0.176703	-0.470382	-0.545356	0.136179	-0.365458	-0.503133	0.107697	-0.426657	-0.595923	0.327457	-0.345458	-0.363094	1.379174	-0.055861	-0.314182	1.427693	-0.367410	
63	0.3100	-0.261050	0.926235	-0.141260	-0.246549	0.929640	-0.375669	-0.430108	0.931172	-0.208236	-0.420305	0.934301	-0.304471	-0.288092	0.722546	-0.092867	-0.234535	0.741985	-0.109549	-0.278916	0.686688	-0.098426	-0.226937	0.706624	-0.108695	-0.194487	0.474727	-0.167960	-0.196902	0.449212	-0.267740	-0.264772	0.337967	-0.149298	-0.211415	0.334180	-0.170593	-0.273339	0.292262	-0.155906	-0.223992	0.287646	-0.171597	-0.304710	0.101668	-0.214878	-0.257545	0.110289	-0.292372	-0.203700	0.038783	-0.169215	-0.166007	0.029875	-0.277235	-0.108176	0.054192	-0.210977	-0.356785	0.067427	-0.282401	-0.268349	0.741825	-0.433150	-0.219720	0.754920	-0.415863	-0.252949	0.701024	-0.434820	-0.208846	0.711606	-0.420531	-0.175349	0.463267	-0.417789	-0.171567	0.451726	-0.303211	-0.306212	0.445843	-0.443296	-0.280818	0.405785	-0.442569	-0.351106	0.420096	-0.442676	-0.327643	0.379257	-0.440798	-0.512012	0.298659	-0.405841	-0.483400	0.262980	-0.328041	-0.524408	0.174425	-0.469101	-0.510439	0.134091	-0.364050	-0.466583	0.107166	-0.424925	-0.565568	0.323453	-0.344376	-0.342798	1.377373	-0.052787	-0.296149	1.425766	-0.365074	
64	0.3150	-0.240966	0.924604	-0.137948	-0.226409	0.928003	-0.372750	-0.410233	0.929694	-0.205137	-0.400403	0.932498	-0.301387	-0.269815	0.720990	-0.090663	-0.216104	0.739954	-0.107214	-0.261022	0.685126	-0.096443	-0.209005	0.704508	-0.106599	-0.179949	0.472165	-0.166439	-0.182605	0.447115	-0.266465	-0.253965	0.337146	-0.148786	-0.200633	0.331779	-0.169838	-0.264054	0.291817	-0.155630	-0.214795	0.285672	-0.171180	-0.302172	0.102789	-0.215264	-0.254719	0.110276	-0.292829	-0.203856	0.038087	-0.169449	-0.165796	0.027806	-0.277379	-0.107773	0.051328	-0.210985	-0.355408	0.069782	-0.282927	-0.246015	0.740583	-0.430004	-0.197473	0.754764	-0.413084	-0.229657	0.700162	-0.431762	-0.185606	0.711761	-0.417918	-0.146684	0.464730	-0.414478	-0.142888	0.453279	-0.299965	-0.276401	0.445477	-0.440694	-0.250479	0.405727	-0.439829	-0.320871	0.419220	-0.440481	-0.296878	0.378740	-0.438700	-0.479932	0.295566	-0.404224	-0.451406	0.260618	-0.326120	-0.488455	0.171762	-0.467564	-0.474901	0.131709	-0.362373	-0.429415	0.106382	-0.422909	-0.534832	0.318977	-0.343171	-0.322584	1.375895	-0.049790	-0.278197	1.424070	-0.362794	
65	0.3200	-0.220940	0.923226	-0.134662	-0.206377	0.926645	-0.369835	-0.390398	0.928500	-0.202022	-0.380575	0.930990	-0.298289	-0.251691	0.719674	-0.088476	-0.197830	0.738121	-0.104902	-0.243312	0.683806	-0.094464	-0.191256	0.702590	-0.104532	-0.165790	0.469793	-0.164869	-0.168709	0.445177	-0.265140	-0.243551	0.336596	-0.148164	-0.190271	0.329639	-0.168998	-0.255145	0.291658	-0.155234	-0.205997	0.283988	-0.170660	-0.299875	0.104195	-0.215487	-0.252195	0.110583	-0.293149	-0.204222	0.037516	-0.169695	-0.165892	0.026039	-0.277531	-0.107708	0.048796	-0.211057	-0.354230	0.072431	-0.283257	-0.223887	0.739634	-0.426841	-0.175428	0.754905	-0.410321	-0.206588	0.699593	-0.428658	-0.162593	0.712222	-0.415299	-0.118291	0.466548	-0.411040	-0.114447	0.455232	-0.296590	-0.246796	0.445237	-0.437928	-0.220282	0.405868	-0.436932	-0.290767	0.418380	-0.438125	-0.266170	0.378323	-0.436423	-0.447637	0.292127	-0.402455	-0.419141	0.258001	-0.324042	-0.452130	0.168762	-0.465775	-0.438903	0.129078	-0.360426	-0.391802	0.105380	-0.420612	-0.503847	0.314075	-0.341842	-0.302520	1.374753	-0.046879	-0.260389	1.422623	-0.360570	
66	0.3250	-0.201046	0.922105	-0.131417	-0.186530	0.925579	-0.366935	-0.370675	0.927593	-0.198905	-0.360893	0.929783	-0.295193	-0.233787	0.718594	-0.086313	-0.179779	0.736483	-0.102620	-0.225853	0.682721	-0.092494	-0.173756	0.700867	-0.102499	-0.152065	0.467614	-0.163259	-0.155266	0.443398	-0.263770	-0.233548	0.336305	-0.147434	-0.180351	0.327766	-0.168075	-0.246614	0.291771	-0.154720	-0.197600	0.282597	-0.170035	-0.297755	0.105865	-0.215548	-0.249906	0.111199	-0.293326	-0.204721	0.037071	-0.169946	-0.166215	0.024574	-0.277682	-0.107906	0.046608	-0.211183	-0.353169	0.075352	-0.283394	-0.202047	0.738985	-0.423677	-0.153668	0.755341	-0.407586	-0.183831	0.699317	-0.425522	-0.139895	0.712982	-0.412682	-0.090292	0.468701	-0.407497	-0.086374	0.457563	-0.293106	-0.217526	0.445120	-0.435010	-0.190364	0.406205	-0.433892	-0.260928	0.417582	-0.435617	-0.235663	0.378010	-0.433975	-0.415284	0.288386	-0.400540	-0.386766	0.255169	-0.321812	-0.415617	0.165476	-0.463741	-0.402627	0.126250	-0.358220	-0.353939	0.104201	-0.418044	-0.472766	0.308800	-0.340390	-0.282681	1.373954	-0.044063	-0.242796	1.421436	-0.358404	
67	0.3300	-0.181364	0.921242	-0.128231	-0.166951	0.924811	-0.364065	-0.351146	0.926969	-0.195801	-0.341439	0.928880	-0.292111	-0.216179	0.717743	-0.084179	-0.162026	0.735032	-0.100378	-0.208719	0.681862	-0.090537	-0.156577	0.699332	-0.100505	-0.138827	0.465629	-0.161619	-0.142331	0.441777	-0.262363	-0.223975	0.336261	-0.146602	-0.170889	0.326160	-0.167075	-0.238467	0.292139	-0.154094	-0.189610	0.281496	-0.169309	-0.295753	0.107775	-0.215447	-0.247793	0.112104	-0.293360	-0.205286	0.036750	-0.170190	-0.166692	0.023405	-0.277824	-0.108302	0.044766	-0.211349	-0.352155	0.078516	-0.283343	-0.180587	0.738633	-0.420530	-0.132283	0.756063	-0.404890	-0.161482	0.699329	-0.422373	-0.117609	0.714027	-0.410079	-0.062816	0.471158	-0.403870	-0.058802	0.460239	-0.289534	-0.188732	0.445122	-0.431959	-0.160875	0.406731	-0.430729	-0.231501	0.416832	-0.432970	-0.205512	0.377801	-0.431369	-0.383049	0.284392	-0.398488	-0.354461	0.252166	-0.319443	-0.379120	0.161958	-0.461478	-0.366278	0.123275	-0.355768	-0.316045	0.102885	-0.415220	-0.441757	0.303209	-0.338820	-0.263153	1.373495	-0.041351	-0.225494	1.420515	-0.356301	
68	0.3350	-0.161985	0.920630	-0.125122	-0.147734	0.924336	-0.361237	-0.331903	0.926618	-0.192727	-0.322304	0.928273	-0.289061	-0.198946	0.717110	-0.082082	-0.144649	0.733761	-0.098184	-0.191987	0.681218	-0.088601	-0.139794	0.697978	-0.098556	-0.126127	0.463836	-0.159961	-0.129953	0.440315	-0.260928	-0.214852	0.336445	-0.145676	-0.161905	0.324817	-0.166004	-0.230711	0.292743	-0.153364	-0.182030	0.280678	-0.168488	-0.293826	0.109896	-0.215194	-0.245806	0.113276	-0.293252	-0.205862	0.036547	-0.170420	-0.167260	0.022520	-0.277951	-0.108835	0.043262	-0.211547	-0.351131	0.081891	-0.283115	-0.159602	0.738570	-0.417417	-0.111371	0.757052	-0.402247	-0.139644	0.699616	-0.419228	-0.095838	0.715338	-0.407501	-0.035997	0.473882	-0.400190	-0.031873	0.463220	-0.285899	-0.160561	0.445235	-0.428797	-0.131970	0.407430	-0.427467	-0.202638	0.416133	-0.430204	-0.175880	0.377694	-0.428623	-0.351121	0.280199	-0.396312	-0.322420	0.249035	-0.316949	-0.342859	0.158265	-0.459008	-0.330081	0.120203	-0.353094	-0.278357	0.101470	-0.412167	-0.411004	0.297367	-0.337142	-0.244023	1.373368	-0.038751	-0.208565	1.419858	-0.354263	
69	0.3400	-0.143008	0.920260	-0.122107	-0.128975	0.924147	-0.358469	-0.313045	0.926524	-0.189699	-0.303585	0.927950	-0.286060	-0.182170	0.716680	-0.080032	-0.127733	0.732661	-0.096048	-0.175734	0.680775	-0.086694	-0.123487	0.696796	-0.096661	-0.114013	0.462236	-0.158300	-0.118177	0.439010	-0.259475	-0.206196	0.336839	-0.144667	-0.153414	0.323731	-0.164872	-0.223354	0.293558	-0.152543	-0.174867	0.280129	-0.167581	-0.291937	0.112193	-0.214798	-0.243905	0.114686	-0.293009	-0.206406	0.036454	-0.170630	-0.167867	0.021900	-0.278056	-0.109455	0.042082	-0.211765	-0.350051	0.085442	-0.282725	-0.139194	0.738781	-0.414358	-0.091032	0.758287	-0.399670	-0.118423	0.700159	-0.416110	-0.074685	0.716885	-0.404961	-0.009970	0.476829	-0.396484	-0.005729	0.466459	-0.282232	-0.133161	0.445448	-0.425551	-0.103810	0.408286	-0.424134	-0.174499	0.415484	-0.427341	-0.146936	0.377682	-0.425762	-0.319700	0.275863	-0.394031	-0.290848	0.245821	-0.314350	-0.307069	0.154453	-0.456356	-0.294275	0.117085	-0.350225	-0.241125	0.099998	-0.408916	-0.380701	0.291345	-0.335368	-0.225388	1.373555	-0.036272	-0.192095	1.419459	-0.352295	
70	0.3450	-0.124534	0.920114	-0.119204	-0.110777	0.924225	-0.355775	-0.294677	0.926666	-0.186737	-0.285385	0.927891	-0.283126	-0.165937	0.716438	-0.078037	-0.111362	0.731723	-0.093981	-0.160042	0.680516	-0.084827	-0.107734	0.695777	-0.094829	-0.102528	0.460823	-0.156648	-0.107044	0.437860	-0.258018	-0.198024	0.337419	-0.143591	-0.145430	0.322889	-0.163691	-0.216403	0.294557	-0.151644	-0.168126	0.279835	-0.166599	-0.290063	0.114632	-0.214274	-0.242059	0.116298	-0.292641	-0.206885	0.036460	-0.170814	-0.168469	0.021520	-0.278137	-0.110117	0.041203	-0.211994	-0.348887	0.089126	-0.282190	-0.119466	0.739244	-0.411372	-0.071369	0.759737	-0.397171	-0.097925	0.700933	-0.413039	-0.054257	0.718636	-0.402475	0.015128	0.479950	-0.392786	0.019487	0.469902	-0.278564	-0.106685	0.445750	-0.422251	-0.076554	0.409278	-0.420759	-0.147243	0.414887	-0.424406	-0.118853	0.377757	-0.422813	-0.288992	0.271440	-0.391666	-0.259956	0.242568	-0.311672	-0.271994	0.150579	-0.453555	-0.259111	0.113968	-0.347196	-0.204608	0.098502	-0.405503	-0.351048	0.285213	-0.333516	-0.207343	1.374031	-0.033922	-0.176170	1.419304	-0.350403	
71	0.3500	-0.106670	0.920173	-0.116430	-0.093239	0.924549	-0.353173	-0.276906	0.927018	-0.183858	-0.267806	0.928073	-0.280276	-0.150331	0.716364	-0.076108	-0.095621	0.730934	-0.091995	-0.144988	0.680422	-0.083009	-0.092617	0.694910	-0.093067	-0.091711	0.459594	-0.155022	-0.096588	0.436860	-0.256569	-0.190353	0.338161	-0.142462	-0.137966	0.322278	-0.162473	-0.209869	0.295713	-0.150682	-0.161811	0.279773	-0.165555	-0.288186	0.117173	-0.213639	-0.240246	0.118077	-0.292161	-0.207276	0.036553	-0.170969	-0.169032	0.021354	-0.278190	-0.110788	0.040600	-0.212225	-0.347620	0.092901	-0.281530	-0.100518	0.739932	-0.408480	-0.052484	0.761367	-0.394765	-0.078257	0.701909	-0.410039	-0.034659	0.720553	-0.400056	0.039164	0.483195	-0.389130	0.043639	0.473491	-0.274929	-0.081277	0.446124	-0.418929	-0.050359	0.410380	-0.417377	-0.121027	0.414341	-0.421430	-0.091797	0.377909	-0.419808	-0.259201	0.266988	-0.389242	-0.229956	0.239322	-0.308940	-0.237878	0.146699	-0.450642	-0.224841	0.110896	-0.344045	-0.169068	0.097019	-0.401971	-0.322246	0.279048	-0.331603	-0.189986	1.374767	-0.031707	-0.160874	1.419375	-0.348592	
72	0.3550	-0.089520	0.920413	-0.113799	-0.076462	0.925090	-0.350679	-0.259838	0.927554	-0.181081	-0.250952	0.928467	-0.277530	-0.135433	0.716439	-0.074255	-0.080594	0.730284	-0.090099	-0.130649	0.680474	-0.081253	-0.078210	0.694185	-0.091386	-0.081593	0.458540	-0.153434	-0.086840	0.436005	-0.255141	-0.183195	0.339039	-0.141298	-0.131029	0.321879	-0.161235	-0.203759	0.296993	-0.149676	-0.155928	0.279921	-0.164467	-0.286302	0.119775	-0.212911	-0.238454	0.119982	-0.291584	-0.207564	0.036720	-0.171092	-0.169532	0.021372	-0.278215	-0.111437	0.040239	-0.212452	-0.346244	0.096720	-0.280769	-0.082451	0.740813	-0.405700	-0.034475	0.763140	-0.392464	-0.059520	0.703054	-0.407132	-0.015992	0.722595	-0.397719	0.062014	0.486510	-0.385549	0.066598	0.477167	-0.271361	-0.057078	0.446555	-0.415621	-0.025376	0.411566	-0.414022	-0.096001	0.413842	-0.418443	-0.065933	0.378127	-0.416781	-0.230530	0.262566	-0.386788	-0.201056	0.236122	-0.306185	-0.204965	0.142864	-0.447655	-0.191716	0.107911	-0.340814	-0.134762	0.095576	-0.398367	-0.294495	0.272922	-0.329653	-0.173408	1.375728	-0.029634	-0.146291	1.419647	-0.346867	
73	0.3600	-0.073185	0.920807	-0.111326	-0.060539	0.925816	-0.348307	-0.243576	0.928240	-0.178425	-0.234920	0.929041	-0.274904	-0.121321	0.716641	-0.072489	-0.066357	0.729760	-0.088304	-0.117094	0.680650	-0.079569	-0.064585	0.693590	-0.089794	-0.072199	0.457652	-0.151901	-0.077818	0.435290	-0.253749	-0.176561	0.340025	-0.140116	-0.124626	0.321671	-0.159992	-0.198079	0.298367	-0.148643	-0.150479	0.280250	-0.163350	-0.284413	0.122400	-0.212112	-0.236677	0.121971	-0.290927	-0.207743	0.036946	-0.171182	-0.169952	0.021542	-0.278213	-0.112043	0.040089	-0.212668	-0.344765	0.100535	-0.279930	-0.065355	0.741853	-0.403051	-0.017435	0.765016	-0.390281	-0.041808	0.704331	-0.404341	0.001650	0.724721	-0.395480	0.083564	0.489840	-0.382077	0.088246	0.480869	-0.267893	-0.034214	0.447027	-0.412361	-0.001743	0.412808	-0.410730	-0.072305	0.413390	-0.415480	-0.041410	0.378398	-0.413770	-0.203172	0.258226	-0.384331	-0.173454	0.233008	-0.303440	-0.173486	0.139126	-0.444638	-0.159978	0.105049	-0.337550	-0.101937	0.094200	-0.394740	-0.267983	0.266910	-0.327689	-0.157700	1.376873	-0.027708	-0.132497	1.420096	-0.345236	
74	0.3650	-0.057759	0.921329	-0.109021	-0.045557	0.926692	-0.346073	-0.228215	0.929046	-0.175905	-0.219801	0.929761	-0.272415	-0.108065	0.716948	-0.070821	-0.052983	0.729350	-0.086620	-0.104387	0.680929	-0.077969	-0.051806	0.693113	-0.088298	-0.063547	0.456921	-0.150434	-0.069539	0.434705	-0.252407	-0.170456	0.341090	-0.138936	-0.118757	0.321631	-0.158759	-0.192836	0.299802	-0.147601	-0.145465	0.280732	-0.162222	-0.282526	0.125005	-0.211263	-0.234918	0.124004	-0.290210	-0.207816	0.037217	-0.171241	-0.170282	0.021834	-0.278185	-0.112591	0.040113	-0.212868	-0.343197	0.104299	-0.279036	-0.049313	0.743015	-0.400549	-0.001447	0.766953	-0.388227	-0.025206	0.705703	-0.401686	0.018184	0.726887	-0.393353	0.103712	0.493135	-0.378745	0.108481	0.484539	-0.264559	-0.012800	0.447526	-0.409185	0.020418	0.414080	-0.407535	-0.050064	0.412980	-0.412574	-0.018365	0.378710	-0.410811	-0.177303	0.254022	-0.381903	-0.147332	0.230016	-0.300737	-0.143657	0.135527	-0.441631	-0.129852	0.102342	-0.334296	-0.070821	0.092911	-0.391139	-0.242886	0.261081	-0.325736	-0.142941	1.378163	-0.025931	-0.119559	1.420689	-0.343704	
75	0.3700	-0.043325	0.921949	-0.106894	-0.031589	0.927683	-0.343987	-0.213841	0.929938	-0.173538	-0.205675	0.930592	-0.270077	-0.095724	0.717336	-0.069258	-0.040532	0.729040	-0.085053	-0.092581	0.681288	-0.076463	-0.039928	0.692741	-0.086907	-0.055647	0.456333	-0.149046	-0.062005	0.434242	-0.251126	-0.164883	0.342206	-0.137774	-0.113421	0.321735	-0.157554	-0.188032	0.301267	-0.146568	-0.140886	0.281336	-0.161102	-0.280657	0.127554	-0.210385	-0.233185	0.126040	-0.289453	-0.207789	0.037519	-0.171271	-0.170521	0.022216	-0.278135	-0.113071	0.040278	-0.213049	-0.341561	0.107966	-0.278112	-0.034397	0.744260	-0.398210	0.013419	0.768910	-0.386312	-0.009785	0.707134	-0.399185	0.033540	0.729052	-0.391351	0.122378	0.496343	-0.375584	0.127220	0.488120	-0.261389	0.007070	0.448035	-0.406127	0.041004	0.415354	-0.404470	-0.029383	0.412612	-0.409758	0.003087	0.379048	-0.407939	-0.153078	0.250001	-0.379533	-0.122852	0.227177	-0.298107	-0.115669	0.132110	-0.438679	-0.101540	0.099814	-0.331100	-0.041618	0.091726	-0.387613	-0.219358	0.255499	-0.323817	-0.129199	1.379554	-0.024307	-0.107537	1.421397	-0.342277	
76	0.3750	-0.029954	0.922638	-0.104951	-0.018696	0.928750	-0.342060	-0.200525	0.930883	-0.171337	-0.192609	0.931498	-0.267904	-0.084348	0.717785	-0.067808	-0.029054	0.728817	-0.083612	-0.081717	0.681708	-0.075059	-0.028995	0.692461	-0.085624	-0.048500	0.455876	-0.147749	-0.055216	0.433888	-0.249918	-0.159840	0.343345	-0.136648	-0.108610	0.321957	-0.156391	-0.183666	0.302730	-0.145560	-0.136737	0.282032	-0.160005	-0.278824	0.130010	-0.209498	-0.231491	0.128042	-0.288674	-0.207672	0.037839	-0.171274	-0.170672	0.022661	-0.278065	-0.113479	0.040549	-0.213210	-0.339885	0.111491	-0.277181	-0.020663	0.745553	-0.396045	0.027106	0.770848	-0.384542	0.004400	0.708586	-0.396856	0.047662	0.731174	-0.389485	0.139498	0.499421	-0.372618	0.144400	0.491561	-0.258411	0.025323	0.448541	-0.403218	0.059934	0.416606	-0.401566	-0.010346	0.412281	-0.407063	0.022854	0.379402	-0.405188	-0.130629	0.246204	-0.377250	-0.100150	0.224517	-0.295582	-0.089684	0.128906	-0.435820	-0.075214	0.097486	-0.328005	-0.014499	0.090654	-0.384209	-0.197530	0.250220	-0.321958	-0.116531	1.381004	-0.022835	-0.096475	1.422188	-0.340958	
77	0.3800	-0.017702	0.923369	-0.103196	-0.006924	0.929858	-0.340300	-0.188323	0.931853	-0.169311	-0.180653	0.932447	-0.265906	-0.073971	0.718274	-0.066478	-0.018583	0.728668	-0.082299	-0.071826	0.682167	-0.073766	-0.019035	0.692261	-0.084455	-0.042099	0.455534	-0.146550	-0.049158	0.433633	-0.248793	-0.155319	0.344481	-0.135573	-0.104313	0.322271	-0.155285	-0.179736	0.304164	-0.144593	-0.133012	0.282790	-0.158949	-0.277046	0.132343	-0.208624	-0.229851	0.129973	-0.287893	-0.207482	0.038166	-0.171254	-0.170740	0.023142	-0.277980	-0.113814	0.040895	-0.213349	-0.338198	0.114833	-0.276264	-0.008151	0.746858	-0.394064	0.039574	0.772730	-0.382925	0.017308	0.710026	-0.394712	0.060512	0.733219	-0.387765	0.155033	0.502328	-0.369871	0.159981	0.494816	-0.255646	0.041911	0.449031	-0.400487	0.077153	0.417812	-0.398849	0.006987	0.411985	-0.404519	0.040869	0.379760	-0.402589	-0.110056	0.242667	-0.375081	-0.079332	0.222059	-0.293189	-0.065831	0.125944	-0.433093	-0.051011	0.095371	-0.325050	0.010398	0.089702	-0.380970	-0.177505	0.245296	-0.320182	-0.104976	1.382473	-0.021515	-0.086406	1.423029	-0.339752	
78	0.3850	-0.006604	0.924115	-0.101629	0.003700	0.930973	-0.338711	-0.177272	0.932818	-0.167470	-0.169840	0.933406	-0.264091	-0.064614	0.718781	-0.065272	-0.009142	0.728581	-0.081118	-0.062921	0.682646	-0.072588	-0.010066	0.692128	-0.083402	-0.036428	0.455293	-0.145456	-0.043813	0.433463	-0.247760	-0.151309	0.345590	-0.134562	-0.100514	0.322652	-0.154249	-0.176233	0.305543	-0.143680	-0.129701	0.283579	-0.157949	-0.275345	0.134524	-0.207778	-0.228283	0.131804	-0.287128	-0.207233	0.038488	-0.171215	-0.170738	0.023635	-0.277884	-0.114079	0.041287	-0.213466	-0.336533	0.117959	-0.275379	0.003119	0.748141	-0.392272	0.050803	0.774525	-0.381465	0.028922	0.711422	-0.392761	0.072071	0.735154	-0.386199	0.168967	0.505031	-0.367358	0.173948	0.497847	-0.253114	0.056811	0.449496	-0.397957	0.092632	0.418952	-0.396341	0.022587	0.411722	-0.402148	0.057094	0.380111	-0.400169	-0.091428	0.239418	-0.373049	-0.060470	0.219818	-0.290954	-0.044199	0.123243	-0.430529	-0.029031	0.093477	-0.322273	0.032980	0.088873	-0.377934	-0.159354	0.240763	-0.318509	-0.094558	1.383923	-0.020344	-0.077346	1.423892	-0.338660	
79	0.3900	0.003320	0.924854	-0.100248	0.013168	0.932064	-0.337295	-0.167392	0.933754	-0.165817	-0.160185	0.934349	-0.262462	-0.056280	0.719291	-0.064192	-0.000733	0.728544	-0.080069	-0.055003	0.683129	-0.071530	-0.002089	0.692051	-0.082465	-0.031462	0.455136	-0.144471	-0.039152	0.433366	-0.246823	-0.147792	0.346650	-0.133628	-0.097193	0.323077	-0.153292	-0.173146	0.306844	-0.142833	-0.126789	0.284374	-0.157016	-0.273741	0.136531	-0.206977	-0.226805	0.133510	-0.286394	-0.206943	0.038796	-0.171162	-0.170677	0.024121	-0.277782	-0.114280	0.041700	-0.213562	-0.334922	0.120838	-0.274543	0.013142	0.749375	-0.390673	0.060790	0.776204	-0.380161	0.039240	0.712747	-0.391011	0.082340	0.736953	-0.384790	0.181308	0.507504	-0.365092	0.186312	0.500625	-0.250826	0.070026	0.449928	-0.395647	0.106373	0.420011	-0.394058	0.036448	0.411490	-0.399973	0.071523	0.380447	-0.397948	-0.074777	0.236475	-0.371173	-0.043601	0.217804	-0.288897	-0.024835	0.120817	-0.428157	-0.009330	0.091806	-0.319702	0.053195	0.088164	-0.375132	-0.143113	0.236653	-0.316956	-0.085283	1.385320	-0.019317	-0.069296	1.424750	-0.337684	
80	0.3950	0.012073	0.925564	-0.099047	0.021490	0.933105	-0.336051	-0.158679	0.934639	-0.164354	-0.151682	0.935249	-0.261020	-0.048959	0.719786	-0.063239	0.006654	0.728545	-0.079149	-0.048058	0.683599	-0.070592	0.004911	0.692017	-0.081643	-0.027171	0.455049	-0.143598	-0.035142	0.433327	-0.245987	-0.144745	0.347643	-0.132778	-0.094326	0.323521	-0.152422	-0.170459	0.308049	-0.142061	-0.124260	0.285150	-0.156162	-0.272254	0.138348	-0.206234	-0.225431	0.135069	-0.285705	-0.206630	0.039084	-0.171099	-0.170570	0.024585	-0.277678	-0.114424	0.042114	-0.213638	-0.333392	0.123448	-0.273770	0.021938	0.750533	-0.389266	0.069551	0.777745	-0.379014	0.048285	0.713980	-0.389463	0.091340	0.738595	-0.383540	0.192091	0.509730	-0.363078	0.197107	0.503127	-0.248791	0.081588	0.450320	-0.393570	0.118403	0.420977	-0.392013	0.048596	0.411286	-0.398007	0.084178	0.380761	-0.395942	-0.060102	0.233853	-0.369469	-0.028724	0.216022	-0.287033	-0.007746	0.118670	-0.425998	0.008080	0.090356	-0.317362	0.071036	0.087570	-0.372588	-0.128783	0.232981	-0.315539	-0.077136	1.386636	-0.018429	-0.062240	1.425577	-0.336823	
81	0.4000	0.019678	0.926229	-0.098019	0.028696	0.934073	-0.334975	-0.151111	0.935457	-0.163078	-0.144306	0.936088	-0.259764	-0.042621	0.720254	-0.062409	0.013049	0.728573	-0.078356	-0.042054	0.684044	-0.069774	0.010964	0.692016	-0.080932	-0.023514	0.455017	-0.142836	-0.031739	0.433333	-0.245252	-0.142144	0.348554	-0.132018	-0.091885	0.323967	-0.151646	-0.168152	0.309143	-0.141369	-0.122093	0.285887	-0.155392	-0.270898	0.139965	-0.205559	-0.224177	0.136469	-0.285072	-0.206308	0.039346	-0.171030	-0.170433	0.025013	-0.277575	-0.114520	0.042510	-0.213698	-0.331971	0.125776	-0.273068	0.029542	0.751598	-0.388046	0.077125	0.779133	-0.378018	0.056095	0.715101	-0.388115	0.099111	0.740065	-0.382449	0.201372	0.511698	-0.361316	0.206393	0.505342	-0.247009	0.091552	0.450667	-0.391733	0.128777	0.421839	-0.390210	0.059085	0.411109	-0.396259	0.095110	0.381047	-0.394161	-0.047363	0.231553	-0.367948	-0.015805	0.214471	-0.285373	0.007105	0.116803	-0.424067	0.023230	0.089118	-0.315268	0.086540	0.087083	-0.370319	-0.116331	0.229756	-0.314267	-0.070087	1.387848	-0.017670	-0.056147	1.426354	-0.336074	
82	0.4050	0.026176	0.926835	-0.097154	0.034832	0.934952	-0.334059	-0.144647	0.936195	-0.161984	-0.138012	0.936850	-0.258687	-0.037224	0.720684	-0.061699	0.018493	0.728621	-0.077682	-0.036948	0.684455	-0.069072	0.016112	0.692039	-0.080328	-0.020446	0.455025	-0.142182	-0.028897	0.433373	-0.244618	-0.139956	0.349371	-0.131353	-0.089837	0.324397	-0.150966	-0.166202	0.310117	-0.140761	-0.120264	0.286568	-0.154714	-0.269686	0.141377	-0.204957	-0.223053	0.137700	-0.284503	-0.205992	0.039579	-0.170959	-0.170277	0.025397	-0.277477	-0.114577	0.042876	-0.213742	-0.330679	0.127814	-0.272446	0.036009	0.752553	-0.387006	0.083565	0.780357	-0.377169	0.062730	0.716101	-0.386961	0.105713	0.741356	-0.381511	0.209230	0.513405	-0.359803	0.214251	0.507265	-0.245476	0.099999	0.450970	-0.390137	0.137578	0.422595	-0.388649	0.067991	0.410957	-0.394734	0.104398	0.381301	-0.392608	-0.036490	0.229572	-0.366613	-0.004771	0.213144	-0.283920	0.019796	0.115207	-0.422372	0.036191	0.088080	-0.313430	0.099789	0.086693	-0.368331	-0.105692	0.226973	-0.313147	-0.064088	1.388939	-0.017034	-0.050972	1.427066	-0.335432	
83	0.4100	0.031629	0.927374	-0.096438	0.039964	0.935731	-0.333293	-0.139225	0.936844	-0.161063	-0.132740	0.937524	-0.257781	-0.032710	0.721070	-0.061103	0.023046	0.728679	-0.077121	-0.032684	0.684823	-0.068480	0.020413	0.692077	-0.079824	-0.017918	0.455061	-0.141632	-0.026565	0.433435	-0.244081	-0.138147	0.350089	-0.130781	-0.088149	0.324797	-0.150381	-0.164582	0.310965	-0.140237	-0.118747	0.287181	-0.154127	-0.268624	0.142585	-0.204434	-0.222066	0.138760	-0.284004	-0.205695	0.039780	-0.170891	-0.170114	0.025732	-0.277387	-0.114603	0.043203	-0.213774	-0.329530	0.129564	-0.271906	0.041410	0.753391	-0.386136	0.088943	0.781414	-0.376457	0.068266	0.716971	-0.385991	0.111219	0.742465	-0.380721	0.215763	0.514857	-0.358527	0.220779	0.508902	-0.244183	0.107030	0.451226	-0.388778	0.144908	0.423242	-0.387323	0.075418	0.410828	-0.393430	0.112147	0.381522	-0.391282	-0.027378	0.227898	-0.365467	0.004480	0.212031	-0.282674	0.030441	0.113869	-0.420914	0.047075	0.087227	-0.311848	0.110902	0.086389	-0.366625	-0.096767	0.224618	-0.312179	-0.059074	1.389898	-0.016508	-0.046656	1.427701	-0.334893	
84	0.4150	0.036110	0.927840	-0.095858	0.044168	0.936402	-0.332667	-0.134771	0.937400	-0.160304	-0.128413	0.938106	-0.257034	-0.029012	0.721406	-0.060612	0.026776	0.728741	-0.076662	-0.029194	0.685145	-0.067993	0.023933	0.692123	-0.079412	-0.015874	0.455115	-0.141178	-0.024689	0.433509	-0.243636	-0.136680	0.350705	-0.130300	-0.086783	0.325157	-0.149890	-0.163262	0.311686	-0.139797	-0.117511	0.287717	-0.153631	-0.267715	0.143596	-0.203989	-0.221220	0.139652	-0.283576	-0.205424	0.039950	-0.170827	-0.169955	0.026016	-0.277307	-0.114607	0.043485	-0.213795	-0.328535	0.131033	-0.271448	0.045830	0.754107	-0.385423	0.093343	0.782305	-0.375872	0.072791	0.717710	-0.385193	0.115720	0.743396	-0.380068	0.221086	0.516063	-0.357473	0.226094	0.510263	-0.243114	0.112765	0.451439	-0.387644	0.150890	0.423784	-0.386221	0.081485	0.410720	-0.392337	0.118480	0.381709	-0.390173	-0.019899	0.226515	-0.364502	0.012076	0.211117	-0.281629	0.039187	0.112772	-0.419688	0.056028	0.086541	-0.310518	0.120031	0.086158	-0.365194	-0.089434	0.222667	-0.311362	-0.054968	1.390719	-0.016083	-0.043128	1.428251	-0.334449	
