PathFileType	4	(X/Y/Z)	 P4 65r2 05.trc
DataRate	CameraRate	NumFrames	NumMarkers	Units	OrigDataRate	OrigDataStartFrame	OrigNumFrames
200	200	82	38	m	200	1	82
Frame#	Time	RASIS			LASIS			RPSIS			LPSIS			RThighRear1			RThighFront1			RThighRear2			RThighFront2			RKneeLat			RKneeMed			RShankRear1			RShankFront1			RShankRear2			RShankFront2			RAnkleLat			RAnkleMed			RM5			RM1			RMid			RHeel			LThighRear1			LThighFront1			LThighRear2			LThighFront2			LKneeLat			LKneeMed			LShankRear1			LShankFront1			LShankRear2			LShankFront2			LAnkleLat			LAnkleMed			LM5			LM1			LMid			LHeel			RShoulder			LShoulder			
		X1	Y1	Z1	X2	Y2	Z2	X3	Y3	Z3	X4	Y4	Z4	X5	Y5	Z5	X6	Y6	Z6	X7	Y7	Z7	X8	Y8	Z8	X9	Y9	Z9	X10	Y10	Z10	X11	Y11	Z11	X12	Y12	Z12	X13	Y13	Z13	X14	Y14	Z14	X15	Y15	Z15	X16	Y16	Z16	X17	Y17	Z17	X18	Y18	Z18	X19	Y19	Z19	X20	Y20	Z20	X21	Y21	Z21	X22	Y22	Z22	X23	Y23	Z23	X24	Y24	Z24	X25	Y25	Z25	X26	Y26	Z26	X27	Y27	Z27	X28	Y28	Z28	X29	Y29	Z29	X30	Y30	Z30	X31	Y31	Z31	X32	Y32	Z32	X33	Y33	Z33	X34	Y34	Z34	X35	Y35	Z35	X36	Y36	Z36	X37	Y37	Z37	X38	Y38	Z38	
1	0.0000	-1.504642	0.893627	-0.335945	-1.507308	0.884145	-0.566398	-1.669456	0.930520	-0.390831	-1.670934	0.921429	-0.487102	-1.597784	0.699325	-0.275295	-1.546789	0.696467	-0.295211	-1.603913	0.662517	-0.278446	-1.554534	0.659940	-0.294037	-1.628773	0.414922	-0.312439	-1.647171	0.389895	-0.419397	-1.788489	0.418811	-0.300318	-1.771437	0.366654	-0.319380	-1.833002	0.407378	-0.313744	-1.819588	0.362331	-0.323307	-2.019746	0.367239	-0.374638	-1.992074	0.322044	-0.450390	-2.109278	0.245286	-0.353240	-2.072941	0.214218	-0.455930	-2.068203	0.158249	-0.392309	-2.044952	0.406567	-0.441379	-1.520916	0.712208	-0.610468	-1.469897	0.737771	-0.605789	-1.496479	0.673726	-0.604703	-1.450901	0.696693	-0.607469	-1.330242	0.483447	-0.546651	-1.329572	0.499618	-0.441224	-1.375745	0.356507	-0.561430	-1.328914	0.361277	-0.556787	-1.370399	0.303471	-0.556429	-1.324513	0.306602	-0.551524	-1.323046	0.099674	-0.493613	-1.301652	0.127301	-0.412513	-1.194229	0.059290	-0.514422	-1.185091	0.088044	-0.407930	-1.132045	0.126988	-0.467562	-1.374827	0.060457	-0.436780	-1.393923	1.328154	-0.307581	-1.435884	1.356374	-0.623545	
2	0.0050	-1.488790	0.891363	-0.334831	-1.491848	0.882673	-0.565675	-1.654115	0.927969	-0.389324	-1.655579	0.919602	-0.485679	-1.578646	0.697154	-0.273724	-1.527600	0.695239	-0.293567	-1.583911	0.660261	-0.276520	-1.534401	0.658763	-0.292056	-1.602522	0.413206	-0.309643	-1.620454	0.387667	-0.416478	-1.761647	0.417767	-0.297264	-1.744939	0.365275	-0.316619	-1.806284	0.406897	-0.310272	-1.793090	0.361306	-0.320487	-1.993124	0.368109	-0.371908	-1.965720	0.322123	-0.447194	-2.082317	0.246678	-0.348854	-2.046882	0.214432	-0.451464	-2.041714	0.158971	-0.387116	-2.018506	0.407126	-0.438906	-1.506003	0.710728	-0.609312	-1.454970	0.736218	-0.604636	-1.481636	0.672207	-0.603435	-1.436099	0.695152	-0.606187	-1.316516	0.480776	-0.545855	-1.315265	0.497055	-0.440427	-1.364471	0.355290	-0.560249	-1.317847	0.358846	-0.555581	-1.360662	0.302419	-0.555211	-1.314967	0.304375	-0.550232	-1.320043	0.099091	-0.492163	-1.297909	0.125571	-0.410788	-1.192805	0.056884	-0.513978	-1.182970	0.083515	-0.406817	-1.128772	0.120810	-0.466010	-1.373194	0.061100	-0.435611	-1.378839	1.326204	-0.306090	-1.419120	1.353761	-0.622679	
3	0.0100	-1.472724	0.889082	-0.333710	-1.476177	0.881194	-0.564951	-1.638562	0.925408	-0.387806	-1.640009	0.917768	-0.484244	-1.559234	0.694991	-0.272133	-1.508141	0.694040	-0.291909	-1.563619	0.658016	-0.274567	-1.513977	0.657619	-0.290055	-1.575836	0.411551	-0.306839	-1.593308	0.385499	-0.413553	-1.734372	0.416760	-0.294193	-1.717999	0.363922	-0.313832	-1.779142	0.406441	-0.306775	-1.766157	0.360298	-0.317630	-1.966122	0.368936	-0.369113	-1.938969	0.322169	-0.443939	-2.054916	0.247965	-0.344376	-2.020383	0.214546	-0.446908	-2.014730	0.159592	-0.381840	-1.991728	0.407646	-0.436363	-1.490909	0.709221	-0.608139	-1.439859	0.734620	-0.603474	-1.466625	0.670652	-0.602152	-1.421128	0.693558	-0.604895	-1.302688	0.478024	-0.545029	-1.300851	0.494408	-0.439601	-1.353128	0.354018	-0.559046	-1.306719	0.356348	-0.554348	-1.350871	0.301318	-0.553969	-1.305378	0.302087	-0.548913	-1.317076	0.098493	-0.490705	-1.294205	0.123833	-0.409045	-1.191386	0.054505	-0.513538	-1.180858	0.079021	-0.405709	-1.125512	0.114660	-0.464462	-1.371620	0.061695	-0.434437	-1.363552	1.324237	-0.304569	-1.402128	1.351141	-0.621788	
4	0.0150	-1.456461	0.886807	-0.332585	-1.460306	0.879721	-0.564226	-1.622810	0.922859	-0.386284	-1.624237	0.915948	-0.482803	-1.539566	0.692868	-0.270523	-1.488435	0.692908	-0.290243	-1.543052	0.655822	-0.272592	-1.493286	0.656548	-0.288043	-1.548726	0.410017	-0.304047	-1.565748	0.383454	-0.410644	-1.706678	0.415818	-0.291125	-1.690615	0.362626	-0.311030	-1.751586	0.406023	-0.303269	-1.738788	0.359326	-0.314741	-1.938752	0.369678	-0.366248	-1.911823	0.322155	-0.440624	-2.027047	0.249081	-0.339807	-1.993407	0.214513	-0.442267	-1.987195	0.160063	-0.376495	-1.964650	0.408077	-0.433735	-1.475658	0.707695	-0.606950	-1.424584	0.732980	-0.602304	-1.451478	0.669068	-0.600854	-1.406015	0.691911	-0.603595	-1.288813	0.475188	-0.544169	-1.286389	0.491671	-0.438740	-1.341770	0.352694	-0.557821	-1.295582	0.353789	-0.553086	-1.341075	0.300174	-0.552705	-1.295797	0.299747	-0.547568	-1.314176	0.097894	-0.489246	-1.290577	0.122107	-0.407295	-1.189987	0.052178	-0.513108	-1.178778	0.074607	-0.404617	-1.122301	0.108599	-0.462932	-1.370130	0.062241	-0.433269	-1.348085	1.322274	-0.303015	-1.384922	1.348541	-0.620863	
5	0.0200	-1.440009	0.884562	-0.331455	-1.444239	0.878271	-0.563501	-1.606862	0.920348	-0.384763	-1.608265	0.914163	-0.481361	-1.519651	0.690822	-0.268899	-1.468495	0.691882	-0.288575	-1.522219	0.653718	-0.270602	-1.472338	0.655593	-0.286028	-1.521192	0.408669	-0.301290	-1.537778	0.381601	-0.407775	-1.678565	0.414970	-0.288077	-1.662774	0.361422	-0.308225	-1.723616	0.405657	-0.299773	-1.710972	0.358412	-0.311830	-1.911015	0.370287	-0.363303	-1.884272	0.322050	-0.437250	-1.998666	0.249956	-0.335145	-1.965902	0.214280	-0.437542	-1.959034	0.160338	-0.371094	-1.937290	0.408364	-0.431006	-1.460265	0.706162	-0.605743	-1.409160	0.731300	-0.601127	-1.436214	0.667461	-0.599543	-1.390779	0.690211	-0.602288	-1.274945	0.472266	-0.543268	-1.271937	0.488839	-0.437837	-1.330447	0.351320	-0.556576	-1.284488	0.351173	-0.551796	-1.331318	0.298990	-0.551419	-1.286271	0.297362	-0.546199	-1.311367	0.097308	-0.487796	-1.287057	0.120416	-0.405546	-1.188626	0.049928	-0.512690	-1.176757	0.070313	-0.403548	-1.119178	0.102683	-0.461433	-1.368747	0.062739	-0.432112	-1.332453	1.320340	-0.301424	-1.367513	1.345993	-0.619894	
6	0.0250	-1.423371	0.882370	-0.330324	-1.427974	0.876861	-0.562774	-1.590717	0.917900	-0.383249	-1.592090	0.912435	-0.479922	-1.499490	0.688890	-0.267263	-1.448329	0.691004	-0.286911	-1.501122	0.651744	-0.268601	-1.451140	0.654796	-0.284018	-1.493229	0.407571	-0.298586	-1.509398	0.380007	-0.404965	-1.650027	0.414244	-0.285067	-1.634457	0.360341	-0.305428	-1.695223	0.405357	-0.296303	-1.682689	0.357574	-0.308903	-1.882900	0.370716	-0.360271	-1.856297	0.321824	-0.433814	-1.969718	0.250523	-0.330391	-1.937802	0.213797	-0.432736	-1.930162	0.160371	-0.365652	-1.909657	0.408449	-0.428162	-1.444737	0.704633	-0.604517	-1.393594	0.729585	-0.599939	-1.420848	0.665842	-0.598219	-1.375433	0.688460	-0.600971	-1.261129	0.469257	-0.542322	-1.257547	0.485907	-0.436885	-1.319202	0.349899	-0.555309	-1.273485	0.348508	-0.550476	-1.321642	0.297773	-0.550111	-1.276844	0.294943	-0.544805	-1.308674	0.096752	-0.486364	-1.283676	0.118780	-0.403807	-1.187319	0.047775	-0.512288	-1.174819	0.066177	-0.402513	-1.116177	0.096966	-0.459976	-1.367491	0.063197	-0.430976	-1.316668	1.318458	-0.299790	-1.349901	1.343527	-0.618871	
7	0.0300	-1.406544	0.880256	-0.329189	-1.411502	0.875508	-0.562042	-1.574369	0.915540	-0.381746	-1.575703	0.910784	-0.478492	-1.479083	0.687109	-0.265617	-1.427938	0.690315	-0.285257	-1.479757	0.649944	-0.266595	-1.429693	0.654202	-0.282020	-1.464830	0.406788	-0.295953	-1.480601	0.378740	-0.402237	-1.621055	0.413668	-0.282113	-1.605639	0.359418	-0.302648	-1.666395	0.405135	-0.292877	-1.653912	0.356833	-0.305967	-1.854389	0.370916	-0.357145	-1.827869	0.321443	-0.430316	-1.940139	0.250717	-0.325544	-1.909035	0.213017	-0.427854	-1.900485	0.160122	-0.360182	-1.881747	0.408273	-0.425188	-1.429077	0.703119	-0.603270	-1.377887	0.727840	-0.598737	-1.405390	0.664220	-0.596881	-1.359986	0.686660	-0.599642	-1.247409	0.466161	-0.541324	-1.243267	0.482873	-0.435877	-1.308078	0.348439	-0.554020	-1.262613	0.345801	-0.549128	-1.312084	0.296533	-0.548781	-1.267556	0.292500	-0.543390	-1.306116	0.096245	-0.484955	-1.280456	0.117220	-0.402086	-1.186084	0.045738	-0.511905	-1.172987	0.062233	-0.401519	-1.113331	0.091495	-0.458573	-1.366375	0.063626	-0.429867	-1.300736	1.316656	-0.298110	-1.332085	1.341174	-0.617784	
8	0.0350	-1.389522	0.878247	-0.328050	-1.394813	0.874229	-0.561303	-1.557810	0.913294	-0.380261	-1.559095	0.909233	-0.477073	-1.458425	0.685516	-0.263963	-1.407324	0.689856	-0.283616	-1.458121	0.648358	-0.264588	-1.407999	0.653856	-0.280041	-1.435989	0.406383	-0.293410	-1.451386	0.377867	-0.399608	-1.591640	0.413268	-0.279232	-1.576297	0.358685	-0.299896	-1.637120	0.405003	-0.289509	-1.624617	0.356208	-0.303029	-1.825460	0.370838	-0.353916	-1.798959	0.320878	-0.426756	-1.909862	0.250475	-0.320607	-1.879525	0.211895	-0.422902	-1.869912	0.159552	-0.354699	-1.853554	0.407775	-0.422070	-1.413286	0.701634	-0.602001	-1.362038	0.726072	-0.597518	-1.389846	0.662608	-0.595528	-1.344440	0.684818	-0.598296	-1.233821	0.462982	-0.540270	-1.229139	0.479733	-0.434807	-1.297111	0.346946	-0.552708	-1.251912	0.343064	-0.547752	-1.302677	0.295280	-0.547428	-1.258442	0.290048	-0.541952	-1.303707	0.095804	-0.483577	-1.277418	0.115759	-0.400392	-1.184934	0.043831	-0.511542	-1.171282	0.058508	-0.400572	-1.110671	0.086314	-0.457233	-1.365409	0.064040	-0.428790	-1.284665	1.314959	-0.296377	-1.314059	1.338967	-0.616622	
9	0.0400	-1.372300	0.876369	-0.326906	-1.377895	0.873041	-0.560551	-1.541028	0.911187	-0.378796	-1.542254	0.907803	-0.475671	-1.437513	0.684148	-0.262304	-1.386486	0.689666	-0.281994	-1.436210	0.647027	-0.262586	-1.386056	0.653798	-0.278088	-1.406705	0.406415	-0.290971	-1.421752	0.377447	-0.397095	-1.561777	0.413066	-0.276439	-1.546412	0.358173	-0.297181	-1.607389	0.404969	-0.286215	-1.594784	0.355716	-0.300097	-1.796088	0.370436	-0.350581	-1.769537	0.320096	-0.423135	-1.878823	0.249745	-0.315586	-1.849198	0.210394	-0.417889	-1.838354	0.158633	-0.349222	-1.825065	0.406894	-0.418797	-1.397361	0.700192	-0.600706	-1.346044	0.724290	-0.596274	-1.374218	0.661019	-0.594160	-1.328797	0.682940	-0.596929	-1.220400	0.459726	-0.539158	-1.215204	0.476491	-0.433669	-1.286334	0.345433	-0.551374	-1.241415	0.340307	-0.546348	-1.293449	0.294028	-0.546052	-1.249533	0.287600	-0.540496	-1.301456	0.095451	-0.482237	-1.274572	0.114416	-0.398732	-1.183882	0.042065	-0.511201	-1.169723	0.055024	-0.399679	-1.108223	0.081458	-0.455963	-1.364596	0.064461	-0.427752	-1.268459	1.313396	-0.294587	-1.295818	1.336937	-0.615376	
10	0.0450	-1.354872	0.874648	-0.325755	-1.360736	0.871961	-0.559783	-1.524016	0.909243	-0.377357	-1.525170	0.906514	-0.474288	-1.416344	0.683039	-0.260642	-1.365428	0.689783	-0.280394	-1.414023	0.645989	-0.260596	-1.363869	0.654067	-0.276169	-1.376986	0.406940	-0.288651	-1.391709	0.377539	-0.394715	-1.531468	0.413082	-0.273748	-1.515972	0.357909	-0.294511	-1.577198	0.405042	-0.283008	-1.564397	0.355373	-0.297178	-1.766253	0.369665	-0.347136	-1.739574	0.319068	-0.419455	-1.846958	0.248479	-0.310488	-1.817985	0.208482	-0.412826	-1.805731	0.157345	-0.343770	-1.796266	0.405570	-0.415362	-1.381297	0.698808	-0.599384	-1.329900	0.722506	-0.595000	-1.358506	0.659470	-0.592775	-1.313056	0.681038	-0.595535	-1.207173	0.456403	-0.537985	-1.201493	0.473153	-0.432459	-1.275774	0.343913	-0.550018	-1.231149	0.337548	-0.544919	-1.284426	0.292793	-0.544653	-1.240854	0.285176	-0.539022	-1.299366	0.095207	-0.480939	-1.271924	0.113213	-0.397113	-1.182940	0.040448	-0.510882	-1.168325	0.051797	-0.398844	-1.106010	0.076956	-0.454772	-1.363930	0.064916	-0.426756	-1.252124	1.311995	-0.292737	-1.277358	1.335113	-0.614036	
11	0.0500	-1.337231	0.873110	-0.324594	-1.343325	0.871006	-0.558991	-1.506764	0.907486	-0.375945	-1.507832	0.905387	-0.472929	-1.394920	0.682221	-0.258980	-1.344154	0.690239	-0.278821	-1.391563	0.645279	-0.258622	-1.341445	0.654699	-0.274289	-1.346848	0.408004	-0.286463	-1.361273	0.378190	-0.392479	-1.500724	0.413329	-0.271172	-1.484977	0.357918	-0.291895	-1.546554	0.405225	-0.279901	-1.533452	0.355191	-0.294281	-1.735935	0.368485	-0.343581	-1.709049	0.317767	-0.415721	-1.814216	0.246639	-0.305326	-1.785826	0.206135	-0.407729	-1.771977	0.155673	-0.338364	-1.767142	0.403748	-0.411759	-1.365091	0.697499	-0.598032	-1.313602	0.720734	-0.593690	-1.342710	0.657977	-0.591373	-1.297215	0.679124	-0.594107	-1.194164	0.453025	-0.536751	-1.188035	0.469726	-0.431174	-1.265452	0.342403	-0.548641	-1.221137	0.334806	-0.543470	-1.275624	0.291593	-0.543234	-1.232422	0.282797	-0.537536	-1.297431	0.095094	-0.479690	-1.269472	0.112169	-0.395544	-1.182117	0.038983	-0.510585	-1.167101	0.048836	-0.398070	-1.104052	0.072830	-0.453663	-1.363399	0.065434	-0.425806	-1.235668	1.310785	-0.290824	-1.258676	1.333526	-0.612595	
12	0.0550	-1.319376	0.871782	-0.323421	-1.325655	0.870193	-0.558170	-1.489268	0.905936	-0.374565	-1.490235	0.904440	-0.471596	-1.373248	0.681724	-0.257320	-1.322673	0.691064	-0.277277	-1.368838	0.644929	-0.256672	-1.318794	0.655725	-0.272456	-1.316324	0.409645	-0.284414	-1.330475	0.379440	-0.390397	-1.469565	0.413818	-0.268721	-1.453438	0.358218	-0.289341	-1.515469	0.405519	-0.276904	-1.501954	0.355180	-0.291413	-1.705120	0.366857	-0.339918	-1.677947	0.316169	-0.411938	-1.780551	0.244199	-0.300115	-1.752673	0.203341	-0.402616	-1.737041	0.153618	-0.333029	-1.737678	0.401376	-0.407986	-1.348738	0.696283	-0.596649	-1.297147	0.718989	-0.592337	-1.326828	0.656559	-0.589953	-1.281273	0.677216	-0.592639	-1.181390	0.449613	-0.535458	-1.174853	0.466226	-0.429815	-1.255382	0.340925	-0.547246	-1.211392	0.332101	-0.542004	-1.267055	0.290452	-0.541795	-1.224250	0.280487	-0.536041	-1.295640	0.095137	-0.478494	-1.267203	0.111303	-0.394032	-1.181420	0.037672	-0.510308	-1.166061	0.046147	-0.397358	-1.102361	0.069091	-0.452641	-1.362982	0.066053	-0.424906	-1.219100	1.309792	-0.288845	-1.239773	1.332203	-0.611045	
13	0.0600	-1.301307	0.870685	-0.322232	-1.307722	0.869536	-0.557314	-1.471526	0.904615	-0.373218	-1.472377	0.903690	-0.470290	-1.351339	0.681571	-0.255668	-1.300999	0.692280	-0.275767	-1.345863	0.644964	-0.254752	-1.295934	0.657167	-0.270674	-1.285454	0.411894	-0.282513	-1.299355	0.381318	-0.388477	-1.438024	0.414552	-0.266402	-1.421378	0.358825	-0.286855	-1.483970	0.405919	-0.274026	-1.469921	0.355347	-0.288583	-1.673799	0.364751	-0.336152	-1.646260	0.314254	-0.408115	-1.745932	0.241144	-0.294878	-1.718490	0.200097	-0.397509	-1.700889	0.151187	-0.327792	-1.707861	0.398405	-0.404046	-1.332236	0.695176	-0.595235	-1.280531	0.717289	-0.590934	-1.310859	0.655235	-0.588515	-1.265227	0.675332	-0.591126	-1.168862	0.446187	-0.534111	-1.161961	0.462673	-0.428382	-1.245574	0.339501	-0.545835	-1.201923	0.329461	-0.540529	-1.258724	0.289394	-0.540341	-1.216341	0.278273	-0.534544	-1.293974	0.095358	-0.477354	-1.265098	0.110635	-0.392585	-1.180854	0.036513	-0.510050	-1.165208	0.043728	-0.396709	-1.100946	0.065746	-0.451707	-1.362649	0.066811	-0.424058	-1.202432	1.309042	-0.286801	-1.220652	1.331168	-0.609380	
14	0.0650	-1.283026	0.869842	-0.321026	-1.289526	0.869051	-0.556416	-1.453539	0.903539	-0.371906	-1.454257	0.903152	-0.469014	-1.329211	0.681783	-0.254026	-1.279149	0.693906	-0.274291	-1.322658	0.645407	-0.252869	-1.272887	0.659044	-0.268951	-1.254295	0.414768	-0.280764	-1.267967	0.383842	-0.386722	-1.406144	0.415527	-0.264220	-1.388836	0.359747	-0.284443	-1.452090	0.406419	-0.271272	-1.437384	0.355693	-0.285799	-1.641969	0.362141	-0.332291	-1.613987	0.312004	-0.404262	-1.710336	0.237469	-0.289636	-1.683256	0.196408	-0.392435	-1.663508	0.148399	-0.322680	-1.677679	0.394794	-0.399944	-1.315584	0.694198	-0.593788	-1.263756	0.715656	-0.589477	-1.294801	0.654028	-0.587059	-1.249075	0.673496	-0.589562	-1.156585	0.442774	-0.532714	-1.149366	0.459088	-0.426880	-1.236026	0.338160	-0.544412	-1.192730	0.326913	-0.539051	-1.250629	0.288448	-0.538877	-1.208692	0.276185	-0.533051	-1.292405	0.095784	-0.476275	-1.263130	0.110182	-0.391209	-1.180418	0.035502	-0.509808	-1.164543	0.041575	-0.396121	-1.099811	0.062790	-0.450862	-1.362362	0.067755	-0.423264	-1.185678	1.308559	-0.284691	-1.201323	1.330442	-0.607598	
15	0.0700	-1.264541	0.869273	-0.319799	-1.271070	0.868751	-0.555472	-1.435312	0.902725	-0.370629	-1.435882	0.902839	-0.467768	-1.306884	0.682376	-0.252400	-1.257146	0.695951	-0.272854	-1.299250	0.646273	-0.251031	-1.249682	0.661367	-0.267289	-1.222916	0.418273	-0.279168	-1.236377	0.387018	-0.385133	-1.373977	0.416733	-0.262176	-1.355861	0.360986	-0.282110	-1.419874	0.407005	-0.268646	-1.404385	0.356215	-0.283070	-1.609634	0.359005	-0.328344	-1.581138	0.309408	-0.400389	-1.673757	0.233183	-0.284419	-1.646964	0.192293	-0.387422	-1.624901	0.145286	-0.317724	-1.647122	0.390510	-0.395690	-1.298782	0.693367	-0.592312	-1.246822	0.714110	-0.587961	-1.278652	0.652959	-0.585587	-1.232818	0.671730	-0.587943	-1.144555	0.439406	-0.531276	-1.137069	0.455501	-0.425314	-1.226732	0.336932	-0.542984	-1.183804	0.324489	-0.537580	-1.242759	0.287644	-0.537407	-1.201291	0.274254	-0.531570	-1.290900	0.096439	-0.475261	-1.261262	0.109962	-0.389911	-1.180111	0.034635	-0.509580	-1.164062	0.039678	-0.395593	-1.098955	0.060213	-0.450103	-1.362072	0.068930	-0.422524	-1.168852	1.308365	-0.282517	-1.181798	1.330042	-0.605695	
16	0.0750	-1.245859	0.868992	-0.318550	-1.252363	0.868648	-0.554474	-1.416852	0.902186	-0.369387	-1.417260	0.902762	-0.466553	-1.284387	0.683359	-0.250793	-1.235015	0.698420	-0.271455	-1.275672	0.647570	-0.249243	-1.226350	0.664137	-0.265695	-1.191396	0.422403	-0.277724	-1.204660	0.390838	-0.383706	-1.341586	0.418154	-0.260268	-1.322517	0.362538	-0.279861	-1.387376	0.407660	-0.266148	-1.370975	0.356907	-0.280402	-1.576799	0.355331	-0.324323	-1.547727	0.306458	-0.396511	-1.636198	0.228305	-0.279257	-1.609622	0.187779	-0.382500	-1.585093	0.141887	-0.312955	-1.616179	0.385525	-0.391296	-1.281831	0.692703	-0.590806	-1.229732	0.712675	-0.586385	-1.262412	0.652050	-0.584100	-1.216455	0.670061	-0.586268	-1.132764	0.436115	-0.529806	-1.125059	0.451944	-0.423695	-1.217676	0.335848	-0.541556	-1.175130	0.322224	-0.536125	-1.235097	0.287015	-0.535938	-1.194118	0.272515	-0.530111	-1.289418	0.097347	-0.474313	-1.259451	0.109991	-0.388699	-1.179927	0.033908	-0.509362	-1.163757	0.038028	-0.395122	-1.098371	0.057998	-0.449429	-1.361727	0.070387	-0.421840	-1.151971	1.308476	-0.280284	-1.162093	1.329983	-0.603670	
17	0.0800	-1.226992	0.869015	-0.317276	-1.233415	0.868754	-0.553420	-1.398170	0.901929	-0.368180	-1.398402	0.902930	-0.465367	-1.261751	0.684735	-0.249210	-1.212785	0.701307	-0.270097	-1.251961	0.649299	-0.247514	-1.202929	0.667348	-0.264171	-1.159823	0.427138	-0.276427	-1.172902	0.395283	-0.382437	-1.309042	0.419765	-0.258490	-1.288875	0.364393	-0.277698	-1.354656	0.408363	-0.263775	-1.337220	0.357758	-0.277803	-1.543477	0.351110	-0.320244	-1.513777	0.303149	-0.392639	-1.597673	0.222864	-0.274184	-1.571253	0.182904	-0.377703	-1.544125	0.138251	-0.308405	-1.584841	0.379820	-0.386777	-1.264735	0.692222	-0.589275	-1.212493	0.711374	-0.584747	-1.246078	0.651322	-0.582601	-1.199986	0.668515	-0.584535	-1.121194	0.432938	-0.528317	-1.113319	0.448451	-0.422031	-1.208834	0.334944	-0.540137	-1.166681	0.320153	-0.534699	-1.227617	0.286595	-0.534480	-1.187143	0.271001	-0.528683	-1.287910	0.098534	-0.473436	-1.257647	0.110285	-0.387580	-1.179858	0.033315	-0.509151	-1.163614	0.036612	-0.394702	-1.098047	0.056120	-0.448835	-1.361262	0.072175	-0.421212	-1.135052	1.308908	-0.277994	-1.142227	1.330273	-0.601526	
18	0.0850	-1.207954	0.869349	-0.315978	-1.214241	0.869076	-0.552306	-1.379280	0.901963	-0.367004	-1.379323	0.903347	-0.464209	-1.239009	0.686501	-0.247656	-1.190487	0.704602	-0.268780	-1.228158	0.651454	-0.245850	-1.179455	0.670987	-0.262720	-1.128294	0.432448	-0.275272	-1.141193	0.400318	-0.381316	-1.276419	0.421536	-0.256833	-1.255019	0.366532	-0.275622	-1.321779	0.409088	-0.261520	-1.303188	0.358751	-0.275278	-1.509683	0.346342	-0.316122	-1.479315	0.299485	-0.388789	-1.558209	0.216902	-0.269235	-1.531892	0.177713	-0.373064	-1.502055	0.134435	-0.304104	-1.553100	0.373386	-0.382153	-1.247498	0.691942	-0.587722	-1.195110	0.710232	-0.583049	-1.229650	0.650795	-0.581094	-1.183413	0.667120	-0.582747	-1.109820	0.429913	-0.526821	-1.101822	0.445061	-0.420336	-1.200173	0.334254	-0.538735	-1.158426	0.318311	-0.533313	-1.220284	0.286419	-0.533041	-1.180330	0.269749	-0.527298	-1.286323	0.100022	-0.472631	-1.255794	0.110857	-0.386560	-1.179890	0.032855	-0.508943	-1.163615	0.035417	-0.394330	-1.097967	0.054551	-0.448317	-1.360610	0.074346	-0.420639	-1.118113	1.309669	-0.275653	-1.122222	1.330917	-0.599264	
19	0.0900	-1.188758	0.870000	-0.314654	-1.194858	0.869621	-0.551130	-1.360196	0.902290	-0.365857	-1.360041	0.904015	-0.463076	-1.216199	0.688650	-0.246137	-1.168152	0.708285	-0.267505	-1.204306	0.654024	-0.244255	-1.155971	0.675030	-0.261344	-1.096909	0.438288	-0.274247	-1.109630	0.405897	-0.380330	-1.243796	0.423431	-0.255283	-1.221034	0.368931	-0.273634	-1.288813	0.409804	-0.259374	-1.268957	0.359866	-0.272832	-1.475435	0.341032	-0.311974	-1.444373	0.295470	-0.384975	-1.517841	0.210467	-0.264446	-1.491587	0.172262	-0.368617	-1.458957	0.130503	-0.300083	-1.520947	0.366222	-0.377443	-1.230125	0.691878	-0.586151	-1.177590	0.709271	-0.581294	-1.213125	0.650488	-0.579583	-1.166735	0.665903	-0.580905	-1.098610	0.427078	-0.525333	-1.090532	0.441811	-0.418625	-1.191654	0.333814	-0.537360	-1.150322	0.316736	-0.531978	-1.213058	0.286521	-0.531631	-1.173634	0.268791	-0.525965	-1.284601	0.101833	-0.471900	-1.253830	0.111722	-0.385645	-1.180007	0.032527	-0.508735	-1.163736	0.034433	-0.394000	-1.098109	0.053257	-0.447870	-1.359698	0.076947	-0.420122	-1.101169	1.310766	-0.273267	-1.102102	1.331913	-0.596888	
20	0.0950	-1.169421	0.870968	-0.313305	-1.175287	0.870395	-0.549890	-1.340934	0.902910	-0.364735	-1.340574	0.904935	-0.461964	-1.193358	0.691164	-0.244656	-1.145814	0.712330	-0.266269	-1.180450	0.656986	-0.242735	-1.132517	0.679447	-0.260044	-1.065771	0.444603	-0.273342	-1.078312	0.411962	-0.379464	-1.211255	0.425406	-0.253824	-1.187016	0.371560	-0.271732	-1.255830	0.410478	-0.257326	-1.234607	0.361079	-0.270469	-1.440752	0.335192	-0.307817	-1.408985	0.291115	-0.381212	-1.476611	0.203617	-0.259855	-1.450395	0.166609	-0.364394	-1.414917	0.126524	-0.296370	-1.488373	0.358335	-0.372668	-1.212621	0.692044	-0.584570	-1.159942	0.708512	-0.579487	-1.196502	0.650417	-0.578074	-1.149953	0.664889	-0.579016	-1.087526	0.424469	-0.523867	-1.079405	0.438741	-0.416914	-1.183230	0.333656	-0.536021	-1.142322	0.315462	-0.530708	-1.205890	0.286934	-0.530262	-1.167005	0.268162	-0.524695	-1.282681	0.103988	-0.471246	-1.251690	0.112891	-0.384840	-1.180188	0.032333	-0.508524	-1.163950	0.033649	-0.393707	-1.098448	0.052205	-0.447488	-1.358448	0.080025	-0.419658	-1.084235	1.312198	-0.270843	-1.081894	1.333257	-0.594402	
21	0.1000	-1.149957	0.872251	-0.311932	-1.155546	0.871400	-0.548587	-1.321511	0.903819	-0.363635	-1.320941	0.906102	-0.460870	-1.170524	0.694022	-0.243219	-1.123502	0.716701	-0.265074	-1.156635	0.660314	-0.241294	-1.109133	0.684199	-0.258819	-1.034984	0.451326	-0.272542	-1.047338	0.418444	-0.378701	-1.178873	0.427415	-0.252437	-1.153056	0.374382	-0.269914	-1.222899	0.411074	-0.255360	-1.200221	0.362363	-0.268190	-1.405655	0.328840	-0.303670	-1.373189	0.286434	-0.377513	-1.434572	0.196414	-0.255496	-1.408385	0.160818	-0.360429	-1.370030	0.122567	-0.292991	-1.455370	0.349742	-0.367851	-1.194993	0.692450	-0.582984	-1.142173	0.707976	-0.577637	-1.179777	0.650597	-0.576571	-1.133069	0.664102	-0.577087	-1.076524	0.422123	-0.522439	-1.068390	0.435889	-0.415218	-1.174847	0.333813	-0.534729	-1.134372	0.314521	-0.529514	-1.198726	0.287686	-0.528943	-1.160385	0.267890	-0.523498	-1.280501	0.106504	-0.470668	-1.249309	0.114374	-0.384149	-1.180409	0.032278	-0.508307	-1.164224	0.033059	-0.393445	-1.098951	0.051358	-0.447165	-1.356782	0.083621	-0.419248	-1.067326	1.313962	-0.268388	-1.061624	1.334939	-0.591814	
22	0.1050	-1.130382	0.873841	-0.310538	-1.135659	0.872636	-0.547223	-1.301943	0.905008	-0.362550	-1.301163	0.907510	-0.459789	-1.147735	0.697197	-0.241829	-1.101247	0.721358	-0.263917	-1.132906	0.663973	-0.239934	-1.085857	0.689241	-0.257669	-1.004645	0.458382	-0.271832	-1.016803	0.425265	-0.378021	-1.146729	0.429409	-0.251102	-1.119250	0.377356	-0.268176	-1.190088	0.411554	-0.253461	-1.165881	0.363687	-0.265996	-1.370166	0.321999	-0.299550	-1.337024	0.281447	-0.373892	-1.391781	0.188925	-0.251405	-1.365632	0.154958	-0.356748	-1.324404	0.118704	-0.289970	-1.421931	0.340469	-0.363017	-1.177245	0.693105	-0.581401	-1.124293	0.707679	-0.575752	-1.162948	0.651037	-0.575080	-1.116083	0.663562	-0.575127	-1.065552	0.420070	-0.521063	-1.057432	0.433288	-0.413555	-1.166447	0.334312	-0.533494	-1.126413	0.313943	-0.528407	-1.191509	0.288806	-0.527685	-1.153715	0.268001	-0.522384	-1.277995	0.109395	-0.470169	-1.246619	0.116180	-0.383577	-1.180641	0.032371	-0.508081	-1.164520	0.032659	-0.393208	-1.099585	0.050678	-0.446896	-1.354621	0.087770	-0.418888	-1.050450	1.316046	-0.265908	-1.041319	1.336943	-0.589130	
23	0.1100	-1.110709	0.875725	-0.309124	-1.115647	0.874100	-0.545800	-1.282246	0.906467	-0.361477	-1.281258	0.909148	-0.458716	-1.125024	0.700655	-0.240489	-1.079075	0.726255	-0.262797	-1.109306	0.667923	-0.238657	-1.062725	0.694521	-0.256590	-0.974851	0.465687	-0.271194	-0.986799	0.432338	-0.377405	-1.114895	0.431333	-0.249796	-1.085689	0.380438	-0.266512	-1.157461	0.411879	-0.251609	-1.131668	0.365016	-0.263887	-1.334308	0.314698	-0.295475	-1.300528	0.276174	-0.370361	-1.348301	0.181221	-0.247612	-1.322220	0.149096	-0.353380	-1.278151	0.115007	-0.287324	-1.388047	0.330551	-0.358188	-1.159385	0.694013	-0.579827	-1.106309	0.707633	-0.573843	-1.146012	0.651744	-0.573609	-1.098995	0.663284	-0.573147	-1.054560	0.418341	-0.519755	-1.046469	0.430971	-0.411941	-1.157969	0.335176	-0.532327	-1.118381	0.313751	-0.527397	-1.184175	0.290314	-0.526500	-1.146928	0.268517	-0.521361	-1.275101	0.112672	-0.469748	-1.243552	0.118314	-0.383125	-1.180851	0.032626	-0.507847	-1.164798	0.032449	-0.392994	-1.100310	0.050132	-0.446674	-1.351888	0.092500	-0.418578	-1.033617	1.318437	-0.263412	-1.021003	1.339250	-0.586358	
24	0.1150	-1.090953	0.877888	-0.307695	-1.095532	0.875786	-0.544323	-1.262435	0.908180	-0.360409	-1.261246	0.911002	-0.457644	-1.102426	0.704357	-0.239202	-1.057010	0.731339	-0.261710	-1.085873	0.672119	-0.237460	-1.039769	0.699982	-0.255580	-0.945688	0.473151	-0.270612	-0.957410	0.439569	-0.376829	-1.083439	0.433136	-0.248497	-1.052461	0.383578	-0.264917	-1.125080	0.412009	-0.249787	-1.097661	0.366318	-0.261859	-1.298104	0.306970	-0.291461	-1.263742	0.270640	-0.366932	-1.304203	0.173373	-0.244146	-1.278238	0.143299	-0.350345	-1.231389	0.111542	-0.285068	-1.353716	0.320031	-0.353390	-1.141417	0.695175	-0.578271	-1.088228	0.707849	-0.571922	-1.128965	0.652719	-0.572164	-1.081804	0.663283	-0.571157	-1.043489	0.416955	-0.518527	-1.035436	0.428963	-0.410393	-1.149348	0.336422	-0.531235	-1.110214	0.313963	-0.526493	-1.176662	0.292227	-0.525396	-1.139958	0.269452	-0.520434	-1.271755	0.116344	-0.469405	-1.240045	0.120782	-0.382794	-1.181002	0.033058	-0.507602	-1.165013	0.032433	-0.392797	-1.101082	0.049688	-0.446497	-1.348510	0.097832	-0.418314	-1.016831	1.321115	-0.260906	-1.000704	1.341838	-0.583505	
25	0.1200	-1.071125	0.880308	-0.306255	-1.075334	0.877686	-0.542796	-1.242525	0.910128	-0.359341	-1.241144	0.913058	-0.456570	-1.079970	0.708260	-0.237969	-1.035073	0.736554	-0.260655	-1.062643	0.676509	-0.236343	-1.017016	0.705561	-0.254633	-0.917234	0.480681	-0.270066	-0.928712	0.446862	-0.376272	-1.052420	0.434761	-0.247181	-1.019648	0.386725	-0.263385	-1.092999	0.411908	-0.247975	-1.063931	0.367556	-0.259909	-1.261580	0.298853	-0.287527	-1.226706	0.264873	-0.363615	-1.259562	0.165451	-0.241031	-1.233780	0.137630	-0.347661	-1.184242	0.108370	-0.283211	-1.318936	0.308960	-0.348645	-1.123346	0.696586	-0.576739	-1.070058	0.708330	-0.570002	-1.111803	0.653960	-0.570750	-1.064511	0.663563	-0.569172	-1.032284	0.415929	-0.517392	-1.024268	0.427285	-0.408925	-1.140519	0.338063	-0.530229	-1.101845	0.314593	-0.525701	-1.168903	0.294553	-0.524381	-1.132741	0.270816	-0.519609	-1.267898	0.120411	-0.469139	-1.236036	0.123584	-0.382583	-1.181054	0.033688	-0.507348	-1.165114	0.032620	-0.392615	-1.101855	0.049317	-0.446359	-1.344416	0.103778	-0.418094	-1.000096	1.324056	-0.258398	-0.980444	1.344680	-0.580582	
26	0.1250	-1.051235	0.882963	-0.304808	-1.055073	0.879788	-0.541225	-1.222529	0.912290	-0.358268	-1.220970	0.915294	-0.455487	-1.057680	0.712316	-0.236790	-1.013280	0.741841	-0.259628	-1.039647	0.681039	-0.235300	-0.994490	0.711192	-0.253745	-0.889555	0.488181	-0.269540	-0.900771	0.454116	-0.375714	-1.021893	0.436159	-0.245829	-0.987325	0.389828	-0.261907	-1.061268	0.411539	-0.246157	-1.030549	0.368695	-0.258034	-1.224766	0.290388	-0.283687	-1.189464	0.258902	-0.360420	-1.214460	0.157526	-0.238287	-1.188946	0.132151	-0.345341	-1.136834	0.105547	-0.281758	-1.283712	0.297395	-0.343979	-1.105177	0.698241	-0.575239	-1.051804	0.709076	-0.568096	-1.094522	0.655458	-0.569375	-1.047113	0.664126	-0.567204	-1.020886	0.415272	-0.516359	-1.012899	0.425950	-0.407550	-1.131418	0.340102	-0.529315	-1.093210	0.315645	-0.525025	-1.160835	0.297294	-0.523463	-1.125209	0.272609	-0.518889	-1.263477	0.124873	-0.468946	-1.231471	0.126718	-0.382491	-1.180962	0.034538	-0.507085	-1.165051	0.033021	-0.392446	-1.102576	0.048997	-0.446260	-1.339548	0.110338	-0.417914	-0.983410	1.327231	-0.255894	-0.960247	1.347746	-0.577597	
27	0.1300	-1.031293	0.885823	-0.303359	-1.034769	0.882078	-0.539617	-1.202458	0.914640	-0.357184	-1.200739	0.917689	-0.454389	-1.035579	0.716476	-0.235664	-0.991645	0.747137	-0.258627	-1.016913	0.685651	-0.234328	-0.972209	0.716810	-0.252909	-0.862706	0.495552	-0.269017	-0.873641	0.461233	-0.375132	-0.991902	0.437279	-0.244422	-0.955559	0.392835	-0.260476	-1.029930	0.410869	-0.244317	-0.997575	0.369700	-0.256228	-1.187693	0.281620	-0.279956	-1.152059	0.252757	-0.357354	-1.168984	0.149663	-0.235928	-1.143840	0.126913	-0.343393	-1.089293	0.103117	-0.280707	-1.248055	0.285402	-0.339413	-1.086913	0.700125	-0.573777	-1.033472	0.710081	-0.566218	-1.077118	0.657202	-0.568043	-1.029610	0.664969	-0.565265	-1.009240	0.414985	-0.515436	-1.001267	0.424965	-0.406278	-1.121981	0.342535	-0.528499	-1.084246	0.317116	-0.524467	-1.152395	0.300445	-0.522647	-1.117301	0.274827	-0.518273	-1.258442	0.129723	-0.468824	-1.226300	0.130181	-0.382513	-1.180678	0.035634	-0.506816	-1.164768	0.033651	-0.392291	-1.103192	0.048709	-0.446196	-1.333850	0.117503	-0.417770	-0.966771	1.330609	-0.253399	-0.940131	1.351005	-0.574559	
28	0.1350	-1.011307	0.888858	-0.301914	-1.014437	0.884537	-0.537979	-1.182324	0.917151	-0.356085	-1.180464	0.920218	-0.453274	-1.013684	0.720688	-0.234590	-0.970176	0.752379	-0.257646	-0.994460	0.690287	-0.233417	-0.950185	0.722345	-0.252116	-0.836727	0.502702	-0.268480	-0.847364	0.468115	-0.374508	-0.962484	0.438077	-0.242943	-0.924408	0.395694	-0.259086	-0.999023	0.409872	-0.242442	-0.965066	0.370537	-0.254487	-1.150399	0.272596	-0.276349	-1.114537	0.246470	-0.354424	-1.123230	0.141924	-0.233962	-1.098570	0.121962	-0.341817	-1.041747	0.101116	-0.280050	-1.211985	0.273052	-0.334972	-1.068557	0.702223	-0.572360	-1.015064	0.711332	-0.564379	-1.059587	0.659173	-0.566760	-1.011999	0.666079	-0.563369	-0.997291	0.415061	-0.514629	-0.989311	0.424328	-0.405119	-1.112150	0.345350	-0.527785	-1.074895	0.318996	-0.524028	-1.143525	0.303992	-0.521936	-1.108958	0.277455	-0.517759	-1.252750	0.134950	-0.468769	-1.220478	0.133965	-0.382643	-1.180149	0.037001	-0.506544	-1.164208	0.034527	-0.392149	-1.103646	0.048442	-0.446168	-1.327279	0.125254	-0.417658	-0.950174	1.334154	-0.250920	-0.920116	1.354422	-0.571478	
29	0.1400	-0.991283	0.892036	-0.300476	-0.994094	0.887146	-0.536318	-1.162137	0.919790	-0.354966	-1.160158	0.922854	-0.452135	-0.992008	0.724896	-0.233562	-0.948878	0.757503	-0.256683	-0.972305	0.694886	-0.232561	-0.928428	0.727730	-0.251360	-0.811648	0.509537	-0.267917	-0.821969	0.474669	-0.373826	-0.933670	0.438513	-0.241382	-0.893922	0.398356	-0.257729	-0.968580	0.408522	-0.240522	-0.933071	0.371175	-0.252806	-1.112928	0.263365	-0.272880	-1.076949	0.240073	-0.351638	-1.077299	0.134366	-0.232392	-1.053248	0.117335	-0.340611	-0.994327	0.099566	-0.279774	-1.175533	0.260419	-0.330677	-1.050112	0.704513	-0.570991	-0.996584	0.712815	-0.562591	-1.041925	0.661349	-0.565529	-0.994278	0.667441	-0.561526	-0.984990	0.415485	-0.513939	-0.976976	0.424029	-0.404077	-1.101870	0.348530	-0.527175	-1.065103	0.321265	-0.523703	-1.134170	0.307914	-0.521330	-1.100125	0.280473	-0.517344	-1.246365	0.140537	-0.468776	-1.213972	0.138060	-0.382873	-1.179320	0.038666	-0.506273	-1.163312	0.035668	-0.392023	-1.103875	0.048193	-0.446178	-1.319804	0.133562	-0.417573	-0.933613	1.337828	-0.248460	-0.900219	1.357963	-0.568363	
30	0.1450	-0.971227	0.895320	-0.299052	-0.973752	0.889880	-0.534641	-1.141905	0.922527	-0.353823	-1.139832	0.925567	-0.450969	-0.970560	0.729047	-0.232577	-0.927755	0.762448	-0.255734	-0.950459	0.699388	-0.231747	-0.906939	0.732900	-0.250631	-0.787481	0.515973	-0.267314	-0.797473	0.480808	-0.373072	-0.905481	0.438553	-0.239730	-0.864140	0.400776	-0.256401	-0.938627	0.406803	-0.238552	-0.901633	0.371587	-0.251180	-1.075331	0.253979	-0.269562	-1.039348	0.233599	-0.349000	-1.031303	0.127037	-0.231215	-1.007992	0.113059	-0.339764	-0.947162	0.098480	-0.279861	-1.138738	0.247583	-0.326552	-1.031580	0.706969	-0.569675	-0.978032	0.714506	-0.560864	-1.024128	0.663702	-0.564353	-0.976445	0.669031	-0.559745	-0.972290	0.416235	-0.513367	-0.964213	0.424053	-0.403155	-1.091091	0.352045	-0.526670	-1.054820	0.323899	-0.523488	-1.124281	0.312180	-0.520830	-1.090756	0.283853	-0.517019	-1.239257	0.146463	-0.468838	-1.206754	0.142451	-0.383196	-1.178134	0.040655	-0.506009	-1.162020	0.037094	-0.391916	-1.103816	0.047963	-0.446226	-1.311401	0.142385	-0.417508	-0.917081	1.341591	-0.246023	-0.880452	1.361590	-0.565222	
31	0.1500	-0.951144	0.898672	-0.297645	-0.953423	0.892714	-0.532955	-1.121637	0.925325	-0.352653	-1.119496	0.928327	-0.449773	-0.949343	0.733088	-0.231628	-0.906803	0.767154	-0.254792	-0.928928	0.703734	-0.230965	-0.885720	0.737790	-0.249920	-0.764227	0.521932	-0.266664	-0.773877	0.486454	-0.372235	-0.877932	0.438171	-0.237985	-0.835094	0.402912	-0.255097	-0.909189	0.404702	-0.236530	-0.870789	0.371747	-0.249607	-1.037669	0.244490	-0.266409	-1.001795	0.227078	-0.346518	-0.985358	0.119982	-0.230422	-0.962920	0.109150	-0.339263	-0.900383	0.097854	-0.280288	-1.101658	0.234628	-0.322617	-1.012960	0.709563	-0.568413	-0.959411	0.716379	-0.559206	-1.006192	0.666202	-0.563234	-0.958496	0.670823	-0.558036	-0.959149	0.417281	-0.512910	-0.950980	0.424374	-0.402351	-1.079768	0.355863	-0.526268	-1.044003	0.326864	-0.523375	-1.113815	0.316756	-0.520431	-1.080808	0.287559	-0.516778	-1.231407	0.152704	-0.468949	-1.198804	0.147122	-0.383599	-1.176530	0.042992	-0.505758	-1.160269	0.038821	-0.391834	-1.103403	0.047760	-0.446317	-1.302061	0.151676	-0.417458	-0.900567	1.345403	-0.243612	-0.860828	1.365268	-0.562066	
32	0.1550	-0.931040	0.902055	-0.296259	-0.933118	0.895618	-0.531266	-1.101341	0.928148	-0.351452	-1.099158	0.931102	-0.448545	-0.928359	0.736966	-0.230708	-0.886021	0.771565	-0.253855	-0.907710	0.707869	-0.230203	-0.864764	0.742342	-0.249215	-0.741871	0.527343	-0.265959	-0.751173	0.491538	-0.371307	-0.851032	0.437349	-0.236149	-0.806806	0.404726	-0.253814	-0.880285	0.402216	-0.234459	-0.840571	0.371635	-0.248084	-1.000010	0.234951	-0.263433	-0.964357	0.220542	-0.344195	-0.939593	0.113237	-0.229996	-0.918158	0.105613	-0.339088	-0.854120	0.097674	-0.281025	-1.064361	0.221637	-0.318895	-0.994253	0.712260	-0.567207	-0.940717	0.718403	-0.557622	-0.988114	0.668812	-0.562172	-0.940427	0.672784	-0.556402	-0.945532	0.418586	-0.512562	-0.937240	0.424961	-0.401662	-1.067865	0.359943	-0.525966	-1.032616	0.330119	-0.523353	-1.102734	0.321598	-0.520129	-1.070245	0.291550	-0.516609	-1.222798	0.159231	-0.469100	-1.190109	0.152054	-0.384072	-1.174444	0.045696	-0.505527	-1.158000	0.040867	-0.391782	-1.102567	0.047598	-0.446454	-1.291784	0.161376	-0.417416	-0.884064	1.349221	-0.241229	-0.841358	1.368958	-0.558903	
33	0.1600	-0.910917	0.905429	-0.294895	-0.912843	0.898561	-0.529579	-1.081026	0.930960	-0.350219	-1.078826	0.933857	-0.447282	-0.907604	0.740631	-0.229806	-0.865401	0.775628	-0.252915	-0.886803	0.711738	-0.229447	-0.844062	0.746504	-0.248507	-0.720389	0.532149	-0.265195	-0.729337	0.496004	-0.370287	-0.824784	0.436075	-0.234232	-0.779288	0.406187	-0.252551	-0.851933	0.399347	-0.232348	-0.811005	0.371234	-0.246611	-0.962436	0.225414	-0.260647	-0.927106	0.214021	-0.342039	-0.894143	0.106830	-0.229918	-0.873834	0.102444	-0.339215	-0.808503	0.097912	-0.282042	-1.026930	0.208695	-0.315406	-0.975457	0.715027	-0.566054	-0.921949	0.720543	-0.556116	-0.969891	0.671496	-0.561164	-0.922233	0.674877	-0.554849	-0.931406	0.420111	-0.512314	-0.922967	0.425780	-0.401082	-1.055349	0.364239	-0.525758	-1.020628	0.333620	-0.523411	-1.091007	0.326658	-0.519915	-1.059040	0.295780	-0.516501	-1.213424	0.166009	-0.469283	-1.180665	0.157222	-0.384600	-1.171814	0.048785	-0.505323	-1.155150	0.043242	-0.391768	-1.101239	0.047497	-0.446643	-1.280583	0.171420	-0.417377	-0.867560	1.353003	-0.238875	-0.822047	1.372627	-0.555741	
34	0.1650	-0.890780	0.908754	-0.293555	-0.892607	0.901511	-0.527899	-1.060698	0.933723	-0.348952	-1.058507	0.936559	-0.445983	-0.887072	0.744037	-0.228915	-0.844936	0.779297	-0.251967	-0.866197	0.715295	-0.228684	-0.823603	0.750228	-0.247785	-0.699743	0.536300	-0.264372	-0.708335	0.499805	-0.369173	-0.799185	0.434349	-0.232245	-0.752547	0.407268	-0.251308	-0.824148	0.396103	-0.230210	-0.782113	0.370532	-0.245189	-0.925037	0.215932	-0.258064	-0.890123	0.207543	-0.340054	-0.849152	0.100783	-0.230161	-0.830079	0.099626	-0.339618	-0.763662	0.098528	-0.283302	-0.989466	0.195889	-0.312171	-0.956570	0.717823	-0.564954	-0.903103	0.722762	-0.554686	-0.951517	0.674213	-0.560209	-0.903910	0.677063	-0.553375	-0.916748	0.421808	-0.512156	-0.908139	0.426788	-0.400601	-1.042196	0.368700	-0.525638	-1.008014	0.337316	-0.523535	-1.078610	0.331883	-0.519782	-1.047169	0.300198	-0.516441	-1.203282	0.173004	-0.469490	-1.170472	0.162601	-0.385171	-1.168574	0.052269	-0.505154	-1.151660	0.045956	-0.391798	-1.099345	0.047479	-0.446889	-1.268476	0.181736	-0.417332	-0.851047	1.356707	-0.236549	-0.802902	1.376237	-0.552590	
35	0.1700	-0.870633	0.911991	-0.292239	-0.872413	0.904434	-0.526230	-1.040365	0.936400	-0.347650	-1.038206	0.939175	-0.444648	-0.866755	0.747143	-0.228022	-0.824616	0.782533	-0.251004	-0.845880	0.718494	-0.227902	-0.803372	0.753475	-0.247036	-0.679885	0.539761	-0.263491	-0.688122	0.502912	-0.367970	-0.774231	0.432176	-0.230207	-0.726581	0.407950	-0.250090	-0.796942	0.392501	-0.228062	-0.753911	0.369523	-0.243822	-0.887914	0.206557	-0.255697	-0.853498	0.201134	-0.338248	-0.804770	0.095110	-0.230696	-0.787028	0.097136	-0.340265	-0.719725	0.099471	-0.284768	-0.952082	0.183300	-0.309209	-0.937588	0.720610	-0.563900	-0.884175	0.725020	-0.553332	-0.932989	0.676923	-0.559302	-0.885451	0.679300	-0.551980	-0.901535	0.423629	-0.512076	-0.892741	0.427941	-0.400207	-1.028386	0.373273	-0.525595	-0.994755	0.341153	-0.523712	-1.065523	0.337219	-0.519718	-1.034616	0.304753	-0.516417	-1.192377	0.180176	-0.469711	-1.159536	0.168163	-0.385770	-1.164656	0.056151	-0.505029	-1.147468	0.049011	-0.391880	-1.096812	0.047572	-0.447199	-1.255495	0.192248	-0.417276	-0.834515	1.360294	-0.234252	-0.783926	1.379756	-0.549458	
36	0.1750	-0.850480	0.915102	-0.290945	-0.852264	0.907295	-0.524573	-1.020035	0.938955	-0.346310	-1.017928	0.941670	-0.443275	-0.846638	0.749911	-0.227117	-0.804430	0.785303	-0.250019	-0.825836	0.721300	-0.227087	-0.783352	0.756214	-0.246249	-0.660756	0.542509	-0.262557	-0.668645	0.505305	-0.366687	-0.749911	0.429571	-0.228140	-0.701382	0.408220	-0.248900	-0.770328	0.388563	-0.225925	-0.726414	0.368202	-0.242515	-0.851178	0.197338	-0.253557	-0.817327	0.194820	-0.336627	-0.761155	0.089818	-0.231488	-0.744817	0.094938	-0.341124	-0.676821	0.100680	-0.286400	-0.914907	0.171009	-0.306540	-0.918506	0.723347	-0.562888	-0.865156	0.727277	-0.552049	-0.914301	0.679582	-0.558436	-0.866847	0.681545	-0.550659	-0.885750	0.425525	-0.512058	-0.876765	0.429193	-0.399887	-1.013904	0.377902	-0.525622	-0.980837	0.345076	-0.523924	-1.051733	0.342608	-0.519714	-1.021368	0.309388	-0.516416	-1.180713	0.187483	-0.469936	-1.147868	0.173875	-0.386383	-1.159996	0.060429	-0.504956	-1.142518	0.052403	-0.392024	-1.093567	0.047802	-0.447578	-1.241676	0.202877	-0.417201	-0.817955	1.363726	-0.231982	-0.765120	1.383150	-0.546352	
37	0.1800	-0.830323	0.918051	-0.289671	-0.832161	0.910059	-0.522931	-0.999714	0.941352	-0.344932	-0.997676	0.944012	-0.441865	-0.826710	0.752310	-0.226189	-0.784368	0.787581	-0.249005	-0.806045	0.723680	-0.226227	-0.763524	0.758420	-0.245414	-0.642293	0.544531	-0.261577	-0.649840	0.506981	-0.365334	-0.726214	0.426557	-0.226069	-0.676936	0.408071	-0.247746	-0.744318	0.384318	-0.223824	-0.699632	0.366573	-0.241275	-0.814950	0.188323	-0.251658	-0.781712	0.188623	-0.335199	-0.718469	0.084908	-0.232501	-0.703583	0.092993	-0.342161	-0.635075	0.102085	-0.288158	-0.878081	0.159094	-0.304180	-0.899317	0.725994	-0.561911	-0.846040	0.729493	-0.550827	-0.895447	0.682151	-0.557604	-0.848091	0.683755	-0.549405	-0.869383	0.427444	-0.512087	-0.860207	0.430496	-0.399626	-0.998741	0.382532	-0.525707	-0.966249	0.349028	-0.524158	-1.037230	0.347991	-0.519755	-1.007419	0.314048	-0.516425	-1.168301	0.194882	-0.470158	-1.135478	0.179706	-0.386998	-1.154526	0.065089	-0.504944	-1.136752	0.056120	-0.392236	-1.089535	0.048197	-0.448032	-1.227058	0.213541	-0.417103	-0.801357	1.366965	-0.229738	-0.746481	1.386390	-0.543281	
38	0.1850	-0.810167	0.920803	-0.288409	-0.812102	0.912692	-0.521304	-0.979409	0.943561	-0.343516	-0.977454	0.946171	-0.440417	-0.806952	0.754315	-0.225225	-0.764416	0.789351	-0.247954	-0.786485	0.725611	-0.225311	-0.743868	0.760080	-0.244518	-0.624423	0.545831	-0.260562	-0.631640	0.507949	-0.363926	-0.703125	0.423163	-0.224024	-0.653224	0.407502	-0.246637	-0.718924	0.379800	-0.221787	-0.673572	0.364643	-0.240110	-0.779357	0.179559	-0.250011	-0.746764	0.182563	-0.333971	-0.676876	0.080374	-0.233695	-0.663464	0.091254	-0.343341	-0.594609	0.103610	-0.290003	-0.841755	0.147626	-0.302145	-0.880014	0.728510	-0.560959	-0.826816	0.731628	-0.549658	-0.876419	0.684588	-0.556798	-0.829171	0.685889	-0.548209	-0.852421	0.429338	-0.512147	-0.843067	0.431804	-0.399406	-0.982889	0.387107	-0.525837	-0.950985	0.352954	-0.524398	-1.022008	0.353314	-0.519832	-0.992764	0.318679	-0.516433	-1.155152	0.202329	-0.470368	-1.122380	0.185618	-0.387600	-1.148182	0.070114	-0.505000	-1.130115	0.060144	-0.392525	-1.084641	0.048783	-0.448567	-1.211685	0.224157	-0.416976	-0.784712	1.369980	-0.227518	-0.728006	1.389446	-0.540253	
39	0.1900	-0.790012	0.923326	-0.287156	-0.792085	0.915161	-0.519689	-0.959126	0.945549	-0.342060	-0.957263	0.948117	-0.438932	-0.787348	0.755906	-0.224215	-0.744561	0.790603	-0.246856	-0.767132	0.727077	-0.224329	-0.724362	0.761188	-0.243552	-0.607072	0.546419	-0.259521	-0.613970	0.508231	-0.362480	-0.680629	0.419426	-0.222035	-0.630223	0.406521	-0.245583	-0.694156	0.375048	-0.219842	-0.648241	0.362422	-0.239031	-0.744532	0.171087	-0.248626	-0.712595	0.176661	-0.332950	-0.636541	0.076207	-0.235031	-0.624595	0.089669	-0.344629	-0.555543	0.105175	-0.291895	-0.806089	0.136672	-0.300448	-0.860585	0.730859	-0.560024	-0.807472	0.733644	-0.548530	-0.857209	0.686858	-0.556008	-0.810076	0.687908	-0.547060	-0.834859	0.431162	-0.512221	-0.825348	0.433074	-0.399213	-0.966344	0.391574	-0.526002	-0.935038	0.356801	-0.524630	-1.006064	0.358520	-0.519930	-0.977399	0.323229	-0.516431	-1.141275	0.209777	-0.470559	-1.108586	0.191574	-0.388179	-1.140899	0.075473	-0.505131	-1.122553	0.064448	-0.392898	-1.078811	0.049584	-0.449187	-1.195602	0.234643	-0.416816	-0.768010	1.372742	-0.225318	-0.709688	1.392295	-0.537275	
40	0.1950	-0.769862	0.925594	-0.285902	-0.772105	0.917434	-0.518085	-0.938869	0.947293	-0.340564	-0.937102	0.949826	-0.437410	-0.767877	0.757073	-0.223147	-0.724789	0.791338	-0.245704	-0.747960	0.728069	-0.223274	-0.704983	0.761748	-0.242504	-0.590161	0.546322	-0.258468	-0.596754	0.507860	-0.361014	-0.658710	0.415386	-0.220132	-0.607909	0.405138	-0.244594	-0.670025	0.370103	-0.218017	-0.623641	0.359924	-0.238049	-0.710611	0.162947	-0.247513	-0.679323	0.170932	-0.332144	-0.597626	0.072391	-0.236469	-0.587108	0.088186	-0.345993	-0.517988	0.106699	-0.293797	-0.771247	0.126290	-0.299101	-0.841020	0.733006	-0.559094	-0.787997	0.735508	-0.547428	-0.837805	0.688924	-0.555223	-0.790792	0.689774	-0.545945	-0.816690	0.432872	-0.512290	-0.807053	0.434263	-0.399028	-0.949104	0.395883	-0.526189	-0.918404	0.360516	-0.524839	-0.989396	0.363559	-0.520038	-0.961324	0.327646	-0.516408	-1.126679	0.217181	-0.470724	-1.094104	0.197535	-0.388725	-1.132614	0.081131	-0.505345	-1.114015	0.068999	-0.393360	-1.071971	0.050617	-0.449897	-1.178851	0.244921	-0.416620	-0.751242	1.375225	-0.223136	-0.691518	1.394913	-0.534355	
41	0.2000	-0.749715	0.927581	-0.284638	-0.752154	0.919484	-0.516488	-0.918640	0.948767	-0.339027	-0.916969	0.951273	-0.435851	-0.748519	0.757810	-0.222013	-0.705087	0.791562	-0.244488	-0.728941	0.728587	-0.222138	-0.685710	0.761771	-0.241366	-0.573610	0.545571	-0.257416	-0.579911	0.506881	-0.359550	-0.637349	0.411090	-0.218346	-0.586252	0.403371	-0.243684	-0.646541	0.365013	-0.216343	-0.599774	0.357169	-0.237175	-0.677731	0.155176	-0.246678	-0.647066	0.165393	-0.331560	-0.560289	0.068907	-0.237969	-0.551128	0.086751	-0.347399	-0.482053	0.108100	-0.295677	-0.737395	0.116532	-0.298110	-0.821305	0.734918	-0.558159	-0.768374	0.737189	-0.546340	-0.818195	0.690757	-0.554432	-0.771304	0.691458	-0.544852	-0.797910	0.434434	-0.512339	-0.788186	0.435337	-0.398834	-0.931167	0.399989	-0.526385	-0.901079	0.364055	-0.525013	-0.972002	0.368384	-0.520146	-0.944535	0.331887	-0.516359	-1.111368	0.224492	-0.470859	-1.078943	0.203461	-0.389228	-1.123267	0.087041	-0.505646	-1.104451	0.073756	-0.393917	-1.064048	0.051896	-0.450698	-1.161469	0.254914	-0.416387	-0.734398	1.377409	-0.220970	-0.673486	1.397280	-0.531498	
42	0.2050	-0.729571	0.929269	-0.283353	-0.732222	0.921285	-0.514893	-0.898441	0.949955	-0.337449	-0.896862	0.952440	-0.434254	-0.729254	0.758120	-0.220804	-0.685439	0.791292	-0.243199	-0.710047	0.728636	-0.220919	-0.666518	0.761276	-0.240129	-0.557340	0.544211	-0.256379	-0.563365	0.505344	-0.358107	-0.616529	0.406586	-0.216705	-0.565223	0.401242	-0.242864	-0.623714	0.359823	-0.214845	-0.576640	0.354176	-0.236420	-0.646027	0.147806	-0.246128	-0.615940	0.160055	-0.331202	-0.524676	0.065735	-0.239493	-0.516775	0.085313	-0.348819	-0.447833	0.109299	-0.297502	-0.704698	0.107442	-0.297481	-0.801424	0.736570	-0.557206	-0.748590	0.738661	-0.545249	-0.798365	0.692332	-0.553623	-0.751595	0.692931	-0.543766	-0.778513	0.435816	-0.512351	-0.768750	0.436264	-0.398617	-0.912530	0.403851	-0.526579	-0.883058	0.367376	-0.525141	-0.953882	0.372952	-0.520243	-0.927029	0.335911	-0.516278	-1.095345	0.231664	-0.470959	-1.063103	0.209309	-0.389681	-1.112798	0.093151	-0.506039	-1.093812	0.078669	-0.394571	-1.054970	0.053427	-0.451592	-1.143491	0.264548	-0.416115	-0.717466	1.379280	-0.218816	-0.655577	1.399380	-0.528713	
43	0.2100	-0.709427	0.930642	-0.282037	-0.712298	0.922815	-0.513295	-0.878270	0.950843	-0.335827	-0.876774	0.953313	-0.432620	-0.710058	0.758011	-0.219513	-0.665831	0.790548	-0.241831	-0.691249	0.728231	-0.219613	-0.647384	0.760291	-0.238788	-0.541275	0.542291	-0.255372	-0.547039	0.503310	-0.356706	-0.596233	0.401927	-0.215237	-0.544791	0.398777	-0.242146	-0.601553	0.354582	-0.213549	-0.554238	0.350970	-0.235796	-0.615626	0.140865	-0.245864	-0.586056	0.154931	-0.331076	-0.490925	0.062851	-0.241006	-0.484157	0.083823	-0.350226	-0.415419	0.110222	-0.299248	-0.673315	0.099056	-0.297212	-0.781362	0.737938	-0.556223	-0.728626	0.739904	-0.544140	-0.778300	0.693629	-0.552785	-0.731647	0.694173	-0.542673	-0.758494	0.436997	-0.512311	-0.748747	0.437021	-0.398361	-0.893191	0.407437	-0.526758	-0.864334	0.370445	-0.525213	-0.935033	0.377229	-0.520320	-0.908803	0.339682	-0.516162	-1.078607	0.238651	-0.471024	-1.046581	0.215038	-0.390081	-1.101150	0.099401	-0.506526	-1.082051	0.083686	-0.395323	-1.044669	0.055209	-0.452579	-1.124942	0.273756	-0.415807	-0.700433	1.380825	-0.216672	-0.637775	1.401201	-0.526006	
44	0.2150	-0.689276	0.931692	-0.280677	-0.692367	0.924059	-0.511689	-0.858124	0.951422	-0.334162	-0.856697	0.953880	-0.430947	-0.690909	0.757500	-0.218135	-0.646246	0.789362	-0.240374	-0.672517	0.727392	-0.218223	-0.628286	0.758849	-0.237337	-0.525343	0.539866	-0.254406	-0.530860	0.500842	-0.355367	-0.576442	0.397163	-0.213964	-0.524926	0.396004	-0.241541	-0.580063	0.349337	-0.212475	-0.532563	0.347577	-0.235313	-0.586650	0.134376	-0.245887	-0.557522	0.150032	-0.331183	-0.459157	0.060231	-0.242476	-0.453372	0.082237	-0.351596	-0.384886	0.110804	-0.300891	-0.643394	0.091399	-0.297299	-0.761101	0.739008	-0.555200	-0.708464	0.740904	-0.542998	-0.757982	0.694634	-0.551906	-0.711441	0.695171	-0.541558	-0.737848	0.437961	-0.512204	-0.728175	0.437592	-0.398052	-0.873146	0.410718	-0.526912	-0.844900	0.373233	-0.525222	-0.915452	0.381185	-0.520369	-0.889847	0.343172	-0.516010	-1.061145	0.245406	-0.471051	-1.029366	0.220605	-0.390424	-1.088271	0.105726	-0.507107	-1.069123	0.088748	-0.396173	-1.033076	0.057232	-0.453654	-1.105841	0.282475	-0.415466	-0.683288	1.382042	-0.214536	-0.620062	1.402734	-0.523381	
45	0.2200	-0.669112	0.932415	-0.279261	-0.672414	0.925003	-0.510067	-0.837995	0.951690	-0.332451	-0.836621	0.954137	-0.429235	-0.671784	0.756607	-0.216666	-0.626669	0.787766	-0.238823	-0.653822	0.726147	-0.216748	-0.609199	0.756988	-0.235774	-0.509477	0.536996	-0.253496	-0.514762	0.498008	-0.354107	-0.557141	0.392348	-0.212906	-0.505600	0.392957	-0.241058	-0.559252	0.344137	-0.211640	-0.511612	0.344023	-0.234979	-0.559206	0.128361	-0.246192	-0.530433	0.145366	-0.331524	-0.429476	0.057849	-0.243874	-0.424502	0.080519	-0.352910	-0.356298	0.110988	-0.302414	-0.615073	0.084489	-0.297732	-0.740623	0.739769	-0.554124	-0.688087	0.741653	-0.541809	-0.737395	0.695340	-0.550974	-0.690958	0.695917	-0.540410	-0.716568	0.438702	-0.512017	-0.707031	0.437968	-0.397678	-0.852390	0.413674	-0.527030	-0.824744	0.375722	-0.525162	-0.895134	0.384798	-0.520385	-0.870154	0.346358	-0.515822	-1.042944	0.251885	-0.471043	-1.011443	0.225968	-0.390709	-1.074110	0.112058	-0.507782	-1.054982	0.093794	-0.397119	-1.020128	0.059479	-0.454815	-1.086195	0.290648	-0.415094	-0.666015	1.382930	-0.212405	-0.602418	1.403973	-0.520845	
46	0.2250	-0.648925	0.932813	-0.277778	-0.652421	0.925643	-0.508422	-0.817874	0.951648	-0.330694	-0.816534	0.954082	-0.427481	-0.652661	0.755359	-0.215106	-0.607084	0.785801	-0.237173	-0.635138	0.724529	-0.215196	-0.590104	0.754751	-0.234097	-0.493616	0.533742	-0.252650	-0.498685	0.494876	-0.352943	-0.538312	0.387531	-0.212074	-0.486783	0.389669	-0.240705	-0.539122	0.339026	-0.211054	-0.491379	0.340337	-0.234800	-0.533388	0.122833	-0.246771	-0.504875	0.140943	-0.332094	-0.401966	0.055682	-0.245178	-0.397613	0.078640	-0.354151	-0.329704	0.110729	-0.303805	-0.588470	0.078335	-0.298498	-0.719909	0.740216	-0.552985	-0.667475	0.742149	-0.540561	-0.716519	0.695746	-0.549980	-0.670178	0.696410	-0.539216	-0.694649	0.439222	-0.511740	-0.685310	0.438149	-0.397228	-0.830917	0.416294	-0.527102	-0.803856	0.377897	-0.525027	-0.874074	0.388051	-0.520361	-0.849710	0.349224	-0.515598	-1.023986	0.258043	-0.471001	-0.992789	0.231085	-0.390936	-1.058619	0.118323	-0.508547	-1.039588	0.098758	-0.398154	-1.005764	0.061926	-0.456054	-1.066005	0.298224	-0.414699	-0.648600	1.383496	-0.210277	-0.584823	1.404918	-0.518402	
47	0.2300	-0.628702	0.932894	-0.276215	-0.632367	0.925977	-0.506749	-0.797748	0.951305	-0.328888	-0.796420	0.953722	-0.425685	-0.633519	0.753788	-0.213455	-0.587474	0.783508	-0.235420	-0.616436	0.722573	-0.213571	-0.570978	0.752185	-0.232308	-0.477711	0.530169	-0.251878	-0.482577	0.491513	-0.351888	-0.519943	0.382761	-0.211479	-0.468450	0.386176	-0.240487	-0.519676	0.334046	-0.210725	-0.471857	0.336548	-0.234780	-0.509272	0.117803	-0.247612	-0.480918	0.136771	-0.332888	-0.376686	0.053705	-0.246367	-0.372756	0.076579	-0.355308	-0.305137	0.109993	-0.305056	-0.563686	0.072938	-0.299575	-0.698940	0.740353	-0.551773	-0.646610	0.742399	-0.539242	-0.695336	0.695857	-0.548914	-0.649083	0.696657	-0.537964	-0.672083	0.439532	-0.511361	-0.663003	0.438141	-0.396693	-0.808720	0.418571	-0.527120	-0.782223	0.379755	-0.524815	-0.852264	0.390937	-0.520294	-0.828503	0.351762	-0.515342	-1.004247	0.263838	-0.470929	-0.973379	0.235915	-0.391107	-1.041757	0.124448	-0.509398	-1.022899	0.103577	-0.399273	-0.989927	0.064539	-0.457363	-1.045261	0.305157	-0.414286	-0.631026	1.383753	-0.208153	-0.567255	1.405572	-0.516056	
48	0.2350	-0.608429	0.932670	-0.274562	-0.612235	0.926011	-0.505041	-0.777603	0.950673	-0.327033	-0.776264	0.953065	-0.423845	-0.614335	0.751929	-0.211716	-0.567824	0.780932	-0.233563	-0.597693	0.720322	-0.211881	-0.551804	0.749338	-0.230411	-0.461717	0.526336	-0.251186	-0.466399	0.487983	-0.350952	-0.502018	0.378083	-0.211122	-0.450578	0.382513	-0.240406	-0.500911	0.329238	-0.210651	-0.453038	0.332685	-0.234919	-0.486917	0.113279	-0.248700	-0.458619	0.132856	-0.333896	-0.353673	0.051898	-0.247427	-0.349961	0.074326	-0.356370	-0.282613	0.108762	-0.306164	-0.540798	0.068290	-0.300940	-0.677701	0.740189	-0.550480	-0.625477	0.742414	-0.537843	-0.673830	0.695686	-0.547766	-0.627654	0.696671	-0.536647	-0.648865	0.439648	-0.510874	-0.640101	0.437959	-0.396065	-0.785794	0.420507	-0.527074	-0.759832	0.381299	-0.524523	-0.829698	0.393454	-0.520180	-0.806517	0.353968	-0.515055	-0.983701	0.269230	-0.470832	-0.953180	0.240422	-0.391225	-1.023485	0.130360	-0.510326	-1.004879	0.108186	-0.400467	-0.972567	0.067279	-0.458731	-1.023947	0.311409	-0.413864	-0.613278	1.383717	-0.206031	-0.549692	1.405944	-0.513810	
49	0.2400	-0.588092	0.932162	-0.272811	-0.592002	0.925756	-0.503291	-0.757422	0.949771	-0.325126	-0.756049	0.952127	-0.421958	-0.595091	0.749821	-0.209895	-0.548119	0.778121	-0.231603	-0.578886	0.717820	-0.210138	-0.532563	0.746258	-0.228412	-0.445604	0.522306	-0.250580	-0.450118	0.484347	-0.350142	-0.484526	0.373539	-0.211000	-0.433146	0.378716	-0.240463	-0.482825	0.324634	-0.210827	-0.434913	0.328777	-0.235214	-0.466360	0.109263	-0.250014	-0.438014	0.129205	-0.335105	-0.332938	0.050241	-0.248350	-0.329238	0.071878	-0.357334	-0.262130	0.107031	-0.307129	-0.519858	0.064376	-0.302564	-0.656176	0.739740	-0.549097	-0.604059	0.742212	-0.536357	-0.651985	0.695251	-0.546530	-0.605878	0.696473	-0.535258	-0.624991	0.439597	-0.510271	-0.616595	0.437627	-0.395338	-0.762133	0.422111	-0.526958	-0.736671	0.382538	-0.524151	-0.806370	0.395605	-0.520019	-0.783738	0.355846	-0.514740	-0.962317	0.274182	-0.470713	-0.932158	0.244567	-0.391296	-1.003772	0.135986	-0.511324	-0.985493	0.112524	-0.401723	-0.953640	0.070103	-0.460145	-1.002040	0.316947	-0.413440	-0.595340	1.383412	-0.203913	-0.532113	1.406043	-0.511667	
50	0.2450	-0.567674	0.931392	-0.270954	-0.571650	0.925229	-0.501495	-0.737186	0.948620	-0.323168	-0.735758	0.950927	-0.420023	-0.575770	0.747504	-0.207998	-0.528345	0.775121	-0.229543	-0.559995	0.715111	-0.208350	-0.513242	0.742994	-0.226320	-0.429349	0.518133	-0.250059	-0.433716	0.480660	-0.349462	-0.467458	0.369166	-0.211103	-0.416139	0.374822	-0.240652	-0.465413	0.320268	-0.211240	-0.417471	0.324852	-0.235660	-0.447614	0.105753	-0.251530	-0.419122	0.125826	-0.336498	-0.314465	0.048715	-0.249130	-0.310577	0.069244	-0.358197	-0.243670	0.104809	-0.307958	-0.500892	0.061177	-0.304412	-0.634352	0.739027	-0.547618	-0.582344	0.741816	-0.534779	-0.629790	0.694577	-0.545200	-0.583741	0.696088	-0.533791	-0.600459	0.439410	-0.509548	-0.592477	0.437171	-0.394508	-0.737735	0.423398	-0.526765	-0.712731	0.383488	-0.523699	-0.782275	0.397401	-0.519809	-0.760153	0.357405	-0.514401	-0.940067	0.278658	-0.470578	-0.910280	0.248318	-0.391322	-0.982594	0.141260	-0.512380	-0.964713	0.116534	-0.403029	-0.933109	0.072962	-0.461590	-0.979510	0.321744	-0.413022	-0.577197	1.382865	-0.201798	-0.514498	1.405887	-0.509628	
51	0.2500	-0.547158	0.930390	-0.268986	-0.551161	0.924452	-0.499647	-0.716878	0.947249	-0.321155	-0.715372	0.949491	-0.418038	-0.556357	0.745019	-0.206033	-0.508490	0.771977	-0.227389	-0.541007	0.712243	-0.206529	-0.493829	0.739594	-0.224147	-0.412944	0.513872	-0.249624	-0.417186	0.476970	-0.348911	-0.450805	0.364994	-0.211417	-0.399543	0.370864	-0.240968	-0.448667	0.316164	-0.211872	-0.400702	0.320938	-0.236247	-0.430672	0.102743	-0.253221	-0.401943	0.122724	-0.338055	-0.298212	0.047307	-0.249768	-0.293948	0.066440	-0.358960	-0.227196	0.102118	-0.308657	-0.483902	0.058664	-0.306448	-0.612221	0.738077	-0.546041	-0.560325	0.741255	-0.533109	-0.607234	0.693692	-0.543771	-0.561237	0.695546	-0.532244	-0.575273	0.439123	-0.508701	-0.567740	0.436627	-0.393571	-0.712600	0.424389	-0.526488	-0.688007	0.384175	-0.523167	-0.757413	0.398857	-0.519548	-0.735753	0.358660	-0.514040	-0.916924	0.282626	-0.470433	-0.887513	0.251645	-0.391309	-0.959934	0.146116	-0.513482	-0.942517	0.120162	-0.404370	-0.910950	0.075806	-0.463051	-0.956328	0.325779	-0.412620	-0.558837	1.382107	-0.199690	-0.496831	1.405495	-0.507694	
52	0.2550	-0.526530	0.929186	-0.266905	-0.530521	0.923452	-0.497744	-0.696478	0.945687	-0.319089	-0.694878	0.947847	-0.416001	-0.536842	0.742410	-0.204011	-0.488548	0.768734	-0.225151	-0.521909	0.709261	-0.204688	-0.474319	0.736103	-0.221905	-0.396389	0.509569	-0.249271	-0.400533	0.473319	-0.348484	-0.434561	0.361052	-0.211923	-0.383351	0.366876	-0.241401	-0.432576	0.312344	-0.212703	-0.384595	0.317061	-0.236962	-0.415505	0.100226	-0.255056	-0.386456	0.119905	-0.339753	-0.284113	0.046003	-0.250269	-0.279299	0.063490	-0.359625	-0.212652	0.098996	-0.309237	-0.468860	0.056806	-0.308633	-0.589780	0.736921	-0.544361	-0.537998	0.740561	-0.531345	-0.584316	0.692630	-0.542241	-0.538363	0.694881	-0.530617	-0.549440	0.438777	-0.507730	-0.542386	0.436033	-0.392527	-0.686735	0.425108	-0.526122	-0.662498	0.384624	-0.522556	-0.731788	0.399992	-0.519236	-0.710533	0.359629	-0.513657	-0.892865	0.286061	-0.470283	-0.863827	0.254523	-0.391261	-0.935788	0.150500	-0.514616	-0.918890	0.123362	-0.405730	-0.887148	0.078584	-0.464509	-0.932464	0.329039	-0.412241	-0.540250	1.381171	-0.197591	-0.479098	1.404890	-0.505864	
53	0.2600	-0.505777	0.927818	-0.264710	-0.509717	0.922261	-0.495785	-0.675972	0.943969	-0.316967	-0.674263	0.946025	-0.413911	-0.517218	0.739718	-0.201943	-0.468511	0.765434	-0.222838	-0.502699	0.706212	-0.202837	-0.454710	0.732563	-0.219610	-0.379698	0.505268	-0.248994	-0.383775	0.469740	-0.348176	-0.418725	0.357360	-0.212597	-0.367558	0.362888	-0.241937	-0.417130	0.308823	-0.213704	-0.369138	0.313247	-0.237791	-0.402061	0.098189	-0.257002	-0.372621	0.117375	-0.341565	-0.272078	0.044796	-0.250640	-0.266560	0.060426	-0.360199	-0.199967	0.095491	-0.309711	-0.455715	0.055568	-0.310924	-0.567032	0.735597	-0.542579	-0.515366	0.739769	-0.529491	-0.561039	0.691428	-0.540607	-0.515124	0.694132	-0.528911	-0.522977	0.438416	-0.506635	-0.516418	0.435429	-0.391374	-0.660155	0.425585	-0.525663	-0.636213	0.384868	-0.521867	-0.705412	0.400830	-0.518874	-0.684497	0.360337	-0.513254	-0.867874	0.288939	-0.470131	-0.839202	0.256930	-0.391183	-0.910161	0.154360	-0.515766	-0.893830	0.126096	-0.407093	-0.861702	0.081247	-0.465946	-0.907892	0.331515	-0.411893	-0.521430	1.380097	-0.195504	-0.461290	1.404098	-0.504138	
54	0.2650	-0.484890	0.926321	-0.262404	-0.488746	0.920914	-0.493768	-0.655346	0.942130	-0.314792	-0.653518	0.944062	-0.411768	-0.497485	0.736983	-0.199840	-0.448382	0.762116	-0.220465	-0.483375	0.703138	-0.200989	-0.435004	0.729014	-0.217278	-0.362895	0.501005	-0.248785	-0.366939	0.466262	-0.347975	-0.403295	0.353934	-0.213411	-0.352165	0.358930	-0.242560	-0.402315	0.305614	-0.214845	-0.354321	0.309519	-0.238714	-0.390268	0.096616	-0.259025	-0.360380	0.115138	-0.343464	-0.261996	0.043677	-0.250892	-0.255643	0.057285	-0.360687	-0.189055	0.091659	-0.310094	-0.444388	0.054912	-0.313279	-0.543985	0.734141	-0.540695	-0.492437	0.738918	-0.527551	-0.537413	0.690125	-0.538872	-0.491532	0.693338	-0.527130	-0.495908	0.438083	-0.505416	-0.489852	0.434858	-0.390115	-0.632884	0.425851	-0.525107	-0.609170	0.384944	-0.521103	-0.678305	0.401397	-0.518459	-0.657658	0.360808	-0.512831	-0.841945	0.291243	-0.469983	-0.813625	0.258852	-0.391079	-0.883074	0.157656	-0.516917	-0.867345	0.128333	-0.408439	-0.834628	0.083746	-0.467343	-0.882591	0.333205	-0.411580	-0.502377	1.378923	-0.193434	-0.443404	1.403147	-0.502513	
55	0.2700	-0.463866	0.924735	-0.259994	-0.467608	0.919447	-0.491694	-0.634595	0.940206	-0.312563	-0.632640	0.941993	-0.409570	-0.477649	0.734244	-0.197716	-0.428167	0.758815	-0.218046	-0.463947	0.700081	-0.199155	-0.415212	0.725490	-0.214929	-0.346014	0.496811	-0.248635	-0.350066	0.462904	-0.347869	-0.388275	0.350784	-0.214336	-0.337176	0.355029	-0.243255	-0.388120	0.302722	-0.216093	-0.340131	0.305898	-0.239711	-0.380039	0.095489	-0.261088	-0.349659	0.113197	-0.345418	-0.253737	0.042642	-0.251038	-0.246444	0.054108	-0.361098	-0.179814	0.087568	-0.310399	-0.434782	0.054797	-0.315655	-0.520659	0.732595	-0.538712	-0.469231	0.738045	-0.525534	-0.513459	0.688761	-0.537037	-0.467608	0.692538	-0.525280	-0.468267	0.437823	-0.504078	-0.462712	0.434363	-0.388751	-0.604955	0.425942	-0.524449	-0.581399	0.384888	-0.520264	-0.650500	0.401722	-0.517992	-0.630041	0.361071	-0.512385	-0.815085	0.292962	-0.469840	-0.787096	0.260280	-0.390951	-0.854564	0.160358	-0.518052	-0.839459	0.130051	-0.409751	-0.805961	0.086040	-0.468681	-0.856551	0.334113	-0.411309	-0.483098	1.377688	-0.191385	-0.425444	1.402069	-0.500988	
56	0.2750	-0.442706	0.923098	-0.257487	-0.446311	0.917899	-0.489567	-0.613715	0.938236	-0.310284	-0.611634	0.939856	-0.407319	-0.457721	0.731537	-0.195584	-0.407876	0.755563	-0.215600	-0.444431	0.697078	-0.197343	-0.395351	0.722022	-0.212581	-0.329100	0.492714	-0.248532	-0.333205	0.459678	-0.347842	-0.373671	0.347917	-0.215340	-0.322599	0.351211	-0.244000	-0.374529	0.300150	-0.217415	-0.326558	0.302406	-0.240760	-0.371268	0.094788	-0.263157	-0.340367	0.111554	-0.347399	-0.247156	0.041687	-0.251094	-0.238844	0.050937	-0.361439	-0.172134	0.083288	-0.310641	-0.426780	0.055181	-0.318011	-0.497080	0.731000	-0.536636	-0.445774	0.737188	-0.523449	-0.489206	0.687377	-0.535107	-0.443384	0.691772	-0.523367	-0.440102	0.437678	-0.502626	-0.435037	0.433986	-0.387286	-0.576417	0.425892	-0.523690	-0.552943	0.384738	-0.519353	-0.622040	0.401834	-0.517471	-0.601684	0.361158	-0.511915	-0.787315	0.294088	-0.469704	-0.759632	0.261208	-0.390802	-0.824685	0.162445	-0.519155	-0.810213	0.131238	-0.411011	-0.775753	0.088091	-0.469941	-0.829775	0.334250	-0.411082	-0.463606	1.376432	-0.189364	-0.407418	1.400894	-0.499558	
57	0.2800	-0.421421	0.921450	-0.254896	-0.424875	0.916311	-0.487389	-0.592716	0.936257	-0.307955	-0.590512	0.937689	-0.405017	-0.437722	0.728895	-0.193455	-0.387532	0.752385	-0.213146	-0.424849	0.694162	-0.195565	-0.375447	0.718637	-0.210253	-0.312207	0.488733	-0.248465	-0.316414	0.456594	-0.347879	-0.359491	0.345334	-0.216390	-0.308447	0.347496	-0.244775	-0.361530	0.297893	-0.218774	-0.313591	0.299060	-0.241838	-0.363839	0.094489	-0.265196	-0.332402	0.110211	-0.349373	-0.242094	0.040812	-0.251075	-0.232715	0.047816	-0.361718	-0.165891	0.078895	-0.310834	-0.420247	0.056022	-0.320307	-0.473287	0.729398	-0.534472	-0.422102	0.736385	-0.521305	-0.464694	0.686012	-0.533087	-0.418901	0.691078	-0.521401	-0.411473	0.437686	-0.501065	-0.406875	0.433765	-0.385726	-0.547328	0.425736	-0.522826	-0.523861	0.384533	-0.518371	-0.592983	0.401765	-0.516897	-0.572642	0.361097	-0.511417	-0.758674	0.294626	-0.469576	-0.731266	0.261641	-0.390633	-0.793512	0.163905	-0.520209	-0.779669	0.131891	-0.412201	-0.744082	0.089868	-0.471104	-0.802281	0.333636	-0.410901	-0.443924	1.375195	-0.187375	-0.389347	1.399657	-0.498220	
58	0.2850	-0.400033	0.919826	-0.252234	-0.403326	0.914720	-0.485168	-0.571612	0.934305	-0.305582	-0.569296	0.935529	-0.402667	-0.417681	0.726348	-0.191344	-0.367162	0.749307	-0.210703	-0.405234	0.691365	-0.193828	-0.355531	0.715357	-0.207965	-0.295394	0.484886	-0.248420	-0.299758	0.453653	-0.347961	-0.345748	0.343031	-0.217455	-0.294735	0.343906	-0.245560	-0.349110	0.295947	-0.220138	-0.301223	0.295875	-0.242922	-0.357624	0.094567	-0.267173	-0.325652	0.109164	-0.351312	-0.238388	0.040014	-0.250998	-0.227917	0.044788	-0.361945	-0.160956	0.074464	-0.310992	-0.415040	0.057277	-0.322508	-0.449328	0.727827	-0.532230	-0.398264	0.735669	-0.519116	-0.439977	0.684705	-0.530985	-0.394212	0.690490	-0.519391	-0.382452	0.437882	-0.499405	-0.378295	0.433736	-0.384076	-0.517767	0.425508	-0.521859	-0.494228	0.384310	-0.517321	-0.563404	0.401544	-0.516266	-0.542986	0.360921	-0.510888	-0.729221	0.294582	-0.469454	-0.702052	0.261587	-0.390443	-0.761140	0.164741	-0.521200	-0.747909	0.132018	-0.413306	-0.711048	0.091349	-0.472156	-0.774106	0.332293	-0.410766	-0.424083	1.374012	-0.185426	-0.371257	1.398388	-0.496969	
59	0.2900	-0.378570	0.918260	-0.249517	-0.381705	0.913165	-0.482910	-0.550432	0.932414	-0.303169	-0.548016	0.933411	-0.400274	-0.397636	0.723920	-0.189261	-0.346805	0.746347	-0.208291	-0.385628	0.688710	-0.192138	-0.335646	0.712201	-0.205735	-0.278730	0.481184	-0.248385	-0.283308	0.450854	-0.348072	-0.332455	0.341002	-0.218504	-0.281482	0.340458	-0.246334	-0.337257	0.294301	-0.221473	-0.289443	0.292867	-0.243989	-0.352492	0.094995	-0.269057	-0.319998	0.108410	-0.353187	-0.235867	0.039295	-0.250878	-0.224309	0.041892	-0.362126	-0.157195	0.070070	-0.311126	-0.411004	0.058903	-0.324580	-0.425262	0.726325	-0.529920	-0.374318	0.735071	-0.516895	-0.415117	0.683489	-0.528811	-0.369384	0.690039	-0.517349	-0.353129	0.438294	-0.497653	-0.349376	0.433926	-0.382344	-0.487824	0.425241	-0.520789	-0.464135	0.384102	-0.516206	-0.533391	0.401202	-0.515579	-0.512805	0.360660	-0.510323	-0.699035	0.293972	-0.469338	-0.672065	0.261062	-0.390234	-0.727690	0.164963	-0.522112	-0.715040	0.131635	-0.414309	-0.676778	0.092519	-0.473080	-0.745306	0.330255	-0.410675	-0.404126	1.372919	-0.183522	-0.353184	1.397121	-0.495800	
60	0.2950	-0.357074	0.916784	-0.246764	-0.360060	0.911680	-0.480625	-0.529214	0.930614	-0.300724	-0.526718	0.931370	-0.397844	-0.377634	0.721634	-0.187218	-0.326507	0.743520	-0.205931	-0.366081	0.686220	-0.190502	-0.315841	0.709184	-0.203581	-0.262286	0.477638	-0.248347	-0.267138	0.448195	-0.348193	-0.319629	0.339237	-0.219509	-0.268708	0.337168	-0.247076	-0.325962	0.292941	-0.222749	-0.278246	0.290046	-0.245016	-0.348306	0.095742	-0.270821	-0.315316	0.107942	-0.354970	-0.234360	0.038655	-0.250731	-0.221743	0.039164	-0.362270	-0.154471	0.065782	-0.311247	-0.407983	0.060858	-0.326497	-0.401161	0.724927	-0.527554	-0.350335	0.734617	-0.514656	-0.390192	0.682395	-0.526576	-0.344492	0.689750	-0.515286	-0.323607	0.438945	-0.495821	-0.320217	0.434360	-0.380539	-0.457609	0.424964	-0.519620	-0.433693	0.383941	-0.515029	-0.503052	0.400767	-0.514835	-0.482207	0.360342	-0.509720	-0.668217	0.292820	-0.469225	-0.641403	0.260090	-0.390004	-0.693304	0.164594	-0.522934	-0.681191	0.130767	-0.415199	-0.641422	0.093370	-0.473865	-0.715960	0.327561	-0.410625	-0.384106	1.371943	-0.181671	-0.335173	1.395883	-0.494710	
61	0.3000	-0.335600	0.915424	-0.243996	-0.338454	0.910297	-0.478324	-0.508008	0.928935	-0.298253	-0.505454	0.929434	-0.395385	-0.357731	0.719506	-0.185225	-0.306323	0.740838	-0.203642	-0.346651	0.683910	-0.188924	-0.296174	0.706317	-0.201520	-0.246137	0.474253	-0.248295	-0.251325	0.445667	-0.348309	-0.307289	0.337723	-0.220443	-0.256434	0.334047	-0.247767	-0.315216	0.291852	-0.223940	-0.267624	0.287421	-0.245983	-0.344934	0.096778	-0.272441	-0.311482	0.107751	-0.356639	-0.233701	0.038094	-0.250570	-0.220073	0.036634	-0.362382	-0.152649	0.061666	-0.311361	-0.405818	0.063101	-0.328235	-0.377106	0.723661	-0.525145	-0.326395	0.734329	-0.512414	-0.365289	0.681450	-0.524291	-0.319626	0.689644	-0.513216	-0.294005	0.439847	-0.493922	-0.290931	0.435053	-0.378672	-0.427243	0.424703	-0.518355	-0.403027	0.383852	-0.513796	-0.472510	0.400265	-0.514033	-0.451318	0.359995	-0.509075	-0.636892	0.291156	-0.469111	-0.610186	0.258698	-0.389752	-0.658147	0.163665	-0.523654	-0.646518	0.129448	-0.415965	-0.605161	0.093906	-0.474500	-0.686166	0.324257	-0.410611	-0.364085	1.371112	-0.179878	-0.317278	1.394704	-0.493692	
62	0.3050	-0.314210	0.914202	-0.241232	-0.316959	0.909043	-0.476018	-0.486877	0.927398	-0.295767	-0.484290	0.927631	-0.392905	-0.337993	0.717550	-0.183293	-0.286320	0.738311	-0.201442	-0.327405	0.681792	-0.187409	-0.276712	0.703609	-0.199566	-0.230359	0.471034	-0.248218	-0.235946	0.443267	-0.348404	-0.295454	0.336446	-0.221286	-0.244684	0.331107	-0.248392	-0.305011	0.291015	-0.225023	-0.257574	0.285000	-0.246872	-0.342242	0.098072	-0.273899	-0.308374	0.107823	-0.358174	-0.233729	0.037610	-0.250408	-0.219159	0.034328	-0.362468	-0.151595	0.057777	-0.311477	-0.404358	0.065589	-0.329778	-0.353192	0.722552	-0.522709	-0.302591	0.734223	-0.510184	-0.340507	0.680673	-0.521972	-0.294886	0.689735	-0.511151	-0.264452	0.441009	-0.491967	-0.261647	0.436012	-0.376753	-0.396867	0.424481	-0.517001	-0.372282	0.383859	-0.512510	-0.441904	0.399721	-0.513173	-0.420283	0.359641	-0.508386	-0.605203	0.289019	-0.468992	-0.578560	0.256921	-0.389476	-0.622411	0.162218	-0.524263	-0.611202	0.127719	-0.416598	-0.568196	0.094136	-0.474981	-0.656048	0.320397	-0.410628	-0.344137	1.370445	-0.178151	-0.299562	1.393606	-0.492742	
63	0.3100	-0.292983	0.913135	-0.238494	-0.295658	0.907940	-0.473720	-0.465896	0.926024	-0.293276	-0.463305	0.925982	-0.390415	-0.318493	0.715776	-0.181430	-0.266570	0.735944	-0.199348	-0.308417	0.679875	-0.185957	-0.257529	0.701065	-0.197730	-0.215027	0.467983	-0.248108	-0.221074	0.440986	-0.348466	-0.284145	0.335389	-0.222019	-0.233480	0.328357	-0.248935	-0.295344	0.290412	-0.225979	-0.248089	0.282785	-0.247668	-0.340109	0.099589	-0.275181	-0.305874	0.108142	-0.359557	-0.234292	0.037204	-0.250254	-0.218862	0.032264	-0.362533	-0.151180	0.054164	-0.311599	-0.403455	0.068283	-0.331113	-0.329519	0.721619	-0.520260	-0.279024	0.734306	-0.507981	-0.315957	0.680079	-0.519632	-0.270382	0.690029	-0.509105	-0.235094	0.442428	-0.489972	-0.232506	0.437238	-0.374797	-0.366632	0.424317	-0.515565	-0.341614	0.383978	-0.511179	-0.411386	0.399157	-0.512259	-0.389261	0.359304	-0.507651	-0.573318	0.286452	-0.468866	-0.546687	0.254800	-0.389175	-0.586304	0.160301	-0.524756	-0.575445	0.125626	-0.417093	-0.530755	0.094075	-0.475303	-0.625748	0.316043	-0.410668	-0.324346	1.369957	-0.176496	-0.282093	1.392612	-0.491855	
64	0.3150	-0.272006	0.912235	-0.235804	-0.274645	0.907004	-0.471445	-0.445151	0.924826	-0.290791	-0.442583	0.924505	-0.387929	-0.299313	0.714188	-0.179642	-0.247155	0.733740	-0.197374	-0.289769	0.678161	-0.184573	-0.238703	0.698690	-0.196023	-0.200217	0.465103	-0.247958	-0.206780	0.438818	-0.348485	-0.273383	0.334536	-0.222628	-0.222844	0.325801	-0.249386	-0.286210	0.290020	-0.226794	-0.239166	0.280780	-0.248358	-0.338417	0.101295	-0.276278	-0.303869	0.108690	-0.360778	-0.235250	0.036873	-0.250117	-0.219054	0.030453	-0.362581	-0.151282	0.050865	-0.311729	-0.402974	0.071144	-0.332236	-0.306199	0.720875	-0.517816	-0.255803	0.734584	-0.505819	-0.291756	0.679678	-0.517289	-0.246230	0.690529	-0.507091	-0.206083	0.444094	-0.487952	-0.203663	0.438721	-0.372816	-0.336700	0.424223	-0.514057	-0.311194	0.384219	-0.509809	-0.381124	0.398592	-0.511291	-0.358426	0.359000	-0.506870	-0.541419	0.283507	-0.468728	-0.514754	0.252377	-0.388849	-0.550059	0.157971	-0.525129	-0.539472	0.123221	-0.417448	-0.493086	0.093749	-0.475467	-0.595430	0.311260	-0.410726	-0.304802	1.369656	-0.174918	-0.264946	1.391738	-0.491027	
65	0.3200	-0.251373	0.911508	-0.233183	-0.254017	0.906248	-0.469206	-0.424735	0.923812	-0.288326	-0.422221	0.923211	-0.385459	-0.280538	0.712788	-0.177938	-0.228161	0.731701	-0.195531	-0.271545	0.676651	-0.183256	-0.220319	0.696483	-0.194453	-0.185998	0.462394	-0.247763	-0.193132	0.436759	-0.348451	-0.263186	0.333868	-0.223106	-0.212796	0.323445	-0.249737	-0.277606	0.289819	-0.227462	-0.230801	0.278984	-0.248935	-0.337063	0.103156	-0.277186	-0.302259	0.109445	-0.361829	-0.236477	0.036615	-0.250002	-0.219617	0.028899	-0.362615	-0.151789	0.047906	-0.311870	-0.402792	0.074132	-0.333146	-0.283348	0.720326	-0.515394	-0.233045	0.735052	-0.503713	-0.268027	0.679471	-0.514958	-0.222556	0.691228	-0.505120	-0.177581	0.445991	-0.485923	-0.175279	0.440447	-0.370826	-0.307244	0.424211	-0.512490	-0.281201	0.384589	-0.508411	-0.351291	0.398043	-0.510274	-0.327963	0.358743	-0.506047	-0.509705	0.280238	-0.468575	-0.482960	0.249701	-0.388497	-0.513919	0.155289	-0.525382	-0.503527	0.120561	-0.417664	-0.455453	0.093184	-0.475477	-0.565273	0.306122	-0.410793	-0.285604	1.369547	-0.173423	-0.248203	1.390995	-0.490254	
66	0.3250	-0.231189	0.910955	-0.230651	-0.233883	0.905676	-0.467018	-0.404752	0.922987	-0.285896	-0.402320	0.922106	-0.383020	-0.262260	0.711574	-0.176320	-0.209679	0.729827	-0.193830	-0.253833	0.675339	-0.182008	-0.202464	0.694446	-0.193022	-0.172436	0.459856	-0.247520	-0.180187	0.434806	-0.348360	-0.253575	0.333367	-0.223448	-0.203353	0.321289	-0.249982	-0.269532	0.289785	-0.227976	-0.222990	0.277394	-0.249392	-0.335955	0.105137	-0.277907	-0.300952	0.110382	-0.362707	-0.237863	0.036425	-0.249914	-0.220443	0.027600	-0.362639	-0.152596	0.045306	-0.312020	-0.402800	0.077209	-0.333848	-0.261086	0.719975	-0.513011	-0.210870	0.735701	-0.501677	-0.244901	0.679455	-0.512657	-0.199487	0.692113	-0.503207	-0.149755	0.448094	-0.483902	-0.147523	0.442392	-0.368841	-0.278440	0.424283	-0.510875	-0.251821	0.385086	-0.506993	-0.322068	0.397522	-0.509215	-0.298063	0.358545	-0.505183	-0.478387	0.276706	-0.468404	-0.451518	0.246824	-0.388119	-0.478143	0.152319	-0.525517	-0.467864	0.117702	-0.417745	-0.418133	0.092413	-0.475340	-0.535468	0.300703	-0.410862	-0.266855	1.369625	-0.172015	-0.231944	1.390392	-0.489533	
67	0.3300	-0.211562	0.910572	-0.228227	-0.214350	0.905288	-0.464896	-0.385310	0.922348	-0.283515	-0.382988	0.921194	-0.380628	-0.244573	0.710540	-0.174796	-0.191803	0.728115	-0.192275	-0.236723	0.674221	-0.180830	-0.185227	0.692577	-0.191734	-0.159588	0.457490	-0.247231	-0.167996	0.432956	-0.348211	-0.244563	0.333014	-0.223655	-0.194530	0.319335	-0.250120	-0.261987	0.289896	-0.228340	-0.215730	0.276005	-0.249729	-0.335014	0.107203	-0.278445	-0.299867	0.111474	-0.363414	-0.239314	0.036298	-0.249855	-0.221439	0.026549	-0.362653	-0.153613	0.043069	-0.312180	-0.402907	0.080338	-0.334351	-0.239535	0.719815	-0.510685	-0.189398	0.736517	-0.499722	-0.222505	0.679621	-0.510402	-0.177152	0.693168	-0.501363	-0.122769	0.450371	-0.481905	-0.120563	0.444525	-0.366879	-0.250465	0.424442	-0.509228	-0.223240	0.385705	-0.505567	-0.293640	0.397040	-0.508119	-0.268921	0.358411	-0.504286	-0.447683	0.272974	-0.468213	-0.420649	0.243797	-0.387717	-0.442993	0.149131	-0.525538	-0.432749	0.114704	-0.417698	-0.381411	0.091473	-0.475068	-0.506218	0.295086	-0.410927	-0.248659	1.369882	-0.170698	-0.216255	1.389933	-0.488860	
68	0.3350	-0.192602	0.910351	-0.225926	-0.195527	0.905078	-0.462853	-0.366519	0.921891	-0.281198	-0.364330	0.920471	-0.378298	-0.227568	0.709679	-0.173366	-0.174625	0.726562	-0.190871	-0.220304	0.673285	-0.179721	-0.168695	0.690873	-0.190587	-0.147506	0.455295	-0.246896	-0.156603	0.431209	-0.348003	-0.236164	0.332792	-0.223731	-0.186337	0.317579	-0.250155	-0.254968	0.290130	-0.228558	-0.209013	0.274809	-0.249947	-0.334176	0.109320	-0.278811	-0.298937	0.112693	-0.363955	-0.240750	0.036229	-0.249825	-0.222523	0.025732	-0.362660	-0.154758	0.041192	-0.312346	-0.403037	0.083481	-0.334671	-0.218816	0.719837	-0.508432	-0.168749	0.737481	-0.497859	-0.200967	0.679956	-0.508211	-0.155677	0.694371	-0.499598	-0.096788	0.452789	-0.479950	-0.094566	0.446813	-0.364955	-0.223494	0.424683	-0.507565	-0.195643	0.386437	-0.504144	-0.266187	0.396604	-0.506997	-0.240731	0.358346	-0.503361	-0.417810	0.269106	-0.468002	-0.390577	0.240674	-0.387294	-0.408735	0.145792	-0.525455	-0.398450	0.111626	-0.417533	-0.345571	0.090399	-0.474673	-0.477727	0.289350	-0.410983	-0.231121	1.370305	-0.169474	-0.201216	1.389614	-0.488234	
69	0.3400	-0.174418	0.910279	-0.223764	-0.177521	0.905036	-0.460903	-0.348487	0.921604	-0.278961	-0.346454	0.919928	-0.376047	-0.211337	0.708979	-0.172035	-0.158235	0.725163	-0.189618	-0.204659	0.672520	-0.178683	-0.152951	0.689330	-0.189578	-0.136231	0.453271	-0.246519	-0.146038	0.429565	-0.347739	-0.228388	0.332683	-0.223685	-0.178779	0.316017	-0.250091	-0.248474	0.290465	-0.228640	-0.202835	0.273797	-0.250053	-0.333391	0.111455	-0.279018	-0.298107	0.114009	-0.364341	-0.242111	0.036212	-0.249822	-0.223628	0.025131	-0.362661	-0.155962	0.039664	-0.312517	-0.403131	0.086603	-0.334823	-0.199043	0.720025	-0.506270	-0.149039	0.738569	-0.496100	-0.180409	0.680441	-0.506100	-0.135183	0.695694	-0.497923	-0.071968	0.455306	-0.478051	-0.069694	0.449215	-0.363084	-0.197695	0.425001	-0.505903	-0.169208	0.387267	-0.502737	-0.239883	0.396220	-0.505857	-0.213680	0.358348	-0.502419	-0.388984	0.265167	-0.467771	-0.361520	0.237508	-0.386852	-0.375626	0.142370	-0.525275	-0.365231	0.108523	-0.417262	-0.310895	0.089231	-0.474172	-0.450199	0.283577	-0.411024	-0.214345	1.370877	-0.168345	-0.186907	1.389432	-0.487652	
70	0.3450	-0.157116	0.910341	-0.221752	-0.160434	0.905145	-0.459057	-0.331322	0.921473	-0.276819	-0.329461	0.919554	-0.373890	-0.195963	0.708428	-0.170804	-0.142719	0.723913	-0.188512	-0.189869	0.671911	-0.177715	-0.138074	0.687943	-0.188702	-0.125795	0.451417	-0.246108	-0.136323	0.428028	-0.347426	-0.221238	0.332669	-0.223529	-0.171859	0.314643	-0.249937	-0.242501	0.290879	-0.228599	-0.197185	0.272958	-0.250053	-0.332622	0.113577	-0.279083	-0.297334	0.115393	-0.364582	-0.243350	0.036239	-0.249845	-0.224700	0.024724	-0.362657	-0.157170	0.038463	-0.312689	-0.403148	0.089671	-0.334828	-0.180323	0.720359	-0.504212	-0.130375	0.739755	-0.494451	-0.160944	0.681054	-0.504083	-0.115784	0.697109	-0.496346	-0.048453	0.457882	-0.476226	-0.046096	0.451689	-0.361283	-0.173223	0.425385	-0.504259	-0.144100	0.388176	-0.501360	-0.214893	0.395888	-0.504713	-0.187943	0.358416	-0.501468	-0.361410	0.261221	-0.467522	-0.333692	0.234350	-0.386397	-0.343914	0.138930	-0.525011	-0.333346	0.105449	-0.416901	-0.277646	0.088003	-0.473582	-0.423829	0.277849	-0.411047	-0.198425	1.371574	-0.167313	-0.173399	1.389377	-0.487113	
71	0.3500	-0.140792	0.910518	-0.219898	-0.144356	0.905387	-0.457327	-0.315121	0.921481	-0.274786	-0.313446	0.919333	-0.371843	-0.181524	0.708012	-0.169673	-0.128152	0.722806	-0.187550	-0.176003	0.671444	-0.176816	-0.124132	0.686707	-0.187952	-0.116218	0.449730	-0.245668	-0.127469	0.426599	-0.347070	-0.214714	0.332735	-0.223278	-0.165570	0.313449	-0.249703	-0.237044	0.291353	-0.228450	-0.192053	0.272279	-0.249961	-0.331843	0.115656	-0.279024	-0.296588	0.116814	-0.364696	-0.244438	0.036302	-0.249889	-0.225698	0.024487	-0.362649	-0.158335	0.037563	-0.312859	-0.403061	0.092651	-0.334708	-0.162752	0.720819	-0.502272	-0.112852	0.741010	-0.492920	-0.142674	0.681771	-0.502176	-0.097580	0.698585	-0.494874	-0.026371	0.460473	-0.474488	-0.023906	0.454193	-0.359566	-0.150217	0.425824	-0.502651	-0.120468	0.389146	-0.500024	-0.191364	0.395611	-0.503575	-0.163678	0.358542	-0.500520	-0.335278	0.257328	-0.467256	-0.307288	0.231248	-0.385933	-0.313826	0.135532	-0.524677	-0.303032	0.102452	-0.416463	-0.246072	0.086751	-0.472923	-0.398802	0.272240	-0.411050	-0.183449	1.372373	-0.166376	-0.160756	1.389436	-0.486614	
72	0.3550	-0.125534	0.910791	-0.218208	-0.129368	0.905742	-0.455720	-0.299970	0.921609	-0.272874	-0.298490	0.919248	-0.369917	-0.168086	0.707715	-0.168642	-0.114600	0.721833	-0.186724	-0.163121	0.671103	-0.175989	-0.111184	0.685615	-0.187319	-0.107510	0.448208	-0.245209	-0.119474	0.425280	-0.346681	-0.208812	0.332863	-0.222948	-0.159905	0.312425	-0.249402	-0.232094	0.291868	-0.228211	-0.187427	0.271745	-0.249788	-0.331043	0.117665	-0.278861	-0.295849	0.118244	-0.364698	-0.245355	0.036395	-0.249952	-0.226594	0.024395	-0.362637	-0.159424	0.036932	-0.313025	-0.402857	0.095513	-0.334486	-0.146412	0.721379	-0.500461	-0.096553	0.742307	-0.491511	-0.125685	0.682566	-0.500390	-0.080655	0.700089	-0.493513	-0.005833	0.463037	-0.472850	-0.003238	0.456684	-0.357945	-0.128796	0.426305	-0.501096	-0.098439	0.390154	-0.498743	-0.169422	0.395384	-0.502457	-0.141024	0.358720	-0.499586	-0.310757	0.253546	-0.466978	-0.282483	0.228246	-0.385466	-0.285564	0.132232	-0.524287	-0.274500	0.099577	-0.415968	-0.216393	0.085506	-0.472216	-0.375281	0.266822	-0.411033	-0.169491	1.373249	-0.165535	-0.149031	1.389595	-0.486157	
73	0.3600	-0.111413	0.911139	-0.216686	-0.115535	0.906185	-0.454244	-0.285944	0.921834	-0.271095	-0.284662	0.919278	-0.368125	-0.155701	0.707521	-0.167710	-0.102116	0.720987	-0.186026	-0.151271	0.670870	-0.175231	-0.099277	0.684660	-0.186794	-0.099670	0.446847	-0.244740	-0.112327	0.424075	-0.346269	-0.203519	0.333041	-0.222557	-0.154847	0.311559	-0.249049	-0.227643	0.292405	-0.227900	-0.183289	0.271340	-0.249550	-0.330216	0.119580	-0.278616	-0.295107	0.119655	-0.364607	-0.246095	0.036510	-0.250028	-0.227370	0.024421	-0.362623	-0.160413	0.036536	-0.313184	-0.402535	0.098231	-0.334184	-0.131367	0.722013	-0.498789	-0.081543	0.743614	-0.490228	-0.110044	0.683413	-0.498734	-0.065077	0.701592	-0.492268	0.013076	0.465534	-0.471323	0.015814	0.459119	-0.356431	-0.109055	0.426814	-0.499610	-0.078117	0.391179	-0.497527	-0.149171	0.395207	-0.501372	-0.120092	0.358940	-0.498678	-0.287991	0.249926	-0.466691	-0.259427	0.225384	-0.385002	-0.259302	0.129079	-0.523857	-0.247934	0.096860	-0.415431	-0.188794	0.084297	-0.471480	-0.353409	0.261660	-0.410995	-0.156614	1.374174	-0.164786	-0.138265	1.389836	-0.485739	
74	0.3650	-0.098486	0.911540	-0.215330	-0.102906	0.906694	-0.452902	-0.273099	0.922137	-0.269457	-0.272014	0.919404	-0.366475	-0.144409	0.707415	-0.166876	-0.090738	0.720260	-0.185444	-0.140484	0.670728	-0.174542	-0.088442	0.683832	-0.186364	-0.092686	0.445643	-0.244270	-0.106007	0.422984	-0.345844	-0.198819	0.333253	-0.222122	-0.150375	0.310840	-0.248658	-0.223675	0.292949	-0.227536	-0.179623	0.271050	-0.249260	-0.329368	0.121381	-0.278309	-0.294358	0.121022	-0.364442	-0.246663	0.036640	-0.250113	-0.228017	0.024540	-0.362606	-0.161286	0.036338	-0.313332	-0.402104	0.100780	-0.333825	-0.117663	0.722697	-0.497262	-0.067868	0.744906	-0.489071	-0.095801	0.684285	-0.497218	-0.050893	0.703063	-0.491140	0.030295	0.467926	-0.469916	0.033185	0.461462	-0.355034	-0.091063	0.427335	-0.498208	-0.059577	0.392197	-0.496387	-0.130686	0.395072	-0.500332	-0.100968	0.359193	-0.497808	-0.267090	0.246512	-0.466401	-0.238239	0.222695	-0.384548	-0.235173	0.126115	-0.523400	-0.223481	0.094332	-0.414871	-0.163423	0.083148	-0.470735	-0.333298	0.256811	-0.410938	-0.144862	1.375122	-0.164127	-0.128484	1.390142	-0.485360	
75	0.3700	-0.086788	0.911974	-0.214138	-0.091508	0.907244	-0.451698	-0.261472	0.922493	-0.267968	-0.260580	0.919602	-0.364976	-0.134231	0.707379	-0.166135	-0.080486	0.719641	-0.184968	-0.130777	0.670660	-0.173923	-0.078694	0.683124	-0.186020	-0.086534	0.444589	-0.243809	-0.100481	0.422008	-0.345417	-0.194690	0.333488	-0.221662	-0.146465	0.310253	-0.248244	-0.220173	0.293486	-0.227138	-0.176406	0.270857	-0.248936	-0.328508	0.123049	-0.277961	-0.293607	0.122323	-0.364222	-0.247070	0.036778	-0.250204	-0.228535	0.024727	-0.362587	-0.162038	0.036300	-0.313469	-0.401582	0.103141	-0.333430	-0.105325	0.723405	-0.495884	-0.055553	0.746155	-0.488041	-0.082979	0.685159	-0.495845	-0.038128	0.704476	-0.490130	0.045791	0.470180	-0.468635	0.048836	0.463678	-0.353761	-0.074856	0.427856	-0.496903	-0.042863	0.393188	-0.495333	-0.114012	0.394977	-0.499349	-0.083702	0.359466	-0.496985	-0.248135	0.243341	-0.466113	-0.219003	0.220208	-0.384111	-0.213275	0.123373	-0.522932	-0.201247	0.092016	-0.414304	-0.140387	0.082077	-0.469999	-0.315029	0.252319	-0.410865	-0.134261	1.376068	-0.163553	-0.119702	1.390493	-0.485019	
76	0.3750	-0.076337	0.912423	-0.213104	-0.081352	0.907813	-0.450630	-0.251080	0.922884	-0.266632	-0.250373	0.919852	-0.363630	-0.125170	0.707398	-0.165486	-0.071364	0.719122	-0.184585	-0.122151	0.670652	-0.173371	-0.070034	0.682525	-0.185751	-0.081182	0.443678	-0.243365	-0.095710	0.421145	-0.344999	-0.191105	0.333735	-0.221193	-0.143084	0.309784	-0.247822	-0.217117	0.294003	-0.226724	-0.173613	0.270744	-0.248592	-0.327650	0.124573	-0.277590	-0.292863	0.123539	-0.363965	-0.247332	0.036918	-0.250296	-0.228931	0.024960	-0.362567	-0.162668	0.036386	-0.313593	-0.400990	0.105297	-0.333019	-0.094354	0.724114	-0.494658	-0.044602	0.747339	-0.487134	-0.071583	0.686010	-0.494618	-0.026784	0.705806	-0.489237	0.059558	0.472270	-0.467485	0.062758	0.465738	-0.352616	-0.060445	0.428363	-0.495705	-0.027988	0.394135	-0.494371	-0.099164	0.394915	-0.498433	-0.068315	0.359749	-0.496218	-0.231167	0.240443	-0.465832	-0.201767	0.217942	-0.383696	-0.193661	0.120878	-0.522467	-0.181296	0.089928	-0.413745	-0.119745	0.081098	-0.469288	-0.298648	0.248221	-0.410779	-0.124819	1.376988	-0.163059	-0.111915	1.390873	-0.484716	
77	0.3800	-0.067127	0.912870	-0.212220	-0.072425	0.908381	-0.449697	-0.241921	0.923289	-0.265448	-0.241387	0.920136	-0.362440	-0.117215	0.707458	-0.164923	-0.063357	0.718692	-0.184284	-0.114588	0.670688	-0.172885	-0.062443	0.682026	-0.185544	-0.076586	0.442900	-0.242946	-0.091644	0.420394	-0.344598	-0.188031	0.333982	-0.220731	-0.140199	0.309418	-0.247405	-0.214482	0.294490	-0.226309	-0.171219	0.270696	-0.248242	-0.326811	0.125943	-0.277213	-0.292137	0.124655	-0.363688	-0.247471	0.037056	-0.250385	-0.229216	0.025218	-0.362547	-0.163180	0.036563	-0.313702	-0.400354	0.107238	-0.332609	-0.084734	0.724804	-0.493581	-0.034996	0.748440	-0.486347	-0.061593	0.686821	-0.493538	-0.016841	0.707036	-0.488457	0.071623	0.474173	-0.466466	0.074972	0.467620	-0.351601	-0.047807	0.428846	-0.494623	-0.014933	0.395019	-0.493505	-0.086125	0.394879	-0.497594	-0.054793	0.360033	-0.495516	-0.216190	0.237835	-0.465562	-0.186539	0.215912	-0.383309	-0.176340	0.118646	-0.522017	-0.163646	0.088077	-0.413209	-0.101510	0.080223	-0.468618	-0.284167	0.244540	-0.410684	-0.116526	1.377863	-0.162640	-0.105103	1.391263	-0.484449	
78	0.3850	-0.059133	0.913299	-0.211476	-0.064696	0.908928	-0.448893	-0.233969	0.923691	-0.264417	-0.233593	0.920434	-0.361403	-0.110332	0.707545	-0.164442	-0.056433	0.718342	-0.184052	-0.108055	0.670755	-0.172462	-0.055887	0.681617	-0.185389	-0.072698	0.442247	-0.242559	-0.088231	0.419751	-0.344223	-0.185433	0.334222	-0.220289	-0.137771	0.309140	-0.247004	-0.212241	0.294938	-0.225908	-0.169193	0.270698	-0.247898	-0.326008	0.127155	-0.276845	-0.291442	0.125661	-0.363405	-0.247512	0.037187	-0.250470	-0.229405	0.025484	-0.362528	-0.163585	0.036798	-0.313797	-0.399701	0.108958	-0.332214	-0.076421	0.725455	-0.492649	-0.026695	0.749443	-0.485673	-0.052964	0.687574	-0.492600	-0.008256	0.708150	-0.487787	0.082036	0.475875	-0.465577	0.085525	0.469307	-0.350714	-0.036890	0.429293	-0.493660	-0.003648	0.395829	-0.492739	-0.074848	0.394864	-0.496837	-0.043090	0.360309	-0.494883	-0.203174	0.235531	-0.465310	-0.173293	0.214124	-0.382955	-0.161278	0.116685	-0.521593	-0.148273	0.086464	-0.412706	-0.085649	0.079456	-0.467999	-0.271561	0.241291	-0.410584	-0.109349	1.378675	-0.162289	-0.099232	1.391650	-0.484217	
79	0.3900	-0.052307	0.913699	-0.210860	-0.058114	0.909441	-0.448213	-0.227179	0.924076	-0.263533	-0.226944	0.920731	-0.360514	-0.104475	0.707649	-0.164037	-0.050543	0.718062	-0.183878	-0.102504	0.670840	-0.172100	-0.050317	0.681286	-0.185278	-0.069460	0.441708	-0.242209	-0.085412	0.419208	-0.343880	-0.183270	0.334448	-0.219879	-0.135760	0.308936	-0.246631	-0.210364	0.295342	-0.225532	-0.167504	0.270735	-0.247573	-0.325258	0.128207	-0.276498	-0.290791	0.126549	-0.363129	-0.247476	0.037307	-0.250547	-0.229515	0.025743	-0.362509	-0.163894	0.037065	-0.313878	-0.399054	0.110456	-0.331846	-0.069357	0.726055	-0.491857	-0.019640	0.750336	-0.485106	-0.045634	0.688257	-0.491800	-0.000963	0.709138	-0.487220	0.090876	0.477369	-0.464816	0.094494	0.470791	-0.349953	-0.027617	0.429699	-0.492819	0.005945	0.396555	-0.492073	-0.065254	0.394866	-0.496167	-0.033128	0.360568	-0.494324	-0.192049	0.233532	-0.465079	-0.161961	0.212578	-0.382636	-0.148401	0.114994	-0.521202	-0.135108	0.085085	-0.412247	-0.072084	0.078797	-0.467441	-0.260770	0.238473	-0.410484	-0.103241	1.379411	-0.162001	-0.094256	1.392019	-0.484019	
80	0.3950	-0.046587	0.914061	-0.210360	-0.052611	0.909906	-0.447647	-0.221486	0.924432	-0.262789	-0.221375	0.921015	-0.359767	-0.099581	0.707758	-0.163701	-0.045622	0.717843	-0.183751	-0.097871	0.670935	-0.171795	-0.045670	0.681025	-0.185200	-0.066811	0.441270	-0.241900	-0.083123	0.418759	-0.343575	-0.181501	0.334655	-0.219508	-0.134121	0.308793	-0.246292	-0.208818	0.295698	-0.225190	-0.166120	0.270795	-0.247273	-0.324572	0.129104	-0.276182	-0.290195	0.127316	-0.362870	-0.247388	0.037415	-0.250616	-0.229562	0.025986	-0.362491	-0.164121	0.037341	-0.313945	-0.398437	0.111736	-0.331513	-0.063461	0.726593	-0.491196	-0.013751	0.751115	-0.484636	-0.039519	0.688861	-0.491130	0.005119	0.709996	-0.486749	0.098244	0.478652	-0.464174	0.101978	0.472069	-0.349312	-0.019881	0.430059	-0.492099	0.013952	0.397190	-0.491505	-0.057242	0.394878	-0.495586	-0.024805	0.360805	-0.493840	-0.182717	0.231832	-0.464871	-0.152448	0.211267	-0.382356	-0.137593	0.113565	-0.520853	-0.124041	0.083929	-0.411837	-0.060699	0.078244	-0.466949	-0.251703	0.236077	-0.410386	-0.098136	1.380062	-0.161768	-0.090114	1.392360	-0.483852	
81	0.4000	-0.041889	0.914379	-0.209962	-0.048102	0.910317	-0.447186	-0.216811	0.924751	-0.262175	-0.216806	0.921275	-0.359151	-0.095574	0.707866	-0.163428	-0.041595	0.717674	-0.183662	-0.094083	0.671030	-0.171542	-0.041871	0.680822	-0.185148	-0.064686	0.440923	-0.241634	-0.081303	0.418396	-0.343309	-0.180081	0.334838	-0.219182	-0.132813	0.308697	-0.245994	-0.207569	0.296004	-0.224888	-0.165007	0.270868	-0.247006	-0.323964	0.129852	-0.275902	-0.289664	0.127965	-0.362636	-0.247268	0.037508	-0.250675	-0.229564	0.026204	-0.362475	-0.164281	0.037608	-0.314000	-0.397870	0.112807	-0.331222	-0.058641	0.727061	-0.490655	-0.008935	0.751778	-0.484256	-0.034522	0.689381	-0.490581	0.010089	0.710723	-0.486366	0.104262	0.479730	-0.463646	0.108095	0.473144	-0.348784	-0.013561	0.430368	-0.491495	0.020498	0.397734	-0.491031	-0.050687	0.394896	-0.495093	-0.017992	0.361015	-0.493429	-0.175048	0.230418	-0.464689	-0.144624	0.210181	-0.382115	-0.128710	0.112385	-0.520548	-0.114930	0.082982	-0.411482	-0.051338	0.077791	-0.466527	-0.244241	0.234084	-0.410295	-0.093957	1.380625	-0.161583	-0.086735	1.392666	-0.483714	
82	0.4050	-0.038119	0.914649	-0.209653	-0.044492	0.910669	-0.446819	-0.213058	0.925027	-0.261682	-0.213142	0.921505	-0.358656	-0.092367	0.707967	-0.163211	-0.038374	0.717547	-0.183601	-0.091056	0.671120	-0.171338	-0.038835	0.680669	-0.185115	-0.063020	0.440653	-0.241410	-0.079887	0.418110	-0.343084	-0.178967	0.334995	-0.218905	-0.131790	0.308637	-0.245739	-0.206582	0.296260	-0.224630	-0.164131	0.270945	-0.246775	-0.323438	0.130460	-0.275662	-0.289204	0.128499	-0.362432	-0.247135	0.037587	-0.250724	-0.229535	0.026392	-0.362461	-0.164387	0.037852	-0.314042	-0.397366	0.113683	-0.330975	-0.054788	0.727458	-0.490223	-0.005086	0.752326	-0.483954	-0.030530	0.689818	-0.490140	0.014058	0.711323	-0.486060	0.109063	0.480612	-0.463221	0.112981	0.474026	-0.348358	-0.008514	0.430628	-0.491000	0.025728	0.398186	-0.490644	-0.045447	0.394917	-0.494684	-0.012542	0.361195	-0.493091	-0.168891	0.229271	-0.464534	-0.138338	0.209302	-0.381913	-0.121576	0.111434	-0.520289	-0.107603	0.082225	-0.411181	-0.043821	0.077430	-0.466174	-0.238241	0.232466	-0.410212	-0.090614	1.381096	-0.161440	-0.084041	1.392930	-0.483602	
