PathFileType	4	(X/Y/Z)	 P4 65r2 03.trc
DataRate	CameraRate	NumFrames	NumMarkers	Units	OrigDataRate	OrigDataStartFrame	OrigNumFrames
200	200	88	38	m	200	1	88
Frame#	Time	RASIS			LASIS			RPSIS			LPSIS			RThighRear1			RThighFront1			RThighRear2			RThighFront2			RKneeLat			RKneeMed			RShankRear1			RShankFront1			RShankRear2			RShankFront2			RAnkleLat			RAnkleMed			RM5			RM1			RMid			RHeel			LThighRear1			LThighFront1			LThighRear2			LThighFront2			LKneeLat			LKneeMed			LShankRear1			LShankFront1			LShankRear2			LShankFront2			LAnkleLat			LAnkleMed			LM5			LM1			LMid			LHeel			RShoulder			LShoulder			
		X1	Y1	Z1	X2	Y2	Z2	X3	Y3	Z3	X4	Y4	Z4	X5	Y5	Z5	X6	Y6	Z6	X7	Y7	Z7	X8	Y8	Z8	X9	Y9	Z9	X10	Y10	Z10	X11	Y11	Z11	X12	Y12	Z12	X13	Y13	Z13	X14	Y14	Z14	X15	Y15	Z15	X16	Y16	Z16	X17	Y17	Z17	X18	Y18	Z18	X19	Y19	Z19	X20	Y20	Z20	X21	Y21	Z21	X22	Y22	Z22	X23	Y23	Z23	X24	Y24	Z24	X25	Y25	Z25	X26	Y26	Z26	X27	Y27	Z27	X28	Y28	Z28	X29	Y29	Z29	X30	Y30	Z30	X31	Y31	Z31	X32	Y32	Z32	X33	Y33	Z33	X34	Y34	Z34	X35	Y35	Z35	X36	Y36	Z36	X37	Y37	Z37	X38	Y38	Z38	
1	0.0000	-1.564696	0.884451	-0.282900	-1.579687	0.882653	-0.512044	-1.732686	0.925028	-0.332828	-1.739752	0.917747	-0.429323	-1.673867	0.695478	-0.222282	-1.623703	0.687781	-0.240284	-1.684502	0.660530	-0.224194	-1.635669	0.652233	-0.238857	-1.737076	0.416563	-0.250578	-1.756305	0.389274	-0.356776	-1.896347	0.429713	-0.235702	-1.883329	0.375465	-0.255606	-1.942476	0.422790	-0.245926	-1.931515	0.374568	-0.259556	-2.129802	0.394419	-0.307591	-2.110034	0.345653	-0.383577	-2.215333	0.278169	-0.267217	-2.193207	0.239338	-0.371910	-2.176961	0.186318	-0.304376	-2.165414	0.431605	-0.376430	-1.602809	0.708336	-0.564097	-1.551456	0.733912	-0.562468	-1.579320	0.669685	-0.562805	-1.533479	0.692624	-0.568783	-1.404351	0.481880	-0.524491	-1.395794	0.494502	-0.417943	-1.444068	0.353961	-0.538028	-1.397559	0.361586	-0.537411	-1.435428	0.301208	-0.535258	-1.388929	0.307556	-0.534195	-1.367652	0.099677	-0.482321	-1.340275	0.126372	-0.402486	-1.240195	0.059045	-0.512075	-1.224307	0.083600	-0.406018	-1.172815	0.124539	-0.468151	-1.415071	0.062001	-0.422911	-1.482663	1.341942	-0.259067	-1.485448	1.346019	-0.576602	
2	0.0050	-1.548581	0.881941	-0.282325	-1.564906	0.881452	-0.511746	-1.717208	0.922139	-0.330799	-1.724686	0.915618	-0.427298	-1.654456	0.692330	-0.221465	-1.604221	0.685674	-0.239516	-1.664182	0.657168	-0.223226	-1.615255	0.649996	-0.237921	-1.710977	0.413059	-0.249337	-1.729506	0.385561	-0.355539	-1.869759	0.427556	-0.235262	-1.857259	0.373018	-0.254826	-1.915853	0.421517	-0.245461	-1.905388	0.372823	-0.258961	-2.102849	0.396058	-0.307781	-2.083499	0.346576	-0.383328	-2.187862	0.280683	-0.265891	-2.167049	0.240719	-0.370215	-2.150181	0.188299	-0.302275	-2.138700	0.433043	-0.376974	-1.587943	0.707202	-0.563110	-1.536748	0.733035	-0.561810	-1.564230	0.668655	-0.561741	-1.518567	0.691743	-0.567694	-1.389457	0.480372	-0.524187	-1.380327	0.493116	-0.417725	-1.431869	0.353755	-0.537353	-1.385452	0.360041	-0.536722	-1.424884	0.301078	-0.534472	-1.378519	0.306063	-0.533344	-1.364486	0.099505	-0.481036	-1.336495	0.124788	-0.400985	-1.238921	0.056726	-0.511852	-1.222334	0.079536	-0.405198	-1.169896	0.118660	-0.466969	-1.413487	0.062649	-0.422044	-1.467306	1.339995	-0.258343	-1.469649	1.342900	-0.576336	
3	0.0100	-1.532266	0.879406	-0.281736	-1.549904	0.880240	-0.511441	-1.701529	0.919229	-0.328774	-1.709407	0.913480	-0.425277	-1.634775	0.689161	-0.220639	-1.584467	0.683566	-0.238740	-1.643574	0.653785	-0.222242	-1.594546	0.647761	-0.236971	-1.684435	0.409564	-0.248110	-1.702264	0.381869	-0.354321	-1.842711	0.425410	-0.234816	-1.830727	0.370565	-0.254029	-1.888776	0.420246	-0.244978	-1.878808	0.371069	-0.258334	-2.075491	0.397644	-0.307892	-2.056555	0.347485	-0.383023	-2.159972	0.283072	-0.264543	-2.140477	0.242047	-0.368521	-2.122963	0.190181	-0.300213	-2.111605	0.434469	-0.377405	-1.572892	0.706036	-0.562114	-1.521851	0.732108	-0.561155	-1.548972	0.667583	-0.560669	-1.503485	0.690803	-0.566607	-1.374456	0.478775	-0.523869	-1.364739	0.491637	-0.417493	-1.419598	0.353483	-0.536665	-1.373280	0.358420	-0.536019	-1.414281	0.300886	-0.533667	-1.368060	0.304498	-0.532474	-1.361350	0.099316	-0.479738	-1.332740	0.123192	-0.399463	-1.237649	0.054426	-0.511634	-1.220357	0.075504	-0.404379	-1.166983	0.112795	-0.465793	-1.411954	0.063249	-0.421166	-1.451731	1.338026	-0.257595	-1.453631	1.339760	-0.576049	
4	0.0150	-1.515778	0.876864	-0.281130	-1.534688	0.879027	-0.511128	-1.685669	0.916323	-0.326770	-1.693926	0.911356	-0.423275	-1.614847	0.686002	-0.219805	-1.564466	0.681493	-0.237958	-1.622696	0.650416	-0.221244	-1.573564	0.645568	-0.236012	-1.657451	0.406138	-0.246918	-1.674590	0.378265	-0.353145	-1.815201	0.423305	-0.234366	-1.803721	0.368139	-0.253220	-1.861242	0.418990	-0.244476	-1.851764	0.369321	-0.257674	-2.047744	0.399126	-0.307895	-2.029210	0.348351	-0.382642	-2.131659	0.285254	-0.263169	-2.113473	0.243269	-0.366835	-2.095277	0.191899	-0.298214	-2.084160	0.435838	-0.377674	-1.557680	0.704842	-0.561112	-1.506786	0.731123	-0.560503	-1.533578	0.666467	-0.559594	-1.488262	0.689798	-0.565530	-1.359409	0.477074	-0.523534	-1.349097	0.490043	-0.417242	-1.407315	0.353132	-0.535966	-1.361102	0.356717	-0.535301	-1.403671	0.300622	-0.532846	-1.357607	0.302858	-0.531585	-1.358273	0.099118	-0.478433	-1.329042	0.121602	-0.397928	-1.236395	0.052170	-0.511423	-1.218398	0.071545	-0.403569	-1.164107	0.106997	-0.464635	-1.410497	0.063800	-0.420281	-1.435961	1.336052	-0.256813	-1.437407	1.336629	-0.575727	
5	0.0200	-1.499133	0.874335	-0.280502	-1.519255	0.877825	-0.510802	-1.669641	0.913444	-0.324800	-1.678246	0.909266	-0.421306	-1.594685	0.682887	-0.218966	-1.544235	0.679492	-0.237172	-1.601562	0.647100	-0.220233	-1.552322	0.643456	-0.235045	-1.630017	0.402848	-0.245781	-1.646483	0.374818	-0.352034	-1.787215	0.421271	-0.233913	-1.776217	0.365770	-0.252406	-1.833241	0.417762	-0.243949	-1.824234	0.367598	-0.256979	-2.019611	0.400452	-0.307754	-2.001460	0.349142	-0.382164	-2.102902	0.287144	-0.261764	-2.086003	0.244330	-0.365162	-2.067078	0.193389	-0.296299	-2.056381	0.437100	-0.377733	-1.542324	0.703625	-0.560106	-1.491563	0.730076	-0.559856	-1.518073	0.665309	-0.558519	-1.472920	0.688719	-0.564465	-1.344375	0.475253	-0.523179	-1.333460	0.488315	-0.416968	-1.395072	0.352695	-0.535255	-1.348976	0.354927	-0.534567	-1.393103	0.300282	-0.532005	-1.347211	0.301143	-0.530677	-1.355284	0.098921	-0.477128	-1.325432	0.120038	-0.396387	-1.235174	0.049979	-0.511223	-1.216478	0.067699	-0.402775	-1.161301	0.101319	-0.463507	-1.409140	0.064306	-0.419392	-1.420013	1.334094	-0.255988	-1.420981	1.333535	-0.575355	
6	0.0250	-1.482345	0.871842	-0.279847	-1.503599	0.876644	-0.510458	-1.653450	0.910617	-0.322878	-1.662365	0.907233	-0.419386	-1.574295	0.679851	-0.218120	-1.523783	0.677603	-0.236383	-1.580175	0.643877	-0.219213	-1.530828	0.641471	-0.234074	-1.602117	0.399759	-0.244721	-1.617938	0.371603	-0.351010	-1.758733	0.419339	-0.233460	-1.748184	0.363491	-0.251594	-1.804752	0.416575	-0.243397	-1.796189	0.365918	-0.256248	-1.991087	0.401567	-0.307441	-1.973292	0.349825	-0.381569	-2.073667	0.288661	-0.260323	-2.058022	0.245173	-0.363506	-2.038309	0.194590	-0.294488	-2.028278	0.438202	-0.377537	-1.526834	0.702392	-0.559096	-1.476190	0.728964	-0.559211	-1.502476	0.664112	-0.557447	-1.457473	0.687561	-0.563417	-1.329408	0.473298	-0.522801	-1.317886	0.486430	-0.416664	-1.382921	0.352164	-0.534531	-1.336955	0.353046	-0.533818	-1.382621	0.299861	-0.531145	-1.336922	0.299353	-0.529752	-1.352408	0.098738	-0.475829	-1.321939	0.118517	-0.394846	-1.234001	0.047875	-0.511036	-1.214620	0.064000	-0.402004	-1.158594	0.095810	-0.462418	-1.407900	0.064772	-0.418504	-1.403898	1.332173	-0.255109	-1.404352	1.330511	-0.574918	
7	0.0300	-1.465419	0.869407	-0.279160	-1.487706	0.875498	-0.510090	-1.637096	0.907865	-0.321018	-1.646277	0.905279	-0.417526	-1.553678	0.676931	-0.217269	-1.503115	0.675867	-0.235593	-1.558536	0.640788	-0.218184	-1.509084	0.639657	-0.233102	-1.573733	0.396941	-0.243758	-1.588946	0.368692	-0.350095	-1.729735	0.417537	-0.233011	-1.719587	0.361338	-0.250792	-1.775755	0.415441	-0.242815	-1.767596	0.364300	-0.255482	-1.962161	0.402419	-0.306926	-1.944686	0.350364	-0.380838	-2.043913	0.289725	-0.258838	-2.029476	0.245742	-0.361868	-2.008902	0.195443	-0.292796	-1.999854	0.439087	-0.377043	-1.511214	0.701150	-0.558084	-1.460668	0.727785	-0.558565	-1.486799	0.662880	-0.556379	-1.441931	0.686323	-0.562385	-1.314555	0.471195	-0.522396	-1.302426	0.484371	-0.416324	-1.370906	0.351536	-0.533794	-1.325088	0.351074	-0.533052	-1.372268	0.299359	-0.530265	-1.326785	0.297492	-0.528810	-1.349667	0.098583	-0.474542	-1.318587	0.117060	-0.393314	-1.232892	0.045874	-0.510864	-1.212842	0.060478	-0.401265	-1.156017	0.090517	-0.461378	-1.406795	0.065209	-0.417619	-1.387628	1.330313	-0.254168	-1.387511	1.327587	-0.574401	
8	0.0350	-1.448358	0.867054	-0.278436	-1.471564	0.874397	-0.509690	-1.620578	0.905215	-0.319231	-1.629973	0.903428	-0.415738	-1.532834	0.674164	-0.216412	-1.482236	0.674325	-0.234802	-1.536642	0.637875	-0.217150	-1.487093	0.638060	-0.232131	-1.544847	0.394465	-0.242911	-1.559499	0.366161	-0.349309	-1.700200	0.415894	-0.232568	-1.690393	0.359343	-0.250010	-1.746230	0.414375	-0.242203	-1.738423	0.362763	-0.254683	-1.932819	0.402956	-0.306185	-1.915623	0.350723	-0.379955	-2.013596	0.290264	-0.257303	-2.000308	0.245982	-0.360249	-1.978790	0.195894	-0.291234	-1.971110	0.439698	-0.376216	-1.495465	0.699910	-0.557069	-1.444993	0.726542	-0.557914	-1.471051	0.661621	-0.555316	-1.426300	0.685003	-0.561370	-1.299859	0.468937	-0.521962	-1.287128	0.482123	-0.415943	-1.359069	0.350811	-0.533043	-1.313417	0.349012	-0.532270	-1.362080	0.298780	-0.529364	-1.316838	0.295566	-0.527851	-1.347077	0.098470	-0.473273	-1.315396	0.115687	-0.391796	-1.231860	0.043990	-0.510707	-1.211166	0.057159	-0.400563	-1.153597	0.085480	-0.460394	-1.405833	0.065631	-0.416741	-1.371212	1.328540	-0.253153	-1.370450	1.324796	-0.573788	
9	0.0400	-1.431163	0.864808	-0.277668	-1.455158	0.873355	-0.509252	-1.603892	0.902692	-0.317526	-1.613442	0.901701	-0.414031	-1.511763	0.671588	-0.215549	-1.461148	0.673018	-0.234012	-1.514493	0.635181	-0.216112	-1.464856	0.636724	-0.231164	-1.515449	0.392399	-0.242199	-1.529596	0.364080	-0.348671	-1.670114	0.414439	-0.232134	-1.660576	0.357541	-0.249256	-1.716160	0.413386	-0.241558	-1.708644	0.361326	-0.253854	-1.903050	0.403131	-0.305199	-1.886082	0.350868	-0.378908	-1.982671	0.290213	-0.255713	-1.970463	0.245841	-0.358648	-1.947902	0.195898	-0.289812	-1.942044	0.439976	-0.375028	-1.479586	0.698684	-0.556052	-1.429162	0.725237	-0.557250	-1.455237	0.660344	-0.554259	-1.410581	0.683606	-0.560371	-1.285357	0.466518	-0.521497	-1.272033	0.479674	-0.415516	-1.347446	0.349994	-0.532277	-1.301982	0.346867	-0.531470	-1.352089	0.298131	-0.528442	-1.307118	0.293586	-0.526878	-1.344651	0.098417	-0.472029	-1.312380	0.114416	-0.390302	-1.230917	0.042236	-0.510567	-1.209608	0.054064	-0.399903	-1.151357	0.080737	-0.459474	-1.405020	0.066060	-0.415875	-1.354660	1.326878	-0.252055	-1.353158	1.322172	-0.573063	
10	0.0450	-1.413834	0.862694	-0.276852	-1.438476	0.872386	-0.508769	-1.587031	0.900319	-0.315911	-1.596676	0.900121	-0.412415	-1.490463	0.669240	-0.214680	-1.439857	0.671988	-0.233224	-1.492088	0.632747	-0.215074	-1.442378	0.635696	-0.230203	-1.485536	0.390810	-0.241636	-1.499241	0.362517	-0.348197	-1.639471	0.413195	-0.231712	-1.630117	0.355965	-0.248541	-1.685539	0.412487	-0.240880	-1.678238	0.360009	-0.253001	-1.872844	0.402897	-0.303954	-1.856048	0.350765	-0.377687	-1.951094	0.289518	-0.254061	-1.939885	0.245273	-0.357063	-1.916176	0.195416	-0.288534	-1.912659	0.439862	-0.373459	-1.463575	0.697485	-0.555031	-1.413171	0.723880	-0.556568	-1.439362	0.659061	-0.553208	-1.394774	0.682140	-0.559382	-1.271082	0.463939	-0.520998	-1.257181	0.477020	-0.415038	-1.336066	0.349094	-0.531494	-1.290813	0.344649	-0.530655	-1.342322	0.297425	-0.527499	-1.297652	0.291565	-0.525892	-1.342394	0.098443	-0.470815	-1.309548	0.113268	-0.388838	-1.230073	0.040619	-0.510442	-1.208185	0.051207	-0.399291	-1.149319	0.076318	-0.458623	-1.404354	0.066519	-0.415023	-1.337983	1.325356	-0.250867	-1.335626	1.319745	-0.572213	
11	0.0500	-1.396370	0.860739	-0.275983	-1.421508	0.871503	-0.508232	-1.569993	0.898121	-0.314391	-1.579668	0.898708	-0.410894	-1.468939	0.667157	-0.213805	-1.418370	0.671274	-0.232438	-1.469430	0.630616	-0.214038	-1.419667	0.635016	-0.229254	-1.455115	0.389759	-0.241236	-1.468452	0.361537	-0.347899	-1.608276	0.412183	-0.231306	-1.599010	0.354644	-0.247876	-1.654371	0.411685	-0.240167	-1.647199	0.358828	-0.252131	-1.842197	0.402217	-0.302443	-1.825512	0.350379	-0.376287	-1.918831	0.288138	-0.252345	-1.908530	0.244235	-0.355492	-1.883556	0.194421	-0.287399	-1.882959	0.439300	-0.371499	-1.447430	0.696328	-0.554006	-1.397014	0.722482	-0.555857	-1.423426	0.657788	-0.552162	-1.378880	0.680615	-0.558400	-1.257059	0.461206	-0.520465	-1.242602	0.474161	-0.414505	-1.324953	0.348125	-0.530695	-1.279937	0.342372	-0.529823	-1.332799	0.296677	-0.526534	-1.288463	0.289523	-0.524895	-1.340305	0.098566	-0.469639	-1.306901	0.112261	-0.387414	-1.229339	0.039145	-0.510333	-1.206911	0.048596	-0.398730	-1.147500	0.072246	-0.457843	-1.403824	0.067039	-0.414189	-1.321196	1.323998	-0.249581	-1.317846	1.317549	-0.571225	
12	0.0550	-1.378772	0.858966	-0.275058	-1.404250	0.870718	-0.507635	-1.552775	0.896121	-0.312969	-1.562414	0.897483	-0.409472	-1.447197	0.665375	-0.212922	-1.396697	0.670912	-0.231657	-1.446529	0.628826	-0.213008	-1.396737	0.634724	-0.228318	-1.424207	0.389305	-0.241008	-1.437254	0.361195	-0.347787	-1.576549	0.411423	-0.230919	-1.567263	0.353608	-0.247271	-1.622672	0.410988	-0.239422	-1.615531	0.357801	-0.251252	-1.811111	0.401055	-0.300666	-1.794471	0.349682	-0.374709	-1.885850	0.286041	-0.250562	-1.876359	0.242693	-0.353933	-1.849998	0.192899	-0.286404	-1.852953	0.438233	-0.369147	-1.431148	0.695231	-0.552975	-1.380688	0.721057	-0.555111	-1.407430	0.656541	-0.551121	-1.362895	0.679047	-0.557419	-1.243308	0.458330	-0.519898	-1.228323	0.471102	-0.413913	-1.314124	0.347107	-0.529880	-1.269372	0.340055	-0.528979	-1.323535	0.295911	-0.525551	-1.279566	0.287482	-0.523892	-1.338376	0.098810	-0.468507	-1.304435	0.111415	-0.386039	-1.228719	0.037817	-0.510238	-1.205798	0.046235	-0.398223	-1.145915	0.068539	-0.457137	-1.403412	0.067655	-0.413379	-1.304314	1.322834	-0.248191	-1.299815	1.315612	-0.570087	
13	0.0600	-1.361042	0.857403	-0.274073	-1.386698	0.870045	-0.506971	-1.535376	0.894341	-0.311647	-1.544914	0.896463	-0.408151	-1.425246	0.663928	-0.212033	-1.374855	0.670935	-0.230880	-1.423397	0.627414	-0.211987	-1.373607	0.634857	-0.227400	-1.392847	0.389497	-0.240959	-1.405688	0.361539	-0.347866	-1.544321	0.410926	-0.230552	-1.534897	0.352882	-0.246735	-1.590469	0.410400	-0.238645	-1.583253	0.356941	-0.250373	-1.779595	0.399384	-0.298627	-1.762930	0.348644	-0.372956	-1.852131	0.283212	-0.248713	-1.843344	0.240623	-0.352381	-1.815467	0.190844	-0.285543	-1.822651	0.436612	-0.366413	-1.414730	0.694210	-0.551937	-1.364192	0.719622	-0.554318	-1.391375	0.655340	-0.550083	-1.346820	0.677454	-0.556432	-1.229843	0.455330	-0.519298	-1.214364	0.467859	-0.413262	-1.303588	0.346063	-0.529049	-1.259127	0.337723	-0.528123	-1.314536	0.295151	-0.524551	-1.270968	0.285468	-0.522886	-1.336591	0.099195	-0.467426	-1.302135	0.110748	-0.384721	-1.228219	0.036636	-0.510154	-1.204853	0.044123	-0.397773	-1.144575	0.065207	-0.456505	-1.403092	0.068405	-0.412596	-1.287357	1.321888	-0.246694	-1.281530	1.313964	-0.568789	
14	0.0650	-1.343183	0.856071	-0.273026	-1.368858	0.869498	-0.506233	-1.517798	0.892801	-0.310424	-1.527170	0.895665	-0.406929	-1.403104	0.662845	-0.211136	-1.352861	0.671373	-0.230109	-1.400053	0.626414	-0.210980	-1.350299	0.635444	-0.226503	-1.361082	0.390377	-0.241092	-1.373807	0.362607	-0.348138	-1.511639	0.410704	-0.230207	-1.501950	0.352486	-0.246278	-1.557804	0.409925	-0.237839	-1.550397	0.356263	-0.249505	-1.747665	0.397183	-0.296341	-1.730904	0.347244	-0.371038	-1.817663	0.279650	-0.246800	-1.809469	0.238007	-0.350837	-1.779947	0.188265	-0.284806	-1.792071	0.434388	-0.363317	-1.398177	0.693285	-0.550890	-1.347528	0.718198	-0.553472	-1.375262	0.654207	-0.549046	-1.330653	0.675860	-0.555431	-1.216670	0.452229	-0.518665	-1.200737	0.464451	-0.412550	-1.293345	0.345023	-0.528205	-1.249204	0.335404	-0.527260	-1.305802	0.294429	-0.523538	-1.262668	0.283514	-0.521883	-1.334927	0.099746	-0.466402	-1.299981	0.110276	-0.383470	-1.227840	0.035599	-0.510080	-1.204082	0.042255	-0.397381	-1.143484	0.062252	-0.455946	-1.402828	0.069331	-0.411846	-1.270346	1.321184	-0.245087	-1.262996	1.312628	-0.567324	
15	0.0700	-1.325200	0.854995	-0.271916	-1.350736	0.869088	-0.505418	-1.500045	0.891520	-0.309294	-1.509189	0.895102	-0.405803	-1.380789	0.662155	-0.210233	-1.330740	0.672250	-0.229345	-1.376521	0.625856	-0.209990	-1.326843	0.636511	-0.225631	-1.328974	0.391976	-0.241406	-1.341673	0.364427	-0.348599	-1.478560	0.410758	-0.229885	-1.468474	0.352438	-0.245908	-1.524730	0.409561	-0.237005	-1.517009	0.355774	-0.248659	-1.715342	0.394438	-0.293827	-1.698413	0.345459	-0.368969	-1.782442	0.275366	-0.244829	-1.774728	0.234839	-0.349297	-1.743432	0.185182	-0.284183	-1.761229	0.431521	-0.359888	-1.381491	0.692476	-0.549834	-1.330699	0.716808	-0.552562	-1.359091	0.653163	-0.548009	-1.314394	0.674288	-0.554410	-1.203788	0.449058	-0.518004	-1.187445	0.460906	-0.411779	-1.283389	0.344019	-0.527350	-1.239595	0.333131	-0.526393	-1.297324	0.293778	-0.522517	-1.254656	0.281653	-0.520888	-1.333354	0.100486	-0.465442	-1.297945	0.110017	-0.382298	-1.227580	0.034706	-0.510013	-1.203487	0.040620	-0.397046	-1.142646	0.059669	-0.455460	-1.402576	0.070480	-0.411133	-1.253304	1.320745	-0.243369	-1.244222	1.311627	-0.565687	
16	0.0750	-1.307099	0.854194	-0.270742	-1.332346	0.868827	-0.504520	-1.482123	0.890512	-0.308252	-1.490983	0.894785	-0.404768	-1.358323	0.661881	-0.209324	-1.308517	0.673586	-0.228590	-1.352829	0.625763	-0.209023	-1.303273	0.638078	-0.224790	-1.296596	0.394316	-0.241895	-1.309362	0.367015	-0.349243	-1.445155	0.411089	-0.229586	-1.434534	0.352749	-0.245631	-1.491310	0.409305	-0.236147	-1.483148	0.355483	-0.247846	-1.682654	0.391142	-0.291111	-1.665484	0.343277	-0.366766	-1.746475	0.270386	-0.242809	-1.739127	0.231124	-0.347763	-1.705932	0.181629	-0.283660	-1.730146	0.427975	-0.356162	-1.364677	0.691801	-0.548765	-1.313712	0.715477	-0.551584	-1.342862	0.652232	-0.546970	-1.298044	0.672765	-0.553361	-1.191187	0.445850	-0.517316	-1.174484	0.457258	-0.410950	-1.273703	0.343087	-0.526488	-1.230285	0.330939	-0.525528	-1.289084	0.293235	-0.521494	-1.246912	0.279921	-0.519909	-1.331831	0.101440	-0.464554	-1.295991	0.109987	-0.381212	-1.227436	0.033953	-0.509953	-1.203065	0.039207	-0.396770	-1.142059	0.057447	-0.455042	-1.402283	0.071898	-0.410463	-1.236253	1.320590	-0.241542	-1.225218	1.310978	-0.563875	
17	0.0800	-1.288887	0.853686	-0.269507	-1.313704	0.868726	-0.503538	-1.464039	0.889792	-0.307291	-1.472564	0.894722	-0.403815	-1.335734	0.662043	-0.208410	-1.286220	0.675394	-0.227844	-1.329010	0.626155	-0.208082	-1.279624	0.640156	-0.223982	-1.264032	0.397405	-0.242550	-1.276957	0.370372	-0.350057	-1.411503	0.411688	-0.229309	-1.400206	0.353425	-0.245452	-1.457617	0.409150	-0.235268	-1.448881	0.355393	-0.247075	-1.649630	0.387295	-0.288223	-1.632150	0.340686	-0.364453	-1.709776	0.264750	-0.240751	-1.702681	0.226876	-0.346238	-1.667469	0.177649	-0.283227	-1.698841	0.423722	-0.352186	-1.347740	0.691280	-0.547682	-1.296573	0.714228	-0.550529	-1.326574	0.651437	-0.545926	-1.281605	0.671319	-0.552277	-1.178850	0.442645	-0.516606	-1.161840	0.453545	-0.410069	-1.264261	0.342266	-0.525623	-1.221245	0.328867	-0.524670	-1.281056	0.292839	-0.520475	-1.239408	0.278357	-0.518953	-1.330315	0.102631	-0.463743	-1.294076	0.110200	-0.380224	-1.227398	0.033339	-0.509895	-1.202811	0.038002	-0.396550	-1.141715	0.055568	-0.454690	-1.401889	0.073634	-0.409843	-1.219219	1.320735	-0.239608	-1.206000	1.310697	-0.561886	
18	0.0850	-1.270572	0.853487	-0.268211	-1.294830	0.868795	-0.502470	-1.445804	0.889369	-0.306400	-1.453947	0.894918	-0.402935	-1.313050	0.662653	-0.207492	-1.263880	0.677681	-0.227110	-1.305099	0.627045	-0.207172	-1.255935	0.642751	-0.223212	-1.231373	0.401242	-0.243356	-1.244545	0.374489	-0.351024	-1.377690	0.412543	-0.229050	-1.365577	0.354465	-0.245373	-1.423730	0.409086	-0.234372	-1.414286	0.355504	-0.246357	-1.616303	0.382902	-0.285198	-1.598447	0.337681	-0.362054	-1.672367	0.258507	-0.238671	-1.665417	0.222120	-0.344726	-1.628079	0.173296	-0.282870	-1.667333	0.418742	-0.348011	-1.330687	0.690930	-0.546585	-1.279294	0.713090	-0.549394	-1.310229	0.650800	-0.544876	-1.265078	0.669979	-0.551151	-1.166752	0.439484	-0.515879	-1.149492	0.449811	-0.409140	-1.255029	0.341595	-0.524760	-1.212443	0.326955	-0.523826	-1.273205	0.292630	-0.519470	-1.232105	0.277000	-0.518027	-1.328751	0.104082	-0.463018	-1.292150	0.110669	-0.379344	-1.227456	0.032861	-0.509839	-1.202712	0.036992	-0.396386	-1.141604	0.054009	-0.454400	-1.401325	0.075735	-0.409277	-1.202223	1.321193	-0.237572	-1.186589	1.310790	-0.559723	
19	0.0900	-1.252161	0.853609	-0.266859	-1.275746	0.869042	-0.501317	-1.427427	0.889251	-0.305567	-1.435150	0.895375	-0.402117	-1.290300	0.663720	-0.206571	-1.241527	0.680447	-0.226389	-1.281133	0.628440	-0.206295	-1.232246	0.645859	-0.222483	-1.198718	0.405809	-0.244298	-1.212221	0.379342	-0.352126	-1.343808	0.413635	-0.228806	-1.330740	0.355865	-0.245393	-1.389731	0.409101	-0.233462	-1.379448	0.355811	-0.245699	-1.582705	0.377978	-0.282075	-1.564413	0.334263	-0.359597	-1.634274	0.251717	-0.236587	-1.627367	0.216893	-0.343234	-1.587808	0.168634	-0.282580	-1.635638	0.413020	-0.343692	-1.313525	0.690768	-0.545470	-1.261885	0.712086	-0.548177	-1.293823	0.650342	-0.543818	-1.248464	0.668773	-0.549978	-1.154862	0.436412	-0.515140	-1.137408	0.446103	-0.408169	-1.245966	0.341112	-0.523906	-1.203833	0.325242	-0.523002	-1.265488	0.292645	-0.518486	-1.224960	0.275888	-0.517139	-1.327084	0.105815	-0.462384	-1.290157	0.111406	-0.378581	-1.227595	0.032521	-0.509783	-1.202754	0.036162	-0.396275	-1.141711	0.052741	-0.454168	-1.400520	0.078247	-0.408773	-1.185286	1.321971	-0.235439	-1.167005	1.311264	-0.557389	
20	0.0950	-1.233663	0.854059	-0.265455	-1.256476	0.869474	-0.500081	-1.408919	0.889441	-0.304780	-1.416192	0.896092	-0.401347	-1.267516	0.665247	-0.205650	-1.219192	0.683684	-0.225682	-1.257149	0.630337	-0.205456	-1.208596	0.649470	-0.221799	-1.166169	0.411079	-0.245353	-1.180079	0.384895	-0.353337	-1.309951	0.414943	-0.228571	-1.295793	0.357612	-0.245509	-1.355706	0.409178	-0.232542	-1.344453	0.356308	-0.245109	-1.548869	0.372539	-0.278895	-1.530086	0.330437	-0.357112	-1.595530	0.244447	-0.234521	-1.588573	0.211239	-0.341772	-1.546712	0.163733	-0.282350	-1.603767	0.406554	-0.339288	-1.296260	0.690807	-0.544338	-1.244358	0.711241	-0.546877	-1.277356	0.650083	-0.542750	-1.231765	0.667729	-0.548754	-1.143140	0.433474	-0.514393	-1.125549	0.442469	-0.407165	-1.237022	0.340858	-0.523067	-1.195365	0.323767	-0.522206	-1.257857	0.292924	-0.517532	-1.217917	0.275058	-0.516296	-1.325249	0.107850	-0.461847	-1.288040	0.112421	-0.377944	-1.227797	0.032320	-0.509726	-1.202916	0.035500	-0.396213	-1.142017	0.051733	-0.453989	-1.399394	0.081214	-0.408336	-1.168426	1.323072	-0.233216	-1.147274	1.312116	-0.554890	
21	0.1000	-1.215085	0.854843	-0.264004	-1.237045	0.870097	-0.498765	-1.390290	0.889940	-0.304026	-1.397090	0.897065	-0.400614	-1.244726	0.667229	-0.204729	-1.196901	0.687378	-0.224990	-1.233186	0.632730	-0.204655	-1.185023	0.653565	-0.221163	-1.133828	0.417011	-0.246499	-1.148214	0.391098	-0.354630	-1.276211	0.416436	-0.228339	-1.260836	0.359686	-0.245716	-1.321738	0.409298	-0.231614	-1.309391	0.356981	-0.244589	-1.514823	0.366610	-0.275700	-1.495504	0.326215	-0.354630	-1.556169	0.236773	-0.232497	-1.549080	0.205213	-0.340355	-1.504855	0.158669	-0.282174	-1.571727	0.399346	-0.334859	-1.278900	0.691061	-0.543186	-1.226724	0.710578	-0.545495	-1.260825	0.650040	-0.541670	-1.214984	0.666871	-0.547476	-1.131542	0.430713	-0.513646	-1.113869	0.438958	-0.406134	-1.228142	0.340866	-0.522251	-1.186981	0.322568	-0.521444	-1.250254	0.293500	-0.516619	-1.210918	0.274544	-0.515508	-1.323182	0.110202	-0.461413	-1.285733	0.113720	-0.377440	-1.228037	0.032263	-0.509667	-1.203173	0.034996	-0.396199	-1.142496	0.050949	-0.453859	-1.397867	0.084673	-0.407972	-1.151657	1.324496	-0.230912	-1.127420	1.313341	-0.552234	
22	0.1050	-1.196433	0.855961	-0.262511	-1.217477	0.870915	-0.497374	-1.371551	0.890745	-0.303291	-1.377864	0.898285	-0.399902	-1.221960	0.669657	-0.203811	-1.174683	0.691508	-0.224315	-1.209279	0.635603	-0.203895	-1.161563	0.658118	-0.220577	-1.101795	0.423552	-0.247706	-1.116714	0.397890	-0.355976	-1.242680	0.418083	-0.228103	-1.225968	0.362065	-0.246003	-1.287909	0.409440	-0.230681	-1.274351	0.357816	-0.244143	-1.480593	0.360216	-0.272532	-1.460701	0.321612	-0.352182	-1.516231	0.228772	-0.230543	-1.508940	0.198877	-0.338998	-1.462309	0.153523	-0.282051	-1.539518	0.391411	-0.330465	-1.261451	0.691538	-0.542015	-1.208995	0.710116	-0.544035	-1.244224	0.650225	-0.540578	-1.198119	0.666221	-0.546141	-1.120016	0.428173	-0.512901	-1.102316	0.435620	-0.405085	-1.219264	0.341169	-0.521466	-1.178618	0.321679	-0.520724	-1.242619	0.294403	-0.515756	-1.203897	0.274375	-0.514779	-1.320815	0.112887	-0.461087	-1.283172	0.115311	-0.377076	-1.228290	0.032357	-0.509606	-1.203494	0.034642	-0.396229	-1.143121	0.050353	-0.453773	-1.395857	0.088657	-0.407686	-1.134990	1.326235	-0.228535	-1.107470	1.314928	-0.549430	
23	0.1100	-1.177712	0.857409	-0.260983	-1.197797	0.871929	-0.495912	-1.352710	0.891848	-0.302562	-1.358530	0.899744	-0.399198	-1.199244	0.672513	-0.202897	-1.152558	0.696044	-0.223658	-1.185463	0.638935	-0.203176	-1.138248	0.663093	-0.220041	-1.070168	0.430637	-0.248948	-1.085667	0.405198	-0.357344	-1.209443	0.419847	-0.227853	-1.191286	0.364718	-0.246358	-1.254294	0.409579	-0.229745	-1.239418	0.358793	-0.243768	-1.446203	0.353389	-0.269431	-1.425710	0.316648	-0.349798	-1.475754	0.220525	-0.228686	-1.468206	0.192298	-0.337720	-1.419149	0.148376	-0.281984	-1.507137	0.382768	-0.326166	-1.243915	0.692243	-0.540823	-1.191181	0.709872	-0.542501	-1.227549	0.650649	-0.539472	-1.181170	0.665798	-0.544750	-1.108510	0.425891	-0.512165	-1.090833	0.432498	-0.404028	-1.210324	0.341795	-0.520718	-1.170209	0.321129	-0.520053	-1.234888	0.295660	-0.514953	-1.196787	0.274578	-0.514116	-1.318079	0.115914	-0.460873	-1.280290	0.117194	-0.376859	-1.228523	0.032611	-0.509544	-1.203844	0.034434	-0.396298	-1.143857	0.049908	-0.453728	-1.393282	0.093193	-0.407485	-1.118428	1.328278	-0.226095	-1.087451	1.316863	-0.546490	
24	0.1150	-1.158927	0.859178	-0.259426	-1.178026	0.873140	-0.494386	-1.333777	0.893239	-0.301824	-1.339105	0.901427	-0.398488	-1.176604	0.675774	-0.201989	-1.130547	0.700951	-0.223018	-1.161770	0.642695	-0.202496	-1.115106	0.668449	-0.219556	-1.039037	0.438192	-0.250194	-1.055149	0.412940	-0.358699	-1.176580	0.421688	-0.227581	-1.156881	0.367610	-0.246768	-1.220966	0.409691	-0.228807	-1.204674	0.359890	-0.243462	-1.411668	0.346163	-0.266438	-1.390558	0.311349	-0.347508	-1.434779	0.212113	-0.226958	-1.426934	0.185550	-0.336542	-1.375455	0.143311	-0.281977	-1.474573	0.373447	-0.322015	-1.226298	0.693181	-0.539611	-1.173290	0.709858	-0.540900	-1.210792	0.651319	-0.538353	-1.164137	0.665617	-0.543302	-1.096967	0.423903	-0.511441	-1.079359	0.429636	-0.402970	-1.201255	0.342765	-0.520016	-1.161684	0.320942	-0.519435	-1.226993	0.297289	-0.514217	-1.189516	0.275169	-0.513524	-1.314907	0.119288	-0.460774	-1.277023	0.119373	-0.376790	-1.228702	0.033038	-0.509482	-1.204181	0.034371	-0.396402	-1.144668	0.049577	-0.453719	-1.390065	0.098296	-0.407373	-1.101975	1.330611	-0.223600	-1.067390	1.319124	-0.543426	
25	0.1200	-1.140079	0.861258	-0.257847	-1.158187	0.874546	-0.492804	-1.314756	0.894905	-0.301067	-1.319603	0.903319	-0.397760	-1.154060	0.679411	-0.201086	-1.108665	0.706187	-0.222396	-1.138227	0.646846	-0.201852	-1.092160	0.674138	-0.219120	-1.008487	0.446133	-0.251412	-1.025230	0.421026	-0.360009	-1.144161	0.423564	-0.227276	-1.122839	0.370702	-0.247214	-1.187985	0.409748	-0.227867	-1.170194	0.361080	-0.243219	-1.377001	0.338572	-0.263588	-1.355269	0.305743	-0.345338	-1.393350	0.203615	-0.225388	-1.385184	0.178709	-0.335487	-1.331311	0.138406	-0.282041	-1.441810	0.363485	-0.318063	-1.208599	0.694349	-0.538380	-1.155329	0.710085	-0.539241	-1.193945	0.652236	-0.537219	-1.147016	0.665688	-0.541800	-1.085328	0.422238	-0.510733	-1.067833	0.427070	-0.401918	-1.191991	0.344092	-0.519365	-1.152975	0.321137	-0.518876	-1.218867	0.299301	-0.513557	-1.182014	0.276163	-0.513006	-1.311235	0.123012	-0.460793	-1.273306	0.121843	-0.376872	-1.228786	0.033652	-0.509420	-1.204460	0.034459	-0.396538	-1.145509	0.049326	-0.453743	-1.386130	0.103975	-0.407353	-1.085626	1.333212	-0.221061	-1.047313	1.321690	-0.540252	
26	0.1250	-1.121171	0.863631	-0.256253	-1.138296	0.876143	-0.491172	-1.295655	0.896828	-0.300279	-1.300036	0.905403	-0.397003	-1.131630	0.683389	-0.200191	-1.086923	0.711704	-0.221792	-1.114861	0.651348	-0.201241	-1.069430	0.680104	-0.218731	-0.978591	0.454370	-0.252573	-0.995970	0.429360	-0.361242	-1.112249	0.425431	-0.226931	-1.089237	0.373950	-0.247679	-1.155407	0.409722	-0.226926	-1.136046	0.362335	-0.243030	-1.342212	0.330654	-0.260914	-1.319862	0.299862	-0.343314	-1.351508	0.195107	-0.224008	-1.343015	0.171853	-0.334577	-1.286800	0.133738	-0.282187	-1.408829	0.352925	-0.314357	-1.190818	0.695743	-0.537131	-1.137302	0.710557	-0.537531	-1.176999	0.653398	-0.536073	-1.129803	0.666018	-0.540248	-1.073536	0.420919	-0.510044	-1.056192	0.424830	-0.400880	-1.182467	0.345786	-0.518772	-1.144013	0.321723	-0.518381	-1.210444	0.301703	-0.512980	-1.174211	0.277564	-0.512564	-1.307001	0.127081	-0.460931	-1.269081	0.124602	-0.377106	-1.228731	0.034469	-0.509360	-1.204631	0.034703	-0.396700	-1.146335	0.049124	-0.453798	-1.381411	0.110229	-0.407428	-1.069374	1.336058	-0.218487	-1.027244	1.324534	-0.536982	
27	0.1300	-1.102202	0.866277	-0.254649	-1.118370	0.877924	-0.489498	-1.276477	0.898988	-0.299450	-1.280415	0.907659	-0.396204	-1.109332	0.687666	-0.199301	-1.065330	0.717448	-0.221205	-1.091692	0.656150	-0.200656	-1.046928	0.686289	-0.218385	-0.949414	0.462807	-0.253645	-0.967416	0.437841	-0.362364	-1.080897	0.427243	-0.226534	-1.056143	0.377308	-0.248141	-1.123277	0.409585	-0.225984	-1.102290	0.363624	-0.242886	-1.307306	0.322446	-0.258443	-1.284356	0.293738	-0.341457	-1.309300	0.186659	-0.222845	-1.300488	0.165057	-0.333838	-1.242009	0.129377	-0.282428	-1.375609	0.341818	-0.310936	-1.172953	0.697357	-0.535865	-1.119210	0.711273	-0.535781	-1.159942	0.654799	-0.534914	-1.112492	0.666606	-0.538648	-1.061535	0.419960	-0.509374	-1.044377	0.422940	-0.399861	-1.172618	0.347847	-0.518242	-1.134733	0.322706	-0.517950	-1.201661	0.304490	-0.512490	-1.166042	0.279370	-0.512198	-1.302149	0.131488	-0.461186	-1.264292	0.127641	-0.377487	-1.228490	0.035508	-0.509304	-1.204639	0.035114	-0.396885	-1.147093	0.048943	-0.453878	-1.375848	0.117045	-0.407601	-1.053207	1.339120	-0.215887	-1.007209	1.327626	-0.533631	
28	0.1350	-1.083172	0.869172	-0.253043	-1.098422	0.879882	-0.487789	-1.257226	0.901362	-0.298573	-1.260749	0.910065	-0.395357	-1.087177	0.692196	-0.198416	-1.043889	0.723361	-0.220633	-1.068739	0.661199	-0.200092	-1.024663	0.692627	-0.218075	-0.921007	0.471341	-0.254602	-0.939606	0.446364	-0.363346	-1.050147	0.428955	-0.226079	-1.023616	0.380726	-0.248579	-1.091633	0.409309	-0.225039	-1.068978	0.364916	-0.242773	-1.272285	0.313985	-0.256201	-1.248763	0.287408	-0.339784	-1.266772	0.178337	-0.221927	-1.257664	0.158396	-0.333290	-1.197025	0.125383	-0.282781	-1.342126	0.330219	-0.307831	-1.154999	0.699177	-0.534585	-1.101055	0.712229	-0.534001	-1.142764	0.656428	-0.533743	-1.095078	0.667448	-0.537006	-1.049272	0.419371	-0.508725	-1.032331	0.421415	-0.398867	-1.162388	0.350266	-0.517779	-1.125074	0.324082	-0.517587	-1.192458	0.307651	-0.512092	-1.157444	0.281571	-0.511907	-1.296630	0.136219	-0.461558	-1.258891	0.130952	-0.378013	-1.228010	0.036786	-0.509255	-1.204426	0.035708	-0.397088	-1.147725	0.048761	-0.453983	-1.369394	0.124402	-0.407872	-1.037111	1.342368	-0.213269	-0.987228	1.330936	-0.530214	
29	0.1400	-1.064080	0.872289	-0.251439	-1.078463	0.882005	-0.486053	-1.237903	0.903923	-0.297640	-1.241044	0.912598	-0.394454	-1.065176	0.696929	-0.197534	-1.022600	0.729381	-0.220072	-1.046013	0.666436	-0.199538	-1.002639	0.699052	-0.217794	-0.893413	0.479872	-0.255415	-0.912567	0.454824	-0.364160	-1.020031	0.430523	-0.225556	-0.991704	0.384154	-0.248973	-1.060502	0.408866	-0.224092	-1.036155	0.366176	-0.242680	-1.237153	0.305311	-0.254205	-1.213096	0.280907	-0.338311	-1.223972	0.170198	-0.221277	-1.214608	0.151941	-0.332956	-1.151932	0.121812	-0.283259	-1.308359	0.318191	-0.305069	-1.136951	0.701189	-0.533292	-1.082832	0.713417	-0.532199	-1.125453	0.658271	-0.532564	-1.077553	0.668535	-0.535328	-1.036697	0.419150	-0.508097	-1.020001	0.420264	-0.397899	-1.151722	0.353029	-0.517384	-1.114981	0.325838	-0.517290	-1.182782	0.311169	-0.511787	-1.148361	0.284150	-0.511687	-1.290404	0.141257	-0.462042	-1.252836	0.134522	-0.378676	-1.227237	0.038320	-0.509213	-1.203929	0.036499	-0.397306	-1.148174	0.048563	-0.454108	-1.362009	0.132269	-0.408242	-1.021068	1.345768	-0.210641	-0.967323	1.334429	-0.526747	
30	0.1450	-1.044924	0.875596	-0.249843	-1.058502	0.884280	-0.484296	-1.218512	0.906643	-0.296649	-1.221306	0.915233	-0.393491	-1.043336	0.701810	-0.196652	-1.001461	0.735443	-0.219520	-1.023528	0.671801	-0.198985	-0.980857	0.705491	-0.217534	-0.866659	0.488297	-0.256064	-0.886314	0.463120	-0.364784	-0.990573	0.431903	-0.224962	-0.960448	0.387541	-0.249303	-1.029905	0.408230	-0.223142	-1.003855	0.367371	-0.242592	-1.201911	0.296460	-0.252469	-1.177366	0.274273	-0.337047	-1.180955	0.162293	-0.220913	-1.171384	0.145756	-0.332853	-1.106819	0.118706	-0.283879	-1.274289	0.305798	-0.302669	-1.118802	0.703377	-0.531991	-1.064539	0.714823	-0.530387	-1.107996	0.660309	-0.531377	-1.059908	0.669854	-0.533617	-1.023766	0.419290	-0.507488	-1.007342	0.419486	-0.396960	-1.140574	0.356115	-0.517059	-1.104404	0.327958	-0.517058	-1.172585	0.315017	-0.511575	-1.138745	0.287083	-0.511533	-1.283435	0.146579	-0.462636	-1.246093	0.138338	-0.379467	-1.226113	0.040129	-0.509182	-1.203086	0.037506	-0.397533	-1.148372	0.048336	-0.454252	-1.353670	0.140603	-0.408708	-1.005062	1.349285	-0.208011	-0.947514	1.338073	-0.523244	
31	0.1500	-1.025704	0.879060	-0.248259	-1.038545	0.886692	-0.482524	-1.199053	0.909491	-0.295597	-1.201541	0.917946	-0.392463	-1.021662	0.706781	-0.195765	-0.980467	0.741481	-0.218971	-1.001289	0.677229	-0.198423	-0.959313	0.711875	-0.217284	-0.840764	0.496514	-0.256529	-0.860850	0.471151	-0.365197	-0.961785	0.433055	-0.224290	-0.929876	0.390835	-0.249548	-0.999855	0.407375	-0.222189	-0.972107	0.368466	-0.242497	-1.166567	0.287468	-0.251002	-1.141588	0.267541	-0.335999	-1.137776	0.154664	-0.220851	-1.128059	0.139896	-0.332996	-1.061772	0.116098	-0.284651	-1.239905	0.293108	-0.300643	-1.100543	0.705718	-0.530685	-1.046167	0.716430	-0.528572	-1.090383	0.662521	-0.530186	-1.042135	0.671386	-0.531881	-1.010439	0.419776	-0.506895	-0.994313	0.419073	-0.396049	-1.128906	0.359494	-0.516803	-1.093303	0.330415	-0.516887	-1.161828	0.319162	-0.511455	-1.128555	0.290340	-0.511441	-1.275701	0.152159	-0.463331	-1.238637	0.142384	-0.380375	-1.224577	0.042226	-0.509164	-1.201830	0.038746	-0.397768	-1.148255	0.048078	-0.454411	-1.344365	0.149355	-0.409269	-0.989072	1.352882	-0.205383	-0.927818	1.341832	-0.519721	
32	0.1550	-1.006419	0.882644	-0.246690	-1.018598	0.889224	-0.480743	-1.179528	0.912433	-0.294482	-1.181751	0.920709	-0.391370	-1.000158	0.711782	-0.194870	-0.959612	0.747426	-0.218421	-0.979303	0.682652	-0.197839	-0.938000	0.718132	-0.217032	-0.815734	0.504427	-0.256794	-0.836171	0.478822	-0.365383	-0.933674	0.433939	-0.223540	-0.900008	0.393985	-0.249693	-0.970358	0.406281	-0.221233	-0.940932	0.369430	-0.242380	-1.131130	0.278371	-0.249807	-1.105776	0.260746	-0.335169	-1.094500	0.147346	-0.221098	-1.084704	0.134410	-0.333393	-1.016878	0.114006	-0.285584	-1.205201	0.280193	-0.298995	-1.082166	0.708189	-0.529377	-1.027709	0.718216	-0.526763	-1.072602	0.664881	-0.528993	-1.024224	0.673108	-0.530125	-0.996685	0.420586	-0.506317	-0.980882	0.419006	-0.395166	-1.116685	0.363133	-0.516614	-1.081646	0.333178	-0.516773	-1.150478	0.323568	-0.511424	-1.117758	0.293885	-0.511401	-1.267185	0.157969	-0.464122	-1.230450	0.146642	-0.381389	-1.222569	0.044623	-0.509161	-1.200094	0.040238	-0.398006	-1.147750	0.047791	-0.454583	-1.334096	0.158468	-0.409921	-0.973079	1.356521	-0.202764	-0.908251	1.345672	-0.516192	
33	0.1600	-0.987068	0.886310	-0.245140	-0.998664	0.891854	-0.478959	-1.159940	0.915435	-0.293305	-1.161939	0.923496	-0.390212	-0.978827	0.716753	-0.193960	-0.938889	0.753212	-0.217861	-0.957571	0.688004	-0.197222	-0.916908	0.724190	-0.216765	-0.791564	0.511943	-0.256849	-0.812262	0.486046	-0.365334	-0.906237	0.434521	-0.222712	-0.870858	0.396945	-0.249724	-0.941416	0.404926	-0.220275	-0.910345	0.370228	-0.242229	-1.095614	0.269205	-0.248882	-1.069950	0.253921	-0.334556	-1.051194	0.140364	-0.221656	-1.041391	0.129333	-0.334050	-0.972224	0.112441	-0.286683	-1.170183	0.267124	-0.297725	-1.063664	0.710766	-0.528071	-1.009157	0.720157	-0.524966	-1.054642	0.667363	-0.527802	-1.006167	0.674995	-0.528355	-0.982477	0.421690	-0.505749	-0.967025	0.419265	-0.394308	-1.103889	0.366992	-0.516488	-1.069406	0.336211	-0.516711	-1.138512	0.328192	-0.511476	-1.106331	0.297679	-0.511406	-1.257882	0.163976	-0.464998	-1.221525	0.151096	-0.382493	-1.220027	0.047329	-0.509174	-1.197813	0.041998	-0.398245	-1.146787	0.047484	-0.454765	-1.322877	0.167879	-0.410658	-0.957065	1.360163	-0.200156	-0.888827	1.349559	-0.512668	
34	0.1650	-0.967653	0.890018	-0.243611	-0.978747	0.894562	-0.477174	-1.140292	0.918462	-0.292070	-1.142109	0.926279	-0.388990	-0.957670	0.721630	-0.193030	-0.918289	0.758771	-0.217284	-0.936094	0.693218	-0.196559	-0.896029	0.729981	-0.216467	-0.768239	0.518977	-0.256690	-0.789100	0.492744	-0.365043	-0.879465	0.434770	-0.221808	-0.842428	0.399666	-0.249630	-0.913027	0.403294	-0.219318	-0.880354	0.370832	-0.242036	-1.060044	0.260002	-0.248224	-1.034136	0.247097	-0.334154	-1.007936	0.133735	-0.222520	-0.998199	0.124692	-0.334962	-0.927899	0.111395	-0.287948	-1.134866	0.253977	-0.296827	-1.045027	0.713420	-0.526770	-0.990501	0.722226	-0.523187	-1.036496	0.669936	-0.526614	-0.987955	0.677018	-0.526576	-0.967794	0.423054	-0.505188	-0.952722	0.419817	-0.393471	-1.090501	0.371029	-0.516421	-1.056569	0.339472	-0.516693	-1.125914	0.332986	-0.511604	-1.094258	0.301675	-0.511447	-1.247793	0.170146	-0.465951	-1.211860	0.155724	-0.383673	-1.216888	0.050346	-0.509207	-1.194922	0.044040	-0.398483	-1.145292	0.047171	-0.454954	-1.310735	0.177518	-0.411476	-0.941013	1.363770	-0.197562	-0.869560	1.353458	-0.509164	
35	0.1700	-0.948176	0.893728	-0.242103	-0.958847	0.897323	-0.475393	-1.120589	0.921476	-0.290779	-1.122264	0.929030	-0.387709	-0.936687	0.726352	-0.192071	-0.897805	0.764040	-0.216681	-0.914871	0.698229	-0.195839	-0.875349	0.735439	-0.216125	-0.745735	0.525454	-0.256315	-0.766655	0.498847	-0.364511	-0.853346	0.434661	-0.220833	-0.814717	0.402107	-0.249403	-0.885183	0.401372	-0.218364	-0.850966	0.371213	-0.241792	-1.024451	0.250795	-0.247822	-0.998364	0.240302	-0.333957	-0.964809	0.127472	-0.223678	-0.955209	0.120500	-0.336123	-0.883992	0.110853	-0.289373	-1.099281	0.240822	-0.296291	-1.026248	0.716124	-0.525480	-0.971732	0.724393	-0.521431	-1.018156	0.672570	-0.525434	-0.969580	0.679146	-0.524792	-0.952623	0.424638	-0.504630	-0.937964	0.420628	-0.392652	-1.076514	0.375198	-0.516406	-1.043125	0.342915	-0.516713	-1.112675	0.337904	-0.511801	-1.081533	0.305829	-0.511514	-1.236930	0.176443	-0.466969	-1.201463	0.160506	-0.384912	-1.213091	0.053674	-0.509260	-1.191356	0.046375	-0.398719	-1.143192	0.046873	-0.455147	-1.297712	0.187314	-0.412368	-0.924908	1.367304	-0.194984	-0.850461	1.357338	-0.505689	
36	0.1750	-0.928641	0.897398	-0.240618	-0.938967	0.900111	-0.473619	-1.100835	0.924439	-0.289438	-1.102409	0.931722	-0.386372	-0.915879	0.730858	-0.191077	-0.877428	0.768959	-0.216042	-0.893899	0.702973	-0.195049	-0.854857	0.740504	-0.215723	-0.724018	0.531307	-0.255729	-0.744890	0.504296	-0.363745	-0.827860	0.434172	-0.219796	-0.787716	0.404229	-0.249041	-0.857878	0.399149	-0.217419	-0.822182	0.371346	-0.241490	-0.988877	0.241617	-0.247665	-0.962674	0.233560	-0.333952	-0.921906	0.121577	-0.225110	-0.912507	0.116759	-0.337517	-0.840593	0.110783	-0.290945	-1.063472	0.227734	-0.296101	-1.007322	0.718846	-0.524202	-0.952841	0.726627	-0.519701	-0.999616	0.675231	-0.524264	-0.951034	0.681347	-0.523010	-0.936956	0.426399	-0.504070	-0.922744	0.421657	-0.391846	-1.061925	0.379452	-0.516436	-1.029072	0.346495	-0.516761	-1.098795	0.342895	-0.512056	-1.068155	0.310092	-0.511599	-1.225310	0.182831	-0.468041	-1.190348	0.165423	-0.386194	-1.208578	0.057306	-0.509336	-1.187058	0.049007	-0.398951	-1.140415	0.046614	-0.455342	-1.283855	0.197194	-0.413327	-0.908736	1.370729	-0.192423	-0.831538	1.361166	-0.502253	
37	0.1800	-0.909052	0.900986	-0.239155	-0.919109	0.902900	-0.471854	-1.081038	0.927316	-0.288051	-1.082546	0.934325	-0.384985	-0.895246	0.735092	-0.190041	-0.857153	0.773471	-0.215356	-0.873176	0.707390	-0.194179	-0.834541	0.745118	-0.215244	-0.703050	0.536478	-0.254941	-0.723766	0.509044	-0.362754	-0.802987	0.433288	-0.218706	-0.761413	0.405997	-0.248545	-0.831102	0.396622	-0.216488	-0.794002	0.371209	-0.241130	-0.953375	0.232499	-0.247738	-0.927115	0.226894	-0.334128	-0.879329	0.116048	-0.226791	-0.870185	0.113456	-0.339122	-0.797795	0.111146	-0.292646	-1.027499	0.214782	-0.296239	-0.988242	0.721557	-0.522941	-0.933821	0.728895	-0.517999	-0.980872	0.677887	-0.523107	-0.932313	0.683585	-0.521232	-0.920788	0.428292	-0.503506	-0.907065	0.422861	-0.391048	-1.046741	0.383743	-0.516504	-1.014415	0.350162	-0.516830	-1.084280	0.347910	-0.512360	-1.054132	0.314415	-0.511693	-1.212957	0.189273	-0.469156	-1.178535	0.170451	-0.387501	-1.203293	0.061227	-0.509437	-1.181971	0.051940	-0.399179	-1.136889	0.046420	-0.455535	-1.269223	0.207084	-0.414345	-0.892489	1.374008	-0.189879	-0.812801	1.364911	-0.498866	
38	0.1850	-0.889418	0.904452	-0.237713	-0.899275	0.905661	-0.470100	-1.061206	0.930068	-0.286623	-1.062683	0.936812	-0.383553	-0.874787	0.738999	-0.188955	-0.836974	0.777526	-0.214613	-0.852696	0.711425	-0.193221	-0.814388	0.749233	-0.214674	-0.682784	0.540925	-0.253966	-0.703238	0.513059	-0.361555	-0.778703	0.431999	-0.217575	-0.735791	0.407381	-0.247922	-0.804847	0.393788	-0.215577	-0.766423	0.370783	-0.240712	-0.918008	0.223470	-0.248025	-0.891743	0.220322	-0.334470	-0.837186	0.110877	-0.228689	-0.828341	0.110570	-0.340911	-0.755690	0.111889	-0.294452	-0.991436	0.202036	-0.296684	-0.969004	0.724224	-0.521698	-0.914664	0.731163	-0.516326	-0.961923	0.680505	-0.521965	-0.913410	0.685827	-0.519463	-0.904122	0.430270	-0.502933	-0.890931	0.424194	-0.390252	-1.030969	0.388024	-0.516601	-0.999163	0.353868	-0.516911	-1.069139	0.352900	-0.512703	-1.039476	0.318751	-0.511788	-1.199900	0.195733	-0.470301	-1.166047	0.175570	-0.388819	-1.197184	0.065420	-0.509564	-1.176045	0.055167	-0.399404	-1.132548	0.046322	-0.455725	-1.253879	0.216913	-0.415414	-0.876158	1.377107	-0.187349	-0.794256	1.368546	-0.495533	
39	0.1900	-0.869745	0.907755	-0.236292	-0.879468	0.908364	-0.468359	-1.041350	0.932660	-0.285162	-1.042824	0.939155	-0.382082	-0.854502	0.742528	-0.187813	-0.816886	0.781079	-0.213800	-0.832454	0.715027	-0.192167	-0.794388	0.752806	-0.213997	-0.663168	0.544614	-0.252821	-0.683256	0.516316	-0.360167	-0.754984	0.430303	-0.216418	-0.710830	0.408357	-0.247180	-0.779104	0.390650	-0.214696	-0.739442	0.370053	-0.240238	-0.882851	0.214561	-0.248507	-0.856623	0.213859	-0.334963	-0.795595	0.106052	-0.230765	-0.787077	0.108066	-0.342851	-0.714374	0.112949	-0.296333	-0.955375	0.189561	-0.297415	-0.949609	0.726818	-0.520476	-0.895365	0.733399	-0.514683	-0.942768	0.683051	-0.520841	-0.894323	0.688038	-0.517706	-0.886961	0.432286	-0.502350	-0.874348	0.425611	-0.389456	-1.014624	0.392249	-0.516719	-0.983330	0.357564	-0.516997	-1.053388	0.357819	-0.513073	-1.024205	0.323054	-0.511877	-1.186170	0.202177	-0.471465	-1.152912	0.180758	-0.390131	-1.190202	0.069860	-0.509719	-1.169233	0.058678	-0.399626	-1.127326	0.046349	-0.455909	-1.237891	0.226610	-0.416525	-0.859738	1.379996	-0.184832	-0.775907	1.372042	-0.492261	
40	0.1950	-0.850044	0.910859	-0.234888	-0.859689	0.910981	-0.466631	-1.021480	0.935056	-0.283672	-1.022976	0.941327	-0.380579	-0.834390	0.745635	-0.186609	-0.796885	0.784093	-0.212907	-0.812444	0.718153	-0.191011	-0.774530	0.755801	-0.213201	-0.644148	0.547524	-0.251528	-0.663772	0.518809	-0.358616	-0.731803	0.428200	-0.215250	-0.686508	0.408907	-0.246334	-0.753866	0.387216	-0.213851	-0.713056	0.369009	-0.239716	-0.847990	0.205800	-0.249164	-0.821832	0.207518	-0.335590	-0.754681	0.101555	-0.232977	-0.746499	0.105901	-0.344905	-0.673943	0.114258	-0.298257	-0.919421	0.177421	-0.298407	-0.930053	0.729307	-0.519276	-0.875920	0.735570	-0.513067	-0.923409	0.685494	-0.519736	-0.875049	0.690184	-0.515964	-0.869312	0.434293	-0.501753	-0.857328	0.427065	-0.388655	-0.997721	0.396376	-0.516850	-0.966933	0.361205	-0.517081	-1.037045	0.362624	-0.513460	-1.008338	0.327280	-0.511954	-1.171800	0.208569	-0.472636	-1.139157	0.185991	-0.391422	-1.182305	0.074515	-0.509903	-1.161497	0.062456	-0.399847	-1.121163	0.046529	-0.456086	-1.221329	0.236112	-0.417671	-0.843227	1.382643	-0.182325	-0.757756	1.375373	-0.489052	
41	0.2000	-0.830323	0.913726	-0.233500	-0.839941	0.913481	-0.464917	-1.001607	0.937225	-0.282160	-1.003147	0.943302	-0.379050	-0.814450	0.748280	-0.185338	-0.776969	0.786538	-0.211922	-0.792658	0.720764	-0.189751	-0.754804	0.758191	-0.212272	-0.625664	0.549648	-0.250112	-0.644734	0.520538	-0.356927	-0.709136	0.425700	-0.214087	-0.662804	0.409018	-0.245401	-0.729128	0.383497	-0.213054	-0.687262	0.367644	-0.239156	-0.813522	0.197215	-0.249979	-0.787454	0.201309	-0.336334	-0.714574	0.097367	-0.235280	-0.706718	0.104021	-0.347032	-0.634493	0.115738	-0.300184	-0.883693	0.165673	-0.299636	-0.910340	0.731662	-0.518099	-0.856328	0.737644	-0.511479	-0.903849	0.687803	-0.518650	-0.855588	0.692234	-0.514241	-0.851184	0.436249	-0.501141	-0.839879	0.428510	-0.387844	-0.980276	0.400365	-0.516984	-0.949987	0.364746	-0.517155	-1.020128	0.367275	-0.513852	-0.991895	0.331389	-0.512014	-1.156825	0.214879	-0.473803	-1.124811	0.191246	-0.392681	-1.173455	0.079351	-0.510118	-1.152802	0.066478	-0.400070	-1.114005	0.046889	-0.456254	-1.204260	0.245358	-0.418842	-0.826624	1.385022	-0.179824	-0.739806	1.378515	-0.485911	
42	0.2050	-0.810593	0.916326	-0.232123	-0.820227	0.915835	-0.463219	-0.981744	0.939136	-0.280630	-0.983342	0.945055	-0.377500	-0.794680	0.750433	-0.183996	-0.757136	0.788394	-0.210836	-0.773088	0.722833	-0.188386	-0.735202	0.759959	-0.211203	-0.607656	0.550987	-0.248600	-0.626091	0.521519	-0.355131	-0.686959	0.422817	-0.212948	-0.639692	0.408682	-0.244401	-0.704887	0.379510	-0.212314	-0.662058	0.365955	-0.238567	-0.779549	0.188835	-0.250930	-0.753579	0.195238	-0.337180	-0.675409	0.093465	-0.237628	-0.667848	0.102368	-0.349191	-0.596122	0.117309	-0.302077	-0.848322	0.154372	-0.301077	-0.890471	0.733855	-0.516943	-0.836586	0.739591	-0.509915	-0.884091	0.689948	-0.517585	-0.835940	0.694157	-0.512538	-0.832586	0.438113	-0.500514	-0.822010	0.429906	-0.387023	-0.962307	0.404179	-0.517116	-0.932511	0.368148	-0.517213	-1.002656	0.371737	-0.514240	-0.974899	0.335345	-0.512056	-1.141276	0.221074	-0.474956	-1.109899	0.196502	-0.393894	-1.163619	0.084328	-0.510366	-1.143122	0.070715	-0.400296	-1.105802	0.047451	-0.456413	-1.186748	0.254293	-0.420031	-0.809930	1.387109	-0.177325	-0.722053	1.381447	-0.482839	
43	0.2100	-0.790866	0.918627	-0.230753	-0.800548	0.918014	-0.461535	-0.961903	0.940761	-0.279087	-0.963569	0.946563	-0.375935	-0.775076	0.752068	-0.182580	-0.737385	0.789648	-0.209639	-0.753723	0.724337	-0.186919	-0.715715	0.761095	-0.209984	-0.590064	0.551558	-0.247019	-0.607794	0.521776	-0.353259	-0.665250	0.419571	-0.211850	-0.617149	0.407899	-0.243356	-0.681143	0.375276	-0.211642	-0.637444	0.363944	-0.237965	-0.746185	0.180686	-0.252001	-0.720307	0.189311	-0.338112	-0.637322	0.089826	-0.239971	-0.630006	0.100876	-0.351337	-0.558926	0.118885	-0.303895	-0.813449	0.143568	-0.302706	-0.870450	0.735858	-0.515809	-0.816696	0.741384	-0.508374	-0.864140	0.691904	-0.516540	-0.816105	0.695926	-0.510858	-0.813526	0.439847	-0.499870	-0.803728	0.431214	-0.386189	-0.943828	0.407788	-0.517238	-0.914520	0.371375	-0.517251	-0.984649	0.375979	-0.514614	-0.957369	0.339115	-0.512076	-1.125180	0.227126	-0.476087	-1.094445	0.201732	-0.395053	-1.152770	0.089401	-0.510648	-1.132433	0.075131	-0.400530	-1.096511	0.048233	-0.456565	-1.168852	0.262869	-0.421229	-0.793147	1.388883	-0.174825	-0.704494	1.384148	-0.479834	
44	0.2150	-0.771150	0.920607	-0.229387	-0.780906	0.919992	-0.459866	-0.942096	0.942077	-0.277536	-0.943834	0.947805	-0.374359	-0.755633	0.753169	-0.181091	-0.717713	0.790296	-0.208323	-0.734554	0.725264	-0.185353	-0.696335	0.761598	-0.208611	-0.572827	0.551384	-0.245398	-0.589792	0.521343	-0.351342	-0.643988	0.415988	-0.210810	-0.595154	0.406674	-0.242289	-0.657898	0.370818	-0.211046	-0.613419	0.361618	-0.237364	-0.713547	0.172793	-0.253171	-0.687740	0.183531	-0.339114	-0.600451	0.086424	-0.242263	-0.593308	0.099479	-0.353429	-0.523000	0.120383	-0.305600	-0.779222	0.133304	-0.304498	-0.850281	0.737648	-0.514693	-0.796659	0.742998	-0.506853	-0.844000	0.693646	-0.515514	-0.796085	0.697517	-0.509203	-0.794011	0.441423	-0.499209	-0.785037	0.432400	-0.385342	-0.924854	0.411165	-0.517343	-0.896028	0.374395	-0.517264	-0.966122	0.379975	-0.514966	-0.939321	0.342671	-0.512076	-1.108562	0.233008	-0.477186	-1.078468	0.206912	-0.396150	-1.140887	0.094524	-0.510965	-1.120720	0.079688	-0.400775	-1.086094	0.049247	-0.456710	-1.150620	0.271044	-0.422428	-0.776276	1.390327	-0.172317	-0.687122	1.386599	-0.476898	
45	0.2200	-0.751455	0.922243	-0.228018	-0.761301	0.921745	-0.458211	-0.922333	0.943063	-0.275978	-0.924141	0.948762	-0.372777	-0.736347	0.753728	-0.179528	-0.698121	0.790343	-0.206884	-0.715568	0.725610	-0.183696	-0.677054	0.761478	-0.207083	-0.555884	0.550501	-0.243767	-0.572039	0.520265	-0.349411	-0.623155	0.412097	-0.209844	-0.573684	0.405017	-0.241225	-0.635157	0.366164	-0.210538	-0.589986	0.358986	-0.236779	-0.681755	0.165182	-0.254425	-0.655985	0.177900	-0.340173	-0.564931	0.083235	-0.244460	-0.557869	0.098108	-0.355428	-0.488436	0.121718	-0.307153	-0.745793	0.123620	-0.306430	-0.829968	0.739203	-0.513592	-0.776478	0.744412	-0.505349	-0.823678	0.695154	-0.514505	-0.775881	0.698908	-0.507574	-0.774047	0.442813	-0.498533	-0.765938	0.433436	-0.384480	-0.905395	0.414289	-0.517426	-0.877044	0.377182	-0.517250	-0.947087	0.383706	-0.515288	-0.920768	0.345992	-0.512055	-1.091440	0.238694	-0.478246	-1.061980	0.212017	-0.397177	-1.127951	0.099648	-0.511318	-1.107969	0.084338	-0.401035	-1.074519	0.050496	-0.456850	-1.132092	0.278783	-0.423620	-0.759321	1.391425	-0.169796	-0.669930	1.388785	-0.474026	
46	0.2250	-0.731787	0.923522	-0.226641	-0.741730	0.923249	-0.456569	-0.902622	0.943705	-0.274418	-0.904494	0.949418	-0.371192	-0.717209	0.753744	-0.177895	-0.678604	0.789802	-0.205317	-0.696750	0.725380	-0.181956	-0.657865	0.760750	-0.205401	-0.539180	0.548950	-0.242151	-0.554490	0.518589	-0.347499	-0.602736	0.407933	-0.208969	-0.552721	0.402943	-0.240188	-0.612927	0.361346	-0.210126	-0.567148	0.356062	-0.236227	-0.650930	0.157878	-0.255746	-0.625151	0.172423	-0.341278	-0.530891	0.080234	-0.246520	-0.523803	0.096698	-0.357295	-0.455323	0.122812	-0.308524	-0.713317	0.114547	-0.308479	-0.809514	0.740503	-0.512502	-0.756154	0.745607	-0.503859	-0.803175	0.696409	-0.513510	-0.755494	0.700082	-0.505973	-0.753637	0.443998	-0.497839	-0.746426	0.434298	-0.383604	-0.885457	0.417143	-0.517483	-0.857575	0.379717	-0.517204	-0.927555	0.387155	-0.515574	-0.901719	0.349059	-0.512015	-1.073823	0.244160	-0.479261	-1.044987	0.217020	-0.398132	-1.113950	0.104725	-0.511709	-1.094173	0.089036	-0.401313	-1.061760	0.051977	-0.456990	-1.113295	0.286055	-0.424798	-0.742282	1.392170	-0.167259	-0.652905	1.390693	-0.471218	
47	0.2300	-0.712153	0.924431	-0.225249	-0.722190	0.924486	-0.454939	-0.882970	0.943992	-0.272855	-0.884893	0.949760	-0.369605	-0.698208	0.753227	-0.176196	-0.659161	0.788697	-0.203622	-0.678085	0.724587	-0.180146	-0.638759	0.759441	-0.203570	-0.522660	0.546782	-0.240577	-0.537105	0.516373	-0.345632	-0.582720	0.403532	-0.208196	-0.532246	0.400472	-0.239200	-0.591218	0.356396	-0.209816	-0.544911	0.352863	-0.235723	-0.621190	0.150901	-0.257119	-0.595345	0.167100	-0.342416	-0.498456	0.077396	-0.248409	-0.491217	0.095185	-0.359001	-0.423743	0.123590	-0.309683	-0.681945	0.106111	-0.310622	-0.788924	0.741534	-0.511419	-0.735689	0.746570	-0.502380	-0.782496	0.697399	-0.512526	-0.734925	0.701028	-0.504400	-0.732782	0.444967	-0.497130	-0.726492	0.434972	-0.382715	-0.865042	0.419716	-0.517509	-0.837620	0.381982	-0.517126	-0.907529	0.390311	-0.515818	-0.882177	0.351859	-0.511959	-1.055716	0.249383	-0.480225	-1.027489	0.221893	-0.399009	-1.098872	0.109706	-0.512137	-1.079325	0.093729	-0.401613	-1.047796	0.053682	-0.457131	-1.094246	0.292839	-0.425952	-0.725159	1.392554	-0.164700	-0.636033	1.392314	-0.468469	
48	0.2350	-0.692554	0.924967	-0.223836	-0.702675	0.925440	-0.453317	-0.863379	0.943918	-0.271290	-0.865337	0.949781	-0.368018	-0.679333	0.752194	-0.174436	-0.639785	0.787056	-0.201801	-0.659554	0.723253	-0.178279	-0.619728	0.757583	-0.201598	-0.506275	0.544051	-0.239068	-0.519846	0.513674	-0.343837	-0.563097	0.398937	-0.207538	-0.512246	0.397630	-0.238282	-0.570041	0.351350	-0.209615	-0.523282	0.349411	-0.235282	-0.592651	0.144274	-0.258532	-0.566672	0.161934	-0.343578	-0.467735	0.074699	-0.250097	-0.460212	0.093515	-0.360517	-0.393771	0.123987	-0.310609	-0.651823	0.098334	-0.312838	-0.768198	0.742282	-0.510335	-0.715086	0.747292	-0.500909	-0.761640	0.698114	-0.511547	-0.714174	0.701736	-0.502856	-0.711479	0.445714	-0.496403	-0.706125	0.435449	-0.381811	-0.844149	0.422003	-0.517501	-0.817177	0.383970	-0.517014	-0.887008	0.393168	-0.516015	-0.862140	0.354384	-0.511888	-1.037113	0.254342	-0.481133	-1.009475	0.226608	-0.399809	-1.082710	0.114541	-0.512603	-1.063420	0.098365	-0.401938	-1.032608	0.055591	-0.457279	-1.074944	0.299113	-0.427075	-0.707950	1.392578	-0.162114	-0.619297	1.393639	-0.465776	
49	0.2400	-0.672990	0.925131	-0.222393	-0.683176	0.926102	-0.451702	-0.843851	0.943485	-0.269724	-0.845822	0.949474	-0.366432	-0.660569	0.750668	-0.172622	-0.620471	0.784915	-0.199857	-0.641139	0.721410	-0.176367	-0.600762	0.755215	-0.199496	-0.489981	0.540818	-0.237645	-0.502682	0.510554	-0.342137	-0.543862	0.394190	-0.207003	-0.492707	0.394445	-0.237454	-0.549410	0.346245	-0.209527	-0.502267	0.345728	-0.234916	-0.565419	0.138016	-0.259972	-0.539230	0.156929	-0.344757	-0.438829	0.072123	-0.251560	-0.430880	0.091638	-0.361826	-0.365474	0.123947	-0.311288	-0.623091	0.091229	-0.315107	-0.747338	0.742741	-0.509245	-0.694343	0.747767	-0.499442	-0.740607	0.698549	-0.510568	-0.693238	0.702205	-0.501339	-0.689724	0.446241	-0.495657	-0.685307	0.435726	-0.380894	-0.822772	0.424001	-0.517456	-0.796236	0.385677	-0.516865	-0.865987	0.395725	-0.516162	-0.841597	0.356629	-0.511805	-1.018001	0.259016	-0.481981	-0.990930	0.231136	-0.400528	-1.065456	0.119186	-0.513105	-1.046455	0.102891	-0.402291	-1.016183	0.057680	-0.457437	-1.055379	0.304865	-0.428159	-0.690653	1.392245	-0.159498	-0.602679	1.394666	-0.463134	
50	0.2450	-0.653458	0.924931	-0.220913	-0.663683	0.926462	-0.450090	-0.824380	0.942698	-0.268155	-0.826339	0.948841	-0.364845	-0.641899	0.748684	-0.170762	-0.601211	0.782319	-0.197799	-0.622819	0.719093	-0.174427	-0.581851	0.752384	-0.197279	-0.473739	0.537144	-0.236324	-0.485586	0.507076	-0.340551	-0.525013	0.389333	-0.206598	-0.473619	0.390948	-0.236731	-0.529339	0.341120	-0.209554	-0.481875	0.341841	-0.234636	-0.539592	0.132143	-0.261428	-0.513113	0.152091	-0.345945	-0.411821	0.069651	-0.252783	-0.403302	0.089515	-0.362914	-0.338910	0.123426	-0.311712	-0.595872	0.084802	-0.317407	-0.726340	0.742907	-0.508140	-0.673460	0.747995	-0.497975	-0.719394	0.698703	-0.509583	-0.672114	0.702435	-0.499849	-0.667509	0.446557	-0.494891	-0.664018	0.435810	-0.379962	-0.800899	0.425716	-0.517371	-0.774783	0.387104	-0.516678	-0.844456	0.397982	-0.516256	-0.820536	0.358596	-0.511710	-0.998358	0.263387	-0.482765	-0.971828	0.235447	-0.401167	-1.047103	0.123597	-0.513640	-1.028424	0.107253	-0.402673	-0.998508	0.059918	-0.457610	-1.035528	0.310083	-0.429195	-0.673261	1.391564	-0.156847	-0.586157	1.395395	-0.460540	
51	0.2500	-0.633950	0.924378	-0.219387	-0.644180	0.926521	-0.448477	-0.804960	0.941568	-0.266581	-0.806878	0.947886	-0.363257	-0.623304	0.746279	-0.168866	-0.581994	0.779315	-0.195635	-0.604572	0.716347	-0.172474	-0.562983	0.749138	-0.194963	-0.457517	0.533093	-0.235119	-0.468538	0.503303	-0.339096	-0.506550	0.384413	-0.206325	-0.454978	0.387175	-0.236126	-0.509843	0.336011	-0.209696	-0.462116	0.337778	-0.234452	-0.515253	0.126672	-0.262890	-0.488401	0.147426	-0.347137	-0.386778	0.067266	-0.253757	-0.377545	0.087119	-0.363775	-0.314123	0.122392	-0.311881	-0.570278	0.079055	-0.319720	-0.705202	0.742782	-0.507012	-0.652433	0.747982	-0.496505	-0.697995	0.698581	-0.508583	-0.650797	0.702435	-0.498383	-0.644825	0.446678	-0.494099	-0.642236	0.435713	-0.379013	-0.778518	0.427154	-0.517244	-0.752802	0.388259	-0.516450	-0.822400	0.399946	-0.516295	-0.798938	0.360288	-0.511605	-0.978157	0.267434	-0.483480	-0.952140	0.239513	-0.401725	-1.027645	0.127735	-0.514207	-1.009322	0.111401	-0.403085	-0.979575	0.062268	-0.457800	-1.015354	0.314758	-0.430174	-0.655765	1.390549	-0.154158	-0.569708	1.395830	-0.457989	
52	0.2550	-0.614455	0.923492	-0.217807	-0.624651	0.926282	-0.446858	-0.785579	0.940114	-0.264999	-0.787425	0.946620	-0.361665	-0.604765	0.743499	-0.166942	-0.562810	0.775955	-0.193378	-0.586377	0.713222	-0.170523	-0.544148	0.745532	-0.192567	-0.441292	0.528729	-0.234039	-0.451522	0.499294	-0.337781	-0.488477	0.379471	-0.206184	-0.436779	0.383161	-0.235648	-0.490938	0.330957	-0.209950	-0.442999	0.333569	-0.234368	-0.492474	0.121613	-0.264349	-0.465165	0.142942	-0.348328	-0.363746	0.064956	-0.254482	-0.353661	0.084432	-0.364410	-0.291147	0.120829	-0.311805	-0.546401	0.073982	-0.322026	-0.683917	0.742370	-0.505853	-0.631258	0.747738	-0.495028	-0.676404	0.698192	-0.507560	-0.629281	0.702215	-0.496938	-0.621661	0.446626	-0.493279	-0.619936	0.435454	-0.378045	-0.755611	0.428328	-0.517071	-0.730272	0.389153	-0.516177	-0.799802	0.401624	-0.516276	-0.776778	0.361713	-0.511487	-0.957361	0.271141	-0.484121	-0.931827	0.243303	-0.402201	-1.007072	0.131563	-0.514801	-0.989141	0.115285	-0.403526	-0.959374	0.064691	-0.458011	-0.994812	0.318884	-0.431087	-0.638155	1.389218	-0.151430	-0.553307	1.395979	-0.455477	
53	0.2600	-0.594960	0.922296	-0.216166	-0.605077	0.925753	-0.445227	-0.766222	0.938360	-0.263405	-0.767963	0.945057	-0.360065	-0.586260	0.740394	-0.165001	-0.543646	0.772293	-0.191042	-0.568210	0.709772	-0.168588	-0.525332	0.741623	-0.190112	-0.425046	0.524114	-0.233091	-0.434532	0.495108	-0.336614	-0.470801	0.374550	-0.206173	-0.419022	0.378944	-0.235301	-0.472637	0.325993	-0.210312	-0.424534	0.329244	-0.234389	-0.471307	0.116978	-0.265796	-0.443461	0.138648	-0.349513	-0.342750	0.062714	-0.254964	-0.331687	0.081451	-0.364828	-0.270000	0.118733	-0.311497	-0.524314	0.069573	-0.324308	-0.662478	0.741685	-0.504652	-0.609929	0.747277	-0.493537	-0.654611	0.697550	-0.506505	-0.607558	0.701794	-0.495509	-0.598006	0.446428	-0.492422	-0.597095	0.435060	-0.377053	-0.732160	0.429254	-0.516849	-0.707169	0.389805	-0.515856	-0.776642	0.403028	-0.516197	-0.754031	0.362883	-0.511354	-0.935932	0.274489	-0.484684	-0.910848	0.246790	-0.402593	-0.985376	0.135053	-0.515415	-0.967870	0.118860	-0.403994	-0.937896	0.067143	-0.458243	-0.973848	0.322455	-0.431923	-0.620418	1.387595	-0.148661	-0.536929	1.395855	-0.453000	
54	0.2650	-0.575448	0.920819	-0.214453	-0.585438	0.924948	-0.443579	-0.746869	0.936333	-0.261795	-0.748473	0.943218	-0.358453	-0.567767	0.737017	-0.163051	-0.524490	0.768388	-0.188644	-0.550049	0.706053	-0.166683	-0.506525	0.737468	-0.187619	-0.408771	0.519308	-0.232275	-0.417567	0.490800	-0.335598	-0.453532	0.369691	-0.206286	-0.401709	0.374563	-0.235086	-0.454956	0.321155	-0.210774	-0.406728	0.324837	-0.234514	-0.451789	0.112773	-0.267224	-0.423332	0.134558	-0.350690	-0.323796	0.060532	-0.255216	-0.311642	0.078183	-0.365042	-0.250686	0.116116	-0.310979	-0.504068	0.065810	-0.326547	-0.640876	0.740741	-0.503400	-0.588438	0.746620	-0.492029	-0.632607	0.696674	-0.505407	-0.585620	0.701192	-0.494091	-0.573849	0.446119	-0.491522	-0.573690	0.434561	-0.376031	-0.708148	0.429950	-0.516575	-0.683471	0.390236	-0.515480	-0.752897	0.404170	-0.516056	-0.730669	0.363810	-0.511202	-0.913826	0.277462	-0.485163	-0.889158	0.249947	-0.402900	-0.962546	0.138177	-0.516043	-0.945498	0.122085	-0.404485	-0.915136	0.069580	-0.458497	-0.952403	0.325467	-0.432671	-0.602542	1.385709	-0.145852	-0.520548	1.395476	-0.450556	
55	0.2700	-0.555900	0.919095	-0.212663	-0.565712	0.923888	-0.441905	-0.727499	0.934067	-0.260164	-0.728935	0.941130	-0.356825	-0.549265	0.733424	-0.161103	-0.505327	0.764295	-0.186200	-0.531875	0.702127	-0.164818	-0.487715	0.733126	-0.185110	-0.392467	0.514368	-0.231591	-0.400635	0.486420	-0.334732	-0.436680	0.364931	-0.206514	-0.384846	0.370057	-0.235002	-0.437908	0.316474	-0.211326	-0.389591	0.320378	-0.234741	-0.433938	0.109003	-0.268625	-0.404802	0.130682	-0.351854	-0.306864	0.058409	-0.255257	-0.293525	0.074646	-0.365071	-0.233194	0.113004	-0.310279	-0.485690	0.062672	-0.328727	-0.619100	0.739561	-0.502087	-0.566776	0.745791	-0.490497	-0.610381	0.695588	-0.504256	-0.563457	0.700436	-0.492676	-0.549182	0.445736	-0.490569	-0.549702	0.433994	-0.374973	-0.683557	0.430437	-0.516242	-0.659156	0.390469	-0.515043	-0.728549	0.405065	-0.515852	-0.706665	0.364513	-0.511022	-0.890999	0.280046	-0.485552	-0.866713	0.252748	-0.403117	-0.938572	0.140915	-0.516675	-0.922012	0.124924	-0.404992	-0.891086	0.071959	-0.458770	-0.930414	0.327916	-0.433322	-0.584512	1.383593	-0.143002	-0.504140	1.394861	-0.448141	
56	0.2750	-0.536295	0.917161	-0.210788	-0.545877	0.922596	-0.440200	-0.708089	0.931600	-0.258506	-0.709326	0.938821	-0.355174	-0.530733	0.729675	-0.159164	-0.486145	0.760073	-0.183729	-0.513670	0.698053	-0.163005	-0.468892	0.728654	-0.182608	-0.376142	0.509348	-0.231032	-0.383749	0.482012	-0.334010	-0.420259	0.360306	-0.206846	-0.368440	0.365465	-0.235041	-0.421504	0.311980	-0.211958	-0.373130	0.315901	-0.235064	-0.417751	0.105668	-0.269990	-0.387879	0.127035	-0.353002	-0.291916	0.056345	-0.255110	-0.277318	0.070872	-0.364938	-0.217497	0.109436	-0.309428	-0.469183	0.060135	-0.330830	-0.597142	0.738168	-0.500704	-0.544936	0.744818	-0.488936	-0.587923	0.694318	-0.503039	-0.541064	0.699556	-0.491258	-0.523999	0.445321	-0.489554	-0.525116	0.433399	-0.373870	-0.658374	0.430740	-0.515846	-0.634204	0.390534	-0.514537	-0.703579	0.405731	-0.515580	-0.681993	0.365010	-0.510807	-0.867408	0.282226	-0.485843	-0.843467	0.255172	-0.403241	-0.913443	0.143253	-0.517301	-0.897398	0.127347	-0.405507	-0.865742	0.074238	-0.459057	-0.907818	0.329798	-0.433862	-0.566314	1.381285	-0.140115	-0.487681	1.394037	-0.445754	
57	0.2800	-0.516613	0.915057	-0.208821	-0.525913	0.921102	-0.438457	-0.688614	0.928973	-0.256816	-0.689625	0.936327	-0.353495	-0.512154	0.725825	-0.157241	-0.466933	0.755775	-0.181249	-0.495417	0.693891	-0.161249	-0.450049	0.724108	-0.180132	-0.359812	0.504296	-0.230592	-0.366932	0.477618	-0.333424	-0.404284	0.355845	-0.207269	-0.352501	0.360825	-0.235195	-0.405752	0.307699	-0.212656	-0.357351	0.311436	-0.235476	-0.403208	0.102767	-0.271313	-0.372555	0.123631	-0.354131	-0.278890	0.054343	-0.254801	-0.262983	0.066900	-0.364669	-0.203553	0.105464	-0.308460	-0.454527	0.058168	-0.332843	-0.574992	0.736593	-0.499240	-0.522911	0.743733	-0.487341	-0.565226	0.692897	-0.501747	-0.518432	0.698585	-0.489829	-0.498301	0.444915	-0.488465	-0.499926	0.432819	-0.372713	-0.632589	0.430882	-0.515380	-0.608602	0.390460	-0.513953	-0.677973	0.406185	-0.515238	-0.656633	0.365321	-0.510546	-0.843012	0.283990	-0.486030	-0.819381	0.257198	-0.403265	-0.887151	0.145180	-0.517910	-0.871643	0.129329	-0.406020	-0.839103	0.076379	-0.459352	-0.884556	0.331108	-0.434281	-0.547936	1.378826	-0.137194	-0.471150	1.393033	-0.443392	
58	0.2850	-0.496832	0.912825	-0.206760	-0.505803	0.919439	-0.436667	-0.669052	0.926231	-0.255087	-0.669813	0.933686	-0.351782	-0.493514	0.721934	-0.155341	-0.447681	0.751454	-0.178779	-0.477107	0.689702	-0.159558	-0.431180	0.719541	-0.177704	-0.343502	0.499256	-0.230258	-0.350213	0.473273	-0.332964	-0.388770	0.351575	-0.207768	-0.337041	0.356173	-0.235452	-0.390661	0.303653	-0.213406	-0.342256	0.307016	-0.235966	-0.390268	0.100295	-0.272586	-0.358802	0.120485	-0.355235	-0.267707	0.052410	-0.254361	-0.250463	0.062776	-0.364292	-0.191304	0.101149	-0.307410	-0.441679	0.056740	-0.334750	-0.552645	0.734871	-0.497688	-0.500695	0.742572	-0.485704	-0.542284	0.691359	-0.500368	-0.495561	0.697558	-0.488378	-0.472092	0.444564	-0.487291	-0.474132	0.432300	-0.371490	-0.606201	0.430890	-0.514836	-0.582342	0.390280	-0.513280	-0.651724	0.406446	-0.514821	-0.630571	0.365469	-0.510227	-0.817778	0.285328	-0.486102	-0.794421	0.258811	-0.403183	-0.859692	0.146691	-0.518486	-0.844740	0.130855	-0.406520	-0.811172	0.078349	-0.459646	-0.860574	0.331845	-0.434568	-0.529367	1.376261	-0.134244	-0.454531	1.391880	-0.441057	
59	0.2900	-0.476935	0.910511	-0.204600	-0.485531	0.917644	-0.434825	-0.649380	0.923420	-0.253314	-0.649871	0.930940	-0.350027	-0.474802	0.718057	-0.153469	-0.428386	0.747160	-0.176334	-0.458733	0.685541	-0.157934	-0.412285	0.715001	-0.175340	-0.327243	0.494268	-0.230020	-0.333626	0.469006	-0.332615	-0.373736	0.347520	-0.208325	-0.322072	0.351545	-0.235797	-0.376234	0.299861	-0.214191	-0.327850	0.302669	-0.236524	-0.378873	0.098244	-0.273801	-0.346578	0.117610	-0.356310	-0.258267	0.050551	-0.253820	-0.239686	0.058555	-0.363835	-0.180679	0.096561	-0.306314	-0.430571	0.055817	-0.336538	-0.530097	0.733037	-0.496039	-0.478287	0.741371	-0.484020	-0.519097	0.689740	-0.498891	-0.472450	0.696514	-0.486898	-0.445386	0.444312	-0.486021	-0.447744	0.431886	-0.370191	-0.579215	0.430791	-0.514206	-0.555426	0.390026	-0.512509	-0.624833	0.406533	-0.514324	-0.603802	0.365475	-0.509835	-0.791681	0.286232	-0.486052	-0.768561	0.260000	-0.402987	-0.831069	0.147788	-0.519016	-0.816684	0.131914	-0.406992	-0.781959	0.080120	-0.459927	-0.835828	0.332004	-0.434710	-0.510601	1.373635	-0.131270	-0.437809	1.390613	-0.438746	
60	0.2950	-0.456907	0.908157	-0.202341	-0.465088	0.915757	-0.432926	-0.629579	0.920587	-0.251489	-0.629788	0.928132	-0.348225	-0.456013	0.714245	-0.151629	-0.409045	0.742937	-0.173932	-0.440296	0.681461	-0.156377	-0.393366	0.710534	-0.173057	-0.311074	0.489365	-0.229862	-0.317214	0.464843	-0.332363	-0.359196	0.343698	-0.208924	-0.307610	0.346975	-0.236214	-0.362474	0.296337	-0.214995	-0.314132	0.298423	-0.237134	-0.368950	0.096601	-0.274951	-0.335824	0.115018	-0.357352	-0.250458	0.048777	-0.253208	-0.230561	0.054292	-0.363327	-0.171594	0.091776	-0.305209	-0.421119	0.055363	-0.338197	-0.507352	0.731130	-0.494288	-0.455690	0.740168	-0.482285	-0.495671	0.688081	-0.497307	-0.449107	0.695490	-0.485379	-0.418206	0.444201	-0.484643	-0.420785	0.431622	-0.368805	-0.551647	0.430612	-0.513481	-0.527866	0.389733	-0.511627	-0.597312	0.406466	-0.513741	-0.576331	0.365366	-0.509357	-0.764708	0.286698	-0.485870	-0.741789	0.260756	-0.402667	-0.801292	0.148476	-0.519484	-0.787481	0.132505	-0.407421	-0.751484	0.081670	-0.460182	-0.810285	0.331587	-0.434698	-0.491637	1.370997	-0.128281	-0.420979	1.389269	-0.436461	
61	0.3000	-0.436740	0.905808	-0.199983	-0.444472	0.913819	-0.430963	-0.609638	0.917779	-0.249609	-0.609555	0.925307	-0.346370	-0.437150	0.710546	-0.149823	-0.389663	0.738824	-0.171586	-0.421802	0.677511	-0.154887	-0.374432	0.706181	-0.170868	-0.295039	0.484578	-0.229770	-0.301023	0.460804	-0.332190	-0.345169	0.340123	-0.209545	-0.293668	0.342493	-0.236687	-0.349380	0.293093	-0.215801	-0.301101	0.294306	-0.237783	-0.360411	0.095354	-0.276029	-0.326465	0.112722	-0.358354	-0.244151	0.047097	-0.252556	-0.222986	0.050048	-0.362795	-0.163954	0.086874	-0.304125	-0.413217	0.055342	-0.339716	-0.484418	0.729193	-0.492428	-0.432914	0.739002	-0.480493	-0.472017	0.686419	-0.495608	-0.425547	0.694524	-0.483812	-0.390586	0.444272	-0.483147	-0.393291	0.431549	-0.367321	-0.523527	0.430379	-0.512651	-0.499689	0.389432	-0.510624	-0.569184	0.406265	-0.513067	-0.548178	0.365163	-0.508777	-0.736860	0.286724	-0.485547	-0.714106	0.261077	-0.402217	-0.770384	0.148765	-0.519874	-0.757148	0.132631	-0.407791	-0.719778	0.082985	-0.460396	-0.783929	0.330594	-0.434521	-0.472479	1.368395	-0.125283	-0.404039	1.387885	-0.434204	
62	0.3050	-0.416429	0.903506	-0.197531	-0.423689	0.911872	-0.428934	-0.589549	0.915042	-0.247668	-0.589173	0.922511	-0.344456	-0.418223	0.707005	-0.148053	-0.370251	0.734858	-0.169309	-0.403265	0.673734	-0.153460	-0.355498	0.701975	-0.168782	-0.279187	0.479932	-0.229728	-0.285104	0.456907	-0.332081	-0.331671	0.336805	-0.210172	-0.280263	0.338129	-0.237196	-0.336949	0.290136	-0.216593	-0.288752	0.290342	-0.238456	-0.353156	0.094486	-0.277026	-0.318416	0.110729	-0.359311	-0.239211	0.045520	-0.251892	-0.216845	0.045881	-0.362262	-0.157652	0.081935	-0.303093	-0.406747	0.055717	-0.341087	-0.461313	0.727265	-0.490456	-0.409977	0.737912	-0.478641	-0.448157	0.684795	-0.493787	-0.401791	0.693654	-0.482190	-0.362570	0.444561	-0.481524	-0.365311	0.431707	-0.365729	-0.494896	0.430118	-0.511708	-0.470934	0.389155	-0.509490	-0.540488	0.405951	-0.512295	-0.519378	0.364892	-0.508082	-0.708156	0.286313	-0.485075	-0.685530	0.260968	-0.401626	-0.738383	0.148670	-0.520168	-0.725714	0.132305	-0.408084	-0.686888	0.084055	-0.460552	-0.756761	0.329030	-0.434173	-0.453141	1.365876	-0.122288	-0.386996	1.386499	-0.431976	
63	0.3100	-0.395980	0.901291	-0.194989	-0.402752	0.909958	-0.426838	-0.569315	0.912419	-0.245663	-0.568651	0.919788	-0.342480	-0.399249	0.703660	-0.146319	-0.350828	0.731066	-0.167112	-0.384709	0.670168	-0.152092	-0.336587	0.697947	-0.166808	-0.263570	0.475448	-0.229720	-0.269510	0.453165	-0.332017	-0.318716	0.333752	-0.210786	-0.267409	0.333910	-0.237724	-0.325174	0.287468	-0.217354	-0.277080	0.286553	-0.239137	-0.347073	0.093976	-0.277938	-0.311580	0.109046	-0.360215	-0.235494	0.044056	-0.251240	-0.212011	0.041847	-0.361750	-0.152577	0.077039	-0.302138	-0.401577	0.056453	-0.342303	-0.438063	0.725389	-0.488373	-0.386904	0.736934	-0.476726	-0.424124	0.683248	-0.491840	-0.377873	0.692915	-0.480507	-0.334218	0.445098	-0.479768	-0.336908	0.432129	-0.364022	-0.465813	0.429851	-0.510644	-0.441656	0.388931	-0.508215	-0.511277	0.405543	-0.511417	-0.489980	0.364574	-0.507257	-0.678632	0.285471	-0.484448	-0.656099	0.260436	-0.400888	-0.705344	0.148209	-0.520352	-0.693229	0.131546	-0.408284	-0.652876	0.084882	-0.460633	-0.728802	0.326904	-0.433646	-0.433642	1.363486	-0.119305	-0.369865	1.385149	-0.429779	
64	0.3150	-0.375410	0.899200	-0.192366	-0.381688	0.908118	-0.424673	-0.548949	0.909952	-0.243592	-0.548007	0.917179	-0.340439	-0.380254	0.700542	-0.144621	-0.331419	0.727474	-0.165001	-0.366163	0.666845	-0.150776	-0.317727	0.694121	-0.164949	-0.248246	0.471142	-0.229731	-0.254297	0.449587	-0.331982	-0.306321	0.330964	-0.211369	-0.255120	0.329859	-0.238253	-0.314048	0.285090	-0.218069	-0.266078	0.282958	-0.239812	-0.342048	0.093804	-0.278757	-0.305851	0.107676	-0.361061	-0.232852	0.042713	-0.250623	-0.208355	0.037999	-0.361278	-0.148610	0.072262	-0.301282	-0.397566	0.057514	-0.343362	-0.414705	0.723603	-0.486178	-0.363732	0.736101	-0.474749	-0.399958	0.681812	-0.489765	-0.353834	0.692338	-0.478756	-0.305602	0.445909	-0.477873	-0.308163	0.432843	-0.362193	-0.436348	0.429602	-0.509449	-0.411930	0.388787	-0.506794	-0.481620	0.405061	-0.510429	-0.460055	0.364234	-0.506292	-0.648345	0.284212	-0.483659	-0.625870	0.259496	-0.399996	-0.671341	0.147406	-0.520409	-0.659760	0.130378	-0.408375	-0.617826	0.085470	-0.460622	-0.700095	0.324230	-0.432936	-0.414013	1.361267	-0.116345	-0.352670	1.383870	-0.427618	
65	0.3200	-0.354743	0.897265	-0.189672	-0.360532	0.906391	-0.422444	-0.528473	0.907675	-0.241455	-0.527272	0.914725	-0.338333	-0.361276	0.697678	-0.142957	-0.312061	0.724101	-0.162983	-0.347667	0.663789	-0.149506	-0.298955	0.690517	-0.163207	-0.233269	0.467030	-0.229747	-0.239521	0.446182	-0.331960	-0.294497	0.328443	-0.211907	-0.243408	0.325997	-0.238766	-0.303562	0.282997	-0.218723	-0.255734	0.279574	-0.240464	-0.337958	0.093945	-0.279478	-0.301120	0.106617	-0.361843	-0.231136	0.041497	-0.250059	-0.205739	0.034382	-0.360859	-0.145630	0.067672	-0.300539	-0.394570	0.058865	-0.344261	-0.391287	0.721944	-0.483876	-0.340506	0.735443	-0.472711	-0.375714	0.680523	-0.487563	-0.329730	0.691951	-0.476936	-0.276806	0.447012	-0.475840	-0.279169	0.433868	-0.360239	-0.406591	0.429389	-0.508120	-0.381843	0.388745	-0.505220	-0.451605	0.404522	-0.509325	-0.429690	0.363891	-0.505176	-0.617375	0.282550	-0.482704	-0.594924	0.258168	-0.398946	-0.636470	0.146286	-0.520327	-0.625396	0.128835	-0.408340	-0.581844	0.085831	-0.460502	-0.670706	0.321028	-0.432042	-0.394295	1.359258	-0.113421	-0.335443	1.382695	-0.425495	
66	0.3250	-0.334016	0.895514	-0.186921	-0.339332	0.904809	-0.420153	-0.507923	0.905619	-0.239252	-0.506486	0.912459	-0.336161	-0.342359	0.695087	-0.141327	-0.292796	0.720958	-0.161061	-0.329269	0.661018	-0.148276	-0.280315	0.687148	-0.161581	-0.218698	0.463122	-0.229754	-0.225237	0.442955	-0.331936	-0.283255	0.326185	-0.212385	-0.232286	0.322343	-0.239247	-0.293702	0.281183	-0.219305	-0.246038	0.276417	-0.241082	-0.334682	0.094374	-0.280098	-0.297272	0.105865	-0.362554	-0.230202	0.040414	-0.249561	-0.204027	0.031037	-0.360505	-0.143514	0.063332	-0.299920	-0.392441	0.060473	-0.345000	-0.367868	0.720447	-0.481473	-0.317287	0.734985	-0.470615	-0.351458	0.679408	-0.485238	-0.305624	0.691776	-0.475047	-0.247930	0.448417	-0.473669	-0.250035	0.435217	-0.358159	-0.376648	0.429229	-0.506651	-0.351505	0.388825	-0.503493	-0.421335	0.403945	-0.508101	-0.398992	0.363565	-0.503903	-0.585824	0.280508	-0.481583	-0.563363	0.256476	-0.397735	-0.600852	0.144878	-0.520094	-0.590251	0.126951	-0.408167	-0.545057	0.085983	-0.460258	-0.640725	0.317323	-0.430966	-0.374537	1.357492	-0.110544	-0.318228	1.381653	-0.423415	
67	0.3300	-0.313280	0.893969	-0.184128	-0.318149	0.903405	-0.417809	-0.487347	0.903811	-0.236988	-0.485703	0.910413	-0.333928	-0.323558	0.692782	-0.139731	-0.273676	0.718056	-0.159237	-0.311024	0.658546	-0.147078	-0.261861	0.684023	-0.160069	-0.204588	0.459427	-0.229742	-0.211498	0.439912	-0.331898	-0.272606	0.324184	-0.212791	-0.221763	0.318913	-0.239682	-0.284457	0.279638	-0.219804	-0.236975	0.273498	-0.241652	-0.332100	0.095063	-0.280612	-0.294192	0.105413	-0.363189	-0.229909	0.039466	-0.249140	-0.203083	0.027993	-0.360221	-0.142143	0.059293	-0.299432	-0.391035	0.062305	-0.345583	-0.344519	0.719138	-0.478979	-0.294142	0.734747	-0.468466	-0.327268	0.678491	-0.482798	-0.281595	0.691830	-0.473089	-0.219088	0.450127	-0.471367	-0.220885	0.436895	-0.355957	-0.346638	0.429136	-0.505041	-0.321037	0.389041	-0.501615	-0.390931	0.403346	-0.506755	-0.368084	0.363272	-0.502470	-0.553816	0.278112	-0.480298	-0.531313	0.254450	-0.396364	-0.564631	0.143214	-0.519701	-0.554463	0.124768	-0.407843	-0.507621	0.085946	-0.459878	-0.610266	0.313149	-0.429712	-0.354802	1.355996	-0.107727	-0.301075	1.380769	-0.421383	
68	0.3350	-0.292597	0.892647	-0.181309	-0.297055	0.902203	-0.415420	-0.466806	0.902269	-0.234669	-0.464989	0.908610	-0.331638	-0.304937	0.690770	-0.138166	-0.254763	0.715399	-0.157509	-0.292996	0.656377	-0.145907	-0.243651	0.681147	-0.158665	-0.190994	0.455952	-0.229700	-0.198354	0.437054	-0.331834	-0.262555	0.322432	-0.213115	-0.211845	0.315718	-0.240059	-0.275811	0.278351	-0.220212	-0.228531	0.270824	-0.242164	-0.330096	0.095984	-0.281021	-0.291769	0.105247	-0.363744	-0.230123	0.038655	-0.248802	-0.202775	0.025274	-0.360010	-0.141398	0.055599	-0.299074	-0.390212	0.064332	-0.346015	-0.321323	0.718043	-0.476406	-0.271153	0.734743	-0.466272	-0.303233	0.677793	-0.480253	-0.257731	0.692123	-0.471068	-0.190405	0.452136	-0.468942	-0.191852	0.438896	-0.353639	-0.316695	0.429121	-0.503292	-0.290581	0.389403	-0.499589	-0.360531	0.402739	-0.505287	-0.337110	0.363027	-0.500878	-0.521499	0.275395	-0.478852	-0.498921	0.252127	-0.394836	-0.527975	0.141326	-0.519142	-0.518195	0.122330	-0.407362	-0.469711	0.085746	-0.459352	-0.579465	0.308545	-0.428287	-0.335160	1.354791	-0.104982	-0.284045	1.380064	-0.419404	
69	0.3400	-0.272040	0.891559	-0.178485	-0.276130	0.901223	-0.412999	-0.446373	0.901004	-0.232302	-0.444419	0.907069	-0.329301	-0.286566	0.689051	-0.136633	-0.236124	0.712986	-0.155878	-0.275255	0.654511	-0.144758	-0.225750	0.678522	-0.157364	-0.177966	0.452701	-0.229620	-0.185849	0.434386	-0.331735	-0.253108	0.320919	-0.213351	-0.202538	0.312768	-0.240368	-0.267749	0.277309	-0.220524	-0.220690	0.268401	-0.242610	-0.328558	0.097107	-0.281323	-0.289893	0.105351	-0.364217	-0.230722	0.037978	-0.248548	-0.202978	0.022893	-0.359872	-0.141168	0.052280	-0.298845	-0.389839	0.066522	-0.346302	-0.298372	0.717178	-0.473770	-0.248411	0.734979	-0.464043	-0.279453	0.677324	-0.477618	-0.234130	0.692660	-0.468992	-0.162015	0.454430	-0.466407	-0.163083	0.441209	-0.351216	-0.286969	0.429189	-0.501410	-0.260289	0.389914	-0.497427	-0.330284	0.402139	-0.503700	-0.306226	0.362842	-0.499134	-0.489039	0.272393	-0.477256	-0.466357	0.249543	-0.393161	-0.491076	0.139250	-0.518416	-0.481633	0.119684	-0.406718	-0.431529	0.085410	-0.458672	-0.548479	0.303559	-0.426703	-0.315692	1.353890	-0.102322	-0.267206	1.379552	-0.417482	
70	0.3450	-0.251694	0.890708	-0.175675	-0.255469	0.900476	-0.410559	-0.426134	0.900023	-0.229899	-0.424080	0.905801	-0.326926	-0.268523	0.687621	-0.135132	-0.217835	0.710814	-0.154339	-0.257874	0.652944	-0.143626	-0.208231	0.676145	-0.156158	-0.165550	0.449679	-0.229497	-0.174024	0.431907	-0.331594	-0.244265	0.319633	-0.213493	-0.193843	0.310070	-0.240602	-0.260255	0.276496	-0.220736	-0.213433	0.266232	-0.242981	-0.327386	0.098403	-0.281522	-0.288463	0.105705	-0.364605	-0.231594	0.037431	-0.248379	-0.203576	0.020856	-0.359804	-0.141347	0.049355	-0.298736	-0.389795	0.068846	-0.346453	-0.275767	0.716555	-0.471087	-0.226015	0.735456	-0.461791	-0.256036	0.677092	-0.474911	-0.210898	0.693437	-0.466870	-0.134062	0.456988	-0.463780	-0.134731	0.443809	-0.348703	-0.257615	0.429344	-0.499402	-0.230324	0.390576	-0.495140	-0.300352	0.401557	-0.501999	-0.275603	0.362726	-0.497245	-0.456621	0.269146	-0.475519	-0.433806	0.246742	-0.391347	-0.454145	0.137023	-0.517525	-0.444987	0.116880	-0.405912	-0.393297	0.084966	-0.457838	-0.517483	0.298245	-0.424976	-0.296486	1.353300	-0.099757	-0.250631	1.379242	-0.415624	
71	0.3500	-0.231653	0.890094	-0.172899	-0.235170	0.899969	-0.408116	-0.406183	0.899323	-0.227473	-0.404071	0.904810	-0.324527	-0.250891	0.686470	-0.133665	-0.199976	0.708876	-0.152890	-0.240934	0.651663	-0.142509	-0.191167	0.674010	-0.155039	-0.153786	0.446886	-0.229327	-0.162910	0.429620	-0.331409	-0.236026	0.318563	-0.213539	-0.185758	0.307627	-0.240756	-0.253311	0.275895	-0.220848	-0.206743	0.264316	-0.243275	-0.326488	0.099841	-0.281620	-0.287384	0.106287	-0.364907	-0.232639	0.037009	-0.248289	-0.204460	0.019157	-0.359800	-0.141839	0.046833	-0.298736	-0.389972	0.071275	-0.346480	-0.253618	0.716176	-0.468377	-0.204071	0.736167	-0.459530	-0.233098	0.677096	-0.472151	-0.188150	0.694443	-0.464716	-0.106696	0.459780	-0.461080	-0.106955	0.446669	-0.346116	-0.228798	0.429588	-0.497282	-0.200861	0.391382	-0.492747	-0.270907	0.401004	-0.500193	-0.245422	0.362683	-0.495227	-0.424444	0.265700	-0.473658	-0.401470	0.243768	-0.389411	-0.417412	0.134681	-0.516475	-0.408482	0.113966	-0.404946	-0.355255	0.084442	-0.456851	-0.486671	0.292663	-0.423121	-0.277638	1.353016	-0.097299	-0.234401	1.379135	-0.413835	
72	0.3550	-0.212020	0.889709	-0.170178	-0.215341	0.899700	-0.405686	-0.386623	0.898896	-0.225039	-0.384492	0.904093	-0.322118	-0.233756	0.685582	-0.132234	-0.182630	0.707164	-0.151526	-0.224515	0.650654	-0.141406	-0.174637	0.672109	-0.154001	-0.142709	0.444323	-0.229109	-0.152533	0.427525	-0.331176	-0.228387	0.317695	-0.213492	-0.178280	0.305439	-0.240828	-0.246900	0.275489	-0.220862	-0.200598	0.262649	-0.243487	-0.325784	0.101390	-0.281623	-0.286572	0.107070	-0.365126	-0.233773	0.036702	-0.248271	-0.205537	0.017786	-0.359852	-0.142556	0.044712	-0.298835	-0.390273	0.073782	-0.346395	-0.232039	0.716041	-0.465662	-0.182693	0.737099	-0.457276	-0.210759	0.677329	-0.469361	-0.166003	0.695664	-0.462545	-0.080070	0.462769	-0.458330	-0.079914	0.449750	-0.343477	-0.200688	0.429916	-0.495066	-0.172075	0.392323	-0.490269	-0.242124	0.400486	-0.498295	-0.215867	0.362717	-0.493097	-0.392719	0.262103	-0.471692	-0.369562	0.240668	-0.387370	-0.381120	0.132261	-0.515276	-0.372361	0.110991	-0.403830	-0.317656	0.083866	-0.455717	-0.456243	0.286879	-0.421161	-0.259246	1.353030	-0.094958	-0.218599	1.379229	-0.412121	
73	0.3600	-0.192902	0.889540	-0.167534	-0.196090	0.899664	-0.403288	-0.367564	0.898727	-0.222614	-0.365451	0.903642	-0.319716	-0.217206	0.684939	-0.130841	-0.165882	0.705666	-0.150245	-0.208698	0.649898	-0.140318	-0.158718	0.670432	-0.153036	-0.132347	0.441987	-0.228844	-0.142912	0.425620	-0.330895	-0.221341	0.317012	-0.213353	-0.171399	0.303503	-0.240818	-0.241003	0.275258	-0.220783	-0.194978	0.261223	-0.243620	-0.325206	0.103021	-0.281539	-0.285952	0.108026	-0.365264	-0.234924	0.036502	-0.248319	-0.206722	0.016725	-0.359951	-0.143423	0.042981	-0.299016	-0.390620	0.076339	-0.346210	-0.211145	0.716138	-0.462964	-0.161995	0.738233	-0.455045	-0.189140	0.677777	-0.466566	-0.144578	0.697075	-0.460373	-0.054335	0.465917	-0.455556	-0.053769	0.453009	-0.340809	-0.173454	0.430322	-0.492772	-0.144145	0.393383	-0.487728	-0.214181	0.400012	-0.496319	-0.187128	0.362828	-0.490878	-0.361661	0.258403	-0.469641	-0.338300	0.237489	-0.385245	-0.345522	0.129800	-0.513944	-0.336876	0.108002	-0.402575	-0.280762	0.083265	-0.454449	-0.426412	0.280962	-0.419119	-0.241413	1.353325	-0.092742	-0.203309	1.379515	-0.410487	
74	0.3650	-0.174409	0.889570	-0.164985	-0.177527	0.899844	-0.400941	-0.349116	0.898797	-0.220216	-0.347058	0.903442	-0.317340	-0.201327	0.684520	-0.129492	-0.149817	0.704369	-0.149043	-0.193561	0.649372	-0.139247	-0.143487	0.668966	-0.152137	-0.122721	0.439878	-0.228534	-0.134054	0.423904	-0.330571	-0.214879	0.316501	-0.213130	-0.165106	0.301814	-0.240729	-0.235604	0.275183	-0.220617	-0.189863	0.260029	-0.243674	-0.324696	0.104703	-0.281375	-0.285461	0.109124	-0.365326	-0.236035	0.036396	-0.248421	-0.207945	0.015950	-0.360089	-0.144372	0.041619	-0.299264	-0.390948	0.078917	-0.345941	-0.191051	0.716453	-0.460307	-0.142089	0.739543	-0.452855	-0.168362	0.678423	-0.463793	-0.123991	0.698650	-0.458220	-0.029639	0.469176	-0.452784	-0.028673	0.456399	-0.338137	-0.147260	0.430799	-0.490424	-0.117245	0.394547	-0.485153	-0.187252	0.399585	-0.494286	-0.159390	0.363011	-0.488595	-0.331488	0.254651	-0.467530	-0.307906	0.234279	-0.383061	-0.310872	0.127333	-0.512496	-0.302282	0.105044	-0.401199	-0.244838	0.082660	-0.453061	-0.397388	0.274986	-0.417019	-0.224239	1.353876	-0.090661	-0.188615	1.379977	-0.408938	
75	0.3700	-0.156651	0.889779	-0.162551	-0.159760	0.900223	-0.398664	-0.331390	0.899081	-0.217866	-0.329421	0.903470	-0.315009	-0.186201	0.684299	-0.128191	-0.134517	0.703258	-0.147917	-0.179180	0.649052	-0.138197	-0.129016	0.667698	-0.151300	-0.113842	0.437988	-0.228183	-0.125963	0.422373	-0.330206	-0.208986	0.316145	-0.212831	-0.159385	0.300363	-0.240567	-0.230682	0.275245	-0.220373	-0.185229	0.259055	-0.243654	-0.324213	0.106410	-0.281141	-0.285048	0.110334	-0.365317	-0.237061	0.036373	-0.248567	-0.209149	0.015433	-0.360254	-0.145349	0.040598	-0.299563	-0.391208	0.081490	-0.345603	-0.171870	0.716965	-0.457715	-0.123086	0.741000	-0.450722	-0.148540	0.679242	-0.461067	-0.104357	0.700357	-0.456103	-0.006121	0.472499	-0.450044	-0.004770	0.459869	-0.335489	-0.122263	0.431335	-0.488048	-0.091542	0.395792	-0.482570	-0.161503	0.399207	-0.492215	-0.132830	0.363263	-0.486275	-0.302413	0.250900	-0.465385	-0.278597	0.231082	-0.380844	-0.277420	0.124893	-0.510955	-0.268832	0.102158	-0.399723	-0.210146	0.082072	-0.451574	-0.369380	0.269023	-0.414890	-0.207824	1.354654	-0.088719	-0.174598	1.380598	-0.407479	
76	0.3750	-0.139733	0.890143	-0.160249	-0.142890	0.900776	-0.396474	-0.314495	0.899550	-0.215582	-0.312642	0.903703	-0.312743	-0.171905	0.684251	-0.126943	-0.120057	0.702320	-0.146864	-0.165623	0.648912	-0.137173	-0.115373	0.666613	-0.150518	-0.105717	0.436313	-0.227799	-0.118630	0.421023	-0.329807	-0.203649	0.315926	-0.212465	-0.154219	0.299138	-0.240339	-0.226220	0.275424	-0.220062	-0.181054	0.258285	-0.243566	-0.323724	0.108114	-0.280850	-0.284673	0.111624	-0.365246	-0.237972	0.036420	-0.248746	-0.210288	0.015142	-0.360439	-0.146308	0.039886	-0.299899	-0.391365	0.084030	-0.345209	-0.153704	0.717648	-0.455210	-0.105088	0.742572	-0.448666	-0.129782	0.680207	-0.458415	-0.085780	0.702162	-0.454043	0.016093	0.475837	-0.447362	0.017807	0.463367	-0.332892	-0.098608	0.431919	-0.485669	-0.067188	0.397095	-0.480011	-0.137090	0.398880	-0.490129	-0.107616	0.363574	-0.483948	-0.274639	0.247196	-0.463233	-0.250577	0.227944	-0.378621	-0.245406	0.122512	-0.509344	-0.236771	0.099382	-0.398168	-0.176936	0.081518	-0.450011	-0.342588	0.263146	-0.412759	-0.192259	1.355626	-0.086922	-0.161333	1.381353	-0.406115	
77	0.3800	-0.123754	0.890633	-0.158091	-0.127010	0.901476	-0.394388	-0.298530	0.900173	-0.213384	-0.296818	0.904110	-0.310561	-0.158509	0.684349	-0.125755	-0.106504	0.701537	-0.145883	-0.152949	0.648925	-0.136182	-0.102616	0.665697	-0.149789	-0.098342	0.434844	-0.227387	-0.112042	0.419849	-0.329381	-0.198847	0.315828	-0.212045	-0.149588	0.298125	-0.240054	-0.222197	0.275698	-0.219696	-0.177315	0.257702	-0.243418	-0.323208	0.109790	-0.280511	-0.284305	0.112964	-0.365120	-0.238748	0.036524	-0.248948	-0.211329	0.015043	-0.360633	-0.147214	0.039445	-0.300256	-0.391401	0.086513	-0.344777	-0.136649	0.718473	-0.452814	-0.088189	0.744223	-0.446702	-0.112184	0.681287	-0.455863	-0.068355	0.704027	-0.452059	0.036889	0.479141	-0.444766	0.038943	0.466838	-0.330373	-0.076422	0.432535	-0.483316	-0.044319	0.398433	-0.477504	-0.114151	0.398604	-0.488054	-0.083894	0.363934	-0.481644	-0.248351	0.243589	-0.461102	-0.224037	0.224904	-0.376421	-0.215053	0.120218	-0.507691	-0.206327	0.096747	-0.396563	-0.145439	0.081012	-0.448396	-0.317196	0.257427	-0.410653	-0.177627	1.356753	-0.085272	-0.148887	1.382217	-0.404848	
78	0.3850	-0.108801	0.891224	-0.156091	-0.112202	0.902293	-0.392423	-0.283585	0.900916	-0.211290	-0.282031	0.904660	-0.308482	-0.146069	0.684565	-0.124632	-0.093917	0.700894	-0.144972	-0.141209	0.649064	-0.135228	-0.090795	0.664934	-0.149109	-0.091705	0.433572	-0.226957	-0.106176	0.418841	-0.328937	-0.194560	0.315833	-0.211582	-0.145467	0.297308	-0.239722	-0.218593	0.276049	-0.219286	-0.173988	0.257287	-0.243219	-0.322654	0.111415	-0.280137	-0.283925	0.114321	-0.364948	-0.239380	0.036672	-0.249164	-0.212251	0.015103	-0.360829	-0.148044	0.039236	-0.300621	-0.391306	0.088912	-0.344319	-0.120783	0.719408	-0.450547	-0.072467	0.745918	-0.444845	-0.095827	0.682450	-0.453434	-0.052163	0.705916	-0.450168	0.056175	0.482364	-0.442283	0.058544	0.470234	-0.327957	-0.055812	0.433172	-0.481017	-0.023053	0.399780	-0.475078	-0.092802	0.398375	-0.486015	-0.061793	0.364334	-0.479392	-0.223714	0.240121	-0.459019	-0.199147	0.221999	-0.374272	-0.186560	0.118036	-0.506023	-0.177703	0.094280	-0.394933	-0.115862	0.080562	-0.446757	-0.293367	0.251929	-0.408600	-0.164000	1.357997	-0.083771	-0.137318	1.383162	-0.403681	
79	0.3900	-0.094948	0.891887	-0.154258	-0.098531	0.903193	-0.390592	-0.269735	0.901747	-0.209318	-0.268353	0.905321	-0.306522	-0.134631	0.684873	-0.123580	-0.082341	0.700375	-0.144131	-0.130439	0.649301	-0.134321	-0.079946	0.664307	-0.148478	-0.085790	0.432484	-0.226517	-0.101004	0.417990	-0.328484	-0.190763	0.315924	-0.211092	-0.141832	0.296669	-0.239355	-0.215388	0.276457	-0.218847	-0.171049	0.257019	-0.242979	-0.322060	0.112969	-0.279741	-0.283521	0.115670	-0.364740	-0.239867	0.036852	-0.249383	-0.213040	0.015288	-0.361020	-0.148780	0.039217	-0.300982	-0.391085	0.091206	-0.343849	-0.106171	0.720420	-0.448426	-0.057986	0.747619	-0.443109	-0.080775	0.683664	-0.451149	-0.037265	0.707792	-0.448387	0.073881	0.485462	-0.439936	0.076537	0.473506	-0.325668	-0.036862	0.433814	-0.478800	-0.003479	0.401112	-0.472761	-0.073138	0.398192	-0.484036	-0.041415	0.364761	-0.477222	-0.200867	0.236832	-0.457010	-0.176049	0.219260	-0.372199	-0.160094	0.115988	-0.504368	-0.151076	0.092002	-0.393307	-0.088383	0.080174	-0.445123	-0.271241	0.246712	-0.406625	-0.151436	1.359317	-0.082419	-0.126670	1.384160	-0.402617	
80	0.3950	-0.082254	0.892595	-0.152596	-0.086045	0.904147	-0.388904	-0.257040	0.902632	-0.207482	-0.255837	0.906060	-0.304697	-0.124226	0.685247	-0.122603	-0.071807	0.699965	-0.143359	-0.120664	0.649611	-0.133465	-0.070094	0.663802	-0.147895	-0.080570	0.431568	-0.226075	-0.096490	0.417286	-0.328031	-0.187432	0.316083	-0.210586	-0.138654	0.296187	-0.238966	-0.212559	0.276903	-0.218391	-0.168473	0.256877	-0.242709	-0.321430	0.114435	-0.279334	-0.283090	0.116983	-0.364507	-0.240216	0.037052	-0.249599	-0.213694	0.015567	-0.361201	-0.149414	0.039350	-0.301329	-0.390748	0.093372	-0.343381	-0.092859	0.721478	-0.446467	-0.044792	0.749294	-0.441506	-0.067074	0.684895	-0.449026	-0.023706	0.709620	-0.446729	0.089960	0.488396	-0.437745	0.092874	0.476611	-0.323526	-0.019629	0.434448	-0.476690	0.014340	0.402406	-0.470576	-0.055225	0.398050	-0.482141	-0.022834	0.365203	-0.475159	-0.179918	0.233753	-0.455099	-0.154855	0.216714	-0.370228	-0.135790	0.114091	-0.502752	-0.126585	0.089928	-0.391713	-0.063140	0.079850	-0.443520	-0.250927	0.241828	-0.404752	-0.139977	1.360673	-0.081213	-0.116975	1.385183	-0.401655	
81	0.4000	-0.070756	0.893323	-0.151108	-0.074776	0.905122	-0.387370	-0.245539	0.903540	-0.205794	-0.244517	0.906844	-0.303018	-0.114869	0.685663	-0.121707	-0.062330	0.699648	-0.142657	-0.111892	0.649971	-0.132669	-0.061249	0.663402	-0.147359	-0.076014	0.430809	-0.225641	-0.092594	0.416714	-0.327586	-0.184536	0.316294	-0.210078	-0.135903	0.295843	-0.238564	-0.210086	0.277371	-0.217931	-0.166235	0.256839	-0.242419	-0.320774	0.115796	-0.278927	-0.282636	0.118237	-0.364258	-0.240440	0.037262	-0.249804	-0.214214	0.015908	-0.361367	-0.149943	0.039595	-0.301654	-0.390313	0.095392	-0.342925	-0.080870	0.722548	-0.444678	-0.032909	0.750910	-0.440042	-0.054747	0.686114	-0.447080	-0.011508	0.711371	-0.445207	0.104390	0.491132	-0.435727	0.107534	0.479513	-0.321550	-0.004142	0.435062	-0.474710	0.030368	0.403641	-0.468544	-0.039099	0.397944	-0.480353	-0.006092	0.365648	-0.473226	-0.160939	0.230914	-0.453308	-0.135640	0.214381	-0.368381	-0.113740	0.112359	-0.501202	-0.104333	0.088067	-0.390176	-0.040231	0.079589	-0.441975	-0.232501	0.237318	-0.403000	-0.129646	1.362029	-0.080150	-0.108251	1.386202	-0.400795	
82	0.4050	-0.060474	0.894045	-0.149794	-0.064732	0.906090	-0.385993	-0.235253	0.904442	-0.204262	-0.234410	0.907644	-0.301495	-0.106559	0.686100	-0.120895	-0.053910	0.699409	-0.142022	-0.104118	0.650358	-0.131936	-0.053405	0.663092	-0.146871	-0.072084	0.430192	-0.225223	-0.089273	0.416263	-0.327159	-0.182046	0.316540	-0.209581	-0.133547	0.295615	-0.238163	-0.207944	0.277843	-0.217478	-0.164309	0.256884	-0.242120	-0.320106	0.117043	-0.278530	-0.282164	0.119414	-0.364002	-0.240555	0.037474	-0.249995	-0.214611	0.016286	-0.361516	-0.150371	0.039918	-0.301951	-0.389805	0.097251	-0.342490	-0.070210	0.723601	-0.443069	-0.022340	0.752440	-0.438725	-0.043796	0.687293	-0.445321	-0.000672	0.713015	-0.443828	0.117178	0.493644	-0.433894	0.120524	0.482183	-0.319751	0.009598	0.435644	-0.472879	0.044601	0.404799	-0.466683	-0.024767	0.397870	-0.478691	0.008800	0.366085	-0.471443	-0.143968	0.228333	-0.451654	-0.118447	0.212274	-0.366675	-0.093996	0.110799	-0.499739	-0.084377	0.086423	-0.388721	-0.019713	0.079388	-0.440511	-0.216005	0.233216	-0.401386	-0.120452	1.363350	-0.079223	-0.100497	1.387194	-0.400035	
83	0.4100	-0.051406	0.894743	-0.148650	-0.055903	0.907025	-0.384774	-0.226180	0.905314	-0.202894	-0.225508	0.908432	-0.300133	-0.099279	0.686538	-0.120168	-0.046530	0.699236	-0.141456	-0.097321	0.650753	-0.131272	-0.046543	0.662859	-0.146431	-0.068737	0.429701	-0.224828	-0.086477	0.415916	-0.326755	-0.179931	0.316806	-0.209106	-0.131553	0.295483	-0.237773	-0.206110	0.278306	-0.217045	-0.162671	0.256991	-0.241822	-0.319440	0.118167	-0.278153	-0.281686	0.120497	-0.363748	-0.240581	0.037679	-0.250167	-0.214897	0.016676	-0.361646	-0.150704	0.040286	-0.302217	-0.389247	0.098936	-0.342086	-0.060860	0.724612	-0.441642	-0.013070	0.753860	-0.437557	-0.034199	0.688407	-0.443754	0.008822	0.714532	-0.442598	0.128355	0.495912	-0.432256	0.131876	0.484598	-0.318139	0.021622	0.436185	-0.471213	0.057067	0.405865	-0.465004	-0.012206	0.397822	-0.477169	0.021861	0.366503	-0.469824	-0.129006	0.226024	-0.450151	-0.103278	0.210401	-0.365125	-0.076566	0.109416	-0.498384	-0.066734	0.084993	-0.387366	-0.001594	0.079242	-0.439150	-0.201443	0.229541	-0.399922	-0.112379	1.364607	-0.078426	-0.093701	1.388137	-0.399372	
84	0.4150	-0.043529	0.895399	-0.147670	-0.048259	0.907905	-0.383713	-0.218298	0.906133	-0.201690	-0.217785	0.909186	-0.298935	-0.092995	0.686962	-0.119528	-0.040157	0.699116	-0.140958	-0.091466	0.651140	-0.130680	-0.040627	0.662689	-0.146038	-0.065927	0.429319	-0.224463	-0.084157	0.415659	-0.326383	-0.178156	0.317080	-0.208661	-0.129888	0.295427	-0.237402	-0.204558	0.278748	-0.216639	-0.161294	0.257141	-0.241533	-0.318794	0.119164	-0.277802	-0.281212	0.121475	-0.363504	-0.240536	0.037871	-0.250318	-0.215087	0.017061	-0.361755	-0.150953	0.040673	-0.302449	-0.388665	0.100441	-0.341717	-0.052781	0.725559	-0.440396	-0.005059	0.755151	-0.436537	-0.025915	0.689437	-0.442381	0.017017	0.715904	-0.441518	0.137978	0.497924	-0.430814	0.141648	0.486744	-0.316718	0.031985	0.436678	-0.469722	0.067819	0.406828	-0.463514	-0.001363	0.397796	-0.475801	0.033145	0.366894	-0.468379	-0.116014	0.223993	-0.448808	-0.090099	0.208765	-0.363740	-0.061413	0.108211	-0.497151	-0.051374	0.083772	-0.386130	0.014162	0.079144	-0.437907	-0.188785	0.226303	-0.398618	-0.105397	1.365774	-0.077751	-0.087833	1.389013	-0.398802	
85	0.4200	-0.036798	0.895999	-0.146843	-0.041749	0.908712	-0.382805	-0.211563	0.906883	-0.200649	-0.211196	0.909887	-0.297899	-0.087660	0.687358	-0.118972	-0.034742	0.699037	-0.140524	-0.086503	0.651506	-0.130160	-0.035610	0.662570	-0.145694	-0.063604	0.429031	-0.224131	-0.082262	0.415477	-0.326046	-0.176690	0.317349	-0.208255	-0.128518	0.295427	-0.237059	-0.203265	0.279158	-0.216267	-0.160153	0.257317	-0.241261	-0.318182	0.120032	-0.277483	-0.280757	0.122341	-0.363275	-0.240442	0.038046	-0.250448	-0.215200	0.017425	-0.361846	-0.151130	0.041055	-0.302647	-0.388085	0.101762	-0.341388	-0.045915	0.726423	-0.439327	0.001750	0.756302	-0.435661	-0.018882	0.690367	-0.441198	0.023974	0.717119	-0.440585	0.146128	0.499677	-0.429567	0.149923	0.488615	-0.315488	0.040770	0.437117	-0.468413	0.076941	0.407681	-0.462217	0.007844	0.397785	-0.474592	0.042731	0.367252	-0.467114	-0.104921	0.222237	-0.447630	-0.078839	0.207361	-0.362526	-0.048461	0.107177	-0.496051	-0.038226	0.082746	-0.385024	0.027634	0.079084	-0.436795	-0.177964	0.223502	-0.397476	-0.099458	1.366833	-0.077187	-0.082848	1.389807	-0.398320	
86	0.4250	-0.031153	0.896533	-0.146159	-0.036306	0.909434	-0.382043	-0.205913	0.907553	-0.199767	-0.205677	0.910519	-0.297019	-0.083211	0.687717	-0.118499	-0.030226	0.698989	-0.140154	-0.082372	0.651840	-0.129713	-0.031431	0.662490	-0.145396	-0.061717	0.428819	-0.223838	-0.080741	0.415356	-0.325749	-0.175497	0.317603	-0.207893	-0.127408	0.295467	-0.236750	-0.202203	0.279529	-0.215936	-0.159221	0.257503	-0.241013	-0.317619	0.120773	-0.277201	-0.280330	0.123091	-0.363067	-0.240315	0.038202	-0.250556	-0.215252	0.017756	-0.361918	-0.151247	0.041415	-0.302811	-0.387529	0.102899	-0.341101	-0.040185	0.727193	-0.438428	0.007433	0.757304	-0.434923	-0.013018	0.691187	-0.440199	0.029774	0.718173	-0.439796	0.152905	0.501172	-0.428510	0.156804	0.490214	-0.314442	0.048082	0.437500	-0.467285	0.084539	0.408419	-0.461109	0.015518	0.397787	-0.473546	0.050727	0.367570	-0.466028	-0.095625	0.220750	-0.446617	-0.069395	0.206179	-0.361482	-0.037594	0.106309	-0.495091	-0.027178	0.081903	-0.384055	0.038940	0.079057	-0.435821	-0.168886	0.221125	-0.396497	-0.094497	1.367771	-0.076725	-0.078691	1.390510	-0.397918	
87	0.4300	-0.026513	0.896997	-0.145605	-0.031846	0.910061	-0.381415	-0.201271	0.908134	-0.199033	-0.201147	0.911074	-0.296289	-0.079577	0.688033	-0.118105	-0.026534	0.698965	-0.139844	-0.079002	0.652135	-0.129336	-0.028019	0.662441	-0.145144	-0.060212	0.428670	-0.223584	-0.079544	0.415282	-0.325492	-0.174546	0.317836	-0.207579	-0.126525	0.295532	-0.236478	-0.201347	0.279855	-0.215648	-0.158474	0.257687	-0.240793	-0.317114	0.121393	-0.276957	-0.279942	0.123725	-0.362884	-0.240173	0.038335	-0.250643	-0.215259	0.018046	-0.361975	-0.151317	0.041741	-0.302944	-0.387015	0.103857	-0.340858	-0.035500	0.727860	-0.437686	0.012080	0.758157	-0.434315	-0.008228	0.691892	-0.439374	0.034511	0.719066	-0.439143	0.158427	0.502419	-0.427633	0.162409	0.491551	-0.313573	0.054044	0.437826	-0.466334	0.090739	0.409045	-0.460183	0.021785	0.397796	-0.472660	0.057261	0.367847	-0.465116	-0.087992	0.219517	-0.445765	-0.061638	0.205206	-0.360604	-0.028664	0.105595	-0.494272	-0.018086	0.081224	-0.383227	0.048234	0.079052	-0.434989	-0.161424	0.219151	-0.395675	-0.090437	1.368579	-0.076353	-0.075293	1.391116	-0.397591	
88	0.4350	-0.022788	0.897388	-0.145166	-0.028276	0.910592	-0.380911	-0.197544	0.908625	-0.198439	-0.197515	0.911546	-0.295697	-0.076675	0.688302	-0.117783	-0.023584	0.698956	-0.139589	-0.076316	0.652389	-0.129026	-0.025297	0.662413	-0.144935	-0.059039	0.428570	-0.223371	-0.078622	0.415243	-0.325277	-0.173802	0.318041	-0.207313	-0.125839	0.295609	-0.236247	-0.200672	0.280134	-0.215404	-0.157888	0.257859	-0.240603	-0.316675	0.121899	-0.276752	-0.279600	0.124249	-0.362726	-0.240030	0.038446	-0.250712	-0.215238	0.018294	-0.362017	-0.151352	0.042024	-0.303049	-0.386556	0.104646	-0.340656	-0.031757	0.728423	-0.437090	0.015793	0.758863	-0.433825	-0.004404	0.692483	-0.438707	0.038293	0.719803	-0.438614	0.162823	0.503435	-0.426923	0.166871	0.492640	-0.312868	0.058795	0.438096	-0.465553	0.095683	0.409560	-0.459428	0.026786	0.397809	-0.471929	0.062477	0.368080	-0.464369	-0.081870	0.218518	-0.445066	-0.055412	0.204423	-0.359883	-0.021494	0.105021	-0.493590	-0.010777	0.080691	-0.382536	0.055697	0.079064	-0.434294	-0.155432	0.217552	-0.395001	-0.087191	1.369258	-0.076061	-0.072579	1.391625	-0.397330	
