PathFileType	4	(X/Y/Z)	 P4 pr2 04.trc
DataRate	CameraRate	NumFrames	NumMarkers	Units	OrigDataRate	OrigDataStartFrame	OrigNumFrames
200	200	68	38	m	200	2	69
Frame#	Time	RASIS			LASIS			RPSIS			LPSIS			RThighRear1			RThighFront1			RThighRear2			RThighFront2			RKneeLat			RKneeMed			RShankRear1			RShankFront1			RShankRear2			RShankFront2			RAnkleLat			RAnkleMed			RM5			RM1			RMid			RHeel			LThighRear1			LThighFront1			LThighRear2			LThighFront2			LKneeLat			LKneeMed			LShankRear1			LShankFront1			LShankRear2			LShankFront2			LAnkleLat			LAnkleMed			LM5			LM1			LMid			LHeel			RShoulder			LShoulder			
		X1	Y1	Z1	X2	Y2	Z2	X3	Y3	Z3	X4	Y4	Z4	X5	Y5	Z5	X6	Y6	Z6	X7	Y7	Z7	X8	Y8	Z8	X9	Y9	Z9	X10	Y10	Z10	X11	Y11	Z11	X12	Y12	Z12	X13	Y13	Z13	X14	Y14	Z14	X15	Y15	Z15	X16	Y16	Z16	X17	Y17	Z17	X18	Y18	Z18	X19	Y19	Z19	X20	Y20	Z20	X21	Y21	Z21	X22	Y22	Z22	X23	Y23	Z23	X24	Y24	Z24	X25	Y25	Z25	X26	Y26	Z26	X27	Y27	Z27	X28	Y28	Z28	X29	Y29	Z29	X30	Y30	Z30	X31	Y31	Z31	X32	Y32	Z32	X33	Y33	Z33	X34	Y34	Z34	X35	Y35	Z35	X36	Y36	Z36	X37	Y37	Z37	X38	Y38	Z38	
1	0.0000	-1.292806	0.935494	-0.165182	-1.305155	0.923310	-0.393704	-1.458869	0.973837	-0.218853	-1.465240	0.967236	-0.316762	-1.370363	0.742515	-0.104462	-1.322089	0.741314	-0.130742	-1.375533	0.704588	-0.106617	-1.326839	0.704151	-0.127668	-1.393129	0.458911	-0.139184	-1.414504	0.445452	-0.245430	-1.553401	0.460025	-0.121614	-1.534864	0.405154	-0.133934	-1.598009	0.449717	-0.124729	-1.582931	0.399239	-0.133990	-1.782389	0.387503	-0.167985	-1.762345	0.343820	-0.244682	-1.857491	0.268873	-0.135144	-1.842018	0.232437	-0.233916	-1.825465	0.181505	-0.165537	-1.816572	0.426662	-0.238569	-1.342372	0.740343	-0.442994	-1.287307	0.754836	-0.434549	-1.324726	0.696642	-0.440483	-1.275713	0.711468	-0.438710	-1.217446	0.481472	-0.393193	-1.200018	0.481316	-0.291898	-1.286328	0.358248	-0.394456	-1.239059	0.356345	-0.399010	-1.287671	0.304991	-0.388055	-1.241474	0.302275	-0.392255	-1.261698	0.100827	-0.325337	-1.219991	0.122678	-0.248542	-1.142767	0.039579	-0.366286	-1.112925	0.060595	-0.261951	-1.064238	0.079648	-0.325551	-1.309757	0.073281	-0.261020	-1.228369	1.398584	-0.119110	-1.261577	1.422989	-0.433598	
2	0.0050	-1.277946	0.932843	-0.163754	-1.289714	0.921066	-0.392738	-1.444300	0.970719	-0.217785	-1.450362	0.964660	-0.315769	-1.352194	0.739984	-0.103108	-1.303854	0.739707	-0.129275	-1.356475	0.702018	-0.104984	-1.307727	0.702637	-0.125993	-1.367851	0.456856	-0.137415	-1.389150	0.443003	-0.243760	-1.527688	0.457587	-0.118928	-1.509340	0.402778	-0.132002	-1.572455	0.447357	-0.122122	-1.557445	0.396910	-0.132017	-1.757207	0.386373	-0.165571	-1.737211	0.342547	-0.242241	-1.830910	0.267497	-0.131955	-1.815907	0.230508	-0.230604	-1.798173	0.180027	-0.162180	-1.792333	0.425384	-0.236154	-1.327948	0.738030	-0.441760	-1.272908	0.752251	-0.433376	-1.310618	0.694313	-0.439110	-1.261671	0.708781	-0.437331	-1.205638	0.478118	-0.391735	-1.188481	0.477801	-0.290482	-1.276443	0.356521	-0.393125	-1.229486	0.353575	-0.397270	-1.279087	0.303514	-0.386639	-1.233217	0.299786	-0.390352	-1.259737	0.100620	-0.323297	-1.218028	0.120980	-0.246115	-1.142310	0.039762	-0.365686	-1.112154	0.058592	-0.260645	-1.063129	0.076937	-0.324019	-1.309133	0.073027	-0.259692	-1.215199	1.396495	-0.117560	-1.246202	1.419887	-0.432906	
3	0.0100	-1.262910	0.930209	-0.162299	-1.274065	0.918839	-0.391749	-1.429548	0.967603	-0.216724	-1.435279	0.962098	-0.314780	-1.333789	0.737499	-0.101743	-1.285390	0.738180	-0.127793	-1.337159	0.699505	-0.103341	-1.288359	0.701210	-0.124307	-1.342160	0.454937	-0.135669	-1.363395	0.440694	-0.242112	-1.501547	0.455197	-0.116247	-1.483365	0.400449	-0.130087	-1.546476	0.445018	-0.119503	-1.531512	0.394604	-0.130046	-1.731634	0.385129	-0.163114	-1.711677	0.341192	-0.239775	-1.803816	0.265948	-0.128739	-1.789280	0.228420	-0.227281	-1.770287	0.178407	-0.158848	-1.767782	0.423968	-0.233661	-1.313370	0.735719	-0.440502	-1.258352	0.749645	-0.432178	-1.296378	0.691981	-0.437714	-1.247494	0.706071	-0.435926	-1.193819	0.474747	-0.390255	-1.176942	0.474258	-0.289040	-1.266581	0.354814	-0.391779	-1.219941	0.350812	-0.395521	-1.270534	0.302057	-0.385215	-1.224996	0.297308	-0.388449	-1.257828	0.100416	-0.321281	-1.216111	0.119306	-0.243716	-1.141852	0.039912	-0.365096	-1.111389	0.056614	-0.259375	-1.062024	0.074279	-0.322527	-1.308579	0.072749	-0.258378	-1.201872	1.394434	-0.115984	-1.230579	1.416811	-0.432171	
4	0.0150	-1.247707	0.927619	-0.160815	-1.258211	0.916652	-0.390733	-1.414619	0.964517	-0.215674	-1.419995	0.959576	-0.313797	-1.315159	0.735097	-0.100369	-1.266711	0.736773	-0.126297	-1.317597	0.697092	-0.101692	-1.268749	0.699914	-0.122616	-1.316063	0.453215	-0.133959	-1.337247	0.438590	-0.240498	-1.474974	0.452883	-0.113587	-1.456923	0.398202	-0.128200	-1.520065	0.442718	-0.116882	-1.505113	0.392342	-0.128086	-1.705647	0.383728	-0.160617	-1.685715	0.339730	-0.237294	-1.776144	0.264175	-0.125513	-1.762068	0.226140	-0.223968	-1.741725	0.176622	-0.155571	-1.742907	0.422353	-0.231089	-1.298652	0.733434	-0.439220	-1.243655	0.747035	-0.430954	-1.282027	0.689669	-0.436299	-1.233203	0.703354	-0.434495	-1.182034	0.471384	-0.388755	-1.165448	0.470708	-0.287573	-1.256786	0.353156	-0.390423	-1.210469	0.348088	-0.393773	-1.262052	0.300651	-0.383792	-1.216855	0.294875	-0.386559	-1.255984	0.100234	-0.319311	-1.214252	0.117686	-0.241369	-1.141401	0.040019	-0.364522	-1.110640	0.054675	-0.258160	-1.060937	0.071699	-0.321094	-1.308098	0.072467	-0.257093	-1.188399	1.392426	-0.114380	-1.214703	1.413796	-0.431380	
5	0.0200	-1.232340	0.925102	-0.159302	-1.242149	0.914529	-0.389686	-1.399510	0.961487	-0.214640	-1.404503	0.957121	-0.312824	-1.296310	0.732818	-0.098987	-1.247825	0.735529	-0.124791	-1.297794	0.694820	-0.100043	-1.248904	0.698796	-0.120924	-1.289560	0.451753	-0.132295	-1.310707	0.436757	-0.238927	-1.447962	0.450673	-0.110962	-1.429993	0.396071	-0.126353	-1.493208	0.440471	-0.114272	-1.478225	0.390147	-0.126146	-1.679211	0.382122	-0.158086	-1.659287	0.338129	-0.234806	-1.747818	0.262129	-0.122293	-1.734187	0.223634	-0.220687	-1.712392	0.174652	-0.152377	-1.717685	0.420476	-0.228435	-1.283801	0.731197	-0.437913	-1.228824	0.744441	-0.429701	-1.267577	0.687398	-0.434862	-1.218808	0.700649	-0.433036	-1.170321	0.468054	-0.387240	-1.154039	0.467176	-0.286083	-1.247097	0.351577	-0.389064	-1.201109	0.345435	-0.392036	-1.253679	0.299328	-0.382376	-1.208829	0.292518	-0.384695	-1.254213	0.100093	-0.317409	-1.212457	0.116145	-0.239101	-1.140961	0.040077	-0.363968	-1.109918	0.052792	-0.257014	-1.059884	0.069221	-0.319735	-1.307694	0.072205	-0.255850	-1.174784	1.390500	-0.112744	-1.198558	1.410873	-0.430517	
6	0.0250	-1.216805	0.922686	-0.157759	-1.225872	0.912495	-0.388603	-1.384216	0.958544	-0.213624	-1.388793	0.954761	-0.311863	-1.277243	0.730700	-0.097600	-1.228740	0.734491	-0.123277	-1.277751	0.692731	-0.098396	-1.228828	0.697898	-0.119236	-1.262653	0.450615	-0.130686	-1.283777	0.435260	-0.237407	-1.420499	0.448594	-0.108387	-1.402551	0.394090	-0.124555	-1.465889	0.438293	-0.111681	-1.450820	0.388040	-0.124233	-1.652287	0.380267	-0.155527	-1.632347	0.336359	-0.232321	-1.718756	0.259764	-0.119098	-1.705547	0.220875	-0.217461	-1.682190	0.172482	-0.149297	-1.692084	0.418271	-0.225699	-1.268822	0.729033	-0.436579	-1.213862	0.741880	-0.428416	-1.253035	0.685193	-0.433406	-1.204318	0.697975	-0.431548	-1.158712	0.464783	-0.385712	-1.142748	0.463682	-0.284570	-1.237547	0.350110	-0.387707	-1.191895	0.342884	-0.390318	-1.245443	0.298120	-0.380977	-1.200949	0.290273	-0.382870	-1.252518	0.100015	-0.315593	-1.210730	0.114714	-0.236933	-1.140542	0.040077	-0.363439	-1.109235	0.050976	-0.255950	-1.058879	0.066866	-0.318466	-1.307361	0.071993	-0.254665	-1.161030	1.388681	-0.111075	-1.182130	1.408078	-0.429566	
7	0.0300	-1.201099	0.920397	-0.156186	-1.209371	0.910573	-0.387481	-1.368725	0.955715	-0.212630	-1.372855	0.952524	-0.310916	-1.257960	0.728781	-0.096208	-1.209457	0.733699	-0.121756	-1.257471	0.690866	-0.096756	-1.208525	0.697263	-0.117556	-1.235346	0.449857	-0.129137	-1.256458	0.434157	-0.235944	-1.392579	0.446669	-0.105876	-1.374577	0.392290	-0.122814	-1.438093	0.436197	-0.109123	-1.422871	0.386041	-0.122355	-1.624830	0.378114	-0.152949	-1.604846	0.334391	-0.229850	-1.688875	0.257038	-0.115948	-1.676054	0.217838	-0.214314	-1.651022	0.170103	-0.146359	-1.666063	0.415673	-0.222885	-1.253713	0.726966	-0.435218	-1.198770	0.739373	-0.427096	-1.238406	0.683079	-0.431930	-1.189735	0.695354	-0.430027	-1.147233	0.461597	-0.384177	-1.131604	0.460253	-0.283037	-1.228163	0.348787	-0.386358	-1.182853	0.340470	-0.388631	-1.237370	0.297060	-0.379601	-1.193238	0.288172	-0.381097	-1.250899	0.100026	-0.313884	-1.209069	0.113419	-0.234889	-1.140149	0.040014	-0.362938	-1.108602	0.049239	-0.254981	-1.057938	0.064651	-0.317297	-1.307092	0.071865	-0.253550	-1.147136	1.386997	-0.109370	-1.165403	1.405442	-0.428513	
8	0.0350	-1.185215	0.918263	-0.154582	-1.192636	0.908786	-0.386313	-1.353028	0.953031	-0.211659	-1.356675	0.950436	-0.309984	-1.238461	0.727095	-0.094811	-1.189982	0.733190	-0.120231	-1.236953	0.689265	-0.095125	-1.187999	0.696930	-0.115887	-1.207649	0.449532	-0.127652	-1.228761	0.433504	-0.234542	-1.364200	0.444920	-0.103440	-1.346056	0.390702	-0.121136	-1.409812	0.434194	-0.106606	-1.394359	0.384169	-0.120517	-1.596799	0.375620	-0.150361	-1.576737	0.332197	-0.227402	-1.658093	0.253914	-0.112864	-1.645621	0.214505	-0.211269	-1.618796	0.167513	-0.143590	-1.639581	0.412616	-0.219999	-1.238472	0.725022	-0.433829	-1.183545	0.736942	-0.425738	-1.223689	0.681078	-0.430435	-1.175060	0.692806	-0.428472	-1.135905	0.458523	-0.382639	-1.120628	0.456911	-0.281485	-1.218964	0.347639	-0.385022	-1.174003	0.338225	-0.386984	-1.229475	0.296181	-0.378258	-1.185714	0.286250	-0.379386	-1.249349	0.100152	-0.312298	-1.207469	0.112289	-0.232989	-1.139790	0.039886	-0.362466	-1.108029	0.047587	-0.254115	-1.057074	0.062589	-0.316238	-1.306870	0.071859	-0.252519	-1.133101	1.385474	-0.107626	-1.148362	1.402999	-0.427343	
9	0.0400	-1.169145	0.916310	-0.152947	-1.175658	0.907156	-0.385097	-1.337113	0.950519	-0.210711	-1.340244	0.948525	-0.309067	-1.218749	0.725677	-0.093411	-1.170319	0.732997	-0.118702	-1.216205	0.687961	-0.093506	-1.167258	0.696933	-0.114231	-1.179581	0.449688	-0.126234	-1.200700	0.433347	-0.233203	-1.335368	0.443365	-0.101092	-1.316984	0.389353	-0.119526	-1.381043	0.432290	-0.104143	-1.365272	0.382440	-0.118724	-1.568154	0.372745	-0.147775	-1.547975	0.329749	-0.224991	-1.626340	0.250362	-0.109867	-1.614167	0.210865	-0.208350	-1.585435	0.164715	-0.141014	-1.612595	0.409041	-0.217053	-1.223095	0.723225	-0.432412	-1.168183	0.734608	-0.424339	-1.208883	0.679217	-0.428923	-1.160292	0.690354	-0.426882	-1.124740	0.455589	-0.381104	-1.109834	0.453682	-0.279918	-1.209962	0.346698	-0.383708	-1.165357	0.336182	-0.385386	-1.221770	0.295516	-0.376955	-1.178387	0.284541	-0.377750	-1.247857	0.100422	-0.310850	-1.205919	0.111352	-0.231251	-1.139471	0.039693	-0.362026	-1.107526	0.046029	-0.253358	-1.056302	0.060690	-0.315294	-1.306675	0.072019	-0.251582	-1.118925	1.384136	-0.105842	-1.130997	1.400779	-0.426043	
10	0.0450	-1.152884	0.914562	-0.151283	-1.158431	0.905704	-0.383828	-1.320971	0.948207	-0.209787	-1.323552	0.946814	-0.308165	-1.198831	0.724555	-0.092008	-1.150477	0.733149	-0.117173	-1.195234	0.686986	-0.091900	-1.146312	0.697300	-0.112593	-1.151174	0.450361	-0.124881	-1.172303	0.433724	-0.231927	-1.306101	0.442016	-0.098842	-1.287368	0.388266	-0.117987	-1.351796	0.430491	-0.101745	-1.335611	0.380867	-0.116982	-1.538863	0.369452	-0.145205	-1.518523	0.327024	-0.222627	-1.593556	0.246363	-0.106981	-1.581623	0.206915	-0.205582	-1.550877	0.161722	-0.138655	-1.585065	0.404893	-0.214059	-1.207577	0.721598	-0.430969	-1.152682	0.732393	-0.422898	-1.193984	0.677519	-0.427393	-1.145427	0.688023	-0.425254	-1.113745	0.452821	-0.379579	-1.099228	0.450591	-0.278340	-1.201162	0.345993	-0.382421	-1.156920	0.334372	-0.383848	-1.214255	0.295096	-0.375699	-1.171258	0.283077	-0.376199	-1.246404	0.100863	-0.309554	-1.204400	0.110632	-0.229691	-1.139196	0.039438	-0.361617	-1.107101	0.044569	-0.252715	-1.055634	0.058959	-0.314468	-1.306476	0.072391	-0.250751	-1.104606	1.383006	-0.104016	-1.113302	1.398810	-0.424602	
11	0.0500	-1.136427	0.913041	-0.149591	-1.140953	0.904448	-0.382503	-1.304596	0.946121	-0.208884	-1.306594	0.945327	-0.307276	-1.178717	0.723756	-0.090602	-1.130468	0.733668	-0.115644	-1.174055	0.686366	-0.090311	-1.125179	0.698056	-0.110973	-1.122470	0.451579	-0.123591	-1.143607	0.434664	-0.230710	-1.276429	0.440881	-0.096698	-1.257228	0.387458	-0.116521	-1.322091	0.428798	-0.099422	-1.305389	0.379462	-0.115293	-1.508902	0.365709	-0.142666	-1.488355	0.324001	-0.220325	-1.559696	0.241904	-0.104230	-1.547937	0.202660	-0.202987	-1.515079	0.158554	-0.136533	-1.556954	0.400121	-0.211039	-1.191917	0.720164	-0.429501	-1.137038	0.730319	-0.421412	-1.178989	0.676007	-0.425850	-1.130462	0.685836	-0.423590	-1.102918	0.450245	-0.378071	-1.088810	0.447662	-0.276756	-1.192559	0.345553	-0.381170	-1.148689	0.332824	-0.382379	-1.206926	0.294952	-0.374500	-1.164322	0.281889	-0.374742	-1.244967	0.101507	-0.308421	-1.202892	0.110156	-0.228323	-1.138971	0.039127	-0.361240	-1.106760	0.043212	-0.252186	-1.055083	0.057398	-0.313761	-1.306239	0.073023	-0.250035	-1.090148	1.382102	-0.102148	-1.095278	1.397117	-0.423009	
12	0.0550	-1.119775	0.911766	-0.147875	-1.123226	0.903405	-0.381121	-1.287984	0.944285	-0.208002	-1.289369	0.944083	-0.306398	-1.158425	0.723298	-0.089193	-1.110310	0.734570	-0.114117	-1.152689	0.686122	-0.088739	-1.103882	0.699213	-0.109374	-1.093525	0.453357	-0.122360	-1.114662	0.436181	-0.229549	-1.246395	0.439961	-0.094667	-1.226603	0.386942	-0.115126	-1.291962	0.427207	-0.097185	-1.274634	0.378229	-0.113661	-1.478257	0.361492	-0.140177	-1.457453	0.320665	-0.218098	-1.524735	0.236984	-0.101638	-1.513074	0.198114	-0.200590	-1.478023	0.155237	-0.134665	-1.528231	0.394687	-0.208013	-1.176111	0.718945	-0.428011	-1.121251	0.728410	-0.419883	-1.163893	0.674704	-0.424295	-1.115395	0.683815	-0.421890	-1.092253	0.447885	-0.376590	-1.078571	0.444919	-0.275172	-1.184142	0.345404	-0.379962	-1.140650	0.331567	-0.380989	-1.199767	0.295112	-0.373365	-1.157564	0.281007	-0.373390	-1.243516	0.102385	-0.307460	-1.201367	0.109947	-0.227156	-1.138799	0.038772	-0.360894	-1.106510	0.041963	-0.251769	-1.054657	0.056003	-0.313169	-1.305922	0.073968	-0.249442	-1.075552	1.381443	-0.100238	-1.076933	1.395722	-0.421257	
13	0.0600	-1.102929	0.910753	-0.146137	-1.105255	0.902589	-0.379680	-1.271134	0.942720	-0.207136	-1.271882	0.943100	-0.305528	-1.137975	0.723197	-0.087780	-1.090023	0.735861	-0.112593	-1.131162	0.686266	-0.087186	-1.082446	0.700778	-0.107797	-1.064407	0.455701	-0.121179	-1.085530	0.438279	-0.228436	-1.216056	0.439252	-0.092757	-1.195541	0.386724	-0.113803	-1.261455	0.425711	-0.095044	-1.243389	0.377172	-0.112088	-1.446928	0.356780	-0.137756	-1.425813	0.317002	-0.215962	-1.488664	0.231610	-0.099230	-1.477021	0.193298	-0.198413	-1.439714	0.151805	-0.133068	-1.498873	0.388557	-0.205009	-1.160160	0.717958	-0.426501	-1.105321	0.726685	-0.418311	-1.148693	0.673629	-0.422733	-1.100223	0.681984	-0.420155	-1.081733	0.445764	-0.375145	-1.068495	0.442385	-0.273598	-1.175890	0.345568	-0.378808	-1.132784	0.330625	-0.379688	-1.192758	0.295600	-0.372302	-1.150961	0.280456	-0.372149	-1.242016	0.103525	-0.306678	-1.199793	0.110027	-0.226201	-1.138681	0.038386	-0.360578	-1.106352	0.040824	-0.251461	-1.054365	0.054768	-0.312687	-1.305477	0.075277	-0.248979	-1.060826	1.381039	-0.098285	-1.058282	1.394642	-0.419341	
14	0.0650	-1.085894	0.910016	-0.144382	-1.087052	0.902012	-0.378180	-1.254050	0.941443	-0.206282	-1.254140	0.942392	-0.304663	-1.117394	0.723459	-0.086365	-1.069633	0.737541	-0.111075	-1.109506	0.686804	-0.085654	-1.060907	0.702751	-0.106242	-1.035196	0.458601	-0.120043	-1.056282	0.440951	-0.227366	-1.185479	0.438741	-0.090971	-1.164109	0.386802	-0.112548	-1.230629	0.424297	-0.093008	-1.211709	0.376286	-0.110577	-1.414923	0.351563	-0.135425	-1.393443	0.313006	-0.213931	-1.451496	0.225800	-0.097029	-1.439783	0.188242	-0.196477	-1.400179	0.148296	-0.131753	-1.468865	0.381712	-0.202056	-1.144063	0.717219	-0.424977	-1.089249	0.725166	-0.416698	-1.133386	0.672798	-0.421169	-1.084943	0.680364	-0.418390	-1.071336	0.443903	-0.373746	-1.058558	0.440079	-0.272041	-1.167774	0.346065	-0.377715	-1.125061	0.330019	-0.378485	-1.185867	0.296438	-0.371321	-1.144484	0.280259	-0.371029	-1.240428	0.104958	-0.306079	-1.198134	0.110416	-0.225461	-1.138616	0.037988	-0.360290	-1.106285	0.039802	-0.251257	-1.054212	0.053686	-0.312307	-1.304849	0.077003	-0.248653	-1.045975	1.380901	-0.096292	-1.039346	1.393890	-0.417261	
15	0.0700	-1.068678	0.909561	-0.142614	-1.068632	0.901681	-0.376624	-1.236741	0.940468	-0.205436	-1.236157	0.941967	-0.303798	-1.096712	0.724086	-0.084948	-1.049169	0.739603	-0.109562	-1.087760	0.687734	-0.084141	-1.039301	0.705118	-0.104710	-1.005980	0.462035	-0.118943	-1.026999	0.444172	-0.226328	-1.154743	0.438411	-0.089311	-1.132385	0.387167	-0.111358	-1.199552	0.422949	-0.091086	-1.179664	0.375563	-0.109130	-1.382263	0.345836	-0.133206	-1.360363	0.308673	-0.212022	-1.413263	0.219580	-0.095060	-1.401391	0.182981	-0.194802	-1.359474	0.144752	-0.130728	-1.438201	0.374138	-0.199188	-1.127824	0.716742	-0.423444	-1.073040	0.723868	-0.415048	-1.117967	0.672227	-0.419607	-1.069554	0.678973	-0.416599	-1.061033	0.442318	-0.372404	-1.048728	0.438021	-0.270513	-1.159758	0.346910	-0.376694	-1.117446	0.329767	-0.377390	-1.179057	0.297644	-0.370429	-1.138093	0.280434	-0.370036	-1.238706	0.106711	-0.305667	-1.196348	0.111132	-0.224941	-1.138599	0.037603	-0.360029	-1.106307	0.038904	-0.251147	-1.054199	0.052745	-0.312022	-1.303981	0.079196	-0.248467	-1.031007	1.381031	-0.094260	-1.020155	1.393474	-0.415015	
16	0.0750	-1.051292	0.909393	-0.140840	-1.050014	0.901600	-0.375012	-1.219217	0.939802	-0.204591	-1.217950	0.941830	-0.302928	-1.075963	0.725070	-0.083527	-1.028664	0.742027	-0.108057	-1.065964	0.689045	-0.082649	-1.017669	0.707861	-0.103201	-0.976857	0.465970	-0.117868	-0.997770	0.447908	-0.225314	-1.123934	0.438235	-0.087778	-1.100460	0.387805	-0.110230	-1.168304	0.421645	-0.089286	-1.147336	0.374991	-0.107748	-1.348981	0.339600	-0.131122	-1.326607	0.304006	-0.210249	-1.374017	0.212984	-0.093346	-1.361893	0.177557	-0.193405	-1.317674	0.141219	-0.130000	-1.406882	0.365838	-0.196437	-1.111446	0.716536	-0.421907	-1.056698	0.722809	-0.413366	-1.102435	0.671924	-0.418053	-1.054054	0.677829	-0.414787	-1.050786	0.441023	-0.371130	-1.038965	0.436223	-0.269025	-1.151796	0.348115	-0.375754	-1.109894	0.329882	-0.376412	-1.172281	0.299231	-0.369634	-1.131743	0.280996	-0.369176	-1.236804	0.108810	-0.305440	-1.194391	0.112192	-0.224641	-1.138625	0.037258	-0.359793	-1.106409	0.038138	-0.251124	-1.054326	0.051932	-0.311820	-1.302810	0.081904	-0.248426	-1.015933	1.381429	-0.092192	-1.000742	1.393395	-0.412609	
17	0.0800	-1.033750	0.909511	-0.139064	-1.031221	0.901772	-0.373349	-1.201493	0.939452	-0.203742	-1.199540	0.941983	-0.302048	-1.055185	0.726398	-0.082103	-1.008151	0.744789	-0.106558	-1.044164	0.690719	-0.081178	-0.996055	0.710949	-0.101713	-0.947929	0.470357	-0.116812	-0.968688	0.452112	-0.224313	-1.093148	0.438182	-0.086372	-1.068431	0.388691	-0.109159	-1.136971	0.420358	-0.087614	-1.114815	0.374550	-0.106434	-1.315120	0.332866	-0.129194	-1.292220	0.299010	-0.208629	-1.333830	0.206052	-0.091906	-1.321360	0.172014	-0.192304	-1.274879	0.137741	-0.129570	-1.374921	0.356822	-0.193841	-1.094934	0.716605	-0.420372	-1.040229	0.721998	-0.411658	-1.086786	0.671896	-0.416514	-1.038442	0.676943	-0.412961	-1.040553	0.440028	-0.369935	-1.029223	0.434698	-0.267589	-1.143838	0.349684	-0.374905	-1.102353	0.330373	-0.375559	-1.165488	0.301208	-0.368945	-1.125382	0.281954	-0.368453	-1.234669	0.111279	-0.305399	-1.192217	0.113608	-0.224560	-1.138682	0.036983	-0.359582	-1.106579	0.037515	-0.251178	-1.054587	0.051233	-0.311692	-1.301271	0.085172	-0.248531	-1.000760	1.382090	-0.090090	-0.981148	1.393650	-0.410048	
18	0.0850	-1.016067	0.909909	-0.137292	-1.012278	0.902193	-0.371638	-1.183586	0.939414	-0.202883	-1.180949	0.942419	-0.301151	-1.034418	0.728047	-0.080676	-0.987665	0.747854	-0.105065	-1.022406	0.692728	-0.079728	-0.974503	0.714345	-0.100244	-0.919300	0.475138	-0.115764	-0.939850	0.456724	-0.223316	-1.062480	0.438213	-0.085092	-1.036404	0.389795	-0.108142	-1.105642	0.419058	-0.086076	-1.082197	0.374217	-0.105190	-1.280733	0.325649	-0.127446	-1.257256	0.293696	-0.207177	-1.292788	0.198831	-0.090759	-1.279881	0.166400	-0.191509	-1.231207	0.134363	-0.129438	-1.342340	0.347113	-0.191435	-1.078293	0.716950	-0.418846	-1.023638	0.721446	-0.409930	-1.071016	0.672145	-0.414996	-1.022716	0.676324	-0.411128	-1.030285	0.439336	-0.368831	-1.019451	0.433451	-0.266217	-1.135826	0.351619	-0.374157	-1.094767	0.331241	-0.374839	-1.158619	0.303577	-0.368369	-1.118952	0.283312	-0.367871	-1.232250	0.114136	-0.305540	-1.189777	0.115392	-0.224693	-1.138755	0.036812	-0.359395	-1.106800	0.037048	-0.251299	-1.054970	0.050634	-0.311626	-1.299296	0.089038	-0.248783	-0.985500	1.383002	-0.087958	-0.961415	1.394229	-0.407341	
19	0.0900	-0.998260	0.910577	-0.135528	-0.993211	0.902857	-0.369885	-1.165514	0.939681	-0.202006	-1.162202	0.943131	-0.300233	-1.013700	0.729990	-0.079245	-0.967241	0.751181	-0.103579	-1.000738	0.695038	-0.078296	-0.953058	0.718002	-0.098792	-0.891074	0.480243	-0.114717	-0.911352	0.461676	-0.222314	-1.032031	0.438285	-0.083933	-1.004489	0.391079	-0.107175	-1.074411	0.417712	-0.084678	-1.049586	0.373962	-0.104018	-1.245881	0.317973	-0.125900	-1.221782	0.288078	-0.205907	-1.250995	0.191373	-0.089922	-1.237564	0.160764	-0.191032	-1.186795	0.131127	-0.129602	-1.309170	0.336745	-0.189254	-1.061526	0.717566	-0.417336	-1.006930	0.721156	-0.408190	-1.055123	0.672667	-0.413505	-1.006873	0.675979	-0.409298	-1.019927	0.438947	-0.367828	-1.009591	0.432483	-0.264922	-1.127697	0.353913	-0.373518	-1.087075	0.332484	-0.374258	-1.151612	0.306335	-0.367912	-1.112391	0.285068	-0.367432	-1.229490	0.117398	-0.305857	-1.187021	0.117551	-0.225034	-1.138824	0.036784	-0.359233	-1.107050	0.036755	-0.251476	-1.055458	0.050123	-0.311613	-1.296820	0.093534	-0.249181	-0.970159	1.384152	-0.085797	-0.941589	1.395119	-0.404499	
20	0.0950	-0.980346	0.911500	-0.133778	-0.974047	0.903754	-0.368094	-1.147299	0.940242	-0.201106	-1.143327	0.944101	-0.299287	-0.993071	0.732189	-0.077811	-0.946912	0.754719	-0.102096	-0.979207	0.697608	-0.076883	-0.931762	0.721868	-0.097352	-0.863351	0.485593	-0.113665	-0.883286	0.466889	-0.221299	-1.001897	0.438351	-0.082894	-0.972793	0.392499	-0.106257	-1.043372	0.416284	-0.083424	-1.017084	0.373754	-0.102922	-1.210636	0.309867	-0.124575	-1.185872	0.282175	-0.204834	-1.208570	0.183731	-0.089407	-1.194533	0.155151	-0.190880	-1.141791	0.128070	-0.130054	-1.275453	0.325762	-0.187332	-1.044639	0.718446	-0.415847	-0.990112	0.721128	-0.406446	-1.039099	0.673454	-0.412049	-0.990909	0.675905	-0.407477	-1.009423	0.438854	-0.366935	-0.999582	0.431791	-0.263716	-1.119385	0.356557	-0.372996	-1.079209	0.334093	-0.373822	-1.144399	0.309474	-0.367580	-1.105633	0.287213	-0.367138	-1.226334	0.121077	-0.306345	-1.183897	0.120090	-0.225576	-1.138862	0.036936	-0.359096	-1.107299	0.036654	-0.251701	-1.056030	0.049687	-0.311643	-1.293774	0.098686	-0.249725	-0.954746	1.385517	-0.083612	-0.921716	1.396299	-0.401536	
21	0.1000	-0.962343	0.912658	-0.132045	-0.954812	0.904870	-0.366270	-1.128961	0.941077	-0.200176	-1.124348	0.945312	-0.298308	-0.972568	0.734604	-0.076371	-0.926710	0.758415	-0.100614	-0.957856	0.700387	-0.075486	-0.910655	0.725881	-0.095922	-0.836227	0.491103	-0.112605	-0.855740	0.472279	-0.220266	-0.972172	0.438359	-0.081971	-0.941426	0.394008	-0.105386	-1.012615	0.414735	-0.082318	-0.984797	0.373557	-0.101907	-1.175073	0.301365	-0.123491	-1.149610	0.276008	-0.203968	-1.165642	0.175961	-0.089224	-1.150925	0.149608	-0.191055	-1.096359	0.125222	-0.130788	-1.241241	0.314218	-0.185701	-1.027633	0.719574	-0.414386	-0.973185	0.721357	-0.404705	-1.022939	0.674492	-0.410632	-0.974820	0.676099	-0.405675	-0.998711	0.439046	-0.366161	-0.989360	0.431366	-0.262611	-1.110821	0.359533	-0.372599	-1.071103	0.336053	-0.373534	-1.136912	0.312980	-0.367377	-1.098611	0.289735	-0.366987	-1.222728	0.125179	-0.306995	-1.180356	0.123012	-0.226307	-1.138836	0.037309	-0.358985	-1.107512	0.036765	-0.251966	-1.056653	0.049317	-0.311708	-1.290095	0.104506	-0.250410	-0.939266	1.387076	-0.081405	-0.901842	1.397744	-0.398465	
22	0.1050	-0.944266	0.914027	-0.130331	-0.935531	0.906188	-0.364418	-1.110521	0.942164	-0.199210	-1.105291	0.946738	-0.297291	-0.952225	0.737185	-0.074927	-0.906663	0.762207	-0.099132	-0.936727	0.703322	-0.074104	-0.889774	0.729979	-0.094496	-0.809785	0.496680	-0.111533	-0.828796	0.477754	-0.219210	-0.942943	0.438258	-0.081160	-0.910491	0.395551	-0.104564	-0.982228	0.413028	-0.081363	-0.952823	0.373331	-0.100976	-1.139277	0.292506	-0.122663	-1.113085	0.269601	-0.203323	-1.122353	0.168118	-0.089380	-1.106891	0.144173	-0.191559	-1.050669	0.122607	-0.131792	-1.206595	0.302177	-0.184389	-1.010509	0.720933	-0.412958	-0.956151	0.721832	-0.402975	-1.006636	0.675762	-0.409260	-0.958597	0.676550	-0.403898	-0.987728	0.439505	-0.365512	-0.978859	0.431193	-0.261616	-1.101933	0.362819	-0.372331	-1.062686	0.338343	-0.373396	-1.129078	0.316830	-0.367307	-1.091254	0.292613	-0.366978	-1.218617	0.129705	-0.307798	-1.176347	0.126313	-0.227217	-1.138709	0.037943	-0.358905	-1.107648	0.037111	-0.252262	-1.057291	0.049007	-0.311802	-1.285721	0.111001	-0.251232	-0.923724	1.388800	-0.079178	-0.882012	1.399425	-0.395304	
23	0.1100	-0.926131	0.915579	-0.128639	-0.916226	0.907688	-0.362544	-1.091997	0.943472	-0.198205	-1.086178	0.948351	-0.296232	-0.932072	0.739882	-0.073478	-0.886794	0.766033	-0.097644	-0.915856	0.706353	-0.072736	-0.869148	0.734091	-0.093069	-0.784102	0.502231	-0.110450	-0.802524	0.483223	-0.218128	-0.914290	0.437994	-0.080460	-0.880085	0.397073	-0.103792	-0.952293	0.411126	-0.080561	-0.921261	0.373037	-0.100137	-1.103336	0.283336	-0.122107	-1.076393	0.262982	-0.202908	-1.078852	0.160258	-0.089875	-1.062590	0.138883	-0.192389	-1.004900	0.120240	-0.133055	-1.171587	0.289709	-0.183422	-0.993265	0.722499	-0.411567	-0.939009	0.722541	-0.401263	-0.990177	0.677243	-0.407937	-0.942233	0.677242	-0.402154	-0.976410	0.440207	-0.364992	-0.968014	0.431253	-0.260740	-1.092649	0.366386	-0.372196	-1.053887	0.340936	-0.373408	-1.120828	0.320999	-0.367370	-1.083493	0.295821	-0.367105	-1.213948	0.134651	-0.308744	-1.171822	0.129990	-0.228292	-1.138433	0.038875	-0.358858	-1.107655	0.037716	-0.252585	-1.057897	0.048751	-0.311920	-1.280596	0.118165	-0.252186	-0.908120	1.390659	-0.076934	-0.862268	1.401310	-0.392068	
24	0.1150	-0.907952	0.917283	-0.126968	-0.896916	0.909346	-0.360650	-1.073407	0.944968	-0.197156	-1.067030	0.950118	-0.295125	-0.912136	0.742636	-0.072022	-0.867121	0.769825	-0.096146	-0.895274	0.709419	-0.071379	-0.848803	0.738146	-0.091635	-0.759239	0.507658	-0.109360	-0.776985	0.488590	-0.217022	-0.886283	0.437517	-0.079866	-0.850296	0.398517	-0.103074	-0.922884	0.408991	-0.079917	-0.890199	0.372633	-0.099395	-1.067345	0.273902	-0.121832	-1.039636	0.256178	-0.202731	-1.035296	0.152433	-0.090709	-1.018191	0.133765	-0.193537	-0.959232	0.118126	-0.134563	-1.136300	0.276892	-0.182819	-0.975897	0.724244	-0.410216	-0.921755	0.723462	-0.399574	-0.973553	0.678906	-0.406667	-0.925715	0.678155	-0.400450	-0.964693	0.441126	-0.364604	-0.956759	0.431521	-0.259990	-1.082900	0.370202	-0.372196	-1.044638	0.343801	-0.373567	-1.112090	0.325454	-0.367567	-1.075260	0.299328	-0.367365	-1.208671	0.140006	-0.309821	-1.166733	0.134032	-0.229519	-1.137953	0.040144	-0.358850	-1.107478	0.038604	-0.252932	-1.058415	0.048551	-0.312061	-1.274666	0.125980	-0.253264	-0.892453	1.392619	-0.074675	-0.842648	1.403364	-0.388775	
25	0.1200	-0.889740	0.919105	-0.125316	-0.877617	0.911136	-0.358739	-1.054768	0.946616	-0.196060	-1.047865	0.952004	-0.293970	-0.892436	0.745391	-0.070560	-0.847659	0.773514	-0.094634	-0.875006	0.712454	-0.070032	-0.828758	0.742073	-0.090190	-0.735244	0.512867	-0.108267	-0.752227	0.493764	-0.215895	-0.858982	0.436777	-0.079380	-0.821201	0.399825	-0.102416	-0.894066	0.406593	-0.079432	-0.859720	0.372079	-0.098760	-1.031401	0.264255	-0.121848	-1.002920	0.249219	-0.202799	-0.991848	0.144693	-0.091874	-0.973868	0.128840	-0.194995	-0.913849	0.116261	-0.136301	-1.100825	0.263811	-0.182597	-0.958398	0.726138	-0.408907	-0.904381	0.724573	-0.397912	-0.956746	0.680720	-0.405451	-0.909028	0.679264	-0.398788	-0.952515	0.442229	-0.364348	-0.945032	0.431970	-0.259368	-1.072615	0.374228	-0.372331	-1.034870	0.346900	-0.373868	-1.102796	0.330158	-0.367895	-1.066487	0.303099	-0.367748	-1.202736	0.145755	-0.311016	-1.161033	0.138426	-0.230880	-1.137208	0.041780	-0.358886	-1.107050	0.039796	-0.253300	-1.058782	0.048408	-0.312225	-1.267887	0.134417	-0.254458	-0.876722	1.394646	-0.072400	-0.823186	1.405547	-0.385441	
26	0.1250	-0.871502	0.921008	-0.123682	-0.858339	0.913029	-0.356815	-1.036092	0.948374	-0.194914	-1.028696	0.953970	-0.292763	-0.872986	0.748086	-0.069090	-0.828414	0.777034	-0.093102	-0.855070	0.715394	-0.068693	-0.809022	0.745800	-0.088727	-0.712150	0.517767	-0.107180	-0.728285	0.498656	-0.214752	-0.832434	0.435732	-0.079001	-0.792868	0.400942	-0.101825	-0.865896	0.403902	-0.079109	-0.829897	0.371337	-0.098238	-0.995608	0.254450	-0.122159	-0.966355	0.242138	-0.203117	-0.948671	0.137083	-0.093363	-0.929801	0.124122	-0.196748	-0.868933	0.114633	-0.138255	-1.065265	0.250554	-0.182765	-0.940756	0.728146	-0.407641	-0.886877	0.725847	-0.396281	-0.939742	0.682650	-0.404289	-0.892156	0.680541	-0.397172	-0.939813	0.443480	-0.364220	-0.932770	0.432566	-0.258876	-1.061729	0.378424	-0.372597	-1.024519	0.350194	-0.374304	-1.092880	0.335071	-0.368349	-1.057110	0.307091	-0.368246	-1.196098	0.151874	-0.312317	-1.154680	0.143155	-0.232360	-1.136127	0.043813	-0.358974	-1.106299	0.041314	-0.253691	-1.058921	0.048330	-0.312415	-1.260217	0.143437	-0.255759	-0.860918	1.396705	-0.070111	-0.803909	1.407820	-0.382084	
27	0.1300	-0.853243	0.922954	-0.122061	-0.839089	0.914994	-0.354876	-1.017388	0.950198	-0.193719	-1.009532	0.955976	-0.291503	-0.853796	0.750661	-0.067613	-0.809388	0.780318	-0.091546	-0.835475	0.718174	-0.067362	-0.789601	0.749257	-0.087241	-0.689974	0.522270	-0.106110	-0.705180	0.503182	-0.213602	-0.806675	0.434342	-0.078730	-0.765350	0.401815	-0.101312	-0.838422	0.400896	-0.078952	-0.800793	0.370370	-0.097839	-0.960070	0.244544	-0.122768	-0.930054	0.234966	-0.203688	-0.905936	0.129646	-0.095159	-0.886169	0.119616	-0.198781	-0.824662	0.113217	-0.140408	-1.029730	0.237212	-0.183330	-0.922958	0.730232	-0.406417	-0.869228	0.727253	-0.394681	-0.922519	0.684660	-0.403181	-0.875079	0.681953	-0.395603	-0.926529	0.444841	-0.364215	-0.919919	0.433277	-0.258512	-1.050178	0.382744	-0.372990	-1.013522	0.353637	-0.374866	-1.082279	0.340146	-0.368923	-1.047069	0.311263	-0.368849	-1.188712	0.158338	-0.313710	-1.147630	0.148196	-0.233942	-1.134632	0.046263	-0.359120	-1.105143	0.043175	-0.254108	-1.058751	0.048327	-0.312634	-1.251622	0.152986	-0.257156	-0.845034	1.398759	-0.067807	-0.784839	1.410145	-0.378719	
28	0.1350	-0.834966	0.924905	-0.120446	-0.819869	0.916999	-0.352924	-0.998663	0.952044	-0.192472	-0.990378	0.957981	-0.290191	-0.834864	0.753059	-0.066129	-0.790576	0.783304	-0.089959	-0.816224	0.720733	-0.066036	-0.770491	0.752379	-0.085726	-0.668717	0.526300	-0.105070	-0.682920	0.507267	-0.212456	-0.781729	0.432577	-0.078570	-0.738690	0.402394	-0.100885	-0.811681	0.397559	-0.078962	-0.772461	0.369147	-0.097573	-0.924895	0.234593	-0.123672	-0.894133	0.227736	-0.204512	-0.863811	0.122418	-0.097246	-0.843154	0.115318	-0.201074	-0.781213	0.111983	-0.142742	-0.994341	0.223877	-0.184291	-0.904986	0.732357	-0.405233	-0.851417	0.728758	-0.393111	-0.905056	0.686710	-0.402123	-0.857775	0.683466	-0.394079	-0.912609	0.446273	-0.364324	-0.906425	0.434065	-0.258271	-1.037904	0.387142	-0.373502	-1.001822	0.357184	-0.375540	-1.070935	0.345335	-0.369609	-1.036305	0.315566	-0.369543	-1.180536	0.165110	-0.315182	-1.139843	0.153525	-0.235609	-1.132636	0.049147	-0.359333	-1.103496	0.045391	-0.254555	-1.058178	0.048413	-0.312892	-1.242073	0.163004	-0.258637	-0.829060	1.400773	-0.065489	-0.765992	1.412481	-0.375361	
29	0.1400	-0.816668	0.926820	-0.118831	-0.800673	0.919013	-0.350957	-0.979919	0.953868	-0.191176	-0.971234	0.959945	-0.288826	-0.816187	0.755224	-0.064637	-0.771967	0.785934	-0.088338	-0.797313	0.723013	-0.064716	-0.751682	0.755107	-0.084179	-0.648366	0.529786	-0.104073	-0.661501	0.510845	-0.211326	-0.757610	0.430414	-0.078526	-0.712916	0.402638	-0.100557	-0.785703	0.393882	-0.079143	-0.744945	0.367642	-0.097449	-0.890195	0.224657	-0.124867	-0.858710	0.220482	-0.205589	-0.822464	0.115432	-0.099603	-0.800934	0.111220	-0.203605	-0.738752	0.110893	-0.145241	-0.959225	0.210645	-0.185642	-0.886820	0.734481	-0.404084	-0.833422	0.730327	-0.391568	-0.887329	0.688761	-0.401111	-0.840217	0.685043	-0.392598	-0.898000	0.447734	-0.364536	-0.892241	0.434896	-0.258145	-1.024853	0.391570	-0.374123	-0.989363	0.360787	-0.376314	-1.058794	0.350590	-0.370394	-1.024765	0.319953	-0.370317	-1.171530	0.172154	-0.316717	-1.131279	0.159111	-0.237343	-1.130047	0.052471	-0.359622	-1.101264	0.047971	-0.255039	-1.057100	0.048601	-0.313195	-1.231551	0.173418	-0.260189	-0.812983	1.402713	-0.063153	-0.747377	1.414790	-0.372024	
30	0.1450	-0.798345	0.928661	-0.117207	-0.781496	0.921002	-0.348971	-0.961155	0.955624	-0.189831	-0.952098	0.961827	-0.287409	-0.797753	0.757105	-0.063139	-0.753546	0.788155	-0.086678	-0.778729	0.724960	-0.063402	-0.733156	0.757386	-0.082596	-0.628894	0.532670	-0.103136	-0.640905	0.513859	-0.210229	-0.734319	0.427840	-0.078602	-0.688045	0.402509	-0.100339	-0.760507	0.389864	-0.079496	-0.718278	0.365832	-0.097477	-0.856081	0.214795	-0.126344	-0.823902	0.213238	-0.206915	-0.782060	0.108714	-0.102204	-0.759687	0.107304	-0.206350	-0.697443	0.109902	-0.147886	-0.924517	0.197606	-0.187373	-0.868437	0.736566	-0.402965	-0.815221	0.731925	-0.390049	-0.869312	0.690774	-0.400138	-0.822380	0.686647	-0.391155	-0.882655	0.449186	-0.364836	-0.877324	0.435732	-0.258123	-1.010974	0.395980	-0.374841	-0.976097	0.364399	-0.377171	-1.045805	0.355860	-0.371268	-1.012400	0.324374	-0.371155	-1.161658	0.179425	-0.318303	-1.121900	0.164919	-0.239126	-1.126765	0.056235	-0.359995	-1.098345	0.050915	-0.255570	-1.055407	0.048910	-0.313555	-1.220037	0.184147	-0.261801	-0.796787	1.404548	-0.060800	-0.728996	1.417035	-0.368718	
31	0.1500	-0.779987	0.930391	-0.115565	-0.762323	0.922934	-0.346964	-0.942367	0.957270	-0.188437	-0.932960	0.963589	-0.285943	-0.779543	0.758658	-0.061635	-0.735290	0.789922	-0.084975	-0.760453	0.726530	-0.062094	-0.714891	0.759170	-0.080974	-0.610259	0.534906	-0.102274	-0.621104	0.516266	-0.209179	-0.711850	0.424851	-0.078802	-0.664084	0.401981	-0.100242	-0.736105	0.385513	-0.080022	-0.692485	0.363704	-0.097664	-0.822666	0.205066	-0.128092	-0.789828	0.206036	-0.208484	-0.742760	0.102287	-0.105023	-0.719580	0.103550	-0.209282	-0.657435	0.108962	-0.150660	-0.890356	0.184853	-0.189466	-0.849811	0.738574	-0.401868	-0.796787	0.733519	-0.388546	-0.850978	0.692711	-0.399197	-0.804235	0.688243	-0.389742	-0.866532	0.450590	-0.365209	-0.861637	0.436540	-0.258190	-0.996226	0.400325	-0.375643	-0.961979	0.367973	-0.378093	-1.031925	0.361093	-0.372216	-0.999165	0.328783	-0.372043	-1.150884	0.186875	-0.319926	-1.111668	0.170913	-0.240942	-1.122685	0.060427	-0.360462	-1.094637	0.054218	-0.256156	-1.052982	0.049358	-0.313983	-1.207521	0.195103	-0.263457	-0.780458	1.406247	-0.058425	-0.710844	1.419182	-0.365454	
32	0.1550	-0.761583	0.931975	-0.113895	-0.743139	0.924778	-0.344931	-0.923545	0.958765	-0.186998	-0.913809	0.965195	-0.284429	-0.761533	0.759842	-0.060125	-0.717175	0.791200	-0.083226	-0.742458	0.727683	-0.060793	-0.696857	0.760424	-0.079312	-0.592410	0.536462	-0.101505	-0.602060	0.518036	-0.208193	-0.690186	0.421453	-0.079132	-0.641028	0.401032	-0.100278	-0.712502	0.380845	-0.080723	-0.667581	0.361251	-0.098018	-0.790062	0.195527	-0.130097	-0.756605	0.198911	-0.210288	-0.704720	0.096169	-0.108029	-0.680779	0.099930	-0.212373	-0.618872	0.108022	-0.153543	-0.856886	0.172470	-0.191902	-0.830916	0.740469	-0.400786	-0.778093	0.735073	-0.387052	-0.832298	0.694537	-0.398280	-0.785752	0.689796	-0.388352	-0.849594	0.451912	-0.365637	-0.845148	0.437289	-0.258332	-0.980569	0.404561	-0.376513	-0.946969	0.371464	-0.379060	-1.017115	0.366242	-0.373222	-0.985019	0.333131	-0.372965	-1.139173	0.194453	-0.321573	-1.100546	0.177050	-0.242775	-1.117698	0.065028	-0.361032	-1.090031	0.057866	-0.256809	-1.049704	0.049962	-0.314492	-1.193997	0.206193	-0.265145	-0.763977	1.407785	-0.056027	-0.692912	1.421200	-0.362241	
33	0.1600	-0.743119	0.933379	-0.112187	-0.723923	0.926504	-0.342867	-0.904680	0.960075	-0.185515	-0.894630	0.966612	-0.282868	-0.743697	0.760628	-0.058613	-0.699172	0.791961	-0.081431	-0.724714	0.728390	-0.059500	-0.679022	0.761121	-0.077610	-0.575285	0.537318	-0.100842	-0.583727	0.519149	-0.207287	-0.669306	0.417662	-0.079596	-0.618863	0.399652	-0.100456	-0.689698	0.375885	-0.081596	-0.643574	0.358472	-0.098544	-0.758380	0.186236	-0.132340	-0.724347	0.191896	-0.212317	-0.668087	0.090373	-0.111192	-0.643435	0.096417	-0.215594	-0.581883	0.107031	-0.156517	-0.824248	0.160541	-0.194653	-0.811725	0.742218	-0.399710	-0.759111	0.736558	-0.385558	-0.813245	0.696219	-0.397375	-0.766901	0.691273	-0.386976	-0.831809	0.453121	-0.366098	-0.827830	0.437950	-0.258528	-0.963970	0.408646	-0.377435	-0.931031	0.374832	-0.380053	-1.001340	0.371260	-0.374271	-0.969926	0.337374	-0.373905	-1.126493	0.202104	-0.323232	-1.088500	0.183286	-0.244610	-1.111694	0.070011	-0.361713	-1.084419	0.061838	-0.257541	-1.045447	0.050738	-0.315094	-1.179462	0.217319	-0.266852	-0.747327	1.409139	-0.053602	-0.675185	1.423062	-0.359084	
34	0.1650	-0.724579	0.934576	-0.110431	-0.704655	0.928086	-0.340768	-0.885758	0.961166	-0.183989	-0.875407	0.967814	-0.281264	-0.726001	0.760993	-0.057098	-0.681247	0.792187	-0.079589	-0.707186	0.728632	-0.058218	-0.661350	0.761244	-0.075870	-0.558816	0.537469	-0.100301	-0.566052	0.519603	-0.206478	-0.649179	0.413506	-0.080197	-0.597567	0.397840	-0.100784	-0.667687	0.370664	-0.082639	-0.620466	0.355375	-0.099246	-0.727728	0.177247	-0.134802	-0.693167	0.185024	-0.214558	-0.632999	0.084910	-0.114477	-0.607690	0.092981	-0.218914	-0.546586	0.105940	-0.159564	-0.792587	0.149142	-0.197691	-0.792211	0.743792	-0.398629	-0.739811	0.737945	-0.384054	-0.793793	0.697729	-0.396472	-0.747654	0.692647	-0.385602	-0.813150	0.454193	-0.366572	-0.809663	0.438502	-0.258760	-0.946404	0.412542	-0.378389	-0.914137	0.378039	-0.381051	-0.984572	0.376103	-0.375346	-0.953856	0.341471	-0.374848	-1.112812	0.209772	-0.324891	-1.075493	0.189575	-0.246431	-1.104562	0.075337	-0.362514	-1.077691	0.066103	-0.258364	-1.040082	0.051703	-0.315802	-1.163917	0.228380	-0.268563	-0.730490	1.410291	-0.051148	-0.657641	1.424745	-0.355989	
35	0.1700	-0.705944	0.935541	-0.108616	-0.685311	0.929501	-0.338629	-0.866763	0.962014	-0.182422	-0.856120	0.968777	-0.279617	-0.708411	0.760923	-0.055584	-0.663368	0.791871	-0.077702	-0.689832	0.728398	-0.056949	-0.643800	0.760790	-0.074095	-0.542930	0.536923	-0.099894	-0.548980	0.519404	-0.205780	-0.629776	0.409019	-0.080936	-0.577114	0.395604	-0.101268	-0.646461	0.365224	-0.083847	-0.598253	0.351976	-0.100125	-0.698211	0.168612	-0.137458	-0.663171	0.178326	-0.216996	-0.599584	0.079787	-0.117851	-0.573674	0.089593	-0.222301	-0.513086	0.104704	-0.162663	-0.762042	0.138342	-0.200982	-0.772348	0.745166	-0.397533	-0.720169	0.739210	-0.382530	-0.773915	0.699044	-0.395559	-0.727983	0.693892	-0.384220	-0.793597	0.455107	-0.367036	-0.790631	0.438927	-0.259006	-0.927849	0.416217	-0.379359	-0.896261	0.381052	-0.382033	-0.966790	0.380733	-0.376429	-0.936781	0.345386	-0.375780	-1.098103	0.217399	-0.326539	-1.061494	0.195867	-0.248227	-1.096192	0.080961	-0.363440	-1.069744	0.070624	-0.259288	-1.033485	0.052867	-0.316628	-1.147366	0.239277	-0.270266	-0.713448	1.411229	-0.048661	-0.640257	1.426230	-0.352959	
36	0.1750	-0.687197	0.936254	-0.106735	-0.665867	0.930727	-0.336444	-0.847679	0.962598	-0.180814	-0.836750	0.969484	-0.277928	-0.690891	0.760415	-0.054072	-0.645501	0.791018	-0.075772	-0.672614	0.727689	-0.055695	-0.626335	0.759763	-0.072289	-0.527550	0.535701	-0.099629	-0.532451	0.518575	-0.205206	-0.611062	0.404245	-0.081814	-0.557471	0.392961	-0.101911	-0.626006	0.359611	-0.085212	-0.576926	0.348296	-0.101179	-0.669926	0.160380	-0.140284	-0.634456	0.171836	-0.219612	-0.567953	0.075006	-0.121279	-0.541500	0.086228	-0.225724	-0.481471	0.103283	-0.165794	-0.732744	0.128203	-0.204488	-0.752113	0.746322	-0.396412	-0.700158	0.740335	-0.380977	-0.753589	0.700145	-0.394625	-0.707863	0.694991	-0.382820	-0.773136	0.455850	-0.367467	-0.770725	0.439212	-0.259244	-0.908293	0.419643	-0.380325	-0.877385	0.383845	-0.382979	-0.947978	0.385115	-0.377504	-0.918683	0.349086	-0.376685	-1.082339	0.224927	-0.328168	-1.046470	0.202111	-0.249986	-1.086481	0.086831	-0.364498	-1.060474	0.075357	-0.260325	-1.025532	0.054239	-0.317583	-1.129817	0.249912	-0.271949	-0.696185	1.411942	-0.046138	-0.623006	1.427504	-0.349995	
37	0.1800	-0.668319	0.936700	-0.104778	-0.646302	0.931749	-0.334212	-0.828490	0.962907	-0.179166	-0.817279	0.969923	-0.276200	-0.673404	0.759475	-0.052565	-0.627614	0.789641	-0.073805	-0.655488	0.726516	-0.054458	-0.608915	0.758181	-0.070459	-0.512600	0.533837	-0.099513	-0.516406	0.517146	-0.204765	-0.593001	0.399234	-0.082826	-0.538604	0.389936	-0.102711	-0.606311	0.353876	-0.086725	-0.556473	0.344366	-0.102402	-0.642964	0.152594	-0.143251	-0.607115	0.165584	-0.222386	-0.538206	0.070568	-0.124727	-0.511265	0.082861	-0.229153	-0.451817	0.101644	-0.168940	-0.704818	0.118779	-0.208170	-0.731487	0.747245	-0.395254	-0.679759	0.741306	-0.379384	-0.732799	0.701022	-0.393658	-0.687274	0.695930	-0.381391	-0.751763	0.456417	-0.367843	-0.749942	0.439353	-0.259452	-0.887728	0.422799	-0.381268	-0.857499	0.386398	-0.383868	-0.928127	0.389220	-0.378554	-0.899545	0.352546	-0.377550	-1.065498	0.232297	-0.329769	-1.030394	0.208256	-0.251697	-1.075332	0.092888	-0.365692	-1.049790	0.080250	-0.261483	-1.016108	0.055821	-0.318676	-1.111279	0.260188	-0.273602	-0.678688	1.412428	-0.043577	-0.605860	1.428557	-0.347097	
38	0.1850	-0.649293	0.936872	-0.102739	-0.626596	0.932555	-0.331927	-0.809180	0.962935	-0.177477	-0.797689	0.970089	-0.274433	-0.655914	0.758117	-0.051066	-0.609675	0.787764	-0.071806	-0.638415	0.724898	-0.053240	-0.591503	0.756073	-0.068611	-0.498006	0.531378	-0.099549	-0.500787	0.515162	-0.204465	-0.575559	0.394044	-0.083968	-0.520477	0.386563	-0.103664	-0.587360	0.348075	-0.088372	-0.536880	0.340218	-0.103785	-0.617408	0.145295	-0.146329	-0.581229	0.159601	-0.225294	-0.510422	0.066471	-0.128161	-0.483050	0.079475	-0.232557	-0.424180	0.099763	-0.172078	-0.678376	0.110114	-0.211986	-0.710457	0.747929	-0.394050	-0.658956	0.742115	-0.377742	-0.711530	0.701667	-0.392647	-0.666202	0.696702	-0.379923	-0.729477	0.456810	-0.368141	-0.728285	0.439350	-0.259608	-0.866157	0.425669	-0.382171	-0.836596	0.388696	-0.384681	-0.907235	0.393025	-0.379563	-0.879362	0.355744	-0.378364	-1.047563	0.239454	-0.331335	-1.013243	0.214252	-0.253353	-1.062659	0.099068	-0.367023	-1.037609	0.085246	-0.262772	-1.005108	0.057612	-0.319914	-1.091765	0.270017	-0.275213	-0.660943	1.412687	-0.040976	-0.588791	1.429386	-0.344265	
39	0.1900	-0.630105	0.936766	-0.100615	-0.606733	0.933139	-0.329591	-0.789738	0.962683	-0.175747	-0.777966	0.969984	-0.272625	-0.638390	0.756367	-0.049577	-0.591659	0.785420	-0.069782	-0.621355	0.722867	-0.052044	-0.574066	0.753474	-0.066755	-0.483700	0.528376	-0.099735	-0.485540	0.512674	-0.204309	-0.558705	0.388736	-0.085229	-0.503054	0.382883	-0.104764	-0.569140	0.342268	-0.090137	-0.518130	0.335895	-0.105318	-0.593327	0.138518	-0.149487	-0.556867	0.153914	-0.228312	-0.484666	0.062713	-0.131548	-0.456912	0.076058	-0.235907	-0.398601	0.097624	-0.175190	-0.653515	0.102242	-0.215893	-0.689015	0.748373	-0.392791	-0.637740	0.742759	-0.376045	-0.689777	0.702082	-0.391581	-0.644638	0.697307	-0.378409	-0.706291	0.457035	-0.368340	-0.705766	0.439211	-0.259691	-0.843590	0.428246	-0.383016	-0.814682	0.390733	-0.385402	-0.885310	0.396513	-0.380517	-0.858133	0.358666	-0.379114	-1.028521	0.246343	-0.332859	-0.994997	0.220048	-0.254945	-1.048388	0.105303	-0.368492	-1.023861	0.090284	-0.264195	-0.992438	0.059604	-0.321301	-1.071293	0.279314	-0.276775	-0.642944	1.412725	-0.038333	-0.571770	1.429991	-0.341498	
40	0.1950	-0.610745	0.936386	-0.098402	-0.586701	0.933500	-0.327201	-0.770152	0.962161	-0.173975	-0.758101	0.969615	-0.270779	-0.620802	0.754257	-0.048100	-0.573543	0.782652	-0.067743	-0.604276	0.720460	-0.050871	-0.556576	0.750432	-0.064899	-0.469619	0.524896	-0.100066	-0.470616	0.509740	-0.204297	-0.542408	0.383372	-0.086596	-0.486300	0.378940	-0.105998	-0.551637	0.336515	-0.092003	-0.500207	0.331438	-0.106983	-0.570781	0.132291	-0.152692	-0.534085	0.148550	-0.231412	-0.460979	0.059287	-0.134858	-0.432892	0.072601	-0.239175	-0.375103	0.095224	-0.178256	-0.630316	0.095189	-0.219845	-0.667161	0.748580	-0.391468	-0.616110	0.743242	-0.374286	-0.667544	0.702274	-0.390451	-0.622583	0.697751	-0.376841	-0.682224	0.457107	-0.368421	-0.682404	0.438947	-0.259682	-0.820046	0.430527	-0.383788	-0.791768	0.392507	-0.386015	-0.862368	0.399673	-0.381402	-0.835867	0.361303	-0.379791	-1.008368	0.252913	-0.334336	-0.975647	0.225597	-0.256469	-1.032462	0.111527	-0.370097	-1.008492	0.095302	-0.265757	-0.978024	0.061785	-0.322840	-1.049885	0.288005	-0.278279	-0.624687	1.412552	-0.035648	-0.554774	1.430378	-0.338792	
41	0.2000	-0.591207	0.935741	-0.096100	-0.566495	0.933640	-0.324762	-0.750419	0.961385	-0.172159	-0.738090	0.968996	-0.268893	-0.603130	0.751827	-0.046638	-0.555313	0.779509	-0.065698	-0.587149	0.717725	-0.049723	-0.539011	0.747000	-0.063053	-0.455709	0.521008	-0.100533	-0.455972	0.506426	-0.204424	-0.526643	0.378018	-0.088056	-0.470183	0.374787	-0.107351	-0.534840	0.330876	-0.093946	-0.483093	0.326896	-0.108762	-0.549813	0.126639	-0.155911	-0.512927	0.143534	-0.234564	-0.439383	0.056185	-0.138061	-0.411008	0.069108	-0.242335	-0.353691	0.092567	-0.181257	-0.608842	0.088971	-0.223799	-0.644907	0.748564	-0.390075	-0.594073	0.743575	-0.372462	-0.644841	0.702255	-0.389248	-0.600047	0.698044	-0.375214	-0.657308	0.457048	-0.368366	-0.658227	0.438579	-0.259563	-0.795556	0.432516	-0.384472	-0.767879	0.394023	-0.386507	-0.838439	0.402501	-0.382208	-0.812586	0.363652	-0.380387	-0.987112	0.259117	-0.335762	-0.955193	0.230852	-0.257919	-1.014844	0.117669	-0.371833	-0.991469	0.100235	-0.267457	-0.961812	0.064135	-0.324529	-1.027568	0.296025	-0.279719	-0.606176	1.412185	-0.032921	-0.537782	1.430556	-0.336145	
42	0.2050	-0.571492	0.934847	-0.093712	-0.546118	0.933568	-0.322275	-0.730540	0.960377	-0.170298	-0.717934	0.968147	-0.266967	-0.585357	0.749124	-0.045192	-0.536961	0.776046	-0.063657	-0.569954	0.714712	-0.048600	-0.521358	0.743238	-0.061229	-0.441927	0.516784	-0.101123	-0.441574	0.502800	-0.204683	-0.511389	0.372738	-0.089588	-0.454676	0.370477	-0.108804	-0.518738	0.325409	-0.095945	-0.466772	0.322317	-0.110634	-0.530453	0.121577	-0.159110	-0.493418	0.138889	-0.237737	-0.419879	0.053400	-0.141133	-0.391255	0.065584	-0.245365	-0.334350	0.089668	-0.184174	-0.589136	0.083592	-0.227711	-0.622271	0.748339	-0.388606	-0.571648	0.743771	-0.370570	-0.621691	0.702044	-0.387968	-0.577049	0.698203	-0.373526	-0.631586	0.456883	-0.368161	-0.633275	0.438127	-0.259319	-0.770163	0.434222	-0.385056	-0.743051	0.395292	-0.386866	-0.813560	0.404998	-0.382924	-0.788320	0.365718	-0.380894	-0.964768	0.264914	-0.337132	-0.933646	0.235774	-0.259293	-0.995518	0.123662	-0.373693	-0.972776	0.105020	-0.269293	-0.943770	0.066632	-0.326363	-1.004377	0.303319	-0.281090	-0.587418	1.411640	-0.030154	-0.520777	1.430539	-0.333556	
43	0.2100	-0.551608	0.933725	-0.091243	-0.525582	0.933298	-0.319747	-0.710522	0.959164	-0.168391	-0.697644	0.967090	-0.265000	-0.567477	0.746199	-0.043765	-0.518489	0.772325	-0.061633	-0.552679	0.711480	-0.047502	-0.503610	0.739212	-0.059435	-0.428239	0.512303	-0.101819	-0.427395	0.498933	-0.205062	-0.496630	0.367594	-0.091171	-0.439754	0.366066	-0.110336	-0.503321	0.320169	-0.097974	-0.451228	0.317751	-0.112573	-0.512715	0.117114	-0.162255	-0.475569	0.134632	-0.240900	-0.402446	0.050920	-0.144050	-0.373609	0.062043	-0.248243	-0.317048	0.086553	-0.186990	-0.571218	0.079048	-0.231536	-0.599284	0.747929	-0.387059	-0.548863	0.743849	-0.368612	-0.598127	0.701664	-0.386605	-0.553622	0.698251	-0.371776	-0.605114	0.456642	-0.367793	-0.607599	0.437620	-0.258939	-0.743921	0.435662	-0.385529	-0.717332	0.396332	-0.387083	-0.787784	0.407171	-0.383544	-0.763115	0.367507	-0.381309	-0.941368	0.270268	-0.338445	-0.911030	0.240325	-0.260587	-0.974494	0.129444	-0.375667	-0.952426	0.109595	-0.271259	-0.923893	0.069248	-0.328335	-0.980357	0.309844	-0.282387	-0.568431	1.410941	-0.027351	-0.503752	1.430344	-0.331022	
44	0.2150	-0.531572	0.932400	-0.088699	-0.504907	0.932845	-0.317186	-0.690382	0.957780	-0.166438	-0.677238	0.965856	-0.262994	-0.549494	0.743108	-0.042358	-0.499908	0.768408	-0.059635	-0.535323	0.708089	-0.046430	-0.485775	0.734988	-0.057683	-0.414627	0.507641	-0.102603	-0.413420	0.494896	-0.205546	-0.482356	0.362643	-0.092783	-0.425398	0.361609	-0.111923	-0.488584	0.315207	-0.100006	-0.436446	0.313245	-0.114552	-0.496596	0.113254	-0.165314	-0.459374	0.130780	-0.244020	-0.387041	0.048733	-0.146793	-0.358024	0.058504	-0.250951	-0.301736	0.083254	-0.189687	-0.555089	0.075325	-0.235235	-0.575991	0.747358	-0.385433	-0.525761	0.743831	-0.366590	-0.574197	0.701143	-0.385157	-0.529811	0.698212	-0.369967	-0.577962	0.456358	-0.367253	-0.581261	0.437086	-0.258411	-0.716900	0.436853	-0.385883	-0.690785	0.397162	-0.387154	-0.761179	0.409032	-0.384061	-0.737031	0.369033	-0.381626	-0.916958	0.275147	-0.339696	-0.887386	0.244474	-0.261800	-0.951808	0.134954	-0.377744	-0.930454	0.113904	-0.273346	-0.902206	0.071949	-0.330435	-0.955561	0.315569	-0.283609	-0.549241	1.410112	-0.024515	-0.486706	1.429992	-0.328541	
45	0.2200	-0.511409	0.930903	-0.086092	-0.484125	0.932233	-0.314600	-0.670145	0.956261	-0.164439	-0.656747	0.964476	-0.260949	-0.531423	0.739907	-0.040973	-0.481241	0.764360	-0.057674	-0.517894	0.704599	-0.045381	-0.467868	0.730636	-0.055982	-0.401082	0.502875	-0.103453	-0.399642	0.490759	-0.206117	-0.468562	0.357939	-0.094398	-0.411594	0.357163	-0.113540	-0.474521	0.310567	-0.102013	-0.422412	0.308848	-0.116545	-0.482075	0.109992	-0.168255	-0.444810	0.127344	-0.247066	-0.373601	0.046826	-0.149345	-0.344432	0.054992	-0.253474	-0.288346	0.079810	-0.192250	-0.540725	0.072400	-0.238769	-0.552447	0.746656	-0.383729	-0.502394	0.743745	-0.364510	-0.549958	0.700510	-0.383626	-0.505673	0.698115	-0.368101	-0.550213	0.456065	-0.366536	-0.554340	0.436557	-0.257730	-0.689184	0.437818	-0.386112	-0.663490	0.397808	-0.387073	-0.733826	0.410598	-0.384473	-0.710143	0.370314	-0.381844	-0.891602	0.279530	-0.340885	-0.862773	0.248196	-0.262932	-0.927525	0.140140	-0.379908	-0.906924	0.117896	-0.275543	-0.878766	0.074703	-0.332647	-0.930058	0.320476	-0.284751	-0.529881	1.409180	-0.021654	-0.469646	1.429505	-0.326112	
46	0.2250	-0.491157	0.929267	-0.083433	-0.463278	0.931484	-0.312001	-0.649848	0.954646	-0.162395	-0.636208	0.962985	-0.258867	-0.513289	0.736654	-0.039610	-0.462519	0.760247	-0.055763	-0.500415	0.701073	-0.044354	-0.449916	0.726225	-0.054340	-0.387610	0.498079	-0.104345	-0.386065	0.486588	-0.206755	-0.455247	0.353528	-0.095992	-0.398332	0.352781	-0.115159	-0.461128	0.306288	-0.103969	-0.409114	0.304603	-0.118522	-0.469118	0.107315	-0.171050	-0.431837	0.124331	-0.250005	-0.362044	0.045185	-0.151693	-0.332748	0.051535	-0.255801	-0.276795	0.076268	-0.194667	-0.528084	0.070240	-0.242103	-0.528720	0.745854	-0.381951	-0.478830	0.743615	-0.362379	-0.525484	0.699797	-0.382012	-0.481282	0.697988	-0.366185	-0.521968	0.455799	-0.365640	-0.526925	0.436063	-0.256894	-0.660874	0.438585	-0.386213	-0.635541	0.398295	-0.386842	-0.705824	0.411888	-0.384777	-0.682545	0.371368	-0.381962	-0.865382	0.283400	-0.342008	-0.837266	0.251471	-0.263982	-0.901740	0.144955	-0.382144	-0.881929	0.121526	-0.277833	-0.853660	0.077471	-0.334954	-0.903927	0.324559	-0.285815	-0.510395	1.408172	-0.018775	-0.452590	1.428907	-0.323735	
47	0.2300	-0.470863	0.927527	-0.080736	-0.442420	0.930626	-0.309400	-0.629535	0.952974	-0.160309	-0.615671	0.961420	-0.256751	-0.495130	0.733405	-0.038272	-0.443789	0.756131	-0.053909	-0.482919	0.697570	-0.043349	-0.431959	0.721820	-0.052766	-0.374230	0.493322	-0.105255	-0.372703	0.482445	-0.207439	-0.442416	0.349449	-0.097538	-0.385608	0.348513	-0.116753	-0.448402	0.302400	-0.105846	-0.396541	0.300550	-0.120455	-0.457672	0.105206	-0.173671	-0.420401	0.121743	-0.252808	-0.352269	0.043794	-0.153830	-0.322869	0.048163	-0.257923	-0.266986	0.072676	-0.196926	-0.517102	0.068808	-0.245208	-0.504891	0.744984	-0.380105	-0.455147	0.743472	-0.360208	-0.500860	0.699038	-0.380323	-0.456720	0.697862	-0.364229	-0.493339	0.455592	-0.364567	-0.499123	0.435634	-0.255903	-0.632083	0.439180	-0.386184	-0.607051	0.398652	-0.386461	-0.677287	0.412925	-0.384975	-0.654346	0.372219	-0.381980	-0.838399	0.286749	-0.343065	-0.810964	0.254290	-0.264950	-0.874577	0.149364	-0.384432	-0.855589	0.124759	-0.280199	-0.827011	0.080219	-0.337337	-0.877262	0.327825	-0.286799	-0.490838	1.407118	-0.015887	-0.435566	1.428222	-0.321411	
48	0.2350	-0.450584	0.925721	-0.078020	-0.421614	0.929686	-0.306812	-0.609264	0.951286	-0.158186	-0.595196	0.959815	-0.254606	-0.476994	0.730213	-0.036958	-0.425105	0.752072	-0.052124	-0.465450	0.694145	-0.042362	-0.414047	0.717484	-0.051265	-0.360971	0.488669	-0.106159	-0.359577	0.478389	-0.208147	-0.430079	0.345733	-0.099013	-0.373423	0.344404	-0.118298	-0.436341	0.298925	-0.107621	-0.384682	0.296725	-0.122317	-0.447671	0.103637	-0.176096	-0.410432	0.119578	-0.255449	-0.344163	0.042635	-0.155750	-0.314679	0.044906	-0.259836	-0.258807	0.069084	-0.199017	-0.507697	0.068055	-0.248057	-0.481053	0.744081	-0.378198	-0.431438	0.743341	-0.358008	-0.476183	0.698265	-0.378564	-0.432086	0.697766	-0.362241	-0.464456	0.455477	-0.363323	-0.471054	0.435300	-0.254761	-0.602945	0.439631	-0.386028	-0.578148	0.398908	-0.385936	-0.648347	0.413736	-0.385069	-0.625673	0.372891	-0.381900	-0.810775	0.289577	-0.344053	-0.783984	0.256647	-0.265837	-0.846192	0.153336	-0.386752	-0.828056	0.127567	-0.282622	-0.798972	0.082908	-0.339774	-0.850174	0.330293	-0.287704	-0.471273	1.406045	-0.013002	-0.418611	1.427477	-0.319140	
49	0.2400	-0.430389	0.923886	-0.075300	-0.400936	0.928693	-0.304251	-0.589101	0.949620	-0.156030	-0.574853	0.958208	-0.252437	-0.458943	0.727129	-0.035670	-0.406532	0.748125	-0.050414	-0.448064	0.690851	-0.041393	-0.396241	0.713275	-0.049842	-0.347872	0.484176	-0.107033	-0.346719	0.474470	-0.208857	-0.418248	0.342402	-0.100394	-0.361780	0.340494	-0.119768	-0.424945	0.295877	-0.109270	-0.373527	0.293158	-0.124083	-0.439037	0.102579	-0.178306	-0.401848	0.117827	-0.257903	-0.337595	0.041691	-0.157451	-0.308048	0.041796	-0.261538	-0.252137	0.065542	-0.200933	-0.499772	0.067929	-0.250631	-0.457309	0.743175	-0.376242	-0.407804	0.743248	-0.355792	-0.451562	0.697510	-0.376746	-0.407490	0.697726	-0.360235	-0.435460	0.455480	-0.361917	-0.442851	0.435084	-0.253477	-0.573604	0.439967	-0.385749	-0.548978	0.399092	-0.385275	-0.619148	0.414347	-0.385062	-0.596672	0.373409	-0.381727	-0.782652	0.291891	-0.344971	-0.756464	0.258547	-0.266645	-0.816770	0.156854	-0.389084	-0.799508	0.129935	-0.285080	-0.769732	0.085506	-0.342241	-0.822788	0.331994	-0.288530	-0.451773	1.404980	-0.010131	-0.401773	1.426696	-0.316926	
50	0.2450	-0.410356	0.922057	-0.072596	-0.380469	0.927676	-0.301731	-0.569122	0.948013	-0.153851	-0.554722	0.956631	-0.250253	-0.441047	0.724195	-0.034410	-0.388146	0.744340	-0.048786	-0.430829	0.687732	-0.040440	-0.378612	0.709245	-0.048502	-0.334984	0.479894	-0.107858	-0.334166	0.470732	-0.209547	-0.406938	0.339470	-0.101661	-0.350688	0.336819	-0.121140	-0.414213	0.293260	-0.110775	-0.363067	0.289872	-0.125729	-0.431679	0.101994	-0.180286	-0.394556	0.116477	-0.260150	-0.332429	0.040943	-0.158937	-0.302835	0.038861	-0.263030	-0.246845	0.062100	-0.202670	-0.493217	0.068371	-0.252915	-0.433772	0.742297	-0.374249	-0.384358	0.743218	-0.353576	-0.427119	0.696801	-0.374880	-0.383052	0.697767	-0.358223	-0.406506	0.455625	-0.360364	-0.414663	0.435008	-0.252061	-0.544220	0.440216	-0.385352	-0.519701	0.399231	-0.384486	-0.589854	0.414784	-0.384962	-0.567501	0.373799	-0.381464	-0.754189	0.293706	-0.345819	-0.728561	0.260000	-0.267374	-0.786519	0.159906	-0.391406	-0.770146	0.131853	-0.287549	-0.739506	0.087980	-0.344714	-0.795245	0.332969	-0.289280	-0.432421	1.403949	-0.007290	-0.385111	1.425903	-0.314772	
51	0.2500	-0.390574	0.920271	-0.069928	-0.360305	0.926662	-0.299269	-0.549413	0.946496	-0.151657	-0.534888	0.955117	-0.248063	-0.423386	0.721451	-0.033179	-0.370030	0.740760	-0.047245	-0.413821	0.684827	-0.039502	-0.361239	0.705436	-0.047246	-0.322363	0.475863	-0.108612	-0.321963	0.467210	-0.210199	-0.396167	0.336940	-0.102797	-0.340156	0.333405	-0.122397	-0.404142	0.291071	-0.112119	-0.353293	0.286886	-0.127236	-0.425499	0.101840	-0.182027	-0.388453	0.115509	-0.262174	-0.328518	0.040371	-0.160212	-0.298895	0.036127	-0.264318	-0.242795	0.058803	-0.204227	-0.487909	0.069319	-0.254901	-0.410562	0.741474	-0.372231	-0.361221	0.743268	-0.351376	-0.402979	0.696164	-0.372980	-0.358900	0.697908	-0.356220	-0.377759	0.455929	-0.358678	-0.386647	0.435086	-0.250527	-0.514964	0.440403	-0.384846	-0.490488	0.399348	-0.383582	-0.560635	0.415076	-0.384774	-0.538337	0.374085	-0.381117	-0.725564	0.295042	-0.346595	-0.700450	0.261025	-0.268026	-0.755675	0.162494	-0.393695	-0.740199	0.133325	-0.290005	-0.708536	0.090303	-0.347167	-0.767699	0.333268	-0.289954	-0.413307	1.402974	-0.004491	-0.368689	1.425120	-0.312682	
52	0.2550	-0.371136	0.918557	-0.067315	-0.340543	0.925676	-0.296878	-0.530065	0.945099	-0.149460	-0.515447	0.953691	-0.245876	-0.406047	0.718927	-0.031979	-0.352274	0.737419	-0.045796	-0.397124	0.682166	-0.038579	-0.344207	0.701887	-0.046075	-0.310070	0.472116	-0.109279	-0.310155	0.463935	-0.210794	-0.385952	0.334810	-0.103788	-0.330194	0.330274	-0.123522	-0.394731	0.289298	-0.113292	-0.344195	0.284211	-0.128588	-0.420390	0.102072	-0.183522	-0.383430	0.114900	-0.263964	-0.325715	0.039956	-0.161285	-0.296077	0.033616	-0.265409	-0.239846	0.055689	-0.205604	-0.483722	0.070707	-0.256586	-0.387807	0.740729	-0.370206	-0.338517	0.743415	-0.349207	-0.379277	0.695621	-0.371060	-0.335170	0.698164	-0.354240	-0.349393	0.456402	-0.356881	-0.358971	0.435330	-0.248893	-0.486018	0.440552	-0.384242	-0.461525	0.399467	-0.382578	-0.531677	0.415249	-0.384507	-0.509364	0.374292	-0.380694	-0.696968	0.295930	-0.347300	-0.672322	0.261646	-0.268602	-0.724491	0.164626	-0.395929	-0.709911	0.134364	-0.292426	-0.677090	0.092452	-0.349576	-0.740316	0.332952	-0.290557	-0.394526	1.402076	-0.001750	-0.352582	1.424368	-0.310663	
53	0.2600	-0.352144	0.916944	-0.064776	-0.321285	0.924741	-0.294573	-0.511177	0.943842	-0.147272	-0.496496	0.952378	-0.243705	-0.389121	0.716645	-0.030813	-0.334971	0.734345	-0.044441	-0.380826	0.679772	-0.037670	-0.327607	0.698623	-0.044990	-0.298171	0.468677	-0.109848	-0.298794	0.460925	-0.211319	-0.376312	0.333067	-0.104625	-0.320816	0.327440	-0.124505	-0.385976	0.287923	-0.114286	-0.335762	0.281850	-0.129775	-0.416244	0.102640	-0.184773	-0.379376	0.114622	-0.265515	-0.323869	0.039678	-0.162168	-0.294232	0.031344	-0.266313	-0.237858	0.052794	-0.206805	-0.480523	0.072467	-0.257975	-0.365634	0.740081	-0.368188	-0.316378	0.743670	-0.347085	-0.356151	0.695187	-0.369137	-0.312000	0.698545	-0.352299	-0.321584	0.457048	-0.354994	-0.331806	0.435744	-0.247179	-0.457567	0.440683	-0.383551	-0.433001	0.399605	-0.381488	-0.503170	0.415329	-0.384172	-0.480777	0.374439	-0.380203	-0.668603	0.296404	-0.347932	-0.644378	0.261893	-0.269107	-0.693237	0.166319	-0.398090	-0.679543	0.134991	-0.294786	-0.645448	0.094408	-0.351917	-0.713271	0.332087	-0.291090	-0.376180	1.401269	0.000916	-0.336867	1.423663	-0.308718	
54	0.2650	-0.333701	0.915455	-0.062330	-0.302635	0.923876	-0.292369	-0.492849	0.942744	-0.145108	-0.478137	0.951196	-0.241564	-0.372705	0.714623	-0.029683	-0.318216	0.731557	-0.043182	-0.365019	0.677659	-0.036778	-0.311530	0.695665	-0.043988	-0.286729	0.465562	-0.110309	-0.287928	0.458196	-0.211762	-0.367263	0.331693	-0.105305	-0.312032	0.324911	-0.125337	-0.377872	0.286919	-0.115099	-0.327983	0.279803	-0.130790	-0.412949	0.103495	-0.185784	-0.376177	0.114642	-0.266824	-0.322832	0.039518	-0.162874	-0.293212	0.029322	-0.267044	-0.236691	0.050143	-0.207836	-0.478179	0.074531	-0.259078	-0.344173	0.739545	-0.366194	-0.294932	0.744037	-0.345028	-0.333737	0.694875	-0.367228	-0.289530	0.699054	-0.350411	-0.294511	0.457866	-0.353041	-0.305328	0.436324	-0.245405	-0.429802	0.440813	-0.382787	-0.405112	0.399777	-0.380331	-0.475306	0.415337	-0.383777	-0.452775	0.374547	-0.379653	-0.640680	0.296502	-0.348493	-0.616828	0.261804	-0.269541	-0.662190	0.167598	-0.400157	-0.649363	0.135235	-0.297064	-0.613904	0.096160	-0.354167	-0.686748	0.330745	-0.291556	-0.358370	1.400567	0.003493	-0.321626	1.423019	-0.306856	
55	0.2700	-0.315911	0.914107	-0.059994	-0.284698	0.923096	-0.290276	-0.475183	0.941814	-0.142983	-0.460469	0.950157	-0.239466	-0.356893	0.712867	-0.028592	-0.302106	0.729066	-0.042017	-0.349796	0.675833	-0.035904	-0.296068	0.693023	-0.043067	-0.275809	0.462779	-0.110658	-0.277606	0.455753	-0.212117	-0.358820	0.330662	-0.105826	-0.303851	0.322686	-0.126016	-0.370411	0.286257	-0.115733	-0.320845	0.278062	-0.131630	-0.410394	0.104584	-0.186565	-0.373719	0.114926	-0.267898	-0.322463	0.039457	-0.163418	-0.292872	0.027557	-0.267615	-0.236209	0.047755	-0.208705	-0.476560	0.076829	-0.259909	-0.323550	0.739129	-0.364242	-0.274307	0.744517	-0.343049	-0.312171	0.694691	-0.365350	-0.267897	0.699691	-0.348591	-0.268352	0.458845	-0.351049	-0.279711	0.437063	-0.243594	-0.402909	0.440955	-0.381965	-0.378050	0.399992	-0.379124	-0.448279	0.415295	-0.383333	-0.425557	0.374632	-0.379055	-0.613410	0.296269	-0.348983	-0.589885	0.261417	-0.269908	-0.631631	0.168495	-0.402113	-0.619643	0.135133	-0.299240	-0.582757	0.097700	-0.356306	-0.660928	0.329002	-0.291960	-0.341200	1.399977	0.005965	-0.306942	1.422447	-0.305081	
56	0.2750	-0.298876	0.912913	-0.057783	-0.267572	0.922414	-0.288306	-0.458277	0.941059	-0.140911	-0.443591	0.949270	-0.237426	-0.341777	0.711377	-0.027546	-0.286730	0.726876	-0.040948	-0.335245	0.674292	-0.035051	-0.281311	0.690700	-0.042225	-0.265470	0.460326	-0.110893	-0.267873	0.453596	-0.212379	-0.350993	0.329944	-0.106194	-0.296282	0.320760	-0.126544	-0.363584	0.285899	-0.116195	-0.314333	0.276613	-0.132298	-0.408472	0.105857	-0.187131	-0.371893	0.115436	-0.268744	-0.322628	0.039477	-0.163818	-0.293079	0.026046	-0.268042	-0.236283	0.045641	-0.209423	-0.475541	0.079295	-0.260489	-0.303882	0.738839	-0.362348	-0.254623	0.745106	-0.341163	-0.291580	0.694635	-0.363519	-0.247229	0.700447	-0.346851	-0.243275	0.459970	-0.349043	-0.255122	0.437947	-0.241771	-0.377070	0.441119	-0.381100	-0.352005	0.400256	-0.377885	-0.422275	0.415221	-0.382852	-0.399317	0.374707	-0.378419	-0.587003	0.295751	-0.349406	-0.563760	0.260777	-0.270213	-0.601837	0.169046	-0.403945	-0.590654	0.134726	-0.301295	-0.552302	0.099028	-0.358317	-0.635995	0.326936	-0.292305	-0.324770	1.399503	0.008318	-0.292898	1.421956	-0.303401	
57	0.2800	-0.282693	0.911882	-0.055710	-0.251351	0.921835	-0.286468	-0.442226	0.940476	-0.138909	-0.427593	0.948536	-0.235458	-0.327445	0.710148	-0.026546	-0.272174	0.724982	-0.039971	-0.321450	0.673028	-0.034224	-0.267340	0.688692	-0.041459	-0.255765	0.458196	-0.111019	-0.258769	0.451718	-0.212548	-0.343790	0.329506	-0.106416	-0.289326	0.319122	-0.126926	-0.357377	0.285807	-0.116495	-0.308430	0.275438	-0.132801	-0.407081	0.107262	-0.187498	-0.370595	0.116132	-0.269378	-0.323202	0.039560	-0.164091	-0.293706	0.024783	-0.268342	-0.236793	0.043806	-0.210002	-0.475005	0.081865	-0.260841	-0.285281	0.738672	-0.360528	-0.235991	0.745793	-0.339383	-0.272082	0.694704	-0.361752	-0.227649	0.701309	-0.345203	-0.219438	0.461220	-0.347051	-0.231720	0.438958	-0.239958	-0.352455	0.441311	-0.380208	-0.327153	0.400572	-0.376635	-0.397470	0.415131	-0.382344	-0.374239	0.374783	-0.377757	-0.561659	0.294997	-0.349763	-0.538655	0.259929	-0.270458	-0.573076	0.169292	-0.405640	-0.562653	0.134061	-0.303214	-0.522825	0.100147	-0.360184	-0.612122	0.324624	-0.292594	-0.309172	1.399144	0.010538	-0.279570	1.421548	-0.301821	
58	0.2850	-0.267451	0.911013	-0.053787	-0.236120	0.921364	-0.284769	-0.427116	0.940058	-0.136992	-0.412558	0.947954	-0.233577	-0.313974	0.709166	-0.025598	-0.258514	0.723375	-0.039084	-0.308488	0.672025	-0.033425	-0.254229	0.686986	-0.040764	-0.246738	0.456377	-0.111042	-0.250327	0.450108	-0.212629	-0.337213	0.329310	-0.106504	-0.282984	0.317757	-0.127173	-0.351774	0.285940	-0.116648	-0.303117	0.274516	-0.133150	-0.406124	0.108754	-0.187689	-0.369727	0.116975	-0.269815	-0.324071	0.039691	-0.164254	-0.294638	0.023757	-0.268533	-0.237627	0.042244	-0.210454	-0.474843	0.084477	-0.260992	-0.267843	0.738624	-0.358796	-0.218511	0.746566	-0.337718	-0.253783	0.694888	-0.360064	-0.209263	0.702263	-0.343659	-0.196985	0.462570	-0.345097	-0.209648	0.440072	-0.238180	-0.329221	0.441534	-0.379305	-0.303658	0.400936	-0.375391	-0.374026	0.415036	-0.381820	-0.350494	0.374867	-0.377080	-0.537568	0.294057	-0.350059	-0.514761	0.258917	-0.270650	-0.545596	0.169278	-0.407190	-0.535884	0.133187	-0.304984	-0.494593	0.101066	-0.361897	-0.589473	0.322145	-0.292833	-0.294492	1.398898	0.012615	-0.267031	1.421224	-0.300346	
59	0.2900	-0.253228	0.910305	-0.052020	-0.221949	0.920998	-0.283213	-0.413022	0.939795	-0.135175	-0.398558	0.947517	-0.231796	-0.301434	0.708413	-0.024705	-0.245815	0.722039	-0.038284	-0.296424	0.671263	-0.032660	-0.242041	0.685566	-0.040137	-0.238426	0.454850	-0.110972	-0.242571	0.448751	-0.212627	-0.331259	0.329317	-0.106474	-0.277251	0.316643	-0.127296	-0.346758	0.286257	-0.116670	-0.298371	0.273822	-0.133360	-0.405515	0.110285	-0.187727	-0.369201	0.117924	-0.270079	-0.325137	0.039856	-0.164326	-0.295774	0.022952	-0.268631	-0.238685	0.040947	-0.210795	-0.474959	0.087076	-0.260971	-0.251649	0.738684	-0.357166	-0.202267	0.747406	-0.336178	-0.236772	0.695175	-0.358469	-0.192163	0.703286	-0.342225	-0.176038	0.463991	-0.343207	-0.189031	0.441263	-0.236457	-0.307501	0.441787	-0.378406	-0.281664	0.401345	-0.374172	-0.352085	0.414947	-0.381292	-0.328232	0.374965	-0.376399	-0.514896	0.292977	-0.350297	-0.492250	0.257789	-0.270793	-0.519622	0.169047	-0.408589	-0.510567	0.132152	-0.306598	-0.467850	0.101798	-0.363449	-0.568193	0.319570	-0.293026	-0.280803	1.398756	0.014539	-0.255341	1.420982	-0.298981	
60	0.2950	-0.240087	0.909749	-0.050415	-0.208896	0.920733	-0.281804	-0.400006	0.939671	-0.133470	-0.385651	0.947213	-0.230127	-0.289877	0.707868	-0.023871	-0.234129	0.720953	-0.037568	-0.285311	0.670717	-0.031934	-0.230827	0.684411	-0.039574	-0.230851	0.453592	-0.110821	-0.235517	0.447626	-0.212552	-0.325919	0.329491	-0.106343	-0.272115	0.315759	-0.127311	-0.342303	0.286716	-0.116582	-0.294167	0.273329	-0.133446	-0.405174	0.111817	-0.187636	-0.368937	0.118942	-0.270190	-0.326313	0.040041	-0.164324	-0.297027	0.022346	-0.268653	-0.239882	0.039896	-0.211039	-0.475269	0.089611	-0.260808	-0.236762	0.738840	-0.355648	-0.187322	0.748295	-0.334768	-0.221118	0.695549	-0.356979	-0.176419	0.704356	-0.340910	-0.156697	0.465453	-0.341403	-0.169972	0.442504	-0.234811	-0.287408	0.442066	-0.377526	-0.261289	0.401789	-0.372994	-0.331763	0.414870	-0.380768	-0.307580	0.375077	-0.375727	-0.493789	0.291806	-0.350482	-0.471269	0.256587	-0.270892	-0.495349	0.168645	-0.409836	-0.486893	0.131006	-0.308050	-0.442809	0.102359	-0.364835	-0.548408	0.316970	-0.293177	-0.268168	1.398708	0.016303	-0.244552	1.420818	-0.297729	
61	0.3000	-0.228077	0.909334	-0.048974	-0.197001	0.920561	-0.280540	-0.388114	0.939668	-0.131888	-0.373879	0.947029	-0.228580	-0.279343	0.707504	-0.023100	-0.223491	0.720094	-0.036931	-0.275184	0.670361	-0.031251	-0.220620	0.683494	-0.039072	-0.224027	0.452577	-0.110605	-0.229171	0.446713	-0.212415	-0.321178	0.329792	-0.106130	-0.267561	0.315079	-0.127236	-0.338386	0.287278	-0.116403	-0.290479	0.273008	-0.133427	-0.405033	0.113312	-0.187443	-0.368866	0.119993	-0.270175	-0.327527	0.040237	-0.164266	-0.298321	0.021918	-0.268616	-0.241141	0.039072	-0.211201	-0.475700	0.092039	-0.260535	-0.223225	0.739076	-0.354252	-0.173724	0.749210	-0.333493	-0.206869	0.695991	-0.355604	-0.162083	0.705449	-0.339716	-0.139036	0.466924	-0.339704	-0.152546	0.443765	-0.233260	-0.269026	0.442367	-0.376678	-0.242625	0.402258	-0.371873	-0.313152	0.414809	-0.380259	-0.288636	0.375205	-0.375073	-0.474362	0.290588	-0.350620	-0.451939	0.255353	-0.270953	-0.472937	0.168116	-0.410931	-0.465017	0.129796	-0.309338	-0.419644	0.102768	-0.366056	-0.530218	0.314407	-0.293293	-0.256629	1.398743	0.017902	-0.234701	1.420723	-0.296593	
62	0.3050	-0.217227	0.909044	-0.047697	-0.186288	0.920471	-0.279422	-0.377375	0.939764	-0.130438	-0.363264	0.946948	-0.227165	-0.269854	0.707294	-0.022394	-0.213921	0.719435	-0.036369	-0.266067	0.670164	-0.030617	-0.211439	0.682788	-0.038626	-0.217953	0.451779	-0.110337	-0.223529	0.445987	-0.212228	-0.317015	0.330184	-0.105853	-0.263567	0.314575	-0.127087	-0.334977	0.287906	-0.116155	-0.287276	0.272830	-0.133323	-0.405034	0.114740	-0.187171	-0.368928	0.121044	-0.270059	-0.328721	0.040433	-0.164165	-0.299598	0.021641	-0.268535	-0.242401	0.038450	-0.211294	-0.476194	0.094323	-0.260180	-0.211059	0.739375	-0.352983	-0.161494	0.750131	-0.332353	-0.194052	0.696482	-0.354351	-0.149182	0.706540	-0.338645	-0.123100	0.468373	-0.338128	-0.136804	0.445017	-0.231819	-0.252410	0.442681	-0.375874	-0.225733	0.402742	-0.370822	-0.296310	0.414767	-0.379772	-0.271468	0.375347	-0.374449	-0.456701	0.289362	-0.350716	-0.434347	0.254124	-0.270982	-0.452503	0.167500	-0.411878	-0.445059	0.128565	-0.310465	-0.398489	0.103046	-0.367115	-0.513693	0.311935	-0.293377	-0.246213	1.398845	0.019335	-0.225812	1.420690	-0.295572	
63	0.3100	-0.207548	0.908864	-0.046579	-0.176759	0.920452	-0.278443	-0.367798	0.939938	-0.129127	-0.353814	0.946952	-0.225885	-0.261416	0.707212	-0.021755	-0.205419	0.718949	-0.035878	-0.257962	0.670097	-0.030034	-0.203287	0.682264	-0.038233	-0.212618	0.451168	-0.110035	-0.218576	0.445426	-0.212004	-0.313403	0.330636	-0.105534	-0.260106	0.314222	-0.126884	-0.332042	0.288566	-0.115858	-0.284525	0.272768	-0.133154	-0.405129	0.116076	-0.186847	-0.369076	0.122066	-0.269865	-0.329850	0.040623	-0.164036	-0.300810	0.021492	-0.268423	-0.243613	0.038004	-0.211334	-0.476704	0.096433	-0.259771	-0.200264	0.739719	-0.351845	-0.150635	0.751037	-0.331348	-0.182669	0.697002	-0.353224	-0.137719	0.707605	-0.337699	-0.108903	0.469771	-0.336688	-0.122764	0.446233	-0.230500	-0.237583	0.443002	-0.375125	-0.210643	0.403228	-0.369851	-0.281267	0.414743	-0.379314	-0.256111	0.375498	-0.373861	-0.440855	0.288164	-0.350777	-0.418548	0.252932	-0.270986	-0.434126	0.166836	-0.412685	-0.427096	0.127351	-0.311435	-0.379432	0.103213	-0.368019	-0.498877	0.309602	-0.293434	-0.236931	1.398999	0.020601	-0.217891	1.420707	-0.294667	
64	0.3150	-0.199032	0.908775	-0.045616	-0.168400	0.920489	-0.277600	-0.359374	0.940169	-0.127958	-0.345514	0.947023	-0.224745	-0.254015	0.707229	-0.021185	-0.197971	0.718607	-0.035454	-0.250858	0.670132	-0.029507	-0.196147	0.681893	-0.037891	-0.207997	0.450716	-0.109714	-0.214287	0.445003	-0.211758	-0.310312	0.331116	-0.105189	-0.257146	0.313992	-0.126644	-0.329548	0.289228	-0.115532	-0.282191	0.272794	-0.132940	-0.405277	0.117301	-0.186491	-0.369271	0.123035	-0.269619	-0.330884	0.040800	-0.163892	-0.301924	0.021443	-0.268294	-0.244742	0.037704	-0.211333	-0.477196	0.098348	-0.259335	-0.190816	0.740089	-0.350840	-0.141125	0.751906	-0.330474	-0.172697	0.697532	-0.352225	-0.127675	0.708623	-0.336873	-0.096432	0.471093	-0.335391	-0.110416	0.447390	-0.229312	-0.224536	0.443321	-0.374439	-0.197349	0.403704	-0.368969	-0.268016	0.414737	-0.378892	-0.242567	0.375655	-0.373319	-0.426838	0.287024	-0.350810	-0.404561	0.251806	-0.270969	-0.417837	0.166157	-0.413359	-0.411162	0.126188	-0.312256	-0.362517	0.103291	-0.368777	-0.485777	0.307444	-0.293469	-0.228770	1.399192	0.021706	-0.210929	1.420764	-0.293874	
65	0.3200	-0.191652	0.908758	-0.044797	-0.161176	0.920569	-0.276883	-0.352074	0.940436	-0.126932	-0.338333	0.947143	-0.223745	-0.247621	0.707319	-0.020684	-0.191543	0.718384	-0.035090	-0.244724	0.670240	-0.029036	-0.189988	0.681647	-0.037595	-0.204057	0.450396	-0.109388	-0.210629	0.444697	-0.211502	-0.307703	0.331600	-0.104837	-0.254650	0.313860	-0.126384	-0.327458	0.289869	-0.115195	-0.280239	0.272884	-0.132698	-0.405449	0.118400	-0.186125	-0.369482	0.123932	-0.269342	-0.331800	0.040962	-0.163742	-0.302917	0.021470	-0.268156	-0.245760	0.037525	-0.211302	-0.477645	0.100054	-0.258894	-0.182670	0.740468	-0.349966	-0.132920	0.752723	-0.329726	-0.164093	0.698053	-0.351355	-0.119005	0.709574	-0.336164	-0.085640	0.472317	-0.334245	-0.099720	0.448466	-0.228259	-0.213229	0.443629	-0.373821	-0.185817	0.404160	-0.368182	-0.256523	0.414746	-0.378510	-0.230803	0.375814	-0.372826	-0.414631	0.285966	-0.350819	-0.392368	0.250767	-0.270938	-0.403625	0.165492	-0.413914	-0.397248	0.125104	-0.312939	-0.347740	0.103301	-0.369401	-0.474371	0.305490	-0.293488	-0.221704	1.399407	0.022655	-0.204902	1.420850	-0.293190	
66	0.3250	-0.185360	0.908795	-0.044115	-0.155034	0.920679	-0.276283	-0.345852	0.940719	-0.126047	-0.332222	0.947295	-0.222882	-0.242189	0.707457	-0.020250	-0.186087	0.718253	-0.034784	-0.239516	0.670397	-0.028623	-0.184762	0.681499	-0.037342	-0.200753	0.450181	-0.109070	-0.207560	0.444484	-0.211246	-0.305537	0.332067	-0.104493	-0.252581	0.313803	-0.126118	-0.325733	0.290469	-0.114862	-0.278630	0.273015	-0.132445	-0.405624	0.119366	-0.185766	-0.369689	0.124742	-0.269053	-0.332590	0.041104	-0.163594	-0.303777	0.021552	-0.268018	-0.246653	0.037439	-0.211252	-0.478037	0.101543	-0.258466	-0.175762	0.740841	-0.349218	-0.125958	0.753472	-0.329097	-0.156790	0.698549	-0.350608	-0.111644	0.710442	-0.335565	-0.076457	0.473425	-0.333248	-0.090609	0.449445	-0.227343	-0.203593	0.443920	-0.373275	-0.175980	0.404584	-0.367492	-0.246718	0.414767	-0.378170	-0.220756	0.375968	-0.372388	-0.404178	0.285009	-0.350811	-0.381918	0.249830	-0.270897	-0.391437	0.164864	-0.414360	-0.385307	0.124118	-0.313497	-0.335050	0.103262	-0.369905	-0.464605	0.303759	-0.293493	-0.215684	1.399632	0.023457	-0.199770	1.420955	-0.292609	
67	0.3300	-0.180093	0.908869	-0.043555	-0.149907	0.920805	-0.275792	-0.340645	0.941002	-0.125297	-0.327115	0.947463	-0.222151	-0.237659	0.707624	-0.019880	-0.181540	0.718192	-0.034528	-0.235174	0.670580	-0.028268	-0.180409	0.681424	-0.037129	-0.198033	0.450048	-0.108770	-0.205032	0.444345	-0.211002	-0.303769	0.332500	-0.104168	-0.250894	0.313800	-0.125861	-0.324333	0.291011	-0.114548	-0.277327	0.273169	-0.132196	-0.405786	0.120197	-0.185427	-0.369876	0.125455	-0.268769	-0.333250	0.041227	-0.163456	-0.304502	0.021667	-0.267888	-0.247414	0.037422	-0.211192	-0.478365	0.102817	-0.258067	-0.170009	0.741194	-0.348590	-0.120157	0.754143	-0.328576	-0.150705	0.699008	-0.349980	-0.105508	0.711217	-0.335068	-0.068785	0.474405	-0.332400	-0.082989	0.450314	-0.226562	-0.195531	0.444187	-0.372803	-0.167741	0.404969	-0.366899	-0.238508	0.414796	-0.377874	-0.212333	0.376114	-0.372005	-0.395392	0.284164	-0.350792	-0.373128	0.249008	-0.270851	-0.381180	0.164290	-0.414710	-0.375249	0.123246	-0.313942	-0.324359	0.103190	-0.370301	-0.456397	0.302257	-0.293489	-0.210650	1.399854	0.024121	-0.195480	1.421069	-0.292125	
68	0.3350	-0.175774	0.908964	-0.043106	-0.145713	0.920937	-0.275396	-0.336375	0.941271	-0.124675	-0.322933	0.947633	-0.221545	-0.233956	0.707800	-0.019573	-0.177827	0.718179	-0.034320	-0.231629	0.670771	-0.027969	-0.176856	0.681402	-0.036953	-0.195841	0.449975	-0.108498	-0.202992	0.444261	-0.210778	-0.302356	0.332887	-0.103873	-0.249547	0.313831	-0.125621	-0.323218	0.291488	-0.114261	-0.276291	0.273329	-0.131961	-0.405927	0.120894	-0.185119	-0.370037	0.126066	-0.268502	-0.333786	0.041329	-0.163332	-0.305094	0.021798	-0.267770	-0.248044	0.037451	-0.211128	-0.478627	0.103883	-0.257709	-0.165316	0.741518	-0.348074	-0.115422	0.754729	-0.328155	-0.145737	0.699419	-0.349462	-0.100498	0.711891	-0.334665	-0.062506	0.475251	-0.331693	-0.076746	0.451067	-0.225910	-0.188923	0.444426	-0.372404	-0.160983	0.405310	-0.366401	-0.231773	0.414830	-0.377623	-0.205417	0.376249	-0.371680	-0.388160	0.283438	-0.350766	-0.365886	0.248303	-0.270804	-0.372728	0.163782	-0.414979	-0.366954	0.122494	-0.314289	-0.315540	0.103100	-0.370606	-0.449640	0.300987	-0.293479	-0.206524	1.400064	0.024661	-0.191965	1.421184	-0.291729	
