PathFileType	4	(X/Y/Z)	 P4 pr2 05.trc
DataRate	CameraRate	NumFrames	NumMarkers	Units	OrigDataRate	OrigDataStartFrame	OrigNumFrames
200	200	81	38	m	200	1	81
Frame#	Time	RASIS			LASIS			RPSIS			LPSIS			RThighRear1			RThighFront1			RThighRear2			RThighFront2			RKneeLat			RKneeMed			RShankRear1			RShankFront1			RShankRear2			RShankFront2			RAnkleLat			RAnkleMed			RM5			RM1			RMid			RHeel			LThighRear1			LThighFront1			LThighRear2			LThighFront2			LKneeLat			LKneeMed			LShankRear1			LShankFront1			LShankRear2			LShankFront2			LAnkleLat			LAnkleMed			LM5			LM1			LMid			LHeel			RShoulder			LShoulder			
		X1	Y1	Z1	X2	Y2	Z2	X3	Y3	Z3	X4	Y4	Z4	X5	Y5	Z5	X6	Y6	Z6	X7	Y7	Z7	X8	Y8	Z8	X9	Y9	Z9	X10	Y10	Z10	X11	Y11	Z11	X12	Y12	Z12	X13	Y13	Z13	X14	Y14	Z14	X15	Y15	Z15	X16	Y16	Z16	X17	Y17	Z17	X18	Y18	Z18	X19	Y19	Z19	X20	Y20	Z20	X21	Y21	Z21	X22	Y22	Z22	X23	Y23	Z23	X24	Y24	Z24	X25	Y25	Z25	X26	Y26	Z26	X27	Y27	Z27	X28	Y28	Z28	X29	Y29	Z29	X30	Y30	Z30	X31	Y31	Z31	X32	Y32	Z32	X33	Y33	Z33	X34	Y34	Z34	X35	Y35	Z35	X36	Y36	Z36	X37	Y37	Z37	X38	Y38	Z38	
1	0.0000	-1.476420	0.879022	-0.222202	-1.471467	0.872998	-0.452132	-1.635991	0.924464	-0.288558	-1.636994	0.917965	-0.386503	-1.590218	0.694621	-0.168383	-1.540346	0.684161	-0.186060	-1.602264	0.659424	-0.169254	-1.553090	0.648129	-0.184033	-1.665063	0.417426	-0.195712	-1.679549	0.402705	-0.303294	-1.823002	0.446832	-0.186984	-1.815002	0.390608	-0.200810	-1.869086	0.445359	-0.194375	-1.863034	0.394337	-0.203937	-2.057490	0.424018	-0.254291	-2.045519	0.372921	-0.327846	-2.166214	0.332768	-0.223919	-2.155460	0.289359	-0.320058	-2.160824	0.243990	-0.252791	-2.079096	0.466523	-0.330967	-1.478222	0.715830	-0.513743	-1.428572	0.739454	-0.495746	-1.451165	0.677435	-0.511844	-1.407212	0.701752	-0.501499	-1.297264	0.490205	-0.469066	-1.288950	0.484093	-0.365517	-1.342924	0.358737	-0.486470	-1.295217	0.364201	-0.484857	-1.336353	0.305281	-0.484630	-1.289568	0.309741	-0.482434	-1.280339	0.098845	-0.434218	-1.252988	0.122863	-0.353406	-1.147395	0.054394	-0.462388	-1.137310	0.081732	-0.361884	-1.080784	0.112375	-0.420098	-1.329750	0.063427	-0.380097	-1.372051	1.350724	-0.228996	-1.386983	1.340790	-0.544329	
2	0.0050	-1.460319	0.876076	-0.221946	-1.455902	0.871055	-0.452263	-1.620560	0.921096	-0.287714	-1.621720	0.915391	-0.385747	-1.571069	0.690941	-0.167999	-1.520991	0.681393	-0.185701	-1.582258	0.655507	-0.168672	-1.532856	0.645260	-0.183481	-1.639244	0.413047	-0.194477	-1.653669	0.398008	-0.302239	-1.796287	0.443704	-0.184984	-1.789169	0.387566	-0.199726	-1.842433	0.443085	-0.192409	-1.837045	0.392068	-0.202918	-2.030462	0.425581	-0.253245	-2.019112	0.374514	-0.326765	-2.140002	0.335667	-0.222733	-2.130189	0.292340	-0.318918	-2.135864	0.246863	-0.251681	-2.051528	0.468767	-0.329746	-1.462963	0.713393	-0.513491	-1.413262	0.737122	-0.496128	-1.435912	0.675030	-0.511385	-1.391972	0.699302	-0.501627	-1.282372	0.487607	-0.468719	-1.274044	0.481805	-0.365105	-1.330504	0.357708	-0.485669	-1.282965	0.361886	-0.483999	-1.325554	0.304433	-0.483748	-1.278980	0.307596	-0.481383	-1.277053	0.098497	-0.432652	-1.249187	0.121098	-0.351496	-1.146393	0.052612	-0.462119	-1.135423	0.077865	-0.360642	-1.078253	0.107080	-0.418598	-1.327935	0.064114	-0.378889	-1.357729	1.348215	-0.227956	-1.371792	1.337813	-0.544155	
3	0.0100	-1.444029	0.873130	-0.221688	-1.440133	0.869119	-0.452396	-1.604934	0.917719	-0.286880	-1.606241	0.912816	-0.384998	-1.551652	0.687247	-0.167613	-1.501363	0.678638	-0.185341	-1.561961	0.651575	-0.168085	-1.512325	0.642407	-0.182923	-1.612959	0.408681	-0.193257	-1.627328	0.393323	-0.301202	-1.769096	0.440577	-0.182982	-1.762863	0.384512	-0.198645	-1.815310	0.440808	-0.190432	-1.810590	0.389785	-0.201889	-2.003022	0.427122	-0.252154	-1.992289	0.376099	-0.325650	-2.113375	0.338477	-0.221503	-2.104522	0.295256	-0.317745	-2.110474	0.249626	-0.250554	-2.023576	0.471021	-0.328455	-1.447531	0.710937	-0.513236	-1.397775	0.734759	-0.496508	-1.420496	0.672597	-0.510925	-1.376563	0.696813	-0.501754	-1.267381	0.484925	-0.468368	-1.259028	0.479421	-0.364691	-1.318042	0.356628	-0.484860	-1.270675	0.359507	-0.483138	-1.314727	0.303539	-0.482855	-1.268372	0.305392	-0.480326	-1.273810	0.098136	-0.431087	-1.245427	0.119336	-0.349580	-1.145396	0.050851	-0.461858	-1.133545	0.074048	-0.359406	-1.075742	0.101822	-0.417108	-1.326176	0.064755	-0.377680	-1.343216	1.345704	-0.226894	-1.356377	1.334839	-0.543961	
4	0.0150	-1.427576	0.870214	-0.221427	-1.424176	0.867213	-0.452528	-1.589136	0.914364	-0.286066	-1.590574	0.910268	-0.384265	-1.531986	0.683582	-0.167227	-1.481485	0.675946	-0.184980	-1.541389	0.647672	-0.167497	-1.491514	0.639622	-0.182361	-1.586199	0.404399	-0.192066	-1.600519	0.388727	-0.300197	-1.741422	0.437492	-0.180997	-1.736063	0.381484	-0.197575	-1.787714	0.438553	-0.188461	-1.783655	0.387511	-0.200854	-1.975185	0.428598	-0.251011	-1.965053	0.377642	-0.324501	-2.086318	0.341114	-0.220222	-2.078433	0.298027	-0.316535	-2.084606	0.252194	-0.249410	-1.995279	0.473239	-0.327081	-1.431957	0.708480	-0.512976	-1.382140	0.732373	-0.496878	-1.404955	0.670149	-0.510465	-1.361021	0.694292	-0.501875	-1.252358	0.482154	-0.468012	-1.243970	0.476931	-0.364274	-1.305607	0.355497	-0.484045	-1.258420	0.357065	-0.482278	-1.303936	0.302600	-0.481952	-1.257811	0.303134	-0.479271	-1.270645	0.097771	-0.429534	-1.241746	0.117599	-0.347671	-1.144417	0.049134	-0.461609	-1.131700	0.070324	-0.358189	-1.073283	0.096657	-0.415644	-1.324502	0.065345	-0.376475	-1.328533	1.343220	-0.225807	-1.340740	1.331903	-0.543731	
5	0.0200	-1.410982	0.867359	-0.221164	-1.408041	0.865357	-0.452658	-1.573178	0.911063	-0.285284	-1.574725	0.907774	-0.383557	-1.512080	0.679988	-0.166842	-1.461370	0.673368	-0.184623	-1.520548	0.643847	-0.166911	-1.470434	0.636959	-0.181798	-1.558943	0.400279	-0.190920	-1.573221	0.384302	-0.299240	-1.713252	0.434492	-0.179049	-1.708739	0.378521	-0.196526	-1.759628	0.436347	-0.186513	-1.756211	0.385272	-0.199820	-1.946953	0.429966	-0.249811	-1.937391	0.379106	-0.323317	-2.058797	0.343490	-0.218884	-2.051880	0.300569	-0.315284	-2.058193	0.254476	-0.248251	-1.966661	0.475371	-0.325614	-1.416266	0.706037	-0.512710	-1.366379	0.729972	-0.497231	-1.389319	0.667698	-0.510007	-1.345372	0.691745	-0.501986	-1.237368	0.479286	-0.467650	-1.228931	0.474321	-0.363851	-1.293264	0.354314	-0.483225	-1.246268	0.354561	-0.481423	-1.293241	0.301619	-0.481040	-1.247361	0.300828	-0.478221	-1.267591	0.097415	-0.428002	-1.238180	0.115909	-0.345783	-1.143469	0.047479	-0.461374	-1.129910	0.066731	-0.357003	-1.070909	0.091640	-0.414223	-1.322936	0.065884	-0.375280	-1.313698	1.340792	-0.224692	-1.324879	1.329042	-0.543450	
6	0.0250	-1.394259	0.864595	-0.220898	-1.391729	0.863571	-0.452782	-1.557067	0.907847	-0.284544	-1.558696	0.905361	-0.382883	-1.491938	0.676513	-0.166459	-1.441025	0.670956	-0.184270	-1.499437	0.640150	-0.166328	-1.449086	0.634475	-0.181237	-1.531164	0.396402	-0.189831	-1.545408	0.380129	-0.298344	-1.684561	0.431622	-0.177159	-1.680849	0.375663	-0.195507	-1.731031	0.434220	-0.184606	-1.728223	0.383092	-0.198791	-1.918321	0.431179	-0.248550	-1.909284	0.380449	-0.322097	-2.030771	0.345518	-0.217482	-2.024810	0.302797	-0.313990	-2.031156	0.256385	-0.247077	-1.937741	0.477361	-0.324044	-1.400475	0.703624	-0.512436	-1.350508	0.727565	-0.497559	-1.373610	0.665257	-0.509549	-1.329637	0.689178	-0.502079	-1.222467	0.476316	-0.467279	-1.213973	0.471580	-0.363420	-1.281075	0.353079	-0.482399	-1.234281	0.352000	-0.480574	-1.282698	0.300598	-0.480118	-1.237077	0.298480	-0.477180	-1.264678	0.097080	-0.426502	-1.234761	0.114288	-0.343925	-1.142563	0.045903	-0.461156	-1.128197	0.063307	-0.355859	-1.068648	0.086820	-0.412857	-1.321502	0.066375	-0.374100	-1.298723	1.338450	-0.223544	-1.308784	1.326292	-0.543102	
7	0.0300	-1.377416	0.861954	-0.220628	-1.375237	0.861876	-0.452897	-1.540805	0.904746	-0.283855	-1.542481	0.903055	-0.382253	-1.471556	0.673203	-0.166079	-1.420455	0.668764	-0.183924	-1.478052	0.636634	-0.165750	-1.427471	0.632227	-0.180679	-1.502832	0.392849	-0.188813	-1.517049	0.376295	-0.297522	-1.655329	0.428926	-0.175347	-1.652354	0.372953	-0.194525	-1.701899	0.432199	-0.182756	-1.699654	0.380999	-0.197772	-1.889277	0.432189	-0.247224	-1.880706	0.381630	-0.320842	-2.002189	0.347110	-0.216012	-1.997158	0.304625	-0.312649	-2.003405	0.257834	-0.245889	-1.908530	0.479150	-0.322366	-1.384593	0.701259	-0.512151	-1.334534	0.725160	-0.497851	-1.357846	0.662839	-0.509093	-1.313831	0.686599	-0.502150	-1.207707	0.473236	-0.466896	-1.199148	0.468697	-0.362978	-1.269091	0.351794	-0.481567	-1.222515	0.349383	-0.479732	-1.272355	0.299541	-0.479186	-1.227013	0.296096	-0.476150	-1.261930	0.096779	-0.425039	-1.231518	0.112755	-0.342109	-1.141713	0.044419	-0.460957	-1.126582	0.060081	-0.354769	-1.066527	0.082242	-0.411560	-1.320216	0.066824	-0.372938	-1.283617	1.336225	-0.222357	-1.292440	1.323691	-0.542670	
8	0.0350	-1.360456	0.859467	-0.220352	-1.358559	0.860289	-0.452997	-1.524389	0.901791	-0.283228	-1.526073	0.900882	-0.381674	-1.450932	0.670106	-0.165700	-1.399658	0.666845	-0.183585	-1.456386	0.633350	-0.165180	-1.405585	0.630274	-0.180129	-1.473922	0.389703	-0.187875	-1.488117	0.372883	-0.296783	-1.625532	0.426450	-0.173636	-1.623212	0.370433	-0.193590	-1.672211	0.430312	-0.180982	-1.670467	0.379019	-0.196769	-1.859808	0.432948	-0.245834	-1.851630	0.382606	-0.319552	-1.972997	0.348182	-0.214471	-1.968856	0.305969	-0.311260	-1.974848	0.258742	-0.244687	-1.879039	0.480677	-0.320576	-1.368628	0.698956	-0.511853	-1.318466	0.722766	-0.498099	-1.342040	0.660456	-0.508637	-1.297963	0.684014	-0.502190	-1.193136	0.470046	-0.466498	-1.184506	0.465666	-0.362519	-1.257360	0.350462	-0.480729	-1.211017	0.346718	-0.478897	-1.262255	0.298454	-0.478242	-1.217214	0.293686	-0.475132	-1.259366	0.096529	-0.423621	-1.228470	0.111331	-0.340344	-1.140926	0.043039	-0.460776	-1.125081	0.057076	-0.353742	-1.064570	0.077945	-0.410342	-1.319091	0.067243	-0.371798	-1.268388	1.334148	-0.221127	-1.275832	1.321275	-0.542138	
9	0.0400	-1.343380	0.857162	-0.220070	-1.341687	0.858826	-0.453078	-1.507816	0.899010	-0.282671	-1.509462	0.898868	-0.381155	-1.430061	0.667268	-0.165324	-1.378637	0.665252	-0.183255	-1.434432	0.630349	-0.164618	-1.383430	0.628672	-0.179587	-1.444415	0.387045	-0.187027	-1.458592	0.369976	-0.296136	-1.595158	0.424237	-0.172043	-1.593392	0.368147	-0.192706	-1.641951	0.428588	-0.179301	-1.640631	0.377179	-0.195785	-1.829903	0.433411	-0.244380	-1.822030	0.383335	-0.318232	-1.943141	0.348656	-0.212858	-1.939837	0.306749	-0.309824	-1.945395	0.259036	-0.243471	-1.849274	0.481878	-0.318675	-1.352584	0.696731	-0.511539	-1.302304	0.720390	-0.498293	-1.326199	0.658123	-0.508179	-1.282041	0.681432	-0.502192	-1.178794	0.466744	-0.466080	-1.170094	0.462482	-0.362038	-1.245922	0.349090	-0.479882	-1.199830	0.344010	-0.478070	-1.252435	0.297346	-0.477285	-1.207716	0.291261	-0.474128	-1.257000	0.096345	-0.422252	-1.225631	0.110033	-0.338638	-1.140214	0.041771	-0.460613	-1.123712	0.054311	-0.352785	-1.062797	0.073962	-0.409213	-1.318131	0.067649	-0.370679	-1.253045	1.332248	-0.219849	-1.258944	1.319078	-0.541490	
10	0.0450	-1.326188	0.855068	-0.219778	-1.324613	0.857504	-0.453134	-1.491079	0.896430	-0.282190	-1.492641	0.897036	-0.380703	-1.408939	0.664736	-0.164949	-1.357395	0.664033	-0.182935	-1.412187	0.627684	-0.164065	-1.361005	0.627473	-0.179056	-1.414301	0.384951	-0.186274	-1.428461	0.367654	-0.295587	-1.564202	0.422328	-0.170587	-1.562871	0.366134	-0.191880	-1.611114	0.427052	-0.177728	-1.610127	0.375506	-0.194826	-1.799554	0.433530	-0.242868	-1.791884	0.383773	-0.316884	-1.912573	0.348462	-0.211176	-1.910034	0.306893	-0.308344	-1.914959	0.258653	-0.242244	-1.819248	0.482689	-0.316668	-1.336462	0.694600	-0.511206	-1.286050	0.718044	-0.498424	-1.310331	0.655853	-0.507719	-1.266071	0.678860	-0.502150	-1.164716	0.463333	-0.465641	-1.155950	0.459147	-0.361532	-1.234807	0.347686	-0.479026	-1.188986	0.341272	-0.477248	-1.242920	0.296227	-0.476314	-1.198548	0.288835	-0.473138	-1.254836	0.096245	-0.420935	-1.223009	0.108878	-0.336998	-1.139582	0.040619	-0.460466	-1.122487	0.051794	-0.351904	-1.061222	0.070315	-0.408179	-1.317335	0.068063	-0.369585	-1.237595	1.330554	-0.218519	-1.241761	1.317135	-0.540710	
11	0.0500	-1.308879	0.853210	-0.219475	-1.307329	0.856333	-0.453160	-1.474175	0.894076	-0.281791	-1.475601	0.895406	-0.380323	-1.387567	0.662553	-0.164573	-1.335937	0.663236	-0.182624	-1.389652	0.625402	-0.163522	-1.338319	0.626727	-0.178537	-1.383587	0.383495	-0.185621	-1.397727	0.365987	-0.295140	-1.532674	0.420759	-0.169285	-1.531638	0.364434	-0.191115	-1.579704	0.425725	-0.176281	-1.578943	0.374023	-0.193896	-1.768760	0.433261	-0.241302	-1.761178	0.383881	-0.315516	-1.881246	0.347536	-0.209430	-1.879385	0.306334	-0.306822	-1.883462	0.257540	-0.241007	-1.788971	0.483044	-0.314566	-1.320262	0.692579	-0.510851	-1.269704	0.715737	-0.498481	-1.294440	0.653662	-0.507252	-1.250054	0.676311	-0.502054	-1.150930	0.459822	-0.465175	-1.142111	0.455666	-0.360995	-1.224039	0.346262	-0.478160	-1.178509	0.338516	-0.476431	-1.233731	0.295112	-0.475328	-1.189732	0.286424	-0.472161	-1.252873	0.096248	-0.419673	-1.220603	0.107881	-0.335431	-1.139036	0.039587	-0.460333	-1.121415	0.049531	-0.351105	-1.059858	0.067021	-0.407244	-1.316694	0.068513	-0.368514	-1.222047	1.329093	-0.217133	-1.224273	1.315475	-0.539785	
12	0.0550	-1.291451	0.851611	-0.219159	-1.289830	0.855327	-0.453150	-1.457099	0.891973	-0.281478	-1.458336	0.893998	-0.380018	-1.365950	0.660759	-0.164196	-1.314275	0.662901	-0.182323	-1.366833	0.623549	-0.162989	-1.315382	0.626480	-0.178033	-1.352290	0.382742	-0.185069	-1.366405	0.365043	-0.294795	-1.500595	0.419562	-0.168150	-1.499700	0.363081	-0.190416	-1.547742	0.424627	-0.174971	-1.547086	0.372754	-0.192999	-1.737524	0.432564	-0.239695	-1.729905	0.383619	-0.314136	-1.849125	0.345829	-0.207628	-1.847840	0.305019	-0.305267	-1.850839	0.255660	-0.239766	-1.758460	0.482880	-0.312382	-1.303985	0.690682	-0.510472	-1.253265	0.713481	-0.498458	-1.278529	0.651563	-0.506778	-1.233995	0.673796	-0.501899	-1.137459	0.456224	-0.464682	-1.128602	0.452051	-0.360423	-1.213630	0.344833	-0.477282	-1.168413	0.335759	-0.475617	-1.224878	0.294016	-0.474326	-1.181279	0.284047	-0.471197	-1.251100	0.096372	-0.418469	-1.218403	0.107057	-0.333942	-1.138580	0.038672	-0.460210	-1.120504	0.047517	-0.350389	-1.058712	0.064088	-0.406411	-1.316189	0.069028	-0.367468	-1.206412	1.327890	-0.215690	-1.206472	1.314127	-0.538703	
13	0.0600	-1.273906	0.850292	-0.218826	-1.272113	0.854494	-0.453099	-1.439849	0.890140	-0.281252	-1.440843	0.892828	-0.379791	-1.344098	0.659392	-0.163815	-1.292424	0.663063	-0.182030	-1.343743	0.622166	-0.162466	-1.292215	0.626768	-0.177544	-1.320449	0.382745	-0.184616	-1.334527	0.364876	-0.294549	-1.468004	0.418762	-0.167193	-1.467079	0.362108	-0.189782	-1.515260	0.423772	-0.173810	-1.514575	0.371716	-0.192139	-1.705857	0.431401	-0.238057	-1.698066	0.382952	-0.312752	-1.816181	0.343302	-0.205782	-1.815352	0.302905	-0.303688	-1.817037	0.252991	-0.238526	-1.727733	0.482134	-0.310135	-1.287629	0.688923	-0.510065	-1.236736	0.711288	-0.498346	-1.262600	0.649572	-0.506293	-1.217895	0.671327	-0.501678	-1.124315	0.452555	-0.464158	-1.115446	0.448320	-0.359812	-1.203586	0.343418	-0.476393	-1.158704	0.333023	-0.474806	-1.216361	0.292960	-0.473310	-1.173188	0.281727	-0.470246	-1.249498	0.096639	-0.417323	-1.216391	0.106418	-0.332536	-1.138215	0.037873	-0.460094	-1.119757	0.045745	-0.349758	-1.057786	0.061515	-0.405679	-1.315795	0.069647	-0.366447	-1.190704	1.326967	-0.214186	-1.188357	1.313114	-0.537455	
14	0.0650	-1.256244	0.849269	-0.218476	-1.254179	0.853841	-0.452999	-1.422426	0.888596	-0.281113	-1.423124	0.891912	-0.379641	-1.322025	0.658484	-0.163429	-1.270403	0.663753	-0.181747	-1.320400	0.621288	-0.161951	-1.268841	0.627624	-0.177072	-1.288115	0.383552	-0.184257	-1.302143	0.365533	-0.294397	-1.434955	0.418377	-0.166422	-1.433815	0.361538	-0.189215	-1.482306	0.423169	-0.172807	-1.481446	0.370924	-0.191319	-1.673776	0.429736	-0.236403	-1.665673	0.381847	-0.311376	-1.782395	0.339927	-0.203908	-1.781890	0.299964	-0.302098	-1.782017	0.249527	-0.237295	-1.696810	0.480746	-0.307846	-1.271196	0.687317	-0.509629	-1.220117	0.709171	-0.498141	-1.246654	0.647706	-0.505796	-1.201757	0.668921	-0.501386	-1.111507	0.448838	-0.463603	-1.102656	0.444496	-0.359159	-1.193901	0.342039	-0.475494	-1.149376	0.330331	-0.473999	-1.208174	0.291968	-0.472280	-1.165453	0.279490	-0.469309	-1.248043	0.097069	-0.416237	-1.214543	0.105976	-0.331219	-1.137942	0.037184	-0.459980	-1.119172	0.044200	-0.349212	-1.057079	0.059295	-0.405048	-1.315475	0.070409	-0.365453	-1.174935	1.326342	-0.212622	-1.169932	1.312456	-0.536032	
15	0.0700	-1.238467	0.848557	-0.218105	-1.236032	0.853375	-0.452847	-1.404832	0.887355	-0.281056	-1.405180	0.891260	-0.379568	-1.299752	0.658063	-0.163034	-1.248238	0.664992	-0.181471	-1.296831	0.620947	-0.161444	-1.245292	0.629070	-0.176617	-1.255358	0.385195	-0.183988	-1.269317	0.367045	-0.294332	-1.401514	0.418416	-0.165840	-1.399962	0.361390	-0.188712	-1.448941	0.422818	-0.171969	-1.447750	0.370389	-0.190542	-1.641307	0.427540	-0.234750	-1.632743	0.380277	-0.310020	-1.747757	0.335692	-0.202025	-1.747430	0.296181	-0.300513	-1.745758	0.245277	-0.236084	-1.665713	0.478661	-0.305541	-1.254687	0.685878	-0.509161	-1.203411	0.707147	-0.497838	-1.230693	0.645980	-0.505283	-1.185583	0.666594	-0.501020	-1.099034	0.445101	-0.463017	-1.090236	0.440607	-0.358464	-1.184560	0.340721	-0.474588	-1.140414	0.327711	-0.473195	-1.200299	0.291063	-0.471240	-1.158054	0.277362	-0.468388	-1.246698	0.097684	-0.415211	-1.212824	0.105741	-0.329994	-1.137758	0.036600	-0.459863	-1.118746	0.042867	-0.348749	-1.056586	0.057412	-0.404512	-1.315186	0.071357	-0.364486	-1.159120	1.326029	-0.210999	-1.151205	1.312167	-0.534430	
16	0.0750	-1.220579	0.848165	-0.217711	-1.217678	0.853099	-0.452637	-1.387070	0.886431	-0.281076	-1.387019	0.890881	-0.379565	-1.277305	0.658149	-0.162628	-1.225958	0.666793	-0.181201	-1.273067	0.621164	-0.160942	-1.221604	0.631121	-0.176182	-1.222262	0.387693	-0.183798	-1.236130	0.369431	-0.294342	-1.367761	0.418879	-0.165447	-1.365593	0.361677	-0.188271	-1.415238	0.422715	-0.171298	-1.413549	0.370116	-0.189811	-1.608476	0.424786	-0.233116	-1.599302	0.378219	-0.308697	-1.712267	0.330598	-0.200154	-1.711961	0.291557	-0.298952	-1.708252	0.240271	-0.234903	-1.634464	0.475828	-0.303247	-1.238104	0.684618	-0.508660	-1.186621	0.705229	-0.497436	-1.214716	0.644409	-0.504752	-1.169375	0.664363	-0.500576	-1.086886	0.441375	-0.462402	-1.078182	0.436689	-0.357727	-1.175539	0.339493	-0.473677	-1.131794	0.325193	-0.472398	-1.192709	0.290276	-0.470195	-1.150963	0.275375	-0.467484	-1.245423	0.098505	-0.414249	-1.211193	0.105724	-0.328868	-1.137658	0.036114	-0.459739	-1.118471	0.041725	-0.348364	-1.056299	0.055843	-0.404068	-1.314877	0.072537	-0.363550	-1.143274	1.326041	-0.209317	-1.132192	1.312258	-0.532647	
17	0.0800	-1.202583	0.848100	-0.217293	-1.199128	0.853016	-0.452366	-1.369146	0.885830	-0.281166	-1.368651	0.890780	-0.379626	-1.254712	0.658756	-0.162209	-1.203596	0.669161	-0.180936	-1.249146	0.621955	-0.160444	-1.197818	0.633780	-0.175765	-1.188925	0.391051	-0.183676	-1.202674	0.372695	-0.294414	-1.333788	0.419755	-0.165238	-1.330792	0.362401	-0.187888	-1.381281	0.422847	-0.170792	-1.378922	0.370102	-0.189127	-1.575316	0.421453	-0.231521	-1.565383	0.375655	-0.307422	-1.675931	0.324660	-0.198320	-1.675481	0.286111	-0.297434	-1.669508	0.234552	-0.233770	-1.603082	0.472200	-0.300993	-1.221449	0.683549	-0.508125	-1.169753	0.703435	-0.496935	-1.198723	0.643012	-0.504203	-1.153137	0.662248	-0.500054	-1.075048	0.437695	-0.461762	-1.066481	0.432779	-0.356951	-1.166806	0.338383	-0.472769	-1.123481	0.322810	-0.471612	-1.185369	0.289636	-0.469153	-1.144143	0.273559	-0.466601	-1.244170	0.099555	-0.413352	-1.209605	0.105932	-0.327845	-1.137635	0.035721	-0.459602	-1.118335	0.040754	-0.348054	-1.056206	0.054562	-0.403707	-1.314490	0.073998	-0.362649	-1.127412	1.326382	-0.207579	-1.112910	1.312733	-0.530685	
18	0.0850	-1.184486	0.848364	-0.216849	-1.180395	0.853128	-0.452029	-1.351069	0.885560	-0.281314	-1.350089	0.890961	-0.379743	-1.232009	0.659892	-0.161773	-1.181187	0.672093	-0.180675	-1.225108	0.623327	-0.159947	-1.173979	0.637043	-0.175367	-1.155454	0.395258	-0.183609	-1.169054	0.376827	-0.294535	-1.299694	0.421022	-0.165203	-1.295655	0.363558	-0.187557	-1.347159	0.423193	-0.170447	-1.343953	0.370342	-0.188492	-1.541858	0.417523	-0.229985	-1.531022	0.372574	-0.306210	-1.638763	0.317903	-0.196551	-1.638000	0.279874	-0.295984	-1.629550	0.228181	-0.232699	-1.571585	0.467741	-0.298809	-1.204725	0.682685	-0.507555	-1.152812	0.701782	-0.496338	-1.182713	0.641802	-0.503632	-1.136869	0.660269	-0.499456	-1.063494	0.434101	-0.461102	-1.055110	0.428920	-0.356141	-1.158318	0.337426	-0.471869	-1.115433	0.320597	-0.470842	-1.178236	0.289175	-0.468121	-1.137549	0.271948	-0.465745	-1.242885	0.100852	-0.412525	-1.208006	0.106377	-0.326932	-1.137680	0.035415	-0.459448	-1.118323	0.039932	-0.347813	-1.056290	0.053536	-0.403423	-1.313961	0.075786	-0.361789	-1.111547	1.327056	-0.205790	-1.093385	1.313591	-0.528547	
19	0.0900	-1.166292	0.848956	-0.216376	-1.161492	0.853434	-0.451625	-1.332848	0.885622	-0.281510	-1.331347	0.891423	-0.379905	-1.209231	0.661555	-0.161317	-1.158768	0.675576	-0.180414	-1.201001	0.625277	-0.159448	-1.150133	0.640895	-0.174986	-1.121965	0.400287	-0.183582	-1.135383	0.381800	-0.294686	-1.265583	0.422651	-0.165330	-1.260287	0.365133	-0.187271	-1.312969	0.423724	-0.170255	-1.308736	0.370820	-0.187905	-1.508137	0.412985	-0.228527	-1.496260	0.368968	-0.305074	-1.600782	0.310368	-0.194875	-1.599535	0.272896	-0.294627	-1.588415	0.221232	-0.231712	-1.539987	0.462419	-0.296723	-1.187936	0.682033	-0.506950	-1.135804	0.700286	-0.495649	-1.166685	0.640794	-0.503041	-1.120575	0.658445	-0.498785	-1.052193	0.430633	-0.460429	-1.044038	0.425155	-0.355303	-1.150028	0.336652	-0.470986	-1.107599	0.318589	-0.470095	-1.171260	0.288925	-0.467109	-1.131126	0.270575	-0.464923	-1.241509	0.102419	-0.411773	-1.206339	0.107065	-0.326133	-1.137781	0.035193	-0.459274	-1.118415	0.039242	-0.347633	-1.056536	0.052728	-0.403208	-1.313218	0.077950	-0.360977	-1.095691	1.328059	-0.203953	-1.073644	1.314828	-0.526239	
20	0.0950	-1.148007	0.849869	-0.215875	-1.142436	0.853936	-0.451152	-1.314491	0.886015	-0.281738	-1.312441	0.892164	-0.380098	-1.186418	0.663736	-0.160837	-1.136377	0.679587	-0.180151	-1.176870	0.627795	-0.158942	-1.126330	0.645309	-0.174623	-1.088579	0.406099	-0.183580	-1.101781	0.387572	-0.294850	-1.231561	0.424599	-0.165601	-1.224800	0.367102	-0.187024	-1.278806	0.424404	-0.170205	-1.273370	0.371517	-0.187367	-1.474184	0.407832	-0.227168	-1.461136	0.364839	-0.304028	-1.562013	0.302106	-0.193323	-1.560113	0.265239	-0.293389	-1.546154	0.213793	-0.230828	-1.508294	0.456210	-0.294765	-1.171085	0.681606	-0.506310	-1.118734	0.698966	-0.494875	-1.150637	0.640004	-0.502427	-1.104256	0.656798	-0.498044	-1.041107	0.427332	-0.459752	-1.033226	0.421530	-0.354446	-1.141878	0.336095	-0.470131	-1.099921	0.316822	-0.469380	-1.164385	0.288916	-0.466131	-1.124817	0.269471	-0.464141	-1.239981	0.104273	-0.411101	-1.204544	0.108006	-0.325457	-1.137924	0.035053	-0.459078	-1.118589	0.038667	-0.347509	-1.056921	0.052103	-0.403051	-1.312190	0.080534	-0.360223	-1.079854	1.329386	-0.202074	-1.053716	1.316431	-0.523771	
21	0.1000	-1.129638	0.851097	-0.215343	-1.123245	0.854630	-0.450607	-1.296010	0.886734	-0.281982	-1.293389	0.893178	-0.380309	-1.163608	0.666420	-0.160330	-1.114050	0.684095	-0.179884	-1.152766	0.630859	-0.158426	-1.102617	0.650250	-0.174274	-1.055421	0.412634	-0.183587	-1.068368	0.394086	-0.295009	-1.197736	0.426816	-0.165994	-1.189308	0.369435	-0.186808	-1.244770	0.425189	-0.170280	-1.237955	0.372404	-0.186876	-1.440028	0.402061	-0.225925	-1.425693	0.360192	-0.303086	-1.522485	0.293177	-0.191925	-1.519770	0.256979	-0.292298	-1.502830	0.205963	-0.230070	-1.476508	0.449101	-0.292960	-1.154174	0.681409	-0.505637	-1.101610	0.697839	-0.494025	-1.134563	0.639442	-0.501793	-1.087911	0.655348	-0.497241	-1.030189	0.424239	-0.459081	-1.022624	0.418089	-0.353582	-1.133810	0.335787	-0.469315	-1.092339	0.315328	-0.468708	-1.157549	0.289180	-0.465199	-1.118555	0.268667	-0.463411	-1.238236	0.106431	-0.410519	-1.202559	0.109206	-0.324911	-1.138090	0.034996	-0.458855	-1.118818	0.038194	-0.347432	-1.057423	0.051619	-0.402945	-1.310801	0.083579	-0.359538	-1.064042	1.331024	-0.200159	-1.033635	1.318386	-0.521154	
22	0.1050	-1.111191	0.852626	-0.214779	-1.103938	0.855517	-0.449991	-1.277415	0.887771	-0.282228	-1.274209	0.894456	-0.380522	-1.140841	0.669579	-0.159794	-1.091824	0.689061	-0.179608	-1.128737	0.634440	-0.157895	-1.079040	0.655674	-0.173937	-1.022613	0.419823	-0.183586	-1.035266	0.401270	-0.295144	-1.164211	0.429240	-0.166486	-1.153926	0.372091	-0.186614	-1.210953	0.426030	-0.170465	-1.202592	0.373449	-0.186430	-1.405695	0.395677	-0.224815	-1.389971	0.355040	-0.302259	-1.482231	0.283651	-0.190712	-1.478548	0.248204	-0.291380	-1.458514	0.197846	-0.229461	-1.444626	0.441088	-0.291332	-1.137208	0.681451	-0.504932	-1.084436	0.696920	-0.493109	-1.118460	0.639122	-0.501138	-1.071541	0.654113	-0.496382	-1.019391	0.421393	-0.458428	-1.012179	0.414875	-0.352723	-1.125759	0.335757	-0.468552	-1.084784	0.314141	-0.468090	-1.150688	0.289744	-0.464328	-1.112274	0.268191	-0.462742	-1.236208	0.108906	-0.410034	-1.200321	0.110675	-0.324502	-1.138261	0.035026	-0.458607	-1.119073	0.037815	-0.347395	-1.058016	0.051241	-0.402879	-1.308975	0.087123	-0.358934	-1.048258	1.332958	-0.198214	-1.013433	1.320674	-0.518402	
23	0.1100	-1.092672	0.854442	-0.214184	-1.084532	0.856592	-0.449304	-1.258717	0.889116	-0.282458	-1.254919	0.895989	-0.380722	-1.118158	0.673183	-0.159223	-1.069731	0.694436	-0.179319	-1.104832	0.638500	-0.157344	-1.055644	0.661526	-0.173607	-0.990273	0.427582	-0.183561	-1.002594	0.409039	-0.295236	-1.131083	0.431805	-0.167050	-1.118766	0.375022	-0.186433	-1.177443	0.426870	-0.170738	-1.167379	0.374613	-0.186027	-1.371206	0.388687	-0.223852	-1.354009	0.349399	-0.301558	-1.441286	0.273603	-0.189712	-1.436497	0.239010	-0.290664	-1.413289	0.189557	-0.229026	-1.412635	0.432176	-0.289901	-1.120186	0.681736	-0.504197	-1.067217	0.696224	-0.492139	-1.102321	0.639051	-0.500464	-1.055144	0.653110	-0.495477	-1.008658	0.418832	-0.457804	-1.001832	0.411927	-0.351882	-1.117657	0.336032	-0.467856	-1.077188	0.313289	-0.467540	-1.143735	0.290632	-0.463534	-1.105902	0.268067	-0.462145	-1.233833	0.111712	-0.409657	-1.197767	0.112418	-0.324238	-1.138413	0.035150	-0.458332	-1.119319	0.037529	-0.347389	-1.058672	0.050931	-0.402845	-1.306637	0.091197	-0.358426	-1.032504	1.335171	-0.196245	-0.993145	1.323270	-0.515531	
24	0.1150	-1.074085	0.856527	-0.213555	-1.065046	0.857855	-0.448546	-1.239925	0.890755	-0.282654	-1.235538	0.897764	-0.380891	-1.095594	0.677190	-0.158616	-1.047804	0.700164	-0.179013	-1.081098	0.642991	-0.156770	-1.032468	0.667744	-0.173279	-0.958515	0.435814	-0.183498	-0.970463	0.417299	-0.295269	-1.098443	0.434438	-0.167660	-1.083937	0.378172	-0.186258	-1.144324	0.427651	-0.171080	-1.132409	0.375852	-0.185665	-1.336580	0.381105	-0.223050	-1.317844	0.343293	-0.300993	-1.399690	0.263115	-0.188954	-1.393673	0.229500	-0.290173	-1.367247	0.181207	-0.228787	-1.380520	0.422382	-0.288684	-1.103111	0.682266	-0.503434	-1.049956	0.695764	-0.491125	-1.086138	0.639237	-0.499774	-1.038716	0.652355	-0.494534	-0.997933	0.416588	-0.457223	-0.991518	0.409281	-0.351074	-1.109438	0.336633	-0.467241	-1.069482	0.312797	-0.467070	-1.136622	0.291866	-0.462833	-1.099370	0.268315	-0.461631	-1.231047	0.114856	-0.409399	-1.194837	0.114444	-0.324127	-1.138517	0.035378	-0.458033	-1.119519	0.037338	-0.347409	-1.059358	0.050656	-0.402835	-1.303716	0.095825	-0.358030	-1.016776	1.337638	-0.194260	-0.972805	1.326148	-0.512556	
25	0.1200	-1.055437	0.858861	-0.212893	-1.045498	0.859300	-0.447719	-1.221050	0.892669	-0.282801	-1.216082	0.899765	-0.381013	-1.073187	0.681553	-0.157969	-1.026068	0.706185	-0.178683	-1.057577	0.647857	-0.156166	-1.009550	0.674261	-0.172947	-0.927443	0.444414	-0.183384	-0.938977	0.425942	-0.295227	-1.066372	0.437060	-0.168288	-1.049540	0.381482	-0.186081	-1.111665	0.428311	-0.171467	-1.097770	0.377120	-0.185341	-1.301831	0.372950	-0.222418	-1.281511	0.336750	-0.300568	-1.357487	0.252273	-0.188463	-1.350141	0.219781	-0.289931	-1.320486	0.172913	-0.228766	-1.348260	0.411731	-0.287693	-1.085981	0.683043	-0.502646	-1.032655	0.695550	-0.490081	-1.069903	0.639684	-0.499070	-1.022251	0.651860	-0.493563	-0.987157	0.414689	-0.456699	-0.981172	0.406966	-0.350315	-1.101032	0.337579	-0.466723	-1.061595	0.312685	-0.466694	-1.129282	0.293460	-0.462242	-1.092606	0.268950	-0.461213	-1.227790	0.118343	-0.409272	-1.191472	0.116758	-0.324177	-1.138544	0.035725	-0.457711	-1.119634	0.037253	-0.347446	-1.060041	0.050387	-0.402840	-1.300145	0.101023	-0.357761	-1.001069	1.340337	-0.192265	-0.952445	1.329278	-0.509497	
26	0.1250	-1.036733	0.861422	-0.212197	-1.025906	0.860924	-0.446823	-1.202102	0.894840	-0.282883	-1.196568	0.901975	-0.381074	-1.050969	0.686218	-0.157278	-1.004546	0.712429	-0.178325	-1.034311	0.653038	-0.155528	-0.986921	0.681000	-0.172604	-0.897150	0.453269	-0.183205	-0.908229	0.434856	-0.295097	-1.034938	0.439593	-0.168905	-1.015667	0.384886	-0.185896	-1.079531	0.428786	-0.171879	-1.063541	0.378367	-0.185050	-1.266971	0.364247	-0.221962	-1.245042	0.329802	-0.300290	-1.314725	0.241164	-0.188258	-1.305971	0.209965	-0.289959	-1.273113	0.164784	-0.228982	-1.315833	0.400261	-0.286937	-1.068794	0.684065	-0.501836	-1.015315	0.695591	-0.489019	-1.053606	0.640393	-0.498354	-1.005745	0.651636	-0.492574	-0.976270	0.413157	-0.456243	-0.970728	0.405007	-0.349620	-1.092376	0.338881	-0.466315	-1.053461	0.312965	-0.466424	-1.121649	0.295425	-0.461775	-1.085543	0.269982	-0.460902	-1.224006	0.122174	-0.409288	-1.187621	0.119366	-0.324395	-1.138459	0.036206	-0.457370	-1.119619	0.037288	-0.347495	-1.060683	0.050101	-0.402852	-1.295862	0.106800	-0.357635	-0.985374	1.343238	-0.190266	-0.932098	1.332630	-0.506372	
27	0.1300	-1.017979	0.864184	-0.211466	-1.006284	0.862721	-0.445860	-1.183089	0.897245	-0.282885	-1.177013	0.904374	-0.381058	-1.028969	0.691126	-0.156541	-0.983258	0.718826	-0.177931	-1.011337	0.658464	-0.154852	-0.964607	0.687882	-0.172242	-0.867716	0.462261	-0.182955	-0.878302	0.443922	-0.294866	-1.004200	0.441955	-0.169487	-0.982402	0.388316	-0.185697	-1.047974	0.429015	-0.172294	-1.029794	0.379541	-0.184792	-1.232009	0.355024	-0.221688	-1.208470	0.322484	-0.300161	-1.271457	0.229875	-0.188359	-1.261242	0.200158	-0.290272	-1.225242	0.156926	-0.229453	-1.283213	0.388018	-0.286420	-1.051549	0.685327	-0.501008	-0.997933	0.695890	-0.487949	-1.037235	0.641362	-0.497630	-0.989190	0.651687	-0.491575	-0.965214	0.412008	-0.455869	-0.960120	0.403420	-0.349003	-1.083405	0.340546	-0.466031	-1.045016	0.313647	-0.466273	-1.113661	0.297764	-0.461449	-1.078118	0.271413	-0.460706	-1.219644	0.126347	-0.409457	-1.183235	0.122272	-0.324787	-1.138223	0.036841	-0.457015	-1.119428	0.037464	-0.347552	-1.061244	0.049779	-0.402866	-1.290814	0.113155	-0.357670	-0.969679	1.346313	-0.188270	-0.911794	1.336169	-0.503199	
28	0.1350	-0.999178	0.867123	-0.210700	-0.986649	0.864684	-0.444832	-1.164021	0.899857	-0.282795	-1.157430	0.906943	-0.380953	-1.007215	0.696212	-0.155756	-0.962219	0.725298	-0.177493	-0.988685	0.664062	-0.154132	-0.942628	0.694823	-0.171852	-0.839208	0.471269	-0.182625	-0.849261	0.453018	-0.294528	-0.974203	0.444068	-0.170011	-0.949816	0.391702	-0.185481	-1.017033	0.428937	-0.172694	-0.996591	0.380590	-0.184562	-1.196955	0.345316	-0.221596	-1.171825	0.314837	-0.300182	-1.227744	0.218494	-0.188778	-1.216041	0.190465	-0.290882	-1.176991	0.149434	-0.230191	-1.250380	0.375060	-0.286142	-1.034239	0.686823	-0.500164	-0.980509	0.696449	-0.486883	-1.020780	0.642587	-0.496902	-0.972574	0.652016	-0.490575	-0.953931	0.411248	-0.455588	-0.949283	0.402214	-0.348476	-1.074061	0.342573	-0.465885	-1.036199	0.314730	-0.466250	-1.105261	0.300475	-0.461276	-1.070270	0.273242	-0.460636	-1.214658	0.130856	-0.409790	-1.178271	0.125479	-0.325356	-1.137793	0.037650	-0.456652	-1.119012	0.037806	-0.347611	-1.061679	0.049411	-0.402876	-1.284957	0.120077	-0.357881	-0.953972	1.349531	-0.186282	-0.891561	1.339863	-0.499997	
29	0.1400	-0.980336	0.870210	-0.209898	-0.967014	0.866805	-0.443741	-1.144905	0.902649	-0.282603	-1.137835	0.909658	-0.380746	-0.985728	0.701410	-0.154920	-0.941437	0.731768	-0.177004	-0.966385	0.669757	-0.153365	-0.921001	0.701740	-0.171424	-0.811679	0.480170	-0.182214	-0.821161	0.462021	-0.294077	-0.944981	0.445856	-0.170457	-0.917970	0.394974	-0.185245	-0.986740	0.428498	-0.173062	-0.963983	0.381465	-0.184360	-1.161821	0.335164	-0.221687	-1.135139	0.306901	-0.300351	-1.183655	0.207103	-0.189522	-1.170460	0.180984	-0.291798	-1.128488	0.142393	-0.231205	-1.217314	0.361452	-0.286102	-1.016861	0.688542	-0.499307	-0.963036	0.697265	-0.485828	-1.004225	0.644058	-0.496171	-0.955889	0.652621	-0.489582	-0.942367	0.410880	-0.455407	-0.938160	0.401390	-0.348053	-1.064290	0.344955	-0.465886	-1.026956	0.316210	-0.466364	-1.096394	0.303549	-0.461268	-1.061945	0.275459	-0.460697	-1.209009	0.135690	-0.410297	-1.172693	0.128989	-0.326107	-1.137124	0.038658	-0.456288	-1.118318	0.038345	-0.347671	-1.061941	0.048993	-0.402878	-1.278254	0.127548	-0.358282	-0.938238	1.352859	-0.184306	-0.871425	1.343676	-0.496784	
30	0.1450	-0.961460	0.873415	-0.209059	-0.947392	0.869075	-0.442588	-1.125750	0.905591	-0.282299	-1.118237	0.912494	-0.380430	-0.964526	0.706649	-0.154031	-0.920920	0.738158	-0.176457	-0.944457	0.675468	-0.152549	-0.899734	0.708546	-0.170948	-0.785166	0.488845	-0.181721	-0.794038	0.470812	-0.293513	-0.916555	0.447252	-0.170810	-0.886912	0.398064	-0.184989	-0.957115	0.427646	-0.173385	-0.932014	0.382117	-0.184185	-1.126620	0.324612	-0.221956	-1.098446	0.298721	-0.300665	-1.139265	0.195783	-0.190593	-1.124603	0.171804	-0.293019	-1.079862	0.135874	-0.232500	-1.184002	0.347271	-0.286293	-0.999406	0.690471	-0.498440	-0.945509	0.698331	-0.484792	-0.987559	0.645763	-0.495441	-0.939122	0.653495	-0.488600	-0.930469	0.410895	-0.455336	-0.926694	0.400942	-0.347741	-1.054042	0.347679	-0.466044	-1.017237	0.318072	-0.466621	-1.087014	0.306970	-0.461434	-1.053096	0.278048	-0.460896	-1.202665	0.140836	-0.410985	-1.166471	0.132802	-0.327040	-1.136163	0.039888	-0.455932	-1.117293	0.039111	-0.347730	-1.061977	0.048528	-0.402868	-1.270682	0.135539	-0.358886	-0.922464	1.356266	-0.182347	-0.851409	1.347573	-0.493577	
31	0.1500	-0.942554	0.876709	-0.208184	-0.927792	0.871482	-0.441375	-1.106564	0.908650	-0.281877	-1.098650	0.915426	-0.379996	-0.943624	0.711857	-0.153089	-0.900667	0.744390	-0.175842	-0.922918	0.681116	-0.151681	-0.878831	0.715157	-0.170414	-0.759689	0.497180	-0.181150	-0.767915	0.479274	-0.292838	-0.888934	0.448191	-0.171060	-0.856680	0.400908	-0.184716	-0.928170	0.426340	-0.173653	-0.900720	0.382502	-0.184036	-1.091373	0.313709	-0.222400	-1.061784	0.290339	-0.301121	-1.094661	0.184610	-0.191986	-1.078582	0.163003	-0.294543	-1.031252	0.129934	-0.234074	-1.150441	0.332598	-0.286708	-0.981867	0.692595	-0.497566	-0.927920	0.699637	-0.483779	-0.970767	0.647686	-0.494714	-0.922260	0.654626	-0.487633	-0.918190	0.411279	-0.455377	-0.914836	0.400855	-0.347548	-1.043275	0.350724	-0.466364	-1.007000	0.320297	-0.467025	-1.077078	0.310718	-0.461781	-1.043682	0.280988	-0.461234	-1.195602	0.146276	-0.411859	-1.159584	0.136915	-0.328153	-1.134857	0.041362	-0.455593	-1.115881	0.040138	-0.347789	-1.061731	0.048028	-0.402844	-1.262226	0.144014	-0.359704	-0.906634	1.359717	-0.180407	-0.831534	1.351521	-0.490393	
32	0.1550	-0.923624	0.880060	-0.207271	-0.908226	0.874010	-0.440104	-1.087354	0.911791	-0.281335	-1.079083	0.918426	-0.379441	-0.923032	0.716963	-0.152093	-0.880677	0.750386	-0.175152	-0.901780	0.686621	-0.150761	-0.858292	0.721490	-0.169811	-0.735255	0.505065	-0.180509	-0.742799	0.487300	-0.292061	-0.862117	0.448623	-0.171202	-0.827299	0.403444	-0.184431	-0.899907	0.424546	-0.173863	-0.870124	0.382578	-0.183917	-1.056106	0.302509	-0.223010	-1.025193	0.281801	-0.301713	-1.049943	0.173653	-0.193692	-1.032516	0.154646	-0.296359	-0.982798	0.124613	-0.235919	-1.116639	0.317524	-0.287336	-0.964235	0.694893	-0.496688	-0.910260	0.701166	-0.482792	-0.953835	0.649807	-0.493992	-0.905287	0.656000	-0.486685	-0.905487	0.412009	-0.455534	-0.902542	0.401108	-0.347478	-1.031952	0.354065	-0.466851	-0.996206	0.322860	-0.467574	-1.066550	0.314765	-0.462312	-1.033666	0.284252	-0.461711	-1.187800	0.151991	-0.412922	-1.152013	0.141325	-0.329443	-1.133146	0.043105	-0.455280	-1.114024	0.041458	-0.347851	-1.061145	0.047509	-0.402806	-1.252882	0.152929	-0.360741	-0.890733	1.363181	-0.178490	-0.811818	1.355487	-0.487246	
33	0.1600	-0.904676	0.883436	-0.206319	-0.888701	0.876644	-0.438777	-1.068129	0.914979	-0.280670	-1.059544	0.921465	-0.378761	-0.902753	0.721896	-0.151043	-0.860942	0.756074	-0.174381	-0.881048	0.691906	-0.149788	-0.838108	0.727469	-0.169132	-0.711854	0.512401	-0.179808	-0.718683	0.494789	-0.291191	-0.836097	0.448503	-0.171237	-0.798783	0.405617	-0.184140	-0.872323	0.422239	-0.174015	-0.840247	0.382311	-0.183829	-1.020854	0.291071	-0.223781	-0.988722	0.273152	-0.302434	-1.005218	0.162976	-0.195695	-0.986533	0.146783	-0.298452	-0.934647	0.119935	-0.238022	-1.082616	0.302145	-0.288166	-0.946499	0.697344	-0.495806	-0.892518	0.702901	-0.481832	-0.936746	0.652103	-0.493276	-0.888190	0.657596	-0.485755	-0.892321	0.413059	-0.455804	-0.889775	0.401675	-0.347530	-1.020039	0.357670	-0.467503	-0.984826	0.325728	-0.468266	-1.055399	0.319080	-0.463026	-1.023021	0.287808	-0.462326	-1.179248	0.157957	-0.414172	-1.143750	0.146025	-0.330903	-1.130968	0.045137	-0.455006	-1.111664	0.043104	-0.347920	-1.060156	0.046997	-0.402755	-1.242655	0.162231	-0.362004	-0.874748	1.366624	-0.176595	-0.792276	1.359437	-0.484150	
34	0.1650	-0.885716	0.886804	-0.205329	-0.869224	0.879365	-0.437396	-1.048894	0.918176	-0.279884	-1.040041	0.924512	-0.377957	-0.882789	0.726589	-0.149940	-0.841453	0.761385	-0.173520	-0.860722	0.696896	-0.148763	-0.818268	0.733019	-0.168366	-0.689464	0.519100	-0.179061	-0.695546	0.501653	-0.290243	-0.810853	0.447801	-0.171172	-0.771137	0.407380	-0.183853	-0.845409	0.419405	-0.174112	-0.811100	0.381674	-0.183779	-0.985661	0.279456	-0.224704	-0.952423	0.264435	-0.303280	-0.960608	0.152634	-0.197972	-0.940771	0.139451	-0.300799	-0.886949	0.115904	-0.240364	-1.048407	0.286560	-0.289188	-0.928649	0.699923	-0.494923	-0.874682	0.704817	-0.480897	-0.919487	0.654548	-0.492568	-0.870952	0.659390	-0.484843	-0.878657	0.414393	-0.456183	-0.876505	0.402522	-0.347703	-1.007512	0.361504	-0.468318	-0.972835	0.328865	-0.469094	-1.043602	0.323625	-0.463922	-1.011724	0.291621	-0.463071	-1.169939	0.164150	-0.415608	-1.134787	0.151005	-0.332524	-1.128259	0.047477	-0.454782	-1.108741	0.045103	-0.348001	-1.058695	0.046522	-0.402695	-1.231559	0.171866	-0.363492	-0.858666	1.370014	-0.174723	-0.772920	1.363340	-0.481114	
35	0.1700	-0.866750	0.890131	-0.204301	-0.849798	0.882150	-0.435964	-1.029658	0.921344	-0.278980	-1.020579	0.927538	-0.377032	-0.863134	0.730977	-0.148787	-0.822196	0.766256	-0.172564	-0.840795	0.701522	-0.147691	-0.798757	0.738075	-0.167508	-0.668049	0.525084	-0.178286	-0.673355	0.507815	-0.289237	-0.786362	0.446498	-0.171019	-0.744357	0.408691	-0.183582	-0.819150	0.416040	-0.174165	-0.782688	0.380644	-0.183772	-0.950582	0.267729	-0.225771	-0.916358	0.255693	-0.304243	-0.916244	0.142676	-0.200497	-0.895374	0.132668	-0.303376	-0.839857	0.112509	-0.242921	-1.014063	0.270873	-0.290390	-0.910671	0.702601	-0.494038	-0.856740	0.706890	-0.479982	-0.902042	0.657112	-0.491866	-0.853556	0.661355	-0.483945	-0.864466	0.415973	-0.456665	-0.862704	0.403611	-0.347990	-0.994347	0.365528	-0.469290	-0.960210	0.332230	-0.470049	-1.031138	0.328361	-0.464992	-0.999757	0.295651	-0.463941	-1.159870	0.170542	-0.417223	-1.125124	0.156254	-0.334296	-1.124951	0.050140	-0.454620	-1.105196	0.047479	-0.348104	-1.056695	0.046118	-0.402630	-1.219617	0.181771	-0.365201	-0.842475	1.373320	-0.172872	-0.753760	1.367167	-0.478149	
36	0.1750	-0.847783	0.893383	-0.203232	-0.830428	0.884976	-0.434481	-1.010427	0.924444	-0.277964	-1.001163	0.930511	-0.375989	-0.843779	0.735001	-0.147586	-0.803153	0.770630	-0.171511	-0.821255	0.705721	-0.146574	-0.779553	0.742579	-0.166553	-0.647561	0.530291	-0.177502	-0.652067	0.513215	-0.288193	-0.762595	0.444586	-0.170795	-0.718431	0.409518	-0.183339	-0.793532	0.412152	-0.174187	-0.755014	0.379206	-0.183818	-0.915684	0.255957	-0.226974	-0.880596	0.246968	-0.305318	-0.872269	0.133145	-0.203238	-0.850491	0.126439	-0.306149	-0.793525	0.109724	-0.245662	-0.979652	0.255190	-0.291762	-0.892553	0.705348	-0.493152	-0.838676	0.709089	-0.479082	-0.884395	0.659764	-0.491171	-0.835984	0.663462	-0.483057	-0.849720	0.417755	-0.457239	-0.848355	0.404903	-0.348382	-0.980528	0.369699	-0.470410	-0.946937	0.335779	-0.471118	-1.017992	0.333245	-0.466227	-0.987108	0.299856	-0.464924	-1.149044	0.177106	-0.419006	-1.114763	0.161755	-0.336204	-1.120973	0.053138	-0.454535	-1.100969	0.050251	-0.348238	-1.054081	0.045824	-0.402567	-1.206857	0.191881	-0.367126	-0.826164	1.376512	-0.171041	-0.734801	1.370889	-0.475261	
37	0.1800	-0.828818	0.896527	-0.202124	-0.811112	0.887816	-0.432952	-0.991204	0.927439	-0.276843	-0.981794	0.933398	-0.374837	-0.824711	0.738606	-0.146342	-0.784305	0.774460	-0.170356	-0.802085	0.709437	-0.145420	-0.760633	0.746481	-0.165497	-0.627941	0.534671	-0.176733	-0.631626	0.517803	-0.287137	-0.739519	0.442072	-0.170524	-0.693340	0.409839	-0.183142	-0.768537	0.407760	-0.174196	-0.728075	0.377355	-0.183927	-0.881044	0.244210	-0.228305	-0.845214	0.238298	-0.306500	-0.828837	0.124073	-0.206158	-0.806277	0.120755	-0.309084	-0.748109	0.107505	-0.248554	-0.945256	0.239614	-0.293293	-0.874282	0.708134	-0.492263	-0.820476	0.711383	-0.478190	-0.866530	0.662470	-0.490480	-0.818217	0.665676	-0.482172	-0.834396	0.419695	-0.457891	-0.833439	0.406354	-0.348867	-0.966040	0.373973	-0.471663	-0.933003	0.339466	-0.472285	-1.004150	0.338235	-0.467613	-0.973767	0.304193	-0.466008	-1.137464	0.183810	-0.420945	-1.103707	0.167491	-0.338232	-1.116257	0.056478	-0.454539	-1.096002	0.053430	-0.348415	-1.050780	0.045680	-0.402514	-1.193311	0.202129	-0.369253	-0.809725	1.379561	-0.169226	-0.716048	1.374479	-0.472457	
38	0.1850	-0.809860	0.899531	-0.200975	-0.791851	0.890642	-0.431378	-0.971995	0.930289	-0.275624	-0.962474	0.936168	-0.373582	-0.805910	0.741748	-0.145061	-0.765629	0.777703	-0.169100	-0.783263	0.712622	-0.144235	-0.741969	0.749741	-0.164341	-0.609123	0.538191	-0.176001	-0.611973	0.521548	-0.286094	-0.717097	0.438972	-0.170231	-0.669058	0.409639	-0.183007	-0.744147	0.402891	-0.174213	-0.701866	0.375091	-0.184110	-0.846751	0.232555	-0.229757	-0.810296	0.229721	-0.307785	-0.786108	0.115488	-0.209219	-0.762892	0.115589	-0.312143	-0.703763	0.105797	-0.251560	-0.910976	0.224251	-0.294975	-0.855842	0.710924	-0.491372	-0.802124	0.713739	-0.477297	-0.848431	0.665195	-0.489791	-0.800238	0.667963	-0.481284	-0.818475	0.421746	-0.458606	-0.817946	0.407920	-0.349430	-0.950871	0.378306	-0.473036	-0.918396	0.343244	-0.473533	-0.989603	0.343285	-0.469136	-0.959726	0.308619	-0.467179	-1.125136	0.190627	-0.423025	-1.091960	0.173440	-0.340363	-1.110729	0.060162	-0.454646	-1.090235	0.057019	-0.348648	-1.046716	0.045726	-0.402484	-1.179014	0.212448	-0.371568	-0.793150	1.382440	-0.167422	-0.697499	1.377912	-0.469738	
39	0.1900	-0.790910	0.902363	-0.199787	-0.772639	0.893424	-0.429764	-0.952803	0.932959	-0.274319	-0.943201	0.938790	-0.372234	-0.787354	0.744386	-0.143747	-0.747101	0.780330	-0.167745	-0.764759	0.715239	-0.143028	-0.723530	0.752329	-0.163086	-0.591034	0.540832	-0.175333	-0.593041	0.524433	-0.285093	-0.695294	0.435315	-0.169945	-0.645558	0.408912	-0.182951	-0.720345	0.397584	-0.174263	-0.676381	0.372421	-0.184379	-0.812905	0.221065	-0.231324	-0.775936	0.221271	-0.309169	-0.744247	0.107408	-0.212380	-0.720494	0.110905	-0.315285	-0.660640	0.104533	-0.254640	-0.876926	0.209200	-0.296800	-0.837218	0.713684	-0.490475	-0.783603	0.716122	-0.476393	-0.830080	0.667904	-0.489102	-0.782027	0.670289	-0.480385	-0.801937	0.423863	-0.459366	-0.801866	0.409558	-0.350054	-0.935009	0.382653	-0.474509	-0.903107	0.347066	-0.474842	-0.974341	0.348352	-0.470776	-0.944980	0.313090	-0.468422	-1.112066	0.197525	-0.425227	-1.079527	0.179577	-0.342579	-1.104318	0.064185	-0.454871	-1.083614	0.061012	-0.348951	-1.041811	0.046001	-0.402488	-1.164001	0.222771	-0.374052	-0.776431	1.385122	-0.165624	-0.679150	1.381165	-0.467108	
40	0.1950	-0.771966	0.904993	-0.198557	-0.753470	0.896132	-0.428112	-0.933627	0.935413	-0.272937	-0.923969	0.941232	-0.370803	-0.769016	0.746491	-0.142409	-0.728693	0.782319	-0.166295	-0.746543	0.717257	-0.141810	-0.705283	0.754226	-0.161739	-0.573593	0.542590	-0.174752	-0.574758	0.526454	-0.284163	-0.674072	0.431141	-0.169699	-0.622808	0.407662	-0.182993	-0.697117	0.391886	-0.174371	-0.651612	0.369360	-0.184750	-0.779613	0.209806	-0.233001	-0.742231	0.212981	-0.310651	-0.703426	0.099848	-0.215598	-0.679245	0.106655	-0.318469	-0.618885	0.103637	-0.257752	-0.843234	0.194560	-0.298764	-0.818394	0.716381	-0.489571	-0.764896	0.718498	-0.475471	-0.811463	0.670562	-0.488409	-0.763563	0.672618	-0.479468	-0.784767	0.426000	-0.460152	-0.785189	0.411226	-0.350720	-0.918445	0.386972	-0.476064	-0.887127	0.350886	-0.476190	-0.958357	0.353393	-0.472513	-0.929523	0.317563	-0.469720	-1.098256	0.204473	-0.427532	-1.066408	0.185873	-0.344858	-1.096955	0.068539	-0.455227	-1.076081	0.065395	-0.349341	-1.035990	0.046543	-0.402544	-1.148304	0.233030	-0.376680	-0.759562	1.387585	-0.163827	-0.660996	1.384216	-0.464565	
41	0.2000	-0.753027	0.907392	-0.197286	-0.734335	0.898733	-0.426426	-0.914466	0.937620	-0.271490	-0.904774	0.943466	-0.369302	-0.750863	0.748041	-0.141056	-0.710376	0.783658	-0.164757	-0.728576	0.718660	-0.140591	-0.687193	0.755422	-0.160306	-0.556721	0.543475	-0.174286	-0.557052	0.527625	-0.283332	-0.653397	0.426498	-0.169522	-0.600773	0.405902	-0.183152	-0.674451	0.385849	-0.174562	-0.627551	0.365930	-0.185234	-0.746991	0.198846	-0.234785	-0.709284	0.204881	-0.312230	-0.663815	0.092813	-0.218830	-0.639298	0.102785	-0.321654	-0.578641	0.103027	-0.260855	-0.810040	0.180420	-0.300860	-0.799354	0.718981	-0.488657	-0.745984	0.720833	-0.474518	-0.792560	0.673133	-0.487707	-0.744827	0.674915	-0.478523	-0.766948	0.428115	-0.460942	-0.767909	0.412886	-0.351408	-0.901168	0.391222	-0.477677	-0.870446	0.354660	-0.477554	-0.941641	0.358368	-0.474324	-0.913349	0.321999	-0.471054	-1.083708	0.211442	-0.429917	-1.052602	0.192297	-0.347181	-1.088570	0.073208	-0.455727	-1.067585	0.070145	-0.349833	-1.029174	0.047384	-0.402666	-1.131955	0.243162	-0.379427	-0.742536	1.389806	-0.162023	-0.643026	1.387045	-0.462108	
42	0.2050	-0.734086	0.909535	-0.195974	-0.715221	0.901196	-0.424711	-0.895316	0.939551	-0.269987	-0.885605	0.945464	-0.367740	-0.732861	0.749024	-0.139696	-0.692120	0.784346	-0.163140	-0.710818	0.719439	-0.139383	-0.669222	0.755920	-0.158800	-0.540332	0.543510	-0.173957	-0.539849	0.527971	-0.282628	-0.633235	0.421440	-0.169447	-0.579420	0.403650	-0.183446	-0.652335	0.379534	-0.174862	-0.604192	0.362157	-0.185846	-0.715159	0.188249	-0.236670	-0.677202	0.196998	-0.313907	-0.625582	0.086304	-0.222035	-0.600806	0.099231	-0.324799	-0.540041	0.102617	-0.263909	-0.777488	0.166865	-0.303084	-0.780081	0.721451	-0.487729	-0.726848	0.723094	-0.473526	-0.773356	0.675585	-0.486992	-0.725799	0.677148	-0.477545	-0.748467	0.430171	-0.461716	-0.750017	0.414501	-0.352096	-0.883168	0.395366	-0.479326	-0.853056	0.358349	-0.478913	-0.924186	0.363238	-0.476187	-0.896450	0.326359	-0.472408	-1.068421	0.218401	-0.432359	-1.038103	0.198814	-0.349526	-1.079098	0.078172	-0.456384	-1.058073	0.075230	-0.350444	-1.021291	0.048550	-0.402875	-1.114976	0.253107	-0.382264	-0.725346	1.391767	-0.160204	-0.625226	1.389637	-0.459733	
43	0.2100	-0.715137	0.911398	-0.194621	-0.696113	0.903492	-0.422970	-0.876170	0.941180	-0.268441	-0.866451	0.947201	-0.366131	-0.714974	0.749437	-0.138340	-0.673893	0.784390	-0.161457	-0.693226	0.719596	-0.138200	-0.651332	0.755733	-0.157233	-0.524345	0.542730	-0.173789	-0.523077	0.527527	-0.282077	-0.613555	0.416031	-0.169504	-0.558713	0.400933	-0.183890	-0.630764	0.373004	-0.175297	-0.581525	0.358072	-0.186599	-0.684240	0.178074	-0.238654	-0.646093	0.189357	-0.315680	-0.588888	0.080317	-0.225174	-0.563910	0.095930	-0.327867	-0.503207	0.102321	-0.266874	-0.745732	0.153971	-0.305433	-0.760556	0.723760	-0.486784	-0.707471	0.725251	-0.472487	-0.753832	0.677886	-0.486260	-0.706457	0.679285	-0.476525	-0.729309	0.432133	-0.462450	-0.731505	0.416042	-0.352763	-0.864433	0.399369	-0.480987	-0.834942	0.361915	-0.480243	-0.905981	0.367970	-0.478076	-0.878817	0.330610	-0.473763	-1.052388	0.225319	-0.434833	-1.022900	0.205386	-0.351873	-1.068476	0.083406	-0.457209	-1.047496	0.080608	-0.351190	-1.012268	0.050061	-0.403189	-1.097388	0.262806	-0.385159	-0.707987	1.393450	-0.158364	-0.607580	1.391975	-0.457437	
44	0.2150	-0.696167	0.912963	-0.193226	-0.676995	0.905591	-0.421208	-0.857020	0.942488	-0.266861	-0.847298	0.948656	-0.364484	-0.697162	0.749288	-0.136998	-0.655665	0.783808	-0.159721	-0.675754	0.719145	-0.137053	-0.633485	0.754881	-0.155623	-0.508680	0.541183	-0.173801	-0.506668	0.526343	-0.281704	-0.594331	0.410337	-0.169720	-0.538620	0.397784	-0.184501	-0.609734	0.366326	-0.175887	-0.559547	0.353710	-0.187505	-0.654357	0.168377	-0.240735	-0.616065	0.181980	-0.317553	-0.553887	0.074842	-0.228209	-0.528742	0.092815	-0.330822	-0.468250	0.102055	-0.269716	-0.714925	0.141803	-0.307903	-0.740763	0.725880	-0.485819	-0.687834	0.727275	-0.471393	-0.733972	0.680009	-0.485507	-0.686783	0.681301	-0.475458	-0.709460	0.433976	-0.463123	-0.712360	0.417482	-0.353386	-0.844951	0.403203	-0.482636	-0.816092	0.365328	-0.481522	-0.887013	0.372534	-0.479967	-0.860438	0.334720	-0.475102	-1.035600	0.232168	-0.437316	-1.006980	0.211972	-0.354202	-1.056646	0.088877	-0.458211	-1.035809	0.086230	-0.352087	-1.002037	0.051927	-0.403629	-1.079200	0.272208	-0.388079	-0.690450	1.394842	-0.156493	-0.590068	1.394047	-0.455213	
45	0.2200	-0.677163	0.914214	-0.191789	-0.657845	0.907467	-0.419429	-0.837854	0.943458	-0.265257	-0.828129	0.949810	-0.362811	-0.679384	0.748591	-0.135681	-0.637402	0.782626	-0.157950	-0.658356	0.718107	-0.135955	-0.615643	0.753397	-0.153988	-0.493260	0.538923	-0.174010	-0.490557	0.524474	-0.281528	-0.575539	0.404426	-0.170117	-0.519108	0.394241	-0.185289	-0.589244	0.359568	-0.176652	-0.538252	0.349111	-0.188573	-0.625629	0.159208	-0.242907	-0.587220	0.174889	-0.319525	-0.520719	0.069865	-0.231109	-0.495422	0.089823	-0.333634	-0.435266	0.101739	-0.272404	-0.685218	0.130418	-0.310487	-0.720685	0.727787	-0.484830	-0.667918	0.729143	-0.470238	-0.713759	0.681930	-0.484726	-0.666758	0.683171	-0.474338	-0.688908	0.435677	-0.463715	-0.692573	0.418803	-0.353946	-0.824708	0.406843	-0.484249	-0.796492	0.368560	-0.482729	-0.867272	0.376904	-0.481835	-0.841299	0.338663	-0.476408	-1.018042	0.238919	-0.439783	-0.990322	0.218531	-0.356493	-1.043553	0.094550	-0.459398	-1.022968	0.092043	-0.353148	-0.990533	0.054152	-0.404216	-1.060416	0.281263	-0.390990	-0.672729	1.395934	-0.154584	-0.572669	1.395843	-0.453057	
46	0.2250	-0.658110	0.915139	-0.190310	-0.638643	0.909098	-0.417639	-0.818656	0.944081	-0.263638	-0.808925	0.950650	-0.361121	-0.661599	0.747371	-0.134399	-0.619075	0.780877	-0.156160	-0.640986	0.716515	-0.134920	-0.597770	0.751319	-0.152348	-0.478017	0.536012	-0.174430	-0.474687	0.521983	-0.281567	-0.557159	0.398367	-0.170715	-0.500151	0.390344	-0.186265	-0.569298	0.352795	-0.177605	-0.517637	0.344315	-0.189812	-0.598169	0.150608	-0.245168	-0.559660	0.168101	-0.321597	-0.489507	0.065371	-0.233844	-0.464052	0.086895	-0.336278	-0.404335	0.101302	-0.274910	-0.656755	0.119862	-0.313180	-0.700306	0.729459	-0.483814	-0.647706	0.730835	-0.469018	-0.693177	0.683628	-0.483914	-0.646363	0.684876	-0.473163	-0.667641	0.437223	-0.464204	-0.672130	0.419993	-0.354421	-0.803692	0.410271	-0.485803	-0.776126	0.371592	-0.483843	-0.846743	0.381058	-0.483656	-0.821386	0.342419	-0.477665	-0.999698	0.245542	-0.442209	-0.972902	0.225017	-0.358729	-1.029151	0.100387	-0.460776	-1.008934	0.097984	-0.354386	-0.977698	0.056729	-0.404969	-1.041032	0.289928	-0.393859	-0.654815	1.396717	-0.152629	-0.555357	1.397357	-0.450962	
47	0.2300	-0.638988	0.915731	-0.188789	-0.619365	0.910462	-0.415842	-0.799410	0.944351	-0.262011	-0.789666	0.951165	-0.359424	-0.643769	0.745660	-0.133163	-0.600654	0.778604	-0.154371	-0.623599	0.714408	-0.133957	-0.579832	0.748695	-0.150724	-0.462887	0.532521	-0.175071	-0.459007	0.518939	-0.281834	-0.539178	0.392231	-0.171526	-0.481723	0.386138	-0.187435	-0.549901	0.346074	-0.178756	-0.497700	0.339363	-0.191226	-0.572084	0.142615	-0.247511	-0.533473	0.161633	-0.323768	-0.460358	0.061340	-0.236393	-0.434718	0.083977	-0.338732	-0.375521	0.100680	-0.277215	-0.629674	0.110168	-0.315973	-0.679611	0.730879	-0.482767	-0.627184	0.732336	-0.467729	-0.672214	0.685088	-0.483068	-0.625583	0.686402	-0.471930	-0.645647	0.438607	-0.464573	-0.651017	0.421044	-0.354794	-0.781891	0.413473	-0.487276	-0.754977	0.374409	-0.484848	-0.825414	0.384980	-0.485407	-0.800681	0.345969	-0.478856	-0.980546	0.252010	-0.444574	-0.954692	0.231385	-0.360892	-1.013399	0.106345	-0.462347	-0.993671	0.103988	-0.355810	-0.963479	0.059641	-0.405907	-1.021038	0.298164	-0.396651	-0.636699	1.397188	-0.150621	-0.538107	1.398584	-0.448920	
48	0.2350	-0.619780	0.915990	-0.187226	-0.599987	0.911546	-0.414043	-0.780099	0.944271	-0.260383	-0.770331	0.951352	-0.357726	-0.625855	0.743496	-0.131983	-0.582113	0.775853	-0.152604	-0.606152	0.711833	-0.133079	-0.561796	0.745576	-0.149138	-0.447818	0.528521	-0.175936	-0.443474	0.515411	-0.282335	-0.521585	0.386083	-0.172558	-0.463802	0.381670	-0.188801	-0.531060	0.339464	-0.180110	-0.478440	0.334298	-0.192817	-0.547465	0.135255	-0.249930	-0.508743	0.155498	-0.326035	-0.433353	0.057748	-0.238737	-0.407488	0.081024	-0.340982	-0.348868	0.099822	-0.279303	-0.604097	0.101360	-0.318856	-0.658587	0.732036	-0.481687	-0.606337	0.733635	-0.466371	-0.650857	0.686301	-0.482182	-0.604406	0.687742	-0.470639	-0.622921	0.439830	-0.464805	-0.629221	0.421957	-0.355047	-0.759294	0.416442	-0.488646	-0.733032	0.377001	-0.485726	-0.803274	0.388660	-0.487067	-0.779170	0.349301	-0.479969	-0.960565	0.258294	-0.446854	-0.935664	0.237590	-0.362968	-0.996265	0.112378	-0.464110	-0.977150	0.109989	-0.357427	-0.947834	0.062864	-0.407045	-1.000416	0.305936	-0.399335	-0.618375	1.397350	-0.148553	-0.520894	1.399524	-0.446926	
49	0.2400	-0.600465	0.915919	-0.185621	-0.580486	0.912338	-0.412246	-0.760704	0.943848	-0.258758	-0.750899	0.951210	-0.356035	-0.607823	0.740926	-0.130867	-0.563428	0.772676	-0.150879	-0.588608	0.708841	-0.132292	-0.543636	0.742020	-0.147612	-0.432767	0.524086	-0.177028	-0.428055	0.511474	-0.283074	-0.504374	0.379986	-0.173813	-0.446371	0.376988	-0.190362	-0.512784	0.333025	-0.181666	-0.459858	0.329162	-0.194583	-0.524393	0.128551	-0.252416	-0.485539	0.149708	-0.328395	-0.408554	0.054571	-0.240865	-0.382406	0.078002	-0.343017	-0.324399	0.098688	-0.281166	-0.580130	0.093448	-0.321815	-0.637226	0.732923	-0.480571	-0.585157	0.734727	-0.464945	-0.629098	0.687260	-0.481254	-0.582822	0.688890	-0.469292	-0.599457	0.440900	-0.464886	-0.606732	0.422740	-0.355166	-0.735893	0.419175	-0.489895	-0.710279	0.379369	-0.486464	-0.780313	0.392089	-0.488616	-0.756838	0.352408	-0.480991	-0.939732	0.264367	-0.449031	-0.915788	0.243585	-0.364943	-0.977725	0.118439	-0.466063	-0.959346	0.115917	-0.359239	-0.930726	0.066362	-0.408398	-0.979146	0.313214	-0.401879	-0.599834	1.397205	-0.146420	-0.503692	1.400181	-0.444971	
50	0.2450	-0.581023	0.915526	-0.183976	-0.560840	0.912834	-0.410455	-0.741205	0.943096	-0.257141	-0.731349	0.950746	-0.354355	-0.589644	0.737999	-0.129824	-0.544581	0.769128	-0.149215	-0.570933	0.705491	-0.131605	-0.525331	0.738089	-0.146166	-0.417702	0.519292	-0.178340	-0.412726	0.507198	-0.284049	-0.487544	0.373999	-0.175284	-0.429419	0.372139	-0.192113	-0.495086	0.326806	-0.183416	-0.441956	0.323994	-0.196520	-0.502929	0.122513	-0.254959	-0.463916	0.144274	-0.330841	-0.385995	0.051785	-0.242771	-0.359498	0.074885	-0.344834	-0.302120	0.097252	-0.282799	-0.557862	0.086433	-0.324835	-0.615521	0.733539	-0.479418	-0.563636	0.735613	-0.463453	-0.606934	0.687968	-0.480281	-0.560825	0.689851	-0.467890	-0.575258	0.441831	-0.464803	-0.583541	0.423405	-0.355139	-0.711688	0.421675	-0.491006	-0.686709	0.381513	-0.487050	-0.756528	0.395265	-0.490035	-0.733675	0.355288	-0.481910	-0.918028	0.270203	-0.451087	-0.895035	0.249326	-0.366807	-0.957766	0.124482	-0.468197	-0.940241	0.121704	-0.361248	-0.912129	0.070096	-0.409973	-0.957206	0.319975	-0.404257	-0.581071	1.396764	-0.144216	-0.486474	1.400560	-0.443051	
51	0.2500	-0.561438	0.914825	-0.182291	-0.541030	0.913035	-0.408674	-0.721587	0.942034	-0.255535	-0.711664	0.949971	-0.352691	-0.571294	0.734768	-0.128860	-0.525560	0.765269	-0.147632	-0.553102	0.701842	-0.131022	-0.506864	0.733843	-0.144819	-0.402602	0.514213	-0.179865	-0.397476	0.502655	-0.285253	-0.471099	0.368173	-0.176961	-0.412936	0.367169	-0.194043	-0.477975	0.320851	-0.185347	-0.424736	0.318835	-0.198617	-0.483119	0.117145	-0.257544	-0.443914	0.139204	-0.333363	-0.365683	0.049362	-0.244453	-0.338766	0.071659	-0.346434	-0.282014	0.095500	-0.284205	-0.537360	0.080305	-0.327896	-0.593473	0.733887	-0.478225	-0.541773	0.736299	-0.461901	-0.584366	0.688430	-0.479262	-0.538418	0.690630	-0.466438	-0.550330	0.442643	-0.464549	-0.559645	0.423971	-0.354955	-0.686682	0.423950	-0.491964	-0.662322	0.383445	-0.487476	-0.731921	0.398191	-0.491308	-0.709676	0.357940	-0.482716	-0.895438	0.275777	-0.453006	-0.873382	0.254772	-0.368549	-0.936386	0.130456	-0.470502	-0.919829	0.127284	-0.363446	-0.892032	0.074019	-0.411776	-0.934576	0.326196	-0.406443	-0.562082	1.396040	-0.141940	-0.469219	1.400671	-0.441159	
52	0.2550	-0.541694	0.913833	-0.180568	-0.521040	0.912945	-0.406908	-0.701834	0.940688	-0.253942	-0.691830	0.948902	-0.351045	-0.552759	0.731290	-0.127980	-0.506357	0.761156	-0.146147	-0.535098	0.697958	-0.130545	-0.488229	0.729348	-0.143589	-0.387459	0.508921	-0.181589	-0.382300	0.497912	-0.286673	-0.455047	0.362554	-0.178827	-0.396921	0.362124	-0.196139	-0.461466	0.315200	-0.187444	-0.408202	0.313720	-0.200862	-0.464988	0.112442	-0.260157	-0.425557	0.134503	-0.335950	-0.347602	0.047276	-0.245917	-0.320189	0.068321	-0.347823	-0.264044	0.093435	-0.285392	-0.518667	0.075042	-0.330975	-0.571086	0.733977	-0.476994	-0.519574	0.736795	-0.460294	-0.561402	0.688658	-0.478195	-0.515607	0.691242	-0.464942	-0.524690	0.443361	-0.464116	-0.535046	0.424459	-0.354608	-0.660887	0.426013	-0.492756	-0.637122	0.385178	-0.487735	-0.706500	0.400873	-0.492423	-0.684842	0.360372	-0.483402	-0.871952	0.281064	-0.454775	-0.850813	0.259884	-0.370162	-0.913595	0.136317	-0.472963	-0.898110	0.132597	-0.365825	-0.870433	0.078076	-0.413807	-0.911238	0.331861	-0.408417	-0.542868	1.395049	-0.139589	-0.451909	1.400529	-0.439291	
53	0.2600	-0.521781	0.912575	-0.178810	-0.500860	0.912577	-0.405159	-0.681936	0.939087	-0.252362	-0.671835	0.947561	-0.349419	-0.534030	0.727623	-0.127185	-0.486974	0.756850	-0.144775	-0.516910	0.693900	-0.130175	-0.469424	0.724666	-0.142491	-0.372278	0.503484	-0.183494	-0.367206	0.493032	-0.288291	-0.439398	0.357180	-0.180860	-0.381375	0.357048	-0.198383	-0.445570	0.309881	-0.189682	-0.392356	0.308683	-0.203237	-0.448543	0.108393	-0.262781	-0.408851	0.130174	-0.338587	-0.331706	0.045497	-0.247172	-0.303725	0.064879	-0.349010	-0.248155	0.091067	-0.286372	-0.501804	0.070615	-0.334050	-0.548373	0.733825	-0.475723	-0.497051	0.737117	-0.458639	-0.538058	0.688668	-0.477080	-0.492408	0.691702	-0.463408	-0.498363	0.444016	-0.463501	-0.509758	0.424899	-0.354092	-0.634328	0.427878	-0.493373	-0.611127	0.386729	-0.487823	-0.680286	0.403319	-0.493369	-0.659187	0.362592	-0.483959	-0.847570	0.286041	-0.456383	-0.827319	0.264626	-0.371639	-0.889419	0.142016	-0.475562	-0.875096	0.137584	-0.368372	-0.847348	0.082215	-0.416060	-0.887182	0.336957	-0.410163	-0.523433	1.393813	-0.137165	-0.434527	1.400149	-0.437441	
54	0.2650	-0.501696	0.911076	-0.177019	-0.480486	0.911948	-0.403432	-0.661887	0.937266	-0.250795	-0.651675	0.945976	-0.347814	-0.515110	0.723823	-0.126479	-0.467421	0.752408	-0.143530	-0.498543	0.689731	-0.129910	-0.450461	0.719857	-0.141534	-0.357075	0.497966	-0.185559	-0.352211	0.488074	-0.290088	-0.424168	0.352083	-0.183032	-0.366303	0.351981	-0.200755	-0.430299	0.304918	-0.192036	-0.377203	0.303756	-0.205724	-0.433769	0.104978	-0.265395	-0.393785	0.126220	-0.341257	-0.317928	0.044000	-0.248228	-0.289310	0.061351	-0.350011	-0.234270	0.088423	-0.287160	-0.486766	0.066985	-0.337093	-0.525356	0.733450	-0.474414	-0.474223	0.737285	-0.456947	-0.514357	0.688482	-0.475917	-0.468845	0.692032	-0.461843	-0.471385	0.444640	-0.462703	-0.483803	0.425317	-0.353407	-0.607039	0.429567	-0.493807	-0.584364	0.388122	-0.487739	-0.653311	0.405542	-0.494136	-0.632733	0.364612	-0.484383	-0.822306	0.290688	-0.457824	-0.802904	0.268968	-0.372976	-0.863898	0.147511	-0.478277	-0.850816	0.142196	-0.371068	-0.822807	0.086376	-0.418523	-0.862406	0.341477	-0.411668	-0.503787	1.392358	-0.134669	-0.417067	1.399553	-0.435607	
55	0.2700	-0.481440	0.909367	-0.175200	-0.459923	0.911078	-0.401729	-0.641689	0.935262	-0.249240	-0.631355	0.944176	-0.346230	-0.496013	0.719948	-0.125860	-0.447717	0.747885	-0.142420	-0.480007	0.685512	-0.129744	-0.431357	0.714982	-0.140728	-0.341877	0.492426	-0.187759	-0.337341	0.483090	-0.292037	-0.409376	0.347286	-0.185314	-0.351716	0.346961	-0.203229	-0.415666	0.300325	-0.194475	-0.362746	0.298965	-0.208298	-0.420633	0.102170	-0.267979	-0.380330	0.122639	-0.343940	-0.306175	0.042757	-0.249103	-0.276863	0.057760	-0.350841	-0.222298	0.085536	-0.287774	-0.473525	0.064108	-0.340077	-0.502063	0.732875	-0.473070	-0.451120	0.737321	-0.455225	-0.490333	0.688125	-0.474708	-0.444952	0.692255	-0.460256	-0.443805	0.445265	-0.461725	-0.457217	0.425746	-0.352551	-0.579069	0.431099	-0.494053	-0.556875	0.389379	-0.487484	-0.625620	0.407557	-0.494719	-0.605518	0.366448	-0.484669	-0.796184	0.294985	-0.459090	-0.777589	0.272885	-0.374170	-0.837091	0.152761	-0.481082	-0.825311	0.146390	-0.373892	-0.796860	0.090505	-0.421179	-0.836923	0.345417	-0.412926	-0.483946	1.390711	-0.132106	-0.399527	1.398763	-0.433787	
56	0.2750	-0.461025	0.907481	-0.173358	-0.439185	0.909993	-0.400053	-0.621352	0.933116	-0.247698	-0.610886	0.942196	-0.344667	-0.476763	0.716052	-0.125324	-0.427892	0.743336	-0.141452	-0.461329	0.681299	-0.129672	-0.412144	0.710094	-0.140076	-0.326723	0.486918	-0.190066	-0.322631	0.478128	-0.294111	-0.395042	0.342806	-0.187672	-0.337626	0.342022	-0.205779	-0.401681	0.296110	-0.196969	-0.348989	0.294336	-0.210935	-0.409082	0.099935	-0.270511	-0.368441	0.119429	-0.346615	-0.296335	0.041741	-0.249814	-0.266281	0.054139	-0.351517	-0.212133	0.082451	-0.288235	-0.462030	0.061931	-0.342974	-0.478536	0.732128	-0.471693	-0.427781	0.737252	-0.453485	-0.466032	0.687623	-0.473456	-0.420774	0.692399	-0.458656	-0.415686	0.445927	-0.460573	-0.430049	0.426216	-0.351530	-0.550481	0.432498	-0.494111	-0.528719	0.390528	-0.487062	-0.597274	0.409381	-0.495117	-0.577597	0.368116	-0.484817	-0.769248	0.298917	-0.460180	-0.751408	0.276358	-0.375221	-0.809072	0.157729	-0.483952	-0.798639	0.150133	-0.376817	-0.769575	0.094545	-0.424005	-0.810760	0.348775	-0.413933	-0.463936	1.388902	-0.129481	-0.381913	1.397805	-0.431978	
57	0.2800	-0.440472	0.905453	-0.171497	-0.418297	0.908724	-0.398407	-0.600894	0.930870	-0.246168	-0.590289	0.940075	-0.343124	-0.457397	0.712186	-0.124869	-0.407985	0.738809	-0.140630	-0.442544	0.677144	-0.129683	-0.392860	0.705245	-0.139578	-0.311662	0.481489	-0.192451	-0.308122	0.473230	-0.296280	-0.381190	0.338653	-0.190072	-0.324051	0.337196	-0.208378	-0.388353	0.292276	-0.199483	-0.335933	0.289888	-0.213608	-0.399048	0.098238	-0.272969	-0.358056	0.116582	-0.349259	-0.288277	0.040928	-0.250380	-0.257449	0.050526	-0.352060	-0.203652	0.079217	-0.288564	-0.452208	0.060400	-0.345756	-0.454824	0.731240	-0.470286	-0.404257	0.737105	-0.451738	-0.441509	0.687009	-0.472163	-0.396368	0.692491	-0.457051	-0.387105	0.446659	-0.459254	-0.402364	0.426757	-0.350350	-0.521356	0.433789	-0.493979	-0.499968	0.391594	-0.486477	-0.568350	0.411032	-0.495327	-0.549037	0.369636	-0.484825	-0.741557	0.302471	-0.461092	-0.724415	0.279375	-0.376128	-0.779939	0.162381	-0.486855	-0.770878	0.153398	-0.379814	-0.741042	0.098445	-0.426972	-0.783961	0.351558	-0.414692	-0.443790	1.386966	-0.126805	-0.364242	1.396706	-0.430182	
58	0.2850	-0.419815	0.903319	-0.169625	-0.397293	0.907303	-0.396793	-0.580345	0.928567	-0.244648	-0.569597	0.937850	-0.341600	-0.437961	0.708398	-0.124488	-0.388045	0.734349	-0.139952	-0.423701	0.673097	-0.129769	-0.373557	0.700480	-0.139231	-0.296749	0.476180	-0.194883	-0.293863	0.468431	-0.298511	-0.367844	0.334829	-0.192478	-0.311008	0.332511	-0.210995	-0.375691	0.288816	-0.201984	-0.323582	0.285639	-0.216288	-0.390446	0.097034	-0.275331	-0.349099	0.114090	-0.351848	-0.281857	0.040292	-0.250822	-0.250238	0.046959	-0.352489	-0.196725	0.075888	-0.288782	-0.443969	0.059453	-0.348397	-0.430990	0.730242	-0.468856	-0.380609	0.736910	-0.449995	-0.416830	0.686313	-0.470834	-0.371801	0.692559	-0.455452	-0.358153	0.447491	-0.457779	-0.374246	0.427398	-0.349018	-0.491789	0.434993	-0.493662	-0.470714	0.392605	-0.485738	-0.538941	0.412529	-0.495352	-0.519929	0.371025	-0.484694	-0.713192	0.305637	-0.461829	-0.696687	0.281930	-0.376893	-0.749805	0.166690	-0.489761	-0.742125	0.156172	-0.382852	-0.711371	0.102158	-0.430048	-0.756589	0.353775	-0.415209	-0.423550	1.384936	-0.124086	-0.346539	1.395495	-0.428399	
59	0.2900	-0.399095	0.901116	-0.167750	-0.376221	0.905765	-0.395215	-0.559746	0.926248	-0.243138	-0.548854	0.935563	-0.340094	-0.418517	0.704729	-0.124174	-0.368134	0.729995	-0.139415	-0.404860	0.669200	-0.129917	-0.354297	0.695840	-0.139027	-0.282047	0.471028	-0.197330	-0.279906	0.463763	-0.300772	-0.355031	0.331333	-0.194857	-0.298519	0.327991	-0.213600	-0.363702	0.285721	-0.204440	-0.311935	0.281605	-0.218946	-0.383181	0.096279	-0.277575	-0.341482	0.111943	-0.354358	-0.276919	0.039811	-0.251159	-0.244508	0.043482	-0.352824	-0.191214	0.072520	-0.288912	-0.437205	0.059029	-0.350872	-0.407107	0.729169	-0.467406	-0.356908	0.736694	-0.448267	-0.392076	0.685568	-0.469473	-0.347154	0.692630	-0.453866	-0.328940	0.448450	-0.456162	-0.345791	0.428163	-0.347546	-0.461895	0.436136	-0.493165	-0.441066	0.393586	-0.484854	-0.509159	0.413892	-0.495198	-0.490378	0.372304	-0.484428	-0.684252	0.308410	-0.462394	-0.668318	0.284025	-0.377519	-0.718808	0.170632	-0.492638	-0.712499	0.158446	-0.385898	-0.680696	0.105644	-0.433197	-0.728728	0.355438	-0.415496	-0.403269	1.382848	-0.121338	-0.328839	1.394202	-0.426631	
60	0.2950	-0.378368	0.898880	-0.165880	-0.355141	0.904144	-0.393675	-0.539148	0.923954	-0.241639	-0.528114	0.933253	-0.338607	-0.399133	0.701217	-0.123920	-0.348321	0.725782	-0.139011	-0.386092	0.665488	-0.130115	-0.335148	0.691359	-0.138956	-0.267625	0.466062	-0.199761	-0.266307	0.459249	-0.303031	-0.342776	0.328158	-0.197174	-0.286604	0.323657	-0.216164	-0.352391	0.282975	-0.206818	-0.300992	0.277795	-0.221555	-0.377144	0.095924	-0.279683	-0.335107	0.110127	-0.356767	-0.273300	0.039461	-0.251411	-0.240111	0.040133	-0.353081	-0.186972	0.069169	-0.288973	-0.431794	0.059066	-0.353160	-0.383258	0.728054	-0.465944	-0.333238	0.736486	-0.446565	-0.367338	0.684806	-0.468088	-0.322517	0.692731	-0.452304	-0.299587	0.449558	-0.454417	-0.317116	0.429072	-0.345948	-0.431801	0.437236	-0.492498	-0.411151	0.394560	-0.483837	-0.479132	0.415138	-0.494872	-0.460510	0.373491	-0.484031	-0.654858	0.310788	-0.462795	-0.639427	0.285668	-0.378010	-0.687103	0.174191	-0.495455	-0.682137	0.160227	-0.388918	-0.649174	0.108868	-0.436378	-0.700483	0.356568	-0.415567	-0.383010	1.380738	-0.118574	-0.311189	1.392856	-0.424882	
61	0.3000	-0.357701	0.896646	-0.164024	-0.334123	0.902477	-0.392175	-0.518616	0.921725	-0.240151	-0.507444	0.930959	-0.337138	-0.379891	0.697893	-0.123716	-0.328685	0.721740	-0.138730	-0.367476	0.661993	-0.130349	-0.316190	0.687069	-0.139004	-0.253553	0.461308	-0.202146	-0.253123	0.454912	-0.305256	-0.331104	0.325293	-0.199399	-0.275284	0.319527	-0.218658	-0.341760	0.280561	-0.209090	-0.290751	0.274218	-0.224087	-0.372222	0.095920	-0.281637	-0.329867	0.108625	-0.359053	-0.270833	0.039224	-0.251597	-0.236898	0.036951	-0.353279	-0.183854	0.065889	-0.288983	-0.427606	0.059501	-0.355244	-0.359540	0.726929	-0.464477	-0.309694	0.736310	-0.444900	-0.342716	0.684056	-0.466685	-0.297992	0.692885	-0.450774	-0.270230	0.450832	-0.452564	-0.288352	0.430141	-0.344240	-0.401654	0.438315	-0.491669	-0.381112	0.395547	-0.482701	-0.449005	0.416287	-0.494382	-0.430467	0.374606	-0.483510	-0.625150	0.312776	-0.463040	-0.610151	0.286873	-0.378372	-0.654868	0.177356	-0.498182	-0.651200	0.161525	-0.391879	-0.616981	0.111804	-0.439552	-0.671977	0.357188	-0.415440	-0.362844	1.378638	-0.115810	-0.293645	1.391487	-0.423155	
62	0.3050	-0.337172	0.894447	-0.162191	-0.313250	0.900798	-0.390720	-0.498225	0.919593	-0.238676	-0.486923	0.928718	-0.335689	-0.360877	0.694783	-0.123553	-0.309312	0.717894	-0.138560	-0.349099	0.658737	-0.130607	-0.297508	0.682992	-0.139156	-0.239904	0.456786	-0.204457	-0.240410	0.450768	-0.307418	-0.320039	0.322722	-0.201505	-0.264579	0.315615	-0.221057	-0.331810	0.278456	-0.211231	-0.281207	0.270879	-0.226517	-0.368296	0.096217	-0.283423	-0.325651	0.107419	-0.361197	-0.269353	0.039079	-0.251732	-0.234715	0.033970	-0.353432	-0.181712	0.062729	-0.288959	-0.424503	0.060271	-0.357109	-0.336056	0.725826	-0.463012	-0.286377	0.736191	-0.443282	-0.318322	0.683346	-0.465271	-0.273692	0.693112	-0.449285	-0.241018	0.452282	-0.450620	-0.259644	0.431379	-0.342437	-0.371610	0.439387	-0.490694	-0.351107	0.396564	-0.481459	-0.418935	0.417354	-0.493741	-0.400407	0.375664	-0.482873	-0.595286	0.314380	-0.463138	-0.580649	0.287662	-0.378612	-0.622297	0.180121	-0.500789	-0.619867	0.162362	-0.394747	-0.584315	0.114432	-0.442678	-0.643354	0.357328	-0.415135	-0.342852	1.376582	-0.113062	-0.276270	1.390124	-0.421457	
63	0.3100	-0.316870	0.892313	-0.160394	-0.292614	0.899141	-0.389311	-0.478059	0.917590	-0.237217	-0.466636	0.926564	-0.334262	-0.342188	0.691906	-0.123423	-0.290294	0.714261	-0.138487	-0.331056	0.655739	-0.130877	-0.279194	0.679147	-0.139394	-0.226748	0.452510	-0.206668	-0.228225	0.446830	-0.309489	-0.309604	0.320430	-0.203469	-0.254508	0.311933	-0.223335	-0.322539	0.276637	-0.213219	-0.272354	0.267782	-0.228823	-0.365246	0.096767	-0.285030	-0.322344	0.106489	-0.363182	-0.268697	0.039010	-0.251832	-0.233413	0.031218	-0.353554	-0.180403	0.059736	-0.288915	-0.422345	0.061317	-0.358747	-0.312918	0.724773	-0.461558	-0.263400	0.736146	-0.441721	-0.294276	0.682701	-0.463856	-0.249736	0.693427	-0.447843	-0.212110	0.453910	-0.448608	-0.231151	0.432789	-0.340560	-0.341839	0.440465	-0.489586	-0.321306	0.397624	-0.480129	-0.389093	0.418355	-0.492963	-0.370503	0.376679	-0.482131	-0.565442	0.315615	-0.463103	-0.551096	0.288064	-0.378738	-0.589599	0.182488	-0.503251	-0.588335	0.162768	-0.397491	-0.551394	0.116743	-0.445716	-0.614773	0.357021	-0.414676	-0.323126	1.374600	-0.110348	-0.259140	1.388791	-0.419792	
64	0.3150	-0.296891	0.890271	-0.158641	-0.272316	0.897535	-0.387952	-0.458213	0.915741	-0.235778	-0.446681	0.924527	-0.332858	-0.323921	0.689275	-0.123317	-0.271728	0.710857	-0.138494	-0.313443	0.653008	-0.131146	-0.261341	0.675548	-0.139700	-0.214154	0.448493	-0.208756	-0.216618	0.443108	-0.311446	-0.299816	0.318397	-0.205270	-0.245084	0.308489	-0.225473	-0.313944	0.275080	-0.215038	-0.264183	0.264927	-0.230984	-0.362951	0.097521	-0.286450	-0.319831	0.105812	-0.364995	-0.268710	0.039001	-0.251909	-0.232845	0.028719	-0.353655	-0.179787	0.056945	-0.288862	-0.420992	0.062582	-0.360153	-0.290243	0.723794	-0.460123	-0.240879	0.736192	-0.440225	-0.270702	0.682141	-0.462447	-0.226249	0.693843	-0.446457	-0.183672	0.455714	-0.446548	-0.203040	0.434368	-0.338627	-0.312519	0.441559	-0.488364	-0.291888	0.398737	-0.478726	-0.359659	0.419303	-0.492064	-0.340938	0.377665	-0.481296	-0.535803	0.316498	-0.462947	-0.521681	0.288109	-0.378757	-0.557000	0.184464	-0.505546	-0.556817	0.162777	-0.400085	-0.518448	0.118731	-0.448629	-0.586408	0.356306	-0.414086	-0.303759	1.372719	-0.107686	-0.242333	1.387512	-0.418168	
65	0.3200	-0.277339	0.888344	-0.156942	-0.252462	0.896009	-0.386648	-0.438787	0.914066	-0.234364	-0.427159	0.922632	-0.331483	-0.306178	0.686899	-0.123227	-0.253713	0.707691	-0.138566	-0.296359	0.650551	-0.131404	-0.244045	0.672203	-0.140055	-0.202183	0.444742	-0.210702	-0.205637	0.439610	-0.313269	-0.290689	0.316605	-0.206896	-0.236320	0.305289	-0.227453	-0.306017	0.273759	-0.216674	-0.256682	0.262312	-0.232985	-0.361297	0.098433	-0.287681	-0.317998	0.105364	-0.366627	-0.269245	0.039038	-0.251974	-0.232874	0.026488	-0.353743	-0.179734	0.054388	-0.288811	-0.420307	0.064011	-0.361329	-0.268154	0.722909	-0.458716	-0.218935	0.736338	-0.438801	-0.247731	0.681682	-0.461053	-0.203361	0.694366	-0.445131	-0.155875	0.457682	-0.444464	-0.175485	0.436106	-0.336662	-0.283830	0.442675	-0.487044	-0.263042	0.399904	-0.477271	-0.330818	0.420209	-0.491060	-0.311900	0.378629	-0.480380	-0.506570	0.317051	-0.462684	-0.492605	0.287835	-0.378681	-0.524732	0.186064	-0.507654	-0.525536	0.162430	-0.402504	-0.485722	0.120403	-0.451383	-0.558444	0.355226	-0.413390	-0.284854	1.370962	-0.105093	-0.225935	1.386308	-0.416592	
66	0.3250	-0.258322	0.886551	-0.155310	-0.233164	0.894583	-0.385400	-0.419889	0.912579	-0.232979	-0.408178	0.920899	-0.330140	-0.289060	0.684778	-0.123147	-0.236345	0.704770	-0.138686	-0.279901	0.648366	-0.131643	-0.227399	0.669118	-0.140441	-0.190892	0.441261	-0.212492	-0.195322	0.436341	-0.314941	-0.282236	0.315033	-0.208337	-0.228223	0.302336	-0.229263	-0.298749	0.272648	-0.218121	-0.249837	0.259933	-0.234814	-0.360173	0.099460	-0.288724	-0.316737	0.105119	-0.368071	-0.270170	0.039109	-0.252034	-0.233369	0.024534	-0.353826	-0.180122	0.052086	-0.288768	-0.420161	0.065556	-0.362280	-0.246772	0.722136	-0.457346	-0.197689	0.736591	-0.437456	-0.225490	0.681335	-0.459686	-0.181201	0.694997	-0.443873	-0.128890	0.459797	-0.442377	-0.148663	0.437987	-0.334684	-0.255957	0.443813	-0.485649	-0.234953	0.401127	-0.475780	-0.302757	0.421081	-0.489970	-0.283584	0.379580	-0.479398	-0.477943	0.317300	-0.462329	-0.464074	0.287282	-0.378519	-0.493032	0.187305	-0.509562	-0.494725	0.161774	-0.404727	-0.453464	0.121768	-0.453950	-0.531070	0.353829	-0.412614	-0.266513	1.369347	-0.102587	-0.210034	1.385196	-0.415071	
67	0.3300	-0.239949	0.884906	-0.153752	-0.214533	0.893278	-0.384213	-0.401624	0.911290	-0.231631	-0.389845	0.919343	-0.328835	-0.272664	0.682911	-0.123069	-0.219719	0.702094	-0.138839	-0.264162	0.646447	-0.131855	-0.211495	0.666294	-0.140841	-0.180329	0.438053	-0.214113	-0.185707	0.433305	-0.316451	-0.274460	0.313661	-0.209590	-0.220796	0.299631	-0.230893	-0.292124	0.271724	-0.219376	-0.243629	0.257785	-0.236462	-0.359476	0.100564	-0.289581	-0.315944	0.105053	-0.369327	-0.271363	0.039204	-0.252095	-0.234213	0.022858	-0.353908	-0.180840	0.050053	-0.288737	-0.420432	0.067171	-0.363016	-0.226219	0.721484	-0.456022	-0.177262	0.736950	-0.436196	-0.204108	0.681106	-0.458353	-0.159897	0.695732	-0.442686	-0.102886	0.462035	-0.440312	-0.122748	0.439989	-0.332716	-0.229077	0.444971	-0.484198	-0.207809	0.402400	-0.474274	-0.275659	0.421924	-0.488814	-0.256179	0.380521	-0.478366	-0.450126	0.317276	-0.461899	-0.436298	0.286493	-0.378284	-0.462140	0.188213	-0.511261	-0.464618	0.160856	-0.406742	-0.421928	0.122842	-0.456305	-0.504478	0.352163	-0.411782	-0.248840	1.367888	-0.100184	-0.194719	1.384190	-0.413612	
68	0.3350	-0.222328	0.883419	-0.152277	-0.196679	0.892105	-0.383090	-0.384101	0.910199	-0.230325	-0.372268	0.917974	-0.327573	-0.257082	0.681290	-0.122989	-0.203924	0.699661	-0.139010	-0.249229	0.644786	-0.132035	-0.196415	0.663727	-0.141240	-0.170530	0.435115	-0.215560	-0.176816	0.430502	-0.317792	-0.267362	0.312471	-0.210654	-0.214034	0.297171	-0.232338	-0.286129	0.270963	-0.220441	-0.238040	0.255860	-0.237926	-0.359113	0.101708	-0.290263	-0.315526	0.105138	-0.370396	-0.272720	0.039312	-0.252161	-0.235299	0.021455	-0.353993	-0.181788	0.048294	-0.288722	-0.421009	0.068814	-0.363553	-0.206609	0.720961	-0.454752	-0.157769	0.737413	-0.435023	-0.183706	0.680998	-0.457064	-0.139570	0.696564	-0.441575	-0.078022	0.464368	-0.438288	-0.097908	0.442086	-0.330778	-0.203362	0.446146	-0.482714	-0.181788	0.403715	-0.472770	-0.249700	0.422743	-0.487612	-0.229873	0.381453	-0.477300	-0.423319	0.317011	-0.461409	-0.409481	0.285511	-0.377986	-0.432287	0.188815	-0.512746	-0.435445	0.159727	-0.408537	-0.391362	0.123649	-0.458431	-0.478856	0.350282	-0.410916	-0.231935	1.366595	-0.097900	-0.180076	1.383297	-0.412223	
69	0.3400	-0.205564	0.882096	-0.150893	-0.179705	0.891075	-0.382034	-0.367421	0.909305	-0.229071	-0.355547	0.916795	-0.326361	-0.242396	0.679904	-0.122905	-0.189041	0.697469	-0.139187	-0.235180	0.643369	-0.132179	-0.182235	0.661413	-0.141623	-0.161525	0.432445	-0.216830	-0.168665	0.427932	-0.318962	-0.260934	0.311445	-0.211536	-0.207929	0.294952	-0.233599	-0.280741	0.270342	-0.221323	-0.233044	0.254150	-0.239206	-0.359001	0.102861	-0.290779	-0.315395	0.105349	-0.371285	-0.274151	0.039427	-0.252235	-0.236534	0.020314	-0.354080	-0.182880	0.046808	-0.288724	-0.421795	0.070451	-0.363906	-0.188049	0.720567	-0.453544	-0.139316	0.737971	-0.433942	-0.164396	0.681006	-0.455830	-0.120332	0.697480	-0.440543	-0.054448	0.466763	-0.436328	-0.074302	0.444248	-0.328892	-0.178970	0.447328	-0.481217	-0.157057	0.405058	-0.471288	-0.225045	0.423538	-0.486383	-0.204836	0.382374	-0.476217	-0.397710	0.316541	-0.460875	-0.383818	0.284380	-0.377638	-0.403695	0.189144	-0.514018	-0.407431	0.158436	-0.410109	-0.362004	0.124213	-0.460317	-0.454382	0.348238	-0.410039	-0.215893	1.365472	-0.095749	-0.166187	1.382524	-0.410910	
70	0.3450	-0.189750	0.880937	-0.149607	-0.163708	0.890190	-0.381048	-0.351679	0.908599	-0.227873	-0.339778	0.915804	-0.325206	-0.228677	0.678737	-0.122813	-0.175139	0.695508	-0.139359	-0.222081	0.642178	-0.132287	-0.169018	0.659343	-0.141981	-0.153327	0.430036	-0.217926	-0.161261	0.425592	-0.319962	-0.255164	0.310563	-0.212245	-0.202467	0.292968	-0.234679	-0.275938	0.269842	-0.222031	-0.228615	0.252644	-0.240305	-0.359068	0.103995	-0.291145	-0.315475	0.105659	-0.372004	-0.275583	0.039543	-0.252317	-0.237840	0.019417	-0.354172	-0.184044	0.045583	-0.288743	-0.422705	0.072049	-0.364097	-0.170635	0.720299	-0.452404	-0.121998	0.738611	-0.432953	-0.146279	0.681124	-0.454656	-0.102283	0.698463	-0.439590	-0.032296	0.469185	-0.434451	-0.052070	0.446442	-0.327076	-0.156043	0.448507	-0.479731	-0.133766	0.406416	-0.469845	-0.201842	0.424309	-0.485148	-0.181227	0.383281	-0.475134	-0.373472	0.315903	-0.460313	-0.359490	0.283145	-0.377252	-0.376568	0.189234	-0.515083	-0.380783	0.157033	-0.411458	-0.334074	0.124564	-0.461959	-0.431222	0.346085	-0.409171	-0.200801	1.364519	-0.093741	-0.153126	1.381872	-0.409678	
71	0.3500	-0.174972	0.879940	-0.148423	-0.148772	0.889450	-0.380134	-0.336960	0.908069	-0.226741	-0.325043	0.914995	-0.324114	-0.215984	0.677772	-0.122713	-0.162276	0.693770	-0.139516	-0.209985	0.641195	-0.132357	-0.156816	0.657507	-0.142304	-0.145940	0.427881	-0.218852	-0.154600	0.423481	-0.320798	-0.250034	0.309812	-0.212793	-0.197625	0.291211	-0.235585	-0.271693	0.269444	-0.222580	-0.224723	0.251331	-0.241231	-0.359252	0.105088	-0.291377	-0.315701	0.106044	-0.372565	-0.276958	0.039656	-0.252407	-0.239151	0.018743	-0.354266	-0.185218	0.044606	-0.288776	-0.423669	0.073583	-0.364148	-0.154448	0.720149	-0.451340	-0.105896	0.739318	-0.432057	-0.129440	0.681339	-0.453553	-0.085508	0.699495	-0.438720	-0.011679	0.471598	-0.432672	-0.031336	0.448634	-0.325349	-0.134700	0.449671	-0.478275	-0.112044	0.407770	-0.468458	-0.180216	0.425054	-0.483927	-0.159182	0.384168	-0.474067	-0.350759	0.315134	-0.459737	-0.336657	0.281847	-0.376841	-0.351088	0.189123	-0.515950	-0.355688	0.155565	-0.412592	-0.307773	0.124731	-0.463358	-0.409521	0.343875	-0.408328	-0.186733	1.363730	-0.091886	-0.140959	1.381338	-0.408534	
72	0.3550	-0.161300	0.879097	-0.147344	-0.134966	0.888848	-0.379295	-0.323335	0.907699	-0.225680	-0.311412	0.914356	-0.323090	-0.204360	0.676992	-0.122606	-0.150493	0.692243	-0.139653	-0.198929	0.640400	-0.132393	-0.145664	0.655894	-0.142587	-0.139357	0.425970	-0.219619	-0.148670	0.421590	-0.321479	-0.245519	0.309176	-0.213196	-0.193379	0.289670	-0.236329	-0.267976	0.269132	-0.222984	-0.221335	0.250198	-0.241994	-0.359503	0.106121	-0.291492	-0.316017	0.106482	-0.372984	-0.278232	0.039760	-0.252502	-0.240416	0.018269	-0.354362	-0.186354	0.043855	-0.288822	-0.424628	0.075032	-0.364083	-0.139551	0.720107	-0.450356	-0.091074	0.740074	-0.431253	-0.113945	0.681637	-0.452525	-0.070074	0.700556	-0.437931	0.007312	0.473966	-0.431008	-0.012198	0.450789	-0.323725	-0.115038	0.450807	-0.476868	-0.091995	0.409103	-0.467140	-0.160268	0.425768	-0.482738	-0.138811	0.385029	-0.473032	-0.329699	0.314272	-0.459160	-0.315455	0.280524	-0.376416	-0.327410	0.188848	-0.516634	-0.332308	0.154076	-0.413522	-0.283272	0.124746	-0.464523	-0.389402	0.341659	-0.407526	-0.173749	1.363098	-0.090191	-0.129737	1.380917	-0.407481	
73	0.3600	-0.148787	0.878400	-0.146373	-0.122342	0.888378	-0.378532	-0.310858	0.907469	-0.224696	-0.298937	0.913873	-0.322141	-0.193832	0.676374	-0.122491	-0.139818	0.690915	-0.139766	-0.188936	0.639770	-0.132398	-0.135584	0.654489	-0.142827	-0.133559	0.424292	-0.220237	-0.143450	0.419915	-0.322018	-0.241589	0.308641	-0.213471	-0.189695	0.288334	-0.236923	-0.264754	0.268890	-0.223262	-0.218417	0.249231	-0.242609	-0.359781	0.107080	-0.291511	-0.316379	0.106950	-0.373277	-0.279376	0.039856	-0.252601	-0.241597	0.017966	-0.354458	-0.187418	0.043306	-0.288878	-0.425540	0.076378	-0.363925	-0.125988	0.720158	-0.449456	-0.077578	0.740860	-0.430539	-0.099841	0.682002	-0.451579	-0.056026	0.701623	-0.437224	0.024615	0.476252	-0.429469	0.005271	0.452876	-0.322217	-0.097124	0.451902	-0.475529	-0.073697	0.410397	-0.465906	-0.142073	0.426448	-0.481598	-0.120197	0.385856	-0.472042	-0.310392	0.313351	-0.458596	-0.295990	0.279211	-0.375987	-0.305654	0.188445	-0.517151	-0.310773	0.152604	-0.414261	-0.260707	0.124640	-0.465467	-0.370957	0.339481	-0.406776	-0.161896	1.362610	-0.088660	-0.119498	1.380601	-0.406523	
74	0.3650	-0.137469	0.877837	-0.145508	-0.110934	0.888026	-0.377844	-0.299565	0.907360	-0.223795	-0.287654	0.913529	-0.321270	-0.184408	0.675898	-0.122372	-0.130257	0.689771	-0.139852	-0.180010	0.639285	-0.132375	-0.126578	0.653278	-0.143022	-0.128515	0.422834	-0.220722	-0.138908	0.418445	-0.322428	-0.238208	0.308195	-0.213637	-0.186539	0.287189	-0.237382	-0.261993	0.268707	-0.223433	-0.215933	0.248417	-0.243090	-0.360058	0.107954	-0.291451	-0.316750	0.107429	-0.373463	-0.280373	0.039940	-0.252702	-0.242666	0.017806	-0.354551	-0.188383	0.042932	-0.288941	-0.426373	0.077610	-0.363697	-0.113784	0.720286	-0.448642	-0.065431	0.741657	-0.429912	-0.087151	0.682416	-0.450717	-0.043389	0.702675	-0.436596	0.040194	0.478425	-0.428066	0.021026	0.454864	-0.320835	-0.080996	0.452941	-0.474273	-0.057196	0.411634	-0.464764	-0.125674	0.427088	-0.480521	-0.103394	0.386640	-0.471110	-0.292905	0.312405	-0.458055	-0.278336	0.277941	-0.375566	-0.285907	0.187951	-0.517520	-0.291180	0.151185	-0.414828	-0.240182	0.124442	-0.466207	-0.354253	0.337385	-0.406087	-0.151200	1.362250	-0.087293	-0.110266	1.380378	-0.405659	
75	0.3700	-0.127360	0.877393	-0.144748	-0.100754	0.887779	-0.377232	-0.289474	0.907348	-0.222978	-0.277576	0.913305	-0.320481	-0.176079	0.675543	-0.122251	-0.121803	0.688798	-0.139911	-0.172139	0.638922	-0.132330	-0.118634	0.652247	-0.143174	-0.124186	0.421582	-0.221088	-0.135008	0.417171	-0.322727	-0.235337	0.307826	-0.213714	-0.183869	0.286220	-0.237724	-0.259655	0.268569	-0.223515	-0.213842	0.247741	-0.243452	-0.360312	0.108737	-0.291332	-0.317107	0.107904	-0.373559	-0.281215	0.040013	-0.252802	-0.243607	0.017763	-0.354641	-0.189234	0.042705	-0.289007	-0.427107	0.078720	-0.363421	-0.102939	0.720475	-0.447915	-0.054635	0.742444	-0.429368	-0.075879	0.682860	-0.449943	-0.032163	0.703691	-0.436045	0.054042	0.480457	-0.426803	0.035054	0.456726	-0.319586	-0.066662	0.453915	-0.473112	-0.042506	0.412797	-0.463724	-0.111084	0.427684	-0.479520	-0.088419	0.387374	-0.470246	-0.277272	0.311465	-0.457546	-0.262535	0.276738	-0.375161	-0.268217	0.187399	-0.517763	-0.273586	0.149847	-0.415243	-0.221755	0.124181	-0.466766	-0.339322	0.335405	-0.405466	-0.141668	1.362004	-0.086089	-0.102046	1.380236	-0.404892	
76	0.3750	-0.118457	0.877055	-0.144090	-0.091796	0.887621	-0.376694	-0.280578	0.907413	-0.222249	-0.268699	0.913180	-0.319776	-0.168820	0.675289	-0.122130	-0.114431	0.687980	-0.139946	-0.165293	0.638660	-0.132268	-0.111723	0.651378	-0.143286	-0.120523	0.420521	-0.221354	-0.131706	0.416080	-0.322931	-0.232933	0.307525	-0.213720	-0.181643	0.285411	-0.237966	-0.257701	0.268469	-0.223527	-0.212108	0.247188	-0.243715	-0.360531	0.109427	-0.291172	-0.317430	0.108359	-0.373585	-0.281906	0.040074	-0.252899	-0.244413	0.017807	-0.354725	-0.189965	0.042596	-0.289075	-0.427731	0.079704	-0.363119	-0.093434	0.720706	-0.447275	-0.045171	0.743203	-0.428902	-0.066001	0.683318	-0.449257	-0.022328	0.704653	-0.435567	0.066181	0.482324	-0.425683	0.047370	0.458439	-0.318474	-0.054100	0.454811	-0.472057	-0.029610	0.413874	-0.462791	-0.098282	0.428230	-0.478606	-0.075260	0.388052	-0.469459	-0.263492	0.310556	-0.457077	-0.248591	0.275623	-0.374780	-0.252593	0.186821	-0.517901	-0.258011	0.148612	-0.415529	-0.205448	0.123880	-0.467167	-0.326161	0.333571	-0.404916	-0.133292	1.361852	-0.085043	-0.094828	1.380163	-0.404218	
77	0.3800	-0.110731	0.876805	-0.143528	-0.084030	0.887536	-0.376228	-0.272856	0.907533	-0.221608	-0.260996	0.913134	-0.319156	-0.162589	0.675117	-0.122013	-0.108096	0.687301	-0.139959	-0.159429	0.638481	-0.132195	-0.105801	0.650657	-0.143362	-0.117474	0.419633	-0.221534	-0.128951	0.415159	-0.323056	-0.230952	0.307282	-0.213674	-0.179816	0.284747	-0.238125	-0.256092	0.268398	-0.223488	-0.210689	0.246743	-0.243893	-0.360708	0.110024	-0.290986	-0.317709	0.108784	-0.373558	-0.282453	0.040124	-0.252989	-0.245084	0.017915	-0.354802	-0.190575	0.042579	-0.289141	-0.428245	0.080562	-0.362807	-0.085228	0.720964	-0.446719	-0.036997	0.743919	-0.428508	-0.057475	0.683771	-0.448659	-0.013840	0.705544	-0.435159	0.076663	0.484008	-0.424706	0.058020	0.459988	-0.317500	-0.043255	0.455623	-0.471113	-0.018461	0.414851	-0.461967	-0.087220	0.428725	-0.477784	-0.063873	0.388667	-0.468754	-0.251532	0.309702	-0.456653	-0.236473	0.274613	-0.374429	-0.239004	0.186242	-0.517955	-0.244434	0.147496	-0.415708	-0.191237	0.123564	-0.467435	-0.314739	0.331906	-0.404437	-0.126039	1.361777	-0.084149	-0.088584	1.380143	-0.403636	
78	0.3850	-0.104138	0.876630	-0.143057	-0.077409	0.887509	-0.375830	-0.266261	0.907688	-0.221054	-0.254421	0.913147	-0.318618	-0.157327	0.675009	-0.121902	-0.102743	0.686747	-0.139954	-0.154488	0.638366	-0.132115	-0.100809	0.650066	-0.143408	-0.114979	0.418902	-0.221647	-0.126691	0.414394	-0.323121	-0.229345	0.307088	-0.213591	-0.178342	0.284211	-0.238218	-0.254788	0.268349	-0.223413	-0.209549	0.246391	-0.244005	-0.360842	0.110530	-0.290790	-0.317939	0.109171	-0.373493	-0.282871	0.040164	-0.253072	-0.245629	0.018064	-0.354871	-0.191071	0.042628	-0.289203	-0.428652	0.081296	-0.362501	-0.078258	0.721232	-0.446245	-0.030054	0.744578	-0.428181	-0.050236	0.684206	-0.448145	-0.006633	0.706353	-0.434815	0.085565	0.485499	-0.423868	0.067077	0.461360	-0.316662	-0.034049	0.456343	-0.470285	-0.008981	0.415723	-0.461253	-0.077819	0.429164	-0.477060	-0.054182	0.389215	-0.468135	-0.241323	0.308919	-0.456277	-0.226120	0.273718	-0.374112	-0.227383	0.185685	-0.517947	-0.232798	0.146511	-0.415801	-0.179062	0.123248	-0.467595	-0.304991	0.330426	-0.404030	-0.119862	1.361761	-0.083397	-0.083273	1.380165	-0.403141	
79	0.3900	-0.098614	0.876513	-0.142669	-0.071866	0.887523	-0.375496	-0.260732	0.907862	-0.220583	-0.248912	0.913202	-0.318161	-0.152964	0.674949	-0.121799	-0.098301	0.686301	-0.139936	-0.150401	0.638301	-0.132034	-0.096677	0.649591	-0.143430	-0.112975	0.418311	-0.221708	-0.124872	0.413769	-0.323139	-0.228067	0.306936	-0.213488	-0.177175	0.283786	-0.238261	-0.253750	0.268316	-0.223317	-0.208648	0.246120	-0.244065	-0.360935	0.110950	-0.290595	-0.318121	0.109513	-0.373406	-0.283177	0.040194	-0.253146	-0.246056	0.018233	-0.354931	-0.191461	0.042720	-0.289259	-0.428962	0.081913	-0.362213	-0.072445	0.721496	-0.445847	-0.024263	0.745170	-0.427913	-0.044200	0.684610	-0.447712	-0.000626	0.707070	-0.434531	0.092987	0.486791	-0.423162	0.074638	0.462550	-0.315953	-0.026375	0.456971	-0.469573	-0.001068	0.416483	-0.460645	-0.069976	0.429546	-0.476435	-0.046086	0.389693	-0.467601	-0.232771	0.308220	-0.455952	-0.217437	0.272942	-0.373834	-0.217627	0.185169	-0.517894	-0.223010	0.145661	-0.415831	-0.168824	0.122949	-0.467672	-0.296825	0.329138	-0.403689	-0.114697	1.361787	-0.082776	-0.078836	1.380214	-0.402728	
80	0.3950	-0.094080	0.876442	-0.142355	-0.067321	0.887565	-0.375222	-0.256190	0.908040	-0.220191	-0.244389	0.913283	-0.317780	-0.149421	0.674924	-0.121707	-0.094690	0.685949	-0.139908	-0.147089	0.638270	-0.131956	-0.093326	0.649215	-0.143434	-0.111399	0.417841	-0.221730	-0.123436	0.413269	-0.323126	-0.227071	0.306819	-0.213375	-0.176270	0.283457	-0.238269	-0.252941	0.268296	-0.223212	-0.207951	0.245914	-0.244088	-0.360993	0.111292	-0.290412	-0.318258	0.109807	-0.373307	-0.283390	0.040217	-0.253211	-0.246381	0.018407	-0.354982	-0.191759	0.042837	-0.289309	-0.429188	0.082420	-0.361952	-0.067695	0.721746	-0.445521	-0.019530	0.745688	-0.427699	-0.039270	0.684973	-0.447354	0.004280	0.707691	-0.434300	0.099051	0.487886	-0.422581	0.080821	0.463560	-0.315367	-0.020109	0.457505	-0.468973	0.005402	0.417132	-0.460139	-0.063566	0.429872	-0.475907	-0.039460	0.390103	-0.467152	-0.225752	0.307613	-0.455677	-0.210304	0.272286	-0.373594	-0.209606	0.184705	-0.517815	-0.214945	0.144944	-0.415816	-0.160392	0.122677	-0.467689	-0.290124	0.328044	-0.403412	-0.110465	1.361841	-0.082274	-0.075205	1.380281	-0.402389	
81	0.4000	-0.090443	0.876405	-0.142108	-0.063677	0.887622	-0.375002	-0.252545	0.908209	-0.219873	-0.240761	0.913375	-0.317471	-0.146608	0.674921	-0.121627	-0.091820	0.685677	-0.139875	-0.144466	0.638262	-0.131884	-0.090671	0.648924	-0.143425	-0.110190	0.417477	-0.221727	-0.122330	0.412877	-0.323093	-0.226313	0.306730	-0.213264	-0.175586	0.283207	-0.238253	-0.252323	0.268284	-0.223107	-0.207424	0.245763	-0.244086	-0.361023	0.111563	-0.290246	-0.318355	0.110054	-0.373208	-0.283528	0.040234	-0.253265	-0.246620	0.018573	-0.355025	-0.191978	0.042961	-0.289352	-0.429343	0.082828	-0.361724	-0.063902	0.721971	-0.445259	-0.015750	0.746128	-0.427531	-0.035335	0.685290	-0.447066	0.008197	0.708213	-0.434117	0.103890	0.488790	-0.422114	0.085763	0.464395	-0.314894	-0.015110	0.457948	-0.468481	0.010572	0.417671	-0.459728	-0.058446	0.430144	-0.475471	-0.034162	0.390444	-0.466783	-0.220124	0.307101	-0.455450	-0.204580	0.271746	-0.373394	-0.203163	0.184304	-0.517722	-0.208453	0.144357	-0.415772	-0.153608	0.122439	-0.467665	-0.284751	0.327139	-0.403192	-0.107078	1.361910	-0.081877	-0.072301	1.380355	-0.402119	
