PathFileType	4	(X/Y/Z)	 P4 pr2 01.trc
DataRate	CameraRate	NumFrames	NumMarkers	Units	OrigDataRate	OrigDataStartFrame	OrigNumFrames
200	200	73	38	m	200	2	74
Frame#	Time	RASIS			LASIS			RPSIS			LPSIS			RThighRear1			RThighFront1			RThighRear2			RThighFront2			RKneeLat			RKneeMed			RShankRear1			RShankFront1			RShankRear2			RShankFront2			RAnkleLat			RAnkleMed			RM5			RM1			RMid			RHeel			LThighRear1			LThighFront1			LThighRear2			LThighFront2			LKneeLat			LKneeMed			LShankRear1			LShankFront1			LShankRear2			LShankFront2			LAnkleLat			LAnkleMed			LM5			LM1			LMid			LHeel			RShoulder			LShoulder			
		X1	Y1	Z1	X2	Y2	Z2	X3	Y3	Z3	X4	Y4	Z4	X5	Y5	Z5	X6	Y6	Z6	X7	Y7	Z7	X8	Y8	Z8	X9	Y9	Z9	X10	Y10	Z10	X11	Y11	Z11	X12	Y12	Z12	X13	Y13	Z13	X14	Y14	Z14	X15	Y15	Z15	X16	Y16	Z16	X17	Y17	Z17	X18	Y18	Z18	X19	Y19	Z19	X20	Y20	Z20	X21	Y21	Z21	X22	Y22	Z22	X23	Y23	Z23	X24	Y24	Z24	X25	Y25	Z25	X26	Y26	Z26	X27	Y27	Z27	X28	Y28	Z28	X29	Y29	Z29	X30	Y30	Z30	X31	Y31	Z31	X32	Y32	Z32	X33	Y33	Z33	X34	Y34	Z34	X35	Y35	Z35	X36	Y36	Z36	X37	Y37	Z37	X38	Y38	Z38	
1	0.0000	-1.484911	0.905720	-0.164880	-1.485158	0.890737	-0.394146	-1.646529	0.948094	-0.231451	-1.648864	0.938825	-0.329123	-1.589346	0.720467	-0.108233	-1.539786	0.711244	-0.128581	-1.600466	0.684590	-0.109863	-1.550964	0.674863	-0.126322	-1.653754	0.439830	-0.141052	-1.669307	0.429232	-0.249262	-1.811425	0.470991	-0.127602	-1.803864	0.414032	-0.140028	-1.857070	0.469653	-0.133290	-1.851682	0.418137	-0.141665	-2.047343	0.447200	-0.180269	-2.037265	0.400117	-0.255816	-2.138749	0.347406	-0.141806	-2.131386	0.305880	-0.239266	-2.126208	0.258810	-0.171676	-2.076113	0.491599	-0.253061	-1.512741	0.726200	-0.461593	-1.459626	0.745987	-0.449407	-1.488894	0.685700	-0.464185	-1.441893	0.706281	-0.458194	-1.341255	0.491346	-0.433611	-1.321332	0.485911	-0.332184	-1.389503	0.361227	-0.447036	-1.341380	0.367458	-0.450836	-1.381324	0.308176	-0.446336	-1.335024	0.313278	-0.449341	-1.321038	0.101701	-0.400586	-1.287159	0.126483	-0.321834	-1.189736	0.052890	-0.433508	-1.172807	0.080090	-0.334035	-1.119103	0.106486	-0.393874	-1.367588	0.066728	-0.342700	-1.376147	1.353894	-0.135022	-1.423807	1.390019	-0.445975	
2	0.0050	-1.468691	0.903139	-0.164480	-1.468832	0.889176	-0.394108	-1.630701	0.945087	-0.230689	-1.632910	0.936645	-0.328488	-1.569461	0.717067	-0.108008	-1.519773	0.708899	-0.128443	-1.579639	0.680941	-0.109476	-1.529961	0.672416	-0.125967	-1.626581	0.435834	-0.140638	-1.642491	0.425303	-0.249117	-1.783672	0.467988	-0.126557	-1.776865	0.411031	-0.139846	-1.829439	0.467345	-0.132302	-1.824627	0.415794	-0.141480	-2.019801	0.448147	-0.180073	-2.010111	0.400953	-0.255587	-2.111443	0.348888	-0.141296	-2.104859	0.307155	-0.238718	-2.099447	0.259976	-0.171097	-2.048410	0.493053	-0.252785	-1.495834	0.724724	-0.461178	-1.442819	0.744630	-0.448979	-1.471934	0.684290	-0.463330	-1.425112	0.704912	-0.457539	-1.325677	0.489053	-0.432891	-1.306206	0.483514	-0.331447	-1.376492	0.360425	-0.446241	-1.328565	0.365214	-0.449610	-1.370095	0.307484	-0.445406	-1.323904	0.311152	-0.447936	-1.317524	0.101240	-0.398846	-1.283265	0.124398	-0.319799	-1.188669	0.051318	-0.433237	-1.170950	0.076331	-0.332938	-1.116436	0.101591	-0.392524	-1.365769	0.067234	-0.341496	-1.361631	1.351949	-0.133562	-1.407624	1.387237	-0.445704	
3	0.0100	-1.452310	0.900571	-0.164068	-1.452310	0.887632	-0.394064	-1.614705	0.942087	-0.229950	-1.616765	0.934482	-0.327872	-1.549310	0.713705	-0.107787	-1.499498	0.706632	-0.128315	-1.558514	0.677337	-0.109093	-1.508661	0.670056	-0.125625	-1.598890	0.431964	-0.140270	-1.615184	0.421492	-0.249014	-1.755416	0.465035	-0.125533	-1.749334	0.408062	-0.139685	-1.801317	0.465057	-0.131321	-1.797056	0.413456	-0.141302	-1.991852	0.448973	-0.179830	-1.982520	0.401698	-0.255330	-2.083658	0.350131	-0.140765	-2.077832	0.308221	-0.238168	-2.072111	0.260897	-0.170545	-2.020375	0.494401	-0.252426	-1.478781	0.723222	-0.460747	-1.425861	0.743222	-0.448535	-1.454852	0.682841	-0.462462	-1.408197	0.703479	-0.456862	-1.310068	0.486676	-0.432125	-1.291068	0.481023	-0.330661	-1.363490	0.359575	-0.445409	-1.315765	0.362912	-0.448350	-1.358881	0.306748	-0.444443	-1.312810	0.308978	-0.446501	-1.314083	0.100770	-0.397112	-1.279451	0.122318	-0.317762	-1.187622	0.049771	-0.432973	-1.169123	0.072647	-0.331847	-1.113822	0.096780	-0.391194	-1.364031	0.067679	-0.340303	-1.346945	1.350004	-0.132066	-1.391186	1.384470	-0.445390	
4	0.0150	-1.435786	0.898042	-0.163642	-1.435600	0.886122	-0.394011	-1.598554	0.939119	-0.229246	-1.600439	0.932359	-0.327283	-1.528900	0.710429	-0.107571	-1.478976	0.704498	-0.128198	-1.537098	0.673832	-0.108716	-1.487076	0.667842	-0.125299	-1.570657	0.428308	-0.139958	-1.587361	0.417885	-0.248962	-1.726634	0.462173	-0.124545	-1.721233	0.405167	-0.139550	-1.772682	0.462816	-0.130355	-1.768934	0.411146	-0.141132	-1.963481	0.449617	-0.179532	-1.954464	0.402305	-0.255044	-2.055341	0.351043	-0.140216	-2.050233	0.308999	-0.237621	-2.044108	0.261496	-0.170034	-1.992019	0.495574	-0.251966	-1.461615	0.721702	-0.460292	-1.408782	0.741763	-0.448069	-1.437685	0.681358	-0.461579	-1.391185	0.701979	-0.456158	-1.294494	0.484210	-0.431301	-1.275989	0.478431	-0.329814	-1.350562	0.358676	-0.444536	-1.303045	0.360557	-0.447054	-1.347738	0.305973	-0.443444	-1.301803	0.306764	-0.445035	-1.310749	0.100302	-0.395396	-1.275754	0.120263	-0.315734	-1.186610	0.048263	-0.432718	-1.167348	0.069073	-0.330772	-1.111296	0.092099	-0.389895	-1.362398	0.068062	-0.339129	-1.332104	1.348080	-0.130525	-1.374483	1.381746	-0.445016	
5	0.0200	-1.419133	0.895578	-0.163198	-1.418706	0.884665	-0.393942	-1.582256	0.936211	-0.228583	-1.583934	0.930304	-0.326726	-1.508235	0.707288	-0.107358	-1.458216	0.702554	-0.128094	-1.515390	0.670480	-0.108345	-1.465210	0.665836	-0.124993	-1.541855	0.424957	-0.139710	-1.558995	0.414571	-0.248970	-1.697303	0.459447	-0.123605	-1.692513	0.402390	-0.139446	-1.743507	0.460646	-0.129413	-1.740215	0.408890	-0.140970	-1.934662	0.450019	-0.179172	-1.925904	0.402727	-0.254723	-2.026421	0.351532	-0.139650	-2.021978	0.309409	-0.237085	-2.015330	0.261696	-0.169577	-1.963339	0.496497	-0.251392	-1.444359	0.720176	-0.459811	-1.391603	0.740253	-0.447575	-1.420465	0.679848	-0.460680	-1.374103	0.700409	-0.455422	-1.279016	0.481654	-0.430412	-1.261036	0.475733	-0.328896	-1.337767	0.357732	-0.443615	-1.290465	0.358157	-0.445722	-1.336722	0.305161	-0.442408	-1.290940	0.304521	-0.443541	-1.307548	0.099847	-0.393710	-1.272206	0.118255	-0.313729	-1.185645	0.046806	-0.432476	-1.165647	0.065641	-0.329722	-1.108888	0.087589	-0.388639	-1.360889	0.068387	-0.337984	-1.317118	1.346197	-0.128935	-1.357498	1.379095	-0.444565	
6	0.0250	-1.402358	0.893206	-0.162734	-1.401626	0.883280	-0.393853	-1.565815	0.933392	-0.227971	-1.567248	0.928341	-0.326209	-1.487316	0.704333	-0.107148	-1.437224	0.700856	-0.128003	-1.493387	0.667338	-0.107980	-1.443065	0.664101	-0.124709	-1.512455	0.422005	-0.139532	-1.530054	0.411639	-0.249041	-1.667392	0.456900	-0.122726	-1.663126	0.399778	-0.139374	-1.713762	0.458573	-0.128506	-1.710851	0.406716	-0.140818	-1.905363	0.450117	-0.178744	-1.896796	0.402914	-0.254367	-1.996821	0.351510	-0.139072	-1.992976	0.309375	-0.236568	-1.985664	0.261427	-0.169187	-1.934325	0.497094	-0.250690	-1.427032	0.718653	-0.459297	-1.374342	0.738694	-0.447047	-1.403219	0.678319	-0.459762	-1.356975	0.698770	-0.454646	-1.263690	0.479007	-0.429448	-1.246269	0.472928	-0.327896	-1.325160	0.356748	-0.442644	-1.278082	0.355721	-0.444351	-1.325878	0.304321	-0.441331	-1.280271	0.302259	-0.442021	-1.304504	0.099420	-0.392066	-1.268833	0.116313	-0.311758	-1.184738	0.045409	-0.432247	-1.164039	0.062379	-0.328703	-1.106628	0.083290	-0.387436	-1.359519	0.068662	-0.336876	-1.301994	1.344377	-0.127287	-1.340213	1.376546	-0.444015	
7	0.0300	-1.385463	0.890953	-0.162244	-1.384356	0.881985	-0.393737	-1.549227	0.930689	-0.227415	-1.550375	0.926495	-0.325736	-1.466140	0.701613	-0.106938	-1.416004	0.699462	-0.127924	-1.471084	0.664463	-0.107622	-1.420643	0.662697	-0.124448	-1.482435	0.419544	-0.139429	-1.500510	0.409179	-0.249180	-1.636879	0.454577	-0.121921	-1.633026	0.397376	-0.139336	-1.683419	0.456623	-0.127641	-1.680797	0.404651	-0.140675	-1.875549	0.449852	-0.178245	-1.867091	0.402821	-0.253975	-1.966458	0.350896	-0.138487	-1.963129	0.308827	-0.236077	-1.954994	0.260628	-0.168876	-1.904962	0.497288	-0.249855	-1.409646	0.717147	-0.458745	-1.357009	0.737092	-0.446476	-1.385965	0.676779	-0.458824	-1.339818	0.697063	-0.453824	-1.248566	0.476270	-0.428403	-1.231743	0.470016	-0.326806	-1.312790	0.355731	-0.441621	-1.265944	0.353259	-0.442943	-1.315252	0.303462	-0.440213	-1.269840	0.299994	-0.440477	-1.301635	0.099037	-0.390473	-1.265659	0.114458	-0.309834	-1.183900	0.044078	-0.432033	-1.162542	0.059308	-0.327725	-1.104542	0.079232	-0.386295	-1.358298	0.068899	-0.335813	-1.286736	1.342643	-0.125577	-1.322607	1.374129	-0.443350	
8	0.0350	-1.368450	0.888848	-0.161725	-1.366889	0.880798	-0.393588	-1.532489	0.928131	-0.226920	-1.533308	0.924793	-0.325312	-1.444706	0.699179	-0.106727	-1.394561	0.698427	-0.127856	-1.448478	0.661910	-0.107269	-1.397948	0.661685	-0.124211	-1.451780	0.417661	-0.139402	-1.470344	0.407276	-0.249385	-1.605745	0.452519	-0.121202	-1.602175	0.395231	-0.139333	-1.652459	0.454820	-0.126829	-1.650015	0.402723	-0.140540	-1.845185	0.449169	-0.177674	-1.836742	0.402400	-0.253547	-1.935252	0.349617	-0.137900	-1.932342	0.307702	-0.235620	-1.923207	0.259249	-0.168657	-1.875231	0.497002	-0.248884	-1.392213	0.715669	-0.458149	-1.339615	0.735452	-0.445857	-1.368722	0.675242	-0.457862	-1.322646	0.695294	-0.452951	-1.233690	0.473448	-0.427273	-1.217509	0.467001	-0.325619	-1.300696	0.354692	-0.440543	-1.254095	0.350786	-0.441499	-1.304878	0.302595	-0.439054	-1.259688	0.297740	-0.438913	-1.298953	0.098713	-0.388942	-1.262696	0.112712	-0.307966	-1.183139	0.042821	-0.431833	-1.161172	0.056446	-0.326794	-1.102651	0.075442	-0.385224	-1.357227	0.069118	-0.334802	-1.271347	1.341019	-0.123798	-1.304661	1.371875	-0.442550	
9	0.0400	-1.351316	0.886916	-0.161174	-1.349218	0.879737	-0.393397	-1.515597	0.925745	-0.226492	-1.516041	0.923258	-0.324940	-1.423017	0.697079	-0.106511	-1.372904	0.697803	-0.127796	-1.425572	0.659733	-0.106920	-1.374986	0.661121	-0.123996	-1.420490	0.416440	-0.139448	-1.439545	0.406011	-0.249656	-1.573986	0.450764	-0.120578	-1.570547	0.393386	-0.139363	-1.620869	0.453187	-0.126077	-1.618477	0.400959	-0.140412	-1.814239	0.448013	-0.177033	-1.805706	0.401608	-0.253086	-1.903124	0.347611	-0.137320	-1.900527	0.305949	-0.235206	-1.890200	0.257250	-0.168538	-1.845112	0.496160	-0.247776	-1.374739	0.714237	-0.457506	-1.322166	0.733783	-0.445181	-1.351501	0.673721	-0.456874	-1.305471	0.693473	-0.452020	-1.219100	0.470551	-0.426054	-1.203607	0.463891	-0.324330	-1.288915	0.353644	-0.439412	-1.242570	0.348318	-0.440022	-1.294786	0.301736	-0.437856	-1.249844	0.295516	-0.437334	-1.296463	0.098469	-0.387481	-1.259954	0.111093	-0.306168	-1.182462	0.041640	-0.431647	-1.159942	0.053803	-0.325916	-1.100973	0.071939	-0.384227	-1.356305	0.069343	-0.333848	-1.255833	1.339528	-0.121946	-1.286359	1.369811	-0.441598	
10	0.0450	-1.334061	0.885183	-0.160587	-1.331341	0.878819	-0.393158	-1.498544	0.923559	-0.226130	-1.498565	0.921914	-0.324620	-1.401078	0.695359	-0.106287	-1.351043	0.697635	-0.127740	-1.402371	0.657984	-0.106573	-1.351771	0.661054	-0.123801	-1.388579	0.415956	-0.139563	-1.408120	0.405456	-0.249986	-1.541608	0.449346	-0.120057	-1.538131	0.391884	-0.139423	-1.588651	0.451742	-0.125393	-1.586169	0.399386	-0.140289	-1.782683	0.446339	-0.176325	-1.773950	0.400409	-0.252594	-1.870007	0.344828	-0.136754	-1.867603	0.303524	-0.234845	-1.855885	0.254610	-0.168528	-1.814586	0.494692	-0.246540	-1.357233	0.712866	-0.456810	-1.304669	0.732099	-0.444443	-1.334314	0.672232	-0.455859	-1.288303	0.691610	-0.451026	-1.204829	0.467591	-0.424747	-1.190072	0.460699	-0.322937	-1.277474	0.352604	-0.438230	-1.231397	0.345875	-0.438516	-1.285001	0.300903	-0.436623	-1.240332	0.293344	-0.435747	-1.294162	0.098324	-0.386098	-1.257431	0.109623	-0.304449	-1.181873	0.040538	-0.431474	-1.158863	0.051386	-0.325097	-1.099522	0.068736	-0.383310	-1.355518	0.069604	-0.332956	-1.240199	1.338195	-0.120016	-1.267689	1.367967	-0.440478	
11	0.0500	-1.316684	0.883673	-0.159963	-1.313254	0.878059	-0.392865	-1.481327	0.921596	-0.225836	-1.480879	0.920782	-0.324354	-1.378901	0.694059	-0.106051	-1.328995	0.697966	-0.127685	-1.378890	0.656707	-0.106225	-1.328322	0.661531	-0.123624	-1.356079	0.416275	-0.139740	-1.376088	0.405675	-0.250367	-1.508635	0.448294	-0.119644	-1.504935	0.390761	-0.139508	-1.555822	0.450502	-0.124784	-1.553092	0.398026	-0.140168	-1.750499	0.444104	-0.175558	-1.741446	0.398766	-0.252078	-1.835842	0.341235	-0.136215	-1.833502	0.300402	-0.234544	-1.820189	0.251319	-0.168634	-1.783635	0.492531	-0.245186	-1.339698	0.711575	-0.456059	-1.287129	0.730414	-0.443637	-1.317168	0.670794	-0.454814	-1.271149	0.689722	-0.449966	-1.190900	0.464586	-0.423353	-1.176931	0.457442	-0.321441	-1.266390	0.351591	-0.437001	-1.220596	0.343479	-0.436987	-1.275536	0.300116	-0.435358	-1.231169	0.291248	-0.434159	-1.292041	0.098300	-0.384799	-1.255118	0.108322	-0.302818	-1.181375	0.039518	-0.431312	-1.157941	0.049196	-0.324341	-1.098306	0.065837	-0.382475	-1.354847	0.069937	-0.332129	-1.224451	1.337041	-0.118007	-1.248648	1.366367	-0.439178	
12	0.0550	-1.299182	0.882410	-0.159297	-1.294959	0.877472	-0.392512	-1.463943	0.919882	-0.225606	-1.462981	0.919882	-0.324138	-1.356504	0.693216	-0.105799	-1.306781	0.698830	-0.127626	-1.355148	0.655943	-0.105873	-1.304665	0.662586	-0.123459	-1.323041	0.417447	-0.139966	-1.343488	0.406719	-0.250788	-1.475106	0.447629	-0.119343	-1.470984	0.390050	-0.139613	-1.522412	0.449476	-0.124253	-1.519265	0.396901	-0.140047	-1.717675	0.441275	-0.174741	-1.708180	0.396652	-0.251543	-1.800582	0.336813	-0.135712	-1.798174	0.296568	-0.234314	-1.783060	0.247387	-0.168861	-1.752246	0.489617	-0.243730	-1.322141	0.710383	-0.455251	-1.269550	0.728745	-0.442758	-1.300071	0.669427	-0.453739	-1.254017	0.687829	-0.448837	-1.177332	0.461557	-0.421879	-1.164201	0.454144	-0.319846	-1.255674	0.350630	-0.435732	-1.210177	0.341156	-0.435444	-1.266398	0.299401	-0.434069	-1.222360	0.289254	-0.432578	-1.290082	0.098422	-0.383590	-1.253000	0.107212	-0.301285	-1.180969	0.038580	-0.431159	-1.157180	0.047229	-0.323651	-1.097330	0.063241	-0.381722	-1.354267	0.070385	-0.331368	-1.208600	1.336089	-0.115918	-1.229237	1.365036	-0.437687	
13	0.0600	-1.281559	0.881411	-0.158590	-1.276461	0.877071	-0.392093	-1.446392	0.918437	-0.225437	-1.444873	0.919231	-0.323970	-1.333908	0.692860	-0.105525	-1.284429	0.700250	-0.127557	-1.331176	0.655725	-0.105514	-1.280833	0.664246	-0.123302	-1.289535	0.419512	-0.140230	-1.310377	0.408625	-0.251237	-1.441076	0.447362	-0.119154	-1.436322	0.389777	-0.139730	-1.488466	0.448669	-0.123803	-1.484726	0.396026	-0.139922	-1.684208	0.437825	-0.173885	-1.674146	0.394046	-0.250996	-1.764198	0.331557	-0.135258	-1.761582	0.292026	-0.234163	-1.744468	0.242839	-0.169214	-1.720407	0.485900	-0.242192	-1.304566	0.709309	-0.454384	-1.251940	0.727114	-0.441804	-1.283026	0.668153	-0.452633	-1.236912	0.685953	-0.447638	-1.164134	0.458531	-0.420333	-1.151889	0.450831	-0.318158	-1.245327	0.349747	-0.434430	-1.200141	0.338935	-0.433895	-1.257585	0.298784	-0.432762	-1.213903	0.287391	-0.431014	-1.288261	0.098717	-0.382474	-1.251053	0.106312	-0.299857	-1.180652	0.037728	-0.431010	-1.156582	0.045479	-0.323031	-1.096593	0.060942	-0.381050	-1.353741	0.070994	-0.330675	-1.192655	1.335360	-0.113750	-1.209466	1.363994	-0.435995	
14	0.0650	-1.263814	0.880696	-0.157841	-1.257767	0.876868	-0.391604	-1.428675	0.917280	-0.225321	-1.426561	0.918843	-0.323843	-1.311144	0.693015	-0.105226	-1.261968	0.702245	-0.127471	-1.307008	0.656077	-0.105144	-1.256865	0.666529	-0.123147	-1.255647	0.422491	-0.140516	-1.276828	0.411416	-0.251697	-1.406616	0.447499	-0.119074	-1.401014	0.389957	-0.139852	-1.454047	0.448080	-0.123436	-1.449528	0.395413	-0.139788	-1.650103	0.433736	-0.173004	-1.639352	0.390931	-0.250447	-1.726671	0.325481	-0.134866	-1.723707	0.286791	-0.234102	-1.704405	0.237714	-0.169693	-1.688111	0.481335	-0.240595	-1.286979	0.708374	-0.453460	-1.234305	0.725544	-0.440774	-1.266037	0.666996	-0.451497	-1.219839	0.684121	-0.446370	-1.151306	0.455537	-0.418724	-1.139991	0.447535	-0.316387	-1.235341	0.348971	-0.433106	-1.190481	0.336848	-0.432351	-1.249088	0.298297	-0.431447	-1.205786	0.285691	-0.429478	-1.286545	0.099211	-0.381454	-1.249243	0.105646	-0.298542	-1.180420	0.036965	-0.430865	-1.156142	0.043937	-0.322480	-1.096090	0.058926	-0.380457	-1.353229	0.071815	-0.330047	-1.176628	1.334870	-0.111505	-1.189353	1.363258	-0.434099	
15	0.0700	-1.245953	0.880276	-0.157051	-1.238890	0.876873	-0.391043	-1.410795	0.916427	-0.225251	-1.408055	0.918730	-0.323749	-1.288246	0.693694	-0.104898	-1.239435	0.704818	-0.127363	-1.282686	0.657015	-0.104760	-1.232806	0.669439	-0.122987	-1.221481	0.426389	-0.140807	-1.242931	0.415098	-0.252151	-1.371811	0.448031	-0.119095	-1.365141	0.390601	-0.139969	-1.419227	0.447700	-0.123148	-1.413742	0.395067	-0.139642	-1.615374	0.428998	-0.172113	-1.603815	0.387300	-0.249904	-1.688001	0.318613	-0.134549	-1.684550	0.280896	-0.234137	-1.662885	0.232070	-0.170301	-1.655352	0.475890	-0.238966	-1.269383	0.707600	-0.452479	-1.216650	0.724059	-0.439668	-1.249105	0.665978	-0.450333	-1.202803	0.682359	-0.445034	-1.138839	0.452610	-0.417067	-1.128495	0.444292	-0.314547	-1.225695	0.348334	-0.431769	-1.181178	0.334928	-0.430825	-1.240885	0.297971	-0.430135	-1.197989	0.284187	-0.427980	-1.284897	0.099934	-0.380531	-1.247532	0.105234	-0.297345	-1.180266	0.036295	-0.430718	-1.155854	0.042594	-0.322000	-1.095812	0.057176	-0.379938	-1.352681	0.072901	-0.329483	-1.160533	1.334635	-0.109186	-1.168920	1.362841	-0.431997	
16	0.0750	-1.227978	0.880163	-0.156220	-1.219844	0.877095	-0.390408	-1.392760	0.915889	-0.225216	-1.389366	0.918900	-0.323681	-1.265252	0.694906	-0.104537	-1.216868	0.707967	-0.127226	-1.258258	0.658545	-0.104358	-1.208704	0.672969	-0.122815	-1.187152	0.431192	-0.141085	-1.208788	0.419658	-0.252582	-1.336758	0.448941	-0.119207	-1.328800	0.391708	-0.140072	-1.384091	0.447512	-0.122936	-1.377451	0.394987	-0.139480	-1.580043	0.423607	-0.171226	-1.567562	0.383151	-0.249376	-1.648199	0.310996	-0.134321	-1.644129	0.274387	-0.234278	-1.619948	0.225974	-0.171035	-1.622128	0.469543	-0.237330	-1.251784	0.707005	-0.451446	-1.198982	0.722685	-0.438490	-1.232229	0.665123	-0.449143	-1.185807	0.680698	-0.443635	-1.126715	0.449783	-0.415376	-1.117376	0.441139	-0.312651	-1.216365	0.347869	-0.430433	-1.172205	0.333210	-0.429327	-1.232951	0.297840	-0.428835	-1.190480	0.282913	-0.426531	-1.283273	0.100917	-0.379704	-1.245875	0.105098	-0.296269	-1.180181	0.035727	-0.430566	-1.155707	0.041439	-0.321588	-1.095744	0.055672	-0.379490	-1.352043	0.074309	-0.328978	-1.144385	1.334669	-0.106799	-1.148201	1.362753	-0.429690	
17	0.0800	-1.209896	0.880363	-0.155351	-1.200647	0.877541	-0.389698	-1.374575	0.915675	-0.225204	-1.370510	0.919357	-0.323628	-1.242205	0.696645	-0.104138	-1.194306	0.711674	-0.127052	-1.233776	0.660660	-0.103935	-1.184611	0.677101	-0.122623	-1.152787	0.436868	-0.141332	-1.174516	0.425066	-0.252970	-1.301561	0.450201	-0.119398	-1.292101	0.393266	-0.140150	-1.348733	0.447490	-0.122793	-1.340752	0.395164	-0.139297	-1.544137	0.417569	-0.170361	-1.530630	0.378489	-0.248874	-1.607295	0.302686	-0.134194	-1.602478	0.267324	-0.234532	-1.575651	0.219508	-0.171894	-1.588438	0.462281	-0.235718	-1.234186	0.706610	-0.450364	-1.181308	0.721449	-0.437242	-1.215409	0.664455	-0.447932	-1.168851	0.679168	-0.442179	-1.114909	0.447096	-0.413669	-1.106599	0.438116	-0.310717	-1.207312	0.347609	-0.429110	-1.163525	0.331728	-0.427873	-1.225247	0.297940	-0.427560	-1.183222	0.281902	-0.425143	-1.281622	0.102189	-0.378973	-1.244221	0.105261	-0.295319	-1.180152	0.035272	-0.430406	-1.155686	0.040462	-0.321244	-1.095870	0.054390	-0.379107	-1.351256	0.076096	-0.328529	-1.128195	1.334978	-0.104350	-1.127230	1.362998	-0.427182	
18	0.0850	-1.191713	0.880877	-0.154448	-1.181320	0.878216	-0.388916	-1.356251	0.915789	-0.225203	-1.351504	0.920100	-0.323578	-1.219149	0.698901	-0.103699	-1.171791	0.715913	-0.126836	-1.209294	0.663345	-0.103487	-1.160579	0.681804	-0.122404	-1.118521	0.443364	-0.141530	-1.140239	0.431275	-0.253296	-1.266331	0.451771	-0.119652	-1.255163	0.395253	-0.140195	-1.313252	0.447604	-0.122709	-1.303751	0.395583	-0.139089	-1.507688	0.410897	-0.169533	-1.493063	0.373327	-0.248405	-1.565328	0.293751	-0.134180	-1.559647	0.259777	-0.234905	-1.530075	0.212760	-0.172875	-1.554284	0.454106	-0.234158	-1.216591	0.706432	-0.449239	-1.163633	0.720378	-0.435934	-1.198637	0.663996	-0.446703	-1.151937	0.677799	-0.440674	-1.103384	0.444584	-0.411964	-1.096119	0.435264	-0.308765	-1.198492	0.347589	-0.427813	-1.155093	0.330518	-0.426474	-1.217729	0.298305	-0.426320	-1.176169	0.281188	-0.423827	-1.279892	0.103783	-0.378333	-1.242515	0.105744	-0.294494	-1.180166	0.034942	-0.430234	-1.155774	0.039656	-0.320963	-1.096168	0.053306	-0.378781	-1.350256	0.078317	-0.328130	-1.111979	1.335568	-0.101845	-1.106050	1.363575	-0.424482	
19	0.0900	-1.173434	0.881704	-0.153514	-1.161882	0.879122	-0.388065	-1.337797	0.916229	-0.225198	-1.332367	0.921127	-0.323519	-1.196128	0.701650	-0.103218	-1.149361	0.720645	-0.126571	-1.184869	0.666571	-0.103011	-1.136661	0.687035	-0.122151	-1.084491	0.450611	-0.141662	-1.106086	0.438218	-0.253544	-1.231184	0.453601	-0.119949	-1.218116	0.397639	-0.140197	-1.277752	0.447813	-0.122673	-1.266561	0.396221	-0.138852	-1.470734	0.403611	-0.168756	-1.454913	0.367682	-0.247979	-1.522352	0.284268	-0.134290	-1.515704	0.251826	-0.235403	-1.483315	0.205826	-0.173973	-1.519668	0.445026	-0.232677	-1.199002	0.706487	-0.448079	-1.145962	0.719496	-0.434572	-1.181910	0.663765	-0.445462	-1.135061	0.676621	-0.439127	-1.092097	0.442285	-0.410279	-1.085882	0.432621	-0.306814	-1.189852	0.347840	-0.426555	-1.146857	0.329611	-0.425143	-1.210347	0.298968	-0.425126	-1.169266	0.280802	-0.422591	-1.278027	0.105727	-0.377781	-1.240698	0.106569	-0.293795	-1.180204	0.034757	-0.430047	-1.155946	0.039017	-0.320741	-1.096612	0.052394	-0.378506	-1.348976	0.081027	-0.327772	-1.095746	1.336440	-0.099293	-1.084705	1.364480	-0.421600	
20	0.0950	-1.155067	0.882837	-0.152553	-1.142355	0.880261	-0.387147	-1.319225	0.916991	-0.225175	-1.313118	0.922431	-0.323437	-1.173188	0.704860	-0.102693	-1.127055	0.725823	-0.126251	-1.160557	0.670301	-0.102505	-1.112907	0.692739	-0.121856	-1.050835	0.458523	-0.141712	-1.072189	0.445813	-0.253696	-1.196234	0.455632	-0.120269	-1.181090	0.400379	-0.140149	-1.242335	0.448071	-0.122672	-1.229299	0.397046	-0.138585	-1.433317	0.395737	-0.168046	-1.416234	0.361578	-0.247603	-1.478432	0.274322	-0.134534	-1.470728	0.243558	-0.236028	-1.435487	0.198805	-0.175182	-1.484596	0.435066	-0.231300	-1.181420	0.706787	-0.446890	-1.128298	0.718828	-0.433166	-1.165217	0.663779	-0.444215	-1.118221	0.675661	-0.437550	-1.080998	0.440232	-0.408634	-1.075825	0.430225	-0.304885	-1.181335	0.348394	-0.425348	-1.138758	0.329040	-0.423894	-1.203043	0.299961	-0.423990	-1.162454	0.280773	-0.421444	-1.275968	0.108051	-0.377311	-1.238710	0.107756	-0.293220	-1.180245	0.034735	-0.429842	-1.156177	0.038543	-0.320574	-1.097174	0.051631	-0.378276	-1.347351	0.084275	-0.327449	-1.079508	1.337590	-0.096701	-1.063244	1.365704	-0.418549	
21	0.1000	-1.136616	0.884266	-0.151571	-1.122762	0.881632	-0.386169	-1.300544	0.918064	-0.225120	-1.293775	0.923999	-0.323321	-1.150372	0.708490	-0.102123	-1.104908	0.731388	-0.125871	-1.136411	0.674484	-0.101966	-1.089364	0.698850	-0.121511	-1.017688	0.466997	-0.141669	-1.038680	0.453963	-0.253738	-1.161593	0.457796	-0.120592	-1.144217	0.403421	-0.140043	-1.207104	0.448325	-0.122691	-1.192083	0.398022	-0.138284	-1.395480	0.387306	-0.167414	-1.377090	0.355043	-0.247283	-1.433645	0.264003	-0.134917	-1.424813	0.235064	-0.236784	-1.386718	0.191796	-0.176495	-1.449075	0.424259	-0.230050	-1.163843	0.707344	-0.445681	-1.110644	0.718394	-0.431728	-1.148548	0.664051	-0.442970	-1.101410	0.674943	-0.435954	-1.070029	0.438458	-0.407049	-1.065880	0.428109	-0.303000	-1.172875	0.349276	-0.424204	-1.130732	0.328829	-0.422737	-1.195755	0.301311	-0.422920	-1.155670	0.281126	-0.420393	-1.273656	0.110782	-0.376917	-1.236489	0.109323	-0.292765	-1.180266	0.034903	-0.429616	-1.156434	0.038237	-0.320455	-1.097819	0.050995	-0.378083	-1.345311	0.088105	-0.327152	-1.063272	1.339010	-0.094079	-1.041714	1.367232	-0.415346	
22	0.1050	-1.118088	0.885976	-0.150573	-1.103121	0.883231	-0.385138	-1.281766	0.919434	-0.225020	-1.274359	0.925817	-0.323157	-1.127719	0.712491	-0.101506	-1.082951	0.737272	-0.125427	-1.112483	0.679063	-0.101393	-1.066075	0.705295	-0.121112	-0.985176	0.475917	-0.141521	-1.005685	0.462555	-0.253658	-1.127367	0.460019	-0.120896	-1.107629	0.406706	-0.139875	-1.172156	0.448519	-0.122717	-1.155029	0.399105	-0.137948	-1.357271	0.378356	-0.166871	-1.337543	0.348111	-0.247024	-1.388077	0.253406	-0.135445	-1.378063	0.226437	-0.237669	-1.337147	0.184895	-0.177904	-1.413113	0.412647	-0.228947	-1.146269	0.708162	-0.444461	-1.092999	0.718212	-0.430269	-1.131889	0.664592	-0.441733	-1.084620	0.674487	-0.434349	-1.059128	0.436989	-0.405540	-1.055971	0.426302	-0.301178	-1.164404	0.350509	-0.423133	-1.122710	0.329001	-0.421682	-1.188418	0.303042	-0.421924	-1.148846	0.281881	-0.419442	-1.271032	0.113941	-0.376591	-1.233974	0.111287	-0.292426	-1.180237	0.035287	-0.429369	-1.156683	0.038107	-0.320379	-1.098510	0.050467	-0.377922	-1.342792	0.092555	-0.326872	-1.047043	1.340688	-0.091433	-1.020165	1.369048	-0.412008	
23	0.1100	-1.099486	0.887949	-0.149563	-1.083453	0.885051	-0.384058	-1.262901	0.921082	-0.224861	-1.254887	0.927865	-0.322934	-1.105267	0.716803	-0.100844	-1.061208	0.743401	-0.124914	-1.088819	0.683970	-0.100785	-1.043076	0.711989	-0.120651	-0.953418	0.485155	-0.141263	-0.973325	0.471467	-0.253447	-1.093656	0.462220	-0.121158	-1.071450	0.410163	-0.139641	-1.137582	0.448591	-0.122735	-1.118250	0.400245	-0.137577	-1.318739	0.368929	-0.166424	-1.297663	0.340816	-0.246830	-1.341824	0.242623	-0.136120	-1.330593	0.217770	-0.238681	-1.286926	0.178195	-0.179399	-1.376725	0.400286	-0.228005	-1.128692	0.709243	-0.443240	-1.075359	0.718295	-0.428802	-1.115226	0.665407	-0.440510	-1.067840	0.674309	-0.432747	-1.048228	0.435845	-0.404126	-1.046021	0.424826	-0.299441	-1.155851	0.352110	-0.422144	-1.114623	0.329573	-0.420737	-1.180963	0.305172	-0.421009	-1.141912	0.283054	-0.418595	-1.268037	0.117550	-0.376324	-1.231104	0.113661	-0.292195	-1.180128	0.035916	-0.429097	-1.156884	0.038163	-0.320339	-1.099206	0.050031	-0.377786	-1.339729	0.097653	-0.326600	-1.030824	1.342608	-0.088773	-0.998646	1.371128	-0.408553	
24	0.1150	-1.080815	0.890163	-0.148546	-1.063774	0.887086	-0.382937	-1.243958	0.922984	-0.224631	-1.235375	0.930121	-0.322640	-1.083046	0.721363	-0.100137	-1.039700	0.749694	-0.124329	-1.065462	0.689128	-0.100141	-1.020398	0.718842	-0.120124	-0.922520	0.494576	-0.140891	-0.941710	0.480567	-0.253100	-1.060548	0.464317	-0.121360	-1.035798	0.413719	-0.139340	-1.103467	0.448480	-0.122729	-1.081853	0.401389	-0.137171	-1.279937	0.359068	-0.166079	-1.257521	0.333197	-0.246703	-1.294992	0.231748	-0.136940	-1.282529	0.209152	-0.239817	-1.236211	0.171778	-0.180971	-1.339930	0.387237	-0.227237	-1.111104	0.710586	-0.442025	-1.057721	0.718651	-0.427338	-1.098541	0.666495	-0.439310	-1.051056	0.674419	-0.431160	-1.037262	0.435044	-0.402822	-1.035950	0.423699	-0.297804	-1.147145	0.354090	-0.421243	-1.106397	0.330554	-0.419908	-1.173321	0.307713	-0.420178	-1.134799	0.284654	-0.417852	-1.264616	0.121622	-0.376109	-1.227820	0.116457	-0.292064	-1.179903	0.036822	-0.428802	-1.156991	0.038422	-0.320328	-1.099862	0.049679	-0.377671	-1.336064	0.103419	-0.326326	-1.014615	1.344751	-0.086106	-0.977203	1.373449	-0.405002	
25	0.1200	-1.062077	0.892592	-0.147527	-1.044098	0.889322	-0.381783	-1.224945	0.925112	-0.224321	-1.215838	0.932559	-0.322267	-1.061084	0.726098	-0.099387	-1.018441	0.756063	-0.123670	-1.042445	0.694457	-0.099461	-0.998064	0.725759	-0.119528	-0.892572	0.504037	-0.140407	-0.910939	0.489718	-0.252616	-1.028122	0.466225	-0.121484	-1.000782	0.417294	-0.138974	-1.069885	0.448125	-0.122690	-1.045938	0.402480	-0.136735	-1.240922	0.348823	-0.165839	-1.217190	0.325293	-0.246644	-1.247694	0.220869	-0.137901	-1.234003	0.200666	-0.241069	-1.185168	0.165717	-0.182607	-1.302751	0.373571	-0.226650	-1.093497	0.712182	-0.440826	-1.040076	0.719283	-0.425890	-1.081815	0.667851	-0.438139	-1.034252	0.674822	-0.429599	-1.026159	0.434591	-0.401639	-1.025677	0.422929	-0.296285	-1.138213	0.356453	-0.420435	-1.097961	0.331948	-0.419200	-1.165422	0.310671	-0.419434	-1.127436	0.286682	-0.417211	-1.260715	0.126166	-0.375935	-1.224067	0.119681	-0.292026	-1.179520	0.038036	-0.428484	-1.156955	0.038901	-0.320339	-1.100427	0.049403	-0.377573	-1.331740	0.109860	-0.326041	-0.998412	1.347091	-0.083439	-0.955880	1.375982	-0.401376	
26	0.1250	-1.043274	0.895208	-0.146509	-1.024438	0.891747	-0.380600	-1.205868	0.927434	-0.223923	-1.196285	0.935151	-0.321805	-1.039401	0.730934	-0.098595	-0.997439	0.762420	-0.122935	-1.019798	0.699871	-0.098745	-0.976088	0.732643	-0.118858	-0.863647	0.513395	-0.139815	-0.881096	0.498778	-0.251996	-0.996445	0.467863	-0.121515	-0.966497	0.420806	-0.138546	-1.036902	0.447465	-0.122604	-1.010596	0.403460	-0.136271	-1.201753	0.338244	-0.165706	-1.176747	0.317145	-0.246652	-1.200051	0.210071	-0.138996	-1.185157	0.192385	-0.242427	-1.133966	0.160071	-0.184295	-1.265221	0.359365	-0.226246	-1.075857	0.714020	-0.439650	-1.022414	0.720188	-0.424468	-1.065026	0.669465	-0.437002	-1.017411	0.675516	-0.428072	-1.014848	0.434489	-0.400590	-1.015122	0.422517	-0.294897	-1.128983	0.359196	-0.419722	-1.089245	0.333751	-0.418612	-1.157198	0.314044	-0.418777	-1.119755	0.289134	-0.416668	-1.256282	0.131184	-0.375795	-1.219792	0.123334	-0.292069	-1.178933	0.039589	-0.428142	-1.156722	0.039622	-0.320367	-1.100845	0.049203	-0.377490	-1.326708	0.116972	-0.325737	-0.982212	1.349603	-0.080777	-0.934717	1.378698	-0.397694	
27	0.1300	-1.024406	0.897978	-0.145494	-1.004799	0.894344	-0.379395	-1.186733	0.929916	-0.223429	-1.176727	0.937866	-0.321249	-1.018012	0.735793	-0.097762	-0.976696	0.768674	-0.122125	-0.997541	0.705281	-0.097993	-0.954478	0.739393	-0.118112	-0.835804	0.522506	-0.139125	-0.852249	0.507608	-0.251247	-0.965571	0.469150	-0.121443	-0.933029	0.424171	-0.138063	-1.004572	0.446443	-0.122466	-0.975907	0.404269	-0.135785	-1.162494	0.327382	-0.165679	-1.136273	0.308793	-0.246726	-1.152195	0.199431	-0.140215	-1.136137	0.184377	-0.243881	-1.082777	0.154886	-0.186022	-1.227380	0.344703	-0.226026	-1.058171	0.716084	-0.438504	-1.004722	0.721359	-0.423081	-1.048153	0.671321	-0.435905	-1.000512	0.676494	-0.426588	-1.003260	0.434729	-0.399682	-1.004211	0.422455	-0.293649	-1.119388	0.362309	-0.419104	-1.080181	0.335952	-0.418146	-1.148583	0.317821	-0.418204	-1.111689	0.291997	-0.416217	-1.251271	0.136673	-0.375678	-1.214946	0.127414	-0.292183	-1.178093	0.041511	-0.427780	-1.156234	0.040607	-0.320406	-1.101057	0.049083	-0.377419	-1.320925	0.124741	-0.325404	-0.966006	1.352257	-0.078127	-0.913750	1.381566	-0.393977	
28	0.1350	-1.005471	0.900870	-0.144484	-0.985187	0.897094	-0.378173	-1.167543	0.932519	-0.222836	-1.157168	0.940669	-0.320594	-0.996923	0.740595	-0.096892	-0.956205	0.774734	-0.121239	-0.975687	0.710597	-0.097208	-0.933235	0.745910	-0.117290	-0.809079	0.531230	-0.138350	-0.824453	0.516070	-0.250379	-0.935539	0.470013	-0.121262	-0.900447	0.427309	-0.137534	-0.972940	0.445008	-0.122271	-0.941941	0.404852	-0.135284	-1.123215	0.316292	-0.165754	-1.095850	0.300277	-0.246863	-1.104263	0.189018	-0.141545	-1.087097	0.176692	-0.245417	-1.031774	0.150193	-0.187774	-1.189279	0.329673	-0.225984	-1.040420	0.718351	-0.437394	-0.986982	0.722780	-0.421736	-1.031170	0.673398	-0.434852	-0.983532	0.677740	-0.425155	-0.991329	0.435298	-0.398919	-0.992869	0.422729	-0.292551	-1.109360	0.365774	-0.418579	-1.070703	0.338532	-0.417796	-1.139513	0.321985	-0.417712	-1.103176	0.295253	-0.415848	-1.245638	0.142621	-0.375576	-1.209483	0.131911	-0.292356	-1.176943	0.043827	-0.427400	-1.155425	0.041881	-0.320451	-1.100996	0.049053	-0.377361	-1.314351	0.133138	-0.325036	-0.949785	1.355022	-0.075492	-0.893011	1.384552	-0.390245	
29	0.1400	-0.986467	0.903846	-0.143479	-0.965603	0.899974	-0.376935	-1.148298	0.935204	-0.222140	-1.137611	0.943527	-0.319838	-0.976136	0.745261	-0.095986	-0.935958	0.780510	-0.120278	-0.954242	0.715730	-0.096391	-0.912350	0.752099	-0.116391	-0.783492	0.539436	-0.137506	-0.797742	0.524035	-0.249406	-0.906379	0.470385	-0.120970	-0.868808	0.430139	-0.136970	-0.942042	0.443115	-0.122017	-0.908760	0.405152	-0.134777	-1.083991	0.305029	-0.165927	-1.055565	0.291635	-0.247060	-1.056399	0.178893	-0.142969	-1.038195	0.169371	-0.247019	-0.981133	0.146006	-0.189534	-1.150981	0.314366	-0.226115	-1.022586	0.720796	-0.436322	-0.969177	0.724432	-0.420440	-1.014052	0.675671	-0.433845	-0.966446	0.679234	-0.423776	-0.978989	0.436174	-0.398303	-0.981031	0.423316	-0.291605	-1.098839	0.369566	-0.418141	-1.060749	0.341464	-0.417556	-1.129928	0.326511	-0.417293	-1.094155	0.298875	-0.415552	-1.239342	0.149008	-0.375481	-1.203362	0.136812	-0.292577	-1.175422	0.046559	-0.427006	-1.154228	0.043465	-0.320497	-1.100594	0.049125	-0.377316	-1.306958	0.142122	-0.324626	-0.933536	1.357864	-0.072876	-0.872526	1.387624	-0.386516	
30	0.1450	-0.967390	0.906871	-0.142478	-0.946043	0.902959	-0.375685	-1.128998	0.937927	-0.221343	-1.118054	0.946403	-0.318980	-0.955646	0.749714	-0.095047	-0.915936	0.785920	-0.119245	-0.933203	0.720594	-0.095542	-0.891808	0.757869	-0.115416	-0.759044	0.547000	-0.136612	-0.772134	0.531381	-0.248345	-0.878107	0.470210	-0.120570	-0.838154	0.432589	-0.136384	-0.911904	0.440729	-0.121707	-0.876412	0.405119	-0.134273	-1.044903	0.293645	-0.166193	-1.015509	0.282905	-0.247314	-1.008754	0.169107	-0.144471	-0.989594	0.162442	-0.248670	-0.931025	0.142324	-0.191288	-1.112558	0.298877	-0.226410	-1.004645	0.723390	-0.435293	-0.951284	0.726290	-0.419195	-0.996773	0.678109	-0.432886	-0.949227	0.680951	-0.422453	-0.966180	0.437329	-0.397832	-0.968634	0.424187	-0.290813	-1.087765	0.373655	-0.417785	-1.050264	0.344718	-0.417420	-1.119771	0.331366	-0.416940	-1.084572	0.302831	-0.415316	-1.232346	0.155808	-0.375385	-1.196543	0.142096	-0.292835	-1.173463	0.049722	-0.426601	-1.152569	0.045378	-0.320542	-1.099773	0.049316	-0.377286	-1.298718	0.151643	-0.324170	-0.917248	1.360748	-0.070280	-0.852318	1.390749	-0.382808	
31	0.1500	-0.948236	0.909906	-0.141477	-0.926499	0.906022	-0.374422	-1.109641	0.940647	-0.220445	-1.098494	0.949260	-0.318020	-0.935442	0.753879	-0.094076	-0.896118	0.790884	-0.118141	-0.912558	0.725109	-0.094665	-0.871589	0.763134	-0.114367	-0.735719	0.553814	-0.135690	-0.747630	0.538000	-0.247216	-0.850728	0.469442	-0.120071	-0.808514	0.434592	-0.135791	-0.882543	0.437824	-0.121348	-0.844936	0.404708	-0.133786	-1.006040	0.282197	-0.166545	-0.975777	0.274122	-0.247622	-0.961486	0.159700	-0.146031	-0.941459	0.155917	-0.250352	-0.881623	0.139130	-0.193019	-1.074098	0.283301	-0.226856	-0.986575	0.726098	-0.434305	-0.933279	0.728324	-0.418002	-0.979304	0.680678	-0.431975	-0.931846	0.682860	-0.421188	-0.952846	0.438729	-0.397502	-0.955622	0.425307	-0.290172	-1.076086	0.378001	-0.417500	-1.039192	0.348254	-0.417376	-1.108990	0.336513	-0.416642	-1.074375	0.307081	-0.415129	-1.224614	0.162986	-0.375281	-1.188993	0.147735	-0.293117	-1.170994	0.053327	-0.426192	-1.150371	0.047637	-0.320584	-1.098454	0.049645	-0.377274	-1.289612	0.161635	-0.323664	-0.900907	1.363639	-0.067706	-0.832400	1.393893	-0.379135	
32	0.1550	-0.928998	0.912911	-0.140474	-0.906962	0.909133	-0.373146	-1.090221	0.943319	-0.219448	-1.078923	0.952060	-0.316963	-0.915504	0.757689	-0.093076	-0.876479	0.795330	-0.116970	-0.892291	0.729199	-0.093761	-0.851663	0.767819	-0.113245	-0.713485	0.559781	-0.134764	-0.724217	0.543799	-0.246040	-0.824236	0.468047	-0.119486	-0.779903	0.436087	-0.135209	-0.853970	0.434381	-0.120950	-0.814362	0.403880	-0.133325	-0.967496	0.270739	-0.166979	-0.936467	0.265318	-0.247982	-0.914757	0.150705	-0.147629	-0.893956	0.149795	-0.252046	-0.833095	0.136391	-0.194713	-1.035699	0.267732	-0.227444	-0.968350	0.728885	-0.433359	-0.915136	0.730500	-0.416859	-0.961618	0.683341	-0.431108	-0.914273	0.684925	-0.419979	-0.938933	0.440334	-0.397305	-0.941948	0.426634	-0.289676	-1.063752	0.382562	-0.417276	-1.027485	0.352029	-0.417413	-1.097535	0.341906	-0.416389	-1.063514	0.311583	-0.414976	-1.216114	0.170501	-0.375163	-1.180676	0.153697	-0.293414	-1.167936	0.057373	-0.425784	-1.147554	0.050252	-0.320623	-1.096550	0.050133	-0.377285	-1.279625	0.172027	-0.323106	-0.884495	1.366504	-0.065153	-0.812783	1.397025	-0.375513	
33	0.1600	-0.909668	0.915848	-0.139462	-0.887418	0.912260	-0.371853	-1.070732	0.945903	-0.218358	-1.059331	0.954769	-0.315810	-0.895811	0.761081	-0.092048	-0.856987	0.799197	-0.115735	-0.872377	0.732798	-0.092833	-0.832000	0.771859	-0.112056	-0.692292	0.564825	-0.133856	-0.701863	0.548700	-0.244843	-0.798619	0.466005	-0.118831	-0.752324	0.437028	-0.134653	-0.826188	0.430398	-0.120526	-0.784709	0.402606	-0.132907	-0.929373	0.259325	-0.167487	-0.897683	0.256527	-0.248391	-0.868731	0.142143	-0.149243	-0.847254	0.144063	-0.253732	-0.785603	0.134062	-0.196353	-0.997473	0.252266	-0.228161	-0.949942	0.731712	-0.432450	-0.896828	0.732783	-0.415762	-0.943684	0.686059	-0.430283	-0.896478	0.687109	-0.418821	-0.924393	0.442103	-0.397229	-0.927568	0.428126	-0.289315	-1.050717	0.387291	-0.417103	-1.015097	0.355995	-0.417516	-1.085362	0.347496	-0.416169	-1.051947	0.316287	-0.414845	-1.206815	0.178304	-0.375028	-1.171563	0.159943	-0.293716	-1.164210	0.061854	-0.425383	-1.144032	0.053228	-0.320658	-1.093971	0.050799	-0.377322	-1.268747	0.182737	-0.322497	-0.867999	1.369306	-0.062621	-0.793471	1.400115	-0.371951	
34	0.1650	-0.890237	0.918679	-0.138435	-0.867850	0.915371	-0.370539	-1.051166	0.948355	-0.217179	-1.039705	0.957349	-0.314568	-0.876334	0.764002	-0.090994	-0.837611	0.802431	-0.114441	-0.852786	0.735849	-0.091881	-0.812562	0.775199	-0.110802	-0.672080	0.568887	-0.132992	-0.680525	0.552645	-0.243647	-0.773854	0.463308	-0.118128	-0.725767	0.437374	-0.134142	-0.799196	0.425879	-0.120092	-0.755989	0.400862	-0.132543	-0.891778	0.248008	-0.168064	-0.859529	0.247776	-0.248850	-0.823577	0.134029	-0.150853	-0.801518	0.138698	-0.255393	-0.739307	0.132089	-0.197924	-0.959541	0.236994	-0.228995	-0.931322	0.734541	-0.431573	-0.878323	0.735132	-0.414703	-0.925474	0.688791	-0.429494	-0.878426	0.689372	-0.417708	-0.909182	0.443991	-0.397263	-0.912445	0.429736	-0.289079	-1.036941	0.392137	-0.416967	-1.001987	0.360103	-0.417672	-1.072430	0.353228	-0.415970	-1.039632	0.321143	-0.414721	-1.196687	0.186341	-0.374872	-1.161623	0.166427	-0.294013	-1.159727	0.066753	-0.424996	-1.139718	0.056563	-0.320692	-1.090623	0.051664	-0.377391	-1.256969	0.193674	-0.321838	-0.851400	1.372014	-0.060107	-0.774462	1.403134	-0.368460	
35	0.1700	-0.870695	0.921366	-0.137385	-0.848238	0.918432	-0.369200	-1.031512	0.950637	-0.215918	-1.020029	0.959768	-0.313241	-0.857041	0.766408	-0.089915	-0.818315	0.804992	-0.113091	-0.833480	0.738307	-0.090909	-0.793310	0.777796	-0.109489	-0.652776	0.571925	-0.132194	-0.660147	0.555595	-0.242477	-0.749914	0.459965	-0.117401	-0.700214	0.437100	-0.133694	-0.772988	0.420843	-0.119668	-0.728208	0.398636	-0.132248	-0.854823	0.236840	-0.168707	-0.822114	0.239095	-0.249359	-0.779462	0.126367	-0.152439	-0.756914	0.133663	-0.257011	-0.694358	0.130404	-0.199415	-0.922036	0.222006	-0.229936	-0.912462	0.737331	-0.430722	-0.859592	0.737509	-0.413673	-0.906956	0.691497	-0.428733	-0.860086	0.691671	-0.416633	-0.893259	0.445952	-0.397389	-0.896549	0.431416	-0.288953	-1.022387	0.397048	-0.416855	-0.988114	0.364298	-0.417864	-1.058700	0.359047	-0.415780	-1.026530	0.326097	-0.414593	-1.185700	0.194551	-0.374694	-1.150826	0.173101	-0.294298	-1.154400	0.072043	-0.424632	-1.134523	0.060245	-0.320728	-1.086410	0.052745	-0.377496	-1.244286	0.204744	-0.321134	-0.834682	1.374596	-0.057609	-0.755748	1.406054	-0.365049	
36	0.1750	-0.851030	0.923876	-0.136304	-0.828562	0.921407	-0.367828	-1.011760	0.952714	-0.214579	-1.000285	0.961994	-0.311836	-0.837896	0.768263	-0.088811	-0.799063	0.806851	-0.111691	-0.814420	0.740136	-0.089918	-0.774201	0.779623	-0.108123	-0.634299	0.573920	-0.131485	-0.640661	0.557531	-0.241358	-0.726766	0.455994	-0.116675	-0.675637	0.436191	-0.133326	-0.747556	0.415318	-0.119273	-0.701363	0.395924	-0.132036	-0.818626	0.225871	-0.169412	-0.785549	0.230509	-0.249919	-0.736553	0.119156	-0.153982	-0.713601	0.128918	-0.258568	-0.650898	0.128937	-0.200813	-0.885099	0.207387	-0.230975	-0.893330	0.740043	-0.429887	-0.840603	0.739872	-0.412663	-0.888102	0.694135	-0.427993	-0.841423	0.693967	-0.415585	-0.876590	0.447942	-0.397591	-0.879854	0.433122	-0.288919	-1.007020	0.401969	-0.416753	-0.973444	0.368529	-0.418078	-1.044136	0.364894	-0.415587	-1.012605	0.331095	-0.414450	-1.173823	0.202870	-0.374493	-1.139143	0.179910	-0.294564	-1.148136	0.077689	-0.424297	-1.128358	0.064256	-0.320771	-1.081233	0.054056	-0.377645	-1.230693	0.215849	-0.320390	-0.817828	1.377023	-0.055124	-0.737316	1.408852	-0.361722	
37	0.1800	-0.831232	0.926174	-0.135181	-0.808796	0.924263	-0.366417	-0.991895	0.954552	-0.213169	-0.980456	0.963998	-0.310358	-0.818859	0.769545	-0.087683	-0.779816	0.807990	-0.110244	-0.795561	0.741315	-0.088910	-0.755191	0.780666	-0.106708	-0.616560	0.574871	-0.130885	-0.621993	0.558453	-0.240312	-0.704373	0.451430	-0.115978	-0.652002	0.434645	-0.133053	-0.722890	0.409344	-0.118927	-0.675446	0.392733	-0.131919	-0.783305	0.215151	-0.170177	-0.749944	0.222044	-0.250533	-0.695012	0.112387	-0.155466	-0.671732	0.124412	-0.260052	-0.609063	0.127610	-0.202109	-0.848877	0.193216	-0.232102	-0.873899	0.742639	-0.429058	-0.821325	0.742182	-0.411659	-0.868882	0.696667	-0.427263	-0.822406	0.696217	-0.414554	-0.859142	0.449916	-0.397848	-0.862339	0.434807	-0.288960	-0.990809	0.406848	-0.416650	-0.957943	0.372743	-0.418296	-1.028707	0.370710	-0.415379	-0.997822	0.336082	-0.414280	-1.161027	0.211230	-0.374270	-1.126545	0.186796	-0.294807	-1.140844	0.083646	-0.424000	-1.121133	0.068568	-0.320825	-1.074991	0.055605	-0.377840	-1.216187	0.226887	-0.319614	-0.800819	1.379269	-0.052648	-0.719149	1.411505	-0.358484	
38	0.1850	-0.811288	0.928231	-0.134009	-0.788919	0.926965	-0.364960	-0.971904	0.956125	-0.211693	-0.960521	0.965755	-0.308814	-0.799892	0.770240	-0.086531	-0.760539	0.808408	-0.108756	-0.776856	0.741836	-0.087886	-0.736237	0.780923	-0.105253	-0.599465	0.574796	-0.130408	-0.604062	0.558382	-0.239359	-0.682698	0.446319	-0.115335	-0.629267	0.432472	-0.132890	-0.698976	0.402971	-0.118651	-0.650447	0.389078	-0.131909	-0.748981	0.204726	-0.171002	-0.715409	0.213724	-0.251205	-0.654996	0.106049	-0.156878	-0.631455	0.120095	-0.261451	-0.568976	0.126346	-0.203296	-0.813520	0.179569	-0.233312	-0.854138	0.745081	-0.428225	-0.801727	0.744404	-0.410648	-0.849268	0.699056	-0.426533	-0.803001	0.698385	-0.413528	-0.840888	0.451835	-0.398140	-0.843987	0.436431	-0.289054	-0.973727	0.411632	-0.416532	-0.941578	0.376887	-0.418504	-1.012381	0.376438	-0.415148	-0.982150	0.341005	-0.414078	-1.147281	0.219559	-0.374028	-1.113001	0.193699	-0.295024	-1.132430	0.089861	-0.423747	-1.112760	0.073144	-0.320895	-1.067588	0.057397	-0.378088	-1.200762	0.237759	-0.318814	-0.783639	1.381311	-0.050177	-0.701224	1.413993	-0.355337	
39	0.1900	-0.791185	0.930022	-0.132775	-0.768905	0.929483	-0.363449	-0.951775	0.957410	-0.210158	-0.940460	0.967243	-0.307209	-0.780952	0.770350	-0.085354	-0.741196	0.808113	-0.107231	-0.758259	0.741703	-0.086847	-0.717296	0.780408	-0.103763	-0.582922	0.573733	-0.130069	-0.586783	0.557357	-0.238516	-0.661701	0.440717	-0.114772	-0.607388	0.429694	-0.132848	-0.675802	0.396255	-0.118465	-0.626349	0.384984	-0.132017	-0.715771	0.194643	-0.171885	-0.682050	0.205574	-0.251940	-0.616653	0.100123	-0.158205	-0.592904	0.115913	-0.262754	-0.530748	0.125068	-0.204369	-0.779180	0.166514	-0.234600	-0.834022	0.747339	-0.427375	-0.781781	0.746501	-0.409615	-0.829234	0.701268	-0.425790	-0.783181	0.700437	-0.412494	-0.821803	0.453663	-0.398444	-0.824788	0.437958	-0.289182	-0.955749	0.416271	-0.416387	-0.924321	0.380914	-0.418687	-0.995132	0.382022	-0.414885	-0.965559	0.345813	-0.413836	-1.132553	0.227787	-0.373771	-1.098480	0.200555	-0.295211	-1.122804	0.096273	-0.423546	-1.103154	0.077940	-0.320989	-1.058925	0.059430	-0.378391	-1.184415	0.248366	-0.318001	-0.766270	1.383129	-0.047707	-0.683515	1.416302	-0.352282	
40	0.1950	-0.770911	0.931525	-0.131471	-0.748730	0.931786	-0.361876	-0.931493	0.958389	-0.208566	-0.920253	0.968445	-0.305548	-0.762001	0.769884	-0.084153	-0.721754	0.807128	-0.105674	-0.739720	0.740932	-0.085794	-0.698328	0.779149	-0.102245	-0.566834	0.571736	-0.129877	-0.570067	0.555432	-0.237797	-0.641344	0.434689	-0.114313	-0.586319	0.426344	-0.132936	-0.653357	0.389261	-0.118385	-0.603136	0.380484	-0.132250	-0.683790	0.184942	-0.172829	-0.649972	0.197617	-0.252742	-0.580118	0.094592	-0.159440	-0.556203	0.111814	-0.263957	-0.494478	0.123705	-0.205326	-0.746006	0.154113	-0.235960	-0.813526	0.749381	-0.426495	-0.761462	0.748445	-0.408547	-0.808756	0.703275	-0.425023	-0.762916	0.702340	-0.411439	-0.801869	0.455369	-0.398739	-0.804731	0.439355	-0.289320	-0.936855	0.420721	-0.416207	-0.906145	0.384780	-0.418829	-0.976936	0.387408	-0.414584	-0.948020	0.350457	-0.413550	-1.116814	0.235842	-0.373503	-1.082955	0.207304	-0.295369	-1.111881	0.102815	-0.423404	-1.092235	0.082904	-0.321112	-1.048910	0.061692	-0.378753	-1.167139	0.258613	-0.317185	-0.748697	1.384708	-0.045234	-0.665992	1.418416	-0.349320	
41	0.2000	-0.750457	0.932724	-0.130088	-0.728374	0.933848	-0.360235	-0.911045	0.959053	-0.206921	-0.899883	0.969348	-0.303836	-0.742998	0.768864	-0.082926	-0.702183	0.805486	-0.104089	-0.721193	0.739552	-0.084727	-0.679294	0.777186	-0.100706	-0.551110	0.568872	-0.129835	-0.553829	0.552679	-0.237212	-0.621591	0.428310	-0.113978	-0.566010	0.422464	-0.133160	-0.631627	0.382060	-0.118427	-0.580787	0.375620	-0.132613	-0.653148	0.175665	-0.173834	-0.619269	0.189876	-0.253617	-0.545515	0.089433	-0.160578	-0.521462	0.107750	-0.265056	-0.460250	0.122191	-0.206170	-0.714142	0.142419	-0.237389	-0.792628	0.751184	-0.425572	-0.740745	0.750208	-0.407430	-0.787815	0.705052	-0.424218	-0.742184	0.704072	-0.410352	-0.781071	0.456929	-0.399001	-0.783814	0.440599	-0.289446	-0.917025	0.424939	-0.415982	-0.887026	0.388443	-0.418918	-0.957772	0.392547	-0.414239	-0.929508	0.354895	-0.413219	-1.100034	0.243653	-0.373229	-1.066395	0.213880	-0.295497	-1.099579	0.109416	-0.423326	-1.079929	0.087978	-0.321270	-1.037459	0.064170	-0.379174	-1.148929	0.268409	-0.316379	-0.730906	1.386036	-0.042753	-0.648623	1.420326	-0.346447	
42	0.2050	-0.729812	0.933608	-0.128617	-0.707817	0.935646	-0.358520	-0.890422	0.959397	-0.205227	-0.879333	0.969944	-0.302076	-0.723909	0.767322	-0.081672	-0.682459	0.803232	-0.102481	-0.702637	0.737604	-0.083647	-0.660161	0.774570	-0.099152	-0.535665	0.565223	-0.129944	-0.537985	0.549180	-0.236767	-0.602405	0.421659	-0.113783	-0.546413	0.418107	-0.133522	-0.610604	0.374727	-0.118601	-0.559282	0.370437	-0.133110	-0.623945	0.166848	-0.174902	-0.590032	0.182377	-0.254570	-0.512950	0.084625	-0.161617	-0.488776	0.103677	-0.266052	-0.428133	0.120467	-0.206904	-0.683722	0.131479	-0.238885	-0.771312	0.752727	-0.424593	-0.719613	0.751772	-0.406249	-0.766394	0.706579	-0.423364	-0.720966	0.705611	-0.409219	-0.759401	0.458324	-0.399208	-0.762036	0.441672	-0.289540	-0.896249	0.428889	-0.415705	-0.866945	0.391870	-0.418943	-0.937624	0.397396	-0.413847	-0.910002	0.359086	-0.412842	-1.082186	0.251152	-0.372956	-1.048776	0.220225	-0.295597	-1.085827	0.116000	-0.423316	-1.066172	0.093100	-0.321469	-1.024492	0.066838	-0.379655	-1.129780	0.277672	-0.315595	-0.712884	1.387107	-0.040261	-0.631377	1.422025	-0.343663	
43	0.2100	-0.708971	0.934171	-0.127049	-0.687043	0.937162	-0.356726	-0.869615	0.959422	-0.203486	-0.858590	0.970232	-0.300270	-0.704704	0.765301	-0.080391	-0.662562	0.800423	-0.100853	-0.684010	0.735137	-0.082554	-0.640902	0.771362	-0.097589	-0.520417	0.560880	-0.130199	-0.522455	0.545028	-0.236464	-0.583756	0.414818	-0.113740	-0.527484	0.413333	-0.134022	-0.590276	0.367337	-0.118915	-0.538601	0.364991	-0.133740	-0.596273	0.158523	-0.176034	-0.562341	0.175143	-0.255604	-0.482511	0.080146	-0.162559	-0.458220	0.099559	-0.266947	-0.398179	0.118488	-0.207535	-0.654870	0.121330	-0.240444	-0.749568	0.753996	-0.423545	-0.698054	0.753120	-0.404993	-0.744483	0.707845	-0.422449	-0.699249	0.706944	-0.408031	-0.736857	0.459544	-0.399338	-0.739405	0.442562	-0.289578	-0.874518	0.432540	-0.415370	-0.845888	0.395031	-0.418893	-0.916481	0.401915	-0.413409	-0.889486	0.362996	-0.412421	-1.063248	0.258277	-0.372688	-1.030074	0.226280	-0.295671	-1.070562	0.122492	-0.423378	-1.050909	0.098203	-0.321712	-1.009945	0.069668	-0.380194	-1.109686	0.286328	-0.314843	-0.694622	1.387918	-0.037755	-0.614221	1.423508	-0.340964	
44	0.2150	-0.687931	0.934414	-0.125381	-0.666041	0.938382	-0.354849	-0.848619	0.959138	-0.201697	-0.837647	0.970214	-0.298423	-0.685355	0.762849	-0.079082	-0.642478	0.797120	-0.099210	-0.665280	0.732212	-0.081447	-0.621496	0.767633	-0.096024	-0.505297	0.555944	-0.130592	-0.507167	0.540325	-0.236300	-0.565617	0.407872	-0.113856	-0.509178	0.408205	-0.134653	-0.570636	0.359968	-0.119373	-0.518723	0.359336	-0.134499	-0.570208	0.150721	-0.177230	-0.536261	0.168197	-0.256723	-0.454267	0.075977	-0.163408	-0.429853	0.095369	-0.267747	-0.370422	0.116219	-0.208072	-0.627695	0.112001	-0.242062	-0.727392	0.754982	-0.422418	-0.676061	0.754245	-0.403650	-0.722079	0.708841	-0.421460	-0.677026	0.708063	-0.406776	-0.713445	0.460585	-0.399371	-0.715933	0.443267	-0.289541	-0.851832	0.435869	-0.414974	-0.823847	0.397904	-0.418758	-0.894341	0.406072	-0.412925	-0.867949	0.366597	-0.411958	-1.043203	0.264967	-0.372433	-1.010273	0.231989	-0.295721	-1.053736	0.128816	-0.423514	-1.034099	0.103221	-0.322004	-0.993763	0.072625	-0.380788	-1.088648	0.294310	-0.314136	-0.676113	1.388471	-0.035233	-0.597122	1.424776	-0.338346	
45	0.2200	-0.666694	0.934343	-0.123605	-0.644807	0.939298	-0.352888	-0.827435	0.958559	-0.199864	-0.816499	0.969898	-0.296534	-0.665846	0.760024	-0.077743	-0.622202	0.793393	-0.097554	-0.646422	0.728892	-0.080326	-0.601929	0.763461	-0.094461	-0.490244	0.550518	-0.131110	-0.492057	0.535175	-0.236268	-0.547963	0.400906	-0.114132	-0.491458	0.402795	-0.135409	-0.551678	0.352697	-0.119972	-0.499629	0.353535	-0.135382	-0.545815	0.143464	-0.178489	-0.511849	0.161565	-0.257927	-0.428263	0.072098	-0.164170	-0.403713	0.091089	-0.268461	-0.344879	0.113637	-0.208526	-0.602289	0.103513	-0.243735	-0.704786	0.755683	-0.421200	-0.653638	0.755143	-0.402213	-0.699185	0.709566	-0.420388	-0.654301	0.708968	-0.405447	-0.689179	0.461450	-0.399286	-0.691638	0.443791	-0.289410	-0.828200	0.438859	-0.414516	-0.800822	0.400473	-0.418531	-0.871207	0.409841	-0.412397	-0.845392	0.369868	-0.411457	-1.022041	0.271170	-0.372195	-0.989365	0.237306	-0.295749	-1.035316	0.134899	-0.423724	-1.015716	0.108085	-0.322346	-0.975909	0.075668	-0.381430	-1.066669	0.301563	-0.313485	-0.657355	1.388772	-0.032693	-0.580052	1.425830	-0.335807	
46	0.2250	-0.645267	0.933971	-0.121721	-0.623343	0.939907	-0.350843	-0.806068	0.957705	-0.197985	-0.795151	0.969297	-0.294607	-0.646166	0.756888	-0.076375	-0.601736	0.789318	-0.095889	-0.627417	0.725251	-0.079190	-0.582197	0.758927	-0.092906	-0.475211	0.544711	-0.131737	-0.477072	0.529687	-0.236358	-0.530778	0.394003	-0.114565	-0.474288	0.397173	-0.136276	-0.533397	0.345595	-0.120707	-0.481300	0.347648	-0.136379	-0.523142	0.136774	-0.179808	-0.489145	0.155268	-0.259215	-0.404525	0.068492	-0.164855	-0.379817	0.086711	-0.269097	-0.321548	0.110734	-0.208911	-0.578723	0.095876	-0.245456	-0.681764	0.756102	-0.419884	-0.630795	0.755819	-0.400673	-0.675816	0.710025	-0.419224	-0.631085	0.709663	-0.404037	-0.664084	0.462150	-0.399066	-0.666550	0.444145	-0.289166	-0.803641	0.441497	-0.413994	-0.776824	0.402729	-0.418207	-0.847097	0.413203	-0.411829	-0.821821	0.372793	-0.410923	-0.999764	0.276840	-0.371980	-0.967351	0.242185	-0.295759	-1.015285	0.140672	-0.424006	-0.995751	0.112730	-0.322739	-0.956366	0.078754	-0.382115	-1.043760	0.308044	-0.312897	-0.638353	1.388832	-0.030133	-0.562985	1.426676	-0.333343	
47	0.2300	-0.623664	0.933317	-0.119727	-0.601659	0.940211	-0.348715	-0.784532	0.956604	-0.196062	-0.773613	0.968430	-0.292643	-0.626316	0.753506	-0.074978	-0.581092	0.784973	-0.094217	-0.608258	0.721361	-0.078039	-0.562305	0.754115	-0.091363	-0.460163	0.538629	-0.132453	-0.462168	0.523966	-0.236556	-0.514049	0.387240	-0.115146	-0.457642	0.391414	-0.137242	-0.515791	0.338731	-0.121567	-0.463721	0.341737	-0.137477	-0.502219	0.130666	-0.181184	-0.468175	0.149329	-0.260584	-0.383051	0.065144	-0.165472	-0.358160	0.082237	-0.269667	-0.300409	0.107515	-0.209239	-0.557050	0.089093	-0.247218	-0.658347	0.756247	-0.418462	-0.607555	0.756280	-0.399028	-0.651994	0.710228	-0.417962	-0.607401	0.710160	-0.402541	-0.638196	0.462700	-0.398696	-0.640708	0.444346	-0.288794	-0.778184	0.443781	-0.413410	-0.751877	0.404669	-0.417781	-0.822036	0.416147	-0.411228	-0.797257	0.375362	-0.410361	-0.976385	0.281940	-0.371792	-0.944244	0.246591	-0.295752	-0.993649	0.146071	-0.424357	-0.974215	0.117095	-0.323181	-0.935135	0.081836	-0.382834	-1.019939	0.313720	-0.312382	-0.619117	1.388665	-0.027556	-0.545902	1.427324	-0.330951	
48	0.2350	-0.601907	0.932403	-0.117624	-0.579774	0.940220	-0.346508	-0.762845	0.955285	-0.194095	-0.751903	0.967319	-0.290643	-0.606304	0.749946	-0.073550	-0.560291	0.780436	-0.092542	-0.588949	0.717299	-0.076872	-0.542268	0.749113	-0.089836	-0.445078	0.532378	-0.133236	-0.447317	0.518117	-0.236846	-0.497768	0.380691	-0.115861	-0.441497	0.385588	-0.138288	-0.498858	0.332167	-0.122539	-0.446877	0.335863	-0.138661	-0.483058	0.125147	-0.182608	-0.448946	0.143770	-0.262026	-0.363819	0.062041	-0.166032	-0.338717	0.077681	-0.270182	-0.281423	0.103997	-0.209526	-0.537297	0.083157	-0.249011	-0.634570	0.756133	-0.416930	-0.583948	0.756542	-0.397274	-0.627753	0.710192	-0.416595	-0.583282	0.710474	-0.400957	-0.611566	0.463122	-0.398161	-0.614161	0.444415	-0.288281	-0.751872	0.445713	-0.412766	-0.726016	0.406297	-0.417250	-0.796067	0.418668	-0.410599	-0.771736	0.377574	-0.409776	-0.951933	0.286439	-0.371633	-0.920073	0.250494	-0.295732	-0.970434	0.151042	-0.424773	-0.951139	0.121124	-0.323670	-0.912242	0.084869	-0.383578	-0.995237	0.318569	-0.311945	-0.599663	1.388289	-0.024963	-0.528789	1.427783	-0.328628	
49	0.2400	-0.580025	0.931259	-0.115416	-0.557718	0.939946	-0.344228	-0.741036	0.953782	-0.192087	-0.730052	0.965990	-0.288611	-0.586152	0.746276	-0.072095	-0.539366	0.775787	-0.090865	-0.569504	0.713140	-0.075690	-0.522112	0.744004	-0.088327	-0.429951	0.526058	-0.134065	-0.432501	0.512237	-0.237208	-0.481936	0.374419	-0.116694	-0.425839	0.379767	-0.139396	-0.482599	0.325960	-0.123604	-0.430756	0.330083	-0.139914	-0.465655	0.120222	-0.184072	-0.431452	0.138608	-0.263534	-0.346782	0.059173	-0.166545	-0.321442	0.073062	-0.270653	-0.264535	0.100210	-0.209784	-0.519472	0.078053	-0.250823	-0.610478	0.755780	-0.415286	-0.560020	0.756624	-0.395414	-0.603142	0.709937	-0.415121	-0.558776	0.710626	-0.399283	-0.584256	0.463439	-0.397452	-0.586973	0.444381	-0.287616	-0.724765	0.447302	-0.412067	-0.699295	0.407623	-0.416613	-0.769246	0.420769	-0.409948	-0.745308	0.379430	-0.409172	-0.926452	0.290318	-0.371506	-0.894881	0.253875	-0.295698	-0.945692	0.155537	-0.425246	-0.926579	0.124767	-0.324202	-0.887736	0.087806	-0.384334	-0.969697	0.322583	-0.311589	-0.580018	1.387725	-0.022356	-0.511642	1.428069	-0.326371	
50	0.2450	-0.558058	0.929917	-0.113110	-0.535531	0.939409	-0.341881	-0.719142	0.952133	-0.190040	-0.708096	0.964474	-0.286548	-0.565893	0.742563	-0.070612	-0.518358	0.771101	-0.089190	-0.549951	0.708958	-0.074491	-0.501874	0.738870	-0.086841	-0.414789	0.519763	-0.134915	-0.417717	0.506416	-0.237622	-0.466554	0.368484	-0.117623	-0.410659	0.374017	-0.140545	-0.467016	0.320155	-0.124742	-0.415349	0.324453	-0.141216	-0.449984	0.115889	-0.185566	-0.415670	0.133860	-0.265095	-0.331872	0.056531	-0.167022	-0.306268	0.068411	-0.271093	-0.249670	0.096194	-0.210027	-0.503557	0.073757	-0.252642	-0.586127	0.755210	-0.413531	-0.535826	0.756548	-0.393451	-0.578218	0.709488	-0.413539	-0.533941	0.710640	-0.397523	-0.556346	0.463681	-0.396562	-0.559221	0.444272	-0.286792	-0.696936	0.448562	-0.411315	-0.671782	0.408663	-0.415870	-0.741647	0.422458	-0.409284	-0.718040	0.380941	-0.408553	-0.900006	0.293565	-0.371411	-0.868732	0.256720	-0.295652	-0.919498	0.159518	-0.425768	-0.900615	0.127984	-0.324769	-0.861696	0.090603	-0.385091	-0.943380	0.325765	-0.311319	-0.560216	1.386998	-0.019741	-0.494463	1.428197	-0.324179	
51	0.2500	-0.536054	0.928412	-0.110712	-0.513263	0.938634	-0.339478	-0.697212	0.950377	-0.187956	-0.686084	0.962804	-0.284460	-0.545571	0.738870	-0.069104	-0.497321	0.766451	-0.087519	-0.530330	0.704821	-0.073278	-0.481602	0.733786	-0.085378	-0.399615	0.513578	-0.135762	-0.402976	0.500736	-0.238068	-0.451634	0.362933	-0.118624	-0.395958	0.368398	-0.141713	-0.452111	0.314790	-0.125929	-0.400648	0.319021	-0.142548	-0.436006	0.112138	-0.187075	-0.401558	0.129538	-0.266696	-0.319000	0.054107	-0.167474	-0.293110	0.063763	-0.271512	-0.236740	0.091996	-0.210267	-0.489512	0.070236	-0.254450	-0.561586	0.754452	-0.411668	-0.511436	0.756340	-0.391392	-0.553055	0.708873	-0.411852	-0.508850	0.710543	-0.395679	-0.527930	0.463878	-0.395486	-0.530996	0.444120	-0.285802	-0.668479	0.449513	-0.410517	-0.643567	0.409435	-0.415023	-0.713362	0.423752	-0.408613	-0.690021	0.382121	-0.407922	-0.872679	0.296179	-0.371347	-0.841709	0.259026	-0.295595	-0.891958	0.162959	-0.426330	-0.873351	0.130744	-0.325365	-0.834226	0.093221	-0.385836	-0.916360	0.328129	-0.311132	-0.540301	1.386133	-0.017123	-0.477268	1.428185	-0.322051	
52	0.2550	-0.514072	0.926782	-0.108235	-0.490976	0.937646	-0.337028	-0.675300	0.948553	-0.185842	-0.664076	0.961013	-0.282350	-0.525243	0.735255	-0.067575	-0.476319	0.761901	-0.085855	-0.510693	0.700794	-0.072050	-0.461357	0.728824	-0.083942	-0.384464	0.507580	-0.136584	-0.388301	0.495266	-0.238524	-0.437190	0.357802	-0.119674	-0.381740	0.362967	-0.142879	-0.437890	0.309895	-0.127143	-0.386649	0.313832	-0.143888	-0.423661	0.108956	-0.188587	-0.389063	0.125652	-0.268321	-0.308060	0.051896	-0.167908	-0.281866	0.059158	-0.271917	-0.225642	0.087674	-0.210514	-0.477278	0.067453	-0.256234	-0.536939	0.753534	-0.409703	-0.486931	0.756029	-0.389245	-0.527737	0.708122	-0.410063	-0.483591	0.710364	-0.393759	-0.499118	0.464058	-0.394225	-0.502407	0.443957	-0.284647	-0.639503	0.450178	-0.409678	-0.614757	0.409965	-0.414075	-0.684500	0.424671	-0.407941	-0.661355	0.382990	-0.407282	-0.844576	0.298169	-0.371312	-0.813915	0.260798	-0.295525	-0.863201	0.165844	-0.426921	-0.844919	0.133024	-0.325980	-0.805458	0.095623	-0.386556	-0.888732	0.329701	-0.311028	-0.520328	1.385158	-0.014510	-0.460078	1.428051	-0.319987	
53	0.2600	-0.492180	0.925066	-0.105691	-0.468742	0.936479	-0.334546	-0.653476	0.946700	-0.183703	-0.642140	0.959138	-0.280224	-0.504977	0.731773	-0.066029	-0.455424	0.757511	-0.084200	-0.491103	0.696931	-0.070810	-0.441207	0.724044	-0.082533	-0.369384	0.501833	-0.137359	-0.373729	0.490067	-0.238972	-0.423240	0.353121	-0.120744	-0.368016	0.357770	-0.144022	-0.424356	0.305488	-0.128358	-0.373349	0.308923	-0.145215	-0.412877	0.106321	-0.190085	-0.378114	0.122204	-0.269951	-0.298926	0.049891	-0.168333	-0.272418	0.054640	-0.272317	-0.216261	0.083285	-0.210775	-0.466774	0.065362	-0.257976	-0.512278	0.752490	-0.407645	-0.462404	0.755644	-0.387022	-0.502363	0.707267	-0.408181	-0.458262	0.710132	-0.391771	-0.470037	0.464253	-0.392782	-0.473576	0.443816	-0.283328	-0.610135	0.450585	-0.408804	-0.585477	0.410279	-0.413030	-0.655190	0.425241	-0.407275	-0.632170	0.383570	-0.406634	-0.815824	0.299552	-0.371304	-0.785475	0.262050	-0.295442	-0.833385	0.168168	-0.427530	-0.815473	0.134814	-0.326604	-0.775552	0.097781	-0.387240	-0.860609	0.330517	-0.311001	-0.500359	1.384100	-0.011910	-0.442931	1.427817	-0.317987	
54	0.2650	-0.470455	0.923303	-0.103094	-0.446645	0.935164	-0.332044	-0.631814	0.944856	-0.181547	-0.620357	0.957215	-0.278091	-0.484850	0.728469	-0.064471	-0.434719	0.753333	-0.082560	-0.471637	0.693284	-0.069561	-0.421231	0.719501	-0.081154	-0.354434	0.496393	-0.138069	-0.359306	0.485186	-0.239392	-0.409808	0.348907	-0.121811	-0.354805	0.352850	-0.145122	-0.411516	0.301577	-0.129551	-0.360747	0.304326	-0.146510	-0.403567	0.104208	-0.191553	-0.368629	0.119195	-0.271569	-0.291463	0.048087	-0.168753	-0.264636	0.050254	-0.272718	-0.208470	0.078893	-0.211058	-0.457901	0.063911	-0.259659	-0.487709	0.751352	-0.405506	-0.437960	0.755213	-0.384737	-0.477043	0.706341	-0.406214	-0.432973	0.709877	-0.389726	-0.440828	0.464489	-0.391165	-0.444640	0.443725	-0.281851	-0.580520	0.450765	-0.407902	-0.555874	0.410407	-0.411896	-0.625579	0.425494	-0.406621	-0.602611	0.383888	-0.405979	-0.786568	0.300354	-0.371318	-0.756535	0.262804	-0.295345	-0.802692	0.169937	-0.428146	-0.785196	0.136113	-0.327228	-0.744696	0.099673	-0.387874	-0.832122	0.330623	-0.311048	-0.480470	1.382989	-0.009335	-0.425870	1.427502	-0.316052	
55	0.2700	-0.448983	0.921531	-0.100462	-0.424776	0.933738	-0.329538	-0.610399	0.943056	-0.179383	-0.598813	0.955278	-0.275958	-0.464951	0.725382	-0.062907	-0.414293	0.749408	-0.080937	-0.452379	0.689891	-0.068306	-0.401517	0.715239	-0.079807	-0.339682	0.491301	-0.138697	-0.345091	0.480659	-0.239769	-0.396917	0.345166	-0.122849	-0.342126	0.348238	-0.146161	-0.399374	0.298162	-0.130699	-0.348842	0.300064	-0.147753	-0.395634	0.102586	-0.192974	-0.360517	0.116618	-0.273156	-0.285523	0.046480	-0.169172	-0.258380	0.046041	-0.273121	-0.202137	0.074558	-0.211365	-0.450549	0.063044	-0.261266	-0.463345	0.750154	-0.403300	-0.413712	0.754766	-0.382406	-0.451897	0.705375	-0.404175	-0.407849	0.709624	-0.387637	-0.411646	0.464790	-0.389386	-0.415750	0.443710	-0.280225	-0.550818	0.450748	-0.406977	-0.526110	0.410378	-0.410678	-0.595829	0.425462	-0.405982	-0.572841	0.383975	-0.405317	-0.756977	0.300610	-0.371350	-0.727260	0.263088	-0.295232	-0.771331	0.171168	-0.428755	-0.754290	0.136932	-0.327841	-0.713102	0.101282	-0.388448	-0.803420	0.330072	-0.311160	-0.460742	1.381852	-0.006793	-0.408953	1.427126	-0.314185	
56	0.2750	-0.427858	0.919785	-0.097813	-0.403236	0.932235	-0.327043	-0.589325	0.941332	-0.177222	-0.577605	0.953361	-0.273836	-0.445374	0.722544	-0.061344	-0.394244	0.745770	-0.079336	-0.433421	0.686783	-0.067050	-0.382159	0.711291	-0.078493	-0.325203	0.486589	-0.139230	-0.331147	0.476509	-0.240088	-0.384597	0.341896	-0.123836	-0.330004	0.343960	-0.147123	-0.387936	0.295233	-0.131782	-0.337637	0.296154	-0.148927	-0.388970	0.101418	-0.194334	-0.353674	0.114462	-0.274692	-0.280951	0.045062	-0.169593	-0.253502	0.042044	-0.273531	-0.197121	0.070340	-0.211698	-0.444591	0.062702	-0.262783	-0.439310	0.748927	-0.401043	-0.389784	0.754330	-0.380047	-0.427055	0.704400	-0.402077	-0.383017	0.709400	-0.385516	-0.382657	0.465177	-0.387460	-0.387067	0.443794	-0.278463	-0.521203	0.450567	-0.406037	-0.496362	0.410224	-0.409388	-0.566117	0.425182	-0.405362	-0.543040	0.383860	-0.404648	-0.727235	0.300362	-0.371395	-0.697832	0.262939	-0.295101	-0.739529	0.171888	-0.429348	-0.722978	0.137291	-0.328431	-0.681003	0.102602	-0.388952	-0.774671	0.328926	-0.311330	-0.441266	1.380715	-0.004299	-0.392245	1.426710	-0.312387	
57	0.2800	-0.407179	0.918100	-0.095167	-0.382130	0.930690	-0.324577	-0.568688	0.939712	-0.175075	-0.556835	0.951495	-0.271735	-0.426219	0.719975	-0.059791	-0.374669	0.742443	-0.077763	-0.414862	0.683983	-0.065797	-0.363253	0.707683	-0.077214	-0.311076	0.482279	-0.139659	-0.317545	0.472751	-0.240339	-0.372874	0.339086	-0.124752	-0.318465	0.340032	-0.147995	-0.377207	0.292773	-0.132782	-0.327131	0.292604	-0.150017	-0.383463	0.100664	-0.195617	-0.347993	0.112711	-0.276161	-0.277590	0.043826	-0.170015	-0.249850	0.038298	-0.273945	-0.193281	0.066294	-0.212056	-0.439896	0.062821	-0.264196	-0.415732	0.747702	-0.398753	-0.366304	0.753926	-0.377678	-0.402653	0.703445	-0.399938	-0.358617	0.709226	-0.383381	-0.354036	0.465665	-0.385405	-0.358764	0.443994	-0.276581	-0.491862	0.450255	-0.405087	-0.466821	0.409975	-0.408035	-0.536634	0.424691	-0.404765	-0.513400	0.383576	-0.403972	-0.697541	0.299658	-0.371446	-0.668449	0.262398	-0.294951	-0.707531	0.172133	-0.429913	-0.691499	0.137219	-0.328989	-0.648653	0.103632	-0.389379	-0.746052	0.327254	-0.311547	-0.422139	1.379603	-0.001863	-0.375819	1.426272	-0.310663	
58	0.2850	-0.387050	0.916502	-0.092544	-0.361569	0.929138	-0.322157	-0.548593	0.938218	-0.172957	-0.536608	0.949708	-0.269667	-0.407590	0.717691	-0.058257	-0.355672	0.739442	-0.076223	-0.396804	0.681503	-0.064555	-0.344900	0.704428	-0.075974	-0.297383	0.478379	-0.139979	-0.304360	0.469387	-0.240515	-0.361778	0.336717	-0.125582	-0.307537	0.336463	-0.148768	-0.367190	0.290757	-0.133684	-0.317327	0.289417	-0.151012	-0.378996	0.100282	-0.196811	-0.343362	0.111342	-0.277546	-0.275281	0.042766	-0.170439	-0.247271	0.034833	-0.274363	-0.190473	0.062469	-0.212436	-0.436324	0.063339	-0.265493	-0.392742	0.746508	-0.396451	-0.343403	0.753578	-0.375319	-0.378830	0.702533	-0.397776	-0.334790	0.709120	-0.381248	-0.325964	0.466263	-0.383244	-0.331015	0.444321	-0.274599	-0.462985	0.449843	-0.404134	-0.437686	0.409659	-0.406632	-0.507576	0.424028	-0.404192	-0.484124	0.383156	-0.403289	-0.668107	0.298554	-0.371500	-0.639320	0.261512	-0.294781	-0.675597	0.171943	-0.430440	-0.660105	0.136753	-0.329507	-0.616316	0.104378	-0.389724	-0.717756	0.325127	-0.311803	-0.403462	1.378537	0.000500	-0.359757	1.425830	-0.309014	
59	0.2900	-0.367573	0.915017	-0.089965	-0.341665	0.927608	-0.319799	-0.529143	0.936869	-0.170879	-0.517032	0.948024	-0.267644	-0.389591	0.715697	-0.056750	-0.337355	0.736773	-0.074722	-0.379350	0.679346	-0.063331	-0.327200	0.701533	-0.074774	-0.284207	0.474891	-0.140187	-0.291665	0.466411	-0.240612	-0.351333	0.334762	-0.126311	-0.297245	0.333255	-0.149434	-0.357885	0.289152	-0.134477	-0.308223	0.286589	-0.151902	-0.375450	0.100225	-0.197904	-0.339664	0.110329	-0.278834	-0.273866	0.041870	-0.170860	-0.245614	0.031673	-0.274782	-0.188556	0.058905	-0.212834	-0.433735	0.064189	-0.266665	-0.370475	0.745368	-0.394157	-0.321214	0.753299	-0.372991	-0.355727	0.701687	-0.395609	-0.311677	0.709096	-0.379133	-0.298623	0.466976	-0.381001	-0.304001	0.444781	-0.272539	-0.434770	0.449362	-0.403185	-0.409160	0.409303	-0.405191	-0.479144	0.423230	-0.403644	-0.455419	0.382630	-0.402599	-0.639150	0.297105	-0.371550	-0.610660	0.260332	-0.294591	-0.643992	0.171370	-0.430922	-0.629057	0.135937	-0.329975	-0.584268	0.104856	-0.389982	-0.689979	0.322623	-0.312087	-0.385339	1.377536	0.002779	-0.344142	1.425398	-0.307445	
60	0.2950	-0.348855	0.913664	-0.087451	-0.322526	0.926131	-0.317519	-0.510441	0.935677	-0.168856	-0.498212	0.946462	-0.265678	-0.372323	0.713992	-0.055280	-0.319815	0.734433	-0.073267	-0.362600	0.677509	-0.062130	-0.310250	0.698994	-0.073618	-0.271624	0.471807	-0.140285	-0.279533	0.463811	-0.240629	-0.341563	0.333190	-0.126933	-0.287614	0.330403	-0.149989	-0.349291	0.287923	-0.135156	-0.299818	0.284110	-0.152682	-0.372707	0.100447	-0.198889	-0.336786	0.109641	-0.280013	-0.273196	0.041128	-0.171278	-0.244731	0.028834	-0.275198	-0.187393	0.055636	-0.213244	-0.431987	0.065308	-0.267708	-0.349058	0.744304	-0.391892	-0.299868	0.753103	-0.370714	-0.333482	0.700924	-0.393459	-0.289418	0.709161	-0.377055	-0.272192	0.467802	-0.378705	-0.277896	0.445373	-0.270425	-0.407411	0.448838	-0.402245	-0.381448	0.408931	-0.403728	-0.451541	0.422335	-0.403123	-0.427495	0.382028	-0.401903	-0.610890	0.295374	-0.371593	-0.582687	0.258909	-0.294381	-0.612985	0.170467	-0.431352	-0.598613	0.134820	-0.330390	-0.552787	0.105085	-0.390153	-0.662921	0.319819	-0.312390	-0.367874	1.376616	0.004960	-0.329061	1.424990	-0.305960	
61	0.3000	-0.330994	0.912458	-0.085021	-0.304260	0.924729	-0.315332	-0.492589	0.934649	-0.166901	-0.480252	0.945039	-0.263783	-0.355882	0.712566	-0.053858	-0.303145	0.732415	-0.071865	-0.346649	0.675980	-0.060963	-0.294141	0.696800	-0.072510	-0.259707	0.469113	-0.140279	-0.268032	0.461567	-0.240567	-0.332488	0.331966	-0.127442	-0.278663	0.327895	-0.150435	-0.341404	0.287031	-0.135717	-0.292106	0.281965	-0.153348	-0.370654	0.100900	-0.199761	-0.334615	0.109245	-0.281075	-0.273127	0.040530	-0.171687	-0.244481	0.026325	-0.275607	-0.186853	0.052683	-0.213660	-0.430946	0.066635	-0.268617	-0.328617	0.743333	-0.389677	-0.279488	0.752996	-0.368506	-0.312228	0.700257	-0.391344	-0.268147	0.709320	-0.375031	-0.246847	0.468733	-0.376384	-0.252873	0.446091	-0.268283	-0.381099	0.448296	-0.401322	-0.354748	0.408562	-0.402257	-0.424961	0.421377	-0.402629	-0.400554	0.381380	-0.401205	-0.583544	0.293422	-0.371625	-0.555616	0.257297	-0.294151	-0.582841	0.169290	-0.431725	-0.569031	0.133456	-0.330745	-0.522144	0.105090	-0.390239	-0.636778	0.316794	-0.312702	-0.351166	1.375788	0.007032	-0.314602	1.424615	-0.304563	
62	0.3050	-0.314084	0.911405	-0.082695	-0.286966	0.923424	-0.313255	-0.475680	0.933787	-0.165029	-0.463246	0.943763	-0.261970	-0.340358	0.711407	-0.052493	-0.287430	0.730703	-0.070523	-0.331586	0.674741	-0.059836	-0.278956	0.694936	-0.071453	-0.248522	0.466788	-0.140177	-0.257225	0.459654	-0.240434	-0.324121	0.331049	-0.127838	-0.270407	0.325717	-0.150774	-0.334215	0.286432	-0.136161	-0.285079	0.280133	-0.153902	-0.369180	0.101538	-0.200517	-0.333044	0.109103	-0.282016	-0.273526	0.040060	-0.172083	-0.244732	0.024145	-0.276003	-0.186813	0.050060	-0.214076	-0.430481	0.068110	-0.269393	-0.309266	0.742466	-0.387533	-0.260189	0.752982	-0.366388	-0.292088	0.699694	-0.389285	-0.247987	0.709571	-0.373078	-0.222748	0.469758	-0.374068	-0.229088	0.446922	-0.266140	-0.356013	0.447757	-0.400422	-0.329250	0.408214	-0.400794	-0.399589	0.420387	-0.402161	-0.374792	0.380708	-0.400506	-0.557319	0.291311	-0.371643	-0.529652	0.255549	-0.293905	-0.553813	0.167899	-0.432039	-0.540556	0.131899	-0.331039	-0.492604	0.104899	-0.390244	-0.611741	0.313625	-0.313014	-0.335311	1.375060	0.008985	-0.300847	1.424284	-0.303255	
63	0.3100	-0.298209	0.910510	-0.080491	-0.270731	0.922230	-0.311298	-0.459798	0.933086	-0.163252	-0.447281	0.942641	-0.260250	-0.325828	0.710493	-0.051195	-0.272743	0.729277	-0.069247	-0.317488	0.673769	-0.058757	-0.264767	0.693379	-0.070450	-0.238122	0.464806	-0.139989	-0.247164	0.458045	-0.240235	-0.316471	0.330401	-0.128125	-0.262856	0.323848	-0.151011	-0.327711	0.286084	-0.136492	-0.278725	0.278593	-0.154347	-0.368185	0.102315	-0.201158	-0.331971	0.109177	-0.282834	-0.274272	0.039707	-0.172463	-0.245364	0.022288	-0.276383	-0.187160	0.047773	-0.214485	-0.430470	0.069677	-0.270041	-0.291106	0.741711	-0.385480	-0.242074	0.753059	-0.364375	-0.273171	0.699237	-0.387303	-0.229049	0.709909	-0.371213	-0.200042	0.470860	-0.371785	-0.206687	0.447851	-0.264023	-0.332314	0.447239	-0.399550	-0.305125	0.407899	-0.399355	-0.375596	0.419396	-0.401720	-0.350387	0.380038	-0.399811	-0.532407	0.289101	-0.371645	-0.504986	0.253718	-0.293644	-0.526137	0.166350	-0.432293	-0.513418	0.130205	-0.331271	-0.464411	0.104544	-0.390174	-0.587984	0.310386	-0.313318	-0.320393	1.374437	0.010808	-0.287873	1.423999	-0.302041	
64	0.3150	-0.283441	0.909771	-0.078423	-0.255631	0.921159	-0.309473	-0.445017	0.932540	-0.161581	-0.432429	0.941674	-0.258635	-0.312357	0.709802	-0.049971	-0.259144	0.728112	-0.068046	-0.304418	0.673039	-0.057735	-0.251634	0.692102	-0.069507	-0.228549	0.463139	-0.139729	-0.237890	0.456709	-0.239981	-0.309539	0.329980	-0.128310	-0.256013	0.322264	-0.151155	-0.321878	0.285945	-0.136717	-0.273027	0.277319	-0.154689	-0.367573	0.103189	-0.201687	-0.331300	0.109428	-0.283530	-0.275258	0.039455	-0.172822	-0.246267	0.020740	-0.276741	-0.187791	0.045815	-0.214880	-0.430802	0.071286	-0.270565	-0.274225	0.741071	-0.383534	-0.225230	0.753220	-0.362483	-0.255571	0.698888	-0.385414	-0.211427	0.710325	-0.369449	-0.178856	0.472018	-0.369565	-0.185792	0.448856	-0.261960	-0.310147	0.446756	-0.398714	-0.282526	0.407627	-0.397957	-0.353130	0.418427	-0.401305	-0.327498	0.379386	-0.399125	-0.508982	0.286848	-0.371630	-0.481790	0.251851	-0.293371	-0.500027	0.164700	-0.432488	-0.487822	0.128427	-0.331444	-0.437786	0.104057	-0.390038	-0.565665	0.307146	-0.313609	-0.306489	1.373918	0.012495	-0.275750	1.423765	-0.300923	
65	0.3200	-0.269838	0.909180	-0.076505	-0.241726	0.920216	-0.307789	-0.431396	0.932137	-0.160026	-0.418751	0.940859	-0.257133	-0.299993	0.709308	-0.048830	-0.246679	0.727183	-0.066923	-0.292426	0.672519	-0.056776	-0.239599	0.691078	-0.068626	-0.219832	0.461757	-0.139412	-0.229432	0.455615	-0.239683	-0.303317	0.329748	-0.128401	-0.249871	0.320942	-0.151217	-0.316691	0.285971	-0.136848	-0.267965	0.276282	-0.154936	-0.367260	0.104120	-0.202111	-0.330947	0.109818	-0.284108	-0.276389	0.039291	-0.173157	-0.247345	0.019481	-0.277075	-0.188617	0.044175	-0.215255	-0.431380	0.072893	-0.270976	-0.258689	0.740546	-0.381711	-0.209725	0.753457	-0.360724	-0.239361	0.698641	-0.383635	-0.195196	0.710806	-0.367799	-0.159291	0.473210	-0.367434	-0.166503	0.449915	-0.259974	-0.289629	0.446318	-0.397919	-0.261580	0.407403	-0.396613	-0.332315	0.417501	-0.400918	-0.306258	0.378768	-0.398454	-0.487190	0.284607	-0.371599	-0.460208	0.249994	-0.293092	-0.475665	0.163002	-0.432627	-0.463946	0.126617	-0.331559	-0.412923	0.103473	-0.389845	-0.544919	0.303969	-0.313880	-0.293657	1.373502	0.014039	-0.264533	1.423582	-0.299901	
66	0.3250	-0.257440	0.908728	-0.074746	-0.229060	0.919403	-0.306252	-0.418975	0.931861	-0.158595	-0.406286	0.940188	-0.255751	-0.288769	0.708983	-0.047777	-0.235375	0.726460	-0.065886	-0.281543	0.672181	-0.055885	-0.228691	0.690276	-0.067811	-0.211986	0.460627	-0.139051	-0.221808	0.454733	-0.239353	-0.297793	0.329665	-0.128412	-0.244418	0.319853	-0.151208	-0.312126	0.286125	-0.136896	-0.263511	0.275456	-0.155100	-0.367172	0.105073	-0.202437	-0.330835	0.110311	-0.284577	-0.277589	0.039199	-0.173464	-0.248518	0.018485	-0.277380	-0.189559	0.042833	-0.215605	-0.432116	0.074457	-0.271282	-0.244548	0.740130	-0.380025	-0.195607	0.753756	-0.359108	-0.224595	0.698487	-0.381980	-0.180409	0.711337	-0.366274	-0.141425	0.474412	-0.365418	-0.148896	0.451003	-0.258090	-0.270850	0.445931	-0.397170	-0.242385	0.407229	-0.395339	-0.313247	0.416635	-0.400557	-0.286771	0.378198	-0.397805	-0.467149	0.282425	-0.371554	-0.440359	0.248187	-0.292811	-0.453199	0.161305	-0.432715	-0.441933	0.124821	-0.331623	-0.389975	0.102822	-0.389607	-0.525851	0.300912	-0.314128	-0.281943	1.373181	0.015438	-0.254268	1.423448	-0.298977	
67	0.3300	-0.246270	0.908401	-0.073153	-0.217654	0.918718	-0.304866	-0.407779	0.931698	-0.157294	-0.395058	0.939650	-0.254494	-0.278700	0.708799	-0.046818	-0.225243	0.725915	-0.064937	-0.271784	0.671992	-0.055069	-0.218920	0.689665	-0.067065	-0.205010	0.459718	-0.138663	-0.215017	0.454032	-0.239003	-0.292943	0.329696	-0.128355	-0.239632	0.318971	-0.151141	-0.308152	0.286370	-0.136875	-0.259637	0.274813	-0.155191	-0.367243	0.106015	-0.202677	-0.330897	0.110870	-0.284944	-0.278791	0.039165	-0.173743	-0.249715	0.017726	-0.277655	-0.190552	0.041764	-0.215927	-0.432937	0.075946	-0.271498	-0.231824	0.739816	-0.378484	-0.182902	0.754105	-0.357642	-0.211301	0.698418	-0.380460	-0.167096	0.711901	-0.364882	-0.125303	0.475600	-0.363536	-0.133013	0.452094	-0.256327	-0.253870	0.445600	-0.396473	-0.225008	0.407104	-0.394146	-0.295989	0.415842	-0.400223	-0.269110	0.377682	-0.397184	-0.448944	0.280342	-0.371495	-0.422325	0.246464	-0.292531	-0.432741	0.159652	-0.432758	-0.421889	0.123083	-0.331642	-0.369062	0.102135	-0.389336	-0.508539	0.298022	-0.314350	-0.271374	1.372948	0.016690	-0.244982	1.423360	-0.298150	
68	0.3350	-0.236332	0.908183	-0.071730	-0.207512	0.918154	-0.303633	-0.397813	0.931627	-0.156126	-0.385071	0.939234	-0.253366	-0.269781	0.708728	-0.045955	-0.216275	0.725520	-0.064080	-0.263143	0.671922	-0.054330	-0.210277	0.689215	-0.066389	-0.198891	0.458999	-0.138263	-0.209050	0.453485	-0.238645	-0.288739	0.329811	-0.128245	-0.235484	0.318269	-0.151030	-0.304732	0.286674	-0.136799	-0.256307	0.274324	-0.155222	-0.367420	0.106922	-0.202840	-0.331077	0.111464	-0.285221	-0.279946	0.039178	-0.173991	-0.250884	0.017171	-0.277899	-0.191542	0.040939	-0.216218	-0.433786	0.077333	-0.271636	-0.220522	0.739593	-0.377096	-0.171613	0.754488	-0.356330	-0.199483	0.698419	-0.379083	-0.155261	0.712481	-0.363628	-0.110942	0.476750	-0.361806	-0.118871	0.453164	-0.254703	-0.238714	0.445323	-0.395832	-0.209482	0.407025	-0.393045	-0.280572	0.415130	-0.399917	-0.253312	0.377225	-0.396597	-0.432622	0.278394	-0.371427	-0.406155	0.244856	-0.292260	-0.414358	0.158080	-0.432762	-0.403881	0.121436	-0.331623	-0.350256	0.101440	-0.389043	-0.493024	0.295341	-0.314544	-0.261957	1.372793	0.017796	-0.236689	1.423311	-0.297418	
69	0.3400	-0.227609	0.908056	-0.070476	-0.198616	0.917702	-0.302549	-0.389061	0.931631	-0.155092	-0.376307	0.938924	-0.252366	-0.261989	0.708744	-0.045189	-0.208446	0.725246	-0.063316	-0.255599	0.671944	-0.053671	-0.202737	0.688897	-0.065785	-0.193599	0.458440	-0.137864	-0.203880	0.453064	-0.238291	-0.285144	0.329980	-0.128096	-0.231940	0.317720	-0.150886	-0.301829	0.287010	-0.136682	-0.253483	0.273963	-0.155206	-0.367659	0.107772	-0.202940	-0.331328	0.112065	-0.285421	-0.281016	0.039223	-0.174209	-0.251982	0.016789	-0.278111	-0.192489	0.040325	-0.216475	-0.434614	0.078600	-0.271709	-0.210618	0.739449	-0.375863	-0.161718	0.754888	-0.355174	-0.189123	0.698476	-0.377853	-0.144885	0.713059	-0.362514	-0.098327	0.477841	-0.360241	-0.106454	0.454189	-0.253229	-0.225375	0.445100	-0.395250	-0.195803	0.406987	-0.392044	-0.266993	0.414503	-0.399639	-0.239379	0.376831	-0.396051	-0.418196	0.276606	-0.371350	-0.391862	0.243382	-0.292001	-0.398077	0.156617	-0.432735	-0.387932	0.119911	-0.331573	-0.333588	0.100762	-0.388741	-0.479316	0.292897	-0.314711	-0.253681	1.372703	0.018760	-0.229384	1.423297	-0.296779	
70	0.3450	-0.220065	0.908004	-0.069389	-0.190930	0.917351	-0.301612	-0.381489	0.931690	-0.154191	-0.368731	0.938705	-0.251495	-0.255284	0.708822	-0.044520	-0.201712	0.725069	-0.062645	-0.249112	0.672030	-0.053091	-0.196258	0.688684	-0.065253	-0.189093	0.458015	-0.137479	-0.199471	0.452746	-0.237951	-0.282115	0.330180	-0.127922	-0.228955	0.317300	-0.150723	-0.299398	0.287355	-0.136538	-0.251121	0.273707	-0.155154	-0.367924	0.108548	-0.202988	-0.331612	0.112651	-0.285554	-0.281977	0.039290	-0.174395	-0.252981	0.016548	-0.278292	-0.193362	0.039891	-0.216698	-0.435387	0.079732	-0.271732	-0.202071	0.739371	-0.374785	-0.153176	0.755291	-0.354169	-0.180176	0.698577	-0.376773	-0.135924	0.713620	-0.361541	-0.087413	0.478855	-0.358849	-0.095716	0.455151	-0.251915	-0.213814	0.444926	-0.394729	-0.183937	0.406982	-0.391149	-0.255215	0.413963	-0.399390	-0.227279	0.376498	-0.395551	-0.405642	0.274999	-0.371270	-0.379422	0.242060	-0.291758	-0.383882	0.155287	-0.432685	-0.374027	0.118527	-0.331501	-0.319045	0.100119	-0.388441	-0.467390	0.290712	-0.314850	-0.246517	1.372667	0.019587	-0.223046	1.423311	-0.296228	
71	0.3500	-0.213648	0.908009	-0.068463	-0.184397	0.917087	-0.300816	-0.375045	0.931789	-0.153418	-0.362288	0.938561	-0.250747	-0.249609	0.708940	-0.043946	-0.196015	0.724966	-0.062066	-0.243624	0.672158	-0.052590	-0.190780	0.688552	-0.064791	-0.185322	0.457698	-0.137118	-0.195773	0.452511	-0.237634	-0.279605	0.330392	-0.127736	-0.226484	0.316986	-0.150552	-0.297396	0.287689	-0.136379	-0.249179	0.273533	-0.155079	-0.368191	0.109241	-0.202997	-0.331902	0.113200	-0.285635	-0.282814	0.039370	-0.174553	-0.253861	0.016418	-0.278443	-0.194141	0.039602	-0.216888	-0.436083	0.080723	-0.271717	-0.194814	0.739345	-0.373860	-0.145923	0.755683	-0.353311	-0.172576	0.698706	-0.375841	-0.128313	0.714149	-0.360704	-0.078127	0.479777	-0.357633	-0.086583	0.456031	-0.250765	-0.203962	0.444796	-0.394271	-0.173815	0.407004	-0.390362	-0.245169	0.413507	-0.399169	-0.216948	0.376223	-0.395102	-0.394900	0.273583	-0.371190	-0.368777	0.240898	-0.291535	-0.371713	0.154105	-0.432618	-0.362107	0.117301	-0.331415	-0.306571	0.099528	-0.388152	-0.457187	0.288796	-0.314963	-0.240417	1.372671	0.020286	-0.217638	1.423345	-0.295761	
72	0.3550	-0.208287	0.908053	-0.067688	-0.178945	0.916897	-0.300150	-0.369659	0.931911	-0.152767	-0.356908	0.938475	-0.250117	-0.244892	0.709080	-0.043461	-0.191282	0.724917	-0.061574	-0.239068	0.672307	-0.052166	-0.186235	0.688481	-0.064398	-0.182224	0.457468	-0.136789	-0.192730	0.452341	-0.237345	-0.277563	0.330599	-0.127549	-0.224476	0.316757	-0.150382	-0.295776	0.287999	-0.136217	-0.247609	0.273423	-0.154989	-0.368441	0.109843	-0.202978	-0.332177	0.113700	-0.285675	-0.283521	0.039455	-0.174683	-0.254615	0.016370	-0.278567	-0.194815	0.039428	-0.217047	-0.436686	0.081571	-0.271676	-0.188764	0.739357	-0.373080	-0.139874	0.756051	-0.352593	-0.166238	0.698850	-0.375051	-0.121964	0.714635	-0.359998	-0.070370	0.480596	-0.356592	-0.078958	0.456818	-0.249777	-0.195719	0.444703	-0.393875	-0.165339	0.407045	-0.389685	-0.236758	0.413132	-0.398976	-0.208289	0.376003	-0.394705	-0.385878	0.272364	-0.371111	-0.359835	0.239899	-0.291335	-0.361477	0.153078	-0.432543	-0.352079	0.116238	-0.331322	-0.296071	0.099000	-0.387882	-0.448620	0.287151	-0.315054	-0.235317	1.372706	0.020864	-0.213106	1.423392	-0.295372	
73	0.3600	-0.203899	0.908123	-0.067053	-0.174486	0.916768	-0.299606	-0.365249	0.932042	-0.152231	-0.352506	0.938434	-0.249597	-0.241052	0.709227	-0.043061	-0.187429	0.724906	-0.061165	-0.235361	0.672463	-0.051813	-0.182538	0.688451	-0.064069	-0.179732	0.457304	-0.136498	-0.190277	0.452219	-0.237090	-0.275934	0.330792	-0.127370	-0.222876	0.316595	-0.150222	-0.294490	0.288275	-0.136060	-0.246366	0.273358	-0.154895	-0.368661	0.110354	-0.202940	-0.332424	0.114141	-0.285686	-0.284102	0.039538	-0.174788	-0.255242	0.016380	-0.278665	-0.195381	0.039340	-0.217175	-0.437193	0.082280	-0.271620	-0.183823	0.739395	-0.372436	-0.134933	0.756387	-0.352003	-0.161059	0.698999	-0.374396	-0.116777	0.715067	-0.359415	-0.064023	0.481305	-0.355719	-0.072722	0.457504	-0.248947	-0.188963	0.444641	-0.393539	-0.158388	0.407098	-0.389113	-0.229860	0.412830	-0.398811	-0.201180	0.375830	-0.394364	-0.378458	0.271337	-0.371038	-0.352480	0.239060	-0.291160	-0.353044	0.152208	-0.432465	-0.343817	0.115339	-0.331228	-0.287415	0.098541	-0.387639	-0.441573	0.285771	-0.315123	-0.231140	1.372759	0.021334	-0.209387	1.423447	-0.295055	
