PathFileType	4	(X/Y/Z)	 P10 65r1 03.trc
DataRate	CameraRate	NumFrames	NumMarkers	Units	OrigDataRate	OrigDataStartFrame	OrigNumFrames
200	200	75	38	m	200	1	75
Frame#	Time	RASIS			LASIS			RPSIS			LPSIS			RThighRear1			RThighFront1			RThighRear2			RThighFront2			RKneeLat			RKneeMed			RShankRear1			RShankFront1			RShankRear2			RShankFront2			RAnkleLat			RAnkleMed			RM5			RM1			RMid			RHeel			LThighRear1			LThighFront1			LThighRear2			LThighFront2			LKneeLat			LKneeMed			LShankRear1			LShankFront1			LShankRear2			LShankFront2			LAnkleLat			LAnkleMed			LM5			LM1			LMid			LHeel			RShoulder			LShoulder			
		X1	Y1	Z1	X2	Y2	Z2	X3	Y3	Z3	X4	Y4	Z4	X5	Y5	Z5	X6	Y6	Z6	X7	Y7	Z7	X8	Y8	Z8	X9	Y9	Z9	X10	Y10	Z10	X11	Y11	Z11	X12	Y12	Z12	X13	Y13	Z13	X14	Y14	Z14	X15	Y15	Z15	X16	Y16	Z16	X17	Y17	Z17	X18	Y18	Z18	X19	Y19	Z19	X20	Y20	Z20	X21	Y21	Z21	X22	Y22	Z22	X23	Y23	Z23	X24	Y24	Z24	X25	Y25	Z25	X26	Y26	Z26	X27	Y27	Z27	X28	Y28	Z28	X29	Y29	Z29	X30	Y30	Z30	X31	Y31	Z31	X32	Y32	Z32	X33	Y33	Z33	X34	Y34	Z34	X35	Y35	Z35	X36	Y36	Z36	X37	Y37	Z37	X38	Y38	Z38	
1	0.0000	-1.459241	0.966401	-0.208060	-1.475588	0.971498	-0.465189	-1.644429	1.007180	-0.278426	-1.659868	0.997205	-0.376819	-1.544997	0.800261	-0.156727	-1.504134	0.802686	-0.172035	-1.547821	0.757625	-0.159321	-1.499135	0.754358	-0.181655	-1.605862	0.465865	-0.201982	-1.592191	0.453512	-0.308343	-1.755643	0.453464	-0.186747	-1.725464	0.410926	-0.199471	-1.796426	0.427458	-0.191757	-1.776075	0.384805	-0.204980	-2.022902	0.310620	-0.253667	-1.993070	0.297349	-0.344925	-2.050685	0.164164	-0.215130	-2.032585	0.141931	-0.328374	-1.999414	0.095696	-0.266987	-2.065211	0.360706	-0.315456	-1.524410	0.803444	-0.534901	-1.476532	0.835935	-0.533617	-1.499756	0.768351	-0.539940	-1.455004	0.800682	-0.541176	-1.317583	0.557122	-0.522852	-1.287474	0.556546	-0.415374	-1.406401	0.425098	-0.530889	-1.350113	0.422457	-0.535943	-1.414812	0.375273	-0.528945	-1.364236	0.370460	-0.536812	-1.406930	0.125816	-0.490478	-1.375859	0.146682	-0.402530	-1.267824	0.074053	-0.526433	-1.241586	0.092505	-0.411236	-1.194856	0.128293	-0.480926	-1.466536	0.061246	-0.436753	-1.278846	1.431131	-0.201010	-1.326244	1.448548	-0.478617	
2	0.0050	-1.445310	0.965559	-0.207876	-1.461881	0.971414	-0.464968	-1.631085	1.005266	-0.277491	-1.646344	0.996610	-0.376137	-1.527519	0.798616	-0.156978	-1.486916	0.802015	-0.172280	-1.529237	0.756086	-0.159619	-1.480622	0.754024	-0.182046	-1.579570	0.464084	-0.202992	-1.566870	0.452640	-0.309932	-1.729388	0.451443	-0.187197	-1.699204	0.408823	-0.200022	-1.770301	0.425470	-0.192008	-1.749956	0.382713	-0.205410	-1.997445	0.308806	-0.253129	-1.967789	0.296025	-0.344588	-2.021910	0.162517	-0.214487	-2.004098	0.140523	-0.327908	-1.969502	0.095238	-0.266920	-2.041323	0.358316	-0.314585	-1.511404	0.802691	-0.534393	-1.463243	0.834665	-0.533165	-1.487178	0.767321	-0.539346	-1.442067	0.799052	-0.540603	-1.307988	0.553825	-0.521925	-1.278796	0.552814	-0.414439	-1.398300	0.423145	-0.530748	-1.342137	0.419662	-0.535262	-1.407514	0.373570	-0.528814	-1.357036	0.367997	-0.536179	-1.404446	0.124999	-0.490135	-1.373596	0.145173	-0.401831	-1.266867	0.071519	-0.526156	-1.240553	0.088663	-0.410816	-1.193150	0.123382	-0.480161	-1.465556	0.061921	-0.436527	-1.266563	1.430820	-0.200264	-1.312149	1.446850	-0.479312	
3	0.0100	-1.431213	0.964687	-0.207670	-1.447997	0.971309	-0.464737	-1.617577	1.003309	-0.276557	-1.632651	0.995992	-0.375452	-1.509821	0.796955	-0.157226	-1.469476	0.801341	-0.172517	-1.510408	0.754540	-0.159914	-1.461863	0.753709	-0.182425	-1.552843	0.462352	-0.204026	-1.541116	0.451820	-0.311536	-1.702705	0.449421	-0.187661	-1.672495	0.406718	-0.200586	-1.743749	0.423461	-0.192266	-1.723388	0.380596	-0.205847	-1.971568	0.306858	-0.252566	-1.942085	0.294579	-0.344232	-1.992620	0.160734	-0.213808	-1.975089	0.138973	-0.327412	-1.939032	0.094669	-0.266826	-2.017059	0.355765	-0.313684	-1.498234	0.801917	-0.533885	-1.449787	0.833367	-0.532711	-1.474442	0.766262	-0.538754	-1.428969	0.797388	-0.540029	-1.298269	0.550457	-0.520999	-1.269982	0.549011	-0.413515	-1.390093	0.421139	-0.530608	-1.334057	0.416801	-0.534578	-1.400120	0.371820	-0.528679	-1.349745	0.365476	-0.535540	-1.401936	0.124177	-0.489775	-1.371306	0.143645	-0.401111	-1.265901	0.069009	-0.525881	-1.239502	0.084834	-0.410403	-1.191434	0.118452	-0.479386	-1.464555	0.062584	-0.436285	-1.254103	1.430466	-0.199498	-1.297836	1.445100	-0.480003	
4	0.0150	-1.416971	0.963788	-0.207437	-1.433947	0.971173	-0.464497	-1.603923	1.001309	-0.275632	-1.618803	0.995345	-0.374771	-1.491934	0.795294	-0.157465	-1.451842	0.800680	-0.172739	-1.491361	0.753005	-0.160197	-1.442888	0.753432	-0.182780	-1.525701	0.460720	-0.205077	-1.514940	0.451100	-0.313140	-1.675600	0.447417	-0.188133	-1.645333	0.404639	-0.201158	-1.716765	0.421441	-0.192526	-1.696359	0.378472	-0.206284	-1.945226	0.304730	-0.251971	-1.915920	0.292968	-0.343849	-1.962754	0.158783	-0.213089	-1.945495	0.137253	-0.326882	-1.907943	0.093973	-0.266699	-1.992375	0.352986	-0.312747	-1.484923	0.801116	-0.533379	-1.436184	0.832036	-0.532256	-1.461573	0.765170	-0.538167	-1.415733	0.795685	-0.539456	-1.288459	0.547019	-0.520081	-1.261056	0.545138	-0.412611	-1.381808	0.419077	-0.530471	-1.325903	0.413874	-0.533894	-1.392656	0.370020	-0.528539	-1.342389	0.362896	-0.534897	-1.399416	0.123354	-0.489400	-1.369004	0.142106	-0.400369	-1.264927	0.066544	-0.525613	-1.238433	0.081051	-0.410004	-1.189715	0.113540	-0.478604	-1.463539	0.063224	-0.436026	-1.241474	1.430062	-0.198707	-1.283304	1.443293	-0.480674	
5	0.0200	-1.402599	0.962862	-0.207170	-1.419736	0.970995	-0.464248	-1.590130	0.999269	-0.274726	-1.604809	0.994663	-0.374100	-1.473878	0.793650	-0.157688	-1.434036	0.800049	-0.172940	-1.472118	0.751503	-0.160462	-1.423721	0.753216	-0.183102	-1.498151	0.459242	-0.206136	-1.488340	0.450529	-0.314727	-1.648068	0.445453	-0.188608	-1.617702	0.402616	-0.201734	-1.689333	0.419422	-0.192781	-1.668842	0.376359	-0.206714	-1.918359	0.302372	-0.251335	-1.889235	0.291147	-0.343432	-1.932230	0.156636	-0.212328	-1.915232	0.135338	-0.326317	-1.876153	0.093139	-0.266535	-1.967210	0.349911	-0.311766	-1.471485	0.800286	-0.532876	-1.422451	0.830667	-0.531802	-1.448586	0.764043	-0.537588	-1.402377	0.793940	-0.538884	-1.278590	0.543512	-0.519174	-1.252043	0.541200	-0.411734	-1.373475	0.416959	-0.530336	-1.317704	0.410880	-0.533212	-1.385148	0.368169	-0.528394	-1.334997	0.360258	-0.534252	-1.396902	0.122534	-0.489006	-1.366702	0.140560	-0.399605	-1.263949	0.064146	-0.525355	-1.237349	0.077342	-0.409623	-1.187998	0.108679	-0.477819	-1.462520	0.063828	-0.435750	-1.228680	1.429600	-0.197889	-1.268546	1.441429	-0.481311	
6	0.0250	-1.388103	0.961912	-0.206865	-1.405364	0.970763	-0.463988	-1.576201	0.997189	-0.273846	-1.590669	0.993938	-0.373443	-1.455671	0.792042	-0.157887	-1.416074	0.799466	-0.173110	-1.452696	0.750057	-0.160701	-1.404379	0.753085	-0.183379	-1.470197	0.457974	-0.207195	-1.461312	0.450156	-0.316283	-1.620093	0.443550	-0.189078	-1.589579	0.400683	-0.202305	-1.661429	0.417414	-0.193022	-1.640803	0.374276	-0.207129	-1.890892	0.299739	-0.250654	-1.861959	0.289076	-0.342974	-1.900954	0.154267	-0.211522	-1.884204	0.133207	-0.325714	-1.843569	0.092160	-0.266330	-1.941488	0.346470	-0.310733	-1.457931	0.799422	-0.532377	-1.408597	0.829253	-0.531347	-1.435497	0.762877	-0.537018	-1.388916	0.792147	-0.538315	-1.268695	0.539936	-0.518281	-1.242967	0.537198	-0.410888	-1.365122	0.414783	-0.530204	-1.309488	0.407820	-0.532534	-1.377623	0.366264	-0.528243	-1.327595	0.357562	-0.533604	-1.394410	0.121720	-0.488594	-1.364414	0.139014	-0.398821	-1.262970	0.061832	-0.525113	-1.236249	0.073736	-0.409268	-1.186289	0.103905	-0.477036	-1.461506	0.064385	-0.435455	-1.215717	1.429076	-0.197038	-1.253549	1.439505	-0.481898	
7	0.0300	-1.373488	0.960941	-0.206517	-1.390824	0.970467	-0.463720	-1.562135	0.995071	-0.273000	-1.576379	0.993167	-0.372806	-1.437324	0.790489	-0.158056	-1.397968	0.798949	-0.173243	-1.433105	0.748690	-0.160906	-1.384877	0.753063	-0.183603	-1.441842	0.456971	-0.208242	-1.433850	0.450032	-0.317789	-1.591660	0.441729	-0.189535	-1.560940	0.398871	-0.202865	-1.633025	0.415428	-0.193241	-1.612204	0.372247	-0.207521	-1.862741	0.296783	-0.249920	-1.834013	0.286713	-0.342467	-1.868820	0.151656	-0.210670	-1.852306	0.130844	-0.325073	-1.810090	0.091034	-0.266083	-1.915122	0.342596	-0.309640	-1.444267	0.798521	-0.531883	-1.394628	0.827786	-0.530891	-1.422315	0.761670	-0.536458	-1.375361	0.790299	-0.537746	-1.258803	0.536293	-0.517404	-1.233854	0.533134	-0.410080	-1.356780	0.412549	-0.530073	-1.301286	0.404694	-0.531859	-1.370109	0.364307	-0.528083	-1.320212	0.354808	-0.532956	-1.391957	0.120917	-0.488164	-1.362156	0.137471	-0.398016	-1.261992	0.059619	-0.524891	-1.235135	0.070259	-0.408943	-1.184591	0.099250	-0.476261	-1.460509	0.064882	-0.435143	-1.202581	1.428488	-0.196151	-1.238296	1.437522	-0.482419	
8	0.0350	-1.358752	0.959954	-0.206122	-1.376108	0.970095	-0.463443	-1.547926	0.992920	-0.272196	-1.561933	0.992343	-0.372195	-1.418844	0.789011	-0.158187	-1.379727	0.798520	-0.173330	-1.413354	0.747424	-0.161068	-1.365227	0.753175	-0.183764	-1.413090	0.456289	-0.209265	-1.405951	0.450208	-0.319229	-1.562751	0.440009	-0.189969	-1.531759	0.397213	-0.203404	-1.604091	0.413477	-0.193429	-1.583007	0.370292	-0.207880	-1.833821	0.293465	-0.249128	-1.805315	0.284024	-0.341905	-1.835722	0.148788	-0.209772	-1.819432	0.128241	-0.324395	-1.775615	0.089770	-0.265793	-1.888019	0.338225	-0.308483	-1.430497	0.797577	-0.531393	-1.380549	0.826259	-0.530433	-1.409048	0.760420	-0.535908	-1.361721	0.788393	-0.537177	-1.248949	0.532584	-0.516543	-1.224731	0.529013	-0.409311	-1.348479	0.410258	-0.529942	-1.293128	0.401506	-0.531189	-1.362633	0.362298	-0.527913	-1.312877	0.351999	-0.532306	-1.389562	0.120127	-0.487717	-1.359943	0.135939	-0.397194	-1.261018	0.057519	-0.524692	-1.234009	0.066934	-0.408654	-1.182907	0.094746	-0.475499	-1.459543	0.065312	-0.434814	-1.189267	1.427837	-0.195223	-1.222770	1.435483	-0.482858	
9	0.0400	-1.343893	0.958957	-0.205679	-1.361204	0.969639	-0.463160	-1.533566	0.990739	-0.271440	-1.547322	0.991463	-0.371614	-1.400239	0.787628	-0.158273	-1.361359	0.798197	-0.173365	-1.393452	0.746283	-0.161181	-1.345439	0.753442	-0.183853	-1.383952	0.455979	-0.210251	-1.377615	0.450729	-0.320584	-1.533353	0.438411	-0.190371	-1.502018	0.395742	-0.203913	-1.574603	0.411572	-0.193575	-1.553180	0.368435	-0.208198	-1.804044	0.289749	-0.248275	-1.775785	0.280979	-0.341282	-1.801560	0.145657	-0.208833	-1.785481	0.125399	-0.323683	-1.740051	0.088382	-0.265462	-1.860087	0.333299	-0.307255	-1.416625	0.796589	-0.530908	-1.366361	0.824667	-0.529971	-1.395703	0.759126	-0.535368	-1.348003	0.786423	-0.536606	-1.239164	0.528815	-0.515700	-1.215626	0.524838	-0.408584	-1.340250	0.407916	-0.529807	-1.285046	0.398261	-0.530525	-1.355225	0.360242	-0.527730	-1.305621	0.349139	-0.531654	-1.387242	0.119353	-0.487254	-1.357789	0.134424	-0.396356	-1.260053	0.055541	-0.524519	-1.232873	0.063779	-0.408403	-1.181241	0.090424	-0.474756	-1.458621	0.065665	-0.434471	-1.175767	1.427126	-0.194252	-1.206953	1.433393	-0.483199	
10	0.0450	-1.328906	0.957959	-0.205184	-1.346101	0.969092	-0.462871	-1.519045	0.988536	-0.270738	-1.532535	0.990524	-0.371068	-1.381514	0.786361	-0.158307	-1.342873	0.798001	-0.173340	-1.373408	0.745292	-0.161236	-1.325526	0.753889	-0.183862	-1.354444	0.456086	-0.211184	-1.348856	0.451639	-0.321835	-1.503462	0.436953	-0.190727	-1.471706	0.394490	-0.204381	-1.544544	0.409726	-0.193669	-1.522699	0.366699	-0.208464	-1.773330	0.285610	-0.247357	-1.745346	0.277558	-0.340594	-1.766241	0.142264	-0.207855	-1.750361	0.122329	-0.322942	-1.703315	0.086894	-0.265092	-1.831235	0.327771	-0.305953	-1.402651	0.795555	-0.530424	-1.352067	0.823003	-0.529502	-1.382285	0.757790	-0.534836	-1.334214	0.784387	-0.536030	-1.229481	0.524991	-0.514872	-1.206570	0.520617	-0.407898	-1.332125	0.405529	-0.529667	-1.277071	0.394966	-0.529865	-1.347914	0.358144	-0.527534	-1.298474	0.346236	-0.531000	-1.385015	0.118601	-0.486778	-1.355710	0.132932	-0.395507	-1.259099	0.053691	-0.524376	-1.231732	0.060810	-0.408195	-1.179598	0.086309	-0.474037	-1.457755	0.065936	-0.434116	-1.162077	1.426361	-0.193235	-1.190831	1.431258	-0.483427	
11	0.0500	-1.313787	0.956968	-0.204640	-1.330788	0.968448	-0.462579	-1.504355	0.986318	-0.270095	-1.517563	0.989524	-0.370560	-1.362678	0.785230	-0.158283	-1.324277	0.797952	-0.173250	-1.353234	0.744471	-0.161226	-1.305503	0.754534	-0.183785	-1.324596	0.456653	-0.212049	-1.319693	0.452975	-0.322966	-1.473081	0.435652	-0.191028	-1.440826	0.393486	-0.204796	-1.513904	0.407950	-0.193699	-1.491550	0.365109	-0.208667	-1.741609	0.281029	-0.246373	-1.713933	0.273746	-0.339836	-1.729686	0.138623	-0.206846	-1.713997	0.119049	-0.322177	-1.665342	0.085336	-0.264688	-1.801381	0.321605	-0.304574	-1.388579	0.794474	-0.529941	-1.337668	0.821265	-0.529024	-1.368802	0.756414	-0.534310	-1.320361	0.782282	-0.535446	-1.219933	0.521123	-0.514059	-1.197595	0.516358	-0.407251	-1.324137	0.403107	-0.529518	-1.269236	0.391634	-0.529210	-1.340731	0.356014	-0.527320	-1.291467	0.343299	-0.530343	-1.382896	0.117875	-0.486291	-1.353721	0.131472	-0.394651	-1.258162	0.051972	-0.524264	-1.230591	0.058040	-0.408032	-1.177981	0.082427	-0.473349	-1.456960	0.066124	-0.433753	-1.148195	1.425552	-0.192169	-1.174391	1.429091	-0.483527	
12	0.0550	-1.298531	0.955997	-0.204047	-1.315257	0.967703	-0.462286	-1.489488	0.984095	-0.269515	-1.502397	0.988466	-0.370094	-1.343738	0.784255	-0.158195	-1.305583	0.798067	-0.173088	-1.332944	0.743842	-0.161145	-1.285387	0.755397	-0.183616	-1.294445	0.457714	-0.212828	-1.290161	0.454768	-0.323958	-1.442226	0.434520	-0.191259	-1.409392	0.392756	-0.205147	-1.482688	0.406255	-0.193654	-1.459735	0.363686	-0.208797	-1.708824	0.275998	-0.245323	-1.681495	0.269541	-0.339006	-1.691837	0.134755	-0.205814	-1.676331	0.115592	-0.321396	-1.626088	0.083750	-0.264257	-1.770454	0.314774	-0.303118	-1.374410	0.793348	-0.529456	-1.323167	0.819450	-0.528534	-1.355258	0.755003	-0.533788	-1.306452	0.780110	-0.534851	-1.210553	0.517223	-0.513257	-1.188732	0.512075	-0.406640	-1.316317	0.400664	-0.529355	-1.261574	0.388279	-0.528558	-1.333705	0.353866	-0.527088	-1.284629	0.340344	-0.529683	-1.380902	0.117183	-0.485799	-1.351836	0.130053	-0.393795	-1.257248	0.050383	-0.524185	-1.229458	0.055474	-0.407914	-1.176396	0.078798	-0.472698	-1.456249	0.066232	-0.433386	-1.134121	1.424713	-0.191055	-1.157630	1.426903	-0.483485	
13	0.0600	-1.283136	0.955056	-0.203408	-1.299501	0.966857	-0.461993	-1.474436	0.981881	-0.269000	-1.487028	0.987351	-0.369672	-1.324705	0.783454	-0.158037	-1.286804	0.798363	-0.172852	-1.312553	0.743423	-0.160988	-1.265195	0.756492	-0.183352	-1.264043	0.459295	-0.213505	-1.260305	0.457042	-0.324794	-1.410924	0.433570	-0.191408	-1.377431	0.392326	-0.205421	-1.450913	0.404652	-0.193524	-1.427269	0.362454	-0.208845	-1.674932	0.270522	-0.244209	-1.647994	0.264948	-0.338104	-1.652654	0.130691	-0.204768	-1.637329	0.111996	-0.320608	-1.585530	0.082182	-0.263806	-1.738395	0.307270	-0.301586	-1.360148	0.792181	-0.528966	-1.308568	0.817558	-0.528029	-1.341661	0.753564	-0.533266	-1.292494	0.777874	-0.534241	-1.201370	0.513308	-0.512462	-1.180015	0.507782	-0.406060	-1.308696	0.398217	-0.529176	-1.254114	0.384920	-0.527909	-1.326864	0.351716	-0.526834	-1.277989	0.337388	-0.529019	-1.379047	0.116532	-0.485305	-1.350067	0.128686	-0.392945	-1.256364	0.048922	-0.524141	-1.228343	0.053118	-0.407841	-1.174851	0.075439	-0.472091	-1.455633	0.066267	-0.433021	-1.119857	1.423859	-0.189892	-1.140545	1.424712	-0.483290	
14	0.0650	-1.267598	0.954160	-0.202727	-1.283514	0.965912	-0.461703	-1.459193	0.979688	-0.268551	-1.471452	0.986186	-0.369296	-1.305592	0.782844	-0.157804	-1.267956	0.798855	-0.172536	-1.292083	0.743232	-0.160750	-1.244952	0.757829	-0.182991	-1.233452	0.461411	-0.214063	-1.230185	0.459810	-0.325460	-1.379217	0.432810	-0.191463	-1.344989	0.392213	-0.205606	-1.418608	0.403151	-0.193296	-1.394184	0.361432	-0.208799	-1.639909	0.264614	-0.243033	-1.613411	0.259985	-0.337127	-1.612124	0.126471	-0.203719	-1.596980	0.108312	-0.319821	-1.543673	0.080687	-0.263343	-1.705163	0.299096	-0.299980	-1.345797	0.790978	-0.528470	-1.293876	0.815593	-0.527505	-1.328018	0.752106	-0.532740	-1.278495	0.775578	-0.533612	-1.192413	0.509397	-0.511673	-1.171474	0.503497	-0.405505	-1.301301	0.395790	-0.528975	-1.246884	0.381582	-0.527261	-1.320236	0.349586	-0.526558	-1.271575	0.334452	-0.528351	-1.377340	0.115935	-0.484815	-1.348424	0.127384	-0.392109	-1.255519	0.047582	-0.524133	-1.227256	0.050971	-0.407813	-1.173354	0.072364	-0.471534	-1.455121	0.066245	-0.432662	-1.105412	1.423007	-0.188680	-1.123144	1.422536	-0.482933	
15	0.0700	-1.251918	0.953323	-0.202010	-1.267295	0.964873	-0.461417	-1.443756	0.977531	-0.268169	-1.455664	0.984978	-0.368966	-1.286414	0.782440	-0.157494	-1.249056	0.799556	-0.172138	-1.271555	0.743282	-0.160426	-1.224680	0.759417	-0.182530	-1.202745	0.464072	-0.214485	-1.199870	0.463078	-0.325940	-1.347155	0.432244	-0.191411	-1.312122	0.392432	-0.205691	-1.385819	0.401759	-0.192961	-1.360528	0.360637	-0.208651	-1.603750	0.258298	-0.241799	-1.577745	0.254675	-0.336079	-1.570257	0.122146	-0.202680	-1.555299	0.104596	-0.319047	-1.500547	0.079325	-0.262877	-1.670733	0.290269	-0.298303	-1.331361	0.789747	-0.527964	-1.279094	0.813561	-0.526958	-1.314334	0.750641	-0.532208	-1.264463	0.773233	-0.532960	-1.183707	0.505514	-0.510884	-1.163140	0.499244	-0.404969	-1.294159	0.393406	-0.528750	-1.239911	0.378290	-0.526615	-1.313842	0.347499	-0.526257	-1.265408	0.331563	-0.527678	-1.375791	0.115404	-0.484334	-1.346914	0.126163	-0.391294	-1.254725	0.046357	-0.524160	-1.226212	0.049029	-0.407828	-1.171917	0.069580	-0.471033	-1.454721	0.066186	-0.432316	-1.090795	1.422179	-0.187422	-1.105438	1.420395	-0.482404	
16	0.0750	-1.236097	0.952559	-0.201261	-1.250845	0.963746	-0.461135	-1.428124	0.975429	-0.267852	-1.439662	0.983738	-0.368683	-1.267187	0.782255	-0.157103	-1.230121	0.800473	-0.171659	-1.250995	0.743583	-0.160015	-1.204405	0.761257	-0.181971	-1.172002	0.467272	-0.214755	-1.169439	0.466842	-0.326222	-1.314802	0.431873	-0.191240	-1.278902	0.392994	-0.205663	-1.352601	0.400482	-0.192508	-1.326361	0.360085	-0.208392	-1.566471	0.251611	-0.240513	-1.541016	0.249056	-0.334960	-1.527088	0.117769	-0.201661	-1.512327	0.100913	-0.318294	-1.456210	0.078158	-0.262416	-1.635099	0.280823	-0.296563	-1.316845	0.788499	-0.527446	-1.264229	0.811470	-0.526386	-1.300616	0.749183	-0.531666	-1.250406	0.770850	-0.532280	-1.175271	0.501686	-0.510092	-1.155036	0.495046	-0.404443	-1.287287	0.391094	-0.528497	-1.233214	0.375075	-0.525967	-1.307701	0.345485	-0.525931	-1.259507	0.328750	-0.527001	-1.374403	0.114956	-0.483869	-1.345541	0.125039	-0.390510	-1.253992	0.045238	-0.524222	-1.225228	0.047283	-0.407882	-1.170553	0.067091	-0.470594	-1.454434	0.066119	-0.431987	-1.076020	1.421395	-0.186118	-1.087445	1.418314	-0.481698	
17	0.0800	-1.220136	0.951881	-0.200489	-1.234167	0.962544	-0.460858	-1.412296	0.973397	-0.267599	-1.423447	0.982476	-0.368445	-1.247928	0.782299	-0.156631	-1.211170	0.801613	-0.171096	-1.230428	0.744141	-0.159516	-1.184155	0.763349	-0.181314	-1.141311	0.470998	-0.214860	-1.138979	0.471086	-0.326296	-1.282232	0.431694	-0.190939	-1.245410	0.393899	-0.205513	-1.319023	0.399326	-0.191930	-1.291759	0.359786	-0.208015	-1.528105	0.244596	-0.239179	-1.503262	0.243170	-0.333772	-1.482680	0.113404	-0.200675	-1.468133	0.097330	-0.317573	-1.410745	0.077250	-0.261971	-1.598277	0.270804	-0.294763	-1.302253	0.787246	-0.526914	-1.249286	0.809333	-0.525786	-1.286868	0.747749	-0.531110	-1.236330	0.768443	-0.531570	-1.167120	0.497939	-0.509294	-1.147183	0.490930	-0.403919	-1.280701	0.388888	-0.528211	-1.226809	0.371971	-0.525319	-1.301826	0.343576	-0.525578	-1.253886	0.326046	-0.526319	-1.373176	0.114613	-0.483426	-1.344304	0.124033	-0.389765	-1.253336	0.044218	-0.524319	-1.224321	0.045725	-0.407972	-1.169279	0.064897	-0.470222	-1.454261	0.066078	-0.431681	-1.061102	1.420676	-0.184773	-1.069189	1.416315	-0.480811	
18	0.0850	-1.204039	0.951305	-0.199699	-1.217266	0.961278	-0.460586	-1.396273	0.971453	-0.267405	-1.407020	0.981207	-0.368250	-1.228654	0.782576	-0.156075	-1.192224	0.802977	-0.170452	-1.209882	0.744960	-0.158927	-1.163954	0.765686	-0.180563	-1.110764	0.475225	-0.214787	-1.108583	0.475786	-0.326153	-1.249526	0.431700	-0.190498	-1.211739	0.395146	-0.205231	-1.285164	0.398291	-0.191218	-1.256811	0.359748	-0.207512	-1.488709	0.237306	-0.237805	-1.464539	0.237068	-0.332521	-1.437119	0.109114	-0.199730	-1.422809	0.093917	-0.316891	-1.364258	0.076665	-0.261546	-1.560301	0.260273	-0.292912	-1.287588	0.786004	-0.526364	-1.234269	0.807163	-0.525153	-1.273093	0.746356	-0.530537	-1.222239	0.766029	-0.530824	-1.159259	0.494306	-0.508487	-1.139593	0.486925	-0.403389	-1.274405	0.386820	-0.527891	-1.220702	0.369015	-0.524669	-1.296224	0.341805	-0.525197	-1.248548	0.323486	-0.525632	-1.372105	0.114396	-0.483011	-1.343199	0.123166	-0.389067	-1.252771	0.043287	-0.524448	-1.223513	0.044342	-0.408092	-1.168113	0.062990	-0.469921	-1.454194	0.066107	-0.431401	-1.046061	1.420046	-0.183389	-1.050699	1.414422	-0.479742	
19	0.0900	-1.187811	0.950844	-0.198898	-1.200149	0.959965	-0.460315	-1.380060	0.969616	-0.267266	-1.390384	0.979948	-0.368094	-1.209385	0.783091	-0.155438	-1.173300	0.804563	-0.169728	-1.189384	0.746035	-0.158251	-1.143830	0.768257	-0.179720	-1.080455	0.479918	-0.214526	-1.078345	0.480909	-0.325788	-1.216771	0.431879	-0.189910	-1.177988	0.396726	-0.204809	-1.251111	0.397377	-0.190368	-1.221613	0.359973	-0.206878	-1.448358	0.229802	-0.236396	-1.424925	0.230805	-0.331209	-1.390515	0.104965	-0.198838	-1.376469	0.090746	-0.316255	-1.316880	0.076464	-0.261149	-1.521228	0.249300	-0.291017	-1.272852	0.784788	-0.525796	-1.219184	0.804979	-0.524485	-1.259293	0.745023	-0.529945	-1.208136	0.763629	-0.530041	-1.151687	0.490819	-0.507667	-1.132271	0.483061	-0.402844	-1.268399	0.384929	-0.527534	-1.214894	0.366243	-0.524016	-1.290891	0.340210	-0.524789	-1.243494	0.321108	-0.524943	-1.371178	0.114334	-0.482628	-1.342215	0.122461	-0.388425	-1.252312	0.042441	-0.524607	-1.222824	0.043122	-0.408236	-1.167077	0.061361	-0.469695	-1.454221	0.066255	-0.431152	-1.030915	1.419524	-0.181969	-1.032007	1.412660	-0.478493	
20	0.0950	-1.171456	0.950507	-0.198093	-1.182826	0.958622	-0.460044	-1.363661	0.967903	-0.267177	-1.373544	0.978715	-0.367974	-1.190138	0.783842	-0.154720	-1.154415	0.806363	-0.168926	-1.168960	0.747362	-0.157489	-1.123805	0.771044	-0.178789	-1.050478	0.485033	-0.214070	-1.048362	0.486409	-0.325199	-1.184059	0.432216	-0.189170	-1.144262	0.398621	-0.204241	-1.216957	0.396582	-0.189375	-1.186271	0.360458	-0.206110	-1.407143	0.222147	-0.234960	-1.384512	0.224441	-0.329842	-1.343000	0.101024	-0.198005	-1.329252	0.087885	-0.315671	-1.268760	0.076702	-0.260784	-1.481131	0.237966	-0.289088	-1.258047	0.783618	-0.525208	-1.204031	0.802799	-0.523781	-1.245465	0.743772	-0.529331	-1.194020	0.761263	-0.529218	-1.144392	0.487508	-0.506835	-1.125211	0.479368	-0.402277	-1.262671	0.383251	-0.527138	-1.209375	0.363695	-0.523361	-1.285818	0.338829	-0.524353	-1.238713	0.318951	-0.524251	-1.370378	0.114456	-0.482283	-1.341336	0.121946	-0.387847	-1.251978	0.041674	-0.524795	-1.222277	0.042049	-0.408399	-1.166194	0.059995	-0.469546	-1.454322	0.066581	-0.430936	-1.015684	1.419131	-0.180517	-1.013149	1.411053	-0.477068	
21	0.1000	-1.154979	0.950306	-0.197289	-1.165306	0.957270	-0.459768	-1.347081	0.966330	-0.267130	-1.356504	0.977527	-0.367884	-1.170929	0.784822	-0.153924	-1.135586	0.808368	-0.168051	-1.148634	0.748928	-0.156644	-1.103900	0.774028	-0.177776	-1.020922	0.490515	-0.213415	-1.018725	0.492235	-0.324385	-1.151483	0.432694	-0.188272	-1.110667	0.400809	-0.203524	-1.182801	0.395899	-0.188238	-1.150895	0.361197	-0.205206	-1.365177	0.214411	-0.233502	-1.343408	0.218039	-0.328424	-1.294726	0.097352	-0.197235	-1.281314	0.085395	-0.315141	-1.220065	0.077427	-0.260451	-1.440105	0.226360	-0.287133	-1.243172	0.782512	-0.524598	-1.188813	0.800646	-0.523037	-1.231605	0.742622	-0.528695	-1.179889	0.758955	-0.528352	-1.137352	0.484405	-0.505990	-1.118399	0.475876	-0.401682	-1.257201	0.381824	-0.526702	-1.204128	0.361408	-0.522705	-1.280984	0.337701	-0.523891	-1.234184	0.317055	-0.523559	-1.369682	0.114795	-0.481979	-1.340540	0.121647	-0.387337	-1.251783	0.040986	-0.525006	-1.221895	0.041112	-0.408574	-1.165489	0.058874	-0.469475	-1.454471	0.067146	-0.430753	-1.000388	1.418883	-0.179036	-0.994164	1.409622	-0.475471	
22	0.1050	-1.138388	0.950248	-0.196492	-1.147601	0.955930	-0.459482	-1.330327	0.964911	-0.267118	-1.339272	0.976402	-0.367818	-1.151773	0.786023	-0.153053	-1.116825	0.810560	-0.167105	-1.128429	0.750716	-0.155720	-1.084133	0.777183	-0.176686	-0.991871	0.496304	-0.212560	-0.989523	0.498327	-0.323350	-1.119137	0.433290	-0.187217	-1.077311	0.403263	-0.202655	-1.148742	0.395320	-0.186958	-1.115599	0.362175	-0.204166	-1.322584	0.206663	-0.232030	-1.301738	0.211660	-0.326960	-1.245863	0.094006	-0.196532	-1.232828	0.083332	-0.314666	-1.170977	0.078677	-0.260149	-1.398264	0.214578	-0.285161	-1.228223	0.781490	-0.523968	-1.173528	0.798543	-0.522254	-1.217704	0.741593	-0.528034	-1.165735	0.756729	-0.527442	-1.130537	0.481539	-0.505132	-1.111808	0.472611	-0.401053	-1.251957	0.380685	-0.526226	-1.199124	0.359420	-0.522047	-1.276362	0.336864	-0.523401	-1.229880	0.315457	-0.522868	-1.369059	0.115387	-0.481719	-1.339799	0.121594	-0.386902	-1.251744	0.040379	-0.525237	-1.221699	0.040298	-0.408752	-1.164987	0.057975	-0.469481	-1.454635	0.068018	-0.430604	-0.985048	1.418795	-0.177528	-0.975090	1.408388	-0.473713	
23	0.1100	-1.121687	0.950337	-0.195705	-1.129722	0.954624	-0.459180	-1.313405	0.963659	-0.267135	-1.321853	0.975360	-0.367771	-1.132684	0.787431	-0.152112	-1.098141	0.812921	-0.166095	-1.108363	0.752707	-0.154723	-1.064519	0.780479	-0.175523	-0.963401	0.502331	-0.211506	-0.960838	0.504620	-0.322099	-1.087113	0.433980	-0.186007	-1.044297	0.405948	-0.201634	-1.114883	0.394835	-0.185537	-1.080498	0.363375	-0.202991	-1.279506	0.198972	-0.230548	-1.259636	0.205367	-0.325457	-1.196595	0.091035	-0.195895	-1.183980	0.081741	-0.314241	-1.121686	0.080477	-0.259876	-1.355737	0.202718	-0.283181	-1.213194	0.780570	-0.523316	-1.158172	0.796513	-0.521430	-1.203753	0.740706	-0.527350	-1.151549	0.754609	-0.526489	-1.123902	0.478937	-0.504264	-1.105398	0.469598	-0.400387	-1.246897	0.379868	-0.525710	-1.194323	0.357764	-0.521390	-1.271910	0.336354	-0.522886	-1.225762	0.314194	-0.522180	-1.368471	0.116269	-0.481503	-1.339079	0.121816	-0.386545	-1.251873	0.039859	-0.525483	-1.221708	0.039599	-0.408927	-1.164713	0.057274	-0.469563	-1.454771	0.069269	-0.430486	-0.969681	1.418879	-0.175997	-0.955968	1.407369	-0.471801	
24	0.1150	-1.104882	0.950577	-0.194930	-1.111679	0.953375	-0.458855	-1.296324	0.962585	-0.267170	-1.304255	0.974420	-0.367734	-1.113672	0.789026	-0.151105	-1.079543	0.815427	-0.165023	-1.088453	0.754875	-0.153657	-1.045066	0.783884	-0.174292	-0.935580	0.508522	-0.210260	-0.932740	0.511042	-0.320642	-1.055498	0.434738	-0.184645	-1.011727	0.408825	-0.200464	-1.081323	0.394430	-0.183982	-1.045704	0.364775	-0.201685	-1.236096	0.191406	-0.229063	-1.217249	0.199217	-0.323920	-1.147119	0.088480	-0.195320	-1.134968	0.080656	-0.313863	-1.072394	0.082839	-0.259623	-1.312672	0.190880	-0.281205	-1.198078	0.779772	-0.522643	-1.142740	0.794580	-0.520565	-1.189735	0.739976	-0.526643	-1.137317	0.752618	-0.525493	-1.117396	0.476621	-0.503389	-1.099120	0.466857	-0.399681	-1.241970	0.379405	-0.525155	-1.189678	0.356471	-0.520736	-1.267579	0.336207	-0.522345	-1.221781	0.313301	-0.521498	-1.367876	0.117478	-0.481333	-1.338337	0.122342	-0.386267	-1.252180	0.039437	-0.525738	-1.221938	0.039007	-0.409091	-1.164690	0.056746	-0.469716	-1.454831	0.070971	-0.430396	-0.954305	1.419143	-0.174444	-0.936836	1.406578	-0.469750	
25	0.1200	-1.087978	0.950968	-0.194170	-1.093487	0.952205	-0.458498	-1.279090	0.961696	-0.267217	-1.286485	0.973598	-0.367701	-1.094746	0.790787	-0.150038	-1.061035	0.818049	-0.163895	-1.068710	0.757191	-0.152528	-1.025780	0.787360	-0.172999	-0.908463	0.514800	-0.208831	-0.905292	0.517519	-0.318990	-1.024375	0.435537	-0.183139	-0.979695	0.411851	-0.199150	-1.048160	0.394093	-0.182301	-1.011330	0.366347	-0.200253	-1.192517	0.184027	-0.227579	-1.174733	0.193263	-0.322355	-1.097644	0.086371	-0.194800	-1.085996	0.080098	-0.313522	-1.023305	0.085759	-0.259381	-1.269228	0.179164	-0.279240	-1.182865	0.779112	-0.521950	-1.127224	0.792769	-0.519661	-1.175634	0.739420	-0.525914	-1.123021	0.750779	-0.524455	-1.110953	0.474609	-0.502512	-1.092911	0.464405	-0.398936	-1.237112	0.379323	-0.524564	-1.185129	0.355566	-0.520086	-1.263309	0.336451	-0.521779	-1.217879	0.312805	-0.520824	-1.367220	0.119052	-0.481206	-1.337526	0.123202	-0.386069	-1.252671	0.039128	-0.525994	-1.222401	0.038521	-0.409235	-1.164938	0.056362	-0.469934	-1.454757	0.073198	-0.430329	-0.938933	1.419590	-0.172870	-0.917732	1.406028	-0.467571	
26	0.1250	-1.070981	0.951504	-0.193422	-1.075154	0.951135	-0.458102	-1.261712	0.960996	-0.267266	-1.268551	0.972911	-0.367664	-1.075912	0.792689	-0.148916	-1.042617	0.820757	-0.162716	-1.049142	0.759622	-0.151342	-1.006664	0.790869	-0.171649	-0.882094	0.521086	-0.207231	-0.878545	0.523975	-0.317157	-0.993821	0.436347	-0.181500	-0.948287	0.414978	-0.197700	-1.015488	0.393805	-0.180504	-0.977479	0.368059	-0.198703	-1.148942	0.176895	-0.226102	-1.132249	0.187553	-0.320768	-1.048381	0.084723	-0.194326	-1.037274	0.080071	-0.313208	-0.974627	0.089220	-0.259137	-1.225580	0.167668	-0.277299	-1.167542	0.778606	-0.521239	-1.111613	0.791100	-0.518718	-1.161429	0.739047	-0.525165	-1.108642	0.749111	-0.523377	-1.104501	0.472912	-0.501638	-1.086698	0.462250	-0.398153	-1.232250	0.379643	-0.523938	-1.180606	0.355070	-0.519443	-1.259032	0.337112	-0.521190	-1.213989	0.312732	-0.520160	-1.366447	0.121027	-0.481119	-1.336591	0.124423	-0.385948	-1.253344	0.038952	-0.526244	-1.223101	0.038141	-0.409353	-1.165471	0.056095	-0.470210	-1.454483	0.076019	-0.430277	-0.923579	1.420220	-0.171278	-0.898692	1.405726	-0.465281	
27	0.1300	-1.053895	0.952182	-0.192686	-1.056694	0.950187	-0.457658	-1.244198	0.960487	-0.267309	-1.250461	0.972373	-0.367615	-1.057173	0.794701	-0.147745	-1.024287	0.823518	-0.161490	-1.029755	0.762134	-0.150106	-0.987714	0.794370	-0.170245	-0.856504	0.527300	-0.205474	-0.852535	0.530332	-0.315160	-0.963906	0.437141	-0.179739	-0.917581	0.418158	-0.196122	-0.983395	0.393550	-0.178604	-0.944251	0.369877	-0.197045	-1.105550	0.170060	-0.224635	-1.089964	0.182127	-0.319166	-0.999549	0.083541	-0.193887	-0.989014	0.080566	-0.312908	-0.926564	0.093184	-0.258877	-1.181912	0.156483	-0.275389	-1.152094	0.778263	-0.520510	-1.095895	0.789594	-0.517739	-1.147095	0.738867	-0.524400	-1.094157	0.747632	-0.522263	-1.097958	0.471537	-0.500774	-1.080398	0.460399	-0.397336	-1.227304	0.380381	-0.523281	-1.176034	0.354995	-0.518811	-1.254669	0.338208	-0.520577	-1.210035	0.313098	-0.519509	-1.365491	0.123437	-0.481068	-1.335473	0.126030	-0.385900	-1.254190	0.038932	-0.526479	-1.224034	0.037874	-0.409436	-1.166294	0.055919	-0.470534	-1.453938	0.079500	-0.430233	-0.908250	1.421030	-0.169665	-0.879747	1.405676	-0.462893	
28	0.1350	-1.036722	0.952990	-0.191958	-1.038115	0.949377	-0.457156	-1.226554	0.960166	-0.267338	-1.232223	0.971994	-0.367547	-1.038531	0.796792	-0.146532	-1.006040	0.826296	-0.160222	-1.010549	0.764690	-0.148825	-0.968923	0.797823	-0.168792	-0.831713	0.533362	-0.203579	-0.827289	0.536516	-0.313017	-0.934692	0.437890	-0.177873	-0.887646	0.421339	-0.194428	-0.951962	0.393310	-0.176616	-0.911738	0.371761	-0.195289	-1.062523	0.163564	-0.223183	-1.048047	0.177017	-0.317555	-0.951367	0.082814	-0.193467	-0.941424	0.081557	-0.312606	-0.879317	0.097600	-0.258585	-1.138416	0.145695	-0.273522	-1.136506	0.778094	-0.519767	-1.080055	0.788269	-0.516726	-1.132607	0.738883	-0.523620	-1.079537	0.746355	-0.521117	-1.091233	0.470483	-0.499928	-1.073919	0.458847	-0.396490	-1.222183	0.381545	-0.522597	-1.171324	0.355347	-0.518191	-1.250134	0.339752	-0.519943	-1.205933	0.313916	-0.518873	-1.364282	0.126311	-0.481046	-1.334103	0.128046	-0.385920	-1.255191	0.039096	-0.526689	-1.225186	0.037729	-0.409478	-1.167407	0.055807	-0.470895	-1.453041	0.083703	-0.430189	-0.892954	1.422010	-0.168033	-0.860928	1.405879	-0.460424	
29	0.1400	-1.019466	0.953919	-0.191232	-1.019429	0.948722	-0.456588	-1.208787	0.960028	-0.267345	-1.213844	0.971783	-0.367453	-1.019984	0.798928	-0.145282	-0.987870	0.829053	-0.158915	-0.991521	0.767249	-0.147506	-0.950281	0.801184	-0.167294	-0.807726	0.539197	-0.201565	-0.802819	0.542453	-0.310748	-0.906231	0.438567	-0.175918	-0.858538	0.424471	-0.192632	-0.921265	0.393065	-0.174559	-0.880023	0.373672	-0.193449	-1.020047	0.157442	-0.221749	-1.006669	0.172245	-0.315944	-0.904053	0.082521	-0.193052	-0.894713	0.083002	-0.312287	-0.833083	0.102400	-0.258242	-1.095290	0.135382	-0.271707	-1.120757	0.778102	-0.519010	-1.064076	0.787138	-0.515683	-1.117937	0.739093	-0.522829	-1.064756	0.745290	-0.519942	-1.084230	0.469742	-0.499106	-1.067161	0.457585	-0.395620	-1.216791	0.383136	-0.521889	-1.166385	0.356123	-0.517586	-1.245333	0.341748	-0.519286	-1.201592	0.315187	-0.518253	-1.362743	0.129674	-0.481046	-1.332411	0.130488	-0.385998	-1.256318	0.039472	-0.526864	-1.226534	0.037721	-0.409470	-1.168793	0.055736	-0.471278	-1.451709	0.088676	-0.430134	-0.877694	1.423151	-0.166380	-0.842258	1.406330	-0.457891	
30	0.1450	-1.002129	0.954954	-0.190504	-1.000644	0.948233	-0.455947	-1.190905	0.960065	-0.267323	-1.195333	0.971745	-0.367327	-1.001528	0.801076	-0.144001	-0.969765	0.831754	-0.157573	-0.972666	0.769774	-0.146153	-0.931776	0.804412	-0.165754	-0.784539	0.544732	-0.199454	-0.779129	0.548073	-0.308375	-0.878568	0.439147	-0.173894	-0.830304	0.427502	-0.190749	-0.891370	0.392797	-0.172449	-0.849178	0.375567	-0.191537	-0.978306	0.151720	-0.220337	-0.965998	0.167825	-0.314338	-0.857818	0.082623	-0.192625	-0.849079	0.084847	-0.311934	-0.788045	0.107500	-0.257831	-1.052736	0.125614	-0.269955	-1.104830	0.778288	-0.518242	-1.047941	0.786212	-0.514612	-1.103054	0.739492	-0.522030	-1.049783	0.744443	-0.518743	-1.076848	0.469299	-0.498316	-1.060018	0.456598	-0.394735	-1.211026	0.385145	-0.521162	-1.161117	0.357313	-0.517000	-1.240169	0.344191	-0.518609	-1.196915	0.316906	-0.517651	-1.360792	0.133543	-0.481059	-1.330319	0.133372	-0.386127	-1.257529	0.040091	-0.526991	-1.228039	0.037869	-0.409406	-1.170425	0.055686	-0.471669	-1.449850	0.094461	-0.430059	-0.862468	1.424435	-0.164704	-0.823759	1.407022	-0.455310	
31	0.1500	-0.984712	0.956078	-0.189767	-0.981768	0.947920	-0.455224	-1.172913	0.960264	-0.267266	-1.176696	0.971880	-0.367163	-0.983158	0.803198	-0.142694	-0.951714	0.834360	-0.156199	-0.953973	0.772224	-0.144773	-0.913391	0.807468	-0.164175	-0.762134	0.549901	-0.197268	-0.756206	0.553314	-0.305919	-0.851738	0.439607	-0.171820	-0.802979	0.430382	-0.188794	-0.862336	0.392487	-0.170308	-0.819267	0.377406	-0.189570	-0.937481	0.146412	-0.218950	-0.926200	0.163764	-0.312746	-0.812867	0.083073	-0.192169	-0.804712	0.087023	-0.311530	-0.744379	0.112806	-0.257334	-1.010957	0.116447	-0.268275	-1.088702	0.778646	-0.517465	-1.031629	0.785495	-0.513517	-1.087928	0.740068	-0.521227	-1.034585	0.743813	-0.517526	-1.068982	0.469134	-0.497566	-1.052382	0.455864	-0.393841	-1.204780	0.387558	-0.520420	-1.155415	0.358899	-0.516434	-1.234536	0.347069	-0.517913	-1.191802	0.319059	-0.517067	-1.358342	0.137931	-0.481078	-1.327746	0.136704	-0.386294	-1.258768	0.040985	-0.527061	-1.229648	0.038193	-0.409280	-1.172259	0.055638	-0.472051	-1.447370	0.101083	-0.429954	-0.847273	1.425846	-0.163003	-0.805446	1.407945	-0.452696	
32	0.1550	-0.967213	0.957275	-0.189012	-0.962807	0.947788	-0.454414	-1.154816	0.960611	-0.267167	-1.157941	0.972184	-0.366955	-0.964865	0.805260	-0.141366	-0.933704	0.836835	-0.154795	-0.935430	0.774562	-0.143370	-0.895109	0.810314	-0.162559	-0.740485	0.554643	-0.195031	-0.734033	0.558118	-0.303403	-0.825768	0.439926	-0.169718	-0.776589	0.433065	-0.186787	-0.834212	0.392119	-0.168156	-0.790343	0.379144	-0.187563	-0.897750	0.141526	-0.217592	-0.887433	0.160058	-0.311176	-0.769395	0.083811	-0.191668	-0.761792	0.089449	-0.311059	-0.702245	0.118211	-0.256735	-0.970151	0.107931	-0.266676	-1.072351	0.779167	-0.516679	-1.015120	0.784990	-0.512403	-1.072526	0.740806	-0.520422	-1.019129	0.743397	-0.516294	-1.060526	0.469220	-0.496862	-1.044141	0.455356	-0.392948	-1.197945	0.390349	-0.519670	-1.149172	0.360852	-0.515889	-1.228328	0.350360	-0.517198	-1.186147	0.321625	-0.516503	-1.355302	0.142838	-0.481090	-1.324605	0.140488	-0.386488	-1.259965	0.042183	-0.527060	-1.231293	0.038717	-0.409086	-1.174234	0.055580	-0.472406	-1.444173	0.108554	-0.429810	-0.832103	1.427362	-0.161275	-0.787330	1.409083	-0.450064	
33	0.1600	-0.949631	0.958527	-0.188232	-0.943768	0.947839	-0.453511	-1.136618	0.961090	-0.267022	-1.139074	0.972651	-0.366699	-0.946639	0.807229	-0.140022	-0.915719	0.839147	-0.153364	-0.917023	0.776753	-0.141947	-0.876909	0.812915	-0.160911	-0.719557	0.558905	-0.192766	-0.712579	0.562434	-0.300850	-0.800675	0.440086	-0.167609	-0.751147	0.435506	-0.184744	-0.807038	0.391675	-0.166013	-0.762449	0.380743	-0.185534	-0.859279	0.137059	-0.216268	-0.849849	0.156694	-0.309636	-0.727583	0.084769	-0.191106	-0.720483	0.092038	-0.310506	-0.661790	0.123601	-0.256019	-0.930514	0.100101	-0.265168	-1.055754	0.779838	-0.515886	-0.998391	0.784693	-0.511271	-1.056815	0.741685	-0.519617	-1.003381	0.743185	-0.515053	-1.051374	0.469524	-0.496208	-1.035185	0.455042	-0.392062	-1.190410	0.393485	-0.518916	-1.142279	0.363138	-0.515368	-1.221436	0.354034	-0.516466	-1.179843	0.324571	-0.515958	-1.351579	0.148258	-0.481088	-1.320809	0.144718	-0.386694	-1.261034	0.043713	-0.526977	-1.232889	0.039465	-0.408817	-1.176270	0.055501	-0.472716	-1.440161	0.116870	-0.429619	-0.816945	1.428960	-0.159517	-0.769417	1.410419	-0.447430	
34	0.1650	-0.931962	0.959812	-0.187419	-0.924653	0.948069	-0.452512	-1.118321	0.961681	-0.266826	-1.120102	0.973268	-0.366392	-0.928469	0.809072	-0.138665	-0.897744	0.841262	-0.151909	-0.898736	0.778763	-0.140510	-0.858773	0.815241	-0.159233	-0.699309	0.562644	-0.190496	-0.691810	0.566222	-0.298284	-0.776467	0.440073	-0.165514	-0.726657	0.437666	-0.182684	-0.780847	0.391140	-0.163900	-0.735615	0.382163	-0.183501	-0.822227	0.133001	-0.214981	-0.813591	0.153656	-0.308136	-0.687597	0.085874	-0.190470	-0.680935	0.094695	-0.309860	-0.623141	0.128857	-0.255174	-0.892229	0.092981	-0.263759	-1.038887	0.780640	-0.515088	-0.981419	0.784597	-0.510126	-1.040762	0.742681	-0.518815	-0.987307	0.743166	-0.513807	-1.041420	0.470011	-0.495608	-1.025405	0.454886	-0.391189	-1.182064	0.396929	-0.518163	-1.134625	0.365716	-0.514868	-1.213750	0.358053	-0.515718	-1.172782	0.327860	-0.515430	-1.347075	0.154176	-0.481060	-1.316265	0.149383	-0.386901	-1.261872	0.045598	-0.526800	-1.234335	0.040461	-0.408470	-1.178267	0.055397	-0.472961	-1.435233	0.126010	-0.429372	-0.801787	1.430617	-0.157726	-0.751707	1.411934	-0.444806	
35	0.1700	-0.914203	0.961114	-0.186565	-0.905466	0.948471	-0.451414	-1.099928	0.962364	-0.266575	-1.101029	0.974020	-0.366031	-0.910342	0.810761	-0.137300	-0.879761	0.843154	-0.150429	-0.880549	0.780563	-0.139061	-0.840677	0.817264	-0.157528	-0.679692	0.565824	-0.188244	-0.671682	0.569448	-0.295724	-0.753147	0.439876	-0.163454	-0.703114	0.439509	-0.180626	-0.755659	0.390503	-0.161837	-0.709862	0.383368	-0.181480	-0.786739	0.129335	-0.213736	-0.778789	0.150919	-0.306684	-0.649584	0.087045	-0.189748	-0.643280	0.097321	-0.309111	-0.586411	0.133858	-0.254193	-0.855471	0.086586	-0.262456	-1.021726	0.781553	-0.514284	-0.964181	0.784688	-0.508969	-1.024334	0.743767	-0.518017	-0.970872	0.743321	-0.512559	-1.030563	0.470642	-0.495065	-1.014696	0.454852	-0.390335	-1.172801	0.400632	-0.517417	-1.126102	0.368539	-0.514390	-1.205163	0.362372	-0.514957	-1.164856	0.331446	-0.514919	-1.341693	0.160563	-0.480997	-1.310881	0.154465	-0.387092	-1.262362	0.047857	-0.526520	-1.235511	0.041729	-0.408039	-1.180104	0.055266	-0.473122	-1.429294	0.135932	-0.429064	-0.786609	1.432308	-0.155900	-0.734198	1.413606	-0.442204	
36	0.1750	-0.896345	0.962411	-0.185662	-0.886207	0.949035	-0.450217	-1.081438	0.963118	-0.266267	-1.081860	0.974887	-0.365616	-0.892243	0.812270	-0.135927	-0.861753	0.844800	-0.148929	-0.862442	0.782129	-0.137603	-0.822600	0.818964	-0.155800	-0.660654	0.568418	-0.186030	-0.652150	0.572088	-0.293193	-0.730707	0.439486	-0.161447	-0.680503	0.441006	-0.178589	-0.731489	0.389750	-0.159843	-0.685202	0.384327	-0.179489	-0.752945	0.126037	-0.212537	-0.745559	0.148453	-0.305288	-0.613673	0.088202	-0.188934	-0.607631	0.099819	-0.308253	-0.551691	0.138487	-0.253070	-0.820400	0.080918	-0.261267	-1.004246	0.782550	-0.513474	-0.946653	0.784952	-0.507803	-1.007497	0.744911	-0.517223	-0.954043	0.743631	-0.511311	-1.018707	0.471376	-0.494578	-1.002960	0.454903	-0.389502	-1.162515	0.404543	-0.516680	-1.116603	0.371554	-0.513931	-1.195569	0.366939	-0.514184	-1.155960	0.335278	-0.514420	-1.335335	0.167383	-0.480890	-1.304562	0.159936	-0.387255	-1.262369	0.050502	-0.526125	-1.236281	0.043288	-0.407522	-1.181641	0.055111	-0.473182	-1.422247	0.146581	-0.428691	-0.771394	1.434007	-0.154036	-0.716879	1.415412	-0.439636	
37	0.1800	-0.878382	0.963687	-0.184703	-0.866876	0.949746	-0.448921	-1.062849	0.963921	-0.265900	-1.062598	0.975847	-0.365145	-0.874155	0.813578	-0.134551	-0.843704	0.846179	-0.147408	-0.844394	0.783439	-0.136137	-0.804521	0.820325	-0.154052	-0.642142	0.570410	-0.183874	-0.633163	0.574128	-0.290709	-0.709133	0.438900	-0.159511	-0.658803	0.442132	-0.176591	-0.708338	0.388875	-0.157934	-0.661634	0.385010	-0.177545	-0.720957	0.123080	-0.211389	-0.714005	0.146228	-0.303959	-0.579969	0.089266	-0.188021	-0.574082	0.102092	-0.307282	-0.519053	0.142628	-0.251807	-0.787156	0.075969	-0.260197	-0.986422	0.783603	-0.512658	-0.928809	0.785369	-0.506628	-0.990221	0.746081	-0.516433	-0.936787	0.744073	-0.510066	-1.005762	0.472173	-0.494144	-0.990106	0.455001	-0.388692	-1.151107	0.408607	-0.515959	-1.106026	0.374708	-0.513487	-1.184868	0.371696	-0.513402	-1.145993	0.339301	-0.513931	-1.327903	0.174589	-0.480730	-1.297216	0.165764	-0.387376	-1.261746	0.053535	-0.525609	-1.236496	0.045153	-0.406915	-1.182721	0.054939	-0.473121	-1.414003	0.157880	-0.428251	-0.756116	1.435689	-0.152131	-0.699738	1.417326	-0.437110	
38	0.1850	-0.860304	0.964924	-0.183683	-0.847470	0.950587	-0.447529	-1.044158	0.964752	-0.265472	-1.043245	0.976873	-0.364618	-0.856062	0.814667	-0.133172	-0.825594	0.847278	-0.145869	-0.826384	0.784479	-0.134667	-0.786418	0.821335	-0.152288	-0.624101	0.571792	-0.181794	-0.614672	0.575561	-0.288292	-0.688405	0.438116	-0.157662	-0.637985	0.442870	-0.174646	-0.686203	0.387869	-0.156127	-0.639149	0.385394	-0.175664	-0.690870	0.120433	-0.210297	-0.684210	0.144208	-0.302703	-0.548554	0.090160	-0.187009	-0.542703	0.104053	-0.306202	-0.488551	0.146177	-0.250408	-0.755861	0.071723	-0.259250	-0.968229	0.784684	-0.511833	-0.910627	0.785917	-0.505445	-0.972473	0.747246	-0.515644	-0.919072	0.744623	-0.508823	-0.991646	0.472995	-0.493757	-0.976054	0.455113	-0.387903	-1.138486	0.412764	-0.515256	-1.094274	0.377943	-0.513054	-1.172966	0.376582	-0.512613	-1.134857	0.343456	-0.513447	-1.319302	0.182126	-0.480512	-1.288749	0.171907	-0.387443	-1.260334	0.056953	-0.524965	-1.235990	0.047335	-0.406217	-1.183165	0.054759	-0.472925	-1.404476	0.169737	-0.427742	-0.740751	1.437331	-0.150185	-0.682758	1.419325	-0.434635	
39	0.1900	-0.842100	0.966106	-0.182595	-0.827985	0.951538	-0.446046	-1.025361	0.965589	-0.264981	-1.023802	0.977937	-0.364037	-0.837946	0.815527	-0.131791	-0.807406	0.848089	-0.144313	-0.808387	0.785241	-0.133193	-0.768270	0.821991	-0.150514	-0.606475	0.572566	-0.179803	-0.596625	0.576389	-0.285956	-0.668495	0.437137	-0.155913	-0.618015	0.443207	-0.172773	-0.665070	0.386729	-0.154435	-0.617730	0.385462	-0.173861	-0.662756	0.118064	-0.209265	-0.656244	0.142361	-0.301530	-0.519486	0.090815	-0.185901	-0.513547	0.105620	-0.305017	-0.460216	0.149042	-0.248884	-0.726616	0.068155	-0.258429	-0.949645	0.785762	-0.510999	-0.892082	0.786572	-0.504252	-0.954227	0.748372	-0.514855	-0.900869	0.745254	-0.507582	-0.976287	0.473805	-0.493412	-0.960734	0.455209	-0.387130	-1.124569	0.416956	-0.514574	-1.081259	0.381203	-0.512624	-1.159774	0.381534	-0.511820	-1.122461	0.347682	-0.512964	-1.309440	0.189929	-0.480228	-1.279072	0.178317	-0.387443	-1.257961	0.060741	-0.524189	-1.234588	0.049837	-0.405426	-1.182784	0.054586	-0.472580	-1.393589	0.182044	-0.427168	-0.725272	1.438910	-0.148196	-0.665917	1.421383	-0.432217	
40	0.1950	-0.823760	0.967221	-0.181437	-0.808417	0.952576	-0.444475	-1.006452	0.966413	-0.264429	-1.004269	0.979009	-0.363403	-0.819790	0.816150	-0.130410	-0.789125	0.848609	-0.142743	-0.790383	0.785719	-0.131717	-0.750059	0.822294	-0.148733	-0.589212	0.572741	-0.177914	-0.578973	0.576625	-0.283715	-0.649373	0.435966	-0.154274	-0.598853	0.443137	-0.170983	-0.644918	0.385454	-0.152867	-0.597352	0.385201	-0.172149	-0.636668	0.115939	-0.208298	-0.630154	0.140652	-0.300446	-0.492797	0.091169	-0.184703	-0.486640	0.106725	-0.303736	-0.434058	0.151143	-0.247247	-0.699495	0.065233	-0.257735	-0.930647	0.786807	-0.510152	-0.873153	0.787310	-0.503048	-0.935454	0.749428	-0.514062	-0.882153	0.745943	-0.506341	-0.959625	0.474571	-0.493096	-0.944088	0.455265	-0.386367	-1.109283	0.421123	-0.513914	-1.066899	0.384432	-0.512192	-1.145217	0.386489	-0.511025	-1.108725	0.351919	-0.512475	-1.298231	0.197926	-0.479875	-1.268100	0.184942	-0.387366	-1.254450	0.064874	-0.523279	-1.232104	0.052654	-0.404544	-1.181374	0.054433	-0.472075	-1.381272	0.194679	-0.426531	-0.709649	1.440405	-0.146163	-0.649193	1.423475	-0.429863	
41	0.2000	-0.805270	0.968256	-0.180204	-0.788761	0.953678	-0.442824	-0.987426	0.967204	-0.263815	-0.984646	0.980058	-0.362719	-0.801574	0.816536	-0.129028	-0.770733	0.848839	-0.141160	-0.772350	0.785917	-0.130240	-0.731768	0.822250	-0.146952	-0.572262	0.572335	-0.176137	-0.561669	0.576285	-0.281582	-0.631003	0.434613	-0.152752	-0.580458	0.442661	-0.169289	-0.625720	0.384043	-0.151431	-0.577980	0.384603	-0.170540	-0.612636	0.114025	-0.207401	-0.605972	0.139051	-0.299459	-0.468494	0.091170	-0.183425	-0.461989	0.107312	-0.302373	-0.410071	0.152420	-0.245518	-0.674550	0.062917	-0.257167	-0.911215	0.787789	-0.509288	-0.853820	0.788107	-0.501830	-0.916132	0.750387	-0.513261	-0.862899	0.746666	-0.505097	-0.941608	0.475268	-0.492799	-0.926072	0.455261	-0.385605	-1.092567	0.425209	-0.513278	-1.051127	0.387580	-0.511748	-1.129228	0.391381	-0.510231	-1.093576	0.356108	-0.511976	-1.285593	0.206040	-0.479450	-1.255753	0.191721	-0.387205	-1.249623	0.069320	-0.522238	-1.228352	0.055774	-0.403573	-1.178727	0.054317	-0.471402	-1.367465	0.207509	-0.425837	-0.693854	1.441797	-0.144087	-0.632560	1.425578	-0.427574	
42	0.2050	-0.786620	0.969204	-0.178896	-0.769010	0.954820	-0.441099	-0.968275	0.967947	-0.263139	-0.964931	0.981054	-0.361985	-0.783282	0.816687	-0.127645	-0.752219	0.848787	-0.139568	-0.754267	0.785842	-0.128763	-0.713379	0.821871	-0.145176	-0.555580	0.571373	-0.174479	-0.544670	0.575395	-0.279566	-0.613347	0.433086	-0.151354	-0.562783	0.441784	-0.167701	-0.607440	0.382501	-0.150134	-0.559577	0.383668	-0.169044	-0.590666	0.112294	-0.206576	-0.583706	0.137530	-0.298573	-0.446560	0.090779	-0.182081	-0.439580	0.107340	-0.300944	-0.388226	0.152830	-0.243718	-0.651806	0.061166	-0.256723	-0.891331	0.788682	-0.508405	-0.834065	0.788938	-0.500594	-0.896243	0.751222	-0.512446	-0.843090	0.747400	-0.503847	-0.922203	0.475876	-0.492506	-0.906656	0.455187	-0.384832	-1.074372	0.429158	-0.512666	-1.033884	0.390598	-0.511285	-1.111752	0.396152	-0.509441	-1.076952	0.360192	-0.511459	-1.271458	0.214186	-0.478951	-1.241958	0.198592	-0.386951	-1.243298	0.074035	-0.521068	-1.223140	0.059175	-0.402515	-1.174628	0.054255	-0.470558	-1.352121	0.220392	-0.425093	-0.677859	1.443073	-0.141971	-0.615991	1.427670	-0.425356	
43	0.2100	-0.767799	0.970058	-0.177513	-0.749160	0.955978	-0.439309	-0.948994	0.968625	-0.262402	-0.945124	0.981967	-0.361206	-0.764898	0.816612	-0.126263	-0.733569	0.848466	-0.137968	-0.736115	0.785506	-0.127287	-0.694882	0.821175	-0.143411	-0.539127	0.569886	-0.172944	-0.527939	0.573987	-0.277674	-0.596363	0.431398	-0.150080	-0.545784	0.440519	-0.166226	-0.590040	0.380834	-0.148976	-0.542098	0.382399	-0.167668	-0.570744	0.110717	-0.205828	-0.563349	0.136065	-0.297794	-0.426952	0.089972	-0.180686	-0.419377	0.106786	-0.299466	-0.368476	0.152350	-0.241873	-0.631262	0.059934	-0.256400	-0.870983	0.789461	-0.507498	-0.813876	0.789782	-0.499338	-0.875770	0.751913	-0.511612	-0.822711	0.748127	-0.502585	-0.901387	0.476380	-0.492201	-0.885826	0.455039	-0.384035	-1.054667	0.432924	-0.512075	-1.015128	0.393445	-0.510792	-1.092751	0.400744	-0.508656	-1.058807	0.364120	-0.510918	-1.255762	0.222280	-0.478380	-1.226652	0.205486	-0.386602	-1.235301	0.078967	-0.519777	-1.216285	0.062827	-0.401375	-1.168869	0.054264	-0.469542	-1.335204	0.233181	-0.424306	-0.661637	1.444218	-0.139815	-0.599459	1.429730	-0.423209	
44	0.2150	-0.748797	0.970813	-0.176056	-0.729206	0.957127	-0.437462	-0.929579	0.969228	-0.261604	-0.925226	0.982769	-0.360383	-0.746408	0.816324	-0.124880	-0.714774	0.847891	-0.136365	-0.717880	0.784927	-0.125813	-0.676265	0.820184	-0.141664	-0.522867	0.567910	-0.171534	-0.511441	0.572096	-0.275910	-0.580010	0.429562	-0.148932	-0.529413	0.438883	-0.164870	-0.573476	0.379047	-0.147958	-0.525496	0.380807	-0.166419	-0.552833	0.109271	-0.205159	-0.544873	0.134638	-0.297125	-0.409605	0.088734	-0.179259	-0.401323	0.105643	-0.297962	-0.350760	0.150980	-0.240010	-0.612890	0.059171	-0.256190	-0.850162	0.790105	-0.506563	-0.793243	0.790618	-0.498055	-0.854707	0.752444	-0.510753	-0.801756	0.748831	-0.501306	-0.879154	0.476778	-0.491868	-0.863585	0.454821	-0.383198	-1.033433	0.436463	-0.511504	-0.994831	0.396087	-0.510259	-1.072202	0.405105	-0.507878	-1.039108	0.367846	-0.510347	-1.238460	0.230236	-0.477739	-1.209784	0.212336	-0.386154	-1.225470	0.084058	-0.518375	-1.207611	0.066690	-0.400160	-1.161248	0.054358	-0.468360	-1.316693	0.245725	-0.423486	-0.645162	1.445224	-0.137623	-0.582939	1.431740	-0.421134	
45	0.2200	-0.729609	0.971468	-0.174527	-0.709148	0.958247	-0.435569	-0.910026	0.969745	-0.260747	-0.905238	0.983433	-0.359518	-0.727802	0.815839	-0.123496	-0.695830	0.847083	-0.134761	-0.699549	0.784124	-0.124343	-0.657524	0.818921	-0.139939	-0.506775	0.565485	-0.170249	-0.495152	0.569762	-0.274278	-0.564246	0.427595	-0.147906	-0.513627	0.436897	-0.163637	-0.557702	0.377152	-0.147077	-0.509720	0.378907	-0.165300	-0.536875	0.107937	-0.204570	-0.528230	0.133234	-0.296566	-0.394431	0.087067	-0.177819	-0.385346	0.103920	-0.296452	-0.334999	0.148738	-0.238156	-0.596641	0.058828	-0.256087	-0.828865	0.790600	-0.505594	-0.772164	0.791430	-0.496741	-0.833052	0.752804	-0.509861	-0.780224	0.749501	-0.500004	-0.855514	0.477070	-0.491490	-0.839950	0.454546	-0.382308	-1.010671	0.439741	-0.510948	-0.972982	0.398497	-0.509678	-1.050097	0.409191	-0.507107	-1.017840	0.371331	-0.509739	-1.219516	0.237967	-0.477030	-1.191314	0.219070	-0.385607	-1.213657	0.089242	-0.516874	-1.196958	0.070719	-0.398878	-1.151579	0.054551	-0.467019	-1.296582	0.257875	-0.422642	-0.628414	1.446085	-0.135401	-0.566408	1.433685	-0.419133	
46	0.2250	-0.710232	0.972023	-0.172929	-0.688986	0.959318	-0.433638	-0.890336	0.970169	-0.259832	-0.885165	0.983937	-0.358614	-0.709074	0.815176	-0.122112	-0.676736	0.846065	-0.133160	-0.681115	0.783122	-0.122877	-0.638658	0.817415	-0.138243	-0.490830	0.562657	-0.169086	-0.479052	0.567028	-0.272777	-0.549029	0.425511	-0.146997	-0.498382	0.434586	-0.162527	-0.542670	0.375160	-0.146328	-0.494720	0.376717	-0.164313	-0.522793	0.106700	-0.204063	-0.513359	0.131847	-0.296118	-0.381326	0.084987	-0.176385	-0.371353	0.101644	-0.294960	-0.321100	0.145665	-0.236342	-0.582439	0.058856	-0.256083	-0.807097	0.790933	-0.504587	-0.750642	0.792205	-0.495393	-0.810812	0.752988	-0.508930	-0.758124	0.750128	-0.498675	-0.830497	0.477266	-0.491049	-0.814959	0.454232	-0.381347	-0.986402	0.442729	-0.510403	-0.949588	0.400657	-0.509040	-1.026450	0.412965	-0.506345	-0.995004	0.374543	-0.509088	-1.198915	0.245389	-0.476260	-1.171220	0.225618	-0.384962	-1.199733	0.094450	-0.515291	-1.184184	0.074859	-0.397538	-1.139696	0.054854	-0.465532	-1.274883	0.269486	-0.421784	-0.611376	1.446799	-0.133153	-0.549844	1.435550	-0.417204	
47	0.2300	-0.690668	0.972482	-0.171268	-0.668727	0.960321	-0.431679	-0.870515	0.970496	-0.258859	-0.865015	0.984262	-0.357671	-0.690222	0.814357	-0.120728	-0.657497	0.844863	-0.131566	-0.662576	0.781947	-0.121417	-0.619672	0.815697	-0.136582	-0.475022	0.559471	-0.168040	-0.463128	0.563940	-0.271406	-0.534322	0.423329	-0.146199	-0.483639	0.431981	-0.161540	-0.528332	0.373082	-0.145703	-0.480443	0.374262	-0.163457	-0.510495	0.105549	-0.203636	-0.500181	0.130471	-0.295780	-0.370165	0.082522	-0.174980	-0.359240	0.098853	-0.293507	-0.308959	0.141819	-0.234595	-0.570190	0.059206	-0.256167	-0.784870	0.791099	-0.503538	-0.728690	0.792932	-0.494004	-0.788003	0.752997	-0.507954	-0.735474	0.750711	-0.497313	-0.804148	0.477385	-0.490529	-0.788665	0.453903	-0.380303	-0.960663	0.445409	-0.509862	-0.924679	0.402556	-0.508335	-1.001294	0.416397	-0.505590	-0.970622	0.377458	-0.508389	-1.176658	0.252425	-0.475433	-1.149497	0.231913	-0.384224	-1.183598	0.099609	-0.513641	-1.169176	0.079052	-0.396152	-1.125460	0.055275	-0.463917	-1.251625	0.280421	-0.420921	-0.594040	1.447365	-0.130887	-0.533232	1.437325	-0.415347	
48	0.2350	-0.670926	0.972848	-0.169549	-0.648380	0.961243	-0.429701	-0.850571	0.970724	-0.257831	-0.844800	0.984394	-0.356693	-0.671252	0.813406	-0.119344	-0.638122	0.843503	-0.129983	-0.643937	0.780626	-0.119966	-0.600575	0.813796	-0.134961	-0.459346	0.555975	-0.167106	-0.447377	0.560545	-0.270162	-0.520088	0.421065	-0.145503	-0.469363	0.429112	-0.160672	-0.514639	0.370934	-0.145194	-0.466839	0.371569	-0.162729	-0.499872	0.104477	-0.203290	-0.488604	0.129109	-0.295549	-0.360813	0.079710	-0.173620	-0.348889	0.095603	-0.292114	-0.298462	0.137275	-0.232941	-0.559780	0.059831	-0.256329	-0.762207	0.791096	-0.502443	-0.706330	0.793607	-0.492572	-0.764654	0.752837	-0.506927	-0.712303	0.751250	-0.495913	-0.776534	0.477447	-0.489916	-0.761141	0.453591	-0.379160	-0.933516	0.447771	-0.509320	-0.898303	0.404192	-0.507556	-0.974682	0.419466	-0.504842	-0.944739	0.380062	-0.507637	-1.152769	0.259001	-0.474556	-1.126159	0.237890	-0.383399	-1.165180	0.104647	-0.511945	-1.151849	0.083235	-0.394733	-1.108768	0.055816	-0.462194	-1.226855	0.290553	-0.420063	-0.576403	1.447789	-0.128610	-0.516562	1.439002	-0.413561	
49	0.2400	-0.651021	0.973127	-0.167778	-0.627964	0.962073	-0.427715	-0.830522	0.970854	-0.256748	-0.824537	0.984323	-0.355678	-0.652174	0.812348	-0.117962	-0.618630	0.842014	-0.128415	-0.625209	0.779189	-0.118525	-0.581387	0.811746	-0.133383	-0.443807	0.552219	-0.166276	-0.431799	0.556890	-0.269040	-0.506296	0.418737	-0.144901	-0.455523	0.426015	-0.159918	-0.501546	0.368730	-0.144790	-0.453861	0.368668	-0.162125	-0.490804	0.103483	-0.203021	-0.478525	0.127767	-0.295420	-0.353122	0.076602	-0.172326	-0.340172	0.091957	-0.290801	-0.289488	0.132123	-0.231404	-0.551080	0.060687	-0.256557	-0.739141	0.790930	-0.501298	-0.683593	0.794228	-0.491094	-0.740801	0.752520	-0.505844	-0.688649	0.751751	-0.494473	-0.747738	0.477482	-0.489196	-0.732477	0.453329	-0.377909	-0.905042	0.449813	-0.508770	-0.870532	0.405573	-0.506698	-0.946690	0.422162	-0.504098	-0.917419	0.382348	-0.506830	-1.127293	0.265053	-0.473639	-1.101243	0.243488	-0.382494	-1.144446	0.109493	-0.510223	-1.132155	0.087344	-0.393293	-1.089552	0.056480	-0.460387	-1.200642	0.299770	-0.419217	-0.558471	1.448077	-0.126330	-0.499831	1.440576	-0.411844	
50	0.2450	-0.630976	0.973327	-0.165962	-0.607502	0.962802	-0.425729	-0.810390	0.970888	-0.255613	-0.804251	0.984046	-0.354629	-0.633010	0.811206	-0.116582	-0.599046	0.840422	-0.126864	-0.606413	0.777663	-0.117096	-0.562133	0.809578	-0.131855	-0.428417	0.548252	-0.165542	-0.416407	0.553022	-0.268033	-0.492920	0.416362	-0.144381	-0.442096	0.422725	-0.159273	-0.489010	0.366484	-0.144481	-0.441463	0.365593	-0.161639	-0.483161	0.102568	-0.202826	-0.469834	0.126453	-0.295387	-0.346938	0.073252	-0.171113	-0.332953	0.087991	-0.289583	-0.281909	0.126463	-0.230002	-0.543948	0.061732	-0.256840	-0.715716	0.790609	-0.500100	-0.660522	0.794797	-0.489569	-0.716498	0.752063	-0.504700	-0.664566	0.752223	-0.492989	-0.717866	0.477520	-0.488358	-0.702781	0.453154	-0.376541	-0.875344	0.451540	-0.508202	-0.841459	0.406712	-0.505757	-0.917418	0.424481	-0.503356	-0.888752	0.384316	-0.505964	-1.100299	0.270525	-0.472689	-1.074809	0.248652	-0.381518	-1.121398	0.114079	-0.508497	-1.110086	0.091313	-0.391849	-1.067789	0.057262	-0.458521	-1.173073	0.307976	-0.418391	-0.540260	1.448238	-0.124058	-0.483043	1.442043	-0.410196	
51	0.2500	-0.610825	0.973454	-0.164111	-0.587025	0.963429	-0.423754	-0.790207	0.970831	-0.254427	-0.783971	0.983563	-0.353546	-0.613788	0.810004	-0.115207	-0.579404	0.838755	-0.125336	-0.587577	0.776076	-0.115682	-0.542846	0.807323	-0.130378	-0.413197	0.544120	-0.164896	-0.401217	0.548988	-0.267134	-0.479938	0.413958	-0.143934	-0.429063	0.419280	-0.158728	-0.476994	0.364214	-0.144255	-0.429607	0.362377	-0.161263	-0.476808	0.101734	-0.202701	-0.462411	0.125181	-0.295443	-0.342099	0.069724	-0.169993	-0.327090	0.083783	-0.288475	-0.275596	0.120405	-0.228753	-0.538235	0.062928	-0.257165	-0.691989	0.790148	-0.498849	-0.637173	0.795320	-0.487996	-0.691808	0.751487	-0.503494	-0.640118	0.752676	-0.491461	-0.687042	0.477595	-0.487395	-0.672182	0.453100	-0.375051	-0.844548	0.452966	-0.507612	-0.811202	0.407628	-0.504730	-0.886987	0.426428	-0.502614	-0.858851	0.385975	-0.505039	-1.071884	0.275371	-0.471715	-1.046944	0.253336	-0.380482	-1.096082	0.118343	-0.506787	-1.085676	0.095079	-0.390416	-1.043504	0.058153	-0.456625	-1.144259	0.315095	-0.417591	-0.521798	1.448285	-0.121802	-0.466213	1.443404	-0.408614	
52	0.2550	-0.590607	0.973518	-0.162232	-0.566575	0.963950	-0.421796	-0.770013	0.970690	-0.253192	-0.763738	0.982880	-0.352429	-0.594545	0.808766	-0.113839	-0.559746	0.837038	-0.123835	-0.568739	0.774454	-0.114287	-0.523567	0.805010	-0.128955	-0.398176	0.539872	-0.164328	-0.386255	0.544833	-0.266336	-0.467338	0.411542	-0.143550	-0.416411	0.415716	-0.158276	-0.465464	0.361934	-0.144099	-0.418257	0.359055	-0.160988	-0.471606	0.100987	-0.202641	-0.456135	0.123962	-0.295579	-0.338447	0.066084	-0.168980	-0.322442	0.079415	-0.287486	-0.270417	0.114064	-0.227668	-0.533785	0.064242	-0.257522	-0.668030	0.789565	-0.497544	-0.613612	0.795805	-0.486377	-0.666809	0.750815	-0.502225	-0.615384	0.753125	-0.489890	-0.655411	0.477742	-0.486302	-0.640822	0.453205	-0.373437	-0.812800	0.454110	-0.506990	-0.779901	0.408348	-0.503618	-0.855541	0.428017	-0.501869	-0.827852	0.387342	-0.504056	-1.042168	0.279559	-0.470726	-1.017758	0.257500	-0.379398	-1.068589	0.122231	-0.505116	-1.059005	0.098585	-0.389008	-1.016771	0.059144	-0.454727	-1.114332	0.321071	-0.416823	-0.503122	1.448231	-0.119573	-0.449363	1.444660	-0.407099	
53	0.2600	-0.570376	0.973526	-0.160335	-0.546201	0.964370	-0.419865	-0.749856	0.970474	-0.251913	-0.743596	0.982009	-0.351279	-0.575329	0.807512	-0.112481	-0.540125	0.835296	-0.122363	-0.549945	0.772822	-0.112914	-0.504349	0.802668	-0.127589	-0.383387	0.535551	-0.163830	-0.371551	0.540599	-0.265630	-0.455109	0.409129	-0.143217	-0.404136	0.412071	-0.157907	-0.454393	0.359661	-0.144003	-0.407386	0.355663	-0.160805	-0.467416	0.100334	-0.202639	-0.450882	0.122813	-0.295786	-0.335820	0.062397	-0.168078	-0.318865	0.074973	-0.286625	-0.266243	0.107556	-0.226753	-0.530441	0.065641	-0.257899	-0.643918	0.788880	-0.496186	-0.589919	0.796263	-0.484716	-0.641592	0.750074	-0.500893	-0.590454	0.753585	-0.488279	-0.623134	0.477994	-0.485078	-0.608864	0.453498	-0.371701	-0.780270	0.454998	-0.506330	-0.747719	0.408899	-0.502422	-0.823247	0.429267	-0.501116	-0.795915	0.388436	-0.503016	-1.011297	0.283067	-0.469732	-0.987391	0.261114	-0.378278	-1.039052	0.125697	-0.503502	-1.030199	0.101777	-0.387642	-0.987714	0.060220	-0.452855	-1.083442	0.325869	-0.416090	-0.484283	1.448091	-0.117383	-0.432525	1.445814	-0.405648	
54	0.2650	-0.550193	0.973489	-0.158429	-0.525960	0.964694	-0.417969	-0.729794	0.970192	-0.250593	-0.723601	0.980966	-0.350097	-0.556198	0.806262	-0.111136	-0.520600	0.833550	-0.120925	-0.531252	0.771200	-0.111566	-0.485249	0.800321	-0.126282	-0.368871	0.531200	-0.163392	-0.357141	0.536330	-0.265007	-0.443252	0.406737	-0.142927	-0.392239	0.408381	-0.157612	-0.443759	0.357411	-0.143953	-0.396969	0.352236	-0.160704	-0.464100	0.099780	-0.202691	-0.446530	0.121747	-0.296054	-0.334066	0.058730	-0.167295	-0.316218	0.070536	-0.285894	-0.262947	0.100994	-0.226010	-0.528046	0.067098	-0.258285	-0.619750	0.788118	-0.494779	-0.566185	0.796705	-0.483017	-0.616263	0.749290	-0.499501	-0.565432	0.754071	-0.486632	-0.590392	0.478381	-0.483727	-0.576484	0.454008	-0.369851	-0.747142	0.455658	-0.505627	-0.714841	0.409315	-0.501148	-0.790290	0.430204	-0.500354	-0.763222	0.389285	-0.501924	-0.979444	0.285886	-0.468742	-0.956006	0.264160	-0.377135	-1.007650	0.128705	-0.501966	-0.999432	0.104611	-0.386332	-0.956510	0.061363	-0.451038	-1.051764	0.329480	-0.415396	-0.465343	1.447880	-0.115242	-0.415742	1.446871	-0.404262	
55	0.2700	-0.530128	0.973413	-0.156524	-0.505919	0.964929	-0.416116	-0.709895	0.969854	-0.249236	-0.703816	0.979771	-0.348886	-0.537217	0.805032	-0.109809	-0.501240	0.831820	-0.119525	-0.512726	0.769609	-0.110248	-0.466335	0.797994	-0.125033	-0.354674	0.526858	-0.163007	-0.343069	0.532062	-0.264459	-0.431770	0.404378	-0.142671	-0.380727	0.404682	-0.157380	-0.433549	0.355197	-0.143941	-0.386991	0.348809	-0.160674	-0.461526	0.099333	-0.202788	-0.442961	0.120779	-0.296373	-0.333036	0.055143	-0.166630	-0.314364	0.066182	-0.285292	-0.260409	0.094489	-0.225439	-0.526450	0.068590	-0.258670	-0.595630	0.787302	-0.493327	-0.542513	0.797145	-0.481287	-0.590937	0.748493	-0.498054	-0.540433	0.754598	-0.484957	-0.557380	0.478930	-0.482254	-0.543872	0.454757	-0.367896	-0.713624	0.456123	-0.504878	-0.681469	0.409628	-0.499802	-0.756875	0.430857	-0.499579	-0.729975	0.389916	-0.500784	-0.946806	0.288020	-0.467763	-0.923795	0.266627	-0.375981	-0.974606	0.131233	-0.500523	-0.966921	0.107049	-0.385092	-0.923384	0.062555	-0.449300	-1.019489	0.331914	-0.414742	-0.446374	1.447616	-0.113161	-0.399066	1.447838	-0.402939	
56	0.2750	-0.510261	0.973306	-0.154632	-0.486152	0.965085	-0.414312	-0.690233	0.969471	-0.247848	-0.684311	0.978447	-0.347647	-0.518460	0.803836	-0.108504	-0.482123	0.830122	-0.118165	-0.494437	0.768064	-0.108963	-0.447681	0.795706	-0.123845	-0.340845	0.522564	-0.162667	-0.329379	0.527833	-0.263978	-0.420675	0.402068	-0.142441	-0.369614	0.401008	-0.157203	-0.423753	0.353035	-0.143955	-0.377443	0.345413	-0.160704	-0.459571	0.098995	-0.202923	-0.440060	0.119919	-0.296730	-0.332592	0.051693	-0.166082	-0.313176	0.061981	-0.284818	-0.258513	0.088142	-0.225031	-0.525508	0.070096	-0.259046	-0.571674	0.786457	-0.491836	-0.519014	0.797593	-0.479536	-0.565742	0.747708	-0.496558	-0.515582	0.755178	-0.483261	-0.524306	0.479661	-0.480671	-0.511230	0.455758	-0.365851	-0.679933	0.456427	-0.504078	-0.647825	0.409870	-0.498394	-0.723225	0.431261	-0.498790	-0.696396	0.390362	-0.499604	-0.913601	0.289485	-0.466805	-0.890968	0.268517	-0.374830	-0.940182	0.133266	-0.499188	-0.932926	0.109067	-0.383934	-0.888608	0.063776	-0.447666	-0.986826	0.333207	-0.414129	-0.427460	1.447314	-0.111151	-0.382557	1.448722	-0.401680	
57	0.2800	-0.490680	0.973177	-0.152763	-0.466741	0.965174	-0.412565	-0.670891	0.969054	-0.246436	-0.665163	0.977020	-0.346385	-0.500009	0.802687	-0.107226	-0.463332	0.828472	-0.116850	-0.476466	0.766579	-0.107717	-0.429367	0.793476	-0.122717	-0.327436	0.518351	-0.162366	-0.316119	0.523676	-0.263556	-0.409983	0.399821	-0.142231	-0.358916	0.397390	-0.157070	-0.414370	0.350937	-0.143986	-0.368319	0.342080	-0.160784	-0.458117	0.098771	-0.203089	-0.437722	0.119178	-0.297116	-0.332607	0.048431	-0.165647	-0.312531	0.057994	-0.284464	-0.257152	0.082045	-0.224776	-0.525085	0.071597	-0.259406	-0.548006	0.785609	-0.490315	-0.495810	0.798063	-0.477773	-0.540814	0.746960	-0.495023	-0.491014	0.755823	-0.481555	-0.491388	0.480590	-0.478992	-0.478768	0.457018	-0.363733	-0.646301	0.456602	-0.503228	-0.614141	0.410074	-0.496935	-0.689573	0.431450	-0.497986	-0.662720	0.390655	-0.498392	-0.880067	0.290309	-0.465875	-0.857761	0.269843	-0.373695	-0.904675	0.134805	-0.497971	-0.897745	0.110650	-0.382868	-0.852497	0.065006	-0.446155	-0.953999	0.333413	-0.413557	-0.408695	1.446990	-0.109222	-0.366285	1.449529	-0.400484	
58	0.2850	-0.471479	0.973030	-0.150927	-0.447772	0.965207	-0.410881	-0.651956	0.968615	-0.245008	-0.646454	0.975517	-0.345104	-0.481951	0.801592	-0.105981	-0.444954	0.826881	-0.115583	-0.458897	0.765165	-0.106513	-0.411478	0.791318	-0.121650	-0.314501	0.514250	-0.162096	-0.303339	0.519621	-0.263185	-0.399715	0.397647	-0.142035	-0.348657	0.393859	-0.156974	-0.405403	0.348916	-0.144028	-0.359622	0.338839	-0.160903	-0.457061	0.098660	-0.203278	-0.435849	0.118562	-0.297519	-0.332966	0.045397	-0.165319	-0.312318	0.054273	-0.284222	-0.256229	0.076276	-0.224661	-0.525060	0.073080	-0.259742	-0.524757	0.784781	-0.488772	-0.473027	0.798563	-0.476010	-0.516296	0.746270	-0.493459	-0.466868	0.756540	-0.479850	-0.458850	0.481723	-0.477233	-0.446703	0.458535	-0.361561	-0.612967	0.456683	-0.502328	-0.580664	0.410266	-0.495437	-0.656162	0.431461	-0.497166	-0.629193	0.390827	-0.497157	-0.846457	0.290532	-0.464981	-0.824424	0.270626	-0.372586	-0.868412	0.135859	-0.496881	-0.861708	0.111794	-0.381902	-0.815398	0.066224	-0.444783	-0.921243	0.332607	-0.413026	-0.390179	1.446657	-0.107384	-0.350323	1.450267	-0.399353	
59	0.2900	-0.452755	0.972873	-0.149135	-0.429336	0.965197	-0.409266	-0.633521	0.968164	-0.243572	-0.628271	0.973968	-0.343810	-0.464377	0.800560	-0.104773	-0.427083	0.825359	-0.114368	-0.441818	0.763829	-0.105357	-0.394102	0.789247	-0.120643	-0.302093	0.510288	-0.161854	-0.291088	0.515696	-0.262860	-0.389893	0.395559	-0.141848	-0.338859	0.390442	-0.156906	-0.396859	0.346984	-0.144074	-0.351356	0.335714	-0.161052	-0.456308	0.098662	-0.203484	-0.434352	0.118075	-0.297930	-0.333567	0.042624	-0.165088	-0.312436	0.050859	-0.284080	-0.255654	0.070901	-0.224671	-0.525322	0.074531	-0.260049	-0.502061	0.783992	-0.487219	-0.450795	0.799101	-0.474259	-0.492335	0.745659	-0.491877	-0.443287	0.757334	-0.478159	-0.426920	0.483060	-0.475413	-0.415253	0.460298	-0.359360	-0.580173	0.456699	-0.501383	-0.547640	0.410471	-0.493915	-0.623238	0.431331	-0.496333	-0.596068	0.390909	-0.495911	-0.813036	0.290203	-0.464127	-0.791220	0.270900	-0.371514	-0.831744	0.136450	-0.495924	-0.825169	0.112508	-0.381042	-0.777689	0.067411	-0.443562	-0.888803	0.330882	-0.412534	-0.372020	1.446330	-0.105643	-0.334753	1.450944	-0.398286	
60	0.2950	-0.434611	0.972709	-0.147397	-0.411526	0.965156	-0.407726	-0.615681	0.967711	-0.242137	-0.610702	0.972401	-0.342510	-0.447379	0.799594	-0.103610	-0.409809	0.823915	-0.113208	-0.425318	0.762578	-0.104252	-0.377327	0.787273	-0.119696	-0.290263	0.506491	-0.161635	-0.279414	0.511927	-0.262573	-0.380546	0.393567	-0.141668	-0.329548	0.387163	-0.156859	-0.388750	0.345149	-0.144118	-0.343530	0.332728	-0.161221	-0.455779	0.098770	-0.203698	-0.433153	0.117716	-0.298338	-0.334322	0.040135	-0.164945	-0.312797	0.047782	-0.284028	-0.255350	0.065971	-0.224787	-0.525776	0.075939	-0.260325	-0.480054	0.783262	-0.485668	-0.429246	0.799682	-0.472535	-0.469079	0.745140	-0.490292	-0.420415	0.758205	-0.476495	-0.395823	0.484592	-0.473554	-0.384635	0.462288	-0.357152	-0.548160	0.456678	-0.500397	-0.515321	0.410710	-0.492385	-0.591050	0.431094	-0.495488	-0.563601	0.390929	-0.494663	-0.780073	0.289378	-0.463320	-0.758420	0.270705	-0.370490	-0.795036	0.136610	-0.495099	-0.788499	0.112809	-0.380291	-0.739765	0.068550	-0.442498	-0.856923	0.328345	-0.412081	-0.354326	1.446019	-0.104009	-0.319657	1.451567	-0.397284	
61	0.3000	-0.417145	0.972544	-0.145725	-0.394431	0.965095	-0.406267	-0.598529	0.967265	-0.240715	-0.593835	0.970843	-0.341214	-0.431049	0.798698	-0.102496	-0.393226	0.822552	-0.112106	-0.409484	0.761416	-0.103203	-0.361242	0.785403	-0.118810	-0.279058	0.502880	-0.161436	-0.268363	0.508334	-0.262321	-0.371698	0.391681	-0.141492	-0.320752	0.384044	-0.156827	-0.381090	0.343422	-0.144156	-0.336155	0.329902	-0.161403	-0.455403	0.098978	-0.203916	-0.432186	0.117482	-0.298737	-0.335159	0.037945	-0.164878	-0.313323	0.045059	-0.284051	-0.255247	0.061520	-0.224991	-0.526340	0.077296	-0.260566	-0.458868	0.782605	-0.484132	-0.408508	0.800308	-0.470850	-0.446670	0.744723	-0.488717	-0.398392	0.759150	-0.474871	-0.365778	0.486305	-0.471679	-0.355058	0.464478	-0.354962	-0.517164	0.456644	-0.499378	-0.483951	0.410998	-0.490863	-0.559837	0.430781	-0.494636	-0.532041	0.390912	-0.493427	-0.747839	0.288123	-0.462564	-0.726295	0.270091	-0.369521	-0.758659	0.136379	-0.494407	-0.752080	0.112726	-0.379650	-0.702031	0.069626	-0.441595	-0.825849	0.325114	-0.411665	-0.337209	1.445734	-0.102487	-0.305118	1.452141	-0.396347	
62	0.3050	-0.400455	0.972380	-0.144127	-0.378140	0.965025	-0.404892	-0.582156	0.966834	-0.239316	-0.577754	0.969320	-0.339929	-0.415477	0.797872	-0.101438	-0.377422	0.821276	-0.111066	-0.394401	0.760343	-0.102214	-0.345928	0.783646	-0.117983	-0.268523	0.499472	-0.161253	-0.257975	0.504936	-0.262098	-0.363376	0.389907	-0.141320	-0.312493	0.381102	-0.156804	-0.373894	0.341808	-0.144187	-0.329244	0.327252	-0.161590	-0.455126	0.099277	-0.204131	-0.431394	0.117366	-0.299117	-0.336017	0.036058	-0.164876	-0.313947	0.042698	-0.284137	-0.255289	0.057571	-0.225265	-0.526948	0.078593	-0.260771	-0.438630	0.782032	-0.482623	-0.388704	0.800977	-0.469219	-0.425249	0.744414	-0.487167	-0.377353	0.760162	-0.473300	-0.336991	0.488173	-0.469811	-0.326722	0.466834	-0.352815	-0.487407	0.456618	-0.498335	-0.453765	0.411343	-0.489365	-0.529832	0.430423	-0.493781	-0.501630	0.390881	-0.492215	-0.716598	0.286506	-0.461862	-0.695112	0.269112	-0.368615	-0.722985	0.135802	-0.493842	-0.716289	0.112297	-0.379117	-0.664891	0.070627	-0.440852	-0.795818	0.321315	-0.411283	-0.320777	1.445481	-0.101081	-0.291218	1.452671	-0.395476	
63	0.3100	-0.384633	0.972220	-0.142612	-0.362736	0.964954	-0.403606	-0.566649	0.966426	-0.237951	-0.562541	0.967855	-0.338666	-0.400743	0.797117	-0.100439	-0.362478	0.820089	-0.110091	-0.380147	0.759360	-0.101288	-0.331465	0.782006	-0.117216	-0.258694	0.496282	-0.161085	-0.248285	0.501748	-0.261901	-0.355604	0.388253	-0.141150	-0.304795	0.378353	-0.156787	-0.367176	0.340313	-0.144207	-0.322807	0.324789	-0.161775	-0.454904	0.099654	-0.204338	-0.430730	0.117360	-0.299474	-0.336848	0.034470	-0.164927	-0.314617	0.040695	-0.284270	-0.255425	0.054127	-0.225589	-0.527548	0.079825	-0.260941	-0.419458	0.781550	-0.481157	-0.369948	0.801686	-0.467654	-0.404941	0.744214	-0.485657	-0.357420	0.761230	-0.471796	-0.309652	0.490169	-0.467973	-0.299809	0.469317	-0.350733	-0.459095	0.456613	-0.497280	-0.424981	0.411751	-0.487907	-0.501246	0.430045	-0.492930	-0.472592	0.390852	-0.491037	-0.686599	0.284600	-0.461216	-0.665127	0.267828	-0.367775	-0.688368	0.134933	-0.493398	-0.681495	0.111565	-0.378687	-0.628739	0.071543	-0.440262	-0.767056	0.317078	-0.410935	-0.305131	1.445266	-0.099794	-0.278033	1.453163	-0.394671	
64	0.3150	-0.369760	0.972067	-0.141189	-0.348292	0.964889	-0.402412	-0.552085	0.966045	-0.236632	-0.548266	0.966469	-0.337437	-0.386922	0.796432	-0.099504	-0.348468	0.818992	-0.109182	-0.366790	0.758467	-0.100428	-0.317919	0.780486	-0.116509	-0.249600	0.493322	-0.160931	-0.239321	0.498783	-0.261727	-0.348402	0.386723	-0.140984	-0.297674	0.375809	-0.156772	-0.360950	0.338940	-0.144216	-0.316856	0.322523	-0.161954	-0.454703	0.100096	-0.204533	-0.430157	0.117451	-0.299801	-0.337618	0.033170	-0.165019	-0.315290	0.039039	-0.284440	-0.255618	0.051183	-0.225945	-0.528101	0.080985	-0.261076	-0.401455	0.781161	-0.479744	-0.352340	0.802428	-0.466168	-0.385863	0.744119	-0.484202	-0.338704	0.762340	-0.470370	-0.283931	0.492259	-0.466187	-0.274483	0.471884	-0.348741	-0.432413	0.456641	-0.496224	-0.397795	0.412221	-0.486503	-0.474272	0.429668	-0.492090	-0.445131	0.390839	-0.489905	-0.658075	0.282478	-0.460628	-0.636577	0.266302	-0.367007	-0.655145	0.133827	-0.493065	-0.648044	0.110579	-0.378354	-0.593944	0.072368	-0.439816	-0.739769	0.312537	-0.410619	-0.290368	1.445091	-0.098627	-0.265635	1.453619	-0.393933	
65	0.3200	-0.355909	0.971921	-0.139863	-0.334870	0.964836	-0.401313	-0.538531	0.965696	-0.235370	-0.534992	0.965177	-0.336251	-0.374078	0.795813	-0.098638	-0.335453	0.817986	-0.108343	-0.354391	0.757660	-0.099637	-0.305349	0.779089	-0.115860	-0.241262	0.490600	-0.160790	-0.231103	0.496051	-0.261573	-0.341786	0.385322	-0.140822	-0.291145	0.373477	-0.156756	-0.355226	0.337693	-0.144214	-0.311397	0.320460	-0.162123	-0.454500	0.100587	-0.204713	-0.429649	0.117625	-0.300097	-0.338304	0.032139	-0.165140	-0.315932	0.037708	-0.284632	-0.255836	0.048718	-0.226319	-0.528579	0.082070	-0.261178	-0.384712	0.780865	-0.478399	-0.335968	0.803193	-0.464771	-0.368109	0.744123	-0.482814	-0.321297	0.763475	-0.469032	-0.259971	0.494405	-0.464476	-0.250883	0.474489	-0.346856	-0.407518	0.456707	-0.495180	-0.372378	0.412747	-0.485168	-0.449074	0.429310	-0.491269	-0.419426	0.390852	-0.488830	-0.631234	0.280212	-0.460098	-0.609674	0.264597	-0.366313	-0.623620	0.132540	-0.492832	-0.616252	0.109394	-0.378110	-0.560846	0.073098	-0.439502	-0.714140	0.307819	-0.410333	-0.276568	1.444958	-0.097581	-0.254084	1.454043	-0.393260	
66	0.3250	-0.343137	0.971785	-0.138641	-0.322521	0.964798	-0.400309	-0.526040	0.965382	-0.234174	-0.522769	0.963992	-0.335118	-0.362258	0.795259	-0.097843	-0.323482	0.817071	-0.107574	-0.342994	0.756936	-0.098914	-0.293799	0.777815	-0.115270	-0.233692	0.488120	-0.160660	-0.223641	0.493556	-0.261437	-0.335763	0.384050	-0.140665	-0.285214	0.371362	-0.156739	-0.350011	0.336570	-0.144203	-0.306434	0.318601	-0.162278	-0.454281	0.101113	-0.204875	-0.429185	0.117867	-0.300358	-0.338890	0.031354	-0.165281	-0.316520	0.036676	-0.284838	-0.256056	0.046704	-0.226696	-0.528967	0.083075	-0.261250	-0.369298	0.780658	-0.477132	-0.320898	0.803970	-0.463473	-0.351758	0.744215	-0.481506	-0.305275	0.764617	-0.467792	-0.237885	0.496567	-0.462856	-0.229119	0.477085	-0.345095	-0.384537	0.456815	-0.494161	-0.348868	0.413321	-0.483915	-0.425787	0.428982	-0.490475	-0.395621	0.390895	-0.487821	-0.606249	0.277873	-0.459625	-0.584601	0.262775	-0.365692	-0.594060	0.131130	-0.492687	-0.586397	0.108062	-0.377946	-0.529742	0.073732	-0.439306	-0.690325	0.303047	-0.410076	-0.263801	1.444865	-0.096652	-0.243429	1.454436	-0.392653	
67	0.3300	-0.331486	0.971659	-0.137526	-0.311279	0.964778	-0.399402	-0.514651	0.965103	-0.233055	-0.511631	0.962924	-0.334050	-0.351499	0.794766	-0.097121	-0.312588	0.816244	-0.106877	-0.332630	0.756293	-0.098263	-0.283300	0.776664	-0.114737	-0.226891	0.485884	-0.160542	-0.216937	0.491301	-0.261317	-0.330339	0.382908	-0.140516	-0.279882	0.369464	-0.156718	-0.345306	0.335570	-0.144183	-0.301967	0.316946	-0.162417	-0.454040	0.101658	-0.205019	-0.428752	0.118161	-0.300585	-0.339372	0.030787	-0.165433	-0.317040	0.035910	-0.285046	-0.256261	0.045102	-0.227063	-0.529258	0.083999	-0.261295	-0.355263	0.780533	-0.475953	-0.307179	0.804746	-0.462281	-0.336863	0.744383	-0.480289	-0.290686	0.765748	-0.466655	-0.217755	0.498707	-0.461344	-0.209270	0.479627	-0.343473	-0.363562	0.456961	-0.493180	-0.327370	0.413929	-0.482752	-0.404509	0.428695	-0.489715	-0.373829	0.390969	-0.486885	-0.583263	0.275523	-0.459209	-0.561505	0.260896	-0.365144	-0.566685	0.129651	-0.492616	-0.558712	0.106638	-0.377850	-0.500880	0.074274	-0.439210	-0.668444	0.298334	-0.409846	-0.252119	1.444810	-0.095837	-0.233706	1.454798	-0.392110	
68	0.3350	-0.320980	0.971544	-0.136521	-0.301161	0.964774	-0.398590	-0.504385	0.964862	-0.232019	-0.501597	0.961976	-0.333055	-0.341818	0.794331	-0.096473	-0.302790	0.815505	-0.106250	-0.323315	0.755727	-0.097681	-0.273865	0.775633	-0.114261	-0.220850	0.483890	-0.160436	-0.210982	0.489285	-0.261212	-0.325506	0.381894	-0.140374	-0.275141	0.367782	-0.156695	-0.341107	0.334691	-0.144155	-0.297989	0.315489	-0.162540	-0.453777	0.102207	-0.205143	-0.428343	0.118491	-0.300776	-0.339751	0.030409	-0.165588	-0.317483	0.035377	-0.285249	-0.256442	0.043868	-0.227410	-0.529454	0.084840	-0.261317	-0.342633	0.780480	-0.474870	-0.294835	0.805509	-0.461201	-0.323456	0.744610	-0.479170	-0.277561	0.766849	-0.465627	-0.199627	0.500785	-0.459953	-0.191384	0.482072	-0.342000	-0.344649	0.457141	-0.492249	-0.307950	0.414558	-0.481688	-0.385303	0.428452	-0.488999	-0.354122	0.391074	-0.486028	-0.562375	0.273223	-0.458847	-0.540493	0.259017	-0.364667	-0.541664	0.128152	-0.492606	-0.533375	0.105173	-0.377811	-0.474455	0.074726	-0.439198	-0.648585	0.293781	-0.409642	-0.241556	1.444788	-0.095131	-0.224938	1.455131	-0.391629	
69	0.3400	-0.311625	0.971440	-0.135625	-0.292168	0.964788	-0.397873	-0.495248	0.964656	-0.231075	-0.492669	0.961150	-0.332140	-0.333217	0.793951	-0.095898	-0.294087	0.814849	-0.105695	-0.315047	0.755232	-0.097167	-0.265492	0.774720	-0.113840	-0.215550	0.482133	-0.160341	-0.205758	0.487505	-0.261122	-0.321254	0.381006	-0.140242	-0.270977	0.366309	-0.156669	-0.337405	0.333927	-0.144122	-0.294490	0.314224	-0.162645	-0.453493	0.102745	-0.205248	-0.427954	0.118840	-0.300935	-0.340032	0.030188	-0.165738	-0.317848	0.035039	-0.285440	-0.256592	0.042956	-0.227731	-0.529562	0.085596	-0.261320	-0.331412	0.780488	-0.473888	-0.283870	0.806246	-0.460234	-0.311540	0.744882	-0.478157	-0.265902	0.767902	-0.464711	-0.183514	0.502767	-0.458692	-0.175473	0.484383	-0.340680	-0.327817	0.457348	-0.491379	-0.290636	0.415193	-0.480729	-0.368192	0.428255	-0.488331	-0.336534	0.391205	-0.485255	-0.543644	0.271024	-0.458536	-0.521630	0.257186	-0.364258	-0.519111	0.126680	-0.492644	-0.510510	0.103715	-0.377818	-0.450599	0.075096	-0.439251	-0.630793	0.289475	-0.409462	-0.232126	1.444795	-0.094529	-0.217129	1.455435	-0.391208	
70	0.3450	-0.303410	0.971347	-0.134837	-0.284284	0.964815	-0.397246	-0.487225	0.964484	-0.230225	-0.484834	0.960443	-0.331311	-0.325679	0.793622	-0.095395	-0.286460	0.814276	-0.105208	-0.307808	0.754804	-0.096720	-0.258162	0.773922	-0.113471	-0.210963	0.480605	-0.160257	-0.201235	0.485952	-0.261043	-0.317563	0.380237	-0.140121	-0.267368	0.365037	-0.156641	-0.334184	0.333273	-0.144086	-0.291451	0.313140	-0.162734	-0.453198	0.103261	-0.205334	-0.427586	0.119196	-0.301063	-0.340227	0.030094	-0.165880	-0.318137	0.034859	-0.285616	-0.256710	0.042316	-0.228020	-0.529592	0.086268	-0.261309	-0.321580	0.780544	-0.473012	-0.274263	0.806943	-0.459383	-0.301097	0.745182	-0.477253	-0.255687	0.768890	-0.463905	-0.169389	0.504621	-0.457566	-0.161515	0.486527	-0.339516	-0.313046	0.457575	-0.490578	-0.275417	0.415817	-0.479877	-0.353162	0.428103	-0.487720	-0.321059	0.391356	-0.484568	-0.527087	0.268966	-0.458272	-0.504938	0.255447	-0.363912	-0.499084	0.125272	-0.492716	-0.490183	0.102304	-0.377861	-0.429387	0.075391	-0.439354	-0.615078	0.285485	-0.409306	-0.223824	1.444825	-0.094021	-0.210271	1.455710	-0.390845	
71	0.3500	-0.296301	0.971265	-0.134156	-0.277473	0.964853	-0.396707	-0.480284	0.964343	-0.229472	-0.478057	0.959850	-0.330572	-0.319171	0.793340	-0.094962	-0.279877	0.813779	-0.104788	-0.301565	0.754438	-0.096337	-0.251841	0.773232	-0.113153	-0.207050	0.479294	-0.160183	-0.197377	0.484618	-0.260977	-0.314405	0.379581	-0.140012	-0.264286	0.363955	-0.156612	-0.331422	0.332721	-0.144048	-0.288851	0.312225	-0.162806	-0.452899	0.103742	-0.205403	-0.427241	0.119544	-0.301163	-0.340348	0.030095	-0.166010	-0.318357	0.034802	-0.285773	-0.256796	0.041899	-0.228273	-0.529561	0.086858	-0.261286	-0.313094	0.780637	-0.472242	-0.265972	0.807592	-0.458644	-0.292082	0.745495	-0.476458	-0.246873	0.769800	-0.463207	-0.157196	0.506322	-0.456580	-0.149454	0.488478	-0.338508	-0.300281	0.457811	-0.489854	-0.262243	0.416416	-0.479133	-0.340161	0.427993	-0.487168	-0.307650	0.391520	-0.483967	-0.512677	0.267084	-0.458052	-0.490396	0.253834	-0.363625	-0.481583	0.123962	-0.492812	-0.472402	0.100976	-0.377928	-0.410827	0.075620	-0.439489	-0.601409	0.281866	-0.409171	-0.216626	1.444872	-0.093601	-0.204337	1.455954	-0.390535	
72	0.3550	-0.290251	0.971193	-0.133575	-0.271686	0.964900	-0.396249	-0.474377	0.964231	-0.228817	-0.472292	0.959362	-0.329925	-0.313644	0.793101	-0.094596	-0.274288	0.813355	-0.104430	-0.296268	0.754130	-0.096014	-0.246478	0.772644	-0.112883	-0.203767	0.478187	-0.160120	-0.194139	0.483489	-0.260921	-0.311746	0.379031	-0.139916	-0.261697	0.363049	-0.156582	-0.329091	0.332262	-0.144010	-0.286661	0.311466	-0.162864	-0.452605	0.104182	-0.205457	-0.426923	0.119875	-0.301238	-0.340408	0.030165	-0.166124	-0.318516	0.034835	-0.285909	-0.256854	0.041657	-0.228490	-0.529482	0.087367	-0.261257	-0.305890	0.780754	-0.471577	-0.258934	0.808182	-0.458014	-0.284427	0.745808	-0.475773	-0.239392	0.770621	-0.462615	-0.146845	0.507851	-0.455729	-0.139205	0.490218	-0.337649	-0.289432	0.458047	-0.489212	-0.251030	0.416977	-0.478494	-0.329102	0.427919	-0.486679	-0.296227	0.391690	-0.483450	-0.500347	0.265401	-0.457872	-0.477940	0.252374	-0.363390	-0.466554	0.122773	-0.492920	-0.457116	0.099760	-0.378009	-0.394872	0.075792	-0.439642	-0.589718	0.278652	-0.409057	-0.210487	1.444930	-0.093258	-0.199288	1.456170	-0.390275	
73	0.3600	-0.285195	0.971132	-0.133090	-0.266856	0.964951	-0.395869	-0.469442	0.964143	-0.228257	-0.467475	0.958970	-0.329368	-0.309035	0.792902	-0.094290	-0.269627	0.812999	-0.104132	-0.291855	0.753874	-0.095745	-0.242010	0.772153	-0.112657	-0.201061	0.477269	-0.160067	-0.191470	0.482550	-0.260875	-0.309549	0.378578	-0.139832	-0.259560	0.362305	-0.156554	-0.327159	0.331888	-0.143974	-0.284850	0.310848	-0.162909	-0.452326	0.104573	-0.205497	-0.426633	0.120178	-0.301293	-0.340423	0.030280	-0.166223	-0.318624	0.034928	-0.286023	-0.256889	0.041548	-0.228672	-0.529372	0.087800	-0.261223	-0.299886	0.780884	-0.471013	-0.253069	0.808707	-0.457487	-0.278046	0.746106	-0.475193	-0.233158	0.771345	-0.462120	-0.138218	0.509194	-0.455012	-0.130653	0.491737	-0.336932	-0.280382	0.458275	-0.488653	-0.241661	0.417488	-0.477957	-0.319868	0.427876	-0.486254	-0.286674	0.391859	-0.483014	-0.489991	0.263931	-0.457727	-0.467470	0.251085	-0.363202	-0.453891	0.121720	-0.493031	-0.444227	0.098674	-0.378098	-0.381418	0.075917	-0.439802	-0.579901	0.275862	-0.408961	-0.205348	1.444994	-0.092985	-0.195068	1.456357	-0.390061	
74	0.3650	-0.281055	0.971081	-0.132691	-0.262907	0.965004	-0.395558	-0.465401	0.964077	-0.227789	-0.463532	0.958663	-0.328900	-0.305269	0.792739	-0.094041	-0.265819	0.812706	-0.103888	-0.288253	0.753665	-0.095527	-0.238362	0.771749	-0.112472	-0.198875	0.476522	-0.160023	-0.189314	0.481784	-0.260838	-0.307769	0.378212	-0.139761	-0.257831	0.361706	-0.156528	-0.325589	0.331590	-0.143940	-0.283381	0.310355	-0.162943	-0.452070	0.104913	-0.205526	-0.426377	0.120448	-0.301331	-0.340406	0.030417	-0.166305	-0.318690	0.035056	-0.286117	-0.256904	0.041532	-0.228819	-0.529246	0.088160	-0.261189	-0.294984	0.781016	-0.470546	-0.248280	0.809162	-0.457055	-0.272835	0.746382	-0.474712	-0.228068	0.771970	-0.461717	-0.131175	0.510347	-0.454418	-0.123664	0.493031	-0.336346	-0.272986	0.458487	-0.488178	-0.233994	0.417942	-0.477514	-0.312315	0.427856	-0.485892	-0.278849	0.392019	-0.482655	-0.481472	0.262678	-0.457612	-0.458849	0.249975	-0.363055	-0.443447	0.120814	-0.493140	-0.433586	0.097731	-0.378187	-0.370310	0.076004	-0.439957	-0.571828	0.273498	-0.408883	-0.201133	1.445060	-0.092771	-0.191614	1.456515	-0.389888	
75	0.3700	-0.277742	0.971039	-0.132372	-0.259752	0.965055	-0.395310	-0.462167	0.964029	-0.227407	-0.460376	0.958429	-0.328516	-0.302262	0.792608	-0.093843	-0.262778	0.812469	-0.103692	-0.285380	0.753498	-0.095354	-0.235453	0.771424	-0.112324	-0.197149	0.475928	-0.159988	-0.187612	0.481174	-0.260808	-0.306360	0.377923	-0.139703	-0.256465	0.361233	-0.156504	-0.324343	0.331357	-0.143911	-0.282217	0.309969	-0.162968	-0.451842	0.105199	-0.205546	-0.426156	0.120680	-0.301356	-0.340369	0.030561	-0.166372	-0.318726	0.035199	-0.286192	-0.256906	0.041576	-0.228935	-0.529115	0.088453	-0.261156	-0.291072	0.781143	-0.470168	-0.244459	0.809548	-0.456709	-0.268677	0.746627	-0.474323	-0.224008	0.772494	-0.461395	-0.125556	0.511310	-0.453940	-0.118082	0.494106	-0.335879	-0.267080	0.458678	-0.487784	-0.227863	0.418333	-0.477157	-0.306280	0.427854	-0.485593	-0.272587	0.392166	-0.482365	-0.474628	0.261638	-0.457524	-0.451917	0.249046	-0.362942	-0.435034	0.120056	-0.493239	-0.425007	0.096937	-0.378270	-0.361357	0.076061	-0.440100	-0.565340	0.271547	-0.408820	-0.197755	1.445123	-0.092608	-0.188851	1.456647	-0.389751	
