PathFileType	4	(X/Y/Z)	 P10 65r2 05.trc
DataRate	CameraRate	NumFrames	NumMarkers	Units	OrigDataRate	OrigDataStartFrame	OrigNumFrames
200	200	74	38	m	200	1	74
Frame#	Time	RASIS			LASIS			RPSIS			LPSIS			RThighRear1			RThighFront1			RThighRear2			RThighFront2			RKneeLat			RKneeMed			RShankRear1			RShankFront1			RShankRear2			RShankFront2			RAnkleLat			RAnkleMed			RM5			RM1			RMid			RHeel			LThighRear1			LThighFront1			LThighRear2			LThighFront2			LKneeLat			LKneeMed			LShankRear1			LShankFront1			LShankRear2			LShankFront2			LAnkleLat			LAnkleMed			LM5			LM1			LMid			LHeel			RShoulder			LShoulder			
		X1	Y1	Z1	X2	Y2	Z2	X3	Y3	Z3	X4	Y4	Z4	X5	Y5	Z5	X6	Y6	Z6	X7	Y7	Z7	X8	Y8	Z8	X9	Y9	Z9	X10	Y10	Z10	X11	Y11	Z11	X12	Y12	Z12	X13	Y13	Z13	X14	Y14	Z14	X15	Y15	Z15	X16	Y16	Z16	X17	Y17	Z17	X18	Y18	Z18	X19	Y19	Z19	X20	Y20	Z20	X21	Y21	Z21	X22	Y22	Z22	X23	Y23	Z23	X24	Y24	Z24	X25	Y25	Z25	X26	Y26	Z26	X27	Y27	Z27	X28	Y28	Z28	X29	Y29	Z29	X30	Y30	Z30	X31	Y31	Z31	X32	Y32	Z32	X33	Y33	Z33	X34	Y34	Z34	X35	Y35	Z35	X36	Y36	Z36	X37	Y37	Z37	X38	Y38	Z38	
1	0.0000	-1.446550	0.920270	-0.198677	-1.463520	0.941188	-0.456997	-1.632794	0.957012	-0.271526	-1.647006	0.961965	-0.370059	-1.531280	0.748672	-0.154669	-1.491049	0.752090	-0.170869	-1.534833	0.706854	-0.157696	-1.486898	0.704280	-0.181088	-1.598179	0.416345	-0.198363	-1.590775	0.406605	-0.307813	-1.746610	0.418825	-0.174394	-1.724141	0.375370	-0.193145	-1.791111	0.399568	-0.177900	-1.778528	0.356578	-0.196334	-2.037804	0.321462	-0.234401	-2.013845	0.312756	-0.328008	-2.081696	0.175786	-0.206147	-2.069068	0.163622	-0.322502	-2.035292	0.104682	-0.261461	-2.080759	0.382107	-0.289056	-1.501202	0.773823	-0.530257	-1.453593	0.808484	-0.525617	-1.475552	0.739554	-0.533785	-1.431894	0.772970	-0.531734	-1.290194	0.529416	-0.511525	-1.265372	0.528181	-0.400226	-1.391276	0.411820	-0.526052	-1.336119	0.400040	-0.524200	-1.407899	0.364090	-0.524017	-1.358419	0.350816	-0.525286	-1.449545	0.120733	-0.478081	-1.424741	0.139018	-0.386154	-1.318345	0.045139	-0.496169	-1.305886	0.052095	-0.377110	-1.248894	0.073256	-0.435356	-1.526939	0.071044	-0.429292	-1.265837	1.390818	-0.207832	-1.308802	1.395026	-0.492713	
2	0.0050	-1.431671	0.918985	-0.198850	-1.449341	0.940434	-0.457121	-1.618507	0.955225	-0.270540	-1.632717	0.961137	-0.369193	-1.512537	0.747035	-0.154853	-1.472524	0.751465	-0.170892	-1.514781	0.705390	-0.157719	-1.466813	0.704135	-0.180941	-1.568182	0.414793	-0.198581	-1.560899	0.405530	-0.308470	-1.716634	0.417024	-0.174464	-1.694030	0.373274	-0.193077	-1.761277	0.397751	-0.177868	-1.748552	0.354483	-0.196280	-2.008414	0.319570	-0.233666	-1.984358	0.310761	-0.327351	-2.048270	0.173855	-0.204510	-2.035715	0.161180	-0.320837	-2.000209	0.103654	-0.259818	-2.053185	0.379044	-0.288396	-1.488444	0.772184	-0.529508	-1.440414	0.806108	-0.525273	-1.463302	0.737515	-0.532929	-1.419180	0.770164	-0.531168	-1.281250	0.524639	-0.509934	-1.257081	0.523257	-0.398664	-1.383782	0.408641	-0.524936	-1.328933	0.395944	-0.522589	-1.401200	0.361323	-0.522776	-1.352056	0.347216	-0.523648	-1.448097	0.120451	-0.476749	-1.423536	0.138030	-0.384418	-1.318304	0.045236	-0.496115	-1.305362	0.051309	-0.376943	-1.248596	0.071797	-0.434632	-1.526311	0.071328	-0.428213	-1.253104	1.390138	-0.206368	-1.293448	1.393079	-0.492677	
3	0.0100	-1.416613	0.917697	-0.199008	-1.434956	0.939653	-0.457244	-1.604035	0.953428	-0.269568	-1.618234	0.960297	-0.368339	-1.493553	0.745423	-0.155027	-1.453761	0.750885	-0.170904	-1.494455	0.703964	-0.157732	-1.446462	0.704059	-0.180783	-1.537684	0.413366	-0.198821	-1.530542	0.404584	-0.309148	-1.686172	0.415280	-0.174563	-1.663404	0.371230	-0.193020	-1.730955	0.395963	-0.177850	-1.718061	0.352411	-0.196231	-1.978539	0.317532	-0.232912	-1.954384	0.308638	-0.326681	-2.014244	0.171775	-0.202848	-2.001752	0.158588	-0.319156	-1.964472	0.102516	-0.258164	-2.025176	0.375793	-0.287709	-1.475511	0.770508	-0.528749	-1.427057	0.803682	-0.524906	-1.450890	0.735432	-0.532060	-1.406297	0.767302	-0.530575	-1.272230	0.519757	-0.508305	-1.248731	0.518226	-0.397070	-1.376242	0.405382	-0.523796	-1.321707	0.391755	-0.520949	-1.394466	0.358484	-0.521512	-1.345667	0.343530	-0.521981	-1.446673	0.120146	-0.475409	-1.422352	0.137020	-0.382668	-1.318235	0.045342	-0.496060	-1.304808	0.050534	-0.376792	-1.248263	0.070350	-0.433921	-1.525709	0.071556	-0.427124	-1.240192	1.389442	-0.204886	-1.277856	1.391101	-0.492621	
4	0.0150	-1.401399	0.916420	-0.199141	-1.420363	0.938842	-0.457361	-1.589391	0.951633	-0.268623	-1.603563	0.959449	-0.367511	-1.474357	0.743868	-0.155182	-1.434790	0.750384	-0.170897	-1.473887	0.702612	-0.157728	-1.425878	0.704092	-0.180609	-1.506711	0.412145	-0.199078	-1.499732	0.403845	-0.309838	-1.655240	0.413634	-0.174687	-1.632266	0.369291	-0.192970	-1.700152	0.394232	-0.177846	-1.687048	0.350397	-0.196180	-1.948138	0.315298	-0.232135	-1.923886	0.306349	-0.325996	-1.979559	0.169516	-0.201172	-1.967116	0.155829	-0.317469	-1.928020	0.101265	-0.256512	-1.996689	0.372286	-0.286990	-1.462414	0.768801	-0.527981	-1.413533	0.801211	-0.524508	-1.438328	0.733314	-0.531180	-1.393261	0.764390	-0.529952	-1.263178	0.514785	-0.506638	-1.240366	0.513101	-0.395447	-1.368701	0.402054	-0.522636	-1.314483	0.387485	-0.519287	-1.387737	0.355584	-0.520229	-1.339291	0.339774	-0.520293	-1.445290	0.119822	-0.474072	-1.421203	0.135996	-0.380917	-1.318136	0.045450	-0.496003	-1.304225	0.049774	-0.376661	-1.247892	0.068930	-0.433232	-1.525148	0.071723	-0.426034	-1.227111	1.388738	-0.203387	-1.262026	1.389101	-0.492528	
5	0.0200	-1.386041	0.915168	-0.199240	-1.405552	0.937996	-0.457468	-1.574579	0.949853	-0.267719	-1.588701	0.958594	-0.366719	-1.454970	0.742406	-0.155308	-1.415634	0.749996	-0.170864	-1.453095	0.701373	-0.157699	-1.405089	0.704274	-0.180413	-1.475280	0.411214	-0.199345	-1.468485	0.403398	-0.310529	-1.623839	0.412126	-0.174837	-1.600607	0.367508	-0.192922	-1.668857	0.392586	-0.177849	-1.655491	0.348480	-0.196122	-1.917149	0.312819	-0.231333	-1.892806	0.303858	-0.325294	-1.944129	0.167053	-0.199491	-1.931723	0.152892	-0.315788	-1.890773	0.099901	-0.254876	-1.967658	0.368451	-0.286232	-1.449153	0.767069	-0.527208	-1.399845	0.798699	-0.524073	-1.425624	0.731169	-0.530290	-1.380080	0.761435	-0.529293	-1.254134	0.509737	-0.504935	-1.232025	0.507894	-0.393800	-1.361199	0.398669	-0.521458	-1.307304	0.383151	-0.517608	-1.381053	0.352636	-0.518931	-1.332967	0.335962	-0.518590	-1.443967	0.119483	-0.472748	-1.420102	0.134965	-0.379180	-1.318005	0.045555	-0.495946	-1.303615	0.049033	-0.376552	-1.247480	0.067549	-0.432574	-1.524643	0.071823	-0.424951	-1.213865	1.388034	-0.201872	-1.245952	1.387093	-0.492382	
6	0.0250	-1.370545	0.913958	-0.199296	-1.390507	0.937110	-0.457561	-1.559596	0.948099	-0.266869	-1.573638	0.957736	-0.365975	-1.435407	0.741071	-0.155395	-1.396309	0.749756	-0.170795	-1.432095	0.700288	-0.157637	-1.384113	0.704647	-0.180187	-1.443406	0.410657	-0.199613	-1.436814	0.403325	-0.311205	-1.591965	0.410797	-0.175005	-1.568410	0.365936	-0.192870	-1.637053	0.391051	-0.177854	-1.623361	0.346699	-0.196050	-1.885496	0.310046	-0.230506	-1.861072	0.301129	-0.324573	-1.907858	0.164364	-0.197814	-1.895473	0.149769	-0.314125	-1.852637	0.098434	-0.253268	-1.938002	0.364217	-0.285432	-1.435726	0.765319	-0.526429	-1.385992	0.796148	-0.523594	-1.412778	0.729007	-0.529394	-1.366757	0.758443	-0.528592	-1.245137	0.504630	-0.503200	-1.223747	0.502622	-0.392133	-1.353777	0.395245	-0.520264	-1.300207	0.378770	-0.515919	-1.374449	0.349656	-0.517624	-1.326733	0.332109	-0.516879	-1.442719	0.119135	-0.471450	-1.419061	0.133938	-0.377469	-1.317844	0.045648	-0.495888	-1.302984	0.048311	-0.376467	-1.247028	0.066220	-0.431954	-1.524207	0.071857	-0.423885	-1.200451	1.387340	-0.200344	-1.229619	1.385087	-0.492167	
7	0.0300	-1.354912	0.912804	-0.199300	-1.375206	0.936181	-0.457634	-1.544433	0.946384	-0.266084	-1.558360	0.956877	-0.365290	-1.415676	0.739898	-0.155432	-1.376827	0.749699	-0.170682	-1.410896	0.699394	-0.157533	-1.362968	0.705253	-0.179924	-1.411099	0.410557	-0.199869	-1.404730	0.403706	-0.311852	-1.559609	0.409685	-0.175186	-1.535657	0.364628	-0.192805	-1.604720	0.389654	-0.177854	-1.590625	0.345091	-0.195953	-1.853093	0.306932	-0.229653	-1.828605	0.298128	-0.323831	-1.870639	0.161432	-0.196152	-1.858260	0.146458	-0.312492	-1.813512	0.096877	-0.251702	-1.907627	0.359516	-0.284584	-1.422126	0.763558	-0.525647	-1.371967	0.793562	-0.523065	-1.399789	0.726838	-0.528491	-1.353293	0.755421	-0.527846	-1.236224	0.499482	-0.501434	-1.215568	0.497300	-0.390453	-1.346472	0.391798	-0.519058	-1.293232	0.374363	-0.514228	-1.367962	0.346659	-0.516311	-1.320624	0.328237	-0.515166	-1.441560	0.118783	-0.470187	-1.418092	0.132925	-0.375798	-1.317654	0.045721	-0.495831	-1.302337	0.047608	-0.376408	-1.246536	0.064955	-0.431379	-1.523853	0.071828	-0.422845	-1.186863	1.386668	-0.198801	-1.213012	1.383099	-0.491864	
8	0.0350	-1.339141	0.911723	-0.199241	-1.359625	0.935205	-0.457682	-1.529080	0.944717	-0.265377	-1.542849	0.956019	-0.364675	-1.395784	0.738919	-0.155410	-1.357199	0.749859	-0.170517	-1.389507	0.698730	-0.157379	-1.341667	0.706129	-0.179618	-1.378377	0.410991	-0.200100	-1.372245	0.404618	-0.312452	-1.526766	0.408824	-0.175370	-1.502333	0.363636	-0.192719	-1.571835	0.388419	-0.177838	-1.557252	0.343695	-0.195824	-1.819852	0.303438	-0.228772	-1.795319	0.294828	-0.323066	-1.832363	0.158250	-0.194518	-1.819978	0.142966	-0.310902	-1.773300	0.095253	-0.250190	-1.876434	0.354283	-0.283687	-1.408343	0.761794	-0.524863	-1.357763	0.790945	-0.522481	-1.386653	0.724673	-0.527584	-1.339685	0.752374	-0.527051	-1.227430	0.494314	-0.499645	-1.207521	0.491949	-0.388765	-1.339319	0.388350	-0.517845	-1.286411	0.369953	-0.512542	-1.361622	0.343667	-0.514999	-1.314670	0.324365	-0.513460	-1.440503	0.118437	-0.468971	-1.417202	0.131937	-0.374179	-1.317438	0.045767	-0.495775	-1.301681	0.046922	-0.376373	-1.246009	0.063763	-0.430853	-1.523589	0.071743	-0.421838	-1.173096	1.386030	-0.197244	-1.196111	1.381142	-0.491457	
9	0.0400	-1.323224	0.910728	-0.199112	-1.343738	0.934180	-0.457699	-1.513522	0.943110	-0.264755	-1.527085	0.955165	-0.364138	-1.375736	0.738166	-0.155319	-1.337433	0.750267	-0.170292	-1.367935	0.698329	-0.157167	-1.320224	0.707311	-0.179263	-1.345261	0.412028	-0.200288	-1.339377	0.406130	-0.312985	-1.493433	0.408245	-0.175546	-1.468427	0.363005	-0.192599	-1.538384	0.387365	-0.177797	-1.523216	0.342546	-0.195651	-1.785686	0.299529	-0.227865	-1.761133	0.291206	-0.322277	-1.792930	0.154816	-0.192922	-1.780525	0.139307	-0.309367	-1.731911	0.093592	-0.248745	-1.844325	0.348462	-0.282738	-1.394366	0.760037	-0.524078	-1.343369	0.788302	-0.521841	-1.373362	0.722523	-0.526676	-1.325930	0.749311	-0.526205	-1.218788	0.489149	-0.497837	-1.199636	0.486590	-0.387078	-1.332348	0.384923	-0.516630	-1.279775	0.365567	-0.510869	-1.355459	0.340702	-0.513695	-1.308900	0.320521	-0.511768	-1.439553	0.118106	-0.467811	-1.416398	0.130988	-0.372627	-1.317203	0.045775	-0.495721	-1.301027	0.046250	-0.376360	-1.245452	0.062651	-0.430381	-1.523424	0.071616	-0.420875	-1.159141	1.385442	-0.195672	-1.178900	1.379234	-0.490927	
10	0.0450	-1.307156	0.909835	-0.198905	-1.327521	0.933104	-0.457678	-1.497747	0.941571	-0.264228	-1.511049	0.954318	-0.363685	-1.355536	0.737666	-0.155148	-1.317536	0.750950	-0.169998	-1.346190	0.698223	-0.156889	-1.298653	0.708829	-0.178851	-1.311786	0.413730	-0.200417	-1.306153	0.408302	-0.313429	-1.459617	0.407973	-0.175700	-1.433942	0.362779	-0.192434	-1.504358	0.386511	-0.177718	-1.488502	0.341676	-0.195423	-1.750515	0.295181	-0.226932	-1.725972	0.287247	-0.321461	-1.752250	0.151141	-0.191378	-1.739814	0.135507	-0.307900	-1.689271	0.091931	-0.247378	-1.811205	0.342010	-0.281738	-1.380185	0.758296	-0.523293	-1.328776	0.785639	-0.521140	-1.359912	0.720403	-0.525767	-1.312022	0.746241	-0.525307	-1.210326	0.484015	-0.496020	-1.191940	0.481250	-0.385401	-1.325588	0.381546	-0.515419	-1.273353	0.361235	-0.509220	-1.349496	0.337790	-0.512406	-1.303338	0.316731	-0.510101	-1.438717	0.117804	-0.466717	-1.415679	0.130094	-0.371153	-1.316956	0.045737	-0.495669	-1.300384	0.045589	-0.376366	-1.244875	0.061627	-0.429964	-1.523360	0.071467	-0.419964	-1.144992	1.384918	-0.194086	-1.161363	1.377391	-0.490260	
11	0.0500	-1.290929	0.909057	-0.198614	-1.310953	0.931979	-0.457614	-1.481740	0.940109	-0.263801	-1.494723	0.953482	-0.363324	-1.335191	0.737444	-0.154891	-1.297519	0.751930	-0.169631	-1.324284	0.698439	-0.156537	-1.276972	0.710706	-0.178376	-1.277995	0.416145	-0.200466	-1.272612	0.411181	-0.313764	-1.425336	0.408027	-0.175816	-1.398891	0.362994	-0.192211	-1.469760	0.385871	-0.177587	-1.453109	0.341114	-0.195128	-1.714271	0.290377	-0.225976	-1.689773	0.282943	-0.320618	-1.710250	0.147242	-0.189897	-1.697774	0.131599	-0.306512	-1.645323	0.090314	-0.246100	-1.776989	0.334891	-0.280689	-1.365789	0.756584	-0.522511	-1.313974	0.782964	-0.520380	-1.346297	0.718328	-0.524861	-1.297959	0.743175	-0.524358	-1.202070	0.478944	-0.494203	-1.184456	0.475957	-0.383744	-1.319059	0.378250	-0.514219	-1.267166	0.356990	-0.507606	-1.343753	0.334962	-0.511140	-1.298003	0.313028	-0.508467	-1.437993	0.117545	-0.465698	-1.415046	0.129269	-0.369770	-1.316707	0.045645	-0.495620	-1.299768	0.044934	-0.376387	-1.244289	0.060693	-0.429602	-1.523396	0.071321	-0.419114	-1.130643	1.384475	-0.192484	-1.143490	1.375633	-0.489440	
12	0.0550	-1.274537	0.908407	-0.198235	-1.294014	0.930806	-0.457501	-1.465490	0.938733	-0.263478	-1.478090	0.952662	-0.363057	-1.314709	0.737519	-0.154539	-1.277393	0.753227	-0.169183	-1.302232	0.698997	-0.156106	-1.255200	0.712961	-0.177833	-1.243945	0.419309	-0.200416	-1.238801	0.414801	-0.313967	-1.390621	0.408420	-0.175878	-1.363303	0.363677	-0.191915	-1.434609	0.385453	-0.177391	-1.417050	0.340885	-0.194756	-1.676902	0.285114	-0.224998	-1.652488	0.278299	-0.319747	-1.666880	0.143149	-0.188491	-1.654359	0.127624	-0.305214	-1.600037	0.088794	-0.244919	-1.741605	0.327089	-0.279592	-1.351172	0.754915	-0.521732	-1.298958	0.780288	-0.519561	-1.332513	0.716314	-0.523960	-1.283739	0.740127	-0.523360	-1.194041	0.473967	-0.492398	-1.177199	0.470744	-0.382119	-1.312780	0.375068	-0.513039	-1.261231	0.352872	-0.506037	-1.338243	0.332250	-0.509905	-1.292907	0.309448	-0.506878	-1.437376	0.117348	-0.464763	-1.414491	0.128534	-0.368489	-1.316468	0.045493	-0.495574	-1.299194	0.044280	-0.376415	-1.243710	0.059851	-0.429294	-1.523526	0.071211	-0.418333	-1.116093	1.384128	-0.190866	-1.125276	1.373977	-0.488456	
13	0.0600	-1.257974	0.907896	-0.197762	-1.276692	0.929592	-0.457334	-1.448988	0.937451	-0.263261	-1.461139	0.951863	-0.362886	-1.294103	0.737908	-0.154087	-1.257173	0.754853	-0.168649	-1.280053	0.699914	-0.155590	-1.233358	0.715603	-0.177218	-1.209708	0.423241	-0.200244	-1.204783	0.419183	-0.314014	-1.355514	0.409155	-0.175866	-1.327225	0.364850	-0.191533	-1.398933	0.385262	-0.177114	-1.380356	0.341006	-0.194294	-1.638374	0.279399	-0.224003	-1.614088	0.273323	-0.318846	-1.622115	0.138900	-0.187172	-1.609547	0.123634	-0.304016	-1.553412	0.087427	-0.243843	-1.704998	0.318598	-0.278452	-1.336328	0.753302	-0.520959	-1.283722	0.777623	-0.518687	-1.318556	0.714379	-0.523067	-1.269360	0.737111	-0.522318	-1.186255	0.469125	-0.490619	-1.170180	0.465648	-0.380538	-1.306759	0.372039	-0.511887	-1.255557	0.348919	-0.504525	-1.332974	0.329690	-0.508711	-1.288057	0.306029	-0.505344	-1.436855	0.117232	-0.463921	-1.414004	0.127907	-0.367322	-1.316254	0.045274	-0.495533	-1.298678	0.043623	-0.376445	-1.243154	0.059100	-0.429037	-1.523738	0.071175	-0.417630	-1.101340	1.383894	-0.189232	-1.106722	1.372445	-0.487297	
14	0.0650	-1.241236	0.907536	-0.197197	-1.258978	0.928343	-0.457106	-1.432226	0.936271	-0.263148	-1.443861	0.951092	-0.362809	-1.273385	0.738620	-0.153531	-1.236875	0.756813	-0.168026	-1.257772	0.701198	-0.154985	-1.211471	0.718634	-0.176525	-1.175365	0.427945	-0.199931	-1.170628	0.424329	-0.313885	-1.320072	0.410229	-0.175761	-1.290716	0.366524	-0.191050	-1.362780	0.385297	-0.176742	-1.343076	0.341491	-0.193730	-1.598674	0.273250	-0.222992	-1.574562	0.268039	-0.317914	-1.575956	0.134543	-0.185951	-1.563345	0.119686	-0.302925	-1.505472	0.086272	-0.242876	-1.667131	0.309430	-0.277272	-1.321253	0.751764	-0.520194	-1.268264	0.774984	-0.517761	-1.304425	0.712545	-0.522184	-1.254822	0.734146	-0.521236	-1.178718	0.464455	-0.488879	-1.163403	0.460706	-0.379015	-1.301000	0.369202	-0.510774	-1.250149	0.345177	-0.503083	-1.327946	0.327322	-0.507568	-1.283452	0.302814	-0.503878	-1.436413	0.117222	-0.463178	-1.413568	0.127412	-0.366279	-1.316079	0.044985	-0.495497	-1.298241	0.042962	-0.376469	-1.242644	0.058437	-0.428827	-1.524012	0.071260	-0.417013	-1.086391	1.383790	-0.187581	-1.087836	1.371055	-0.485955	
15	0.0700	-1.224320	0.907333	-0.196538	-1.240870	0.927069	-0.456813	-1.415201	0.935199	-0.263138	-1.426249	0.950357	-0.362825	-1.252574	0.739660	-0.152867	-1.216517	0.759106	-0.167310	-1.235414	0.702850	-0.154287	-1.189567	0.722049	-0.175751	-1.141009	0.433410	-0.199456	-1.136421	0.430227	-0.313559	-1.284365	0.411632	-0.175544	-1.253853	0.368698	-0.190454	-1.326209	0.385554	-0.176259	-1.305274	0.342345	-0.193054	-1.557811	0.266696	-0.221968	-1.533926	0.262474	-0.316951	-1.528435	0.130131	-0.184834	-1.515792	0.115844	-0.301947	-1.456275	0.085393	-0.242023	-1.627992	0.299614	-0.276058	-1.305948	0.750318	-0.519438	-1.252584	0.772390	-0.516790	-1.290121	0.710832	-0.521316	-1.240129	0.731252	-0.520122	-1.171434	0.460001	-0.487195	-1.156862	0.455959	-0.377561	-1.295497	0.366602	-0.509708	-1.245000	0.341690	-0.501723	-1.323152	0.325185	-0.506485	-1.279084	0.299847	-0.502492	-1.436028	0.117344	-0.462542	-1.413162	0.127073	-0.365370	-1.315960	0.044628	-0.495466	-1.297902	0.042294	-0.376479	-1.242201	0.057858	-0.428657	-1.524325	0.071518	-0.416491	-1.071250	1.383828	-0.185913	-1.068632	1.369827	-0.484425	
16	0.0750	-1.207226	0.907294	-0.195789	-1.222371	0.925783	-0.456451	-1.397912	0.934243	-0.263225	-1.408305	0.949668	-0.362927	-1.231688	0.741025	-0.152096	-1.196119	0.761726	-0.166501	-1.213010	0.704867	-0.153496	-1.167675	0.725831	-0.174892	-1.106741	0.439604	-0.198803	-1.102252	0.436849	-0.313017	-1.248473	0.413344	-0.175196	-1.216727	0.371366	-0.189732	-1.289294	0.386020	-0.175651	-1.267032	0.343569	-0.192257	-1.515817	0.259779	-0.220935	-1.492213	0.256668	-0.315955	-1.479612	0.125725	-0.183830	-1.466954	0.112173	-0.301087	-1.405908	0.084852	-0.241284	-1.587588	0.289192	-0.274814	-1.290414	0.748984	-0.518693	-1.236686	0.769861	-0.515781	-1.275642	0.709263	-0.520465	-1.225282	0.728453	-0.518982	-1.164394	0.455806	-0.485581	-1.150544	0.451447	-0.376191	-1.290236	0.364280	-0.508701	-1.240098	0.338504	-0.500459	-1.318576	0.323323	-0.505473	-1.274936	0.297172	-0.501197	-1.435672	0.117627	-0.462020	-1.412760	0.126916	-0.364604	-1.315914	0.044203	-0.495441	-1.297682	0.041621	-0.376468	-1.241849	0.057355	-0.428522	-1.524643	0.072005	-0.416072	-1.055928	1.384024	-0.184226	-1.049131	1.368780	-0.482705	
17	0.0800	-1.189956	0.907423	-0.194954	-1.203491	0.924499	-0.456017	-1.380360	0.933410	-0.263402	-1.390032	0.949035	-0.363109	-1.210750	0.742709	-0.151217	-1.175702	0.764658	-0.165599	-1.190594	0.707235	-0.152610	-1.145823	0.729959	-0.173947	-1.072668	0.446483	-0.197955	-1.068217	0.444147	-0.312244	-1.212484	0.415340	-0.174699	-1.179439	0.374507	-0.188872	-1.252119	0.386681	-0.174905	-1.228445	0.345153	-0.191331	-1.472747	0.252548	-0.219894	-1.449483	0.250665	-0.314925	-1.429578	0.121388	-0.182942	-1.416928	0.108741	-0.300345	-1.354487	0.084708	-0.240657	-1.545954	0.278222	-0.273545	-1.274654	0.747783	-0.517962	-1.220573	0.767418	-0.514741	-1.260992	0.707860	-0.519636	-1.210284	0.725772	-0.517826	-1.157584	0.451911	-0.484055	-1.144428	0.447213	-0.374917	-1.285194	0.362281	-0.507762	-1.235420	0.335666	-0.499301	-1.314192	0.321779	-0.504541	-1.270982	0.294834	-0.500006	-1.435308	0.118102	-0.461617	-1.412330	0.126968	-0.363990	-1.315955	0.043719	-0.495422	-1.297600	0.040947	-0.376428	-1.241616	0.056922	-0.428415	-1.524927	0.072784	-0.415764	-1.040437	1.384388	-0.182522	-1.029361	1.367932	-0.480795	
18	0.0850	-1.172510	0.907722	-0.194039	-1.184243	0.923234	-0.455508	-1.362550	0.932706	-0.263661	-1.371436	0.948471	-0.363360	-1.189782	0.744696	-0.150233	-1.155286	0.767881	-0.164603	-1.168198	0.709936	-0.151630	-1.124040	0.734402	-0.172914	-1.038901	0.453985	-0.196900	-1.034417	0.452063	-0.311228	-1.176496	0.417586	-0.174038	-1.142100	0.378093	-0.187868	-1.214780	0.387518	-0.174009	-1.189620	0.347083	-0.190267	-1.428681	0.245061	-0.218846	-1.405815	0.244515	-0.313858	-1.378448	0.117186	-0.182171	-1.365839	0.105615	-0.299719	-1.302153	0.085016	-0.240136	-1.503145	0.266774	-0.272255	-1.258673	0.746735	-0.517246	-1.204252	0.765087	-0.513680	-1.246171	0.706646	-0.518830	-1.195139	0.723235	-0.516661	-1.150975	0.448358	-0.482631	-1.138479	0.443294	-0.373750	-1.280336	0.360648	-0.506902	-1.230934	0.333220	-0.498261	-1.309966	0.320593	-0.503697	-1.267188	0.292879	-0.498930	-1.434898	0.118802	-0.461339	-1.411834	0.127256	-0.363533	-1.316100	0.043186	-0.495409	-1.297675	0.040281	-0.376354	-1.241524	0.056548	-0.428328	-1.525132	0.073921	-0.415573	-1.024791	1.384929	-0.180799	-1.009355	1.367297	-0.478699	
19	0.0900	-1.154893	0.908191	-0.193052	-1.164647	0.922007	-0.454921	-1.344489	0.932137	-0.263989	-1.352528	0.947989	-0.363670	-1.168809	0.746969	-0.149149	-1.134892	0.771368	-0.163516	-1.145857	0.712942	-0.150560	-1.102355	0.739123	-0.171790	-1.005547	0.462035	-0.195629	-1.000952	0.460522	-0.309961	-1.140611	0.420044	-0.173198	-1.104826	0.382086	-0.186711	-1.177379	0.388505	-0.172955	-1.150676	0.349338	-0.189063	-1.383718	0.237381	-0.217793	-1.361312	0.238274	-0.312754	-1.326367	0.113184	-0.181517	-1.313838	0.102856	-0.299206	-1.249073	0.085824	-0.239715	-1.459243	0.254932	-0.270947	-1.242479	0.745861	-0.516548	-1.187730	0.762892	-0.512606	-1.231179	0.705644	-0.518053	-1.179850	0.720869	-0.515498	-1.144534	0.445184	-0.481325	-1.132657	0.439727	-0.372702	-1.275620	0.359422	-0.506129	-1.226598	0.331207	-0.497350	-1.305857	0.319805	-0.502952	-1.263511	0.291347	-0.497979	-1.434394	0.119763	-0.461190	-1.411231	0.127812	-0.363241	-1.316361	0.042620	-0.495403	-1.297923	0.039635	-0.376239	-1.241599	0.056224	-0.428253	-1.525203	0.075484	-0.415506	-1.009006	1.385655	-0.179056	-0.989149	1.366890	-0.476423	
20	0.0950	-1.137110	0.908828	-0.192000	-1.144726	0.920837	-0.454255	-1.326186	0.931709	-0.264376	-1.333321	0.947603	-0.364027	-1.147854	0.749502	-0.147970	-1.114540	0.775087	-0.162341	-1.123604	0.716223	-0.149402	-1.080793	0.744076	-0.170576	-0.972714	0.470543	-0.194138	-0.967922	0.469435	-0.308438	-1.104932	0.422671	-0.172170	-1.067740	0.386439	-0.185398	-1.140025	0.389617	-0.171734	-1.111735	0.351888	-0.187716	-1.337978	0.229577	-0.216732	-1.316094	0.231998	-0.311610	-1.273501	0.109443	-0.180975	-1.261099	0.100523	-0.298796	-1.195435	0.087169	-0.239383	-1.414353	0.242786	-0.269625	-1.226076	0.745182	-0.515868	-1.171014	0.760858	-0.511528	-1.216018	0.704873	-0.517306	-1.164416	0.718699	-0.514345	-1.138213	0.442424	-0.480149	-1.126909	0.436544	-0.371780	-1.270994	0.358638	-0.505452	-1.222362	0.329664	-0.496576	-1.301810	0.319453	-0.502310	-1.259898	0.290278	-0.497163	-1.433744	0.121020	-0.461174	-1.410472	0.128662	-0.363118	-1.316745	0.042042	-0.495405	-1.298356	0.039023	-0.376079	-1.241861	0.055941	-0.428184	-1.525080	0.077541	-0.415570	-0.993098	1.386567	-0.177292	-0.968783	1.366723	-0.473975	
21	0.1000	-1.119167	0.909627	-0.190894	-1.124506	0.919746	-0.453509	-1.307652	0.931425	-0.264809	-1.313833	0.947326	-0.364418	-1.126941	0.752266	-0.146704	-1.094246	0.779000	-0.161081	-1.101471	0.719739	-0.148160	-1.059376	0.749214	-0.169271	-0.940499	0.479411	-0.192425	-0.935421	0.478706	-0.306661	-1.069561	0.425417	-0.170948	-1.030961	0.391097	-0.183928	-1.102829	0.390824	-0.170343	-1.072926	0.354699	-0.186225	-1.291601	0.221721	-0.215664	-1.270300	0.225746	-0.310424	-1.220039	0.106018	-0.180536	-1.207816	0.098660	-0.298479	-1.141442	0.089078	-0.239126	-1.368601	0.230436	-0.268291	-1.209472	0.744713	-0.515209	-1.154112	0.759011	-0.510455	-1.200686	0.704351	-0.516593	-1.148839	0.716750	-0.513210	-1.131957	0.440105	-0.479116	-1.121173	0.433769	-0.370991	-1.266393	0.358329	-0.504879	-1.218166	0.328622	-0.495946	-1.297765	0.319568	-0.501779	-1.256289	0.289704	-0.496489	-1.432893	0.122609	-0.461292	-1.409507	0.129837	-0.363165	-1.317256	0.041477	-0.495413	-1.298982	0.038467	-0.375874	-1.242326	0.055688	-0.428115	-1.524698	0.080159	-0.415767	-0.977083	1.387667	-0.175506	-0.948299	1.366803	-0.471367	
22	0.1050	-1.101069	0.910582	-0.189745	-1.104016	0.918753	-0.452684	-1.288898	0.931291	-0.265275	-1.294081	0.947175	-0.364828	-1.106090	0.755227	-0.145358	-1.074026	0.783064	-0.159742	-1.079488	0.723449	-0.146840	-1.038122	0.754480	-0.167875	-0.908992	0.488531	-0.190496	-0.903535	0.488228	-0.304634	-1.034602	0.428234	-0.169528	-0.994608	0.395999	-0.182302	-1.065901	0.392092	-0.168783	-1.034379	0.357729	-0.184592	-1.244744	0.213884	-0.214586	-1.224083	0.219575	-0.309194	-1.166187	0.102958	-0.180188	-1.154199	0.097306	-0.298242	-1.087311	0.091562	-0.238929	-1.322135	0.217984	-0.266946	-1.192671	0.744473	-0.514571	-1.137031	0.757373	-0.509396	-1.185179	0.704093	-0.515915	-1.133115	0.715046	-0.512102	-1.125698	0.438248	-0.478235	-1.115381	0.431423	-0.370340	-1.261748	0.358520	-0.504415	-1.213940	0.328104	-0.495465	-1.293653	0.320176	-0.501363	-1.252616	0.289652	-0.495963	-1.431777	0.124564	-0.461545	-1.408280	0.131364	-0.363383	-1.317892	0.040955	-0.495429	-1.299801	0.037990	-0.375623	-1.243005	0.055458	-0.428041	-1.523986	0.083404	-0.416102	-0.960977	1.388951	-0.173696	-0.927741	1.367137	-0.468613	
23	0.1100	-1.082824	0.911684	-0.188561	-1.083289	0.917880	-0.451780	-1.269939	0.931309	-0.265760	-1.274084	0.947161	-0.365243	-1.085321	0.758346	-0.143944	-1.053892	0.787234	-0.158327	-1.057679	0.727306	-0.145448	-1.017047	0.759819	-0.166389	-0.878272	0.497790	-0.188360	-0.872341	0.497889	-0.302370	-1.000148	0.431069	-0.167912	-0.958795	0.401079	-0.180527	-1.029354	0.393390	-0.167055	-0.996220	0.360934	-0.182823	-1.197577	0.206136	-0.213494	-1.177610	0.213538	-0.307918	-1.112163	0.100301	-0.179919	-1.100472	0.096481	-0.298068	-1.033269	0.094619	-0.238772	-1.275122	0.205537	-0.265591	-1.175677	0.744472	-0.513956	-1.119775	0.755968	-0.508356	-1.169492	0.704110	-0.515274	-1.117240	0.713605	-0.511027	-1.119363	0.436865	-0.477513	-1.109453	0.429516	-0.369828	-1.256978	0.359227	-0.504066	-1.209609	0.328126	-0.495136	-1.289395	0.321297	-0.501065	-1.248803	0.290142	-0.495589	-1.430334	0.126919	-0.461934	-1.406731	0.133267	-0.363772	-1.318641	0.040511	-0.495452	-1.300804	0.037622	-0.375330	-1.243901	0.055244	-0.427957	-1.522868	0.087333	-0.416575	-0.944795	1.390413	-0.171860	-0.907151	1.367726	-0.465727	
24	0.1150	-1.064437	0.912923	-0.187353	-1.062355	0.917147	-0.450798	-1.250786	0.931480	-0.266250	-1.253865	0.947299	-0.365650	-1.064652	0.761584	-0.142470	-1.033851	0.791463	-0.156843	-1.036067	0.731259	-0.143991	-0.996160	0.765171	-0.164815	-0.848402	0.507071	-0.186031	-0.841907	0.507573	-0.299882	-0.966292	0.433871	-0.166108	-0.923629	0.406266	-0.178611	-0.993293	0.394683	-0.165166	-0.958575	0.364264	-0.180926	-1.150283	0.198543	-0.212387	-1.131060	0.207685	-0.306594	-1.058201	0.098073	-0.179711	-1.046867	0.096196	-0.297939	-0.979547	0.098228	-0.238636	-1.227745	0.193199	-0.264226	-1.158494	0.744719	-0.513362	-1.102349	0.754811	-0.507344	-1.153618	0.704408	-0.514670	-1.101205	0.712445	-0.509991	-1.112867	0.435959	-0.476955	-1.103305	0.428050	-0.369456	-1.251996	0.360460	-0.503834	-1.205087	0.328694	-0.494960	-1.284908	0.322940	-0.500885	-1.244769	0.291183	-0.495370	-1.428494	0.129702	-0.462455	-1.404797	0.135570	-0.364328	-1.319483	0.040184	-0.495484	-1.301976	0.037393	-0.374998	-1.245005	0.055039	-0.427863	-1.521264	0.092001	-0.417186	-0.928550	1.392042	-0.169997	-0.886573	1.368570	-0.462727	
25	0.1200	-1.045917	0.914286	-0.186132	-1.041249	0.916571	-0.449739	-1.231455	0.931805	-0.266734	-1.233445	0.947599	-0.366035	-1.044096	0.764898	-0.140947	-1.013909	0.795701	-0.155295	-1.014669	0.735258	-0.142476	-0.975465	0.770475	-0.163155	-0.819434	0.516257	-0.183528	-0.812286	0.517163	-0.297191	-0.933115	0.436589	-0.164126	-0.889207	0.411487	-0.176565	-0.957819	0.395937	-0.163129	-0.921561	0.367667	-0.178910	-1.103053	0.191167	-0.211259	-1.084616	0.202058	-0.305223	-1.004540	0.096287	-0.179544	-0.993622	0.096443	-0.297833	-0.926377	0.102354	-0.238499	-1.180201	0.181073	-0.262853	-1.141122	0.745218	-0.512790	-1.084754	0.753919	-0.506363	-1.137544	0.704987	-0.514105	-1.084999	0.711576	-0.508997	-1.106120	0.435524	-0.476562	-1.096846	0.427018	-0.369221	-1.246709	0.362218	-0.503721	-1.200286	0.329802	-0.494934	-1.280102	0.325109	-0.500824	-1.240425	0.292778	-0.495303	-1.426186	0.132940	-0.463105	-1.402414	0.138291	-0.365045	-1.320388	0.040015	-0.495525	-1.303285	0.037338	-0.374635	-1.246298	0.054841	-0.427758	-1.519093	0.097450	-0.417932	-0.912252	1.393827	-0.168103	-0.866046	1.369665	-0.459630	
26	0.1250	-1.027269	0.915760	-0.184904	-1.020001	0.916167	-0.448605	-1.211959	0.932281	-0.267198	-1.212847	0.948070	-0.366385	-1.023663	0.768244	-0.139385	-0.994067	0.799898	-0.153690	-0.993495	0.739251	-0.140911	-0.954962	0.775672	-0.161411	-0.791401	0.525232	-0.180874	-0.783520	0.526544	-0.294323	-0.900689	0.439173	-0.161982	-0.855614	0.416668	-0.174404	-0.923028	0.397119	-0.160956	-0.885288	0.371088	-0.176788	-1.056087	0.184060	-0.210108	-1.038470	0.196694	-0.303804	-0.951421	0.094945	-0.179398	-0.940974	0.097197	-0.297730	-0.873991	0.106941	-0.238338	-1.132701	0.169257	-0.261471	-1.123559	0.745969	-0.512240	-1.066988	0.753301	-0.505416	-1.121259	0.705842	-0.513576	-1.068609	0.711004	-0.508048	-1.099024	0.435543	-0.476333	-1.089981	0.426403	-0.369115	-1.241018	0.364490	-0.503727	-1.195110	0.331438	-0.495052	-1.274881	0.327796	-0.500879	-1.235681	0.294916	-0.495386	-1.423339	0.136655	-0.463877	-1.399513	0.141446	-0.365914	-1.321314	0.040049	-0.495576	-1.304692	0.037494	-0.374252	-1.247749	0.054649	-0.427644	-1.516272	0.103712	-0.418809	-0.895909	1.395750	-0.166177	-0.845606	1.371002	-0.456454	
27	0.1300	-1.008500	0.917330	-0.183677	-0.998643	0.915949	-0.447399	-1.192313	0.932906	-0.267632	-1.192092	0.948718	-0.366691	-1.003360	0.771578	-0.137797	-0.974324	0.804006	-0.152033	-0.972553	0.743185	-0.139303	-0.934646	0.780703	-0.159589	-0.764322	0.533885	-0.178095	-0.755637	0.535605	-0.291305	-0.869079	0.441578	-0.159696	-0.822925	0.421737	-0.172145	-0.889006	0.398198	-0.158665	-0.849856	0.374471	-0.174577	-1.009588	0.177270	-0.208931	-0.992813	0.191620	-0.302340	-0.899089	0.094031	-0.179249	-0.889161	0.098419	-0.297606	-0.822610	0.111919	-0.238130	-1.085461	0.157841	-0.260081	-1.105800	0.746964	-0.511709	-1.049049	0.752960	-0.504506	-1.104746	0.706962	-0.513084	-1.052017	0.710731	-0.507144	-1.091479	0.435989	-0.476263	-1.082612	0.426179	-0.369132	-1.234820	0.367255	-0.503849	-1.189459	0.333574	-0.495309	-1.269148	0.330983	-0.501045	-1.230442	0.297578	-0.495614	-1.419877	0.140860	-0.464764	-1.396026	0.145043	-0.366926	-1.322204	0.040330	-0.495638	-1.306140	0.037897	-0.373861	-1.249308	0.054466	-0.427527	-1.512717	0.110808	-0.419807	-0.879526	1.397794	-0.164214	-0.825288	1.372571	-0.453219	
28	0.1350	-0.989615	0.918981	-0.182457	-0.977205	0.915927	-0.446123	-1.172530	0.933674	-0.268025	-1.171202	0.949545	-0.366941	-0.983191	0.774855	-0.136190	-0.954672	0.807976	-0.150332	-0.951844	0.747009	-0.137660	-0.914507	0.785512	-0.157691	-0.738199	0.542112	-0.175223	-0.728650	0.544238	-0.288168	-0.838337	0.443763	-0.157292	-0.791201	0.426621	-0.169809	-0.855831	0.399144	-0.156279	-0.815355	0.377761	-0.172293	-0.963759	0.170832	-0.207727	-0.947837	0.186855	-0.300834	-0.847783	0.093517	-0.179076	-0.838411	0.100054	-0.297441	-0.772450	0.117202	-0.237853	-1.038706	0.146907	-0.258687	-1.087838	0.748192	-0.511195	-1.030931	0.752897	-0.503631	-1.087987	0.708330	-0.512624	-1.035203	0.710749	-0.506284	-1.083381	0.436827	-0.476344	-1.074639	0.426312	-0.369259	-1.228011	0.370481	-0.504084	-1.183233	0.336177	-0.495694	-1.262802	0.334643	-0.501316	-1.224610	0.300735	-0.495978	-1.415725	0.145566	-0.465757	-1.391881	0.149086	-0.368068	-1.322990	0.040904	-0.495715	-1.307559	0.038583	-0.373476	-1.250912	0.054295	-0.427412	-1.508347	0.118744	-0.420917	-0.863105	1.399937	-0.162214	-0.805119	1.374358	-0.449944	
29	0.1400	-0.970619	0.920696	-0.181248	-0.955713	0.916106	-0.444779	-1.152623	0.934576	-0.268367	-1.150199	0.950550	-0.367128	-0.963154	0.778035	-0.134576	-0.935103	0.811765	-0.148591	-0.931364	0.750675	-0.135990	-0.894530	0.790049	-0.155724	-0.713021	0.549816	-0.172288	-0.702560	0.552347	-0.284948	-0.808505	0.445689	-0.154796	-0.760490	0.431252	-0.167417	-0.823571	0.399929	-0.153820	-0.781862	0.380902	-0.169957	-0.918801	0.164775	-0.206493	-0.903732	0.182408	-0.299292	-0.797737	0.093363	-0.178856	-0.788946	0.102030	-0.297212	-0.723712	0.122689	-0.237486	-0.992660	0.136526	-0.257291	-1.069665	0.749634	-0.510696	-1.012624	0.753105	-0.502790	-1.070959	0.709921	-0.512193	-1.018144	0.711048	-0.505464	-1.074623	0.438012	-0.476567	-1.065963	0.426758	-0.369485	-1.220486	0.374128	-0.504424	-1.176328	0.339199	-0.496195	-1.255741	0.338739	-0.501686	-1.218088	0.304347	-0.496467	-1.410809	0.150771	-0.466843	-1.387008	0.153573	-0.369325	-1.323586	0.041814	-0.495808	-1.308863	0.039586	-0.373113	-1.252479	0.054145	-0.427309	-1.503080	0.127508	-0.422127	-0.846646	1.402157	-0.160171	-0.785123	1.376346	-0.446647	
30	0.1450	-0.951518	0.922459	-0.180052	-0.934192	0.916488	-0.443371	-1.132604	0.935601	-0.268652	-1.129101	0.951726	-0.367245	-0.943244	0.781077	-0.132963	-0.915605	0.815331	-0.146818	-0.911104	0.754138	-0.134300	-0.874697	0.794266	-0.153694	-0.688762	0.556912	-0.169326	-0.677358	0.559844	-0.281680	-0.779614	0.447325	-0.152239	-0.730825	0.435566	-0.164992	-0.792283	0.400528	-0.151316	-0.749442	0.383842	-0.167588	-0.874912	0.159114	-0.205232	-0.860679	0.178280	-0.297719	-0.749174	0.093514	-0.178568	-0.740973	0.104266	-0.296901	-0.676582	0.128268	-0.237008	-0.947547	0.126760	-0.255898	-1.051267	0.751269	-0.510209	-0.994117	0.753572	-0.501980	-1.053640	0.711708	-0.511788	-1.000814	0.711610	-0.504681	-1.065101	0.439491	-0.476917	-1.056486	0.427469	-0.369794	-1.212141	0.378144	-0.504863	-1.168642	0.342587	-0.496798	-1.247864	0.343226	-0.502144	-1.210776	0.308365	-0.497068	-1.405053	0.156469	-0.468008	-1.381332	0.158493	-0.370679	-1.323896	0.043100	-0.495922	-1.309949	0.040937	-0.372791	-1.253908	0.054027	-0.427229	-1.496838	0.137076	-0.423420	-0.830141	1.404429	-0.158085	-0.765318	1.378516	-0.443346	
31	0.1500	-0.932312	0.924253	-0.178870	-0.912664	0.917070	-0.441902	-1.112483	0.936738	-0.268872	-1.107929	0.953065	-0.367286	-0.923453	0.783945	-0.131360	-0.896162	0.818637	-0.145018	-0.891048	0.757358	-0.132597	-0.854988	0.798122	-0.151610	-0.665384	0.563326	-0.166370	-0.653021	0.566651	-0.278401	-0.751685	0.448644	-0.149651	-0.702229	0.439505	-0.162561	-0.762014	0.400921	-0.148794	-0.718149	0.386530	-0.165211	-0.832281	0.153856	-0.203945	-0.818853	0.174463	-0.296126	-0.702304	0.093907	-0.178192	-0.694685	0.106668	-0.296490	-0.631231	0.133818	-0.236404	-0.903586	0.117656	-0.254513	-1.032630	0.753068	-0.509729	-0.975395	0.754280	-0.501195	-1.036003	0.713656	-0.511404	-0.983186	0.712413	-0.503927	-1.054712	0.441207	-0.477380	-1.046112	0.428390	-0.370169	-1.202871	0.382473	-0.505392	-1.160074	0.346280	-0.497487	-1.239071	0.348050	-0.502681	-1.202579	0.312732	-0.497768	-1.398381	0.162643	-0.469238	-1.374782	0.163828	-0.372113	-1.323804	0.044797	-0.496059	-1.310699	0.042660	-0.372526	-1.255080	0.053953	-0.427184	-1.489547	0.147403	-0.424779	-0.813584	1.406728	-0.155953	-0.745718	1.380845	-0.440059	
32	0.1550	-0.913005	0.926063	-0.177700	-0.891145	0.917848	-0.440375	-1.092270	0.937971	-0.269022	-1.086699	0.954550	-0.367249	-0.903768	0.786606	-0.129771	-0.876756	0.821651	-0.143199	-0.871180	0.760298	-0.130889	-0.835378	0.801581	-0.149479	-0.642840	0.568995	-0.163457	-0.629517	0.572705	-0.275147	-0.724729	0.449626	-0.147064	-0.674709	0.443017	-0.160147	-0.732801	0.401089	-0.146283	-0.688020	0.388920	-0.162848	-0.791085	0.149001	-0.202637	-0.778417	0.170941	-0.294522	-0.657320	0.094469	-0.177712	-0.650258	0.109137	-0.295964	-0.587808	0.139213	-0.235661	-0.860987	0.109252	-0.253144	-1.013737	0.754998	-0.509253	-0.956441	0.755207	-0.500428	-1.018021	0.715726	-0.511034	-0.965231	0.713428	-0.503194	-1.043355	0.443098	-0.477937	-1.034752	0.429464	-0.370591	-1.192579	0.387049	-0.505999	-1.150524	0.350209	-0.498245	-1.229266	0.353150	-0.503285	-1.193401	0.317384	-0.498550	-1.390721	0.169268	-0.470515	-1.367283	0.169554	-0.373605	-1.323184	0.046935	-0.496226	-1.310977	0.044775	-0.372337	-1.255859	0.053938	-0.427190	-1.481137	0.158431	-0.426183	-0.796962	1.409030	-0.153772	-0.726330	1.383312	-0.436801	
33	0.1600	-0.893596	0.927873	-0.176541	-0.869649	0.918809	-0.438792	-1.071973	0.939284	-0.269096	-1.065425	0.956161	-0.367131	-0.884173	0.789031	-0.128205	-0.857368	0.824345	-0.141365	-0.851475	0.762927	-0.129181	-0.815841	0.804614	-0.147311	-0.621072	0.573873	-0.160618	-0.606806	0.577954	-0.271956	-0.698745	0.450256	-0.144512	-0.648262	0.446057	-0.157777	-0.704669	0.401017	-0.143814	-0.659083	0.390970	-0.160524	-0.751489	0.144537	-0.201313	-0.739521	0.167692	-0.292922	-0.614396	0.095123	-0.177115	-0.607846	0.111566	-0.295313	-0.546443	0.144324	-0.234768	-0.819949	0.101573	-0.251800	-0.994569	0.757023	-0.508775	-0.937237	0.756326	-0.499671	-0.999666	0.717879	-0.510672	-0.946918	0.714624	-0.502474	-1.030935	0.445100	-0.478570	-1.022318	0.430633	-0.371043	-1.181170	0.391804	-0.506673	-1.139897	0.354304	-0.499052	-1.218356	0.358460	-0.503942	-1.183152	0.322251	-0.499395	-1.382000	0.176309	-0.471822	-1.358762	0.175638	-0.375134	-1.321893	0.049536	-0.496428	-1.310635	0.047293	-0.372244	-1.256090	0.054000	-0.427261	-1.471541	0.170081	-0.427611	-0.780259	1.411308	-0.151540	-0.707153	1.385891	-0.433587	
34	0.1650	-0.874083	0.929667	-0.175387	-0.848187	0.919941	-0.437159	-1.051597	0.940656	-0.269090	-1.044120	0.957876	-0.366932	-0.864648	0.791197	-0.126664	-0.837975	0.826699	-0.139525	-0.831908	0.765223	-0.127480	-0.796347	0.807202	-0.145118	-0.600017	0.577924	-0.157888	-0.584842	0.582360	-0.268862	-0.673727	0.450525	-0.142025	-0.622874	0.448588	-0.155475	-0.677634	0.400695	-0.141414	-0.631351	0.392644	-0.158262	-0.713642	0.140447	-0.199983	-0.702299	0.164686	-0.291338	-0.573687	0.095788	-0.176390	-0.567584	0.113851	-0.294531	-0.507242	0.149024	-0.233721	-0.780652	0.094629	-0.250492	-0.975104	0.759106	-0.508290	-0.917762	0.757607	-0.498916	-0.980908	0.720070	-0.510312	-0.928215	0.715967	-0.501757	-1.017364	0.447148	-0.479259	-1.008732	0.431839	-0.371503	-1.168556	0.396665	-0.507399	-1.128104	0.358492	-0.499889	-1.206255	0.363909	-0.504640	-1.171744	0.327263	-0.500286	-1.372145	0.183723	-0.473140	-1.349146	0.182037	-0.376678	-1.319779	0.052610	-0.496669	-1.309510	0.050215	-0.372262	-1.255601	0.054155	-0.427414	-1.460700	0.182261	-0.429039	-0.763457	1.413538	-0.149257	-0.688185	1.388558	-0.430431	
35	0.1700	-0.854464	0.931431	-0.174234	-0.826762	0.921226	-0.435479	-1.031146	0.942069	-0.269002	-1.022794	0.959666	-0.366651	-0.845172	0.793086	-0.125152	-0.818554	0.828698	-0.137683	-0.812448	0.767166	-0.125792	-0.776869	0.809328	-0.142911	-0.579607	0.581128	-0.155295	-0.563572	0.585899	-0.265898	-0.649658	0.450429	-0.139634	-0.598522	0.450582	-0.153266	-0.651701	0.400114	-0.139112	-0.604827	0.393910	-0.156085	-0.677675	0.136706	-0.198656	-0.666869	0.161894	-0.289787	-0.535321	0.096382	-0.175532	-0.529582	0.115887	-0.293614	-0.470293	0.153191	-0.232521	-0.743263	0.088424	-0.249230	-0.955321	0.761205	-0.507792	-0.897994	0.759017	-0.498152	-0.961718	0.722255	-0.509945	-0.909092	0.717421	-0.501031	-1.002561	0.449182	-0.479981	-0.993921	0.433026	-0.371953	-1.154655	0.401559	-0.508162	-1.115060	0.362698	-0.500738	-1.192880	0.369426	-0.505364	-1.159095	0.332343	-0.501203	-1.361087	0.191456	-0.474448	-1.338361	0.188705	-0.378215	-1.316677	0.056160	-0.496957	-1.307429	0.053534	-0.372409	-1.254209	0.054421	-0.427666	-1.448558	0.194863	-0.430443	-0.746534	1.415696	-0.146923	-0.669415	1.391285	-0.427344	
36	0.1750	-0.834731	0.933153	-0.173075	-0.805378	0.922644	-0.433756	-1.010621	0.943501	-0.268827	-1.001456	0.961499	-0.366289	-0.825718	0.794683	-0.123671	-0.799079	0.830332	-0.135845	-0.793065	0.768745	-0.124122	-0.757376	0.810987	-0.140703	-0.559773	0.583477	-0.152867	-0.542943	0.588560	-0.263093	-0.626515	0.449971	-0.137366	-0.575172	0.452016	-0.151172	-0.626865	0.399272	-0.136934	-0.579503	0.394744	-0.154017	-0.643700	0.133287	-0.197342	-0.633329	0.159279	-0.288285	-0.499403	0.096826	-0.174540	-0.493927	0.117578	-0.292565	-0.435657	0.156712	-0.231171	-0.707922	0.082947	-0.248027	-0.935196	0.763281	-0.507276	-0.877909	0.760524	-0.497370	-0.942065	0.724392	-0.509563	-0.889517	0.718949	-0.500287	-0.986452	0.451143	-0.480714	-0.977822	0.434147	-0.372372	-1.139395	0.406414	-0.508948	-1.100687	0.366851	-0.501577	-1.178158	0.374939	-0.506099	-1.145129	0.337419	-0.502126	-1.348758	0.199449	-0.475728	-1.326335	0.195584	-0.379722	-1.312416	0.060178	-0.497298	-1.304207	0.057230	-0.372699	-1.251716	0.054817	-0.428032	-1.435065	0.207766	-0.431797	-0.729465	1.417760	-0.144536	-0.650829	1.394047	-0.424336	
37	0.1800	-0.814880	0.934820	-0.171904	-0.784032	0.924171	-0.431994	-0.990024	0.944928	-0.268562	-0.980109	0.963342	-0.365849	-0.806260	0.795983	-0.122222	-0.779526	0.831598	-0.134019	-0.773724	0.769956	-0.122474	-0.737839	0.812178	-0.138506	-0.540444	0.584976	-0.150626	-0.522896	0.590345	-0.260474	-0.604269	0.449157	-0.135247	-0.552785	0.452880	-0.149213	-0.603115	0.398169	-0.134905	-0.555359	0.395127	-0.152077	-0.611804	0.130157	-0.196056	-0.601760	0.156808	-0.286848	-0.466010	0.097047	-0.173417	-0.460683	0.118833	-0.291391	-0.403373	0.159487	-0.229681	-0.674751	0.078182	-0.246895	-0.914706	0.765292	-0.506733	-0.857486	0.762092	-0.496558	-0.921922	0.726437	-0.509160	-0.869462	0.720517	-0.499514	-0.968977	0.452980	-0.481438	-0.960380	0.435156	-0.372742	-1.122712	0.411160	-0.509739	-1.084915	0.370885	-0.502389	-1.162024	0.380376	-0.506831	-1.129777	0.342420	-0.503036	-1.335094	0.207632	-0.476959	-1.312997	0.202614	-0.381177	-1.306820	0.064641	-0.497698	-1.299655	0.061274	-0.373142	-1.247918	0.055356	-0.428528	-1.420177	0.220836	-0.433077	-0.712225	1.419711	-0.142099	-0.632408	1.396820	-0.421416	
38	0.1850	-0.794899	0.936422	-0.170714	-0.762717	0.925783	-0.430197	-0.969350	0.946330	-0.268206	-0.958758	0.965158	-0.365331	-0.786770	0.796982	-0.120805	-0.759870	0.832500	-0.132209	-0.754392	0.770800	-0.120853	-0.718228	0.812908	-0.136333	-0.521552	0.585642	-0.148591	-0.503377	0.591269	-0.258063	-0.582884	0.448000	-0.133297	-0.531316	0.453170	-0.147407	-0.580427	0.396807	-0.133044	-0.532367	0.395050	-0.150284	-0.582055	0.127285	-0.194810	-0.572220	0.154446	-0.285494	-0.435193	0.096980	-0.172172	-0.429887	0.119577	-0.290103	-0.373460	0.161431	-0.228067	-0.643842	0.074102	-0.245846	-0.893828	0.767202	-0.506159	-0.836701	0.763689	-0.495707	-0.901261	0.728352	-0.508725	-0.848898	0.722090	-0.498701	-0.950083	0.454651	-0.482131	-0.941548	0.436020	-0.373043	-1.104553	0.415734	-0.510517	-1.067685	0.374737	-0.503154	-1.144423	0.385670	-0.507543	-1.112977	0.347277	-0.503914	-1.320031	0.215931	-0.478123	-1.298278	0.209726	-0.382559	-1.299711	0.069519	-0.498163	-1.293582	0.065625	-0.373747	-1.242607	0.056054	-0.429167	-1.403857	0.233933	-0.434258	-0.694787	1.421531	-0.139614	-0.614129	1.399579	-0.418591	
39	0.1900	-0.774780	0.937950	-0.169496	-0.741425	0.927456	-0.428371	-0.948597	0.947685	-0.267756	-0.937402	0.966910	-0.364737	-0.767219	0.797685	-0.119419	-0.740085	0.833045	-0.130421	-0.735033	0.771285	-0.119263	-0.698516	0.813190	-0.134198	-0.503030	0.585503	-0.146778	-0.484328	0.591358	-0.255878	-0.562322	0.446515	-0.131535	-0.510716	0.452890	-0.145770	-0.558774	0.395195	-0.131369	-0.510492	0.394507	-0.148655	-0.554496	0.124638	-0.193619	-0.544745	0.152161	-0.284240	-0.406974	0.096568	-0.170817	-0.401553	0.119748	-0.288715	-0.345912	0.162478	-0.226347	-0.615262	0.070674	-0.244892	-0.872542	0.768975	-0.505546	-0.815533	0.765283	-0.494807	-0.880060	0.730104	-0.508252	-0.827803	0.723638	-0.497838	-0.929731	0.456122	-0.482772	-0.921290	0.436713	-0.373260	-1.084876	0.420077	-0.511266	-1.048945	0.378356	-0.503855	-1.125307	0.390760	-0.508220	-1.094677	0.351929	-0.504743	-1.303512	0.224266	-0.479200	-1.282113	0.216847	-0.383849	-1.290911	0.074765	-0.498698	-1.285798	0.070234	-0.374519	-1.235574	0.056920	-0.429960	-1.386073	0.246909	-0.435317	-0.677121	1.423205	-0.137083	-0.595966	1.402301	-0.415867	
40	0.1950	-0.754511	0.939395	-0.168244	-0.720145	0.929163	-0.426519	-0.927760	0.948971	-0.267208	-0.916038	0.968561	-0.364068	-0.747578	0.798100	-0.118062	-0.720149	0.833247	-0.128661	-0.715615	0.771423	-0.117706	-0.678677	0.813044	-0.132113	-0.484818	0.584595	-0.145196	-0.465697	0.590646	-0.253932	-0.542540	0.444722	-0.129973	-0.490932	0.452051	-0.144313	-0.538120	0.393342	-0.129894	-0.489691	0.393503	-0.147203	-0.529145	0.122184	-0.192495	-0.519353	0.149925	-0.283099	-0.381349	0.095769	-0.169367	-0.375672	0.119300	-0.287246	-0.320705	0.162582	-0.224544	-0.589050	0.067861	-0.244043	-0.850827	0.770580	-0.504886	-0.793964	0.766847	-0.493849	-0.858297	0.731663	-0.507731	-0.806155	0.725134	-0.496917	-0.907894	0.457372	-0.483342	-0.899583	0.437221	-0.373377	-1.063652	0.424140	-0.511966	-1.028656	0.381697	-0.504477	-1.104643	0.395588	-0.508847	-1.074835	0.356324	-0.505504	-1.285484	0.232551	-0.480175	-1.264439	0.223903	-0.385029	-1.280250	0.080327	-0.499305	-1.276117	0.075038	-0.375460	-1.226615	0.057961	-0.430916	-1.366797	0.259612	-0.436233	-0.659200	1.424722	-0.134511	-0.577892	1.404965	-0.413248	
41	0.2000	-0.734080	0.940751	-0.166952	-0.698864	0.930879	-0.424647	-0.906832	0.950169	-0.266561	-0.894665	0.970075	-0.363326	-0.727818	0.798238	-0.116732	-0.700040	0.833124	-0.126934	-0.696106	0.771234	-0.116185	-0.658689	0.812493	-0.130091	-0.466861	0.582965	-0.143851	-0.447435	0.589179	-0.252234	-0.523494	0.442643	-0.128619	-0.471911	0.450674	-0.143045	-0.518426	0.391263	-0.128628	-0.469917	0.392046	-0.145939	-0.505997	0.119898	-0.191452	-0.496039	0.147714	-0.282087	-0.358286	0.094554	-0.167842	-0.352212	0.118205	-0.285717	-0.297792	0.161720	-0.222684	-0.565216	0.065621	-0.243309	-0.828669	0.771991	-0.504175	-0.771977	0.768356	-0.492825	-0.835956	0.733007	-0.507156	-0.783939	0.726558	-0.495930	-0.884558	0.458388	-0.483823	-0.876412	0.437541	-0.373381	-1.040863	0.427882	-0.512600	-1.006789	0.384727	-0.505004	-1.082409	0.400108	-0.509408	-1.053418	0.360415	-0.506182	-1.265900	0.240701	-0.481033	-1.245201	0.230814	-0.386083	-1.267568	0.086137	-0.499990	-1.264366	0.079971	-0.376568	-1.215539	0.059179	-0.432040	-1.346012	0.271890	-0.436986	-0.640998	1.426074	-0.131902	-0.559879	1.407552	-0.410737	
42	0.2050	-0.713477	0.942014	-0.165613	-0.677569	0.932580	-0.422760	-0.885807	0.951262	-0.265810	-0.873278	0.971420	-0.362511	-0.707916	0.798118	-0.115425	-0.679739	0.832697	-0.125245	-0.676478	0.770739	-0.114703	-0.638533	0.811566	-0.128143	-0.449111	0.580663	-0.142744	-0.429497	0.587008	-0.250788	-0.505139	0.440304	-0.127479	-0.453600	0.448785	-0.141971	-0.499647	0.388973	-0.127576	-0.451117	0.390153	-0.144870	-0.485025	0.117753	-0.190504	-0.474777	0.145513	-0.281215	-0.337727	0.092906	-0.166264	-0.331117	0.116457	-0.284150	-0.277113	0.159891	-0.220795	-0.543743	0.063909	-0.242697	-0.806056	0.773188	-0.503405	-0.749562	0.769790	-0.491728	-0.813028	0.734119	-0.506518	-0.761147	0.727894	-0.494872	-0.859725	0.459171	-0.484201	-0.851777	0.437679	-0.373261	-1.016508	0.431274	-0.513150	-0.983331	0.387422	-0.505425	-1.058596	0.404280	-0.509888	-1.030408	0.364167	-0.506765	-1.244721	0.248626	-0.481760	-1.224351	0.237503	-0.386998	-1.252718	0.092124	-0.500751	-1.250384	0.084958	-0.377835	-1.202165	0.060572	-0.433332	-1.323706	0.283595	-0.437561	-0.622490	1.427254	-0.129263	-0.541896	1.410046	-0.408335	
43	0.2100	-0.692692	0.943180	-0.164222	-0.656247	0.934243	-0.420862	-0.864679	0.952234	-0.264955	-0.851873	0.972565	-0.361624	-0.687849	0.797759	-0.114139	-0.659233	0.831991	-0.123596	-0.656706	0.769967	-0.113260	-0.618194	0.810294	-0.126278	-0.431529	0.577748	-0.141871	-0.411846	0.584191	-0.249593	-0.487430	0.437731	-0.126552	-0.435947	0.446414	-0.141092	-0.481735	0.386492	-0.126741	-0.433237	0.387848	-0.143999	-0.466178	0.115731	-0.189659	-0.455523	0.143308	-0.280491	-0.319592	0.090825	-0.164655	-0.312314	0.114065	-0.282571	-0.258588	0.157118	-0.218907	-0.524589	0.062679	-0.242212	-0.782982	0.774158	-0.502570	-0.726712	0.771134	-0.490554	-0.789508	0.734991	-0.505811	-0.737774	0.729133	-0.493738	-0.833410	0.459735	-0.484460	-0.825689	0.437656	-0.373008	-0.990598	0.434295	-0.513599	-0.958280	0.389772	-0.505730	-1.033209	0.408075	-0.510274	-1.005798	0.367555	-0.507239	-1.221917	0.256239	-0.482346	-1.201849	0.243890	-0.387762	-1.235574	0.098205	-0.501588	-1.234032	0.089919	-0.379252	-1.186337	0.062133	-0.434791	-1.299875	0.294583	-0.437946	-0.603655	1.428261	-0.126601	-0.523916	1.412432	-0.406043	
44	0.2150	-0.671717	0.944246	-0.162775	-0.634888	0.935848	-0.418959	-0.843446	0.953073	-0.263991	-0.830446	0.973485	-0.360662	-0.667601	0.797184	-0.112869	-0.638512	0.831035	-0.121992	-0.636773	0.768944	-0.111856	-0.597663	0.808713	-0.124505	-0.414085	0.574282	-0.141226	-0.394448	0.580792	-0.248644	-0.470324	0.434955	-0.125834	-0.418902	0.443600	-0.140407	-0.464643	0.383841	-0.126118	-0.416221	0.385156	-0.143327	-0.449386	0.113818	-0.188927	-0.438215	0.141095	-0.279923	-0.303778	0.088327	-0.163041	-0.295713	0.111059	-0.281005	-0.242122	0.153446	-0.217049	-0.507684	0.061886	-0.241856	-0.759448	0.774892	-0.501665	-0.703429	0.772380	-0.489298	-0.765402	0.735622	-0.505029	-0.713828	0.730270	-0.492526	-0.805648	0.460103	-0.484590	-0.798176	0.437498	-0.372618	-0.963162	0.436937	-0.513930	-0.931653	0.391776	-0.505909	-1.006270	0.411471	-0.510551	-0.979599	0.370564	-0.507594	-1.197471	0.263454	-0.482783	-1.177668	0.249902	-0.388369	-1.216033	0.104297	-0.502497	-1.215194	0.094772	-0.380805	-1.167925	0.063849	-0.436408	-1.274526	0.304721	-0.438132	-0.584478	1.429098	-0.123923	-0.505916	1.414701	-0.403861	
45	0.2200	-0.650550	0.945213	-0.161271	-0.613482	0.937376	-0.417055	-0.822105	0.953771	-0.262918	-0.808995	0.974158	-0.359626	-0.647159	0.796418	-0.111613	-0.617572	0.829858	-0.120435	-0.616666	0.767704	-0.110493	-0.576937	0.806860	-0.122830	-0.396758	0.570327	-0.140798	-0.377279	0.576876	-0.247932	-0.453779	0.432005	-0.125316	-0.402419	0.440383	-0.139910	-0.448319	0.381043	-0.125701	-0.400015	0.382113	-0.142851	-0.434562	0.112004	-0.188315	-0.422774	0.138875	-0.279513	-0.290164	0.085438	-0.161445	-0.281204	0.107486	-0.279474	-0.227611	0.148940	-0.215250	-0.492937	0.061483	-0.241630	-0.735464	0.775390	-0.500685	-0.679722	0.773523	-0.487959	-0.740724	0.736017	-0.504167	-0.689323	0.731310	-0.491235	-0.776486	0.460308	-0.484582	-0.769277	0.437245	-0.372087	-0.934245	0.439202	-0.514127	-0.903482	0.393446	-0.505958	-0.977818	0.414460	-0.510708	-0.951836	0.373189	-0.507824	-1.171377	0.270192	-0.483065	-1.151796	0.255466	-0.388812	-1.194019	0.110311	-0.503475	-1.193784	0.099435	-0.382477	-1.146828	0.065703	-0.438173	-1.247675	0.313886	-0.438114	-0.564948	1.429768	-0.121239	-0.487872	1.416844	-0.401788	
46	0.2250	-0.629191	0.946079	-0.159706	-0.592025	0.938814	-0.415155	-0.800658	0.954321	-0.261732	-0.787522	0.974570	-0.358514	-0.626520	0.795489	-0.110366	-0.596419	0.828490	-0.118927	-0.596381	0.766279	-0.109169	-0.556023	0.804771	-0.121258	-0.379535	0.565952	-0.140572	-0.360321	0.572511	-0.247444	-0.437757	0.428911	-0.124988	-0.386458	0.436808	-0.139592	-0.432715	0.378123	-0.125481	-0.384564	0.378754	-0.142565	-0.421599	0.110285	-0.187827	-0.409107	0.136657	-0.279262	-0.278610	0.082200	-0.159892	-0.268667	0.103406	-0.278004	-0.214938	0.143684	-0.213539	-0.480235	0.061426	-0.241530	-0.711047	0.775658	-0.499625	-0.655607	0.774564	-0.486537	-0.715497	0.736189	-0.503220	-0.664284	0.732259	-0.489867	-0.745993	0.460392	-0.484429	-0.739052	0.436939	-0.371414	-0.903909	0.441101	-0.514178	-0.873816	0.394801	-0.505872	-0.947906	0.417040	-0.510733	-0.922552	0.375436	-0.507922	-1.143649	0.276376	-0.483190	-1.124237	0.260518	-0.389091	-1.169488	0.116160	-0.504512	-1.169750	0.103830	-0.384248	-1.122984	0.067672	-0.440069	-1.219352	0.321972	-0.437892	-0.545063	1.430279	-0.118559	-0.469770	1.418856	-0.399823	
47	0.2300	-0.607647	0.946848	-0.158082	-0.570521	0.940148	-0.413264	-0.779115	0.954721	-0.260435	-0.766032	0.974712	-0.357325	-0.605689	0.794422	-0.109126	-0.575062	0.826962	-0.117468	-0.575921	0.764701	-0.107884	-0.534931	0.802486	-0.119790	-0.362416	0.561221	-0.140531	-0.343564	0.567765	-0.247163	-0.422225	0.425704	-0.124834	-0.370983	0.432922	-0.139444	-0.417786	0.375107	-0.125442	-0.369817	0.375121	-0.142458	-0.410380	0.108662	-0.187464	-0.397110	0.134452	-0.279166	-0.268966	0.078664	-0.158403	-0.257969	0.098896	-0.276614	-0.203979	0.137780	-0.211939	-0.469450	0.061672	-0.241552	-0.686225	0.775708	-0.498484	-0.631113	0.775511	-0.485035	-0.689756	0.736158	-0.502187	-0.638749	0.733131	-0.488425	-0.714252	0.460404	-0.484129	-0.707573	0.436632	-0.370602	-0.872236	0.442655	-0.514070	-0.842725	0.395871	-0.505650	-0.916611	0.419219	-0.510617	-0.891811	0.377321	-0.507885	-1.114317	0.281940	-0.483158	-1.095016	0.264999	-0.389205	-1.142433	0.121757	-0.505601	-1.143075	0.107881	-0.386094	-1.096369	0.069732	-0.442077	-1.189602	0.328887	-0.437471	-0.524830	1.430642	-0.115892	-0.451598	1.420733	-0.397963	
48	0.2350	-0.585933	0.947522	-0.156399	-0.548977	0.941372	-0.411388	-0.757487	0.954972	-0.259025	-0.744535	0.974582	-0.356056	-0.584680	0.793246	-0.107890	-0.553524	0.825305	-0.116059	-0.555302	0.763005	-0.106636	-0.513685	0.800042	-0.118428	-0.345410	0.556201	-0.140657	-0.327007	0.562708	-0.247071	-0.407154	0.422415	-0.124837	-0.355966	0.428775	-0.139450	-0.403486	0.372021	-0.125569	-0.355727	0.371256	-0.142519	-0.400776	0.107139	-0.187225	-0.386668	0.132278	-0.279219	-0.261069	0.074890	-0.156999	-0.248970	0.094041	-0.275323	-0.194603	0.131340	-0.210472	-0.460437	0.062182	-0.241687	-0.661039	0.775557	-0.497260	-0.606277	0.776374	-0.483455	-0.663549	0.735947	-0.501065	-0.612765	0.733945	-0.486913	-0.681368	0.460398	-0.483680	-0.674934	0.436377	-0.369656	-0.839328	0.443891	-0.513794	-0.810300	0.396692	-0.505293	-0.884025	0.421015	-0.510352	-0.859696	0.378864	-0.507712	-1.083432	0.286824	-0.482972	-1.064177	0.268861	-0.389157	-1.112885	0.127021	-0.506727	-1.113785	0.111520	-0.387991	-1.067003	0.071852	-0.444174	-1.158483	0.334562	-0.436857	-0.504264	1.430871	-0.113251	-0.433356	1.422476	-0.396205	
49	0.2400	-0.564073	0.948103	-0.154662	-0.527409	0.942479	-0.409530	-0.735795	0.955080	-0.257505	-0.723049	0.974186	-0.354709	-0.563516	0.791987	-0.106656	-0.531835	0.823549	-0.114698	-0.534548	0.761221	-0.105423	-0.492316	0.797477	-0.117170	-0.328534	0.550955	-0.140929	-0.310657	0.557405	-0.247148	-0.392522	0.419072	-0.124980	-0.341384	0.424416	-0.139596	-0.389777	0.368892	-0.125845	-0.342250	0.367205	-0.142733	-0.392649	0.105724	-0.187107	-0.377659	0.130156	-0.279412	-0.254753	0.070944	-0.155696	-0.241522	0.088933	-0.274146	-0.186677	0.124487	-0.209156	-0.453042	0.062919	-0.241926	-0.635540	0.775228	-0.495951	-0.581151	0.777167	-0.481805	-0.636937	0.735586	-0.499854	-0.586395	0.734720	-0.485341	-0.647464	0.460429	-0.483085	-0.641246	0.436228	-0.368582	-0.805302	0.444846	-0.513341	-0.776652	0.397307	-0.504803	-0.850264	0.422450	-0.509933	-0.826311	0.380097	-0.507404	-1.051069	0.290983	-0.482637	-1.031793	0.272065	-0.388955	-1.080915	0.131879	-0.507880	-1.081949	0.114690	-0.389913	-1.034955	0.074002	-0.446333	-1.126074	0.338946	-0.436063	-0.483393	1.430978	-0.110646	-0.415048	1.424087	-0.394547	
50	0.2450	-0.542099	0.948597	-0.152874	-0.505843	0.943469	-0.407696	-0.714069	0.955051	-0.255877	-0.701598	0.973534	-0.353281	-0.542233	0.790669	-0.105422	-0.510036	0.821722	-0.113386	-0.513694	0.759380	-0.104243	-0.470865	0.794824	-0.116011	-0.311815	0.545546	-0.141326	-0.294527	0.551923	-0.247370	-0.378312	0.415703	-0.125241	-0.327222	0.419896	-0.139865	-0.376623	0.365745	-0.126248	-0.329349	0.363013	-0.143084	-0.385858	0.104426	-0.187102	-0.369956	0.128107	-0.279731	-0.249845	0.066897	-0.154509	-0.235476	0.083670	-0.273094	-0.180066	0.117349	-0.208004	-0.447103	0.063847	-0.242257	-0.609791	0.774746	-0.494560	-0.555796	0.777908	-0.480093	-0.609993	0.735106	-0.498557	-0.559711	0.735480	-0.483715	-0.612680	0.460553	-0.482347	-0.606639	0.436240	-0.367392	-0.770301	0.445558	-0.512709	-0.741911	0.397761	-0.504185	-0.815462	0.423555	-0.509357	-0.791785	0.381053	-0.506965	-1.017325	0.294378	-0.482162	-0.997958	0.274584	-0.388607	-1.046640	0.136263	-0.509043	-1.047680	0.117342	-0.391834	-1.000340	0.076150	-0.448527	-1.092473	0.342012	-0.435105	-0.462254	1.430982	-0.108089	-0.396691	1.425572	-0.392986	
51	0.2500	-0.520053	0.949008	-0.151041	-0.484314	0.944342	-0.405890	-0.692346	0.954896	-0.254147	-0.680215	0.972643	-0.351774	-0.520879	0.789319	-0.104189	-0.488180	0.819851	-0.112120	-0.492787	0.757510	-0.103095	-0.449383	0.792119	-0.114948	-0.295290	0.540032	-0.141826	-0.278640	0.546321	-0.247715	-0.364514	0.412336	-0.125601	-0.313472	0.415262	-0.140237	-0.363996	0.362605	-0.126758	-0.316993	0.358725	-0.143554	-0.380258	0.103258	-0.187203	-0.363431	0.126157	-0.280163	-0.246173	0.062820	-0.153448	-0.230681	0.078348	-0.272176	-0.174634	0.110056	-0.207024	-0.442456	0.064936	-0.242666	-0.583870	0.774142	-0.493090	-0.530286	0.778615	-0.478326	-0.582805	0.734543	-0.497176	-0.532802	0.736248	-0.482046	-0.577178	0.460823	-0.481473	-0.571263	0.436462	-0.366096	-0.734483	0.446070	-0.511896	-0.706234	0.398101	-0.503447	-0.779775	0.424363	-0.508624	-0.756266	0.381773	-0.506400	-0.982327	0.296990	-0.481558	-0.962798	0.276402	-0.388123	-1.010216	0.140121	-0.510202	-1.011136	0.119440	-0.393726	-0.963324	0.078261	-0.450724	-1.057799	0.343755	-0.434001	-0.440899	1.430899	-0.105593	-0.378311	1.426935	-0.391518	
52	0.2550	-0.497989	0.949343	-0.149171	-0.462866	0.945102	-0.404117	-0.670674	0.954629	-0.252321	-0.658940	0.971537	-0.350191	-0.499511	0.787956	-0.102955	-0.466327	0.817961	-0.110897	-0.471885	0.755638	-0.101976	-0.427934	0.789391	-0.113973	-0.279002	0.534468	-0.142407	-0.263025	0.540659	-0.248160	-0.351125	0.408996	-0.126038	-0.300134	0.410564	-0.140695	-0.351873	0.359498	-0.127353	-0.305157	0.354386	-0.144125	-0.375708	0.102229	-0.187399	-0.357954	0.124328	-0.280692	-0.243570	0.058784	-0.152519	-0.226986	0.073062	-0.271394	-0.170248	0.102735	-0.206219	-0.438935	0.066157	-0.243139	-0.557865	0.773447	-0.491544	-0.504709	0.779309	-0.476516	-0.555472	0.733930	-0.495716	-0.505768	0.737049	-0.480346	-0.541133	0.461289	-0.480472	-0.535286	0.436938	-0.364707	-0.698026	0.446426	-0.510904	-0.669794	0.398375	-0.502598	-0.743378	0.424911	-0.507735	-0.719926	0.382296	-0.505717	-0.946227	0.298807	-0.480836	-0.926467	0.277516	-0.387515	-0.971845	0.143408	-0.511340	-0.972522	0.120962	-0.395564	-0.924118	0.080306	-0.452895	-1.022193	0.344193	-0.432773	-0.419390	1.430748	-0.103168	-0.359942	1.428184	-0.390141	
53	0.2600	-0.475972	0.949606	-0.147274	-0.441556	0.945756	-0.402381	-0.649109	0.954265	-0.250408	-0.637825	0.970242	-0.348534	-0.478199	0.786601	-0.101723	-0.444552	0.816073	-0.109717	-0.451057	0.753786	-0.100885	-0.406589	0.786669	-0.113080	-0.263000	0.528906	-0.143049	-0.247719	0.534991	-0.248681	-0.338148	0.405704	-0.126532	-0.287214	0.405847	-0.141220	-0.340236	0.356444	-0.128013	-0.293823	0.350039	-0.144777	-0.372067	0.101350	-0.187679	-0.353400	0.122641	-0.281298	-0.241871	0.054854	-0.151726	-0.224247	0.067902	-0.270751	-0.166780	0.095509	-0.205589	-0.436378	0.067483	-0.243660	-0.531877	0.772691	-0.489930	-0.479164	0.780008	-0.474676	-0.528108	0.733303	-0.494186	-0.478721	0.737903	-0.478626	-0.504741	0.461993	-0.479356	-0.498895	0.437706	-0.363241	-0.661126	0.446669	-0.509740	-0.632787	0.398628	-0.501646	-0.706465	0.425238	-0.506698	-0.682958	0.382666	-0.504925	-0.909203	0.299835	-0.480011	-0.889144	0.277936	-0.386799	-0.931772	0.146097	-0.512441	-0.932085	0.121900	-0.397323	-0.882984	0.082254	-0.455009	-0.985820	0.343367	-0.431442	-0.397803	1.430545	-0.100827	-0.341632	1.429329	-0.388852	
54	0.2650	-0.454076	0.949804	-0.145358	-0.420448	0.946311	-0.400688	-0.627719	0.953820	-0.248418	-0.616930	0.968791	-0.346810	-0.457024	0.785270	-0.100494	-0.422937	0.814209	-0.108576	-0.430383	0.751974	-0.099820	-0.385429	0.783979	-0.112260	-0.247341	0.523393	-0.143729	-0.232762	0.529367	-0.249256	-0.325594	0.402482	-0.127064	-0.274725	0.401154	-0.141793	-0.329076	0.353466	-0.128716	-0.282978	0.345725	-0.145491	-0.369202	0.100630	-0.188027	-0.349647	0.121117	-0.281965	-0.240923	0.051091	-0.151068	-0.222322	0.062951	-0.270241	-0.164106	0.088489	-0.205126	-0.434630	0.068891	-0.244216	-0.506019	0.771908	-0.488255	-0.453758	0.780732	-0.472818	-0.500837	0.732693	-0.492592	-0.451783	0.738831	-0.476900	-0.468208	0.462969	-0.478138	-0.462291	0.438795	-0.361714	-0.623995	0.446841	-0.508411	-0.595426	0.398902	-0.500604	-0.669249	0.425385	-0.505520	-0.645576	0.382922	-0.504035	-0.871459	0.300094	-0.479099	-0.851040	0.277685	-0.385988	-0.890276	0.148172	-0.513490	-0.890115	0.122259	-0.398982	-0.840224	0.084079	-0.457037	-0.948866	0.341341	-0.430035	-0.376226	1.430309	-0.098579	-0.323438	1.430377	-0.387646	
55	0.2700	-0.432387	0.949945	-0.143436	-0.399616	0.946778	-0.399042	-0.606579	0.953312	-0.246365	-0.596324	0.967215	-0.345026	-0.436074	0.783979	-0.099272	-0.401574	0.812384	-0.107473	-0.409949	0.750219	-0.098781	-0.364542	0.781342	-0.111505	-0.232084	0.517972	-0.144431	-0.218201	0.523832	-0.249865	-0.313479	0.399349	-0.127615	-0.262683	0.396526	-0.142396	-0.318388	0.350583	-0.129444	-0.272616	0.341483	-0.146248	-0.366986	0.100075	-0.188432	-0.346580	0.119771	-0.282672	-0.240580	0.047550	-0.150541	-0.221081	0.058279	-0.269859	-0.162109	0.081778	-0.204823	-0.433542	0.070360	-0.244789	-0.480412	0.771126	-0.486531	-0.428610	0.781496	-0.470956	-0.473795	0.732131	-0.490946	-0.425089	0.739849	-0.475181	-0.431756	0.464242	-0.476832	-0.425693	0.440222	-0.360143	-0.586859	0.446980	-0.506931	-0.557942	0.399233	-0.499486	-0.631956	0.425389	-0.504213	-0.608008	0.383104	-0.503059	-0.833226	0.299616	-0.478116	-0.812388	0.276798	-0.385100	-0.847675	0.149633	-0.514473	-0.846936	0.122057	-0.400521	-0.796179	0.085759	-0.458953	-0.911539	0.338197	-0.428575	-0.354755	1.430056	-0.096435	-0.305427	1.431340	-0.386522	
56	0.2750	-0.410999	0.950033	-0.141519	-0.379143	0.947167	-0.397449	-0.585775	0.952759	-0.244263	-0.576082	0.965552	-0.343192	-0.415449	0.782740	-0.098062	-0.380562	0.810614	-0.106407	-0.389852	0.748536	-0.097768	-0.344025	0.778779	-0.110808	-0.217291	0.512683	-0.145137	-0.204087	0.518426	-0.250488	-0.301821	0.396322	-0.128170	-0.251112	0.392000	-0.143013	-0.308172	0.347809	-0.130177	-0.262737	0.337347	-0.147031	-0.365304	0.099687	-0.188877	-0.344089	0.118613	-0.283402	-0.240710	0.044273	-0.150139	-0.220398	0.053945	-0.269595	-0.160682	0.075461	-0.204666	-0.432978	0.071870	-0.245367	-0.455185	0.770373	-0.484767	-0.403847	0.782313	-0.469105	-0.447123	0.731642	-0.489259	-0.398777	0.740966	-0.473482	-0.395612	0.465823	-0.475455	-0.389328	0.441993	-0.358544	-0.549952	0.447120	-0.505316	-0.520577	0.399652	-0.498304	-0.594826	0.425288	-0.502791	-0.570500	0.383247	-0.502012	-0.794753	0.298446	-0.477078	-0.773447	0.275321	-0.384152	-0.804317	0.150491	-0.515376	-0.802907	0.121327	-0.401923	-0.751226	0.087274	-0.460734	-0.874066	0.334037	-0.427087	-0.333499	1.429801	-0.094404	-0.287671	1.432224	-0.385476	
57	0.2800	-0.390012	0.950077	-0.139620	-0.359120	0.947489	-0.395912	-0.565396	0.952179	-0.242128	-0.556289	0.963836	-0.341318	-0.395250	0.781561	-0.096867	-0.360004	0.808911	-0.105376	-0.370190	0.746935	-0.096782	-0.323978	0.776306	-0.110159	-0.203025	0.507559	-0.145831	-0.190471	0.513188	-0.251108	-0.290646	0.393415	-0.128713	-0.240037	0.387609	-0.143630	-0.298434	0.345161	-0.130899	-0.253344	0.333349	-0.147821	-0.364048	0.099466	-0.189350	-0.342078	0.117652	-0.284136	-0.241193	0.041297	-0.149853	-0.220162	0.049998	-0.269439	-0.159724	0.069611	-0.204640	-0.432816	0.073404	-0.245937	-0.430474	0.769674	-0.482977	-0.379599	0.783193	-0.467278	-0.420969	0.731248	-0.487545	-0.372994	0.742191	-0.471818	-0.360012	0.467716	-0.474024	-0.353432	0.444104	-0.356935	-0.513519	0.447291	-0.503585	-0.483583	0.400180	-0.497075	-0.558104	0.425115	-0.501271	-0.533307	0.383381	-0.500908	-0.756309	0.296644	-0.476004	-0.734493	0.273311	-0.383159	-0.760572	0.150774	-0.516190	-0.758410	0.120111	-0.403177	-0.705764	0.088613	-0.462359	-0.836691	0.328979	-0.425596	-0.312571	1.429557	-0.092494	-0.270255	1.433041	-0.384506	
58	0.2850	-0.369534	0.950081	-0.137752	-0.339639	0.947755	-0.394437	-0.545541	0.951588	-0.239979	-0.537032	0.962103	-0.339419	-0.375586	0.780451	-0.095694	-0.340007	0.807284	-0.104380	-0.351070	0.745426	-0.095824	-0.304504	0.773938	-0.109553	-0.189347	0.502632	-0.146501	-0.177407	0.508147	-0.251711	-0.279981	0.390641	-0.129232	-0.229486	0.383384	-0.144231	-0.289185	0.342650	-0.131597	-0.244445	0.329516	-0.148605	-0.363125	0.099406	-0.189837	-0.340458	0.116889	-0.284859	-0.241924	0.038645	-0.149671	-0.220270	0.046469	-0.269376	-0.159144	0.064280	-0.204726	-0.432943	0.074945	-0.246485	-0.406415	0.769048	-0.481177	-0.356001	0.784142	-0.465491	-0.395484	0.730965	-0.485817	-0.347886	0.743523	-0.470200	-0.325190	0.469909	-0.472556	-0.318246	0.446539	-0.355334	-0.477804	0.447513	-0.501759	-0.447217	0.400834	-0.495812	-0.522042	0.424901	-0.499672	-0.496690	0.383533	-0.499761	-0.718175	0.294276	-0.474909	-0.695816	0.270833	-0.382139	-0.716826	0.150519	-0.516906	-0.713844	0.118462	-0.404272	-0.660213	0.089768	-0.463813	-0.799671	0.323153	-0.424123	-0.292091	1.429336	-0.090711	-0.253264	1.433797	-0.383610	
59	0.2900	-0.349673	0.950054	-0.135929	-0.320798	0.947976	-0.393028	-0.526308	0.951002	-0.237832	-0.518405	0.960386	-0.337508	-0.356565	0.779413	-0.094549	-0.320680	0.805742	-0.103419	-0.332593	0.744013	-0.094895	-0.285705	0.771686	-0.108982	-0.176318	0.497927	-0.147136	-0.164945	0.503333	-0.252284	-0.269853	0.388010	-0.129718	-0.219486	0.379350	-0.144807	-0.280436	0.340285	-0.132258	-0.236050	0.325873	-0.149368	-0.362454	0.099501	-0.190324	-0.339149	0.116320	-0.285556	-0.242811	0.036331	-0.149582	-0.220631	0.043378	-0.269395	-0.158862	0.059505	-0.204907	-0.433267	0.076479	-0.247004	-0.383147	0.768512	-0.479380	-0.333185	0.785159	-0.463756	-0.370818	0.730803	-0.484092	-0.323600	0.744958	-0.468641	-0.291379	0.472382	-0.471071	-0.284007	0.449268	-0.353757	-0.443051	0.447804	-0.499863	-0.411736	0.401622	-0.494533	-0.486891	0.424672	-0.498014	-0.460911	0.383723	-0.498589	-0.680641	0.291422	-0.473811	-0.657714	0.267960	-0.381108	-0.673476	0.149777	-0.517518	-0.669621	0.116441	-0.405206	-0.615001	0.090735	-0.465086	-0.763271	0.316701	-0.422689	-0.272182	1.429146	-0.089059	-0.236788	1.434500	-0.382784	
60	0.2950	-0.330540	0.949999	-0.134162	-0.302695	0.948162	-0.391689	-0.507799	0.950435	-0.235709	-0.500499	0.958715	-0.335604	-0.338293	0.778452	-0.093439	-0.302128	0.804289	-0.102496	-0.314864	0.742701	-0.093999	-0.267684	0.769559	-0.108443	-0.163993	0.493466	-0.147727	-0.153137	0.498768	-0.252818	-0.260291	0.385531	-0.130162	-0.210065	0.375530	-0.145348	-0.272201	0.338075	-0.132873	-0.228169	0.322438	-0.150100	-0.361963	0.099737	-0.190801	-0.338085	0.115938	-0.286214	-0.243778	0.034358	-0.149572	-0.221167	0.040731	-0.269479	-0.158806	0.055307	-0.205163	-0.433705	0.077990	-0.247483	-0.360802	0.768075	-0.477603	-0.311282	0.786243	-0.462088	-0.347117	0.730767	-0.482384	-0.300278	0.746487	-0.467152	-0.258802	0.475103	-0.469586	-0.250948	0.452256	-0.352219	-0.409496	0.448172	-0.497922	-0.377391	0.402541	-0.493252	-0.452896	0.424449	-0.496321	-0.426228	0.383965	-0.497406	-0.643997	0.288164	-0.472725	-0.620487	0.264768	-0.380082	-0.630916	0.148605	-0.518025	-0.626148	0.114116	-0.405977	-0.570553	0.091518	-0.466172	-0.727758	0.309769	-0.421313	-0.252964	1.428995	-0.087542	-0.220919	1.435156	-0.382027	
61	0.3000	-0.312241	0.949924	-0.132466	-0.285422	0.948321	-0.390426	-0.490110	0.949900	-0.233628	-0.483405	0.957117	-0.333721	-0.320872	0.777568	-0.092369	-0.284453	0.802931	-0.101610	-0.297979	0.741492	-0.093139	-0.250535	0.767565	-0.107932	-0.152419	0.489268	-0.148268	-0.142026	0.494471	-0.253305	-0.251321	0.383210	-0.130560	-0.201248	0.371943	-0.145847	-0.264494	0.336023	-0.133435	-0.220814	0.319229	-0.150790	-0.361597	0.100100	-0.191258	-0.337208	0.115730	-0.286824	-0.244763	0.032722	-0.149627	-0.221810	0.038521	-0.269616	-0.158915	0.051688	-0.205476	-0.434192	0.079467	-0.247918	-0.339508	0.767746	-0.475861	-0.290414	0.787386	-0.460497	-0.324518	0.730857	-0.480710	-0.278054	0.748093	-0.465743	-0.227671	0.478031	-0.468119	-0.219290	0.455455	-0.350736	-0.377362	0.448622	-0.495962	-0.344421	0.403586	-0.491985	-0.420288	0.424250	-0.494615	-0.392889	0.384267	-0.496229	-0.608528	0.284591	-0.471665	-0.584429	0.261338	-0.379073	-0.589531	0.147068	-0.518426	-0.583827	0.111555	-0.406589	-0.527287	0.092123	-0.467071	-0.693394	0.302508	-0.420010	-0.234555	1.428885	-0.086161	-0.205744	1.435770	-0.381336	
62	0.3050	-0.294878	0.949833	-0.130851	-0.269070	0.948462	-0.389241	-0.473335	0.949404	-0.231609	-0.467209	0.955614	-0.331879	-0.304398	0.776761	-0.091348	-0.267748	0.801670	-0.100766	-0.282028	0.740385	-0.092317	-0.234347	0.765708	-0.107445	-0.141638	0.485348	-0.148755	-0.131652	0.490458	-0.253740	-0.242967	0.381054	-0.130907	-0.193056	0.368602	-0.146298	-0.257328	0.334135	-0.133939	-0.213995	0.316255	-0.151431	-0.361308	0.100572	-0.191687	-0.336471	0.115681	-0.287377	-0.245716	0.031408	-0.149733	-0.222507	0.036732	-0.269790	-0.159136	0.048636	-0.205827	-0.434677	0.080897	-0.248304	-0.319380	0.767525	-0.474171	-0.270695	0.788576	-0.458994	-0.303148	0.731066	-0.479085	-0.257051	0.749759	-0.464422	-0.198177	0.481118	-0.466687	-0.189235	0.458811	-0.349321	-0.346858	0.449151	-0.494010	-0.313050	0.404741	-0.490747	-0.389283	0.424086	-0.492918	-0.361123	0.384632	-0.495071	-0.574505	0.280794	-0.470645	-0.549823	0.257752	-0.378097	-0.549687	0.145235	-0.518724	-0.543038	0.108832	-0.407049	-0.485596	0.092563	-0.467786	-0.660434	0.295065	-0.418792	-0.217067	1.428820	-0.084917	-0.191348	1.436345	-0.380709	
63	0.3100	-0.278542	0.949731	-0.129327	-0.253717	0.948590	-0.388137	-0.457559	0.948956	-0.229670	-0.451989	0.954225	-0.330093	-0.288953	0.776030	-0.090381	-0.252095	0.800506	-0.099965	-0.267090	0.739380	-0.091539	-0.219197	0.763992	-0.106982	-0.131683	0.481715	-0.149185	-0.122046	0.486741	-0.254122	-0.235247	0.379065	-0.131204	-0.185505	0.365518	-0.146698	-0.250713	0.332410	-0.134383	-0.207718	0.313526	-0.152018	-0.361062	0.101133	-0.192080	-0.335837	0.115771	-0.287869	-0.246602	0.030394	-0.149878	-0.223212	0.035336	-0.269990	-0.159427	0.046127	-0.206199	-0.435121	0.082269	-0.248638	-0.300521	0.767408	-0.472548	-0.252224	0.789799	-0.457590	-0.283118	0.731384	-0.477523	-0.237376	0.751462	-0.463196	-0.170490	0.484311	-0.465306	-0.160966	0.462267	-0.347985	-0.318164	0.449751	-0.492092	-0.283478	0.405987	-0.489550	-0.360076	0.423965	-0.491254	-0.331140	0.385058	-0.493948	-0.542182	0.276865	-0.469674	-0.516928	0.254090	-0.377163	-0.511722	0.143179	-0.518926	-0.504134	0.106016	-0.407368	-0.445845	0.092852	-0.468327	-0.629113	0.287586	-0.417670	-0.200598	1.428799	-0.083806	-0.177807	1.436885	-0.380143	
64	0.3150	-0.263313	0.949622	-0.127905	-0.239435	0.948710	-0.387119	-0.442857	0.948561	-0.227827	-0.437815	0.952962	-0.328383	-0.274609	0.775373	-0.089474	-0.237564	0.799441	-0.099210	-0.253231	0.738473	-0.090806	-0.205148	0.762419	-0.106541	-0.122574	0.478379	-0.149558	-0.113233	0.483325	-0.254449	-0.228174	0.377244	-0.131450	-0.178607	0.362697	-0.147046	-0.244657	0.330848	-0.134765	-0.201989	0.311044	-0.152547	-0.360833	0.101762	-0.192435	-0.335278	0.115979	-0.288296	-0.247395	0.029654	-0.150050	-0.223892	0.034298	-0.270203	-0.159753	0.044123	-0.206578	-0.435500	0.083572	-0.248921	-0.283016	0.767390	-0.471005	-0.235083	0.791038	-0.456289	-0.264522	0.731796	-0.476039	-0.219118	0.753177	-0.462070	-0.144752	0.487553	-0.463991	-0.134637	0.465761	-0.346737	-0.291438	0.450411	-0.490232	-0.255875	0.407300	-0.488409	-0.332830	0.423890	-0.489643	-0.303119	0.385539	-0.492872	-0.511784	0.272890	-0.468764	-0.485977	0.250427	-0.376282	-0.475936	0.140972	-0.519039	-0.467429	0.103177	-0.407559	-0.408358	0.093007	-0.468707	-0.599643	0.280205	-0.416650	-0.185237	1.428819	-0.082826	-0.165188	1.437391	-0.379636	
65	0.3200	-0.249257	0.949511	-0.126591	-0.226276	0.948827	-0.386186	-0.429288	0.948220	-0.226096	-0.424741	0.951835	-0.326761	-0.261421	0.774786	-0.088632	-0.224209	0.798473	-0.098505	-0.240502	0.737662	-0.090123	-0.192252	0.760988	-0.106124	-0.114324	0.475341	-0.149876	-0.105225	0.480216	-0.254723	-0.221756	0.375593	-0.131648	-0.172363	0.360143	-0.147343	-0.239162	0.329446	-0.135088	-0.196807	0.308810	-0.153017	-0.360605	0.102438	-0.192748	-0.334773	0.116281	-0.288659	-0.248080	0.029154	-0.150237	-0.224522	0.033579	-0.270420	-0.160087	0.042580	-0.206951	-0.435796	0.084799	-0.249154	-0.266933	0.767460	-0.469556	-0.219337	0.792275	-0.455099	-0.247431	0.732287	-0.474644	-0.202348	0.754877	-0.461047	-0.121073	0.490784	-0.462754	-0.110369	0.469233	-0.345586	-0.266803	0.451116	-0.488454	-0.230382	0.408652	-0.487333	-0.307681	0.423862	-0.488106	-0.277208	0.386064	-0.491855	-0.483501	0.268952	-0.467920	-0.457171	0.246835	-0.375462	-0.442585	0.138683	-0.519073	-0.433192	0.100376	-0.407637	-0.373410	0.093049	-0.468941	-0.572208	0.273048	-0.415735	-0.171054	1.428876	-0.081971	-0.153545	1.437863	-0.379185	
66	0.3250	-0.236423	0.949400	-0.125390	-0.214283	0.948940	-0.385341	-0.416898	0.947934	-0.224489	-0.412809	0.950846	-0.325244	-0.249426	0.774267	-0.087859	-0.212066	0.797601	-0.097851	-0.228938	0.736942	-0.089493	-0.180538	0.759698	-0.105731	-0.106929	0.472602	-0.150141	-0.098025	0.477413	-0.254946	-0.215992	0.374109	-0.131801	-0.166772	0.357854	-0.147590	-0.234225	0.328200	-0.135355	-0.192165	0.306820	-0.153428	-0.360368	0.103138	-0.193019	-0.334307	0.116656	-0.288959	-0.248652	0.028862	-0.150430	-0.225086	0.033133	-0.270633	-0.160409	0.041446	-0.207307	-0.436006	0.085940	-0.249338	-0.252314	0.767605	-0.468210	-0.205029	0.793491	-0.454022	-0.231894	0.732835	-0.473350	-0.187110	0.756538	-0.460128	-0.099531	0.493950	-0.461605	-0.088251	0.472621	-0.344536	-0.244348	0.451849	-0.486777	-0.207100	0.410017	-0.486331	-0.284724	0.423878	-0.486658	-0.253517	0.386621	-0.490906	-0.457489	0.265128	-0.467149	-0.430668	0.243377	-0.374708	-0.411873	0.136378	-0.519040	-0.401638	0.097671	-0.407621	-0.341220	0.092997	-0.469049	-0.546953	0.266224	-0.414927	-0.158102	1.428965	-0.081234	-0.142917	1.438302	-0.378787	
67	0.3300	-0.224838	0.949293	-0.124307	-0.203475	0.949052	-0.384582	-0.405714	0.947701	-0.223017	-0.402043	0.949994	-0.323841	-0.238644	0.773812	-0.087157	-0.201153	0.796823	-0.097253	-0.218553	0.736308	-0.088917	-0.170023	0.758547	-0.105365	-0.100379	0.470158	-0.150357	-0.091625	0.474912	-0.255124	-0.210872	0.372788	-0.131913	-0.161819	0.355825	-0.147791	-0.229838	0.327105	-0.135569	-0.188053	0.305067	-0.153782	-0.360119	0.103843	-0.193247	-0.333872	0.117079	-0.289200	-0.249111	0.028742	-0.150620	-0.225574	0.032916	-0.270834	-0.160706	0.040664	-0.207638	-0.436129	0.086991	-0.249480	-0.239182	0.767811	-0.466977	-0.192177	0.794667	-0.453058	-0.217936	0.733421	-0.472163	-0.173427	0.758133	-0.459314	-0.080164	0.496995	-0.460552	-0.068333	0.475872	-0.343592	-0.224122	0.452591	-0.485220	-0.186093	0.411364	-0.485412	-0.264019	0.423932	-0.485315	-0.232116	0.387195	-0.490032	-0.433856	0.261485	-0.466454	-0.406583	0.240109	-0.374025	-0.383949	0.134117	-0.518951	-0.372925	0.095109	-0.407527	-0.311950	0.092872	-0.469051	-0.523986	0.259826	-0.414224	-0.146412	1.429081	-0.080607	-0.133329	1.438708	-0.378440	
68	0.3350	-0.214513	0.949192	-0.123342	-0.193858	0.949163	-0.383910	-0.395743	0.947517	-0.221686	-0.392448	0.949276	-0.322563	-0.229074	0.773416	-0.086529	-0.191468	0.796135	-0.096711	-0.209344	0.735757	-0.088398	-0.160701	0.757530	-0.105026	-0.094650	0.468003	-0.150528	-0.086008	0.472707	-0.255260	-0.206380	0.371626	-0.131991	-0.157487	0.354048	-0.147950	-0.225986	0.326152	-0.135736	-0.184453	0.303543	-0.154080	-0.359858	0.104533	-0.193435	-0.333463	0.117530	-0.289387	-0.249463	0.028757	-0.150802	-0.225984	0.032880	-0.271019	-0.160968	0.040176	-0.207938	-0.436172	0.087945	-0.249582	-0.227533	0.768061	-0.465862	-0.180780	0.795784	-0.452209	-0.205553	0.734025	-0.471090	-0.161295	0.759639	-0.458601	-0.062975	0.499874	-0.459601	-0.050627	0.478935	-0.342753	-0.206139	0.453326	-0.483794	-0.167383	0.412668	-0.484580	-0.245585	0.424018	-0.484087	-0.213035	0.387772	-0.489240	-0.412666	0.258077	-0.465836	-0.384983	0.237075	-0.373415	-0.358901	0.131951	-0.518821	-0.347152	0.092731	-0.407374	-0.285694	0.092695	-0.468968	-0.503371	0.253929	-0.413621	-0.135996	1.429215	-0.080083	-0.124788	1.439078	-0.378141	
69	0.3400	-0.205436	0.949098	-0.122495	-0.185416	0.949271	-0.383322	-0.386975	0.947379	-0.220500	-0.384013	0.948683	-0.321415	-0.220695	0.773075	-0.085974	-0.182990	0.795534	-0.096226	-0.201291	0.735281	-0.087936	-0.152549	0.756643	-0.104717	-0.089705	0.466125	-0.150660	-0.081143	0.470786	-0.255361	-0.202492	0.370617	-0.132039	-0.153748	0.352513	-0.148071	-0.222648	0.325335	-0.135862	-0.181344	0.302234	-0.154329	-0.359590	0.105193	-0.193585	-0.333081	0.117988	-0.289526	-0.249719	0.028874	-0.150970	-0.226316	0.032983	-0.271185	-0.161191	0.039926	-0.208204	-0.436148	0.088801	-0.249651	-0.217342	0.768341	-0.464868	-0.170811	0.796828	-0.451470	-0.194719	0.734626	-0.470134	-0.150685	0.761037	-0.457985	-0.047932	0.502544	-0.458756	-0.035105	0.481770	-0.342019	-0.190371	0.454036	-0.482510	-0.150952	0.413903	-0.483838	-0.229402	0.424128	-0.482984	-0.196259	0.388338	-0.488532	-0.393936	0.254950	-0.465295	-0.365886	0.234311	-0.372879	-0.336758	0.129924	-0.518661	-0.324351	0.090565	-0.407180	-0.262485	0.092483	-0.468822	-0.485127	0.248588	-0.413112	-0.126842	1.429361	-0.079650	-0.117283	1.439414	-0.377885	
70	0.3450	-0.197574	0.949013	-0.121762	-0.178115	0.949375	-0.382814	-0.379377	0.947279	-0.219460	-0.376707	0.948204	-0.320401	-0.213470	0.772786	-0.085491	-0.175678	0.795015	-0.095799	-0.194352	0.734876	-0.087530	-0.145527	0.755879	-0.104438	-0.085502	0.464512	-0.150759	-0.076993	0.469137	-0.255431	-0.199176	0.369751	-0.132064	-0.150569	0.351205	-0.148160	-0.219796	0.324642	-0.135953	-0.178697	0.301127	-0.154531	-0.359321	0.105808	-0.193702	-0.332726	0.118436	-0.289623	-0.249892	0.029062	-0.151121	-0.226576	0.033182	-0.271329	-0.161374	0.039859	-0.208433	-0.436070	0.089558	-0.249692	-0.208559	0.768635	-0.463997	-0.162220	0.797784	-0.450837	-0.185382	0.735208	-0.469295	-0.141544	0.762311	-0.457463	-0.034963	0.504974	-0.458016	-0.021705	0.484343	-0.341386	-0.176754	0.454705	-0.481374	-0.136740	0.415049	-0.483187	-0.215408	0.424254	-0.482008	-0.181734	0.388878	-0.487911	-0.377634	0.252136	-0.464830	-0.349262	0.231840	-0.372414	-0.317488	0.128069	-0.518483	-0.304496	0.088631	-0.406961	-0.242292	0.092253	-0.468632	-0.469226	0.243839	-0.412692	-0.118919	1.429511	-0.079299	-0.110787	1.439714	-0.377670	
71	0.3500	-0.190877	0.948937	-0.121139	-0.171903	0.949473	-0.382382	-0.372902	0.947212	-0.218564	-0.370481	0.947828	-0.319521	-0.207340	0.772542	-0.085079	-0.169476	0.794573	-0.095429	-0.188472	0.734536	-0.087181	-0.139575	0.755230	-0.104191	-0.081987	0.463148	-0.150830	-0.073509	0.467741	-0.255477	-0.196392	0.369021	-0.132070	-0.147908	0.350108	-0.148223	-0.217400	0.324064	-0.136014	-0.176479	0.300205	-0.154692	-0.359059	0.106368	-0.193790	-0.332399	0.118860	-0.289687	-0.249996	0.029291	-0.151253	-0.226772	0.033443	-0.271451	-0.161519	0.039924	-0.208626	-0.435953	0.090215	-0.249712	-0.201112	0.768928	-0.463246	-0.154939	0.798643	-0.450304	-0.177466	0.735755	-0.468573	-0.133799	0.763448	-0.457026	-0.023968	0.507140	-0.457379	-0.010328	0.486633	-0.340850	-0.165188	0.455320	-0.480386	-0.124651	0.416088	-0.482626	-0.203508	0.424387	-0.481160	-0.169367	0.389380	-0.487375	-0.363683	0.249655	-0.464436	-0.335034	0.229674	-0.372020	-0.301004	0.126411	-0.518299	-0.287500	0.086942	-0.406732	-0.225021	0.092021	-0.468417	-0.455600	0.239696	-0.412350	-0.112173	1.429661	-0.079021	-0.105256	1.439978	-0.377491	
72	0.3550	-0.185274	0.948872	-0.120619	-0.166714	0.949565	-0.382022	-0.367483	0.947171	-0.217806	-0.365272	0.947540	-0.318771	-0.202235	0.772341	-0.084732	-0.164310	0.794203	-0.095113	-0.183579	0.734254	-0.086885	-0.134623	0.754689	-0.103977	-0.079099	0.462013	-0.150878	-0.070637	0.466581	-0.255504	-0.194098	0.368415	-0.132063	-0.145721	0.349205	-0.148264	-0.215421	0.323591	-0.136053	-0.174654	0.299450	-0.154818	-0.358811	0.106864	-0.193853	-0.332105	0.119248	-0.289723	-0.250047	0.029539	-0.151365	-0.226913	0.033732	-0.271551	-0.161630	0.040078	-0.208785	-0.435812	0.090776	-0.249715	-0.194914	0.769210	-0.462611	-0.148878	0.799397	-0.449864	-0.170877	0.736254	-0.467961	-0.127354	0.764442	-0.456668	-0.014816	0.509031	-0.456843	-0.000845	0.488627	-0.340405	-0.155544	0.455873	-0.479544	-0.114558	0.417009	-0.482151	-0.193574	0.424520	-0.480439	-0.159031	0.389836	-0.486921	-0.351965	0.247514	-0.464110	-0.323081	0.227817	-0.371690	-0.287167	0.124963	-0.518118	-0.273223	0.085497	-0.406506	-0.210527	0.091797	-0.468194	-0.444138	0.236157	-0.412078	-0.106534	1.429803	-0.078804	-0.100633	1.440206	-0.377345	
73	0.3600	-0.180682	0.948817	-0.120193	-0.162466	0.949647	-0.381728	-0.363039	0.947151	-0.217179	-0.361000	0.947327	-0.318146	-0.198069	0.772176	-0.084447	-0.160093	0.793898	-0.094851	-0.179590	0.734025	-0.086639	-0.130585	0.754245	-0.103794	-0.076776	0.461088	-0.150908	-0.068317	0.465634	-0.255517	-0.192245	0.367921	-0.132048	-0.143960	0.348475	-0.148288	-0.213820	0.323210	-0.136075	-0.173182	0.298845	-0.154913	-0.358583	0.107294	-0.193896	-0.331846	0.119592	-0.289739	-0.250059	0.029785	-0.151457	-0.227009	0.034026	-0.271631	-0.161710	0.040281	-0.208911	-0.435660	0.091245	-0.249707	-0.189858	0.769471	-0.462085	-0.143936	0.800045	-0.449507	-0.165504	0.736697	-0.467455	-0.122101	0.765290	-0.456380	-0.007352	0.510642	-0.456399	0.006899	0.490324	-0.340043	-0.147666	0.456356	-0.478842	-0.106301	0.417805	-0.481758	-0.185450	0.424647	-0.479839	-0.150568	0.390238	-0.486544	-0.342325	0.245709	-0.463844	-0.313247	0.226260	-0.371421	-0.275791	0.123730	-0.517948	-0.261480	0.084292	-0.406292	-0.198616	0.091591	-0.467976	-0.434694	0.233201	-0.411867	-0.101917	1.429934	-0.078639	-0.096846	1.440399	-0.377228	
74	0.3650	-0.177004	0.948771	-0.119853	-0.159068	0.949719	-0.381492	-0.359478	0.947146	-0.216672	-0.357577	0.947175	-0.317638	-0.194746	0.772046	-0.084218	-0.156730	0.793653	-0.094636	-0.176411	0.733842	-0.086440	-0.127366	0.753889	-0.103642	-0.074948	0.460350	-0.150926	-0.066485	0.464879	-0.255520	-0.190782	0.367528	-0.132028	-0.142574	0.347899	-0.148300	-0.212553	0.322909	-0.136083	-0.172021	0.298370	-0.154983	-0.358381	0.107655	-0.193924	-0.331623	0.119887	-0.289740	-0.250045	0.030015	-0.151531	-0.227069	0.034303	-0.271694	-0.161766	0.040502	-0.209009	-0.435509	0.091628	-0.249691	-0.185829	0.769703	-0.461660	-0.139998	0.800588	-0.449224	-0.161221	0.737078	-0.467046	-0.117915	0.765997	-0.456154	-0.001404	0.511979	-0.456042	0.013077	0.491730	-0.339754	-0.141378	0.456766	-0.478272	-0.099702	0.418474	-0.481441	-0.178957	0.424763	-0.479351	-0.143797	0.390583	-0.486240	-0.334577	0.244227	-0.463634	-0.305344	0.224987	-0.371207	-0.266657	0.122708	-0.517794	-0.252045	0.083311	-0.406100	-0.189055	0.091408	-0.467774	-0.427093	0.230793	-0.411707	-0.098222	1.430050	-0.078516	-0.093816	1.440560	-0.377137	
