PathFileType	4	(X/Y/Z)	 P10 130r2 03.trc
DataRate	CameraRate	NumFrames	NumMarkers	Units	OrigDataRate	OrigDataStartFrame	OrigNumFrames
200	200	80	38	m	200	1	80
Frame#	Time	RASIS			LASIS			RPSIS			LPSIS			RThighRear1			RThighFront1			RThighRear2			RThighFront2			RKneeLat			RKneeMed			RShankRear1			RShankFront1			RShankRear2			RShankFront2			RAnkleLat			RAnkleMed			RM5			RM1			RMid			RHeel			LThighRear1			LThighFront1			LThighRear2			LThighFront2			LKneeLat			LKneeMed			LShankRear1			LShankFront1			LShankRear2			LShankFront2			LAnkleLat			LAnkleMed			LM5			LM1			LMid			LHeel			RShoulder			LShoulder			
		X1	Y1	Z1	X2	Y2	Z2	X3	Y3	Z3	X4	Y4	Z4	X5	Y5	Z5	X6	Y6	Z6	X7	Y7	Z7	X8	Y8	Z8	X9	Y9	Z9	X10	Y10	Z10	X11	Y11	Z11	X12	Y12	Z12	X13	Y13	Z13	X14	Y14	Z14	X15	Y15	Z15	X16	Y16	Z16	X17	Y17	Z17	X18	Y18	Z18	X19	Y19	Z19	X20	Y20	Z20	X21	Y21	Z21	X22	Y22	Z22	X23	Y23	Z23	X24	Y24	Z24	X25	Y25	Z25	X26	Y26	Z26	X27	Y27	Z27	X28	Y28	Z28	X29	Y29	Z29	X30	Y30	Z30	X31	Y31	Z31	X32	Y32	Z32	X33	Y33	Z33	X34	Y34	Z34	X35	Y35	Z35	X36	Y36	Z36	X37	Y37	Z37	X38	Y38	Z38	
1	0.0000	-1.484384	0.874677	-0.186926	-1.514856	0.897797	-0.443047	-1.668674	0.932544	-0.251314	-1.693020	0.926193	-0.347441	-1.596653	0.720425	-0.137600	-1.556285	0.715104	-0.156355	-1.609229	0.680245	-0.142085	-1.563136	0.668494	-0.167431	-1.740406	0.416013	-0.186770	-1.738602	0.406686	-0.291721	-1.888616	0.413700	-0.156722	-1.862176	0.370730	-0.174779	-1.930509	0.389909	-0.158289	-1.914719	0.348158	-0.175535	-2.169137	0.288847	-0.200774	-2.152074	0.284125	-0.295507	-2.200094	0.141988	-0.173646	-2.194406	0.133794	-0.291651	-2.151894	0.072738	-0.233720	-2.219591	0.346944	-0.250618	-1.543712	0.753543	-0.523295	-1.502023	0.795182	-0.519237	-1.512828	0.725339	-0.529996	-1.475500	0.765692	-0.528762	-1.289682	0.554365	-0.527721	-1.257925	0.553711	-0.415505	-1.368989	0.420211	-0.542142	-1.312225	0.419542	-0.541812	-1.375813	0.370078	-0.541011	-1.324615	0.367076	-0.544199	-1.368225	0.120920	-0.500610	-1.341128	0.142753	-0.412137	-1.230237	0.055272	-0.521868	-1.210984	0.079568	-0.407694	-1.158045	0.106699	-0.474169	-1.436475	0.065078	-0.448491	-1.284857	1.348717	-0.232192	-1.369442	1.347213	-0.505082	
2	0.0050	-1.468989	0.874626	-0.186670	-1.500673	0.898443	-0.442686	-1.654229	0.930664	-0.249739	-1.678630	0.925676	-0.346023	-1.578292	0.718737	-0.137502	-1.538132	0.714325	-0.156410	-1.589973	0.678434	-0.141912	-1.543913	0.667676	-0.167419	-1.714511	0.411752	-0.186266	-1.712600	0.402396	-0.291807	-1.862731	0.411398	-0.156546	-1.837090	0.367977	-0.174422	-1.905041	0.388524	-0.158110	-1.889983	0.346326	-0.175285	-2.145163	0.291788	-0.200894	-2.127651	0.286358	-0.295567	-2.175391	0.145479	-0.172632	-2.169229	0.136369	-0.290492	-2.126427	0.076483	-0.232143	-2.195823	0.349646	-0.251256	-1.530356	0.752760	-0.522377	-1.488093	0.793936	-0.518568	-1.499788	0.724126	-0.529142	-1.461918	0.764035	-0.528062	-1.278743	0.550625	-0.527422	-1.247002	0.549415	-0.415255	-1.360253	0.418323	-0.541601	-1.303685	0.416396	-0.541408	-1.368186	0.368498	-0.540299	-1.317209	0.364344	-0.543580	-1.366316	0.120522	-0.499587	-1.339141	0.141530	-0.410783	-1.229875	0.053879	-0.521871	-1.210277	0.076346	-0.407259	-1.157106	0.102725	-0.473153	-1.435599	0.065599	-0.447529	-1.271409	1.349016	-0.231587	-1.353823	1.345557	-0.505835	
3	0.0100	-1.453406	0.874582	-0.186422	-1.486306	0.899099	-0.442342	-1.639602	0.928781	-0.248154	-1.664054	0.925162	-0.344595	-1.559674	0.717039	-0.137411	-1.519719	0.713550	-0.156458	-1.570434	0.676611	-0.141740	-1.524396	0.666868	-0.167393	-1.688135	0.407457	-0.185786	-1.686128	0.398085	-0.291924	-1.836387	0.409065	-0.156393	-1.811537	0.365177	-0.174076	-1.879124	0.387104	-0.157946	-1.864792	0.344444	-0.175042	-2.120784	0.294668	-0.200997	-2.102822	0.288520	-0.295614	-2.150222	0.148887	-0.171578	-2.143593	0.138836	-0.289293	-2.100465	0.080136	-0.230526	-2.171694	0.352274	-0.251878	-1.516839	0.751963	-0.521443	-1.473998	0.792671	-0.517899	-1.486593	0.722894	-0.528272	-1.448174	0.762352	-0.527357	-1.267669	0.546808	-0.527097	-1.235943	0.545039	-0.414983	-1.351407	0.416379	-0.541040	-1.295039	0.413177	-0.540975	-1.360463	0.366871	-0.539565	-1.309711	0.361552	-0.542934	-1.364391	0.120127	-0.498541	-1.337137	0.140302	-0.409403	-1.229504	0.052519	-0.521873	-1.209557	0.073150	-0.406832	-1.156159	0.098755	-0.472134	-1.434714	0.066109	-0.446545	-1.257781	1.349305	-0.230961	-1.337976	1.343877	-0.506589	
4	0.0150	-1.437663	0.874551	-0.186181	-1.471764	0.899758	-0.442023	-1.624811	0.926912	-0.246576	-1.649307	0.924656	-0.343171	-1.540823	0.715351	-0.137327	-1.501066	0.712800	-0.156494	-1.550628	0.674801	-0.141569	-1.504600	0.666098	-0.167349	-1.661256	0.403184	-0.185335	-1.659167	0.393813	-0.292077	-1.809563	0.406721	-0.156268	-1.785484	0.362353	-0.173745	-1.852733	0.385654	-0.157800	-1.839108	0.342520	-0.174806	-2.095958	0.297414	-0.201075	-2.077548	0.290544	-0.295642	-2.124516	0.152137	-0.170479	-2.117425	0.141122	-0.288051	-2.073926	0.083630	-0.228872	-2.147175	0.354742	-0.252471	-1.503178	0.751152	-0.520496	-1.459759	0.791385	-0.517231	-1.473263	0.721644	-0.527385	-1.434291	0.760642	-0.526649	-1.256498	0.542910	-0.526737	-1.224786	0.540581	-0.414679	-1.342480	0.414374	-0.540454	-1.286318	0.409883	-0.540506	-1.352671	0.365195	-0.538806	-1.302148	0.358700	-0.542254	-1.362465	0.119738	-0.497472	-1.335128	0.139074	-0.407997	-1.229125	0.051208	-0.521874	-1.208823	0.070011	-0.406420	-1.155209	0.094825	-0.471118	-1.433827	0.066599	-0.445539	-1.243993	1.349584	-0.230305	-1.321909	1.342184	-0.507331	
5	0.0200	-1.421782	0.874541	-0.185948	-1.457048	0.900416	-0.441733	-1.609872	0.925071	-0.245018	-1.634396	0.924165	-0.341767	-1.521752	0.713697	-0.137248	-1.482186	0.712101	-0.156512	-1.530563	0.673033	-0.141398	-1.484533	0.665397	-0.167278	-1.633840	0.398995	-0.184919	-1.631688	0.389644	-0.292266	-1.782227	0.404388	-0.156173	-1.758881	0.359529	-0.173430	-1.825830	0.384178	-0.157672	-1.812878	0.340563	-0.174576	-2.070628	0.299950	-0.201121	-2.051773	0.292363	-0.295645	-2.098180	0.155151	-0.169334	-2.090636	0.143154	-0.286765	-2.046709	0.086897	-0.227182	-2.122224	0.356958	-0.253024	-1.489385	0.750325	-0.519538	-1.445388	0.790076	-0.516568	-1.459810	0.720377	-0.526483	-1.420283	0.758902	-0.525937	-1.245260	0.538925	-0.526331	-1.213565	0.536037	-0.414335	-1.333500	0.412303	-0.539837	-1.277549	0.406512	-0.539992	-1.344834	0.363464	-0.538017	-1.294546	0.355785	-0.541535	-1.360551	0.119361	-0.496380	-1.333127	0.137855	-0.406566	-1.228738	0.049961	-0.521873	-1.208077	0.066958	-0.406025	-1.154258	0.090970	-0.470114	-1.432949	0.067064	-0.444511	-1.230058	1.349858	-0.229610	-1.305622	1.340489	-0.508046	
6	0.0250	-1.405779	0.874559	-0.185721	-1.442151	0.901066	-0.441476	-1.594792	0.923274	-0.243499	-1.619321	0.923694	-0.340399	-1.502468	0.712103	-0.137173	-1.463088	0.711480	-0.156505	-1.510243	0.671335	-0.141223	-1.464197	0.664800	-0.167174	-1.605845	0.394954	-0.184539	-1.603649	0.385648	-0.292490	-1.754338	0.402088	-0.156110	-1.731672	0.356734	-0.173131	-1.798369	0.382683	-0.157563	-1.786039	0.338584	-0.174352	-2.044724	0.302199	-0.201127	-2.025430	0.293909	-0.295617	-2.071108	0.157850	-0.168140	-2.063121	0.144861	-0.285436	-2.018699	0.089873	-0.225460	-2.096785	0.358828	-0.253526	-1.475463	0.749481	-0.518571	-1.430890	0.788738	-0.515910	-1.446244	0.719092	-0.525566	-1.406159	0.757128	-0.525224	-1.233988	0.534847	-0.525869	-1.202315	0.531402	-0.413940	-1.324494	0.410157	-0.539184	-1.268762	0.403058	-0.539423	-1.336976	0.361672	-0.537195	-1.286928	0.352805	-0.540768	-1.358663	0.119000	-0.495266	-1.331145	0.136651	-0.405114	-1.228347	0.048792	-0.521872	-1.207320	0.064017	-0.405654	-1.153308	0.087222	-0.469128	-1.432091	0.067496	-0.443462	-1.215987	1.350132	-0.228867	-1.289109	1.338804	-0.508718	
7	0.0300	-1.389666	0.874614	-0.185498	-1.427062	0.901701	-0.441257	-1.579574	0.921536	-0.242033	-1.604079	0.923249	-0.339082	-1.482977	0.710595	-0.137101	-1.443775	0.710964	-0.156467	-1.489665	0.669740	-0.141042	-1.443592	0.664342	-0.167031	-1.577228	0.391128	-0.184196	-1.575009	0.381894	-0.292746	-1.725849	0.399846	-0.156080	-1.703794	0.353999	-0.172847	-1.770298	0.381179	-0.157472	-1.758524	0.336596	-0.174130	-2.018168	0.304085	-0.201087	-1.998444	0.295117	-0.295553	-2.043188	0.160160	-0.166898	-2.034767	0.146177	-0.284065	-1.989775	0.092499	-0.223713	-2.070791	0.360259	-0.253963	-1.461412	0.748619	-0.517598	-1.416268	0.787366	-0.515259	-1.432565	0.717788	-0.524635	-1.391921	0.755315	-0.524507	-1.222709	0.530668	-0.525341	-1.191070	0.526669	-0.413486	-1.315487	0.407930	-0.538489	-1.259983	0.399518	-0.538793	-1.329120	0.359815	-0.536336	-1.279321	0.349758	-0.539949	-1.356815	0.118659	-0.494131	-1.329196	0.135467	-0.403641	-1.227951	0.047709	-0.521869	-1.206554	0.061210	-0.405309	-1.152362	0.083613	-0.468169	-1.431264	0.067890	-0.442391	-1.201786	1.350411	-0.228067	-1.272359	1.337141	-0.509328	
8	0.0350	-1.373451	0.874715	-0.185274	-1.411765	0.902313	-0.441075	-1.564217	0.919871	-0.240639	-1.588664	0.922837	-0.337833	-1.463281	0.709201	-0.137027	-1.424250	0.710583	-0.156392	-1.468829	0.668278	-0.140852	-1.422715	0.664059	-0.166841	-1.547947	0.387590	-0.183889	-1.545727	0.378458	-0.293030	-1.696717	0.397690	-0.156082	-1.675188	0.351358	-0.172575	-1.741564	0.379675	-0.157395	-1.730267	0.334616	-0.173908	-1.990877	0.305532	-0.200994	-1.970733	0.295922	-0.295446	-2.014303	0.162011	-0.165608	-2.005458	0.147042	-0.282656	-1.959813	0.094722	-0.221946	-2.044172	0.361159	-0.254327	-1.447226	0.747738	-0.516621	-1.401517	0.785956	-0.514614	-1.418775	0.716466	-0.523690	-1.377570	0.753457	-0.523787	-1.211454	0.526381	-0.524736	-1.179863	0.521833	-0.412964	-1.306508	0.405619	-0.537748	-1.251241	0.395891	-0.538094	-1.321292	0.357891	-0.535434	-1.271749	0.346643	-0.539071	-1.355021	0.118341	-0.492976	-1.327291	0.134307	-0.402150	-1.227553	0.046720	-0.521864	-1.205779	0.058556	-0.404993	-1.151422	0.080169	-0.467243	-1.430479	0.068240	-0.441301	-1.187460	1.350706	-0.227201	-1.255359	1.335516	-0.509859	
9	0.0400	-1.357142	0.874871	-0.185046	-1.396244	0.902895	-0.440931	-1.548721	0.918294	-0.239332	-1.573064	0.922464	-0.336671	-1.443382	0.707948	-0.136949	-1.404517	0.710367	-0.156274	-1.447732	0.666982	-0.140650	-1.401567	0.663990	-0.166598	-1.517968	0.384411	-0.183614	-1.515768	0.375412	-0.293333	-1.666902	0.395648	-0.156111	-1.645799	0.348847	-0.172311	-1.712121	0.378183	-0.157330	-1.701206	0.332662	-0.173680	-1.962771	0.306471	-0.200841	-1.942220	0.296268	-0.295291	-1.984340	0.163339	-0.164275	-1.975080	0.147403	-0.281213	-1.928694	0.096501	-0.220169	-2.016853	0.361439	-0.254607	-1.432899	0.746838	-0.515644	-1.386631	0.784501	-0.513974	-1.404871	0.715126	-0.522734	-1.363104	0.751551	-0.523062	-1.200249	0.521981	-0.524046	-1.168727	0.516889	-0.412366	-1.297583	0.403219	-0.536955	-1.242563	0.392175	-0.537320	-1.313515	0.355896	-0.534488	-1.264238	0.343461	-0.538131	-1.353295	0.118050	-0.491805	-1.325443	0.133178	-0.400646	-1.227156	0.045828	-0.521857	-1.204999	0.056071	-0.404710	-1.150489	0.076916	-0.466359	-1.429747	0.068545	-0.440193	-1.173011	1.351026	-0.226262	-1.238098	1.333941	-0.510294	
10	0.0450	-1.340743	0.875090	-0.184809	-1.380478	0.903440	-0.440823	-1.533081	0.916818	-0.238130	-1.557271	0.922135	-0.335610	-1.423284	0.706865	-0.136861	-1.384581	0.710345	-0.156106	-1.426376	0.665887	-0.140431	-1.380152	0.664170	-0.166296	-1.487268	0.381665	-0.183363	-1.485107	0.372831	-0.293645	-1.636371	0.393747	-0.156162	-1.615583	0.346503	-0.172050	-1.681929	0.376718	-0.157269	-1.671286	0.330757	-0.173442	-1.933774	0.306838	-0.200626	-1.912829	0.296102	-0.295085	-1.953193	0.164090	-0.162905	-1.943525	0.147221	-0.279746	-1.896307	0.097802	-0.218393	-1.988762	0.361018	-0.254793	-1.418423	0.745919	-0.514668	-1.371603	0.782997	-0.513338	-1.390847	0.713767	-0.521769	-1.348518	0.749591	-0.522329	-1.189123	0.517465	-0.523264	-1.157698	0.511833	-0.411685	-1.288739	0.400732	-0.536107	-1.233978	0.388372	-0.536467	-1.305813	0.353832	-0.533496	-1.256812	0.340214	-0.537124	-1.351649	0.117790	-0.490621	-1.323662	0.132083	-0.399132	-1.226764	0.045033	-0.521848	-1.204218	0.053764	-0.404459	-1.149566	0.073874	-0.465522	-1.429080	0.068803	-0.439072	-1.158445	1.351382	-0.225241	-1.220565	1.332434	-0.510613	
11	0.0500	-1.324262	0.875380	-0.184555	-1.364452	0.903940	-0.440746	-1.517296	0.915456	-0.237048	-1.541276	0.921858	-0.334668	-1.402995	0.705979	-0.136758	-1.364452	0.710546	-0.155884	-1.404767	0.665022	-0.140190	-1.358480	0.664635	-0.165930	-1.455838	0.379422	-0.183129	-1.453732	0.370785	-0.293952	-1.605107	0.392017	-0.156226	-1.584507	0.344367	-0.171784	-1.650959	0.375294	-0.157205	-1.640466	0.328924	-0.173186	-1.903815	0.306575	-0.200342	-1.882493	0.295382	-0.294823	-1.920768	0.164218	-0.161505	-1.910698	0.146467	-0.278264	-1.862555	0.098605	-0.216630	-1.959831	0.359822	-0.254880	-1.403788	0.744981	-0.513699	-1.356425	0.781439	-0.512703	-1.376700	0.712393	-0.520796	-1.333807	0.747574	-0.521587	-1.178104	0.512834	-0.522382	-1.146808	0.506665	-0.410915	-1.280003	0.398159	-0.535201	-1.225514	0.384490	-0.535534	-1.298209	0.351703	-0.532455	-1.249497	0.336907	-0.536051	-1.350095	0.117564	-0.489429	-1.321961	0.131029	-0.397616	-1.226379	0.044332	-0.521838	-1.203439	0.051640	-0.404241	-1.148656	0.071061	-0.464739	-1.428488	0.069019	-0.437942	-1.143767	1.351788	-0.224132	-1.202751	1.331009	-0.510800	
12	0.0550	-1.307704	0.875750	-0.184279	-1.348148	0.904389	-0.440695	-1.501364	0.914218	-0.236101	-1.525070	0.921637	-0.333859	-1.382524	0.705317	-0.136634	-1.344141	0.710996	-0.155601	-1.382916	0.664421	-0.139923	-1.336566	0.665418	-0.165497	-1.423685	0.377751	-0.182900	-1.421646	0.369343	-0.294238	-1.573104	0.390485	-0.156294	-1.552556	0.342478	-0.171507	-1.619197	0.373928	-0.157128	-1.608721	0.327190	-0.172906	-1.872835	0.305636	-0.199990	-1.851155	0.294074	-0.294502	-1.886983	0.163693	-0.160085	-1.876515	0.145123	-0.276778	-1.827360	0.098903	-0.214894	-1.929998	0.357789	-0.254860	-1.388985	0.744028	-0.512740	-1.341089	0.779825	-0.512067	-1.362425	0.711005	-0.519819	-1.318968	0.745499	-0.520833	-1.167218	0.508090	-0.521399	-1.136093	0.501390	-0.410053	-1.271401	0.395508	-0.534238	-1.217197	0.380537	-0.534519	-1.290728	0.349514	-0.531366	-1.242317	0.333550	-0.534911	-1.348641	0.117378	-0.488235	-1.320346	0.130019	-0.396104	-1.226009	0.043718	-0.521826	-1.202670	0.049703	-0.404056	-1.147763	0.068489	-0.464015	-1.427977	0.069198	-0.436810	-1.128984	1.352257	-0.222930	-1.184653	1.329684	-0.510836	
13	0.0600	-1.291076	0.876208	-0.183973	-1.331554	0.904780	-0.440662	-1.485284	0.913115	-0.235300	-1.508646	0.921478	-0.333197	-1.361888	0.704904	-0.136483	-1.323667	0.711722	-0.155254	-1.360840	0.664111	-0.139624	-1.314431	0.666549	-0.164991	-1.390835	0.376718	-0.182661	-1.388870	0.368566	-0.294485	-1.540371	0.389181	-0.156353	-1.519730	0.340876	-0.171207	-1.586641	0.372638	-0.157029	-1.576040	0.325582	-0.172592	-1.840785	0.303984	-0.199566	-1.818766	0.292154	-0.294120	-1.851776	0.162494	-0.158658	-1.840911	0.143191	-0.275302	-1.790660	0.098702	-0.213201	-1.899206	0.354866	-0.254730	-1.374008	0.743062	-0.511795	-1.325587	0.778153	-0.511426	-1.348018	0.709608	-0.518840	-1.303997	0.743365	-0.520064	-1.156492	0.503244	-0.520310	-1.125584	0.496015	-0.409096	-1.262959	0.392790	-0.533216	-1.209054	0.376527	-0.533426	-1.283390	0.347277	-0.530233	-1.235294	0.330155	-0.533706	-1.347296	0.117236	-0.487048	-1.318826	0.129062	-0.394606	-1.225657	0.043183	-0.521812	-1.201918	0.047949	-0.403901	-1.146892	0.066166	-0.463355	-1.427554	0.069353	-0.435685	-1.114104	1.352803	-0.221631	-1.166272	1.328476	-0.510705	
14	0.0650	-1.274386	0.876761	-0.183631	-1.314659	0.905111	-0.440638	-1.469058	0.912154	-0.234658	-1.492001	0.921385	-0.332692	-1.341106	0.704763	-0.136299	-1.303053	0.712746	-0.154837	-1.338562	0.664120	-0.139289	-1.292104	0.668054	-0.164411	-1.357333	0.376379	-0.182397	-1.355441	0.368512	-0.294673	-1.506934	0.388127	-0.156389	-1.486051	0.339601	-0.170874	-1.553307	0.371439	-0.156894	-1.542431	0.324130	-0.172235	-1.807629	0.301593	-0.199071	-1.785294	0.289609	-0.293675	-1.815099	0.160618	-0.157237	-1.803839	0.140683	-0.273851	-1.752418	0.098023	-0.211566	-1.867409	0.351015	-0.254487	-1.358849	0.742089	-0.510866	-1.309914	0.776424	-0.510776	-1.333475	0.708209	-0.517863	-1.288891	0.741174	-0.519277	-1.145949	0.498309	-0.519117	-1.115312	0.490554	-0.408043	-1.254698	0.390020	-0.532140	-1.201107	0.372479	-0.532256	-1.276214	0.345007	-0.529057	-1.228449	0.326741	-0.532442	-1.346061	0.117148	-0.485877	-1.317403	0.128165	-0.393133	-1.225332	0.042714	-0.521799	-1.201193	0.046372	-0.403775	-1.146048	0.064095	-0.462762	-1.427220	0.069499	-0.434575	-1.099137	1.353441	-0.220233	-1.147613	1.327400	-0.510393	
15	0.0700	-1.257642	0.877414	-0.183244	-1.297456	0.905377	-0.440612	-1.452687	0.911342	-0.234182	-1.475133	0.921365	-0.332354	-1.320200	0.704915	-0.136073	-1.282324	0.714086	-0.154349	-1.316112	0.664470	-0.138911	-1.269620	0.669954	-0.163753	-1.323240	0.376787	-0.182090	-1.321416	0.369229	-0.294780	-1.472836	0.387347	-0.156385	-1.451554	0.338690	-0.170496	-1.519225	0.370350	-0.156710	-1.507920	0.322863	-0.171827	-1.773343	0.298451	-0.198506	-1.750718	0.286438	-0.293165	-1.776926	0.158075	-0.155836	-1.765272	0.137629	-0.272439	-1.712617	0.096901	-0.210004	-1.834570	0.346210	-0.254129	-1.343504	0.741116	-0.509960	-1.294065	0.774642	-0.510113	-1.318795	0.706814	-0.516892	-1.273648	0.738933	-0.518469	-1.135613	0.493303	-0.517822	-1.105304	0.485024	-0.406896	-1.246637	0.387219	-0.531013	-1.193377	0.368418	-0.531018	-1.269216	0.342722	-0.527844	-1.221798	0.323327	-0.531124	-1.344936	0.117121	-0.484733	-1.316080	0.127337	-0.391695	-1.225040	0.042299	-0.521786	-1.200506	0.044962	-0.403673	-1.145242	0.062274	-0.462238	-1.426975	0.069658	-0.433494	-1.084094	1.354187	-0.218734	-1.128688	1.326474	-0.509887	
16	0.0750	-1.240852	0.878173	-0.182806	-1.279941	0.905579	-0.440574	-1.436175	0.910685	-0.233878	-1.458042	0.921419	-0.332188	-1.299197	0.705376	-0.135799	-1.261512	0.715757	-0.153786	-1.293523	0.665181	-0.138485	-1.247017	0.672266	-0.163018	-1.288637	0.377982	-0.181721	-1.286866	0.370754	-0.294783	-1.438132	0.386859	-0.156323	-1.416298	0.338175	-0.170061	-1.484441	0.369385	-0.156462	-1.472548	0.321809	-0.171357	-1.737918	0.294558	-0.197873	-1.715031	0.282652	-0.292592	-1.737250	0.154890	-0.154471	-1.725201	0.134070	-0.271082	-1.671264	0.095385	-0.208532	-1.800661	0.340444	-0.253659	-1.327970	0.740152	-0.509077	-1.278037	0.772813	-0.509433	-1.303975	0.705434	-0.515930	-1.258269	0.736647	-0.517638	-1.125500	0.488250	-0.516427	-1.095585	0.479449	-0.405658	-1.238793	0.384410	-0.529842	-1.185879	0.364369	-0.529718	-1.262409	0.340445	-0.526603	-1.215355	0.319940	-0.529762	-1.343917	0.117167	-0.483629	-1.314854	0.126591	-0.390307	-1.224789	0.041924	-0.521774	-1.199871	0.043707	-0.403592	-1.144482	0.060699	-0.461785	-1.426812	0.069858	-0.432454	-1.068989	1.355054	-0.217136	-1.109513	1.325713	-0.509174	
17	0.0800	-1.224025	0.879044	-0.182310	-1.262115	0.905716	-0.440510	-1.419527	0.910185	-0.233749	-1.440730	0.921553	-0.332198	-1.278126	0.706160	-0.135471	-1.240648	0.717770	-0.153146	-1.270833	0.666268	-0.138005	-1.224339	0.675000	-0.162204	-1.253620	0.379995	-0.181270	-1.251877	0.373117	-0.294659	-1.402893	0.386677	-0.156186	-1.380352	0.338086	-0.169555	-1.449013	0.368560	-0.156135	-1.436377	0.320996	-0.170814	-1.701356	0.289926	-0.197174	-1.678238	0.278272	-0.291954	-1.696080	0.151103	-0.153156	-1.683639	0.130066	-0.269795	-1.628386	0.093537	-0.207163	-1.765664	0.333720	-0.253077	-1.312244	0.739207	-0.508223	-1.261830	0.770944	-0.508732	-1.289014	0.704081	-0.514981	-1.242754	0.734329	-0.516780	-1.115626	0.483178	-0.514940	-1.086173	0.473858	-0.404332	-1.231175	0.381624	-0.528633	-1.178624	0.360367	-0.528366	-1.255800	0.338204	-0.525340	-1.209127	0.316611	-0.528364	-1.342994	0.117301	-0.482577	-1.313719	0.125939	-0.388983	-1.224590	0.041575	-0.521766	-1.199301	0.042594	-0.403527	-1.143782	0.059359	-0.461401	-1.426721	0.070132	-0.431471	-1.053834	1.356056	-0.215439	-1.090107	1.325132	-0.508246	
18	0.0850	-1.207168	0.880028	-0.181749	-1.243981	0.905793	-0.440408	-1.402747	0.909846	-0.233795	-1.423202	0.921769	-0.332383	-1.257019	0.707276	-0.135081	-1.219768	0.720131	-0.152427	-1.248084	0.667739	-0.137468	-1.201634	0.678160	-0.161311	-1.218298	0.382846	-0.180717	-1.216550	0.376332	-0.294385	-1.367201	0.386810	-0.155952	-1.343805	0.338449	-0.168967	-1.413013	0.367886	-0.155713	-1.399477	0.320449	-0.170189	-1.663671	0.284582	-0.196414	-1.640358	0.273331	-0.291252	-1.653447	0.146769	-0.151906	-1.640616	0.125685	-0.268593	-1.584034	0.091429	-0.205910	-1.729570	0.326060	-0.252388	-1.296326	0.738293	-0.507398	-1.245442	0.769048	-0.508006	-1.273913	0.702768	-0.514048	-1.227103	0.731991	-0.515893	-1.106000	0.478121	-0.513368	-1.077080	0.468284	-0.402925	-1.223787	0.378892	-0.527398	-1.171616	0.356446	-0.526973	-1.249388	0.336028	-0.524067	-1.203115	0.313371	-0.526943	-1.342151	0.117538	-0.481592	-1.312665	0.125398	-0.387738	-1.224450	0.041240	-0.521762	-1.198812	0.041607	-0.403473	-1.143155	0.058241	-0.461085	-1.426686	0.070518	-0.430562	-1.038641	1.357205	-0.213647	-1.070495	1.324743	-0.507096	
19	0.0900	-1.190288	0.881130	-0.181120	-1.225547	0.905816	-0.440255	-1.385841	0.909668	-0.234012	-1.405461	0.922071	-0.332739	-1.235908	0.708728	-0.134623	-1.198908	0.722840	-0.151630	-1.225319	0.669599	-0.136867	-1.178950	0.681742	-0.160339	-1.182790	0.386542	-0.180041	-1.180994	0.380405	-0.293940	-1.331147	0.387263	-0.155605	-1.306756	0.339281	-0.168283	-1.376521	0.367374	-0.155181	-1.361937	0.320190	-0.169471	-1.624890	0.278563	-0.195595	-1.601420	0.267873	-0.290486	-1.609395	0.141954	-0.150735	-1.596183	0.121008	-0.267487	-1.538276	0.089144	-0.204784	-1.692378	0.317499	-0.251595	-1.280218	0.737425	-0.506606	-1.228876	0.767140	-0.507251	-1.258670	0.701511	-0.513134	-1.211320	0.729650	-0.514975	-1.096625	0.473115	-0.511720	-1.068310	0.462764	-0.401443	-1.216626	0.376251	-0.526145	-1.164853	0.352646	-0.525552	-1.243170	0.333953	-0.522796	-1.197315	0.310257	-0.525511	-1.341369	0.117898	-0.480688	-1.311675	0.124987	-0.386587	-1.224379	0.040908	-0.521766	-1.198423	0.040734	-0.403424	-1.142617	0.057327	-0.460834	-1.426684	0.071063	-0.429742	-1.023424	1.358511	-0.211762	-1.050703	1.324560	-0.505720	
20	0.0950	-1.173391	0.882350	-0.180419	-1.206820	0.905793	-0.440038	-1.368813	0.909649	-0.234393	-1.387516	0.922460	-0.333259	-1.214825	0.710516	-0.134091	-1.178101	0.725892	-0.150753	-1.202582	0.671846	-0.136199	-1.156335	0.685738	-0.159288	-1.147223	0.391074	-0.179224	-1.145328	0.385326	-0.293303	-1.294831	0.388033	-0.155123	-1.269312	0.340594	-0.167491	-1.339626	0.367029	-0.154524	-1.323853	0.320239	-0.168651	-1.585048	0.271920	-0.194722	-1.561466	0.261950	-0.289657	-1.563987	0.136737	-0.149653	-1.550406	0.116124	-0.266488	-1.491201	0.086773	-0.203791	-1.654100	0.308088	-0.250703	-1.263919	0.736618	-0.505847	-1.212134	0.765235	-0.506463	-1.243286	0.700327	-0.512242	-1.195405	0.727326	-0.514024	-1.087496	0.468200	-0.510006	-1.059862	0.457339	-0.399895	-1.209681	0.373739	-0.524888	-1.158325	0.349008	-0.524114	-1.237131	0.332013	-0.521538	-1.191715	0.307309	-0.524083	-1.340619	0.118403	-0.479882	-1.310731	0.124726	-0.385547	-1.224384	0.040570	-0.521778	-1.198149	0.039959	-0.403377	-1.142184	0.056597	-0.460644	-1.426687	0.071817	-0.429032	-1.008192	1.359983	-0.209790	-1.030762	1.324590	-0.504117	
21	0.1000	-1.156480	0.883690	-0.179642	-1.187815	0.905736	-0.439746	-1.351667	0.909789	-0.234928	-1.369372	0.922941	-0.333931	-1.193801	0.712636	-0.133482	-1.157382	0.729277	-0.149796	-1.179917	0.674473	-0.135460	-1.133837	0.690130	-0.158158	-1.111727	0.396424	-0.178248	-1.109673	0.391072	-0.292455	-1.258354	0.389113	-0.154491	-1.231590	0.342392	-0.166581	-1.302424	0.366857	-0.153728	-1.285330	0.320610	-0.167721	-1.544191	0.264713	-0.193797	-1.520546	0.255623	-0.288765	-1.517299	0.131206	-0.148670	-1.503366	0.111131	-0.265603	-1.442911	0.084411	-0.202936	-1.614753	0.297890	-0.249717	-1.247433	0.735889	-0.505120	-1.195218	0.763354	-0.505639	-1.227760	0.699235	-0.511373	-1.179362	0.725039	-0.513038	-1.078603	0.463417	-0.508238	-1.051723	0.452052	-0.398287	-1.202932	0.371397	-0.523638	-1.152013	0.345574	-0.522673	-1.231251	0.330247	-0.520308	-1.186293	0.304567	-0.522671	-1.339871	0.119077	-0.479188	-1.309807	0.124638	-0.384634	-1.224473	0.040222	-0.521801	-1.198008	0.039273	-0.403326	-1.141875	0.056031	-0.460509	-1.426661	0.072833	-0.428449	-0.992953	1.361627	-0.207736	-1.010702	1.324843	-0.502287	
22	0.1050	-1.139556	0.885149	-0.178789	-1.168545	0.905658	-0.439367	-1.334407	0.910084	-0.235606	-1.351037	0.923516	-0.334743	-1.172865	0.715077	-0.132792	-1.136782	0.732979	-0.148761	-1.157366	0.677466	-0.134647	-1.111498	0.694896	-0.156951	-1.076435	0.402555	-0.177097	-1.074153	0.397607	-0.291382	-1.221824	0.390489	-0.153692	-1.193711	0.344673	-0.165542	-1.265012	0.366856	-0.152780	-1.246479	0.321313	-0.166673	-1.502377	0.257013	-0.192824	-1.478721	0.248959	-0.287810	-1.469421	0.125455	-0.147793	-1.455162	0.106128	-0.264836	-1.393525	0.082156	-0.202221	-1.574367	0.286981	-0.248644	-1.230763	0.735254	-0.504427	-1.178132	0.761518	-0.504776	-1.212090	0.698253	-0.510529	-1.163192	0.722813	-0.512015	-1.069925	0.458811	-0.506427	-1.043873	0.446948	-0.396629	-1.196353	0.369266	-0.522410	-1.145891	0.342387	-0.521243	-1.225503	0.328694	-0.519117	-1.181024	0.302073	-0.521290	-1.339086	0.119947	-0.478621	-1.308875	0.124750	-0.383862	-1.224651	0.039863	-0.521838	-1.198015	0.038667	-0.403268	-1.141706	0.055604	-0.460424	-1.426565	0.074171	-0.428011	-0.977716	1.363446	-0.205605	-0.990554	1.325323	-0.500235	
23	0.1100	-1.122620	0.886727	-0.177860	-1.149028	0.905577	-0.438892	-1.317036	0.910531	-0.236410	-1.332519	0.924187	-0.335677	-1.152044	0.717823	-0.132017	-1.116328	0.736978	-0.147649	-1.134968	0.680805	-0.133757	-1.089359	0.700005	-0.155667	-1.041476	0.409420	-0.175761	-1.038890	0.404881	-0.290073	-1.185345	0.392142	-0.152713	-1.155797	0.347426	-0.164367	-1.227491	0.367024	-0.151670	-1.207415	0.322351	-0.165500	-1.459669	0.248898	-0.191806	-1.436059	0.242032	-0.286791	-1.420456	0.119585	-0.147024	-1.405904	0.101218	-0.264189	-1.343174	0.080107	-0.201641	-1.532979	0.275449	-0.247488	-1.213910	0.734732	-0.503764	-1.160881	0.759750	-0.503873	-1.196274	0.697401	-0.509709	-1.146895	0.720674	-0.510956	-1.061437	0.454423	-0.504585	-1.036283	0.442071	-0.394929	-1.189908	0.367385	-0.521217	-1.139925	0.339488	-0.519835	-1.219850	0.327393	-0.517981	-1.175871	0.299865	-0.519954	-1.338222	0.121043	-0.478195	-1.307898	0.125089	-0.383245	-1.224921	0.039499	-0.521892	-1.198185	0.038135	-0.403199	-1.141694	0.055292	-0.460381	-1.426352	0.075891	-0.427736	-0.962483	1.365440	-0.203404	-0.970350	1.326033	-0.497968	
24	0.1150	-1.105669	0.888422	-0.176857	-1.129281	0.905508	-0.438312	-1.299555	0.911127	-0.237323	-1.313826	0.924957	-0.336714	-1.131361	0.720857	-0.131157	-1.096042	0.741248	-0.146459	-1.112758	0.684465	-0.132789	-1.067456	0.705421	-0.154304	-1.006974	0.416959	-0.174228	-1.004004	0.412834	-0.288520	-1.149021	0.394048	-0.151542	-1.117969	0.350630	-0.163049	-1.189959	0.367354	-0.150388	-1.168253	0.323725	-0.164197	-1.416141	0.240452	-0.190743	-1.392638	0.234916	-0.285707	-1.370518	0.113698	-0.146363	-1.355715	0.096499	-0.263659	-1.292000	0.078359	-0.201190	-1.490638	0.263391	-0.246253	-1.196878	0.734341	-0.503130	-1.143467	0.758074	-0.502928	-1.180310	0.696698	-0.508914	-1.130472	0.718646	-0.509858	-1.053101	0.450295	-0.502724	-1.028913	0.437465	-0.393196	-1.183553	0.365795	-0.520070	-1.134071	0.336918	-0.518461	-1.214249	0.326380	-0.516911	-1.170790	0.297985	-0.518675	-1.337230	0.122393	-0.477922	-1.306839	0.125682	-0.382796	-1.225282	0.039139	-0.521963	-1.198527	0.037679	-0.403118	-1.141853	0.055071	-0.460373	-1.425971	0.078055	-0.427639	-0.947256	1.367608	-0.201138	-0.950122	1.326974	-0.495494	
25	0.1200	-1.088698	0.890230	-0.175783	-1.109324	0.905472	-0.437619	-1.281965	0.911866	-0.238326	-1.294964	0.925830	-0.337833	-1.110836	0.724152	-0.130210	-1.075945	0.745758	-0.145195	-1.090768	0.688416	-0.131742	-1.045818	0.711103	-0.152864	-0.973044	0.425098	-0.172495	-0.969605	0.421392	-0.286719	-1.112951	0.396177	-0.150174	-1.080347	0.354261	-0.161585	-1.152516	0.367836	-0.148930	-1.129110	0.325426	-0.162761	-1.371874	0.231763	-0.189637	-1.348545	0.227691	-0.284557	-1.319733	0.107895	-0.145805	-1.304729	0.092070	-0.263238	-1.240153	0.077000	-0.200856	-1.447403	0.250911	-0.244944	-1.179668	0.734097	-0.502522	-1.125895	0.756516	-0.501939	-1.164193	0.696162	-0.508142	-1.113922	0.716755	-0.508721	-1.044875	0.446467	-0.500855	-1.021715	0.433170	-0.391436	-1.177235	0.364531	-0.518984	-1.128279	0.334712	-0.517133	-1.208648	0.325692	-0.515919	-1.165733	0.296467	-0.517465	-1.336057	0.124029	-0.477812	-1.305655	0.126559	-0.382526	-1.225728	0.038798	-0.522055	-1.199048	0.037301	-0.403025	-1.142193	0.054919	-0.460393	-1.425364	0.080723	-0.427735	-0.932034	1.369943	-0.198814	-0.929898	1.328143	-0.492826	
26	0.1250	-1.071702	0.892148	-0.174643	-1.089177	0.905490	-0.436810	-1.264264	0.912743	-0.239398	-1.275942	0.926809	-0.339011	-1.090485	0.727682	-0.129180	-1.056048	0.750473	-0.143857	-1.069023	0.692622	-0.130615	-1.024466	0.717006	-0.151346	-0.939792	0.433753	-0.170560	-0.935796	0.430472	-0.284672	-1.077229	0.398497	-0.148604	-1.043045	0.358282	-0.159974	-1.115256	0.368458	-0.147292	-1.090098	0.327443	-0.161191	-1.326959	0.222924	-0.188486	-1.303871	0.220435	-0.283338	-1.268237	0.102276	-0.145342	-1.253091	0.088017	-0.262915	-1.187793	0.076110	-0.200626	-1.403345	0.238119	-0.243565	-1.162284	0.734016	-0.501936	-1.108169	0.755098	-0.500906	-1.147919	0.695811	-0.507392	-1.097243	0.715026	-0.507546	-1.036705	0.442972	-0.498989	-1.014635	0.429224	-0.389657	-1.170897	0.363625	-0.517967	-1.122491	0.332901	-0.515858	-1.202991	0.325361	-0.515016	-1.160641	0.295345	-0.516334	-1.334648	0.125982	-0.477874	-1.304297	0.127749	-0.382442	-1.226250	0.038499	-0.522171	-1.199750	0.037011	-0.402920	-1.142720	0.054814	-0.460434	-1.424469	0.083955	-0.428035	-0.916812	1.372437	-0.196437	-0.909708	1.329536	-0.489978	
27	0.1300	-1.054673	0.894172	-0.173443	-1.068862	0.905581	-0.435881	-1.246453	0.913754	-0.240519	-1.256767	0.927895	-0.340226	-1.070319	0.731414	-0.128066	-1.036361	0.755355	-0.142448	-1.047545	0.697044	-0.129410	-1.003417	0.723078	-0.149750	-0.907308	0.442833	-0.168427	-0.902669	0.439982	-0.282386	-1.041941	0.400971	-0.146833	-1.006169	0.362654	-0.158216	-1.078269	0.369204	-0.145476	-1.051329	0.329757	-0.159486	-1.281495	0.214026	-0.187290	-1.258720	0.213224	-0.282049	-1.216176	0.096933	-0.144963	-1.200953	0.084421	-0.262677	-1.135086	0.075757	-0.200479	-1.358547	0.225129	-0.242118	-1.144726	0.734114	-0.501368	-1.090292	0.753846	-0.499829	-1.131481	0.695660	-0.506661	-1.080433	0.713483	-0.506333	-1.028535	0.439842	-0.497135	-1.007609	0.425658	-0.387864	-1.164473	0.363107	-0.517031	-1.116644	0.331512	-0.514646	-1.197215	0.325414	-0.514211	-1.155453	0.294646	-0.515290	-1.332944	0.128282	-0.478113	-1.302715	0.129281	-0.382549	-1.226831	0.038266	-0.522310	-1.200625	0.036824	-0.402804	-1.143434	0.054737	-0.460489	-1.423222	0.087806	-0.428548	-0.901585	1.375078	-0.194012	-0.889578	1.331145	-0.486964	
28	0.1350	-1.037603	0.896295	-0.172188	-1.048402	0.905765	-0.434831	-1.228530	0.914892	-0.241666	-1.237448	0.929091	-0.341454	-1.050345	0.735313	-0.126873	-1.016885	0.760363	-0.140969	-1.026348	0.701638	-0.128127	-0.982680	0.729267	-0.148074	-0.875672	0.452238	-0.166102	-0.870303	0.449823	-0.279871	-1.007166	0.403561	-0.144865	-0.969819	0.367330	-0.156316	-1.041641	0.370058	-0.143484	-1.012906	0.332344	-0.157648	-1.235592	0.205159	-0.186047	-1.213198	0.206131	-0.280687	-1.163705	0.091949	-0.144652	-1.148478	0.081348	-0.262505	-1.082200	0.075996	-0.200394	-1.313104	0.212057	-0.240607	-1.126997	0.734401	-0.500812	-1.072266	0.752779	-0.498708	-1.114873	0.695720	-0.505945	-1.063485	0.712148	-0.505082	-1.020297	0.437100	-0.495302	-1.000565	0.422498	-0.386063	-1.157893	0.362998	-0.516183	-1.110669	0.330566	-0.513500	-1.191252	0.325874	-0.513509	-1.150102	0.294393	-0.514338	-1.330882	0.130956	-0.478532	-1.300856	0.131180	-0.382850	-1.227447	0.038134	-0.522475	-1.201659	0.036757	-0.402682	-1.144326	0.054671	-0.460551	-1.421554	0.092324	-0.429277	-0.886344	1.377852	-0.191545	-0.869531	1.332962	-0.483803	
29	0.1400	-1.020482	0.898512	-0.170886	-1.027817	0.906063	-0.433659	-1.210492	0.916152	-0.242820	-1.217992	0.930400	-0.342671	-1.030568	0.739342	-0.125605	-0.997619	0.765454	-0.139423	-1.005441	0.706360	-0.126770	-0.962256	0.735517	-0.146318	-0.844944	0.461863	-0.163599	-0.838764	0.459889	-0.277143	-0.972975	0.406228	-0.142709	-0.934084	0.372257	-0.154280	-1.005452	0.371000	-0.141324	-0.974930	0.335176	-0.155683	-1.189365	0.196410	-0.184753	-1.167423	0.199224	-0.279250	-1.110989	0.087400	-0.144391	-1.095835	0.078851	-0.262378	-1.029312	0.076865	-0.200347	-1.267127	0.199019	-0.239032	-1.109095	0.734886	-0.500265	-1.054095	0.751917	-0.497545	-1.098086	0.696000	-0.505241	-1.046396	0.711038	-0.503793	-1.011923	0.434764	-0.493498	-0.993429	0.419763	-0.384257	-1.151081	0.363314	-0.515428	-1.104492	0.330074	-0.512426	-1.185030	0.326757	-0.512914	-1.144515	0.294599	-0.513483	-1.328399	0.134029	-0.479130	-1.298663	0.133472	-0.383343	-1.228067	0.038136	-0.522667	-1.202828	0.036833	-0.402559	-1.145376	0.054605	-0.460617	-1.419397	0.097552	-0.430223	-0.871080	1.380743	-0.189039	-0.849589	1.334975	-0.480512	
30	0.1450	-1.003302	0.900814	-0.169544	-1.007132	0.906492	-0.432370	-1.192339	0.917525	-0.243959	-1.198409	0.931821	-0.343857	-1.010984	0.743462	-0.124267	-0.978555	0.770582	-0.137811	-0.984827	0.711160	-0.125340	-0.942140	0.741772	-0.144483	-0.815171	0.471601	-0.160933	-0.808104	0.470073	-0.274223	-0.939431	0.408930	-0.140378	-0.899045	0.377380	-0.152117	-0.969777	0.372010	-0.139007	-0.937492	0.338220	-0.153597	-1.142943	0.187862	-0.183405	-1.121519	0.192566	-0.277736	-1.058201	0.083345	-0.144157	-1.043198	0.076966	-0.262272	-0.976598	0.078383	-0.200309	-1.220739	0.186127	-0.237396	-1.091023	0.735575	-0.499721	-1.035779	0.751276	-0.496341	-1.081113	0.696505	-0.504545	-1.029158	0.710169	-0.502468	-1.003336	0.432845	-0.491728	-0.986120	0.417465	-0.382448	-1.143960	0.364063	-0.514769	-1.098035	0.330043	-0.511423	-1.178474	0.328072	-0.512429	-1.138618	0.295274	-0.512725	-1.325432	0.137525	-0.479902	-1.296076	0.136176	-0.384023	-1.228651	0.038313	-0.522886	-1.204097	0.037078	-0.402441	-1.146557	0.054528	-0.460681	-1.416681	0.103520	-0.431382	-0.855780	1.383731	-0.186498	-0.829772	1.337172	-0.477111	
31	0.1500	-0.986051	0.903194	-0.168169	-0.986368	0.907067	-0.430965	-1.174070	0.919005	-0.245064	-1.178708	0.933354	-0.344988	-0.991590	0.747632	-0.122866	-0.959680	0.775703	-0.136138	-0.964504	0.715992	-0.123842	-0.922320	0.747975	-0.142569	-0.786381	0.481342	-0.158125	-0.778360	0.480266	-0.271134	-0.906584	0.411629	-0.137890	-0.864770	0.382638	-0.149840	-0.934682	0.373065	-0.136548	-0.900679	0.341438	-0.151398	-1.096461	0.179591	-0.182000	-1.075618	0.186209	-0.276144	-1.005524	0.079831	-0.143927	-0.990749	0.075712	-0.262162	-0.924238	0.080552	-0.200251	-1.174076	0.173491	-0.235702	-1.072779	0.736471	-0.499175	-1.017320	0.750868	-0.495097	-1.063945	0.697237	-0.503853	-1.011763	0.709553	-0.501107	-0.994458	0.431344	-0.489996	-0.978553	0.415607	-0.380640	-1.136451	0.365245	-0.514207	-1.091221	0.330469	-0.510493	-1.171510	0.329823	-0.512052	-1.132336	0.296418	-0.512062	-1.321917	0.141458	-0.480840	-1.293035	0.139308	-0.384880	-1.229147	0.038706	-0.523132	-1.205419	0.037520	-0.402334	-1.147825	0.054437	-0.460741	-1.413335	0.110250	-0.432746	-0.840434	1.386796	-0.183925	-0.810097	1.339536	-0.473620	
32	0.1550	-0.968722	0.905642	-0.166769	-0.965546	0.907802	-0.429452	-1.155684	0.920582	-0.246117	-1.158899	0.934996	-0.346048	-0.972376	0.751811	-0.121407	-0.940979	0.780771	-0.134406	-0.944464	0.720805	-0.122279	-0.902780	0.754069	-0.140576	-0.758588	0.490978	-0.155198	-0.749555	0.490358	-0.267903	-0.874481	0.414285	-0.135265	-0.831317	0.387969	-0.147462	-0.900231	0.374146	-0.133964	-0.864568	0.344789	-0.149099	-1.050064	0.171662	-0.180536	-1.029857	0.180199	-0.274474	-0.953144	0.076887	-0.143676	-0.938671	0.075090	-0.262021	-0.872411	0.083353	-0.200145	-1.127289	0.161214	-0.233951	-1.054363	0.737570	-0.498621	-0.998718	0.750702	-0.493816	-1.046571	0.698191	-0.503161	-0.994203	0.709194	-0.499711	-0.985209	0.430258	-0.488308	-0.970642	0.414182	-0.378833	-1.128473	0.366855	-0.513739	-1.083968	0.331343	-0.509631	-1.164060	0.332005	-0.511777	-1.125592	0.298022	-0.511490	-1.317789	0.145841	-0.481931	-1.289479	0.142880	-0.385902	-1.229495	0.039359	-0.523404	-1.206735	0.038190	-0.402247	-1.149126	0.054330	-0.460796	-1.409292	0.117749	-0.434298	-0.825026	1.389915	-0.181323	-0.790578	1.342053	-0.470059	
33	0.1600	-0.951305	0.908147	-0.165350	-0.944689	0.908704	-0.427837	-1.137181	0.922247	-0.247101	-1.138992	0.936744	-0.347018	-0.953329	0.755958	-0.119897	-0.922431	0.785741	-0.132618	-0.924694	0.725551	-0.120657	-0.883495	0.760002	-0.138507	-0.731787	0.500406	-0.152180	-0.721698	0.500243	-0.264562	-0.843156	0.416862	-0.132526	-0.798736	0.393311	-0.145000	-0.866479	0.375229	-0.131275	-0.829229	0.348229	-0.146711	-1.003905	0.164135	-0.179009	-0.984380	0.174571	-0.272726	-0.901256	0.074528	-0.143378	-0.887151	0.075084	-0.261821	-0.821295	0.086747	-0.199959	-1.080541	0.149391	-0.232148	-1.035774	0.738866	-0.498055	-0.979974	0.750780	-0.492500	-1.028982	0.699360	-0.502463	-0.976466	0.709096	-0.498283	-0.975507	0.429572	-0.486663	-0.962299	0.413180	-0.377027	-1.119947	0.368878	-0.513360	-1.076198	0.332644	-0.508835	-1.156047	0.334604	-0.511599	-1.118308	0.300072	-0.511003	-1.312985	0.150678	-0.483161	-1.285342	0.146894	-0.387072	-1.229624	0.040311	-0.523701	-1.207972	0.039116	-0.402188	-1.150388	0.054212	-0.460846	-1.404485	0.126011	-0.436022	-0.809545	1.393065	-0.178692	-0.771226	1.344703	-0.466449	
34	0.1650	-0.933791	0.910698	-0.163919	-0.923817	0.909780	-0.426127	-1.118563	0.923987	-0.248003	-1.119000	0.938591	-0.347884	-0.934434	0.760034	-0.118345	-0.904012	0.790570	-0.130778	-0.905175	0.730185	-0.118981	-0.864439	0.765722	-0.136365	-0.705962	0.509526	-0.149099	-0.694785	0.509819	-0.261142	-0.812637	0.419325	-0.129701	-0.767061	0.398602	-0.142472	-0.833476	0.376293	-0.128505	-0.794726	0.351714	-0.144251	-0.958144	0.157057	-0.177418	-0.939337	0.169353	-0.270904	-0.850058	0.072752	-0.143007	-0.836379	0.075658	-0.261537	-0.771069	0.090678	-0.199664	-1.034008	0.138107	-0.230297	-1.017008	0.740348	-0.497472	-0.961085	0.751101	-0.491151	-1.011168	0.700730	-0.501756	-0.958543	0.709255	-0.496822	-0.965269	0.429268	-0.485064	-0.953435	0.412578	-0.375223	-1.110793	0.371290	-0.513063	-1.067830	0.334349	-0.508096	-1.147398	0.337600	-0.511507	-1.110409	0.302543	-0.510592	-1.307444	0.155966	-0.484508	-1.280561	0.151349	-0.388370	-1.229451	0.041604	-0.524022	-1.209041	0.040325	-0.402166	-1.151527	0.054091	-0.460891	-1.398852	0.135016	-0.437892	-0.793976	1.396222	-0.176035	-0.752051	1.347470	-0.462808	
35	0.1700	-0.916174	0.913282	-0.162480	-0.902948	0.911031	-0.424332	-1.099832	0.925791	-0.248808	-1.098933	0.940526	-0.348633	-0.915673	0.764001	-0.116756	-0.885697	0.795219	-0.128890	-0.885884	0.734662	-0.117257	-0.845581	0.771180	-0.134154	-0.681080	0.518245	-0.145986	-0.668798	0.518991	-0.257678	-0.782944	0.421642	-0.126818	-0.736321	0.403778	-0.139898	-0.801266	0.377318	-0.125679	-0.761112	0.355194	-0.141735	-0.912948	0.150465	-0.175764	-0.894882	0.164558	-0.269013	-0.799751	0.071538	-0.142537	-0.786542	0.076760	-0.261141	-0.721905	0.095068	-0.199232	-0.987874	0.127440	-0.228403	-0.998065	0.742002	-0.496868	-0.942049	0.751660	-0.489770	-0.993117	0.702284	-0.501035	-0.940421	0.709664	-0.495331	-0.954416	0.429319	-0.483510	-0.943965	0.412349	-0.373420	-1.100935	0.374063	-0.512838	-1.058787	0.336423	-0.507408	-1.138038	0.340966	-0.511488	-1.101821	0.305406	-0.510245	-1.301106	0.161696	-0.485951	-1.275070	0.156235	-0.389772	-1.228882	0.043273	-0.524362	-1.209842	0.041844	-0.402189	-1.152440	0.053978	-0.460937	-1.392332	0.144728	-0.439880	-0.778306	1.399361	-0.173352	-0.733058	1.350334	-0.459156	
36	0.1750	-0.898445	0.915886	-0.161037	-0.882100	0.912453	-0.422461	-1.080990	0.927643	-0.249506	-1.078805	0.942539	-0.349255	-0.897023	0.767822	-0.115139	-0.867457	0.799650	-0.126959	-0.866797	0.738941	-0.115490	-0.826886	0.776334	-0.131882	-0.657100	0.526480	-0.142872	-0.643710	0.527670	-0.254204	-0.754090	0.423786	-0.123906	-0.706532	0.408780	-0.137300	-0.769887	0.378282	-0.122823	-0.728434	0.358624	-0.139182	-0.868486	0.144383	-0.174048	-0.851171	0.160194	-0.267058	-0.750536	0.070852	-0.141947	-0.737824	0.078323	-0.260610	-0.673972	0.099826	-0.198639	-0.942331	0.117452	-0.226474	-0.978940	0.743807	-0.496238	-0.922864	0.752447	-0.488361	-0.974818	0.704001	-0.500296	-0.922087	0.710310	-0.493811	-0.942869	0.429693	-0.482000	-0.933801	0.412459	-0.371619	-1.090302	0.377162	-0.512672	-1.048993	0.338828	-0.506762	-1.127899	0.344669	-0.511527	-1.092470	0.308622	-0.509949	-1.293913	0.167849	-0.487464	-1.268803	0.161533	-0.391253	-1.227814	0.045348	-0.524721	-1.210259	0.043691	-0.402264	-1.153011	0.053890	-0.460985	-1.384869	0.155093	-0.441952	-0.762522	1.402458	-0.170643	-0.714251	1.353275	-0.455511	
37	0.1800	-0.880599	0.918496	-0.159593	-0.861288	0.914040	-0.420525	-1.062040	0.929527	-0.250088	-1.058626	0.944612	-0.349742	-0.878462	0.771464	-0.113499	-0.849262	0.803829	-0.124991	-0.847883	0.742985	-0.113688	-0.808317	0.781144	-0.129554	-0.633966	0.534155	-0.139790	-0.619483	0.535779	-0.250754	-0.726082	0.425733	-0.120996	-0.677702	0.413551	-0.134698	-0.739374	0.379168	-0.119965	-0.696731	0.361954	-0.136611	-0.824931	0.138828	-0.172273	-0.808360	0.156255	-0.265049	-0.702612	0.070644	-0.141215	-0.690407	0.080265	-0.259925	-0.627432	0.104847	-0.197861	-0.897576	0.108196	-0.224520	-0.959630	0.745742	-0.495578	-0.903526	0.753446	-0.486926	-0.956261	0.705856	-0.499534	-0.903530	0.711177	-0.492264	-0.930554	0.430354	-0.480532	-0.922862	0.412870	-0.369818	-1.078824	0.380544	-0.512549	-1.038377	0.341521	-0.506148	-1.116913	0.348667	-0.511608	-1.082287	0.312149	-0.509692	-1.285808	0.174397	-0.489017	-1.261693	0.167217	-0.392783	-1.226131	0.047853	-0.525094	-1.210162	0.045881	-0.402399	-1.153106	0.053842	-0.461041	-1.376410	0.166045	-0.444073	-0.746608	1.405490	-0.167908	-0.695632	1.356273	-0.451889	
38	0.1850	-0.862627	0.921096	-0.158150	-0.840525	0.915781	-0.418534	-1.042987	0.931427	-0.250545	-1.038410	0.946730	-0.350089	-0.859962	0.774896	-0.111844	-0.831081	0.807726	-0.122991	-0.829110	0.746760	-0.111857	-0.789836	0.785579	-0.127182	-0.611619	0.541207	-0.136771	-0.596072	0.543247	-0.247363	-0.698919	0.427460	-0.118120	-0.649831	0.418037	-0.132116	-0.709753	0.379955	-0.117133	-0.666035	0.365139	-0.134043	-0.782454	0.133801	-0.170445	-0.766605	0.152729	-0.262996	-0.656174	0.070851	-0.140324	-0.644466	0.082496	-0.259067	-0.582438	0.110011	-0.196881	-0.853808	0.099713	-0.222550	-0.940129	0.747780	-0.494885	-0.884028	0.754639	-0.485466	-0.937434	0.707821	-0.498746	-0.884734	0.712244	-0.490691	-0.917398	0.431263	-0.479103	-0.911067	0.413540	-0.368018	-1.066435	0.384165	-0.512455	-1.026870	0.344455	-0.505555	-1.105017	0.352918	-0.511712	-1.071207	0.315939	-0.509457	-1.276735	0.181304	-0.490581	-1.253672	0.173252	-0.394331	-1.223709	0.050803	-0.525476	-1.209412	0.048421	-0.402598	-1.152580	0.053857	-0.461110	-1.366909	0.177501	-0.446203	-0.730553	1.408434	-0.165148	-0.677197	1.359308	-0.448306	
39	0.1900	-0.844525	0.923671	-0.156708	-0.819823	0.917659	-0.416497	-1.023834	0.933322	-0.250871	-1.018166	0.948870	-0.350291	-0.841498	0.778093	-0.110179	-0.812882	0.811315	-0.120965	-0.810443	0.750239	-0.110004	-0.771403	0.789610	-0.124774	-0.589990	0.547581	-0.133844	-0.573425	0.550018	-0.244064	-0.672597	0.428951	-0.115305	-0.622909	0.422190	-0.129575	-0.681047	0.380629	-0.114355	-0.636369	0.368132	-0.131501	-0.741224	0.129297	-0.168571	-0.726058	0.149595	-0.260912	-0.611407	0.071402	-0.139261	-0.600164	0.084913	-0.258024	-0.539136	0.115194	-0.195687	-0.811225	0.092028	-0.220578	-0.920432	0.749892	-0.494155	-0.864364	0.756005	-0.483984	-0.918325	0.709865	-0.497928	-0.865685	0.713489	-0.489093	-0.903336	0.432379	-0.477711	-0.898342	0.414426	-0.366218	-1.053078	0.387976	-0.512370	-1.014406	0.347579	-0.504971	-1.092152	0.357371	-0.511818	-1.059165	0.319941	-0.509230	-1.266641	0.188526	-0.492124	-1.244673	0.179594	-0.395865	-1.220416	0.054202	-0.525864	-1.207854	0.051309	-0.402865	-1.151273	0.053954	-0.461199	-1.356319	0.189362	-0.448300	-0.714342	1.411268	-0.162362	-0.658943	1.362361	-0.444776	
40	0.1950	-0.826284	0.926205	-0.155266	-0.799187	0.919656	-0.414427	-1.004583	0.935195	-0.251061	-0.997906	0.951008	-0.350346	-0.823039	0.781032	-0.108510	-0.794632	0.814577	-0.118922	-0.791845	0.753397	-0.108135	-0.752980	0.793215	-0.122345	-0.569006	0.553238	-0.131038	-0.551485	0.556044	-0.240885	-0.647106	0.430193	-0.112581	-0.596923	0.425966	-0.127099	-0.653273	0.381173	-0.111658	-0.607749	0.370891	-0.129005	-0.701405	0.125299	-0.166662	-0.686867	0.146823	-0.258812	-0.568487	0.072215	-0.138016	-0.557657	0.087413	-0.256788	-0.497657	0.120266	-0.194269	-0.770021	0.085157	-0.218616	-0.900532	0.752048	-0.493385	-0.844526	0.757517	-0.482480	-0.898921	0.711957	-0.497077	-0.846368	0.714886	-0.487474	-0.888307	0.433661	-0.476351	-0.884615	0.415484	-0.364419	-1.038696	0.391926	-0.512275	-1.000926	0.350843	-0.504386	-1.078263	0.361975	-0.511905	-1.046103	0.324101	-0.508994	-1.255474	0.196010	-0.493613	-1.234626	0.186192	-0.397354	-1.216113	0.058045	-0.526251	-1.205329	0.054536	-0.403201	-1.149016	0.054155	-0.461313	-1.344601	0.201520	-0.450322	-0.697961	1.413973	-0.159550	-0.640862	1.365411	-0.441311	
41	0.2000	-0.807897	0.928682	-0.153822	-0.778624	0.921749	-0.412333	-0.985237	0.937023	-0.251108	-0.977637	0.953120	-0.350254	-0.804555	0.783695	-0.106841	-0.776300	0.817495	-0.116867	-0.773279	0.756219	-0.106258	-0.734526	0.796381	-0.119906	-0.548595	0.558145	-0.128378	-0.530192	0.561291	-0.237856	-0.622433	0.431176	-0.109974	-0.571850	0.429325	-0.124706	-0.626443	0.381574	-0.109067	-0.580186	0.373376	-0.126577	-0.663150	0.121783	-0.164729	-0.649169	0.144381	-0.256712	-0.527577	0.073204	-0.136586	-0.517085	0.089889	-0.255356	-0.458119	0.125097	-0.192627	-0.730380	0.079102	-0.216681	-0.880420	0.754217	-0.492571	-0.824506	0.759152	-0.480956	-0.879209	0.714064	-0.496190	-0.826769	0.716410	-0.485834	-0.872254	0.435070	-0.475019	-0.869822	0.416671	-0.362623	-1.023242	0.395964	-0.512152	-0.986372	0.354197	-0.503789	-1.063302	0.366678	-0.511954	-1.031964	0.328365	-0.508733	-1.243181	0.203695	-0.495016	-1.223464	0.192987	-0.398764	-1.210654	0.062315	-0.526632	-1.201667	0.058081	-0.403604	-1.145630	0.054481	-0.461457	-1.331716	0.213853	-0.452225	-0.681395	1.416531	-0.156714	-0.622944	1.368440	-0.437922	
42	0.2050	-0.789356	0.931085	-0.152373	-0.758135	0.923914	-0.410224	-0.965798	0.938787	-0.251011	-0.957367	0.955177	-0.350014	-0.786017	0.786067	-0.105176	-0.757853	0.820057	-0.114810	-0.754707	0.758689	-0.104380	-0.716004	0.799096	-0.117473	-0.528681	0.562285	-0.125886	-0.509485	0.565735	-0.234999	-0.598561	0.431892	-0.107506	-0.547666	0.432236	-0.122418	-0.600563	0.381819	-0.106606	-0.553681	0.375551	-0.124238	-0.626603	0.118718	-0.162784	-0.613093	0.142231	-0.254630	-0.488821	0.074280	-0.134974	-0.478573	0.092234	-0.253732	-0.420627	0.129560	-0.190763	-0.692475	0.073853	-0.214787	-0.860089	0.756366	-0.491710	-0.804294	0.760880	-0.479414	-0.859178	0.716154	-0.495262	-0.806871	0.718032	-0.484175	-0.855131	0.436570	-0.473713	-0.853902	0.417950	-0.360829	-1.006671	0.400039	-0.511979	-0.970694	0.357592	-0.503169	-1.047222	0.371426	-0.511942	-1.016698	0.332680	-0.508433	-1.229713	0.211514	-0.496300	-1.211117	0.199913	-0.400064	-1.203893	0.066985	-0.527001	-1.196696	0.061914	-0.404070	-1.140933	0.054951	-0.461636	-1.317628	0.226229	-0.453968	-0.664632	1.418925	-0.153854	-0.605175	1.371428	-0.434618	
43	0.2100	-0.770652	0.933398	-0.150917	-0.737717	0.926124	-0.408111	-0.946266	0.940466	-0.250764	-0.937100	0.957150	-0.349627	-0.767392	0.788140	-0.103519	-0.739261	0.822258	-0.112758	-0.736092	0.760802	-0.102507	-0.697377	0.801359	-0.115061	-0.509191	0.565649	-0.123580	-0.489301	0.569364	-0.232337	-0.575467	0.432340	-0.105199	-0.524338	0.434672	-0.120251	-0.575634	0.381898	-0.104295	-0.528231	0.377382	-0.122007	-0.591891	0.116069	-0.160845	-0.578755	0.140331	-0.252585	-0.452345	0.075355	-0.133185	-0.442231	0.094350	-0.251922	-0.385267	0.133533	-0.188689	-0.656463	0.069392	-0.212951	-0.839528	0.758465	-0.490799	-0.783879	0.762675	-0.477854	-0.838814	0.718196	-0.494292	-0.786660	0.719727	-0.482499	-0.836894	0.438129	-0.472427	-0.836804	0.419285	-0.359040	-0.988946	0.404104	-0.511739	-0.953845	0.360983	-0.502516	-1.029985	0.376166	-0.511848	-1.000257	0.336992	-0.508080	-1.215019	0.219393	-0.497436	-1.197516	0.206900	-0.401224	-1.195681	0.072014	-0.527349	-1.190242	0.065997	-0.404594	-1.134740	0.055580	-0.461851	-1.302306	0.238513	-0.455509	-0.647654	1.421142	-0.150972	-0.587540	1.374360	-0.431407	
44	0.2150	-0.751774	0.935607	-0.149448	-0.717366	0.928352	-0.406002	-0.926641	0.942039	-0.250365	-0.916839	0.959011	-0.349094	-0.748651	0.789908	-0.101870	-0.720495	0.824097	-0.110720	-0.717397	0.762556	-0.100645	-0.678611	0.803171	-0.112685	-0.490055	0.568238	-0.121477	-0.469581	0.572176	-0.229886	-0.553129	0.432518	-0.103067	-0.501835	0.436613	-0.118221	-0.551652	0.381803	-0.102153	-0.503825	0.378844	-0.119903	-0.559127	0.113793	-0.158926	-0.546254	0.138639	-0.250595	-0.418251	0.076344	-0.131231	-0.408145	0.096143	-0.249942	-0.352108	0.136908	-0.186420	-0.622481	0.065688	-0.211189	-0.818729	0.760483	-0.489835	-0.763250	0.764510	-0.476277	-0.818106	0.720162	-0.493276	-0.766121	0.721470	-0.480808	-0.817510	0.439719	-0.471157	-0.818483	0.420648	-0.357258	-0.970036	0.408112	-0.511412	-0.935784	0.364329	-0.501820	-1.011554	0.380849	-0.511655	-0.982599	0.341254	-0.507660	-1.199052	0.227253	-0.498394	-1.182596	0.213871	-0.402215	-1.185874	0.077352	-0.527670	-1.182133	0.070280	-0.405165	-1.126867	0.056382	-0.462105	-1.285718	0.250562	-0.456812	-0.630448	1.423172	-0.148070	-0.570021	1.377217	-0.428295	
45	0.2200	-0.732713	0.937696	-0.147964	-0.697075	0.930570	-0.403906	-0.906918	0.943487	-0.249811	-0.896585	0.960729	-0.348417	-0.729764	0.791371	-0.100233	-0.701528	0.825575	-0.108703	-0.698586	0.763952	-0.098801	-0.659675	0.804539	-0.110361	-0.471208	0.570064	-0.119585	-0.450268	0.574181	-0.227660	-0.531522	0.432429	-0.101125	-0.480119	0.438045	-0.116342	-0.528609	0.381525	-0.100195	-0.480448	0.379913	-0.117941	-0.528401	0.111851	-0.157043	-0.515674	0.137116	-0.248679	-0.386619	0.077169	-0.129130	-0.376384	0.097534	-0.247808	-0.321200	0.139588	-0.183979	-0.590647	0.062704	-0.209516	-0.797681	0.762393	-0.488814	-0.742395	0.766360	-0.474683	-0.797040	0.722025	-0.492212	-0.745240	0.723237	-0.479103	-0.796953	0.441322	-0.469899	-0.798900	0.422017	-0.355484	-0.949917	0.412023	-0.510981	-0.916477	0.367594	-0.501073	-0.991902	0.385426	-0.511344	-0.963687	0.345419	-0.507162	-1.181764	0.235012	-0.499149	-1.166291	0.220747	-0.403013	-1.174330	0.082938	-0.527954	-1.172202	0.074708	-0.405771	-1.117137	0.057365	-0.462396	-1.267836	0.262232	-0.457843	-0.612999	1.425006	-0.145151	-0.552599	1.379985	-0.425286	
46	0.2250	-0.713457	0.939653	-0.146459	-0.676835	0.932751	-0.401829	-0.887096	0.944794	-0.249099	-0.876336	0.962278	-0.347596	-0.710703	0.792533	-0.098608	-0.682337	0.826701	-0.106717	-0.679627	0.764997	-0.096980	-0.640541	0.805477	-0.108104	-0.452591	0.571145	-0.117913	-0.431308	0.575395	-0.225666	-0.510617	0.432077	-0.099381	-0.459152	0.438960	-0.114624	-0.506490	0.381062	-0.098431	-0.458077	0.380572	-0.116136	-0.499785	0.110198	-0.155216	-0.487080	0.135720	-0.246855	-0.357501	0.077760	-0.126904	-0.346994	0.098453	-0.245545	-0.292573	0.141496	-0.181392	-0.561053	0.060396	-0.207946	-0.776374	0.764171	-0.487735	-0.721306	0.768202	-0.473073	-0.775607	0.723763	-0.491097	-0.724006	0.725008	-0.477388	-0.775206	0.442922	-0.468650	-0.778028	0.423379	-0.353721	-0.928571	0.415800	-0.510430	-0.895896	0.370748	-0.500268	-0.971007	0.389854	-0.510899	-0.943489	0.349449	-0.506577	-1.163113	0.242584	-0.499679	-1.148540	0.227447	-0.403595	-1.160918	0.088703	-0.528193	-1.160294	0.079217	-0.406398	-1.105383	0.058534	-0.462722	-1.248632	0.273383	-0.458573	-0.595291	1.426638	-0.142220	-0.535251	1.382650	-0.422384	
47	0.2300	-0.693994	0.941466	-0.144931	-0.656632	0.934867	-0.399780	-0.867170	0.945945	-0.248226	-0.856088	0.963630	-0.346634	-0.691444	0.793400	-0.096995	-0.662900	0.827484	-0.104767	-0.660492	0.765705	-0.095186	-0.621185	0.806000	-0.105927	-0.434153	0.571508	-0.116461	-0.412653	0.575845	-0.223910	-0.490386	0.431470	-0.097839	-0.438897	0.439358	-0.113075	-0.485276	0.380409	-0.096869	-0.436688	0.380810	-0.114499	-0.473327	0.108792	-0.153458	-0.460518	0.134415	-0.245140	-0.330924	0.078058	-0.124576	-0.319999	0.098851	-0.243178	-0.266238	0.142571	-0.178689	-0.533764	0.058714	-0.206492	-0.754801	0.765796	-0.486592	-0.699971	0.770016	-0.471446	-0.753799	0.725360	-0.489927	-0.702410	0.726767	-0.475663	-0.752262	0.444515	-0.467405	-0.755848	0.424726	-0.351972	-0.905990	0.419414	-0.509745	-0.874021	0.373767	-0.499399	-0.948854	0.394095	-0.510306	-0.921983	0.353309	-0.505896	-1.143058	0.249884	-0.499964	-1.129286	0.233890	-0.403941	-1.145517	0.094570	-0.528377	-1.146263	0.083739	-0.407029	-1.091451	0.059886	-0.463075	-1.228084	0.283875	-0.458976	-0.577311	1.428067	-0.139281	-0.517957	1.385200	-0.419590	
48	0.2350	-0.674316	0.943123	-0.143374	-0.636455	0.936896	-0.397763	-0.847134	0.946927	-0.247190	-0.835837	0.964763	-0.345530	-0.671965	0.793983	-0.095394	-0.643201	0.827940	-0.102862	-0.641156	0.766089	-0.093423	-0.601589	0.806129	-0.103842	-0.415849	0.571186	-0.115231	-0.394262	0.575565	-0.222392	-0.470801	0.430617	-0.096502	-0.419315	0.439244	-0.111699	-0.464945	0.379566	-0.095513	-0.416251	0.380623	-0.113038	-0.449051	0.107595	-0.151788	-0.436013	0.133170	-0.243551	-0.306886	0.078016	-0.122176	-0.295398	0.098691	-0.240738	-0.242183	0.142775	-0.175907	-0.508820	0.057602	-0.205165	-0.732955	0.767252	-0.485385	-0.678384	0.771785	-0.469803	-0.731610	0.726800	-0.488702	-0.680445	0.728501	-0.473932	-0.728124	0.446101	-0.466161	-0.732355	0.426062	-0.350239	-0.882171	0.422839	-0.508914	-0.850841	0.376635	-0.498461	-0.925436	0.398115	-0.509555	-0.899152	0.356970	-0.505114	-1.121563	0.256829	-0.499989	-1.108481	0.239997	-0.404039	-1.128020	0.100457	-0.528496	-1.129983	0.088203	-0.407645	-1.075208	0.061416	-0.463448	-1.206170	0.293578	-0.459037	-0.559048	1.429291	-0.136340	-0.500694	1.387624	-0.416906	
49	0.2400	-0.654412	0.944618	-0.141787	-0.616292	0.938813	-0.395786	-0.826985	0.947731	-0.245990	-0.815577	0.965656	-0.344287	-0.652248	0.794296	-0.093804	-0.623228	0.828085	-0.101008	-0.621600	0.766167	-0.091695	-0.581741	0.805887	-0.101861	-0.397645	0.570216	-0.114214	-0.376099	0.574593	-0.221109	-0.451831	0.429527	-0.095364	-0.400368	0.438629	-0.110498	-0.445471	0.378536	-0.094363	-0.396730	0.380011	-0.111758	-0.426958	0.106568	-0.150218	-0.413567	0.131956	-0.242098	-0.285358	0.077600	-0.119733	-0.273169	0.097956	-0.238257	-0.220380	0.142091	-0.173082	-0.486231	0.057004	-0.203972	-0.710832	0.768525	-0.484110	-0.656541	0.773497	-0.468144	-0.709037	0.728077	-0.487419	-0.658109	0.730199	-0.472195	-0.702806	0.447689	-0.464913	-0.707552	0.427396	-0.348524	-0.857126	0.426059	-0.507930	-0.826355	0.379342	-0.497450	-0.900756	0.401887	-0.508638	-0.874990	0.360411	-0.504226	-1.098602	0.263335	-0.499745	-1.086085	0.245692	-0.403877	-1.108342	0.106279	-0.528539	-1.111348	0.092536	-0.408225	-1.056541	0.063111	-0.463828	-1.182876	0.302372	-0.458742	-0.540492	1.430314	-0.133403	-0.483441	1.389914	-0.414332	
50	0.2450	-0.634277	0.945943	-0.140166	-0.596131	0.940601	-0.393851	-0.806719	0.948350	-0.244623	-0.795303	0.966294	-0.342905	-0.632283	0.794355	-0.092225	-0.602975	0.827940	-0.099209	-0.601811	0.765961	-0.090004	-0.561633	0.805301	-0.099991	-0.379515	0.568640	-0.113405	-0.358136	0.572974	-0.220054	-0.433448	0.428215	-0.094421	-0.382022	0.437530	-0.109470	-0.426825	0.377321	-0.093415	-0.378092	0.378980	-0.110661	-0.407023	0.105680	-0.148763	-0.393164	0.130752	-0.240794	-0.266286	0.076793	-0.117280	-0.253268	0.096646	-0.235766	-0.200777	0.140525	-0.170252	-0.465979	0.056863	-0.202920	-0.688433	0.769610	-0.482764	-0.634441	0.775141	-0.466470	-0.686084	0.729187	-0.486075	-0.635405	0.731858	-0.470456	-0.676336	0.449294	-0.463660	-0.681460	0.428745	-0.346830	-0.830874	0.429061	-0.506785	-0.800573	0.381886	-0.496364	-0.874828	0.405389	-0.507549	-0.849502	0.363618	-0.503231	-1.074153	0.269326	-0.499224	-1.062068	0.250905	-0.403450	-1.086417	0.111950	-0.528495	-1.090279	0.096666	-0.408748	-1.035366	0.064955	-0.464203	-1.158193	0.310146	-0.458087	-0.521636	1.431141	-0.130480	-0.466178	1.392063	-0.411867	
51	0.2500	-0.613908	0.947093	-0.138512	-0.575961	0.942244	-0.391964	-0.786336	0.948782	-0.243090	-0.775012	0.966664	-0.341385	-0.612065	0.794180	-0.090655	-0.582443	0.827525	-0.097469	-0.581783	0.765494	-0.088352	-0.541266	0.804399	-0.098240	-0.361445	0.566505	-0.112790	-0.340353	0.570757	-0.219217	-0.415626	0.426693	-0.093662	-0.364244	0.435968	-0.108612	-0.408974	0.375929	-0.092662	-0.360297	0.377545	-0.109748	-0.389200	0.104904	-0.147432	-0.374766	0.129544	-0.239646	-0.249588	0.075589	-0.114849	-0.235628	0.094780	-0.233301	-0.183307	0.138104	-0.167455	-0.448020	0.057120	-0.202012	-0.665763	0.770503	-0.481346	-0.612088	0.776712	-0.464780	-0.662760	0.730131	-0.484671	-0.612343	0.733476	-0.468718	-0.648753	0.450935	-0.462398	-0.654111	0.430133	-0.345158	-0.803448	0.431839	-0.505477	-0.773519	0.384270	-0.495203	-0.847678	0.408606	-0.506287	-0.822707	0.366582	-0.502129	-1.048211	0.274730	-0.498428	-1.036415	0.255570	-0.402756	-1.062205	0.117385	-0.528355	-1.066722	0.100523	-0.409192	-1.011630	0.066926	-0.464557	-1.132119	0.316808	-0.457074	-0.502480	1.431780	-0.127577	-0.448890	1.394066	-0.409509	
52	0.2550	-0.593308	0.948069	-0.136824	-0.555777	0.943729	-0.390127	-0.765836	0.949028	-0.241393	-0.754700	0.966760	-0.339730	-0.591595	0.793790	-0.089092	-0.561641	0.826864	-0.095793	-0.561520	0.764791	-0.086738	-0.520651	0.803209	-0.096610	-0.343428	0.563858	-0.112355	-0.322738	0.567995	-0.218585	-0.398339	0.424978	-0.093075	-0.347003	0.433970	-0.107916	-0.391886	0.374367	-0.092094	-0.343308	0.375722	-0.109013	-0.373421	0.104217	-0.146234	-0.358316	0.128320	-0.238659	-0.235161	0.073999	-0.112469	-0.220164	0.092390	-0.230891	-0.167886	0.134877	-0.164731	-0.432283	0.057718	-0.201247	-0.642833	0.771208	-0.479855	-0.589495	0.778209	-0.463077	-0.639080	0.730916	-0.483203	-0.588938	0.735055	-0.466981	-0.620111	0.452638	-0.461126	-0.625556	0.431588	-0.343511	-0.774892	0.434396	-0.504005	-0.745231	0.386502	-0.493965	-0.819344	0.411529	-0.504853	-0.794637	0.369301	-0.500921	-1.020780	0.279484	-0.497357	-1.009130	0.259633	-0.401798	-1.035694	0.122503	-0.528106	-1.040659	0.104046	-0.409536	-0.985312	0.068998	-0.464871	-1.104665	0.322279	-0.455710	-0.483026	1.432240	-0.124704	-0.431563	1.395920	-0.407257	
53	0.2600	-0.572485	0.948869	-0.135103	-0.535577	0.945048	-0.388343	-0.745228	0.949093	-0.239533	-0.734371	0.966582	-0.337942	-0.570886	0.793207	-0.087536	-0.540586	0.825982	-0.094180	-0.541033	0.763876	-0.085165	-0.499803	0.801763	-0.095103	-0.325470	0.560749	-0.112085	-0.305288	0.564743	-0.218143	-0.381565	0.423084	-0.092645	-0.330276	0.431568	-0.107373	-0.375529	0.372647	-0.091698	-0.327087	0.373536	-0.108450	-0.359598	0.103602	-0.145174	-0.343739	0.127080	-0.237833	-0.222883	0.072045	-0.110171	-0.206772	0.089527	-0.228568	-0.154413	0.130910	-0.162113	-0.418675	0.058602	-0.200622	-0.619662	0.771729	-0.478291	-0.566679	0.779634	-0.461362	-0.615068	0.731552	-0.481674	-0.565217	0.736601	-0.465251	-0.590481	0.454431	-0.459840	-0.595861	0.433141	-0.341892	-0.745269	0.436735	-0.502372	-0.715764	0.388596	-0.492654	-0.789883	0.414154	-0.503252	-0.765340	0.371778	-0.499612	-0.991883	0.283534	-0.496022	-0.980232	0.263048	-0.400584	-1.006903	0.127228	-0.527740	-1.012103	0.107176	-0.409758	-0.956431	0.071144	-0.465127	-1.075854	0.326502	-0.454010	-0.463286	1.432534	-0.121870	-0.414190	1.397625	-0.405109	
54	0.2650	-0.551456	0.949496	-0.133351	-0.515365	0.946195	-0.386615	-0.724523	0.948983	-0.237515	-0.714031	0.966134	-0.336024	-0.549958	0.792453	-0.085985	-0.519303	0.824904	-0.092633	-0.520343	0.762776	-0.083629	-0.478750	0.800092	-0.093717	-0.307585	0.557229	-0.111961	-0.288007	0.561056	-0.217872	-0.365284	0.421031	-0.092356	-0.314041	0.428796	-0.106973	-0.359867	0.370782	-0.091458	-0.311595	0.371014	-0.108050	-0.347624	0.103048	-0.144256	-0.330944	0.125823	-0.237168	-0.212611	0.069762	-0.107982	-0.195332	0.086251	-0.226360	-0.142776	0.126287	-0.159633	-0.407081	0.059721	-0.200133	-0.596277	0.772080	-0.476654	-0.543667	0.780991	-0.459636	-0.590758	0.732055	-0.480083	-0.541213	0.738122	-0.463529	-0.559947	0.456341	-0.458540	-0.565111	0.434826	-0.340300	-0.714653	0.438866	-0.500586	-0.685188	0.390570	-0.491271	-0.759364	0.416482	-0.501490	-0.734882	0.374022	-0.498206	-0.961563	0.286836	-0.494434	-0.949767	0.265779	-0.399125	-0.975886	0.131494	-0.527248	-0.981108	0.109866	-0.409840	-0.925043	0.073332	-0.465305	-1.045725	0.329438	-0.451995	-0.443278	1.432675	-0.119087	-0.396770	1.399183	-0.403062	
55	0.2700	-0.530244	0.949956	-0.131571	-0.495151	0.947171	-0.384943	-0.703741	0.948711	-0.235345	-0.693691	0.965426	-0.333981	-0.528843	0.791551	-0.084439	-0.497828	0.823654	-0.091150	-0.499484	0.761517	-0.082132	-0.457530	0.798225	-0.092448	-0.289797	0.553350	-0.111964	-0.270907	0.556993	-0.217754	-0.349482	0.418837	-0.092189	-0.298282	0.425693	-0.106701	-0.344871	0.368785	-0.091359	-0.296798	0.368190	-0.107800	-0.337379	0.102548	-0.143479	-0.319826	0.124559	-0.236657	-0.204189	0.067194	-0.105925	-0.185712	0.082634	-0.224289	-0.132850	0.121106	-0.157321	-0.397367	0.061028	-0.199771	-0.572714	0.772274	-0.474947	-0.520493	0.782288	-0.457902	-0.566194	0.732440	-0.478432	-0.516972	0.739627	-0.461819	-0.528613	0.458398	-0.457225	-0.533410	0.436676	-0.338739	-0.683140	0.440803	-0.498654	-0.653594	0.392444	-0.489822	-0.727876	0.418519	-0.499581	-0.703349	0.376046	-0.496712	-0.929881	0.289360	-0.492610	-0.917800	0.267802	-0.397436	-0.942731	0.135242	-0.526622	-0.947764	0.112078	-0.409765	-0.891247	0.075531	-0.465386	-1.014335	0.331068	-0.449691	-0.423029	1.432679	-0.116363	-0.379309	1.400595	-0.401114	
56	0.2750	-0.508885	0.950256	-0.129769	-0.474956	0.947977	-0.383328	-0.682909	0.948290	-0.233033	-0.673373	0.964473	-0.331821	-0.507583	0.790524	-0.082897	-0.476209	0.822259	-0.089729	-0.478498	0.760125	-0.080670	-0.436188	0.796195	-0.091291	-0.272140	0.549163	-0.112076	-0.254010	0.552610	-0.217767	-0.334149	0.416520	-0.092126	-0.282990	0.422299	-0.106544	-0.330511	0.366674	-0.091381	-0.282664	0.365099	-0.107688	-0.328730	0.102099	-0.142840	-0.310269	0.123297	-0.236293	-0.197452	0.064393	-0.104019	-0.177769	0.078753	-0.222376	-0.124503	0.115475	-0.155199	-0.389385	0.062479	-0.199526	-0.549020	0.772328	-0.473172	-0.497205	0.783534	-0.456163	-0.541430	0.732729	-0.476724	-0.492547	0.741127	-0.460125	-0.496596	0.460628	-0.455896	-0.500882	0.438723	-0.337211	-0.650838	0.442563	-0.496589	-0.621092	0.394239	-0.488310	-0.695526	0.420278	-0.497535	-0.670847	0.377866	-0.495136	-0.896924	0.291085	-0.490570	-0.884426	0.269108	-0.395536	-0.907563	0.138428	-0.525856	-0.912203	0.113786	-0.409518	-0.855183	0.077711	-0.465351	-0.981760	0.331397	-0.447128	-0.402576	1.432562	-0.113711	-0.361821	1.401868	-0.399263	
57	0.2800	-0.487422	0.950404	-0.127950	-0.454805	0.948620	-0.381771	-0.662063	0.947737	-0.230591	-0.653102	0.963295	-0.329550	-0.486230	0.789395	-0.081360	-0.454501	0.820744	-0.088368	-0.457439	0.758626	-0.079242	-0.414782	0.794032	-0.090237	-0.254656	0.544722	-0.112275	-0.237344	0.547966	-0.217893	-0.319277	0.414102	-0.092149	-0.268160	0.418659	-0.106486	-0.316759	0.364467	-0.091505	-0.269162	0.361781	-0.107697	-0.321536	0.101701	-0.142334	-0.302147	0.122052	-0.236066	-0.192226	0.061418	-0.102281	-0.171351	0.074691	-0.220637	-0.117597	0.109506	-0.153285	-0.382977	0.064035	-0.199386	-0.525251	0.772263	-0.471335	-0.473858	0.784738	-0.454423	-0.516532	0.732942	-0.474963	-0.468007	0.742634	-0.458451	-0.464032	0.463056	-0.454553	-0.467667	0.440994	-0.335716	-0.617878	0.444163	-0.494406	-0.587812	0.395978	-0.486744	-0.662441	0.421771	-0.495371	-0.637503	0.379500	-0.493491	-0.862804	0.292008	-0.488338	-0.849766	0.269698	-0.393447	-0.870543	0.141017	-0.524948	-0.874598	0.114975	-0.409089	-0.817034	0.079840	-0.465183	-0.948102	0.330450	-0.444341	-0.381967	1.432341	-0.111139	-0.344329	1.403007	-0.397505	
58	0.2850	-0.465912	0.950413	-0.126120	-0.434738	0.949108	-0.380272	-0.641247	0.947070	-0.228031	-0.632917	0.961916	-0.327181	-0.464850	0.788185	-0.079828	-0.432773	0.819132	-0.087064	-0.436371	0.757044	-0.077848	-0.393379	0.791763	-0.089278	-0.237393	0.540077	-0.112544	-0.220943	0.543117	-0.218109	-0.304867	0.411602	-0.092238	-0.253792	0.414817	-0.106511	-0.303595	0.362183	-0.091712	-0.256268	0.358277	-0.107812	-0.315650	0.101359	-0.141954	-0.295331	0.120841	-0.235963	-0.188334	0.058329	-0.100721	-0.166303	0.070534	-0.219082	-0.111991	0.103320	-0.151591	-0.377977	0.065661	-0.199338	-0.501475	0.772101	-0.469441	-0.450518	0.785913	-0.452686	-0.491578	0.733100	-0.473155	-0.443429	0.744158	-0.456801	-0.431073	0.465698	-0.453197	-0.433926	0.443512	-0.334257	-0.584406	0.445622	-0.492121	-0.553904	0.397682	-0.485129	-0.628765	0.423017	-0.493106	-0.603463	0.380969	-0.491786	-0.827658	0.292136	-0.485941	-0.813969	0.269587	-0.391194	-0.831870	0.142990	-0.523894	-0.835161	0.115642	-0.408470	-0.777022	0.081890	-0.464869	-0.913484	0.328272	-0.441368	-0.361260	1.432033	-0.108659	-0.326867	1.404020	-0.395839	
59	0.2900	-0.444419	0.950294	-0.124288	-0.414799	0.949452	-0.378832	-0.620518	0.946308	-0.225370	-0.612861	0.960365	-0.324725	-0.443516	0.786914	-0.078305	-0.411102	0.817447	-0.085814	-0.415370	0.755403	-0.076485	-0.372057	0.789418	-0.088403	-0.220409	0.535279	-0.112863	-0.204849	0.538120	-0.218395	-0.290924	0.409043	-0.092375	-0.239895	0.410818	-0.106604	-0.290998	0.359842	-0.091983	-0.243962	0.354630	-0.108016	-0.310922	0.101077	-0.141690	-0.289685	0.119680	-0.235969	-0.185601	0.055190	-0.099346	-0.162468	0.066362	-0.217717	-0.107541	0.097031	-0.150125	-0.374216	0.067329	-0.199369	-0.477772	0.771862	-0.467499	-0.427264	0.787068	-0.450958	-0.466657	0.733225	-0.471305	-0.418902	0.745709	-0.455180	-0.397884	0.468569	-0.451833	-0.399837	0.446293	-0.332836	-0.550585	0.446959	-0.489753	-0.519537	0.399370	-0.483475	-0.594664	0.424034	-0.490760	-0.568897	0.382294	-0.490033	-0.791652	0.291491	-0.483405	-0.777214	0.268803	-0.388804	-0.791778	0.144339	-0.522699	-0.794142	0.115798	-0.407658	-0.735411	0.083836	-0.464397	-0.878055	0.324931	-0.438249	-0.340524	1.431655	-0.106280	-0.309476	1.404917	-0.394262	
60	0.2950	-0.423023	0.950062	-0.122461	-0.395046	0.949666	-0.377449	-0.599940	0.945473	-0.222628	-0.592991	0.958671	-0.322197	-0.422314	0.785603	-0.076792	-0.389574	0.815712	-0.084613	-0.394520	0.753723	-0.075153	-0.350901	0.787024	-0.087601	-0.203763	0.530377	-0.113216	-0.189109	0.533028	-0.218731	-0.277455	0.406444	-0.092544	-0.226480	0.406710	-0.106748	-0.278956	0.357466	-0.092299	-0.232228	0.350883	-0.108291	-0.307205	0.100862	-0.141530	-0.285075	0.118588	-0.236067	-0.183853	0.052059	-0.098158	-0.159691	0.062255	-0.216542	-0.104107	0.090755	-0.148886	-0.371524	0.069013	-0.199464	-0.454229	0.771571	-0.465517	-0.404181	0.788213	-0.449246	-0.441871	0.733337	-0.469423	-0.394525	0.747294	-0.453592	-0.364647	0.471672	-0.450462	-0.365593	0.449345	-0.331454	-0.516596	0.448193	-0.487323	-0.484897	0.401059	-0.481792	-0.560318	0.424843	-0.488355	-0.533991	0.383495	-0.488245	-0.754974	0.290111	-0.480763	-0.739704	0.267384	-0.386305	-0.750534	0.145073	-0.521365	-0.751828	0.115463	-0.406655	-0.692498	0.085656	-0.463760	-0.841989	0.320511	-0.435025	-0.319837	1.431225	-0.104011	-0.292208	1.405706	-0.392773	
61	0.3000	-0.401808	0.949731	-0.120649	-0.375545	0.949763	-0.376124	-0.579587	0.944585	-0.219826	-0.573370	0.956868	-0.319614	-0.401338	0.784270	-0.075293	-0.368286	0.813948	-0.083459	-0.373913	0.752026	-0.073851	-0.330004	0.784606	-0.086862	-0.187520	0.525421	-0.113585	-0.173772	0.527894	-0.219100	-0.264477	0.403829	-0.092729	-0.213563	0.402536	-0.106930	-0.267459	0.355075	-0.092643	-0.221055	0.347081	-0.108621	-0.304353	0.100720	-0.141461	-0.281370	0.117580	-0.236243	-0.182926	0.048997	-0.097153	-0.157817	0.058284	-0.215556	-0.101551	0.084597	-0.147870	-0.369737	0.070691	-0.199608	-0.430945	0.771248	-0.463508	-0.381366	0.789357	-0.447554	-0.417328	0.733455	-0.467518	-0.370406	0.748917	-0.452043	-0.331553	0.475004	-0.449091	-0.331400	0.452665	-0.330116	-0.482632	0.449341	-0.484853	-0.450189	0.402763	-0.480090	-0.525924	0.425467	-0.485914	-0.498951	0.384593	-0.486437	-0.717839	0.288043	-0.478046	-0.701672	0.265381	-0.383726	-0.708436	0.145212	-0.519901	-0.708535	0.114670	-0.405468	-0.648613	0.087334	-0.462955	-0.805484	0.315115	-0.431738	-0.299289	1.430759	-0.101860	-0.275122	1.406398	-0.391370	
62	0.3050	-0.380872	0.949316	-0.118861	-0.356368	0.949760	-0.374856	-0.559541	0.943664	-0.216986	-0.554071	0.954989	-0.316996	-0.380689	0.782931	-0.073813	-0.347339	0.812175	-0.082347	-0.353650	0.750330	-0.072579	-0.309467	0.782187	-0.086176	-0.171749	0.520456	-0.113959	-0.158894	0.522768	-0.219484	-0.252008	0.401218	-0.092916	-0.201165	0.398344	-0.107134	-0.256504	0.352691	-0.092999	-0.210435	0.343265	-0.108989	-0.302228	0.100656	-0.141471	-0.278440	0.116671	-0.236478	-0.182661	0.046053	-0.096327	-0.156702	0.054513	-0.214751	-0.099742	0.078654	-0.147068	-0.368697	0.072347	-0.199788	-0.408027	0.770913	-0.461483	-0.358922	0.790506	-0.445891	-0.393146	0.733595	-0.465600	-0.346662	0.750582	-0.450539	-0.298800	0.478555	-0.447723	-0.297474	0.456245	-0.328822	-0.448899	0.450417	-0.482365	-0.415629	0.404491	-0.478380	-0.491691	0.425927	-0.483460	-0.463996	0.385605	-0.484621	-0.680484	0.285348	-0.475284	-0.663368	0.262854	-0.381098	-0.665806	0.144789	-0.518318	-0.664610	0.113460	-0.404107	-0.604112	0.088855	-0.461983	-0.768759	0.308859	-0.428429	-0.278978	1.430271	-0.099834	-0.258288	1.407003	-0.390052	
63	0.3100	-0.360316	0.948834	-0.117108	-0.337598	0.949673	-0.373645	-0.539892	0.942731	-0.214134	-0.535173	0.953068	-0.314361	-0.360472	0.781603	-0.072358	-0.326841	0.810411	-0.081276	-0.333833	0.748653	-0.071340	-0.289393	0.779792	-0.085531	-0.156518	0.515529	-0.114323	-0.144529	0.517697	-0.219868	-0.240070	0.398632	-0.093095	-0.189310	0.394175	-0.107350	-0.246089	0.350335	-0.093352	-0.200367	0.339478	-0.109380	-0.300702	0.100674	-0.141546	-0.276165	0.115873	-0.236756	-0.182915	0.043274	-0.095668	-0.156207	0.050996	-0.214116	-0.098555	0.073011	-0.146467	-0.368254	0.073967	-0.199990	-0.385586	0.770585	-0.459455	-0.336959	0.791665	-0.444265	-0.369451	0.733770	-0.463682	-0.323415	0.752286	-0.449084	-0.266594	0.482304	-0.446367	-0.264038	0.460063	-0.327576	-0.415609	0.451435	-0.479882	-0.381441	0.406247	-0.476673	-0.457841	0.426246	-0.481016	-0.429356	0.386548	-0.482813	-0.643163	0.282096	-0.472510	-0.625066	0.259871	-0.378451	-0.622987	0.143849	-0.516629	-0.620417	0.111882	-0.402588	-0.559370	0.090213	-0.460852	-0.732054	0.301873	-0.425138	-0.259007	1.429777	-0.097939	-0.241780	1.407532	-0.388817	
64	0.3150	-0.340251	0.948299	-0.115398	-0.319319	0.949518	-0.372491	-0.520735	0.941804	-0.211294	-0.516762	0.951137	-0.311734	-0.340797	0.780298	-0.070933	-0.306901	0.808674	-0.080244	-0.314569	0.747011	-0.070134	-0.269889	0.777440	-0.084921	-0.141893	0.510681	-0.114669	-0.130734	0.512727	-0.220239	-0.228686	0.396092	-0.093256	-0.178022	0.390071	-0.107564	-0.236219	0.348026	-0.093691	-0.190852	0.335757	-0.109780	-0.299654	0.100775	-0.141671	-0.274432	0.115194	-0.237061	-0.183555	0.040698	-0.095164	-0.156204	0.047775	-0.213637	-0.097876	0.067737	-0.146050	-0.368272	0.075538	-0.200204	-0.363739	0.770279	-0.457440	-0.315591	0.792835	-0.442683	-0.346369	0.733990	-0.461777	-0.300788	0.754025	-0.447684	-0.235141	0.486223	-0.445028	-0.231316	0.464091	-0.326381	-0.382980	0.452405	-0.477428	-0.347859	0.408033	-0.474984	-0.424596	0.426445	-0.478605	-0.395268	0.387435	-0.481026	-0.606144	0.278368	-0.469754	-0.587048	0.256506	-0.375815	-0.580333	0.142445	-0.514852	-0.576337	0.109992	-0.400929	-0.514778	0.091402	-0.459572	-0.695622	0.294296	-0.421902	-0.239487	1.429289	-0.096179	-0.225678	1.407994	-0.387663	
65	0.3200	-0.320785	0.947728	-0.113743	-0.301623	0.949310	-0.371394	-0.502169	0.940899	-0.208493	-0.498927	0.949229	-0.309134	-0.321775	0.779030	-0.069546	-0.287629	0.806979	-0.079248	-0.295965	0.745418	-0.068966	-0.251060	0.775151	-0.084338	-0.127940	0.505953	-0.114988	-0.117564	0.507898	-0.220587	-0.217884	0.393617	-0.093391	-0.167329	0.386071	-0.107769	-0.226900	0.345784	-0.094007	-0.181893	0.332139	-0.110177	-0.298978	0.100960	-0.141833	-0.273139	0.114640	-0.237379	-0.184466	0.038354	-0.094802	-0.156578	0.044881	-0.213300	-0.097598	0.062889	-0.145796	-0.368629	0.077053	-0.200417	-0.342603	0.770008	-0.455452	-0.294930	0.794016	-0.441153	-0.324029	0.734262	-0.459898	-0.278907	0.755792	-0.446345	-0.204645	0.490278	-0.443714	-0.199530	0.468291	-0.325240	-0.351229	0.453336	-0.475025	-0.315113	0.409843	-0.473322	-0.392184	0.426545	-0.476250	-0.361972	0.388278	-0.479275	-0.569704	0.274249	-0.467047	-0.549609	0.252838	-0.373217	-0.538209	0.140640	-0.513007	-0.532755	0.107849	-0.399155	-0.470727	0.092426	-0.458159	-0.659729	0.286272	-0.418756	-0.220529	1.428818	-0.094557	-0.210067	1.408399	-0.386591	
66	0.3250	-0.302031	0.947135	-0.112151	-0.284599	0.949064	-0.370356	-0.484291	0.940032	-0.205756	-0.481758	0.947372	-0.306586	-0.303512	0.777809	-0.068204	-0.269133	0.805341	-0.078291	-0.278125	0.743885	-0.067837	-0.233009	0.772942	-0.083776	-0.114719	0.501383	-0.115273	-0.105069	0.503247	-0.220903	-0.207690	0.391225	-0.093495	-0.157256	0.382209	-0.107957	-0.218141	0.343627	-0.094290	-0.173496	0.328658	-0.110560	-0.298580	0.101224	-0.142020	-0.272192	0.114212	-0.237697	-0.185545	0.036262	-0.094563	-0.157224	0.042333	-0.213086	-0.097628	0.058506	-0.145685	-0.369216	0.078504	-0.200622	-0.322295	0.769783	-0.453508	-0.275090	0.795204	-0.439683	-0.302558	0.734587	-0.458059	-0.257895	0.757574	-0.445071	-0.175302	0.494427	-0.442433	-0.168894	0.472618	-0.324156	-0.320569	0.454231	-0.472693	-0.283431	0.411671	-0.471703	-0.360826	0.426563	-0.473970	-0.329704	0.389084	-0.477573	-0.534123	0.269830	-0.464414	-0.513042	0.248948	-0.370684	-0.496975	0.138500	-0.511115	-0.490055	0.105517	-0.397290	-0.427608	0.093287	-0.456634	-0.624644	0.277948	-0.415732	-0.202243	1.428373	-0.093075	-0.195029	1.408756	-0.385599	
67	0.3300	-0.284095	0.946534	-0.110632	-0.268336	0.948794	-0.369375	-0.467199	0.939213	-0.203107	-0.465345	0.945591	-0.304112	-0.286111	0.776644	-0.066914	-0.251515	0.803771	-0.077371	-0.261145	0.742424	-0.066753	-0.215834	0.770829	-0.083233	-0.102283	0.497004	-0.115522	-0.093299	0.498809	-0.221182	-0.198127	0.388935	-0.093566	-0.147827	0.378518	-0.108122	-0.209951	0.341569	-0.094537	-0.165667	0.325341	-0.110921	-0.298378	0.101563	-0.142221	-0.271512	0.113907	-0.238004	-0.186708	0.034433	-0.094431	-0.158053	0.040138	-0.212978	-0.097882	0.054612	-0.145695	-0.369941	0.079885	-0.200810	-0.302925	0.769610	-0.451621	-0.256178	0.796393	-0.438281	-0.282077	0.734967	-0.456274	-0.237868	0.759360	-0.443867	-0.147297	0.498624	-0.441195	-0.139612	0.477023	-0.323133	-0.291202	0.455094	-0.470453	-0.253032	0.413504	-0.470136	-0.330736	0.426519	-0.471787	-0.298691	0.389860	-0.475934	-0.499674	0.265205	-0.461883	-0.477635	0.244919	-0.368242	-0.456983	0.136099	-0.509200	-0.448612	0.103057	-0.395364	-0.385798	0.093995	-0.455019	-0.590633	0.269473	-0.412856	-0.184740	1.427960	-0.091732	-0.180648	1.409072	-0.384685	
68	0.3350	-0.267080	0.945937	-0.109193	-0.252919	0.948512	-0.368454	-0.450984	0.938454	-0.200570	-0.449773	0.943908	-0.301733	-0.269666	0.775544	-0.065683	-0.234869	0.802281	-0.076491	-0.245117	0.741043	-0.065717	-0.199625	0.768825	-0.082705	-0.090679	0.492847	-0.115732	-0.082293	0.494612	-0.221420	-0.189218	0.386761	-0.093603	-0.139061	0.375025	-0.108260	-0.202339	0.339626	-0.094743	-0.158411	0.322213	-0.111253	-0.298304	0.101968	-0.142425	-0.271029	0.113720	-0.238289	-0.187884	0.032869	-0.094389	-0.158986	0.038293	-0.212958	-0.098290	0.051218	-0.145802	-0.370727	0.081191	-0.200978	-0.284597	0.769492	-0.449808	-0.238293	0.797576	-0.436954	-0.262698	0.735397	-0.454557	-0.218934	0.761133	-0.442738	-0.120797	0.502819	-0.440006	-0.111868	0.481449	-0.322173	-0.263316	0.455925	-0.468323	-0.224119	0.415328	-0.468635	-0.302113	0.426426	-0.469715	-0.269146	0.390608	-0.474370	-0.466622	0.260466	-0.459474	-0.443664	0.240830	-0.365911	-0.418565	0.133508	-0.507285	-0.408777	0.100531	-0.393405	-0.345651	0.094561	-0.453342	-0.557955	0.260987	-0.410151	-0.168120	1.427586	-0.090527	-0.167003	1.409354	-0.383850	
69	0.3400	-0.251076	0.945355	-0.107842	-0.238425	0.948229	-0.367593	-0.435731	0.937761	-0.198166	-0.435120	0.942341	-0.299469	-0.254260	0.774513	-0.064518	-0.219278	0.800880	-0.075654	-0.230118	0.739751	-0.064735	-0.184459	0.766943	-0.082191	-0.079943	0.488937	-0.115903	-0.072088	0.490681	-0.221614	-0.180980	0.384716	-0.093606	-0.130976	0.371753	-0.108369	-0.195312	0.337808	-0.094908	-0.151733	0.319296	-0.111551	-0.298306	0.102429	-0.142625	-0.270685	0.113642	-0.238548	-0.189018	0.031567	-0.094419	-0.159961	0.036787	-0.213007	-0.098792	0.048317	-0.145985	-0.371514	0.082420	-0.201121	-0.267403	0.769430	-0.448081	-0.221525	0.798742	-0.435709	-0.244520	0.735870	-0.452921	-0.201188	0.762876	-0.441687	-0.095951	0.506960	-0.438875	-0.085825	0.485841	-0.321278	-0.237078	0.456723	-0.466318	-0.196873	0.417125	-0.467209	-0.275135	0.426300	-0.467771	-0.241261	0.391329	-0.472890	-0.435211	0.255704	-0.457207	-0.411384	0.236757	-0.363713	-0.382028	0.130800	-0.505395	-0.370875	0.097996	-0.391444	-0.307494	0.094998	-0.451629	-0.526853	0.252627	-0.407637	-0.152476	1.427254	-0.089455	-0.154165	1.409608	-0.383090	
70	0.3450	-0.236164	0.944798	-0.106586	-0.224921	0.947954	-0.366793	-0.421513	0.937139	-0.195912	-0.421457	0.940904	-0.297338	-0.239963	0.773558	-0.063427	-0.204811	0.799575	-0.074861	-0.216215	0.738553	-0.063811	-0.170401	0.765192	-0.081694	-0.070101	0.485297	-0.116035	-0.062707	0.487034	-0.221766	-0.173428	0.382812	-0.093578	-0.123580	0.368720	-0.108449	-0.188875	0.336125	-0.095032	-0.145633	0.316603	-0.111812	-0.298340	0.102934	-0.142814	-0.270436	0.113662	-0.238774	-0.190071	0.030513	-0.094504	-0.160927	0.035597	-0.213110	-0.099338	0.045892	-0.146223	-0.372255	0.083568	-0.201238	-0.251422	0.769422	-0.446454	-0.205948	0.799882	-0.434551	-0.227628	0.736379	-0.451378	-0.184711	0.764572	-0.440717	-0.072881	0.510997	-0.437808	-0.061618	0.490140	-0.320452	-0.212631	0.457486	-0.464451	-0.171451	0.418878	-0.465869	-0.249957	0.426152	-0.465965	-0.215202	0.392022	-0.471506	-0.405660	0.251004	-0.455098	-0.381023	0.232772	-0.361661	-0.347644	0.128044	-0.503554	-0.335196	0.095506	-0.389511	-0.271613	0.095322	-0.449911	-0.497546	0.244516	-0.405325	-0.137888	1.426966	-0.088513	-0.142197	1.409839	-0.382404	
71	0.3500	-0.222408	0.944274	-0.105428	-0.212462	0.947693	-0.366055	-0.408390	0.936589	-0.193824	-0.408840	0.939605	-0.295354	-0.226829	0.772682	-0.062414	-0.191522	0.798372	-0.074117	-0.203456	0.737453	-0.062949	-0.157501	0.763578	-0.081215	-0.061168	0.481943	-0.116131	-0.054167	0.483688	-0.221877	-0.166567	0.381058	-0.093523	-0.116877	0.365940	-0.108501	-0.183028	0.334584	-0.095117	-0.140108	0.314146	-0.112035	-0.298376	0.103470	-0.142986	-0.270244	0.113764	-0.238965	-0.191014	0.029690	-0.094630	-0.161843	0.034696	-0.213250	-0.099890	0.043915	-0.146496	-0.372918	0.084632	-0.201328	-0.236716	0.769464	-0.444938	-0.191621	0.800984	-0.433485	-0.212088	0.736912	-0.449937	-0.169564	0.766202	-0.439831	-0.051681	0.514880	-0.436814	-0.039354	0.494293	-0.319695	-0.190089	0.458209	-0.462732	-0.147980	0.420568	-0.464622	-0.226702	0.425992	-0.464307	-0.191106	0.392684	-0.470224	-0.378157	0.246445	-0.453159	-0.352774	0.228937	-0.359769	-0.315644	0.125306	-0.501784	-0.301982	0.093107	-0.387634	-0.238248	0.095548	-0.448215	-0.470223	0.236768	-0.403226	-0.124422	1.426721	-0.087694	-0.131150	1.410049	-0.381791	
72	0.3550	-0.209855	0.943788	-0.104373	-0.201088	0.947453	-0.365379	-0.396407	0.936113	-0.191913	-0.397311	0.938450	-0.293531	-0.214894	0.771886	-0.061483	-0.179447	0.797274	-0.073424	-0.191875	0.736453	-0.062154	-0.145789	0.762107	-0.080756	-0.053145	0.478886	-0.116195	-0.046473	0.480650	-0.221950	-0.160396	0.379459	-0.093445	-0.110865	0.363421	-0.108527	-0.177769	0.333189	-0.095168	-0.135153	0.311931	-0.112221	-0.298393	0.104024	-0.143138	-0.270084	0.113936	-0.239121	-0.191831	0.029076	-0.094781	-0.162684	0.034053	-0.213414	-0.100418	0.042350	-0.146789	-0.373482	0.085611	-0.201391	-0.223328	0.769548	-0.443541	-0.178586	0.802036	-0.432512	-0.197946	0.737457	-0.448607	-0.155790	0.767750	-0.439028	-0.032415	0.518564	-0.435896	-0.019105	0.498247	-0.319009	-0.169535	0.458889	-0.461169	-0.126553	0.422176	-0.463475	-0.205465	0.425829	-0.462803	-0.169076	0.393312	-0.469050	-0.352852	0.242097	-0.451397	-0.326792	0.225309	-0.358046	-0.286210	0.122643	-0.500107	-0.271428	0.090839	-0.385840	-0.207588	0.095693	-0.446570	-0.445041	0.229477	-0.401342	-0.112127	1.426519	-0.086990	-0.121063	1.410242	-0.381247	
73	0.3600	-0.198534	0.943346	-0.103422	-0.190824	0.947237	-0.364767	-0.385590	0.935708	-0.190187	-0.386897	0.937438	-0.291875	-0.204175	0.771171	-0.060639	-0.168602	0.796285	-0.072784	-0.181484	0.735556	-0.061427	-0.135281	0.760782	-0.080321	-0.046023	0.476134	-0.116231	-0.039619	0.477924	-0.221990	-0.154906	0.378020	-0.093349	-0.105530	0.361167	-0.108530	-0.173088	0.331941	-0.095189	-0.130755	0.309959	-0.112371	-0.298379	0.104581	-0.143268	-0.269936	0.114160	-0.239242	-0.192515	0.028644	-0.094947	-0.163430	0.033632	-0.213589	-0.100904	0.041153	-0.147086	-0.373939	0.086504	-0.201431	-0.211280	0.769669	-0.442269	-0.166862	0.803028	-0.431637	-0.185226	0.738003	-0.447395	-0.143410	0.769200	-0.438309	-0.015114	0.522009	-0.435058	-0.000910	0.501958	-0.318393	-0.151016	0.459520	-0.459764	-0.107226	0.423686	-0.462433	-0.186301	0.425669	-0.461456	-0.149176	0.393901	-0.467988	-0.329853	0.238019	-0.449816	-0.303188	0.221932	-0.356496	-0.259474	0.120107	-0.498539	-0.243672	0.088735	-0.384150	-0.179767	0.095772	-0.444999	-0.422112	0.222721	-0.399674	-0.101030	1.426356	-0.086394	-0.111959	1.410420	-0.380769	
74	0.3650	-0.188452	0.942951	-0.102576	-0.181677	0.947047	-0.364217	-0.375947	0.935370	-0.188649	-0.377607	0.936568	-0.290393	-0.194669	0.770537	-0.059882	-0.158984	0.795404	-0.072202	-0.172280	0.734759	-0.060772	-0.125971	0.759602	-0.079914	-0.039779	0.473687	-0.116243	-0.033587	0.475510	-0.222003	-0.150081	0.376740	-0.093240	-0.100853	0.359177	-0.108513	-0.168969	0.330839	-0.095184	-0.126896	0.308226	-0.112488	-0.298331	0.105128	-0.143376	-0.269791	0.114420	-0.239330	-0.193068	0.028368	-0.095117	-0.164074	0.033395	-0.213766	-0.101333	0.040277	-0.147375	-0.374287	0.087310	-0.201449	-0.200575	0.769816	-0.441127	-0.156450	0.803950	-0.430857	-0.173928	0.738538	-0.446304	-0.132422	0.770539	-0.437674	0.000223	0.525183	-0.434305	0.015229	0.505386	-0.317847	-0.134546	0.460100	-0.458519	-0.090019	0.425084	-0.461498	-0.169231	0.425517	-0.460265	-0.131433	0.394448	-0.467040	-0.309225	0.234259	-0.448418	-0.282027	0.218841	-0.355121	-0.235512	0.117738	-0.497097	-0.218794	0.086819	-0.382585	-0.154859	0.095800	-0.443526	-0.401509	0.216559	-0.398218	-0.091143	1.426230	-0.085896	-0.103845	1.410583	-0.380355	
75	0.3700	-0.179597	0.942603	-0.101833	-0.173635	0.946883	-0.363730	-0.367469	0.935093	-0.187298	-0.369432	0.935832	-0.289085	-0.186355	0.769982	-0.059213	-0.150572	0.794629	-0.071678	-0.164237	0.734061	-0.060188	-0.117834	0.758566	-0.079537	-0.034379	0.471541	-0.116236	-0.028350	0.473400	-0.221992	-0.145896	0.375618	-0.093125	-0.096808	0.357443	-0.108481	-0.165391	0.329880	-0.095159	-0.123554	0.306726	-0.112575	-0.298248	0.105653	-0.143462	-0.269641	0.114702	-0.239389	-0.193498	0.028218	-0.095283	-0.164611	0.033305	-0.213936	-0.101699	0.039671	-0.147647	-0.374532	0.088029	-0.201449	-0.191192	0.769981	-0.440116	-0.147329	0.804793	-0.430173	-0.164032	0.739051	-0.445337	-0.122804	0.771756	-0.437119	0.013631	0.528060	-0.433636	0.029345	0.508502	-0.317369	-0.120100	0.460625	-0.457431	-0.074912	0.426357	-0.460671	-0.154237	0.425377	-0.459227	-0.115835	0.394948	-0.466206	-0.290984	0.230853	-0.447199	-0.263324	0.216062	-0.353919	-0.214341	0.115571	-0.495790	-0.196816	0.085106	-0.381159	-0.132880	0.095790	-0.442169	-0.383256	0.211032	-0.396964	-0.082454	1.426136	-0.085486	-0.096711	1.410732	-0.379999	
76	0.3750	-0.171935	0.942302	-0.101189	-0.166669	0.946746	-0.363303	-0.360125	0.934873	-0.186132	-0.362345	0.935221	-0.287949	-0.179192	0.769503	-0.058631	-0.143323	0.793958	-0.071213	-0.157315	0.733459	-0.059677	-0.110828	0.757669	-0.079195	-0.029777	0.469687	-0.116215	-0.023869	0.471583	-0.221965	-0.142319	0.374649	-0.093007	-0.093359	0.355957	-0.108439	-0.162327	0.329058	-0.095119	-0.120700	0.305446	-0.112636	-0.298136	0.106146	-0.143528	-0.269488	0.114991	-0.239424	-0.193817	0.028168	-0.095438	-0.165047	0.033327	-0.214095	-0.102001	0.039287	-0.147895	-0.374686	0.088662	-0.201436	-0.183090	0.770155	-0.439235	-0.139457	0.805553	-0.429582	-0.155491	0.739531	-0.444493	-0.114510	0.772845	-0.436641	0.025176	0.530623	-0.433051	0.041505	0.511286	-0.316957	-0.107621	0.461093	-0.456495	-0.061851	0.427497	-0.459951	-0.141266	0.425252	-0.458337	-0.102330	0.395398	-0.465482	-0.275102	0.227823	-0.446152	-0.247048	0.213606	-0.352884	-0.195928	0.113628	-0.494626	-0.177701	0.083604	-0.379884	-0.113785	0.095755	-0.440942	-0.367335	0.206160	-0.395902	-0.074932	1.426070	-0.085155	-0.090534	1.410867	-0.379699	
77	0.3800	-0.165415	0.942047	-0.100641	-0.160735	0.946634	-0.362936	-0.353867	0.934701	-0.185141	-0.356300	0.934726	-0.286980	-0.173121	0.769096	-0.058132	-0.137179	0.793386	-0.070808	-0.151454	0.732947	-0.059235	-0.104895	0.756905	-0.078888	-0.025918	0.468111	-0.116185	-0.020096	0.470044	-0.221926	-0.139310	0.373825	-0.092893	-0.090466	0.354703	-0.108389	-0.159745	0.328364	-0.095070	-0.118301	0.304372	-0.112676	-0.298002	0.106597	-0.143576	-0.269331	0.115275	-0.239439	-0.194040	0.028191	-0.095579	-0.165389	0.033429	-0.214237	-0.102242	0.039076	-0.148114	-0.374764	0.089211	-0.201412	-0.176209	0.770330	-0.438480	-0.132774	0.806224	-0.429078	-0.148242	0.739971	-0.443768	-0.107474	0.773800	-0.436236	0.034954	0.532866	-0.432548	0.051807	0.513726	-0.316607	-0.097021	0.461502	-0.455704	-0.050746	0.428499	-0.459335	-0.130232	0.425142	-0.457586	-0.090833	0.395797	-0.464865	-0.261506	0.225179	-0.445269	-0.233123	0.211479	-0.352009	-0.180182	0.111921	-0.493609	-0.161358	0.082314	-0.378764	-0.097478	0.095704	-0.439853	-0.353679	0.201945	-0.395017	-0.068527	1.426026	-0.084892	-0.085272	1.410987	-0.379449	
78	0.3850	-0.159967	0.941836	-0.100183	-0.155769	0.946545	-0.362624	-0.348632	0.934572	-0.184315	-0.351239	0.934332	-0.286169	-0.168070	0.768757	-0.057713	-0.132066	0.792908	-0.070461	-0.146583	0.732520	-0.058861	-0.099962	0.756265	-0.078620	-0.022742	0.466796	-0.116149	-0.016976	0.468763	-0.221880	-0.136824	0.373139	-0.092785	-0.088082	0.353664	-0.108337	-0.157607	0.327790	-0.095017	-0.116321	0.303489	-0.112700	-0.297856	0.107000	-0.143609	-0.269175	0.115543	-0.239438	-0.194185	0.028265	-0.095702	-0.165647	0.033580	-0.214360	-0.102426	0.038995	-0.148303	-0.374782	0.089680	-0.201382	-0.170470	0.770499	-0.437846	-0.127203	0.806805	-0.428657	-0.142200	0.740364	-0.443157	-0.101613	0.774623	-0.435900	0.043084	0.534788	-0.432124	0.060374	0.515824	-0.316315	-0.088180	0.461854	-0.455047	-0.041477	0.429363	-0.458817	-0.121017	0.425049	-0.456965	-0.081224	0.396144	-0.464349	-0.250082	0.222919	-0.444537	-0.221428	0.209673	-0.351282	-0.166968	0.110456	-0.492737	-0.147645	0.081230	-0.377801	-0.083809	0.095646	-0.438909	-0.342183	0.198370	-0.394295	-0.063173	1.426000	-0.084688	-0.080871	1.411093	-0.379244	
79	0.3900	-0.155506	0.941664	-0.099808	-0.151699	0.946477	-0.362366	-0.344340	0.934477	-0.183642	-0.347085	0.934027	-0.285504	-0.163952	0.768479	-0.057368	-0.127896	0.792514	-0.070169	-0.142614	0.732170	-0.058551	-0.095941	0.755741	-0.078390	-0.020179	0.465720	-0.116111	-0.014448	0.467719	-0.221832	-0.134810	0.372577	-0.092687	-0.086156	0.352822	-0.108286	-0.155871	0.327325	-0.094963	-0.114718	0.302776	-0.112711	-0.297707	0.107352	-0.143630	-0.269026	0.115786	-0.239426	-0.194268	0.028367	-0.095806	-0.165835	0.033756	-0.214463	-0.102561	0.039005	-0.148460	-0.374755	0.090073	-0.201349	-0.165780	0.770655	-0.437323	-0.122653	0.807298	-0.428313	-0.137266	0.740707	-0.442653	-0.096831	0.775316	-0.435625	0.049706	0.536400	-0.431774	0.067355	0.517586	-0.316077	-0.080956	0.462150	-0.454514	-0.033899	0.430092	-0.458390	-0.113478	0.424971	-0.456461	-0.073357	0.396438	-0.463925	-0.240680	0.221032	-0.443944	-0.211810	0.208175	-0.350691	-0.156107	0.109227	-0.492006	-0.136375	0.080340	-0.376991	-0.072589	0.095587	-0.438108	-0.332705	0.195405	-0.393716	-0.058788	1.425988	-0.084533	-0.077264	1.411186	-0.379080	
80	0.3950	-0.151939	0.941528	-0.099507	-0.148438	0.946425	-0.362155	-0.340902	0.934410	-0.183105	-0.343755	0.933797	-0.284971	-0.160671	0.768256	-0.057091	-0.124574	0.792199	-0.069930	-0.139456	0.731890	-0.058300	-0.092740	0.755320	-0.078197	-0.018158	0.464860	-0.116074	-0.012445	0.466887	-0.221785	-0.133216	0.372129	-0.092601	-0.084635	0.352154	-0.108237	-0.154494	0.326956	-0.094912	-0.113448	0.302215	-0.112712	-0.297562	0.107649	-0.143640	-0.268887	0.116001	-0.239408	-0.194305	0.028482	-0.095891	-0.165965	0.033938	-0.214547	-0.102656	0.039071	-0.148588	-0.374701	0.090395	-0.201316	-0.162035	0.770795	-0.436903	-0.119021	0.807705	-0.428037	-0.133328	0.740997	-0.442247	-0.093017	0.775885	-0.435406	0.054977	0.537719	-0.431491	0.072912	0.519030	-0.315886	-0.075189	0.462393	-0.454090	-0.027844	0.430691	-0.458047	-0.107451	0.424908	-0.456062	-0.067064	0.396681	-0.463586	-0.233122	0.219495	-0.443474	-0.204082	0.206963	-0.350221	-0.147387	0.108223	-0.491408	-0.127329	0.079628	-0.376327	-0.063592	0.095532	-0.437445	-0.325071	0.193005	-0.393264	-0.055278	1.425986	-0.084418	-0.074376	1.411263	-0.378951	
