PathFileType	4	(X/Y/Z)	 P13 250r2 05.trc
DataRate	CameraRate	NumFrames	NumMarkers	Units	OrigDataRate	OrigDataStartFrame	OrigNumFrames
200	200	71	38	m	200	1	71
Frame#	Time	RASIS			LASIS			RPSIS			LPSIS			RThighRear1			RThighFront1			RThighRear2			RThighFront2			RKneeLat			RKneeMed			RShankRear1			RShankFront1			RShankRear2			RShankFront2			RAnkleLat			RAnkleMed			RM5			RM1			RMid			RHeel			LThighRear1			LThighFront1			LThighRear2			LThighFront2			LKneeLat			LKneeMed			LShankRear1			LShankFront1			LShankRear2			LShankFront2			LAnkleLat			LAnkleMed			LM5			LM1			LMid			LHeel			RShoulder			LShoulder			
		X1	Y1	Z1	X2	Y2	Z2	X3	Y3	Z3	X4	Y4	Z4	X5	Y5	Z5	X6	Y6	Z6	X7	Y7	Z7	X8	Y8	Z8	X9	Y9	Z9	X10	Y10	Z10	X11	Y11	Z11	X12	Y12	Z12	X13	Y13	Z13	X14	Y14	Z14	X15	Y15	Z15	X16	Y16	Z16	X17	Y17	Z17	X18	Y18	Z18	X19	Y19	Z19	X20	Y20	Z20	X21	Y21	Z21	X22	Y22	Z22	X23	Y23	Z23	X24	Y24	Z24	X25	Y25	Z25	X26	Y26	Z26	X27	Y27	Z27	X28	Y28	Z28	X29	Y29	Z29	X30	Y30	Z30	X31	Y31	Z31	X32	Y32	Z32	X33	Y33	Z33	X34	Y34	Z34	X35	Y35	Z35	X36	Y36	Z36	X37	Y37	Z37	X38	Y38	Z38	
1	0.0000	-1.397234	0.904735	-0.139219	-1.362990	0.892445	-0.361413	-1.537004	0.940503	-0.232410	-1.529373	0.936478	-0.327849	-1.494435	0.699323	-0.095669	-1.438621	0.696215	-0.093022	-1.487818	0.642941	-0.094166	-1.430864	0.639215	-0.092480	-1.484986	0.420728	-0.123618	-1.470908	0.410241	-0.221623	-1.603628	0.439240	-0.113363	-1.591624	0.396580	-0.108576	-1.643972	0.420244	-0.113889	-1.623483	0.376510	-0.115587	-1.851887	0.311733	-0.158684	-1.845854	0.301711	-0.236084	-1.905200	0.185475	-0.131423	-1.886815	0.172392	-0.233873	-1.864066	0.116211	-0.175446	-1.891485	0.371995	-0.208686	-1.359943	0.716465	-0.438832	-1.312009	0.735657	-0.422453	-1.345149	0.676163	-0.440290	-1.296259	0.698757	-0.427311	-1.230133	0.511498	-0.413092	-1.242454	0.493908	-0.323632	-1.261005	0.397198	-0.458948	-1.216168	0.403103	-0.439048	-1.256641	0.350609	-0.468443	-1.213522	0.358203	-0.446749	-1.221184	0.096869	-0.456589	-1.206195	0.104699	-0.374670	-1.088075	0.067258	-0.485754	-1.090032	0.065914	-0.379524	-1.029312	0.104008	-0.417720	-1.279487	0.067161	-0.432638	-1.220638	1.291487	-0.130194	-1.224488	1.279778	-0.443742	
2	0.0050	-1.382964	0.903720	-0.138847	-1.348162	0.891960	-0.361439	-1.522935	0.938746	-0.232609	-1.515135	0.935219	-0.328145	-1.476223	0.697831	-0.095375	-1.420537	0.696046	-0.092247	-1.468307	0.641831	-0.093403	-1.411468	0.639459	-0.091366	-1.459992	0.420823	-0.121857	-1.445136	0.410213	-0.219810	-1.578505	0.439017	-0.112566	-1.566427	0.396385	-0.107355	-1.618892	0.419972	-0.113163	-1.598219	0.376148	-0.114436	-1.826367	0.310530	-0.158762	-1.819766	0.299887	-0.236116	-1.876664	0.184339	-0.129889	-1.857639	0.170239	-0.232045	-1.833867	0.115501	-0.172972	-1.866945	0.369600	-0.209527	-1.345770	0.715221	-0.438880	-1.297761	0.734287	-0.422693	-1.331195	0.674847	-0.440280	-1.282225	0.697278	-0.427457	-1.216795	0.509657	-0.412890	-1.229224	0.492464	-0.323386	-1.249241	0.396260	-0.458399	-1.204447	0.400818	-0.438260	-1.246106	0.349418	-0.467707	-1.203113	0.356056	-0.445985	-1.219326	0.096875	-0.455978	-1.204640	0.103755	-0.373749	-1.086866	0.065219	-0.485841	-1.088881	0.063420	-0.379107	-1.027614	0.099709	-0.417493	-1.278548	0.067859	-0.432185	-1.207069	1.290724	-0.129353	-1.209708	1.277150	-0.443707	
3	0.0100	-1.368496	0.902698	-0.138487	-1.333130	0.891461	-0.361467	-1.508665	0.936978	-0.232814	-1.500688	0.933948	-0.328446	-1.457741	0.696361	-0.095081	-1.402196	0.695926	-0.091460	-1.448501	0.640761	-0.092632	-1.391787	0.639770	-0.090237	-1.434587	0.421011	-0.120068	-1.418942	0.410292	-0.217966	-1.552991	0.438836	-0.111754	-1.540822	0.396229	-0.106117	-1.593423	0.419720	-0.112420	-1.572542	0.375805	-0.113266	-1.800452	0.309213	-0.158832	-1.793274	0.297956	-0.236142	-1.847650	0.183066	-0.128325	-1.827964	0.167956	-0.230188	-1.803126	0.114678	-0.170463	-1.842060	0.367066	-0.210369	-1.331440	0.713934	-0.438928	-1.283351	0.732858	-0.422945	-1.317101	0.673483	-0.440270	-1.268043	0.695734	-0.427615	-1.203385	0.507732	-0.412700	-1.215904	0.490939	-0.323148	-1.237425	0.395250	-0.457858	-1.192680	0.398450	-0.437482	-1.235537	0.348162	-0.466976	-1.192675	0.353833	-0.445226	-1.217496	0.096851	-0.455362	-1.203120	0.102785	-0.372814	-1.085647	0.063193	-0.485926	-1.087717	0.060945	-0.378694	-1.025897	0.095463	-0.417273	-1.277653	0.068498	-0.431732	-1.193318	1.289969	-0.128494	-1.194688	1.274553	-0.443637	
4	0.0150	-1.353839	0.901685	-0.138144	-1.317903	0.890955	-0.361493	-1.494204	0.935219	-0.233023	-1.486039	0.932681	-0.328749	-1.439007	0.694942	-0.094788	-1.383617	0.695886	-0.090663	-1.428418	0.639763	-0.091855	-1.371844	0.640184	-0.089096	-1.408793	0.421339	-0.118253	-1.392353	0.410533	-0.216095	-1.527108	0.438709	-0.110923	-1.514820	0.396133	-0.104860	-1.567578	0.419492	-0.111653	-1.546458	0.375494	-0.112074	-1.774119	0.307740	-0.158878	-1.766354	0.295885	-0.236148	-1.818113	0.181617	-0.126724	-1.797744	0.165523	-0.228300	-1.771794	0.113729	-0.167920	-1.816813	0.364334	-0.211188	-1.316984	0.712606	-0.438973	-1.268804	0.731367	-0.423206	-1.302900	0.672076	-0.440258	-1.253746	0.694124	-0.427783	-1.189963	0.505718	-0.412527	-1.202548	0.489324	-0.322918	-1.225618	0.394165	-0.457332	-1.180931	0.395997	-0.436723	-1.224992	0.346843	-0.466257	-1.182264	0.351534	-0.444480	-1.215709	0.096798	-0.454745	-1.201651	0.101798	-0.371872	-1.084432	0.061198	-0.486008	-1.086553	0.058516	-0.378295	-1.024177	0.091317	-0.417066	-1.276816	0.069074	-0.431281	-1.179400	1.289239	-0.127611	-1.179426	1.272026	-0.443507	
5	0.0200	-1.338995	0.900695	-0.137823	-1.302484	0.890453	-0.361514	-1.479551	0.933488	-0.233236	-1.471186	0.931432	-0.329050	-1.420030	0.693609	-0.094497	-1.364815	0.695957	-0.089859	-1.408070	0.638876	-0.091073	-1.351654	0.640736	-0.087946	-1.382624	0.421852	-0.116416	-1.365389	0.410988	-0.214198	-1.500868	0.438650	-0.110066	-1.488423	0.396115	-0.103582	-1.541359	0.419290	-0.110853	-1.519961	0.375228	-0.110855	-1.747325	0.306063	-0.158883	-1.738969	0.293637	-0.236117	-1.787989	0.179960	-0.125079	-1.766916	0.162923	-0.226377	-1.739804	0.112646	-0.165344	-1.791168	0.361342	-0.211960	-1.302423	0.711241	-0.439014	-1.254143	0.729812	-0.423473	-1.288619	0.670628	-0.440241	-1.239359	0.692443	-0.427961	-1.176583	0.503608	-0.412372	-1.189208	0.487612	-0.322698	-1.213875	0.392999	-0.456827	-1.169258	0.393461	-0.435989	-1.214524	0.345463	-0.465559	-1.171936	0.349163	-0.443754	-1.213979	0.096721	-0.454133	-1.200244	0.100805	-0.370930	-1.083235	0.059250	-0.486090	-1.085402	0.056153	-0.377917	-1.022470	0.087318	-0.416875	-1.276049	0.069585	-0.430838	-1.165324	1.288552	-0.126699	-1.163908	1.269609	-0.443294	
6	0.0250	-1.323962	0.899744	-0.137530	-1.286868	0.889965	-0.361525	-1.464701	0.931803	-0.233451	-1.456122	0.930216	-0.329347	-1.400815	0.692393	-0.094208	-1.345797	0.696172	-0.089048	-1.387463	0.638134	-0.090288	-1.331226	0.641462	-0.086788	-1.356090	0.422598	-0.114558	-1.338065	0.411711	-0.212277	-1.474274	0.438670	-0.109177	-1.461626	0.396197	-0.102280	-1.514762	0.419118	-0.110010	-1.493036	0.375021	-0.109602	-1.720017	0.304136	-0.158828	-1.711067	0.291175	-0.236031	-1.757199	0.178060	-0.123381	-1.735405	0.160144	-0.224414	-1.707075	0.111423	-0.162737	-1.765074	0.358023	-0.212657	-1.287771	0.709845	-0.439045	-1.239381	0.728191	-0.423743	-1.274276	0.669145	-0.440217	-1.224900	0.690690	-0.428145	-1.163293	0.501397	-0.412240	-1.175930	0.485796	-0.322489	-1.202248	0.391751	-0.456349	-1.157712	0.390844	-0.435289	-1.204181	0.344026	-0.464887	-1.161740	0.346725	-0.443055	-1.212317	0.096626	-0.453530	-1.198911	0.099820	-0.369994	-1.082072	0.057361	-0.486172	-1.084278	0.053878	-0.377567	-1.020793	0.083507	-0.416704	-1.275364	0.070035	-0.430407	-1.151092	1.287930	-0.125752	-1.148119	1.267342	-0.442970	
7	0.0300	-1.308731	0.898849	-0.137267	-1.271048	0.889505	-0.361522	-1.449645	0.930185	-0.233666	-1.440836	0.929050	-0.329637	-1.381361	0.691327	-0.093919	-1.326567	0.696562	-0.088232	-1.366599	0.637573	-0.089499	-1.310566	0.642396	-0.085625	-1.329200	0.423622	-0.112681	-1.310396	0.412754	-0.210334	-1.447330	0.438780	-0.108249	-1.434420	0.396395	-0.100950	-1.487779	0.418975	-0.109114	-1.465666	0.374885	-0.108311	-1.692130	0.301915	-0.158693	-1.682586	0.288467	-0.235871	-1.725656	0.175891	-0.121623	-1.703125	0.157177	-0.222406	-1.673521	0.110062	-0.160098	-1.738470	0.354315	-0.213252	-1.273040	0.708424	-0.439064	-1.224527	0.726506	-0.424010	-1.259888	0.667632	-0.440182	-1.210383	0.688865	-0.428333	-1.150136	0.499084	-0.412130	-1.162756	0.483873	-0.322287	-1.190779	0.390424	-0.455903	-1.146342	0.388154	-0.434629	-1.194007	0.342542	-0.464249	-1.151718	0.344228	-0.442390	-1.210732	0.096524	-0.452941	-1.197656	0.098857	-0.369074	-1.080957	0.055543	-0.486256	-1.083196	0.051706	-0.377253	-1.019162	0.079920	-0.416558	-1.274766	0.070430	-0.429991	-1.136705	1.287392	-0.124761	-1.132037	1.265264	-0.442510	
8	0.0350	-1.293293	0.898029	-0.137039	-1.255011	0.889086	-0.361500	-1.434371	0.928654	-0.233880	-1.425315	0.927952	-0.329917	-1.361670	0.690441	-0.093629	-1.307127	0.697158	-0.087412	-1.345483	0.637226	-0.088709	-1.289680	0.643571	-0.084458	-1.301965	0.424966	-0.110787	-1.282397	0.414161	-0.208369	-1.420035	0.438987	-0.107273	-1.406799	0.396727	-0.099588	-1.460399	0.418861	-0.108154	-1.437834	0.374832	-0.106974	-1.663598	0.299359	-0.158458	-1.653463	0.285480	-0.235618	-1.693270	0.173431	-0.119793	-1.669990	0.154021	-0.220346	-1.639056	0.108572	-0.157425	-1.711286	0.350157	-0.213713	-1.258234	0.706985	-0.439065	-1.209586	0.724757	-0.424270	-1.245462	0.666097	-0.440133	-1.195816	0.686970	-0.428520	-1.137146	0.496669	-0.412044	-1.149722	0.481842	-0.322093	-1.179507	0.389023	-0.455494	-1.135188	0.385398	-0.434014	-1.184037	0.341023	-0.463649	-1.141907	0.341684	-0.441763	-1.209227	0.096427	-0.452374	-1.196481	0.097932	-0.368177	-1.079906	0.053803	-0.486342	-1.082170	0.049652	-0.376981	-1.017595	0.076585	-0.416438	-1.274257	0.070785	-0.429595	-1.122162	1.286960	-0.123721	-1.115642	1.263412	-0.441890	
9	0.0400	-1.277637	0.897299	-0.136848	-1.238746	0.888723	-0.361453	-1.418866	0.927231	-0.234092	-1.409545	0.926937	-0.330184	-1.341740	0.689766	-0.093337	-1.287480	0.697988	-0.086589	-1.324117	0.637124	-0.087916	-1.268573	0.645016	-0.083290	-1.274402	0.426665	-0.108880	-1.254093	0.415975	-0.206385	-1.392397	0.439294	-0.106243	-1.378759	0.397208	-0.098190	-1.432617	0.418774	-0.107120	-1.409526	0.374872	-0.105585	-1.634353	0.296433	-0.158101	-1.623633	0.282188	-0.235250	-1.659954	0.170669	-0.117885	-1.635917	0.150681	-0.218229	-1.603598	0.106969	-0.154721	-1.683452	0.345492	-0.214012	-1.243355	0.705539	-0.439044	-1.194559	0.722950	-0.424515	-1.231006	0.664550	-0.440065	-1.181205	0.685009	-0.428700	-1.124351	0.494158	-0.411983	-1.136859	0.479707	-0.321901	-1.168465	0.387557	-0.455123	-1.124283	0.382591	-0.433448	-1.174302	0.339484	-0.463094	-1.132338	0.339108	-0.441179	-1.207803	0.096350	-0.451832	-1.195385	0.097066	-0.367312	-1.078932	0.052147	-0.486434	-1.081215	0.047725	-0.376759	-1.016109	0.073525	-0.416348	-1.273837	0.071119	-0.429222	-1.107459	1.286655	-0.122625	-1.098913	1.261819	-0.441085	
10	0.0450	-1.261751	0.896679	-0.136694	-1.222240	0.888431	-0.361374	-1.403120	0.925933	-0.234298	-1.393513	0.926025	-0.330436	-1.321577	0.689327	-0.093040	-1.267630	0.699073	-0.085766	-1.302510	0.637295	-0.087122	-1.247254	0.646753	-0.082123	-1.246534	0.428749	-0.106961	-1.225513	0.418226	-0.204384	-1.364425	0.439703	-0.105151	-1.350304	0.397847	-0.096751	-1.404431	0.418707	-0.106002	-1.380737	0.375013	-0.104137	-1.604331	0.293108	-0.157602	-1.593035	0.278570	-0.234748	-1.625628	0.167599	-0.115891	-1.600831	0.147170	-0.216049	-1.567078	0.105277	-0.151984	-1.654895	0.340274	-0.214119	-1.228404	0.704098	-0.438996	-1.179448	0.721092	-0.424740	-1.216522	0.663003	-0.439976	-1.166551	0.682991	-0.428867	-1.111773	0.491559	-0.411946	-1.124195	0.477474	-0.321709	-1.157675	0.386041	-0.454794	-1.113653	0.379751	-0.432934	-1.164824	0.337944	-0.462586	-1.123032	0.336518	-0.440643	-1.206455	0.096313	-0.451320	-1.194357	0.096278	-0.366487	-1.078049	0.050579	-0.486533	-1.080346	0.045934	-0.376592	-1.014720	0.070753	-0.416287	-1.273496	0.071459	-0.428875	-1.092594	1.286496	-0.121465	-1.081834	1.260515	-0.440074	
11	0.0500	-1.245627	0.896185	-0.136578	-1.205482	0.888226	-0.361257	-1.387122	0.924781	-0.234497	-1.377208	0.925232	-0.330670	-1.301187	0.689148	-0.092736	-1.247587	0.700435	-0.084942	-1.280675	0.637761	-0.086326	-1.225738	0.648803	-0.080958	-1.218396	0.431240	-0.105036	-1.196697	0.420939	-0.202369	-1.336137	0.440209	-0.103989	-1.321447	0.398653	-0.095269	-1.375847	0.418654	-0.104790	-1.351469	0.375261	-0.102625	-1.573476	0.289362	-0.156940	-1.561617	0.274612	-0.234091	-1.590223	0.164227	-0.113802	-1.564671	0.143507	-0.213801	-1.529441	0.103527	-0.149215	-1.625550	0.334462	-0.214004	-1.213378	0.702674	-0.438917	-1.164251	0.719193	-0.424935	-1.202010	0.661470	-0.439860	-1.151856	0.680925	-0.429015	-1.099427	0.488884	-0.411930	-1.111750	0.475156	-0.321512	-1.147155	0.384494	-0.454507	-1.103317	0.376897	-0.432473	-1.155617	0.336428	-0.462129	-1.114004	0.333939	-0.440155	-1.205174	0.096337	-0.450845	-1.193387	0.095591	-0.365712	-1.077270	0.049100	-0.486641	-1.079576	0.044282	-0.376485	-1.013445	0.068277	-0.416257	-1.273221	0.071837	-0.428557	-1.077567	1.286501	-0.120236	-1.064393	1.259525	-0.438838	
12	0.0550	-1.229259	0.895833	-0.136497	-1.188465	0.888125	-0.361094	-1.370866	0.923790	-0.234687	-1.360625	0.924574	-0.330882	-1.280583	0.689248	-0.092421	-1.227361	0.702086	-0.084120	-1.258631	0.638539	-0.085529	-1.204043	0.651175	-0.079797	-1.190031	0.434151	-0.103107	-1.167694	0.424125	-0.200345	-1.307561	0.440807	-0.102753	-1.292211	0.399629	-0.093738	-1.346882	0.418606	-0.103475	-1.321736	0.375621	-0.101043	-1.541741	0.285182	-0.156099	-1.529335	0.270308	-0.233261	-1.553686	0.160568	-0.111615	-1.527390	0.139724	-0.211481	-1.490650	0.101759	-0.146415	-1.595356	0.328027	-0.213640	-1.198276	0.701284	-0.438802	-1.148968	0.717267	-0.425093	-1.187467	0.659968	-0.439714	-1.137118	0.678827	-0.429136	-1.087317	0.486152	-0.411932	-1.099537	0.472768	-0.321302	-1.136914	0.382938	-0.454262	-1.093284	0.374057	-0.432066	-1.146688	0.334962	-0.461723	-1.105261	0.331396	-0.439717	-1.203946	0.096448	-0.450410	-1.192455	0.095030	-0.364995	-1.076607	0.047712	-0.486759	-1.078917	0.042772	-0.376441	-1.012299	0.066095	-0.416257	-1.272993	0.072292	-0.428269	-1.062378	1.286687	-0.118932	-1.046583	1.258870	-0.437361	
13	0.0600	-1.212644	0.895638	-0.136449	-1.171185	0.888143	-0.360880	-1.354349	0.922978	-0.234863	-1.343761	0.924066	-0.331069	-1.259784	0.689641	-0.092094	-1.206970	0.704035	-0.083301	-1.236403	0.639641	-0.084729	-1.182193	0.653874	-0.078644	-1.161495	0.437484	-0.101181	-1.138567	0.427786	-0.198314	-1.278734	0.441482	-0.101436	-1.262631	0.400773	-0.092156	-1.317561	0.418550	-0.102051	-1.291563	0.376092	-0.099386	-1.509094	0.280566	-0.155059	-1.496161	0.265656	-0.232239	-1.515981	0.156648	-0.109324	-1.488961	0.135855	-0.209084	-1.450690	0.100017	-0.143588	-1.564264	0.320951	-0.213002	-1.183094	0.699944	-0.438647	-1.133596	0.715330	-0.425206	-1.172891	0.658513	-0.439534	-1.122335	0.676714	-0.429222	-1.075442	0.483383	-0.411950	-1.087564	0.470330	-0.321076	-1.126952	0.381401	-0.454057	-1.083554	0.371259	-0.431711	-1.138034	0.333575	-0.461368	-1.096799	0.328920	-0.439329	-1.202750	0.096676	-0.450018	-1.191539	0.094623	-0.364343	-1.076071	0.046414	-0.486890	-1.078383	0.041405	-0.376461	-1.011299	0.064199	-0.416287	-1.272785	0.072869	-0.428012	-1.047031	1.287068	-0.117549	-1.028408	1.258564	-0.435633	
14	0.0650	-1.195783	0.895612	-0.136428	-1.153639	0.888298	-0.360606	-1.337571	0.922356	-0.235023	-1.326618	0.923723	-0.331227	-1.238813	0.690335	-0.091749	-1.186434	0.706282	-0.082487	-1.214025	0.641070	-0.083926	-1.160217	0.656896	-0.077499	-1.132853	0.441233	-0.099263	-1.109386	0.431911	-0.196284	-1.249700	0.442221	-0.100034	-1.232752	0.402078	-0.090520	-1.287919	0.418473	-0.100513	-1.260988	0.376672	-0.097651	-1.475514	0.275520	-0.153807	-1.462078	0.260667	-0.231012	-1.477092	0.152502	-0.106927	-1.449379	0.131943	-0.206610	-1.409568	0.098355	-0.140735	-1.532233	0.313231	-0.212066	-1.167830	0.698674	-0.438448	-1.118134	0.713403	-0.425266	-1.158276	0.657125	-0.439318	-1.107503	0.674606	-0.429265	-1.063794	0.480603	-0.411977	-1.075831	0.467867	-0.320825	-1.117260	0.379912	-0.453889	-1.074120	0.368536	-0.431405	-1.129644	0.332302	-0.461064	-1.088607	0.326543	-0.438991	-1.201564	0.097050	-0.449673	-1.190610	0.094398	-0.363764	-1.075669	0.045208	-0.487035	-1.077981	0.040180	-0.376548	-1.010457	0.062576	-0.416344	-1.272564	0.073619	-0.427785	-1.031533	1.287655	-0.116083	-1.009875	1.258616	-0.433645	
15	0.0700	-1.178682	0.895768	-0.136430	-1.135832	0.888604	-0.360266	-1.320538	0.921938	-0.235161	-1.309202	0.923557	-0.331351	-1.217700	0.691335	-0.091385	-1.165780	0.708822	-0.081678	-1.191534	0.642824	-0.083120	-1.138150	0.660231	-0.076366	-1.104179	0.445378	-0.097359	-1.080231	0.436477	-0.194258	-1.220516	0.443001	-0.098546	-1.202632	0.403534	-0.088830	-1.258003	0.418358	-0.098857	-1.230062	0.377355	-0.095836	-1.440997	0.270058	-0.152330	-1.427086	0.255356	-0.229565	-1.437024	0.148173	-0.104423	-1.408659	0.128038	-0.204055	-1.367315	0.096827	-0.137860	-1.499240	0.304874	-0.210815	-1.152479	0.697493	-0.438200	-1.102584	0.711506	-0.425264	-1.143617	0.655826	-0.439061	-1.092619	0.672528	-0.429258	-1.052353	0.477840	-0.412010	-1.064328	0.465406	-0.320544	-1.107822	0.378504	-0.453753	-1.064964	0.365922	-0.431145	-1.121498	0.331176	-0.460807	-1.080664	0.324301	-0.438699	-1.200358	0.097606	-0.449377	-1.189636	0.094385	-0.363265	-1.075407	0.044096	-0.487194	-1.077721	0.039096	-0.376700	-1.009788	0.061204	-0.416427	-1.272292	0.074597	-0.427587	-1.015891	1.288456	-0.114530	-0.991003	1.259026	-0.431395	
16	0.0750	-1.161347	0.896113	-0.136448	-1.117770	0.889075	-0.359853	-1.303259	0.921729	-0.235274	-1.291525	0.923578	-0.331437	-1.196479	0.692636	-0.090996	-1.145037	0.711643	-0.080875	-1.168973	0.644895	-0.082311	-1.116032	0.663857	-0.075246	-1.075556	0.449892	-0.095475	-1.051189	0.441451	-0.192244	-1.191243	0.443800	-0.096968	-1.172337	0.405124	-0.087084	-1.227866	0.418189	-0.097080	-1.198845	0.378132	-0.093940	-1.405556	0.264204	-0.150620	-1.391200	0.249747	-0.227887	-1.395804	0.143714	-0.101812	-1.366838	0.124191	-0.201420	-1.323985	0.095492	-0.134969	-1.465272	0.295900	-0.209232	-1.137039	0.696420	-0.437902	-1.086943	0.709664	-0.425193	-1.128905	0.654634	-0.438761	-1.077676	0.670504	-0.429192	-1.041095	0.475125	-0.412042	-1.053038	0.462978	-0.320227	-1.098611	0.377213	-0.453646	-1.056060	0.363453	-0.430927	-1.113568	0.330232	-0.460595	-1.072942	0.322228	-0.438451	-1.199099	0.098380	-0.449130	-1.188579	0.094615	-0.362849	-1.075290	0.043083	-0.487367	-1.077607	0.038155	-0.376914	-1.009301	0.060059	-0.416533	-1.271924	0.075861	-0.427414	-1.000117	1.289474	-0.112890	-0.971816	1.259791	-0.428885	
17	0.0800	-1.143792	0.896651	-0.136472	-1.099462	0.889724	-0.359360	-1.285746	0.921737	-0.235355	-1.273600	0.923793	-0.331479	-1.175188	0.694231	-0.090580	-1.124238	0.714725	-0.080079	-1.146389	0.647265	-0.081497	-1.093904	0.667748	-0.074142	-1.047071	0.454737	-0.093619	-1.022351	0.446787	-0.190247	-1.161950	0.444590	-0.095302	-1.141942	0.406828	-0.085284	-1.197572	0.417946	-0.095185	-1.167409	0.378991	-0.091964	-1.369218	0.257993	-0.148670	-1.354453	0.243870	-0.225973	-1.353480	0.139180	-0.099097	-1.323975	0.120457	-0.198706	-1.279656	0.094408	-0.132067	-1.430334	0.286342	-0.207309	-1.121507	0.695476	-0.437549	-1.071212	0.707903	-0.425047	-1.114132	0.653573	-0.438416	-1.062670	0.668562	-0.429061	-1.029987	0.472491	-0.412066	-1.041936	0.460614	-0.319867	-1.089594	0.376072	-0.453559	-1.047373	0.361164	-0.430743	-1.105816	0.329506	-0.460422	-1.065403	0.320362	-0.438242	-1.197748	0.099409	-0.448931	-1.187399	0.095121	-0.362521	-1.075316	0.042176	-0.487553	-1.077641	0.037359	-0.377187	-1.009005	0.059114	-0.416658	-1.271410	0.077473	-0.427261	-0.984223	1.290708	-0.111161	-0.952346	1.260900	-0.426121	
18	0.0850	-1.126031	0.897387	-0.136494	-1.080922	0.890560	-0.358780	-1.268014	0.921961	-0.235400	-1.255448	0.924207	-0.331472	-1.153868	0.696102	-0.090134	-1.103415	0.718043	-0.079290	-1.123834	0.649911	-0.080677	-1.071810	0.671869	-0.073055	-1.018815	0.459864	-0.091797	-0.993811	0.452428	-0.188275	-1.132709	0.445341	-0.093549	-1.111527	0.408621	-0.083429	-1.167189	0.417608	-0.093173	-1.135831	0.379915	-0.089908	-1.332029	0.251464	-0.146478	-1.316890	0.237760	-0.223819	-1.310122	0.134633	-0.096282	-1.280153	0.116889	-0.195914	-1.234424	0.093633	-0.129158	-1.394447	0.276246	-0.205038	-1.105880	0.694680	-0.437142	-1.055391	0.706246	-0.424821	-1.099288	0.652661	-0.438025	-1.047592	0.666729	-0.428860	-1.018988	0.469968	-0.412078	-1.030989	0.458345	-0.319459	-1.080727	0.375116	-0.453487	-1.038859	0.359089	-0.430589	-1.098198	0.329032	-0.460281	-1.058000	0.318736	-0.438067	-1.196265	0.100731	-0.448779	-1.186052	0.095934	-0.362280	-1.075483	0.041385	-0.487752	-1.077819	0.036710	-0.377512	-1.008905	0.058338	-0.416801	-1.270693	0.079495	-0.427122	-0.968222	1.292154	-0.109344	-0.932631	1.262337	-0.423113	
19	0.0900	-1.108080	0.898317	-0.136504	-1.062164	0.891592	-0.358109	-1.250080	0.922402	-0.235402	-1.237087	0.924820	-0.331408	-1.132559	0.698230	-0.089653	-1.082605	0.721563	-0.078508	-1.101358	0.652803	-0.079850	-1.049796	0.676178	-0.071986	-0.990879	0.465217	-0.090015	-0.965664	0.458310	-0.186333	-1.103597	0.446022	-0.091712	-1.081177	0.410473	-0.081523	-1.136790	0.417155	-0.091049	-1.104197	0.380887	-0.087777	-1.294047	0.244664	-0.144046	-1.278575	0.231460	-0.221424	-1.265820	0.130135	-0.093372	-1.235471	0.113542	-0.193050	-1.188407	0.093218	-0.126251	-1.357648	0.265666	-0.202421	-1.090152	0.694048	-0.436677	-1.039480	0.704721	-0.424511	-1.084361	0.651916	-0.437587	-1.032435	0.665032	-0.428583	-1.008050	0.467590	-0.412069	-1.020152	0.456205	-0.318999	-1.071960	0.374378	-0.453421	-1.030467	0.357263	-0.430456	-1.090660	0.328840	-0.460167	-1.050682	0.317383	-0.437920	-1.194605	0.102384	-0.448669	-1.184493	0.097086	-0.362127	-1.075781	0.040726	-0.487960	-1.078136	0.036216	-0.377883	-1.009003	0.057702	-0.416958	-1.269714	0.081988	-0.426990	-0.952131	1.293804	-0.107439	-0.912712	1.264080	-0.419877	
20	0.0950	-1.089958	0.899436	-0.136491	-1.043206	0.892823	-0.357340	-1.231965	0.923051	-0.235355	-1.218542	0.925631	-0.331282	-1.111305	0.700587	-0.089136	-1.061842	0.725249	-0.077732	-1.079011	0.655904	-0.079014	-1.027904	0.680626	-0.070937	-0.963351	0.470733	-0.088281	-0.937997	0.464361	-0.184428	-1.074689	0.446599	-0.089797	-1.050979	0.412353	-0.079569	-1.106452	0.416566	-0.088821	-1.072596	0.381885	-0.085576	-1.255348	0.237644	-0.141379	-1.239584	0.225011	-0.218793	-1.220683	0.125748	-0.090375	-1.190048	0.110463	-0.190116	-1.141740	0.093210	-0.123351	-1.319989	0.254669	-0.199464	-1.074320	0.693595	-0.436155	-1.023476	0.703351	-0.424114	-1.069338	0.651355	-0.437101	-1.017189	0.663497	-0.428226	-0.997123	0.465384	-0.412035	-1.009378	0.454221	-0.318483	-1.063237	0.373888	-0.453352	-1.022139	0.355712	-0.430339	-1.083146	0.328958	-0.460071	-1.043390	0.316333	-0.437794	-1.192721	0.104405	-0.448596	-1.182672	0.098608	-0.362057	-1.076196	0.040217	-0.488173	-1.078578	0.035887	-0.378290	-1.009294	0.057177	-0.417126	-1.268410	0.085012	-0.426855	-0.935962	1.295643	-0.105449	-0.892639	1.266102	-0.416432	
21	0.1000	-1.071683	0.900737	-0.136446	-1.024064	0.894254	-0.356469	-1.213687	0.923901	-0.235252	-1.199835	0.926633	-0.331087	-1.090146	0.703141	-0.088580	-1.041158	0.729056	-0.076960	-1.056842	0.659173	-0.078169	-1.006176	0.685162	-0.069908	-0.936316	0.476345	-0.086601	-0.910896	0.470501	-0.182565	-1.046058	0.447038	-0.087810	-1.021018	0.414227	-0.077571	-1.076252	0.415821	-0.086498	-1.041116	0.382885	-0.083310	-1.216021	0.230460	-0.138488	-1.200008	0.218462	-0.215935	-1.174838	0.121533	-0.087300	-1.144018	0.107696	-0.187120	-1.094572	0.093646	-0.120465	-1.281542	0.243329	-0.196179	-1.058378	0.693334	-0.435577	-1.007379	0.702156	-0.423629	-1.054206	0.650989	-0.436569	-1.001843	0.662147	-0.427789	-0.986147	0.463379	-0.411969	-0.998608	0.452420	-0.317909	-1.054495	0.373671	-0.453274	-1.013813	0.354461	-0.430229	-1.075590	0.329409	-0.459983	-1.036061	0.315610	-0.437682	-1.190564	0.106828	-0.448552	-1.180543	0.100526	-0.362065	-1.076710	0.039881	-0.488385	-1.079126	0.035737	-0.378722	-1.009770	0.056735	-0.417300	-1.266715	0.088623	-0.426706	-0.919730	1.297653	-0.103376	-0.872459	1.268373	-0.412800	
22	0.1050	-1.053276	0.902206	-0.136357	-1.004758	0.895882	-0.355491	-1.195268	0.924936	-0.235087	-1.180991	0.927817	-0.330817	-1.069119	0.705853	-0.087983	-1.020583	0.732937	-0.076191	-1.034895	0.662564	-0.077312	-0.984649	0.689728	-0.068900	-0.909849	0.481978	-0.084979	-0.884435	0.476648	-0.180751	-1.017775	0.447308	-0.085758	-0.991380	0.416057	-0.075536	-1.046264	0.414902	-0.084092	-1.009848	0.383862	-0.080988	-1.176168	0.223168	-0.135387	-1.159948	0.211859	-0.212862	-1.128429	0.117543	-0.084157	-1.097532	0.105273	-0.184068	-1.047064	0.094552	-0.117602	-1.242391	0.231726	-0.192583	-1.042320	0.693271	-0.434943	-0.991185	0.701156	-0.423056	-1.038949	0.650828	-0.435991	-0.986384	0.661002	-0.427269	-0.975062	0.461595	-0.411867	-0.987781	0.450823	-0.317274	-1.045667	0.373747	-0.453175	-1.005420	0.353530	-0.430120	-1.067925	0.330210	-0.459896	-1.028626	0.315232	-0.437577	-1.188083	0.109685	-0.448529	-1.178054	0.102867	-0.362141	-1.077296	0.039746	-0.488592	-1.079756	0.035781	-0.379170	-1.010415	0.056353	-0.417479	-1.264563	0.092869	-0.426529	-0.903449	1.299814	-0.101223	-0.852223	1.270858	-0.409007	
23	0.1100	-1.034753	0.903826	-0.136214	-0.985303	0.897701	-0.354405	-1.176726	0.926140	-0.234854	-1.162033	0.929169	-0.330465	-1.048258	0.708684	-0.087342	-1.000142	0.736843	-0.075421	-1.013211	0.666026	-0.076442	-0.963356	0.694265	-0.067911	-0.884017	0.487557	-0.083420	-0.858678	0.482718	-0.178988	-0.989904	0.447378	-0.083652	-0.962140	0.417807	-0.073469	-1.016563	0.413790	-0.081615	-0.978879	0.384790	-0.078618	-1.135902	0.215827	-0.132092	-1.119519	0.205249	-0.209590	-1.081611	0.113827	-0.080958	-1.050751	0.103221	-0.180969	-0.999388	0.095941	-0.114768	-1.202638	0.219946	-0.188702	-1.026138	0.693410	-0.434255	-0.974887	0.700365	-0.422398	-1.023551	0.650874	-0.435368	-0.970797	0.660076	-0.426668	-0.963804	0.460048	-0.411724	-0.976828	0.449447	-0.316578	-1.036683	0.374133	-0.453047	-0.996889	0.352931	-0.430003	-1.060081	0.331372	-0.459797	-1.021015	0.315213	-0.437470	-1.185227	0.113003	-0.448515	-1.175157	0.105651	-0.362275	-1.077919	0.039841	-0.488784	-1.080432	0.036041	-0.379618	-1.011204	0.056014	-0.417657	-1.261885	0.097792	-0.426311	-0.887131	1.302100	-0.098994	-0.831982	1.273521	-0.405080	
24	0.1150	-1.016134	0.905579	-0.136007	-0.965718	0.899697	-0.353206	-1.158080	0.927490	-0.234547	-1.142981	0.930672	-0.330026	-1.027590	0.711588	-0.086656	-0.979858	0.740719	-0.074647	-0.991821	0.669507	-0.075556	-0.942323	0.698711	-0.066942	-0.858873	0.493008	-0.081929	-0.833676	0.488627	-0.177282	-0.962504	0.447219	-0.081502	-0.933372	0.419441	-0.071378	-0.987216	0.412471	-0.079083	-0.948290	0.385642	-0.076211	-1.095348	0.208494	-0.128627	-1.078843	0.198677	-0.206141	-1.034555	0.110422	-0.077717	-1.003846	0.101552	-0.177835	-0.951722	0.097812	-0.111970	-1.162399	0.208079	-0.184565	-1.009822	0.693750	-0.433516	-0.958479	0.699791	-0.421657	-1.007992	0.651129	-0.434703	-0.955069	0.659382	-0.425988	-0.952308	0.458751	-0.411536	-0.965681	0.448303	-0.315821	-1.027470	0.374834	-0.452882	-0.988146	0.352668	-0.429873	-1.051983	0.332900	-0.459677	-1.013157	0.315559	-0.437353	-1.181944	0.116805	-0.448498	-1.171802	0.108895	-0.362452	-1.078538	0.040201	-0.488954	-1.081114	0.036538	-0.380055	-1.012105	0.055702	-0.417832	-1.258614	0.103426	-0.426038	-0.870784	1.304482	-0.096693	-0.811786	1.276323	-0.401049	
25	0.1200	-0.997432	0.907440	-0.135728	-0.946017	0.901856	-0.351893	-1.139347	0.928963	-0.234160	-1.123857	0.932304	-0.329495	-1.007139	0.714519	-0.085924	-0.959746	0.744513	-0.073866	-0.970751	0.672953	-0.074654	-0.921569	0.703008	-0.065990	-0.834459	0.498256	-0.080509	-0.809465	0.494293	-0.175636	-0.935622	0.446808	-0.079320	-0.905139	0.420921	-0.069273	-0.958286	0.410933	-0.076511	-0.918157	0.386391	-0.073778	-1.054640	0.201224	-0.125015	-1.038052	0.192187	-0.202539	-0.987440	0.107358	-0.074447	-0.956996	0.100268	-0.174675	-0.904249	0.100146	-0.109217	-1.121804	0.196216	-0.180205	-0.993362	0.694284	-0.432727	-0.941952	0.699438	-0.420839	-0.992255	0.651584	-0.433997	-0.939180	0.658922	-0.425231	-0.940508	0.457707	-0.411300	-0.954265	0.447394	-0.315004	-1.017954	0.375853	-0.452670	-0.979118	0.352740	-0.429720	-1.043560	0.334789	-0.459525	-1.004978	0.316268	-0.437217	-1.178181	0.121106	-0.448464	-1.167942	0.112611	-0.362655	-1.079104	0.040859	-0.489091	-1.081751	0.037297	-0.380466	-1.013075	0.055411	-0.418000	-1.254685	0.109792	-0.425691	-0.854418	1.306929	-0.094326	-0.791680	1.279228	-0.396945	
26	0.1250	-0.978663	0.909383	-0.135368	-0.926215	0.904157	-0.350466	-1.120540	0.930530	-0.233688	-1.104677	0.934039	-0.328868	-0.986919	0.717428	-0.085144	-0.939815	0.748171	-0.073073	-0.950017	0.676311	-0.073732	-0.901105	0.707094	-0.065054	-0.810801	0.503229	-0.079161	-0.786067	0.499637	-0.174051	-0.909300	0.446123	-0.077119	-0.877493	0.422214	-0.067161	-0.929829	0.409168	-0.073918	-0.888549	0.387011	-0.071332	-1.013918	0.194068	-0.121285	-0.997285	0.185818	-0.198812	-0.940454	0.104650	-0.071164	-0.910385	0.099359	-0.171502	-0.857155	0.102912	-0.106516	-1.080996	0.184450	-0.175664	-0.976745	0.695000	-0.431892	-0.925294	0.699305	-0.419948	-0.976317	0.652228	-0.433253	-0.923113	0.658696	-0.424401	-0.928340	0.456915	-0.411014	-0.942508	0.446718	-0.314127	-1.008061	0.377183	-0.452403	-0.969730	0.353138	-0.429539	-1.034739	0.337028	-0.459330	-0.996407	0.317332	-0.437052	-1.173888	0.125915	-0.448396	-1.163528	0.116802	-0.362867	-1.079555	0.041851	-0.489184	-1.082284	0.038343	-0.380837	-1.014062	0.055140	-0.418155	-1.250035	0.116898	-0.425255	-0.838037	1.309409	-0.091896	-0.771707	1.282196	-0.392799	
27	0.1300	-0.959835	0.911381	-0.134920	-0.906322	0.906576	-0.348924	-1.101672	0.932160	-0.233128	-1.085455	0.935852	-0.328141	-0.966938	0.720268	-0.084317	-0.920069	0.751641	-0.072264	-0.929628	0.679526	-0.072789	-0.880936	0.710913	-0.064131	-0.787909	0.507861	-0.077886	-0.763487	0.504588	-0.172529	-0.883567	0.445151	-0.074911	-0.850477	0.423289	-0.065053	-0.901894	0.407172	-0.071321	-0.859524	0.387476	-0.068887	-0.973332	0.187073	-0.117468	-0.956687	0.179606	-0.194991	-0.893791	0.102303	-0.067885	-0.864202	0.098800	-0.168332	-0.810625	0.106060	-0.103874	-1.040129	0.172869	-0.170985	-0.959956	0.695881	-0.431013	-0.908490	0.699384	-0.418991	-0.960159	0.653044	-0.432472	-0.906846	0.658696	-0.423504	-0.915739	0.456364	-0.410676	-0.930338	0.446266	-0.313193	-0.997719	0.378810	-0.452072	-0.959910	0.353845	-0.429322	-1.025447	0.339600	-0.459080	-0.987375	0.318734	-0.436850	-1.169012	0.131233	-0.448277	-1.158514	0.121469	-0.363064	-1.079824	0.043211	-0.489222	-1.082642	0.039702	-0.381152	-1.015001	0.054893	-0.418294	-1.244604	0.124742	-0.424711	-0.821646	1.311886	-0.089409	-0.751905	1.285191	-0.388642	
28	0.1350	-0.940958	0.913403	-0.134379	-0.886349	0.909085	-0.347268	-1.082751	0.933821	-0.232475	-1.066203	0.937709	-0.327313	-0.947196	0.722990	-0.083442	-0.900502	0.754872	-0.071434	-0.909581	0.682547	-0.071824	-0.861057	0.714413	-0.063219	-0.765780	0.512092	-0.076686	-0.741713	0.509081	-0.171071	-0.858443	0.443882	-0.072712	-0.824124	0.424117	-0.062959	-0.874520	0.404944	-0.068738	-0.831132	0.387764	-0.066456	-0.933033	0.180281	-0.113595	-0.916406	0.173579	-0.191109	-0.847647	0.100310	-0.064627	-0.818633	0.098556	-0.165179	-0.764840	0.109524	-0.101299	-0.999367	0.161560	-0.166213	-0.942980	0.696906	-0.430094	-0.891526	0.699663	-0.417974	-0.943758	0.654011	-0.431657	-0.890358	0.658910	-0.422544	-0.902646	0.456042	-0.410283	-0.917685	0.446021	-0.312203	-0.986858	0.380715	-0.451671	-0.949588	0.354839	-0.429063	-1.015617	0.342477	-0.458764	-0.977814	0.320452	-0.436602	-1.163502	0.137055	-0.448090	-1.152855	0.126601	-0.363226	-1.079831	0.044971	-0.489192	-1.082747	0.041396	-0.381398	-1.015817	0.054682	-0.418411	-1.238336	0.133306	-0.424042	-0.805242	1.314325	-0.086870	-0.732306	1.288177	-0.384503	
29	0.1400	-0.922036	0.915418	-0.133738	-0.866301	0.911653	-0.345500	-1.063783	0.935477	-0.231726	-1.046929	0.939579	-0.326383	-0.927685	0.725548	-0.082518	-0.881107	0.757819	-0.070578	-0.889867	0.685327	-0.070834	-0.841455	0.717546	-0.062315	-0.744393	0.515869	-0.075561	-0.720719	0.513062	-0.169678	-0.833937	0.442313	-0.070534	-0.798452	0.424676	-0.060892	-0.847739	0.402490	-0.066188	-0.803411	0.387854	-0.064054	-0.893176	0.173728	-0.109702	-0.876595	0.167764	-0.187202	-0.802220	0.098649	-0.061408	-0.773866	0.098577	-0.162059	-0.719980	0.113226	-0.098798	-0.958882	0.150607	-0.161398	-0.925799	0.698049	-0.429137	-0.874381	0.700121	-0.416903	-0.927090	0.655101	-0.430807	-0.873627	0.659317	-0.421526	-0.889004	0.455927	-0.409835	-0.904481	0.445962	-0.311159	-0.975410	0.382870	-0.451190	-0.938695	0.356090	-0.428753	-1.005182	0.345629	-0.458371	-0.967659	0.322456	-0.436296	-1.157309	0.143362	-0.447815	-1.146505	0.132181	-0.363328	-1.079489	0.047160	-0.489081	-1.082511	0.043448	-0.381558	-1.016420	0.054524	-0.418499	-1.231179	0.142557	-0.423230	-0.788826	1.316691	-0.084283	-0.712936	1.291121	-0.380412	
30	0.1450	-0.903071	0.917393	-0.132995	-0.846183	0.914245	-0.343621	-1.044772	0.937095	-0.230881	-1.027638	0.941427	-0.325350	-0.908390	0.727900	-0.081546	-0.861865	0.760440	-0.069692	-0.870463	0.687823	-0.069819	-0.822108	0.720272	-0.061416	-0.723714	0.519148	-0.074508	-0.700464	0.516485	-0.168348	-0.810049	0.440449	-0.068391	-0.773471	0.424947	-0.058861	-0.821574	0.399820	-0.063689	-0.776391	0.387730	-0.061696	-0.853919	0.167442	-0.105822	-0.837406	0.162180	-0.183305	-0.757707	0.097290	-0.058246	-0.730084	0.098808	-0.158991	-0.676215	0.117074	-0.096380	-0.918852	0.140085	-0.156590	-0.908393	0.699279	-0.428145	-0.857037	0.700738	-0.415784	-0.910133	0.656285	-0.429925	-0.856628	0.659896	-0.420455	-0.874759	0.455995	-0.409329	-0.890662	0.446064	-0.310062	-0.963312	0.385244	-0.450624	-0.927170	0.357565	-0.428386	-0.994081	0.349018	-0.457890	-0.956850	0.324713	-0.435924	-1.150383	0.150131	-0.447434	-1.139420	0.138186	-0.363344	-1.078700	0.049799	-0.488877	-1.081835	0.045872	-0.381620	-1.016712	0.054438	-0.418552	-1.223086	0.152448	-0.422258	-0.772390	1.318949	-0.081655	-0.693814	1.293993	-0.376394	
31	0.1500	-0.884063	0.919297	-0.132147	-0.825998	0.916826	-0.341636	-1.025717	0.938639	-0.229937	-1.008330	0.943217	-0.324218	-0.889288	0.730006	-0.080525	-0.842754	0.762700	-0.068772	-0.851343	0.689995	-0.068777	-0.802989	0.722556	-0.060518	-0.703696	0.521894	-0.073526	-0.680895	0.519317	-0.167082	-0.786767	0.438299	-0.066295	-0.749177	0.424916	-0.056880	-0.796039	0.396946	-0.061257	-0.750089	0.387377	-0.059397	-0.815416	0.161448	-0.101990	-0.798992	0.156840	-0.179455	-0.714301	0.096189	-0.055161	-0.687464	0.099182	-0.155993	-0.633708	0.120966	-0.094053	-0.879458	0.130063	-0.151838	-0.890742	0.700564	-0.427119	-0.839470	0.701484	-0.414623	-0.892861	0.657530	-0.429010	-0.839337	0.660617	-0.419337	-0.859863	0.456217	-0.408765	-0.876172	0.446298	-0.308912	-0.950505	0.387799	-0.449965	-0.914952	0.359224	-0.427954	-0.982255	0.352600	-0.457310	-0.945330	0.327183	-0.435476	-1.142673	0.157328	-0.446926	-1.131555	0.144581	-0.363251	-1.077359	0.052903	-0.488565	-1.080613	0.048681	-0.381570	-1.016581	0.054452	-0.418561	-1.214016	0.162916	-0.421109	-0.755927	1.321067	-0.078989	-0.674952	1.296766	-0.372475	
32	0.1550	-0.865006	0.921099	-0.131193	-0.805745	0.919359	-0.339548	-1.006615	0.940073	-0.228894	-0.989005	0.944913	-0.322988	-0.870349	0.731832	-0.079455	-0.823748	0.764569	-0.067812	-0.832470	0.691812	-0.067706	-0.784065	0.724372	-0.059619	-0.684279	0.524083	-0.072614	-0.661947	0.521536	-0.165878	-0.764074	0.435879	-0.064260	-0.725557	0.424575	-0.054958	-0.771139	0.393888	-0.058908	-0.724514	0.386785	-0.057171	-0.777820	0.155763	-0.098240	-0.761502	0.151755	-0.175688	-0.672186	0.095297	-0.052171	-0.646176	0.099627	-0.153083	-0.592612	0.124795	-0.091823	-0.840881	0.120603	-0.147192	-0.872824	0.701871	-0.426059	-0.821656	0.702332	-0.413425	-0.875252	0.658800	-0.428062	-0.821728	0.661450	-0.418175	-0.844272	0.456562	-0.408140	-0.860957	0.446631	-0.307709	-0.936934	0.390497	-0.449208	-0.901987	0.361029	-0.427449	-0.969651	0.356331	-0.456622	-0.933047	0.329824	-0.434940	-1.134133	0.164908	-0.446274	-1.122866	0.151327	-0.363023	-1.075353	0.056480	-0.488133	-1.078730	0.051879	-0.381395	-1.015904	0.054590	-0.418516	-1.203933	0.173888	-0.419769	-0.739427	1.323012	-0.076290	-0.656355	1.299419	-0.368675	
33	0.1600	-0.845896	0.922770	-0.130132	-0.785423	0.921807	-0.337361	-0.987461	0.941364	-0.227752	-0.969657	0.946479	-0.321663	-0.851540	0.733349	-0.078337	-0.804814	0.766025	-0.066811	-0.813802	0.693249	-0.066608	-0.765294	0.725703	-0.058716	-0.665394	0.525700	-0.071769	-0.643544	0.523132	-0.164736	-0.741941	0.433213	-0.062297	-0.702590	0.423923	-0.053108	-0.746872	0.390669	-0.056656	-0.699664	0.385949	-0.055034	-0.741279	0.150396	-0.094604	-0.725081	0.146927	-0.172040	-0.631539	0.094556	-0.049294	-0.606379	0.100068	-0.150281	-0.553067	0.128447	-0.089699	-0.803301	0.111758	-0.142698	-0.854618	0.703163	-0.424967	-0.803571	0.703248	-0.412192	-0.857280	0.660060	-0.427078	-0.803777	0.662363	-0.416971	-0.827946	0.456998	-0.407452	-0.844971	0.447032	-0.306453	-0.922550	0.393295	-0.448346	-0.888224	0.362937	-0.426863	-0.956220	0.360162	-0.455815	-0.919953	0.332590	-0.434308	-1.124713	0.172821	-0.445459	-1.113308	0.158374	-0.362635	-1.072562	0.060526	-0.487569	-1.076067	0.055461	-0.381082	-1.014549	0.054882	-0.418407	-1.192805	0.185273	-0.418224	-0.722875	1.324758	-0.073564	-0.638021	1.301931	-0.365014	
34	0.1650	-0.826721	0.924284	-0.128965	-0.765027	0.924134	-0.335082	-0.968247	0.942482	-0.226513	-0.950281	0.947882	-0.320250	-0.832819	0.734534	-0.077170	-0.785916	0.767053	-0.065765	-0.795289	0.694287	-0.065481	-0.746632	0.726540	-0.057806	-0.646964	0.526741	-0.070989	-0.625607	0.524106	-0.163653	-0.720336	0.430329	-0.060414	-0.680243	0.422963	-0.051340	-0.723231	0.387316	-0.054514	-0.675529	0.384868	-0.052997	-0.705934	0.145355	-0.091112	-0.689869	0.142358	-0.168543	-0.592525	0.093906	-0.046547	-0.568219	0.100427	-0.147605	-0.515201	0.131810	-0.087689	-0.766894	0.103571	-0.138399	-0.836101	0.704405	-0.423841	-0.785191	0.704201	-0.410928	-0.838923	0.661274	-0.426057	-0.785459	0.663322	-0.415729	-0.810852	0.457494	-0.406697	-0.828174	0.447469	-0.305142	-0.907310	0.396149	-0.447374	-0.873618	0.364905	-0.426187	-0.941918	0.364044	-0.454882	-0.906005	0.335438	-0.433569	-1.114367	0.181006	-0.444463	-1.102836	0.165668	-0.362066	-1.068860	0.065029	-0.486859	-1.072498	0.059414	-0.380620	-1.012377	0.055354	-0.418222	-1.180607	0.196973	-0.416461	-0.706257	1.326278	-0.070814	-0.619940	1.304286	-0.361506	
35	0.1700	-0.807473	0.925616	-0.127694	-0.744554	0.926305	-0.332717	-0.948963	0.943398	-0.225177	-0.930867	0.949088	-0.318752	-0.814146	0.735371	-0.075955	-0.767017	0.767646	-0.064672	-0.776881	0.694917	-0.064325	-0.728034	0.726883	-0.056888	-0.628906	0.527213	-0.070269	-0.608051	0.524471	-0.162629	-0.699221	0.427259	-0.058619	-0.658481	0.421703	-0.049663	-0.700200	0.383858	-0.052491	-0.652092	0.383544	-0.051074	-0.671916	0.140638	-0.087792	-0.655997	0.138045	-0.165228	-0.555293	0.093283	-0.043947	-0.531831	0.100631	-0.145073	-0.479125	0.134775	-0.085801	-0.731825	0.096076	-0.134335	-0.817251	0.705565	-0.422680	-0.766489	0.705160	-0.409634	-0.820159	0.662410	-0.424995	-0.766750	0.664294	-0.414449	-0.792963	0.458019	-0.405871	-0.810532	0.447913	-0.303774	-0.891177	0.399017	-0.446287	-0.858131	0.366893	-0.425412	-0.926707	0.367927	-0.453814	-0.891165	0.338321	-0.432713	-1.103047	0.189396	-0.443270	-1.091406	0.173147	-0.361293	-1.064122	0.069963	-0.485994	-1.067894	0.063718	-0.380000	-1.009240	0.056032	-0.417948	-1.167318	0.208876	-0.414473	-0.689556	1.327552	-0.068046	-0.602098	1.306474	-0.358165	
36	0.1750	-0.788139	0.926747	-0.126321	-0.723997	0.928288	-0.330271	-0.929600	0.944089	-0.223747	-0.911405	0.950070	-0.317175	-0.795475	0.735851	-0.074692	-0.748079	0.767805	-0.063532	-0.758524	0.695137	-0.063141	-0.709451	0.726742	-0.055959	-0.611136	0.527132	-0.069609	-0.590788	0.524249	-0.161663	-0.678552	0.424041	-0.056920	-0.637260	0.420159	-0.048088	-0.677760	0.380329	-0.050596	-0.629329	0.381984	-0.049275	-0.639345	0.136243	-0.084667	-0.623585	0.133980	-0.162123	-0.519977	0.092624	-0.041509	-0.497332	0.100609	-0.142705	-0.444936	0.137241	-0.084042	-0.698252	0.089297	-0.130540	-0.798047	0.706612	-0.421482	-0.747442	0.706093	-0.408310	-0.800967	0.663435	-0.423889	-0.747628	0.665250	-0.413131	-0.774254	0.458546	-0.404970	-0.792019	0.448336	-0.302343	-0.874119	0.401857	-0.445079	-0.841727	0.368862	-0.424528	-0.910552	0.371764	-0.452604	-0.875398	0.341198	-0.431731	-1.090709	0.197916	-0.441868	-1.078973	0.180742	-0.360298	-1.058219	0.075293	-0.484962	-1.062126	0.068339	-0.379210	-1.004990	0.056936	-0.417571	-1.152922	0.220865	-0.412251	-0.672751	1.328563	-0.065263	-0.584474	1.308487	-0.354998	
37	0.1800	-0.768705	0.927663	-0.124850	-0.703353	0.930054	-0.327754	-0.910144	0.944533	-0.222227	-0.891887	0.950802	-0.315527	-0.776761	0.735971	-0.073382	-0.729062	0.767539	-0.062345	-0.740163	0.694952	-0.061930	-0.690833	0.726132	-0.055018	-0.593569	0.526520	-0.069005	-0.573735	0.523473	-0.160753	-0.658286	0.420714	-0.055320	-0.616535	0.418349	-0.046621	-0.655886	0.376763	-0.048832	-0.607210	0.380200	-0.047611	-0.608329	0.132164	-0.081758	-0.592743	0.130157	-0.159250	-0.486690	0.091872	-0.039246	-0.464822	0.100298	-0.140514	-0.412713	0.139116	-0.082418	-0.666315	0.083248	-0.127042	-0.778471	0.707518	-0.420244	-0.728029	0.706975	-0.406954	-0.781329	0.664322	-0.422733	-0.728074	0.666160	-0.411774	-0.754711	0.459052	-0.403989	-0.772617	0.448718	-0.300848	-0.856111	0.404632	-0.443746	-0.824379	0.370779	-0.423527	-0.893428	0.375510	-0.451246	-0.858678	0.344027	-0.430612	-1.077309	0.206488	-0.440243	-1.065493	0.188383	-0.359064	-1.051025	0.080973	-0.483755	-1.055068	0.073238	-0.378243	-0.999477	0.058085	-0.417076	-1.137411	0.232816	-0.409792	-0.655824	1.329298	-0.062469	-0.567043	1.310319	-0.352011	
38	0.1850	-0.749160	0.928351	-0.123283	-0.682616	0.931577	-0.325173	-0.890586	0.944717	-0.220618	-0.872300	0.951262	-0.313813	-0.757961	0.735737	-0.072024	-0.709932	0.766864	-0.061111	-0.721747	0.694375	-0.060693	-0.672137	0.725080	-0.054064	-0.576123	0.525411	-0.068453	-0.556810	0.522184	-0.159900	-0.638380	0.417321	-0.053821	-0.596259	0.416297	-0.045269	-0.634553	0.373195	-0.047204	-0.585703	0.378207	-0.046090	-0.578960	0.128392	-0.079079	-0.563566	0.126566	-0.156628	-0.455527	0.090972	-0.037169	-0.434382	0.099646	-0.138516	-0.382519	0.140323	-0.080937	-0.636142	0.077935	-0.123863	-0.758506	0.708260	-0.418962	-0.708231	0.707782	-0.405565	-0.761231	0.665049	-0.421522	-0.708072	0.667002	-0.410376	-0.734323	0.459518	-0.402922	-0.752315	0.449043	-0.299281	-0.837138	0.407305	-0.442285	-0.806064	0.372612	-0.422400	-0.875311	0.379124	-0.449735	-0.840980	0.346771	-0.429350	-1.062807	0.215027	-0.438387	-1.050924	0.195993	-0.357580	-1.042419	0.086945	-0.482364	-1.046596	0.078364	-0.377092	-0.992554	0.059487	-0.416446	-1.120778	0.244603	-0.407094	-0.638754	1.329751	-0.059670	-0.549775	1.311971	-0.349208	
39	0.1900	-0.729490	0.928806	-0.121625	-0.661784	0.932839	-0.322538	-0.870914	0.944631	-0.218924	-0.852636	0.951434	-0.312041	-0.739035	0.735161	-0.070620	-0.690653	0.765802	-0.059833	-0.703226	0.693426	-0.059431	-0.653318	0.723615	-0.053098	-0.558722	0.523843	-0.067952	-0.539938	0.520429	-0.159102	-0.618789	0.413903	-0.052424	-0.576385	0.414029	-0.044038	-0.613733	0.369663	-0.045711	-0.564775	0.376022	-0.044716	-0.551316	0.124915	-0.076641	-0.536133	0.123199	-0.154272	-0.426559	0.089880	-0.035288	-0.406075	0.098609	-0.136721	-0.354396	0.140802	-0.079603	-0.607838	0.073353	-0.121018	-0.738141	0.708820	-0.417633	-0.688032	0.708495	-0.404141	-0.740661	0.665597	-0.420252	-0.687610	0.667755	-0.408935	-0.713087	0.459931	-0.401762	-0.731109	0.449300	-0.297640	-0.817188	0.409847	-0.440691	-0.786768	0.374337	-0.421136	-0.856189	0.382568	-0.448068	-0.822288	0.349400	-0.427935	-1.047168	0.223447	-0.436294	-1.035228	0.203497	-0.355833	-1.032287	0.093142	-0.480783	-1.036596	0.083658	-0.375748	-0.984080	0.061146	-0.415667	-1.103027	0.256096	-0.404161	-0.621521	1.329919	-0.056870	-0.532641	1.313443	-0.346589	
40	0.1950	-0.709685	0.929028	-0.119883	-0.640855	0.933824	-0.319857	-0.851120	0.944271	-0.217150	-0.832888	0.951307	-0.310216	-0.719946	0.734260	-0.069170	-0.671198	0.764383	-0.058514	-0.684556	0.692131	-0.058146	-0.634340	0.721777	-0.052120	-0.541296	0.521860	-0.067500	-0.523054	0.518259	-0.158359	-0.599476	0.410504	-0.051127	-0.556868	0.411575	-0.042929	-0.593398	0.366200	-0.044351	-0.544390	0.373668	-0.043495	-0.525454	0.121724	-0.074452	-0.510507	0.120046	-0.152189	-0.399835	0.088558	-0.033608	-0.379941	0.097161	-0.135140	-0.328371	0.140513	-0.078420	-0.581489	0.069489	-0.118515	-0.717368	0.709188	-0.416252	-0.667424	0.709100	-0.402678	-0.719615	0.665957	-0.418917	-0.666680	0.668407	-0.407449	-0.691008	0.460285	-0.400504	-0.709004	0.449485	-0.295917	-0.796261	0.412232	-0.438963	-0.766484	0.375935	-0.419730	-0.836054	0.385811	-0.446244	-0.802594	0.351885	-0.426362	-1.030361	0.231663	-0.433958	-1.018371	0.210817	-0.353820	-1.020528	0.099489	-0.479007	-1.024965	0.089056	-0.374209	-0.973925	0.063058	-0.414721	-1.084163	0.267171	-0.400996	-0.604107	1.329804	-0.054074	-0.515608	1.314741	-0.344151	
41	0.2000	-0.689738	0.929021	-0.118061	-0.619832	0.934523	-0.317142	-0.831198	0.943640	-0.215300	-0.813051	0.950875	-0.308346	-0.700665	0.733059	-0.067676	-0.651544	0.762642	-0.057159	-0.665702	0.690522	-0.056840	-0.615173	0.719607	-0.051132	-0.523788	0.519510	-0.067093	-0.506103	0.515730	-0.157670	-0.580404	0.407164	-0.049926	-0.537669	0.408965	-0.041946	-0.573524	0.362840	-0.043118	-0.524516	0.371167	-0.042428	-0.501415	0.118806	-0.072512	-0.486734	0.117099	-0.150385	-0.375379	0.086981	-0.032133	-0.356000	0.095285	-0.133778	-0.304448	0.139434	-0.077391	-0.557158	0.066323	-0.116355	-0.696186	0.709356	-0.414816	-0.646402	0.709590	-0.401174	-0.698092	0.666121	-0.417512	-0.645283	0.668949	-0.405915	-0.668099	0.460578	-0.399141	-0.686016	0.449603	-0.294108	-0.774366	0.414440	-0.437097	-0.745211	0.377393	-0.418172	-0.814909	0.388827	-0.444261	-0.781896	0.354206	-0.424625	-1.012363	0.239587	-0.431382	-1.000326	0.217877	-0.351538	-1.007053	0.105906	-0.477032	-1.011612	0.094486	-0.372468	-0.961973	0.065209	-0.413594	-1.064201	0.277706	-0.397609	-0.586495	1.329415	-0.051286	-0.498644	1.315872	-0.341889	
42	0.2050	-0.669644	0.928794	-0.116165	-0.598723	0.934934	-0.314403	-0.811145	0.942745	-0.213380	-0.793124	0.950141	-0.306436	-0.681172	0.731587	-0.066140	-0.631676	0.760616	-0.055771	-0.646636	0.688637	-0.055516	-0.595795	0.717152	-0.050134	-0.506151	0.516842	-0.066729	-0.489042	0.512900	-0.157035	-0.561546	0.403922	-0.048817	-0.518753	0.406233	-0.041087	-0.554086	0.359614	-0.042008	-0.505123	0.368545	-0.041514	-0.479221	0.116151	-0.070819	-0.464840	0.114352	-0.148857	-0.353191	0.085135	-0.030863	-0.334251	0.092983	-0.132638	-0.282616	0.137566	-0.076516	-0.534885	0.063826	-0.114533	-0.674602	0.709325	-0.413320	-0.624971	0.709963	-0.399625	-0.676102	0.666092	-0.416033	-0.623427	0.669380	-0.404329	-0.644382	0.460815	-0.397667	-0.662169	0.449661	-0.292208	-0.751522	0.416459	-0.435094	-0.722962	0.378705	-0.416458	-0.792765	0.391597	-0.442121	-0.760202	0.356347	-0.422720	-0.993160	0.247135	-0.428567	-0.981074	0.224602	-0.348988	-0.991792	0.112306	-0.474858	-0.996467	0.099876	-0.370525	-0.948127	0.067580	-0.412271	-1.043163	0.287585	-0.394011	-0.568674	1.328764	-0.048513	-0.481721	1.316844	-0.339798	
43	0.2100	-0.649404	0.928361	-0.114204	-0.577537	0.935058	-0.311653	-0.790963	0.941600	-0.211394	-0.773111	0.949109	-0.304495	-0.661454	0.729878	-0.064565	-0.611589	0.758349	-0.054356	-0.627342	0.686514	-0.054177	-0.576195	0.714460	-0.049130	-0.488353	0.513909	-0.066406	-0.471845	0.509826	-0.156453	-0.542880	0.400811	-0.047794	-0.500093	0.403410	-0.040352	-0.535066	0.356550	-0.041011	-0.486185	0.365828	-0.040751	-0.458874	0.113749	-0.069364	-0.444832	0.111799	-0.147600	-0.333249	0.083018	-0.029795	-0.314670	0.090268	-0.131718	-0.262845	0.134931	-0.075794	-0.514684	0.061965	-0.113038	-0.652628	0.709102	-0.411763	-0.603143	0.710221	-0.398030	-0.653660	0.665877	-0.414475	-0.601126	0.669703	-0.402691	-0.619890	0.461009	-0.396079	-0.637498	0.449677	-0.290214	-0.727758	0.418279	-0.432953	-0.699759	0.379869	-0.414583	-0.769646	0.394105	-0.439827	-0.737530	0.358300	-0.420647	-0.972750	0.254227	-0.425521	-0.960608	0.230924	-0.346177	-0.974698	0.118602	-0.472484	-0.979479	0.105148	-0.368377	-0.932313	0.070141	-0.410739	-1.021079	0.296705	-0.390219	-0.550634	1.327869	-0.045761	-0.464813	1.317668	-0.337869	
44	0.2150	-0.629025	0.927740	-0.112185	-0.556293	0.934904	-0.308902	-0.770662	0.940224	-0.209349	-0.753021	0.947793	-0.302526	-0.641510	0.727968	-0.062952	-0.591286	0.755883	-0.052922	-0.607815	0.684196	-0.052825	-0.556371	0.711580	-0.048122	-0.470379	0.510762	-0.066122	-0.454497	0.506565	-0.155924	-0.524395	0.397863	-0.046848	-0.481670	0.400529	-0.039735	-0.516448	0.353671	-0.040118	-0.467680	0.363041	-0.040135	-0.440359	0.111589	-0.068138	-0.426700	0.109436	-0.146603	-0.315506	0.080640	-0.028925	-0.297215	0.087171	-0.131014	-0.245088	0.131571	-0.075221	-0.496546	0.060699	-0.111852	-0.630289	0.708698	-0.410141	-0.580941	0.710375	-0.396387	-0.630793	0.665488	-0.412837	-0.578408	0.669928	-0.400999	-0.594667	0.461173	-0.394373	-0.612051	0.449670	-0.288124	-0.703118	0.419899	-0.430676	-0.675635	0.380890	-0.412544	-0.745586	0.396346	-0.437384	-0.713911	0.360061	-0.418406	-0.951144	0.260791	-0.422253	-0.938934	0.236779	-0.343115	-0.955745	0.124706	-0.469914	-0.960622	0.110227	-0.366027	-0.914483	0.072859	-0.408988	-0.997990	0.304972	-0.386249	-0.532374	1.326752	-0.043036	-0.447898	1.318358	-0.336093	
45	0.2200	-0.608519	0.926952	-0.110116	-0.535014	0.934488	-0.306166	-0.750254	0.938641	-0.207252	-0.732871	0.946211	-0.300537	-0.621351	0.725897	-0.061306	-0.570783	0.753266	-0.051475	-0.588064	0.681728	-0.051464	-0.536336	0.708562	-0.047112	-0.452229	0.507450	-0.065875	-0.437003	0.503171	-0.155447	-0.506087	0.395102	-0.045973	-0.463476	0.397620	-0.039231	-0.498226	0.350996	-0.039318	-0.449597	0.360212	-0.039658	-0.423641	0.109665	-0.067126	-0.410411	0.107262	-0.145850	-0.299894	0.078022	-0.028242	-0.281822	0.083733	-0.130519	-0.229280	0.127548	-0.074792	-0.480436	0.059985	-0.110953	-0.607618	0.708131	-0.408455	-0.558397	0.710436	-0.394696	-0.607536	0.664943	-0.411116	-0.555308	0.670068	-0.399253	-0.568769	0.461329	-0.392547	-0.585885	0.449665	-0.285936	-0.677657	0.421323	-0.428267	-0.650638	0.381778	-0.410342	-0.720636	0.398316	-0.434800	-0.689389	0.361631	-0.416000	-0.928367	0.266759	-0.418778	-0.916073	0.242110	-0.339816	-0.934936	0.130532	-0.467151	-0.939896	0.115041	-0.363476	-0.894619	0.075691	-0.407010	-0.973948	0.312307	-0.382124	-0.513899	1.325437	-0.040346	-0.430965	1.318924	-0.334460	
46	0.2250	-0.587908	0.926021	-0.108007	-0.513730	0.933827	-0.303456	-0.729763	0.936880	-0.205109	-0.712682	0.944386	-0.298533	-0.601000	0.723705	-0.059632	-0.550106	0.750540	-0.050021	-0.568110	0.679153	-0.050097	-0.516115	0.705454	-0.046105	-0.433918	0.504022	-0.065661	-0.419380	0.499695	-0.155020	-0.487966	0.392547	-0.045159	-0.445512	0.394713	-0.038835	-0.480397	0.348541	-0.038602	-0.431927	0.357366	-0.039312	-0.408668	0.107968	-0.066309	-0.395918	0.105276	-0.145325	-0.286326	0.075193	-0.027738	-0.268410	0.080005	-0.130221	-0.215345	0.122941	-0.074499	-0.466299	0.059773	-0.110316	-0.584660	0.707422	-0.406704	-0.535555	0.710423	-0.392958	-0.583939	0.664266	-0.409315	-0.531873	0.670142	-0.397454	-0.542266	0.461498	-0.390601	-0.559073	0.449688	-0.283652	-0.651446	0.422557	-0.425730	-0.624829	0.382548	-0.407979	-0.694860	0.400020	-0.432084	-0.664021	0.363016	-0.413433	-0.904463	0.272076	-0.415113	-0.892064	0.246870	-0.336298	-0.912305	0.136000	-0.464205	-0.917333	0.119521	-0.360730	-0.872736	0.078593	-0.404799	-0.949016	0.318646	-0.377867	-0.495223	1.323954	-0.037699	-0.414005	1.319382	-0.332960	
47	0.2300	-0.567221	0.924974	-0.105868	-0.492481	0.932945	-0.300785	-0.709219	0.934971	-0.202930	-0.692485	0.942347	-0.296521	-0.580495	0.721433	-0.057934	-0.529293	0.747750	-0.048569	-0.547989	0.676515	-0.048729	-0.495744	0.702303	-0.045103	-0.415481	0.500523	-0.065479	-0.401663	0.496182	-0.154642	-0.470049	0.390213	-0.044398	-0.427790	0.391833	-0.038537	-0.462968	0.346314	-0.037957	-0.414674	0.354527	-0.039086	-0.395374	0.106492	-0.065670	-0.383155	0.103478	-0.145004	-0.274697	0.072193	-0.027397	-0.256881	0.076050	-0.130105	-0.203189	0.117842	-0.074332	-0.454056	0.060016	-0.109912	-0.561471	0.706598	-0.404890	-0.512472	0.710355	-0.391177	-0.560061	0.663483	-0.407435	-0.508164	0.670170	-0.395607	-0.515239	0.461707	-0.388539	-0.531701	0.449770	-0.281275	-0.624571	0.423614	-0.423074	-0.598286	0.383215	-0.405460	-0.668336	0.401465	-0.429247	-0.637882	0.364229	-0.410716	-0.879496	0.276694	-0.411279	-0.866968	0.251020	-0.332583	-0.887914	0.141038	-0.461085	-0.892996	0.123605	-0.357798	-0.848886	0.081516	-0.402355	-0.923273	0.323944	-0.373504	-0.476366	1.322334	-0.035103	-0.397024	1.319746	-0.331583	
48	0.2350	-0.546498	0.923839	-0.103710	-0.471312	0.931871	-0.298169	-0.688661	0.932949	-0.200723	-0.672320	0.940124	-0.294505	-0.559883	0.719119	-0.056219	-0.508397	0.744938	-0.047126	-0.527752	0.673854	-0.047364	-0.475276	0.699151	-0.044111	-0.396967	0.496993	-0.065326	-0.383901	0.492675	-0.154311	-0.452365	0.388107	-0.043683	-0.410334	0.389004	-0.038329	-0.445951	0.344319	-0.037374	-0.397846	0.351718	-0.038970	-0.383678	0.105231	-0.065186	-0.372041	0.101868	-0.144866	-0.264885	0.069067	-0.027205	-0.247123	0.071936	-0.130155	-0.192711	0.112353	-0.074281	-0.443611	0.060659	-0.109710	-0.538117	0.705684	-0.403019	-0.489214	0.710256	-0.389356	-0.535973	0.662622	-0.405480	-0.484252	0.670175	-0.393715	-0.487787	0.461979	-0.386366	-0.503869	0.449938	-0.278811	-0.597131	0.424510	-0.420307	-0.571104	0.383799	-0.402793	-0.641162	0.402666	-0.426303	-0.611062	0.365282	-0.407859	-0.853548	0.280579	-0.407298	-0.840864	0.254532	-0.328695	-0.861862	0.145581	-0.457803	-0.866978	0.127242	-0.354688	-0.823158	0.084411	-0.399681	-0.896809	0.328171	-0.369064	-0.457364	1.320608	-0.032567	-0.380033	1.320030	-0.330317	
49	0.2400	-0.525785	0.922642	-0.101544	-0.450278	0.930634	-0.295620	-0.668138	0.930849	-0.198496	-0.652235	0.937754	-0.292493	-0.539228	0.716801	-0.054494	-0.487479	0.742141	-0.045700	-0.507462	0.671210	-0.046006	-0.454773	0.696036	-0.043133	-0.378442	0.493468	-0.065199	-0.366155	0.489209	-0.154024	-0.434952	0.386230	-0.043006	-0.393177	0.386245	-0.038200	-0.429368	0.342556	-0.036842	-0.381461	0.348957	-0.038951	-0.373486	0.104178	-0.064836	-0.362481	0.100448	-0.144884	-0.256758	0.065865	-0.027145	-0.239011	0.067733	-0.130351	-0.183797	0.106585	-0.074330	-0.434850	0.061650	-0.109679	-0.514679	0.704713	-0.401094	-0.465861	0.710149	-0.387503	-0.511759	0.661714	-0.403457	-0.460220	0.670182	-0.391784	-0.460020	0.462340	-0.384090	-0.475692	0.450221	-0.276268	-0.569244	0.425263	-0.417441	-0.543391	0.384321	-0.399990	-0.613451	0.403638	-0.423266	-0.583670	0.366192	-0.404877	-0.826725	0.283710	-0.403197	-0.813854	0.257390	-0.324664	-0.834277	0.149576	-0.454375	-0.839410	0.130388	-0.351416	-0.795676	0.087228	-0.396785	-0.869732	0.331318	-0.364577	-0.438258	1.318811	-0.030100	-0.363058	1.320249	-0.329153	
50	0.2450	-0.505143	0.921413	-0.099383	-0.429441	0.929267	-0.293151	-0.647708	0.928707	-0.196261	-0.632285	0.935274	-0.290490	-0.518605	0.714514	-0.052767	-0.466615	0.739395	-0.044298	-0.487196	0.668618	-0.044661	-0.434313	0.692992	-0.042172	-0.359982	0.489982	-0.065095	-0.348500	0.485814	-0.153780	-0.417859	0.384578	-0.042360	-0.376360	0.383575	-0.038140	-0.413247	0.341017	-0.036354	-0.365544	0.346264	-0.039015	-0.364697	0.103326	-0.064599	-0.354372	0.099217	-0.145034	-0.250172	0.062639	-0.027198	-0.232412	0.063516	-0.130672	-0.176326	0.100650	-0.074468	-0.427645	0.062936	-0.109787	-0.491246	0.703712	-0.399125	-0.442504	0.710056	-0.385624	-0.487515	0.660788	-0.401375	-0.436164	0.670214	-0.389824	-0.432063	0.462810	-0.381721	-0.447296	0.450642	-0.273656	-0.541040	0.425892	-0.414490	-0.515275	0.384803	-0.397064	-0.585332	0.404401	-0.420156	-0.555829	0.366978	-0.401786	-0.799152	0.286078	-0.399006	-0.786065	0.259589	-0.320520	-0.805324	0.152983	-0.450819	-0.810453	0.133012	-0.347997	-0.766607	0.089922	-0.393679	-0.842165	0.333396	-0.360073	-0.419104	1.316976	-0.027712	-0.346133	1.320415	-0.328080	
51	0.2500	-0.484637	0.920176	-0.097238	-0.408872	0.927803	-0.290774	-0.627437	0.926559	-0.194027	-0.612535	0.932721	-0.288503	-0.498098	0.712290	-0.051046	-0.445889	0.736730	-0.042928	-0.467041	0.666107	-0.043334	-0.413980	0.690049	-0.041231	-0.341678	0.486562	-0.065011	-0.331021	0.482515	-0.153574	-0.401142	0.383143	-0.041742	-0.359936	0.381006	-0.038138	-0.397620	0.339693	-0.035900	-0.350128	0.343653	-0.039150	-0.357200	0.102668	-0.064453	-0.347597	0.098174	-0.145290	-0.244977	0.059442	-0.027347	-0.227184	0.059355	-0.131097	-0.170173	0.094662	-0.074677	-0.421859	0.064466	-0.110002	-0.467919	0.702711	-0.397120	-0.419244	0.710000	-0.383730	-0.463347	0.659875	-0.399244	-0.412189	0.670291	-0.387844	-0.404052	0.463411	-0.379273	-0.418823	0.451222	-0.270990	-0.512664	0.426418	-0.411472	-0.486899	0.385264	-0.394033	-0.556951	0.404976	-0.416990	-0.527681	0.367659	-0.398608	-0.770978	0.287688	-0.394755	-0.757644	0.261137	-0.316295	-0.775195	0.155776	-0.447157	-0.780300	0.135094	-0.344452	-0.736149	0.092450	-0.390380	-0.814247	0.334431	-0.355584	-0.399967	1.315137	-0.025412	-0.329303	1.320542	-0.327091	
52	0.2550	-0.464346	0.918958	-0.095123	-0.388646	0.926276	-0.288503	-0.607401	0.924438	-0.191806	-0.593057	0.930135	-0.286539	-0.477803	0.710156	-0.049341	-0.425395	0.734172	-0.041595	-0.447096	0.663705	-0.042031	-0.393872	0.687230	-0.040316	-0.323628	0.483231	-0.064944	-0.313809	0.479331	-0.153404	-0.384861	0.381910	-0.041145	-0.343960	0.378548	-0.038184	-0.382527	0.338569	-0.035474	-0.335250	0.341137	-0.039341	-0.350881	0.102196	-0.064378	-0.342036	0.097318	-0.145626	-0.241021	0.056325	-0.027572	-0.223181	0.055318	-0.131602	-0.165209	0.088729	-0.074943	-0.417348	0.066188	-0.110297	-0.444808	0.701739	-0.395090	-0.396191	0.710001	-0.381831	-0.439371	0.659002	-0.397077	-0.388411	0.670435	-0.385856	-0.376136	0.464155	-0.376762	-0.390425	0.451977	-0.268284	-0.484276	0.426862	-0.408403	-0.458418	0.385723	-0.390918	-0.528469	0.405385	-0.413790	-0.499384	0.368253	-0.395363	-0.742370	0.288561	-0.390477	-0.728760	0.262051	-0.312025	-0.744116	0.157942	-0.443412	-0.749175	0.136629	-0.340801	-0.704539	0.094773	-0.386912	-0.786130	0.334472	-0.351142	-0.380924	1.313325	-0.023209	-0.312626	1.320641	-0.326177	
53	0.2600	-0.444352	0.917779	-0.093050	-0.368846	0.924719	-0.286346	-0.587684	0.922378	-0.189608	-0.573929	0.927554	-0.284604	-0.457822	0.708135	-0.047660	-0.405233	0.731740	-0.040306	-0.427463	0.661433	-0.040757	-0.374091	0.684555	-0.039428	-0.305936	0.480007	-0.064892	-0.296959	0.476278	-0.153267	-0.369083	0.380864	-0.040569	-0.328496	0.376210	-0.038267	-0.368011	0.337629	-0.035073	-0.320950	0.338726	-0.039576	-0.345622	0.101898	-0.064356	-0.337565	0.096644	-0.146020	-0.238149	0.053335	-0.027855	-0.220258	0.051466	-0.132167	-0.161303	0.082952	-0.075250	-0.413962	0.068054	-0.110644	-0.422029	0.700820	-0.393048	-0.373463	0.710075	-0.379940	-0.415711	0.658194	-0.394888	-0.364954	0.670662	-0.383871	-0.348473	0.465052	-0.374207	-0.362263	0.452916	-0.265556	-0.456042	0.427243	-0.405305	-0.430002	0.386196	-0.387741	-0.500058	0.405653	-0.410578	-0.471106	0.368780	-0.392078	-0.713514	0.288727	-0.386204	-0.699601	0.262361	-0.307744	-0.712336	0.159483	-0.439610	-0.717328	0.137622	-0.337072	-0.672039	0.096862	-0.383299	-0.757980	0.333579	-0.346778	-0.362059	1.311569	-0.021113	-0.296165	1.320724	-0.325331	
54	0.2650	-0.424748	0.916658	-0.091032	-0.349558	0.923164	-0.284313	-0.568373	0.920406	-0.187447	-0.555235	0.925014	-0.282707	-0.438262	0.706245	-0.046015	-0.385509	0.729453	-0.039067	-0.408254	0.659307	-0.039519	-0.354744	0.682036	-0.038572	-0.288709	0.476907	-0.064851	-0.280572	0.473365	-0.153158	-0.353878	0.379985	-0.040010	-0.313607	0.373995	-0.038378	-0.354116	0.336852	-0.034690	-0.307273	0.336429	-0.039843	-0.341305	0.101763	-0.064369	-0.334057	0.096144	-0.146449	-0.236210	0.050513	-0.028179	-0.218269	0.047852	-0.132770	-0.158327	0.077422	-0.075584	-0.411553	0.070019	-0.111020	-0.399704	0.699976	-0.391008	-0.351183	0.710236	-0.378069	-0.392496	0.657471	-0.392693	-0.341944	0.670982	-0.381904	-0.321228	0.466107	-0.371628	-0.334506	0.454042	-0.262826	-0.428140	0.427579	-0.402199	-0.401832	0.386697	-0.384527	-0.471901	0.405802	-0.407378	-0.443029	0.369257	-0.388777	-0.684613	0.288232	-0.381970	-0.670371	0.262108	-0.303488	-0.680125	0.160415	-0.435780	-0.685029	0.138092	-0.333292	-0.638940	0.098692	-0.379574	-0.729975	0.331832	-0.342522	-0.343466	1.309895	-0.019130	-0.279995	1.320800	-0.324546	
55	0.2700	-0.405629	0.915612	-0.089081	-0.330870	0.921638	-0.282413	-0.549563	0.918548	-0.185333	-0.537063	0.922548	-0.280855	-0.419235	0.704500	-0.044416	-0.366331	0.727321	-0.037884	-0.389580	0.657339	-0.038323	-0.335943	0.679685	-0.037751	-0.272056	0.473941	-0.064818	-0.264744	0.470600	-0.153075	-0.339313	0.379252	-0.039468	-0.299359	0.371907	-0.038506	-0.340889	0.336219	-0.034326	-0.294263	0.334252	-0.040128	-0.337817	0.101778	-0.064403	-0.331388	0.095811	-0.146895	-0.235057	0.047895	-0.028527	-0.217071	0.044520	-0.133390	-0.156154	0.072218	-0.075931	-0.409975	0.072039	-0.111403	-0.377959	0.699224	-0.388985	-0.329476	0.710491	-0.376233	-0.369860	0.656850	-0.390508	-0.319514	0.671404	-0.379969	-0.294568	0.467317	-0.369046	-0.307328	0.455350	-0.260115	-0.400752	0.427887	-0.399110	-0.374093	0.387236	-0.381303	-0.444186	0.405854	-0.404214	-0.415341	0.369699	-0.385490	-0.655879	0.287132	-0.377810	-0.641289	0.261342	-0.299294	-0.647772	0.160769	-0.431951	-0.652567	0.138069	-0.329491	-0.605553	0.100250	-0.375771	-0.702301	0.329323	-0.338404	-0.325245	1.308325	-0.017269	-0.264195	1.320877	-0.323817	
56	0.2750	-0.387095	0.914652	-0.087210	-0.312871	0.920168	-0.280651	-0.531350	0.916823	-0.183278	-0.519501	0.920188	-0.279056	-0.400851	0.702909	-0.042872	-0.347808	0.725351	-0.036761	-0.371552	0.655537	-0.037175	-0.317796	0.677504	-0.036968	-0.256080	0.471119	-0.064792	-0.249572	0.467987	-0.153013	-0.325456	0.378644	-0.038945	-0.285815	0.369946	-0.038643	-0.328373	0.335707	-0.033978	-0.281964	0.332197	-0.040423	-0.335043	0.101928	-0.064447	-0.329436	0.095633	-0.147339	-0.234551	0.045509	-0.028886	-0.216530	0.041503	-0.134011	-0.154664	0.067402	-0.076278	-0.409086	0.074077	-0.111777	-0.356917	0.698579	-0.386994	-0.308469	0.710845	-0.374444	-0.347933	0.656344	-0.388351	-0.297794	0.671930	-0.378080	-0.268663	0.468673	-0.366486	-0.280902	0.456830	-0.257443	-0.374059	0.428180	-0.396061	-0.346974	0.387819	-0.378098	-0.417105	0.405831	-0.401109	-0.388237	0.370118	-0.382243	-0.627534	0.285493	-0.373755	-0.612578	0.260119	-0.295196	-0.615573	0.160585	-0.428155	-0.620241	0.137593	-0.325701	-0.572198	0.101527	-0.371926	-0.675148	0.326152	-0.334449	-0.307500	1.306879	-0.015535	-0.248849	1.320962	-0.323141	
57	0.2800	-0.369244	0.913788	-0.085429	-0.295648	0.918777	-0.279030	-0.513830	0.915248	-0.181295	-0.502638	0.917958	-0.277319	-0.383216	0.701477	-0.041392	-0.330046	0.723547	-0.035701	-0.354277	0.653903	-0.036081	-0.300408	0.675497	-0.036224	-0.240877	0.468448	-0.064768	-0.235141	0.465527	-0.152971	-0.312368	0.378138	-0.038441	-0.273032	0.368113	-0.038784	-0.316609	0.335296	-0.033645	-0.270414	0.330269	-0.040717	-0.332881	0.102197	-0.064490	-0.328087	0.095596	-0.147769	-0.234561	0.043374	-0.029243	-0.216517	0.038823	-0.134616	-0.153742	0.063022	-0.076614	-0.408754	0.076096	-0.112127	-0.336701	0.698048	-0.385051	-0.288283	0.711298	-0.372716	-0.326848	0.655960	-0.386241	-0.276914	0.672559	-0.376252	-0.243677	0.470162	-0.363969	-0.255398	0.458465	-0.254832	-0.348243	0.428469	-0.393076	-0.320665	0.388448	-0.374939	-0.390847	0.405752	-0.398088	-0.361907	0.370525	-0.379066	-0.599802	0.283389	-0.369836	-0.584469	0.258503	-0.291227	-0.583830	0.159916	-0.424422	-0.588354	0.136713	-0.321955	-0.539205	0.102524	-0.368079	-0.648709	0.322432	-0.330683	-0.290338	1.305571	-0.013932	-0.234042	1.321058	-0.322513	
58	0.2850	-0.352173	0.913024	-0.083747	-0.279284	0.917481	-0.277555	-0.497095	0.913834	-0.179394	-0.486561	0.915881	-0.275651	-0.366432	0.700203	-0.039987	-0.313143	0.721908	-0.034708	-0.337857	0.652437	-0.035046	-0.283880	0.673661	-0.035523	-0.226536	0.465932	-0.064746	-0.221533	0.463220	-0.152944	-0.300103	0.377715	-0.037959	-0.261064	0.366404	-0.038921	-0.305634	0.334966	-0.033330	-0.259649	0.328469	-0.041003	-0.331229	0.102565	-0.064526	-0.327230	0.095685	-0.148172	-0.234969	0.041502	-0.029587	-0.216914	0.036492	-0.135192	-0.153282	0.059112	-0.076931	-0.408856	0.078066	-0.112444	-0.317426	0.697637	-0.383171	-0.269035	0.711845	-0.371062	-0.306726	0.655699	-0.384194	-0.256994	0.673283	-0.374498	-0.219769	0.471764	-0.361520	-0.230979	0.460230	-0.252305	-0.323475	0.428763	-0.390181	-0.295348	0.389123	-0.371855	-0.365597	0.405635	-0.395173	-0.336539	0.370927	-0.375986	-0.572902	0.280900	-0.366084	-0.557186	0.256564	-0.287418	-0.552841	0.158823	-0.420784	-0.557204	0.135485	-0.318285	-0.506897	0.103252	-0.364270	-0.623173	0.318277	-0.327127	-0.273860	1.304409	-0.012465	-0.219859	1.321169	-0.321932	
59	0.2900	-0.335975	0.912362	-0.082172	-0.263855	0.916295	-0.276223	-0.481234	0.912586	-0.177585	-0.471349	0.913973	-0.274061	-0.350591	0.699086	-0.038664	-0.297190	0.720432	-0.033785	-0.322381	0.651135	-0.034075	-0.268300	0.671993	-0.034867	-0.213132	0.463575	-0.064725	-0.208814	0.461067	-0.152930	-0.288708	0.377357	-0.037500	-0.249952	0.364819	-0.039049	-0.295475	0.334699	-0.033032	-0.249696	0.326796	-0.041273	-0.329999	0.103016	-0.064549	-0.326768	0.095883	-0.148541	-0.235667	0.039895	-0.029909	-0.217616	0.034511	-0.135728	-0.153186	0.055688	-0.077222	-0.409280	0.079960	-0.112720	-0.299199	0.697343	-0.381369	-0.250832	0.712476	-0.369493	-0.287683	0.655560	-0.382228	-0.238147	0.674091	-0.372831	-0.197085	0.473454	-0.359160	-0.207797	0.462099	-0.249882	-0.299917	0.429066	-0.387398	-0.271197	0.389838	-0.368873	-0.341526	0.405495	-0.392387	-0.312312	0.371329	-0.373028	-0.547048	0.278111	-0.362523	-0.530949	0.254370	-0.283797	-0.522890	0.157373	-0.417272	-0.527081	0.133972	-0.314725	-0.475590	0.103726	-0.360540	-0.598721	0.313805	-0.323798	-0.258168	1.303399	-0.011133	-0.206381	1.321297	-0.321394	
60	0.2950	-0.320733	0.911800	-0.080713	-0.249427	0.915228	-0.275035	-0.466328	0.911506	-0.175879	-0.457074	0.912246	-0.272556	-0.335774	0.698118	-0.037429	-0.282267	0.719113	-0.032933	-0.307928	0.649990	-0.033172	-0.253747	0.670487	-0.034256	-0.200725	0.461380	-0.064701	-0.197039	0.459065	-0.152925	-0.278218	0.377048	-0.037067	-0.239730	0.363354	-0.039166	-0.286154	0.334478	-0.032753	-0.240574	0.325251	-0.041524	-0.329108	0.103529	-0.064557	-0.326610	0.096171	-0.148869	-0.236562	0.038551	-0.030203	-0.218527	0.032869	-0.136217	-0.153367	0.052751	-0.077481	-0.409928	0.081756	-0.112952	-0.282114	0.697164	-0.379659	-0.233769	0.713178	-0.368020	-0.269818	0.655535	-0.380357	-0.220473	0.674969	-0.371263	-0.175757	0.475206	-0.356910	-0.185986	0.464039	-0.247581	-0.277714	0.429381	-0.384749	-0.248368	0.390585	-0.366020	-0.318793	0.405345	-0.389749	-0.289387	0.371734	-0.370218	-0.522439	0.275106	-0.359177	-0.505961	0.251996	-0.280389	-0.494246	0.155638	-0.413915	-0.498255	0.132236	-0.311306	-0.445577	0.103967	-0.356927	-0.575520	0.309134	-0.320710	-0.243354	1.302541	-0.009936	-0.193683	1.321441	-0.320899	
61	0.3000	-0.306520	0.911336	-0.079373	-0.236057	0.914286	-0.273985	-0.452444	0.910590	-0.174284	-0.443800	0.910705	-0.271144	-0.322046	0.697292	-0.036289	-0.268439	0.717943	-0.032153	-0.294562	0.648994	-0.032340	-0.240284	0.669136	-0.033693	-0.189359	0.459348	-0.064676	-0.186248	0.457214	-0.152928	-0.268655	0.376773	-0.036663	-0.230419	0.362008	-0.039268	-0.277682	0.334289	-0.032494	-0.232293	0.323832	-0.041751	-0.328486	0.104087	-0.064548	-0.326678	0.096531	-0.149153	-0.237572	0.037457	-0.030465	-0.219566	0.031551	-0.136653	-0.153747	0.050289	-0.077705	-0.410717	0.083436	-0.113139	-0.266250	0.697090	-0.378052	-0.217925	0.713937	-0.366651	-0.253218	0.655613	-0.378597	-0.204055	0.675899	-0.369802	-0.155894	0.476989	-0.354788	-0.165665	0.466015	-0.245420	-0.256993	0.429708	-0.382254	-0.227001	0.391355	-0.363319	-0.297534	0.405195	-0.387276	-0.267909	0.372141	-0.367575	-0.499252	0.271970	-0.356065	-0.482407	0.249510	-0.277214	-0.467150	0.153692	-0.410737	-0.470971	0.130342	-0.308057	-0.417126	0.104004	-0.353467	-0.553721	0.304377	-0.317876	-0.229498	1.301831	-0.008873	-0.181830	1.321600	-0.320446	
62	0.3050	-0.293398	0.910961	-0.078156	-0.223786	0.913469	-0.273069	-0.439641	0.909832	-0.172806	-0.431575	0.909352	-0.269830	-0.309458	0.696596	-0.035247	-0.255756	0.716915	-0.031446	-0.282328	0.648135	-0.031582	-0.227956	0.667931	-0.033177	-0.179062	0.457480	-0.064649	-0.176466	0.455511	-0.152937	-0.260029	0.376523	-0.036290	-0.222027	0.360778	-0.039355	-0.270060	0.334123	-0.032257	-0.224852	0.322539	-0.041953	-0.328069	0.104670	-0.064523	-0.326901	0.096943	-0.149393	-0.238630	0.036597	-0.030693	-0.220664	0.030530	-0.137033	-0.154261	0.048279	-0.077893	-0.411574	0.084987	-0.113281	-0.251668	0.697110	-0.376560	-0.203362	0.714735	-0.365394	-0.237950	0.655782	-0.376959	-0.188958	0.676861	-0.368456	-0.137587	0.478773	-0.352810	-0.146924	0.467993	-0.243413	-0.237854	0.430045	-0.379928	-0.207211	0.392136	-0.360791	-0.277862	0.405052	-0.384982	-0.247997	0.372547	-0.365118	-0.477643	0.268785	-0.353201	-0.460444	0.246981	-0.274289	-0.441811	0.151608	-0.407764	-0.445441	0.128355	-0.305003	-0.390470	0.103866	-0.350195	-0.533452	0.299640	-0.315299	-0.216670	1.301262	-0.007940	-0.170877	1.321772	-0.320034	
63	0.3100	-0.281410	0.910669	-0.077062	-0.212643	0.912775	-0.272280	-0.427958	0.909220	-0.171451	-0.420434	0.908185	-0.268620	-0.298041	0.696020	-0.034306	-0.244249	0.716018	-0.030811	-0.271255	0.647404	-0.030898	-0.216793	0.666865	-0.032710	-0.169842	0.455775	-0.064619	-0.167698	0.453954	-0.152949	-0.252336	0.376290	-0.035950	-0.214548	0.359661	-0.039425	-0.263278	0.333970	-0.032043	-0.218241	0.321368	-0.042128	-0.327806	0.105262	-0.064483	-0.327225	0.097389	-0.149589	-0.239682	0.035948	-0.030885	-0.221764	0.029778	-0.137357	-0.154851	0.046685	-0.078045	-0.412444	0.086399	-0.113382	-0.238409	0.697210	-0.375189	-0.190120	0.715553	-0.364252	-0.224058	0.656026	-0.375453	-0.175227	0.677834	-0.367232	-0.120900	0.480525	-0.350989	-0.129833	0.469937	-0.241570	-0.220373	0.430387	-0.377786	-0.189085	0.392914	-0.358453	-0.259863	0.404924	-0.382879	-0.229745	0.372950	-0.362862	-0.457734	0.265626	-0.350595	-0.440202	0.244471	-0.271624	-0.418401	0.149455	-0.405012	-0.421840	0.126335	-0.302166	-0.365803	0.103586	-0.347139	-0.514817	0.295021	-0.312984	-0.204922	1.300823	-0.007130	-0.160866	1.321953	-0.319661	
64	0.3150	-0.270583	0.910451	-0.076091	-0.202638	0.912199	-0.271609	-0.417419	0.908741	-0.170222	-0.410397	0.907194	-0.267517	-0.287809	0.695550	-0.033466	-0.233932	0.715242	-0.030246	-0.261352	0.646787	-0.030290	-0.206804	0.665928	-0.032291	-0.161689	0.454234	-0.064587	-0.159936	0.452543	-0.152963	-0.245558	0.376068	-0.035644	-0.207964	0.358654	-0.039480	-0.257314	0.333825	-0.031852	-0.212436	0.320317	-0.042276	-0.327653	0.105847	-0.064432	-0.327601	0.097851	-0.149744	-0.240686	0.035487	-0.031043	-0.222822	0.029260	-0.137626	-0.155474	0.045467	-0.078164	-0.413283	0.087666	-0.113446	-0.226494	0.697374	-0.373946	-0.178222	0.716371	-0.363228	-0.211567	0.656327	-0.374085	-0.162884	0.678799	-0.366132	-0.105869	0.482218	-0.349335	-0.114430	0.471814	-0.239901	-0.204598	0.430729	-0.375838	-0.172683	0.393676	-0.356318	-0.243592	0.404812	-0.380975	-0.213216	0.373345	-0.360815	-0.439619	0.262562	-0.348253	-0.421776	0.242036	-0.269226	-0.397048	0.147298	-0.402499	-0.400301	0.124338	-0.299565	-0.343270	0.103198	-0.344322	-0.497888	0.290605	-0.310927	-0.194289	1.300502	-0.006437	-0.151821	1.322140	-0.319327	
65	0.3200	-0.260928	0.910295	-0.075241	-0.193765	0.911731	-0.271047	-0.408031	0.908380	-0.169122	-0.401466	0.906371	-0.266524	-0.278755	0.695173	-0.032727	-0.224798	0.714578	-0.029749	-0.252609	0.646273	-0.029754	-0.197980	0.665111	-0.031920	-0.154576	0.452853	-0.064554	-0.153155	0.451274	-0.152979	-0.239665	0.375855	-0.035372	-0.202244	0.357755	-0.039520	-0.252137	0.333684	-0.031684	-0.207405	0.319382	-0.042399	-0.327575	0.106410	-0.064371	-0.327993	0.098314	-0.149861	-0.241612	0.035185	-0.031168	-0.223806	0.028939	-0.137844	-0.156091	0.044578	-0.078251	-0.414058	0.088788	-0.113479	-0.215922	0.697588	-0.372835	-0.167666	0.717171	-0.362323	-0.200477	0.656667	-0.372860	-0.151929	0.679734	-0.365156	-0.092502	0.483823	-0.347852	-0.100726	0.473593	-0.238408	-0.190544	0.431066	-0.374090	-0.158032	0.394409	-0.354394	-0.229073	0.404720	-0.379273	-0.198441	0.373726	-0.358983	-0.423352	0.259654	-0.346176	-0.405224	0.239724	-0.267097	-0.377837	0.145197	-0.400233	-0.380911	0.122411	-0.297211	-0.322971	0.102734	-0.341762	-0.482708	0.286464	-0.309124	-0.184788	1.300282	-0.005852	-0.143753	1.322328	-0.319031	
66	0.3250	-0.252433	0.910191	-0.074506	-0.186002	0.911362	-0.270583	-0.399781	0.908121	-0.168149	-0.393625	0.905699	-0.265641	-0.270854	0.694876	-0.032085	-0.216824	0.714015	-0.029318	-0.244998	0.645850	-0.029290	-0.190293	0.664405	-0.031594	-0.148460	0.451630	-0.064520	-0.147315	0.450145	-0.152994	-0.234615	0.375651	-0.035134	-0.197345	0.356960	-0.039547	-0.247707	0.333547	-0.031540	-0.203106	0.318561	-0.042498	-0.327544	0.106940	-0.064304	-0.328374	0.098763	-0.149945	-0.242441	0.035015	-0.031264	-0.224693	0.028779	-0.138016	-0.156677	0.043968	-0.078312	-0.414748	0.089766	-0.113485	-0.206670	0.697834	-0.371854	-0.158428	0.717938	-0.361533	-0.190767	0.657029	-0.371778	-0.142340	0.680623	-0.364304	-0.080780	0.485317	-0.346542	-0.088702	0.475248	-0.237092	-0.178197	0.431391	-0.372543	-0.145128	0.395100	-0.352686	-0.216300	0.404646	-0.377773	-0.185419	0.374087	-0.357368	-0.408953	0.256949	-0.344359	-0.390568	0.237576	-0.265233	-0.360805	0.143200	-0.398218	-0.363710	0.120598	-0.295113	-0.304953	0.102226	-0.339471	-0.469285	0.282657	-0.307563	-0.176414	1.300149	-0.005367	-0.136656	1.322512	-0.318772	
67	0.3300	-0.245070	0.910130	-0.073881	-0.179310	0.911079	-0.270207	-0.392639	0.907947	-0.167302	-0.386844	0.905165	-0.264868	-0.264063	0.694647	-0.031536	-0.209965	0.713542	-0.028949	-0.238472	0.645506	-0.028894	-0.183697	0.663801	-0.031312	-0.143284	0.450561	-0.064486	-0.142363	0.449153	-0.153009	-0.230352	0.375456	-0.034929	-0.193214	0.356265	-0.039563	-0.243972	0.333414	-0.031418	-0.199490	0.317848	-0.042576	-0.327541	0.107427	-0.064235	-0.328724	0.099187	-0.150002	-0.243160	0.034948	-0.031334	-0.225470	0.028743	-0.138146	-0.157211	0.043587	-0.078348	-0.415344	0.090604	-0.113472	-0.198694	0.698098	-0.371003	-0.150465	0.718654	-0.360856	-0.182392	0.657397	-0.370838	-0.134071	0.681449	-0.363571	-0.070655	0.486682	-0.345404	-0.078312	0.476759	-0.235952	-0.167515	0.431698	-0.371196	-0.133935	0.395740	-0.351193	-0.205232	0.404591	-0.376471	-0.174117	0.374424	-0.355966	-0.396403	0.254486	-0.342794	-0.377792	0.235621	-0.263625	-0.345942	0.141349	-0.396456	-0.348690	0.118930	-0.293270	-0.289214	0.101702	-0.337453	-0.457597	0.279224	-0.306234	-0.169145	1.300084	-0.004971	-0.130506	1.322689	-0.318549	
68	0.3350	-0.238792	0.910102	-0.073358	-0.173634	0.910870	-0.269908	-0.386557	0.907841	-0.166576	-0.381074	0.904750	-0.264202	-0.258321	0.694475	-0.031075	-0.204163	0.713150	-0.028638	-0.232969	0.645230	-0.028562	-0.178131	0.663292	-0.031073	-0.138978	0.449639	-0.064453	-0.138234	0.448293	-0.153022	-0.226816	0.375272	-0.034757	-0.189791	0.355667	-0.039571	-0.240877	0.333285	-0.031317	-0.196498	0.317237	-0.042635	-0.327552	0.107865	-0.064166	-0.329033	0.099575	-0.150036	-0.243768	0.034960	-0.031383	-0.226133	0.028799	-0.138240	-0.157684	0.043386	-0.078367	-0.415840	0.091311	-0.113444	-0.191930	0.698365	-0.370277	-0.143714	0.719309	-0.360284	-0.175288	0.657757	-0.370035	-0.127059	0.682200	-0.362951	-0.062053	0.487903	-0.344432	-0.069481	0.478111	-0.234979	-0.158426	0.431982	-0.370043	-0.124386	0.396320	-0.349910	-0.195802	0.404553	-0.375360	-0.164471	0.374731	-0.354770	-0.385650	0.252291	-0.341468	-0.366841	0.233882	-0.262262	-0.333194	0.139675	-0.394940	-0.335800	0.117432	-0.291681	-0.275702	0.101187	-0.335708	-0.447589	0.276193	-0.305119	-0.162939	1.300074	-0.004655	-0.125264	1.322855	-0.318359	
69	0.3400	-0.233536	0.910097	-0.072929	-0.168907	0.910722	-0.269676	-0.381470	0.907787	-0.165965	-0.376252	0.904437	-0.263638	-0.253556	0.694348	-0.030695	-0.199344	0.712829	-0.028380	-0.228413	0.645011	-0.028288	-0.173520	0.662867	-0.030872	-0.135463	0.448857	-0.064422	-0.134855	0.447559	-0.153034	-0.223937	0.375101	-0.034614	-0.187005	0.355159	-0.039571	-0.238360	0.333163	-0.031234	-0.194069	0.316722	-0.042678	-0.327566	0.108249	-0.064100	-0.329294	0.099923	-0.150053	-0.244267	0.035024	-0.031414	-0.226682	0.028915	-0.138306	-0.158088	0.043319	-0.078371	-0.416240	0.091896	-0.113409	-0.186299	0.698623	-0.369668	-0.138093	0.719894	-0.359811	-0.169370	0.658095	-0.369361	-0.121219	0.682867	-0.362436	-0.054879	0.488972	-0.343617	-0.062113	0.479293	-0.234166	-0.150833	0.432238	-0.369074	-0.116391	0.396834	-0.348828	-0.187916	0.404528	-0.374430	-0.156389	0.375006	-0.353768	-0.376607	0.250379	-0.340366	-0.357629	0.232368	-0.261128	-0.322465	0.138197	-0.393660	-0.324945	0.116118	-0.290335	-0.264321	0.100699	-0.334227	-0.439176	0.273574	-0.304202	-0.157737	1.300101	-0.004406	-0.120879	1.323006	-0.318200	
70	0.3450	-0.229225	0.910108	-0.072583	-0.165048	0.910623	-0.269498	-0.377302	0.907772	-0.165460	-0.372303	0.904208	-0.263170	-0.249680	0.694257	-0.030388	-0.195423	0.712572	-0.028171	-0.224718	0.644842	-0.028067	-0.169777	0.662519	-0.030708	-0.132653	0.448206	-0.064394	-0.132148	0.446944	-0.153044	-0.221641	0.374946	-0.034499	-0.184787	0.354736	-0.039566	-0.236354	0.333051	-0.031170	-0.192137	0.316296	-0.042708	-0.327578	0.108578	-0.064040	-0.329505	0.100225	-0.150057	-0.244664	0.035121	-0.031431	-0.227124	0.029065	-0.138348	-0.158422	0.043345	-0.078365	-0.416551	0.092369	-0.113369	-0.181705	0.698863	-0.369169	-0.133508	0.720402	-0.359428	-0.164540	0.658403	-0.368808	-0.116455	0.683444	-0.362018	-0.049016	0.489886	-0.342949	-0.056089	0.480302	-0.233500	-0.144620	0.432464	-0.368277	-0.109833	0.397278	-0.347936	-0.181454	0.404515	-0.373667	-0.149758	0.375246	-0.352947	-0.369159	0.248754	-0.339468	-0.350040	0.231082	-0.260203	-0.313623	0.136927	-0.392602	-0.315994	0.114996	-0.289220	-0.254936	0.100256	-0.332996	-0.432248	0.271364	-0.303461	-0.153466	1.300154	-0.004216	-0.117284	1.323141	-0.318070	
71	0.3500	-0.225768	0.910129	-0.072311	-0.161969	0.910562	-0.269367	-0.373964	0.907781	-0.165053	-0.369144	0.904048	-0.262790	-0.246601	0.694193	-0.030145	-0.192304	0.712368	-0.028004	-0.221790	0.644712	-0.027893	-0.166808	0.662240	-0.030575	-0.130459	0.447677	-0.064369	-0.130028	0.446440	-0.153052	-0.219853	0.374809	-0.034408	-0.183060	0.354391	-0.039559	-0.234792	0.332950	-0.031120	-0.190637	0.315951	-0.042728	-0.327585	0.108851	-0.063987	-0.329670	0.100479	-0.150053	-0.244971	0.035233	-0.031438	-0.227470	0.029228	-0.138372	-0.158691	0.043429	-0.078352	-0.416784	0.092744	-0.113328	-0.178042	0.699077	-0.368770	-0.129854	0.720832	-0.359124	-0.160689	0.658673	-0.368365	-0.112657	0.683931	-0.361687	-0.044336	0.490648	-0.342414	-0.051278	0.481143	-0.232968	-0.139652	0.432657	-0.367636	-0.104577	0.397652	-0.347216	-0.176281	0.404510	-0.373055	-0.144440	0.375450	-0.352290	-0.363166	0.247408	-0.338752	-0.343934	0.230019	-0.259466	-0.306508	0.135865	-0.391748	-0.308786	0.114062	-0.288317	-0.247378	0.099867	-0.331998	-0.426676	0.269546	-0.302878	-0.150039	1.300219	-0.004074	-0.114404	1.323257	-0.317965	
