PathFileType	4	(X/Y/Z)	 P13 -65r1 05.trc
DataRate	CameraRate	NumFrames	NumMarkers	Units	OrigDataRate	OrigDataStartFrame	OrigNumFrames
200	200	86	38	m	200	2	87
Frame#	Time	RASIS			LASIS			RPSIS			LPSIS			RThighRear1			RThighFront1			RThighRear2			RThighFront2			RKneeLat			RKneeMed			RShankRear1			RShankFront1			RShankRear2			RShankFront2			RAnkleLat			RAnkleMed			RM5			RM1			RMid			RHeel			LThighRear1			LThighFront1			LThighRear2			LThighFront2			LKneeLat			LKneeMed			LShankRear1			LShankFront1			LShankRear2			LShankFront2			LAnkleLat			LAnkleMed			LM5			LM1			LMid			LHeel			RShoulder			LShoulder			
		X1	Y1	Z1	X2	Y2	Z2	X3	Y3	Z3	X4	Y4	Z4	X5	Y5	Z5	X6	Y6	Z6	X7	Y7	Z7	X8	Y8	Z8	X9	Y9	Z9	X10	Y10	Z10	X11	Y11	Z11	X12	Y12	Z12	X13	Y13	Z13	X14	Y14	Z14	X15	Y15	Z15	X16	Y16	Z16	X17	Y17	Z17	X18	Y18	Z18	X19	Y19	Z19	X20	Y20	Z20	X21	Y21	Z21	X22	Y22	Z22	X23	Y23	Z23	X24	Y24	Z24	X25	Y25	Z25	X26	Y26	Z26	X27	Y27	Z27	X28	Y28	Z28	X29	Y29	Z29	X30	Y30	Z30	X31	Y31	Z31	X32	Y32	Z32	X33	Y33	Z33	X34	Y34	Z34	X35	Y35	Z35	X36	Y36	Z36	X37	Y37	Z37	X38	Y38	Z38	
1	0.0000	-1.412889	0.928924	-0.247196	-1.395664	0.920579	-0.470153	-1.559216	0.965759	-0.328219	-1.556519	0.963415	-0.423929	-1.505560	0.722414	-0.206739	-1.450170	0.719079	-0.206518	-1.500700	0.667008	-0.209914	-1.444380	0.662571	-0.211084	-1.504497	0.448149	-0.250739	-1.500200	0.444512	-0.348928	-1.624074	0.447220	-0.230338	-1.605903	0.407572	-0.228454	-1.661908	0.422519	-0.228129	-1.634467	0.382474	-0.233204	-1.849988	0.280772	-0.261742	-1.849167	0.271467	-0.340368	-1.873406	0.155182	-0.228102	-1.864322	0.142262	-0.334418	-1.821062	0.089524	-0.278879	-1.902038	0.334057	-0.309517	-1.407666	0.726910	-0.534616	-1.357157	0.741837	-0.521695	-1.397120	0.684954	-0.532603	-1.345622	0.702948	-0.522905	-1.298198	0.510862	-0.491957	-1.309188	0.502629	-0.399757	-1.338591	0.396989	-0.526884	-1.293761	0.400316	-0.506872	-1.338686	0.350698	-0.531913	-1.294581	0.354875	-0.510609	-1.328057	0.100197	-0.494253	-1.308019	0.109387	-0.413672	-1.201698	0.054949	-0.524456	-1.199357	0.054558	-0.417947	-1.137873	0.084152	-0.471693	-1.391395	0.075721	-0.462714	-1.269929	1.331032	-0.225286	-1.271667	1.339533	-0.535456	
2	0.0050	-1.400841	0.927986	-0.247187	-1.383023	0.919829	-0.470323	-1.547404	0.963952	-0.328676	-1.544465	0.962074	-0.424440	-1.490987	0.720576	-0.207112	-1.435635	0.718121	-0.206419	-1.485200	0.665313	-0.210123	-1.428905	0.661785	-0.210818	-1.485164	0.447004	-0.250630	-1.480597	0.443236	-0.348972	-1.604515	0.446526	-0.230908	-1.586491	0.406811	-0.228618	-1.642493	0.422080	-0.228677	-1.615135	0.381817	-0.233428	-1.830910	0.281238	-0.262787	-1.829684	0.271294	-0.341387	-1.852858	0.156227	-0.228041	-1.843540	0.142079	-0.333940	-1.799625	0.090580	-0.278171	-1.883486	0.333719	-0.311240	-1.395633	0.725549	-0.534782	-1.345122	0.740333	-0.521956	-1.385349	0.683562	-0.532665	-1.333833	0.701357	-0.523112	-1.287571	0.508963	-0.491936	-1.298349	0.501092	-0.399978	-1.329522	0.395887	-0.526555	-1.284716	0.398203	-0.506439	-1.330615	0.349709	-0.531517	-1.286648	0.352881	-0.510117	-1.326921	0.100208	-0.493618	-1.306878	0.108762	-0.412753	-1.201225	0.054162	-0.524256	-1.198755	0.053124	-0.417542	-1.137128	0.081637	-0.471457	-1.390886	0.076147	-0.462333	-1.259106	1.329838	-0.225056	-1.260415	1.335906	-0.536743	
3	0.0100	-1.388646	0.927055	-0.247186	-1.370226	0.919087	-0.470501	-1.535438	0.962157	-0.329147	-1.532249	0.960747	-0.424963	-1.476208	0.718761	-0.207491	-1.420896	0.717205	-0.206323	-1.469471	0.663650	-0.210332	-1.413205	0.661052	-0.210557	-1.465517	0.445912	-0.250519	-1.460686	0.442021	-0.349007	-1.584651	0.445834	-0.231476	-1.566759	0.406053	-0.228787	-1.622771	0.421625	-0.229224	-1.595477	0.381150	-0.233660	-1.811500	0.281601	-0.263848	-1.809862	0.271026	-0.342426	-1.831909	0.157157	-0.227995	-1.822336	0.141777	-0.333476	-1.777742	0.091552	-0.277485	-1.864637	0.333253	-0.312977	-1.383513	0.724170	-0.534952	-1.332994	0.738791	-0.522232	-1.373507	0.682150	-0.532728	-1.321966	0.699724	-0.523328	-1.276928	0.507012	-0.491917	-1.287492	0.499502	-0.400198	-1.320449	0.394743	-0.526226	-1.275669	0.396041	-0.506005	-1.322546	0.348682	-0.531118	-1.278719	0.350847	-0.509625	-1.325806	0.100211	-0.492984	-1.305771	0.108141	-0.411833	-1.200757	0.053406	-0.524056	-1.198157	0.051733	-0.417144	-1.136393	0.079173	-0.471227	-1.390398	0.076545	-0.461951	-1.248132	1.328641	-0.224824	-1.249004	1.332260	-0.538028	
4	0.0150	-1.376311	0.926145	-0.247195	-1.357281	0.918362	-0.470688	-1.523322	0.960390	-0.329633	-1.519875	0.959450	-0.425495	-1.461223	0.716992	-0.207874	-1.405955	0.716353	-0.206233	-1.453514	0.662045	-0.210537	-1.397282	0.660398	-0.210301	-1.445552	0.444906	-0.250406	-1.440467	0.440900	-0.349029	-1.564479	0.445148	-0.232036	-1.546696	0.405308	-0.228962	-1.602732	0.421148	-0.229766	-1.575478	0.380475	-0.233902	-1.791724	0.281814	-0.264927	-1.789669	0.270626	-0.343487	-1.810507	0.157922	-0.227976	-1.800654	0.141323	-0.333039	-1.755351	0.092410	-0.276840	-1.845467	0.332606	-0.314721	-1.371334	0.722778	-0.535123	-1.320799	0.737211	-0.522521	-1.361625	0.680723	-0.532795	-1.310051	0.698051	-0.523555	-1.266321	0.505011	-0.491901	-1.276669	0.497858	-0.400414	-1.311417	0.393557	-0.525899	-1.266668	0.393835	-0.505575	-1.314523	0.347617	-0.530721	-1.270838	0.348780	-0.509136	-1.324724	0.100210	-0.492358	-1.304710	0.107532	-0.410920	-1.200299	0.052691	-0.523860	-1.197572	0.050400	-0.416760	-1.135675	0.076787	-0.471003	-1.389938	0.076915	-0.461573	-1.237008	1.327456	-0.224589	-1.237425	1.328623	-0.539298	
5	0.0200	-1.363839	0.925267	-0.247216	-1.344193	0.917662	-0.470886	-1.511056	0.958667	-0.330133	-1.507343	0.958195	-0.426036	-1.446031	0.715293	-0.208261	-1.390810	0.715591	-0.206150	-1.437324	0.660523	-0.210736	-1.381132	0.659850	-0.210052	-1.425260	0.444016	-0.250293	-1.419934	0.439907	-0.349037	-1.543991	0.444473	-0.232585	-1.526285	0.404584	-0.229145	-1.582363	0.420645	-0.230301	-1.555115	0.379797	-0.234156	-1.771540	0.281833	-0.266024	-1.769063	0.270058	-0.344573	-1.788590	0.158477	-0.227994	-1.778426	0.140682	-0.332645	-1.732384	0.093125	-0.276253	-1.825939	0.331723	-0.316466	-1.359118	0.721381	-0.535297	-1.308559	0.735596	-0.522824	-1.349729	0.679287	-0.532863	-1.298114	0.696337	-0.523792	-1.255795	0.502960	-0.491888	-1.265930	0.496160	-0.400625	-1.302470	0.392332	-0.525579	-1.257757	0.391591	-0.505153	-1.306585	0.346520	-0.530327	-1.263043	0.346686	-0.508657	-1.323680	0.100211	-0.491747	-1.303705	0.106947	-0.410022	-1.199856	0.052025	-0.523669	-1.197006	0.049142	-0.416395	-1.134982	0.074504	-0.470788	-1.389515	0.077255	-0.461203	-1.225736	1.326294	-0.224351	-1.225667	1.325024	-0.540540	
6	0.0250	-1.351227	0.924431	-0.247251	-1.330962	0.916996	-0.471094	-1.498637	0.957003	-0.330646	-1.494648	0.956996	-0.426583	-1.430623	0.713686	-0.208650	-1.375455	0.714944	-0.206074	-1.420892	0.659109	-0.210928	-1.364748	0.659435	-0.209813	-1.404631	0.443275	-0.250177	-1.399078	0.439078	-0.349027	-1.523174	0.443814	-0.233117	-1.505506	0.403891	-0.229336	-1.561646	0.420114	-0.230824	-1.534363	0.379117	-0.234423	-1.750899	0.281612	-0.267141	-1.747998	0.269286	-0.345686	-1.766090	0.158774	-0.228060	-1.755583	0.139826	-0.332308	-1.708764	0.093672	-0.275741	-1.806012	0.330551	-0.318207	-1.346884	0.719986	-0.535470	-1.296290	0.733945	-0.523140	-1.337841	0.677850	-0.532934	-1.286177	0.694585	-0.524038	-1.245394	0.500864	-0.491877	-1.255321	0.494409	-0.400827	-1.293647	0.391072	-0.525268	-1.248977	0.389316	-0.504740	-1.298769	0.345395	-0.529941	-1.255373	0.344577	-0.508189	-1.322682	0.100218	-0.491158	-1.302766	0.106395	-0.409145	-1.199432	0.051414	-0.523487	-1.196466	0.047971	-0.416055	-1.134321	0.072348	-0.470583	-1.389133	0.077569	-0.460845	-1.214311	1.325173	-0.224110	-1.213713	1.321495	-0.541741	
7	0.0300	-1.338472	0.923651	-0.247302	-1.317588	0.916370	-0.471314	-1.486059	0.955414	-0.331171	-1.481787	0.955866	-0.427135	-1.414992	0.712194	-0.209038	-1.359884	0.714435	-0.206006	-1.404212	0.657831	-0.211110	-1.348126	0.659180	-0.209583	-1.383653	0.442714	-0.250061	-1.377892	0.438445	-0.348997	-1.502016	0.443176	-0.233629	-1.484340	0.403238	-0.229537	-1.540562	0.419549	-0.231332	-1.513196	0.378440	-0.234705	-1.729753	0.281107	-0.268278	-1.726426	0.268278	-0.346827	-1.742938	0.158771	-0.228186	-1.732053	0.138726	-0.332045	-1.684418	0.094028	-0.275323	-1.785641	0.329035	-0.319938	-1.334647	0.718601	-0.535643	-1.284008	0.732262	-0.523467	-1.325981	0.676419	-0.533006	-1.274257	0.692797	-0.524291	-1.235156	0.498727	-0.491867	-1.244885	0.492609	-0.401020	-1.284984	0.389785	-0.524970	-1.240368	0.387018	-0.504342	-1.291110	0.344249	-0.529568	-1.247860	0.342461	-0.507739	-1.321734	0.100240	-0.490596	-1.301899	0.105887	-0.408299	-1.199033	0.050861	-0.523317	-1.195958	0.046896	-0.415745	-1.133700	0.070339	-0.470390	-1.388798	0.077859	-0.460503	-1.202730	1.324107	-0.223867	-1.201545	1.318069	-0.542887	
8	0.0350	-1.325570	0.922938	-0.247369	-1.304070	0.915794	-0.471546	-1.473317	0.953914	-0.331705	-1.468753	0.954818	-0.427689	-1.399132	0.710840	-0.209423	-1.344091	0.714087	-0.205947	-1.387275	0.656710	-0.211279	-1.331258	0.659109	-0.209365	-1.362321	0.442362	-0.249943	-1.356371	0.438039	-0.348945	-1.480507	0.442563	-0.234117	-1.462769	0.402634	-0.229748	-1.519095	0.418947	-0.231822	-1.491591	0.377770	-0.235004	-1.708051	0.280279	-0.269437	-1.704298	0.267001	-0.348000	-1.719066	0.158429	-0.228385	-1.707767	0.137362	-0.331871	-1.659275	0.094175	-0.275017	-1.764780	0.327127	-0.321653	-1.322418	0.717233	-0.535814	-1.271723	0.730551	-0.523801	-1.314163	0.675004	-0.533079	-1.262370	0.690977	-0.524550	-1.225116	0.496554	-0.491859	-1.234661	0.490765	-0.401199	-1.276515	0.388478	-0.524689	-1.231962	0.384709	-0.503962	-1.283636	0.343092	-0.529211	-1.240536	0.340350	-0.507310	-1.320838	0.100283	-0.490069	-1.301107	0.105435	-0.407490	-1.198662	0.050368	-0.523163	-1.195489	0.045925	-0.415471	-1.133124	0.068492	-0.470210	-1.388512	0.078134	-0.460181	-1.190990	1.323114	-0.223621	-1.189143	1.314782	-0.543962	
9	0.0400	-1.312516	0.922304	-0.247454	-1.290405	0.915274	-0.471790	-1.460404	0.952516	-0.332246	-1.455542	0.953862	-0.428242	-1.383037	0.709643	-0.209804	-1.328073	0.713921	-0.205897	-1.370079	0.655769	-0.211434	-1.314142	0.659245	-0.209157	-1.340634	0.442246	-0.249823	-1.334516	0.437888	-0.348870	-1.458643	0.441979	-0.234577	-1.440783	0.402088	-0.229971	-1.497233	0.418306	-0.232291	-1.469531	0.377111	-0.235319	-1.685748	0.279092	-0.270617	-1.681569	0.265430	-0.349205	-1.694414	0.157717	-0.228667	-1.682663	0.135718	-0.331801	-1.633271	0.094103	-0.274839	-1.743386	0.324779	-0.323346	-1.310207	0.715894	-0.535982	-1.259444	0.728816	-0.524141	-1.302399	0.673615	-0.533152	-1.250526	0.689131	-0.524811	-1.215305	0.494355	-0.491851	-1.224686	0.488884	-0.401362	-1.268267	0.387162	-0.524430	-1.223790	0.382401	-0.503603	-1.276375	0.341936	-0.528874	-1.233425	0.338261	-0.506906	-1.319995	0.100357	-0.489583	-1.300390	0.105049	-0.406727	-1.198323	0.049935	-0.523027	-1.195065	0.045061	-0.415237	-1.132600	0.066819	-0.470042	-1.388277	0.078405	-0.459885	-1.179090	1.322212	-0.223374	-1.176488	1.311670	-0.544955	
10	0.0450	-1.299307	0.921758	-0.247556	-1.276594	0.914816	-0.472045	-1.447318	0.951234	-0.332790	-1.442152	0.953011	-0.428790	-1.366704	0.708623	-0.210176	-1.311828	0.713955	-0.205856	-1.352622	0.655030	-0.211573	-1.296780	0.659606	-0.208961	-1.318599	0.442392	-0.249703	-1.312334	0.438018	-0.348771	-1.436425	0.441426	-0.235006	-1.418376	0.401610	-0.230205	-1.474970	0.417622	-0.232736	-1.447005	0.376468	-0.235651	-1.662803	0.277514	-0.271817	-1.658200	0.263542	-0.350442	-1.668926	0.156608	-0.229045	-1.656689	0.133787	-0.331851	-1.606354	0.093805	-0.274805	-1.721416	0.321954	-0.325011	-1.298021	0.714592	-0.536144	-1.247179	0.727065	-0.524480	-1.290699	0.672262	-0.533225	-1.238735	0.687267	-0.525071	-1.205747	0.492140	-0.491844	-1.214990	0.486978	-0.401507	-1.260265	0.385850	-0.524197	-1.215878	0.380111	-0.503269	-1.269347	0.340794	-0.528563	-1.226550	0.336207	-0.506530	-1.319202	0.100473	-0.489145	-1.299747	0.104740	-0.406017	-1.198020	0.049557	-0.522912	-1.194692	0.044306	-0.415048	-1.132131	0.065328	-0.469887	-1.388089	0.078683	-0.459617	-1.167029	1.321418	-0.223125	-1.163563	1.308768	-0.545849	
11	0.0500	-1.285939	0.921312	-0.247676	-1.262639	0.914427	-0.472311	-1.434055	0.950079	-0.333333	-1.428580	0.952273	-0.429331	-1.350138	0.707796	-0.210538	-1.295361	0.714205	-0.205824	-1.334910	0.654509	-0.211693	-1.279177	0.660210	-0.208775	-1.296232	0.442817	-0.249583	-1.289841	0.438448	-0.348648	-1.413861	0.440908	-0.235401	-1.395552	0.401206	-0.230450	-1.452309	0.416894	-0.233156	-1.424011	0.375846	-0.236001	-1.639182	0.275521	-0.273039	-1.634161	0.261322	-0.351712	-1.642560	0.155086	-0.229527	-1.629801	0.131570	-0.332034	-1.578485	0.093283	-0.274930	-1.698834	0.318616	-0.326640	-1.285865	0.713340	-0.536300	-1.234933	0.725307	-0.524816	-1.279069	0.670957	-0.533296	-1.227006	0.685394	-0.525328	-1.196463	0.489924	-0.491836	-1.205599	0.485061	-0.401631	-1.252526	0.384560	-0.523992	-1.208245	0.377857	-0.502963	-1.262569	0.339684	-0.528281	-1.219927	0.334208	-0.506188	-1.318452	0.100643	-0.488760	-1.299169	0.104520	-0.405367	-1.197755	0.049231	-0.522822	-1.194373	0.043657	-0.414906	-1.131722	0.064022	-0.469745	-1.387944	0.078987	-0.459383	-1.154809	1.320750	-0.222874	-1.150355	1.306113	-0.546632	
12	0.0550	-1.272414	0.920974	-0.247814	-1.248542	0.914113	-0.472586	-1.420616	0.949061	-0.333871	-1.414830	0.951656	-0.429859	-1.333344	0.707179	-0.210886	-1.278680	0.714685	-0.205799	-1.316955	0.654222	-0.211794	-1.261346	0.661069	-0.208601	-1.273557	0.443540	-0.249462	-1.267062	0.439195	-0.348500	-1.390969	0.440426	-0.235760	-1.372326	0.400885	-0.230706	-1.429259	0.416119	-0.233548	-1.400556	0.375251	-0.236367	-1.614860	0.273097	-0.274279	-1.609428	0.258758	-0.353012	-1.615281	0.153144	-0.230122	-1.601972	0.129074	-0.332363	-1.549636	0.092545	-0.275224	-1.675610	0.314740	-0.328229	-1.273743	0.712149	-0.536447	-1.222712	0.723554	-0.525142	-1.267515	0.669714	-0.533364	-1.215342	0.683524	-0.525576	-1.187467	0.487723	-0.491828	-1.196532	0.483147	-0.401733	-1.245065	0.383309	-0.523821	-1.200906	0.375660	-0.502690	-1.256052	0.338624	-0.528034	-1.213567	0.332283	-0.505883	-1.317737	0.100878	-0.488434	-1.298647	0.104401	-0.404785	-1.197531	0.048948	-0.522760	-1.194113	0.043108	-0.414814	-1.131376	0.062900	-0.469615	-1.387834	0.079335	-0.459186	-1.142436	1.320226	-0.222621	-1.136853	1.303741	-0.547290	
13	0.0600	-1.258732	0.920753	-0.247967	-1.234311	0.913878	-0.472868	-1.407003	0.948191	-0.334398	-1.400904	0.951169	-0.430370	-1.316336	0.706781	-0.211218	-1.261797	0.715402	-0.205781	-1.298774	0.654180	-0.211875	-1.243305	0.662190	-0.208435	-1.250611	0.444571	-0.249342	-1.244033	0.440269	-0.348330	-1.367775	0.439980	-0.236081	-1.348720	0.400651	-0.230974	-1.405839	0.415297	-0.233912	-1.376658	0.374688	-0.236749	-1.589821	0.270229	-0.275536	-1.583987	0.255846	-0.354341	-1.587071	0.150782	-0.230838	-1.573186	0.126317	-0.332847	-1.519799	0.091610	-0.275698	-1.651719	0.310307	-0.329770	-1.261657	0.711034	-0.536584	-1.210518	0.721817	-0.525453	-1.256038	0.668547	-0.533428	-1.203748	0.681673	-0.525813	-1.178766	0.485556	-0.491818	-1.187803	0.481258	-0.401810	-1.237888	0.382118	-0.523686	-1.193868	0.373542	-0.502453	-1.249801	0.337636	-0.527823	-1.207474	0.330454	-0.505616	-1.317044	0.101192	-0.488173	-1.298166	0.104393	-0.404279	-1.197347	0.048701	-0.522727	-1.193913	0.042654	-0.414775	-1.131093	0.061958	-0.469496	-1.387747	0.079749	-0.459030	-1.129918	1.319862	-0.222366	-1.123051	1.301685	-0.547812	
14	0.0650	-1.244898	0.920657	-0.248136	-1.219951	0.913728	-0.473154	-1.393222	0.947475	-0.334908	-1.386811	0.950818	-0.430859	-1.299131	0.706614	-0.211530	-1.244731	0.716364	-0.205769	-1.280390	0.654391	-0.211933	-1.225076	0.663578	-0.208279	-1.227437	0.445916	-0.249224	-1.220796	0.441676	-0.348139	-1.344313	0.439568	-0.236364	-1.324767	0.400509	-0.231251	-1.382076	0.414424	-0.234246	-1.352345	0.374161	-0.237145	-1.564056	0.266917	-0.276807	-1.557833	0.252588	-0.355694	-1.557920	0.148013	-0.231680	-1.543442	0.123325	-0.333495	-1.488978	0.090503	-0.276358	-1.627145	0.305308	-0.331258	-1.249608	0.710006	-0.536708	-1.198355	0.720114	-0.525745	-1.244637	0.667471	-0.533487	-1.192224	0.679856	-0.526035	-1.170362	0.483445	-0.491806	-1.179415	0.479415	-0.401863	-1.230995	0.381012	-0.523590	-1.187133	0.371529	-0.502255	-1.243814	0.336742	-0.527655	-1.201648	0.328745	-0.505393	-1.316360	0.101600	-0.487981	-1.297708	0.104509	-0.403853	-1.197206	0.048480	-0.522726	-1.193777	0.042283	-0.414788	-1.130874	0.061185	-0.469388	-1.387668	0.080255	-0.458919	-1.117262	1.319675	-0.222109	-1.108948	1.299974	-0.548186	
15	0.0700	-1.230916	0.920692	-0.248318	-1.205473	0.913668	-0.473443	-1.379277	0.946922	-0.335396	-1.372559	0.950609	-0.431320	-1.281750	0.706684	-0.211820	-1.227502	0.717570	-0.205762	-1.261832	0.654861	-0.211970	-1.206687	0.665231	-0.208131	-1.204087	0.447576	-0.249108	-1.197402	0.443415	-0.347929	-1.320623	0.439187	-0.236608	-1.300508	0.400463	-0.231538	-1.358005	0.413501	-0.234549	-1.327652	0.373675	-0.237553	-1.537568	0.263165	-0.278089	-1.530970	0.248992	-0.357068	-1.527834	0.144857	-0.232651	-1.512752	0.120130	-0.334312	-1.457195	0.089256	-0.277207	-1.601876	0.299742	-0.332685	-1.237595	0.709082	-0.536817	-1.186222	0.718460	-0.526013	-1.233310	0.666501	-0.533539	-1.180770	0.678092	-0.526238	-1.162248	0.481412	-0.491792	-1.171366	0.477641	-0.401889	-1.224381	0.380013	-0.523536	-1.180695	0.369648	-0.502100	-1.238083	0.335967	-0.527531	-1.196080	0.327180	-0.505214	-1.315665	0.102115	-0.487863	-1.297249	0.104757	-0.403515	-1.197107	0.048274	-0.522760	-1.193703	0.041987	-0.414855	-1.130718	0.060571	-0.469290	-1.387578	0.080880	-0.458855	-1.104483	1.319679	-0.221849	-1.094547	1.298637	-0.548402	
16	0.0750	-1.216795	0.920862	-0.248512	-1.190887	0.913700	-0.473730	-1.365178	0.946535	-0.335856	-1.358157	0.950544	-0.431749	-1.264219	0.706993	-0.212085	-1.210137	0.719020	-0.205758	-1.243133	0.655589	-0.211984	-1.188172	0.667145	-0.207989	-1.180623	0.449546	-0.248996	-1.173910	0.445480	-0.347702	-1.296753	0.438834	-0.236815	-1.275992	0.400514	-0.231833	-1.333667	0.412525	-0.234823	-1.302624	0.373234	-0.237970	-1.510366	0.258987	-0.279376	-1.503411	0.245074	-0.358455	-1.496828	0.141347	-0.233752	-1.481142	0.116774	-0.335301	-1.424482	0.087909	-0.278246	-1.575907	0.293616	-0.334047	-1.225616	0.708276	-0.536911	-1.174121	0.716874	-0.526252	-1.222052	0.665653	-0.533583	-1.169382	0.676400	-0.526418	-1.154412	0.479483	-0.491776	-1.163644	0.475963	-0.401890	-1.218032	0.379148	-0.523526	-1.174541	0.367925	-0.501991	-1.232594	0.335335	-0.527455	-1.190757	0.325783	-0.505082	-1.314939	0.102752	-0.487822	-1.296765	0.105151	-0.403269	-1.197048	0.048074	-0.522828	-1.193690	0.041752	-0.414974	-1.130624	0.060099	-0.469201	-1.387455	0.081653	-0.458841	-1.091591	1.319885	-0.221585	-1.079856	1.297695	-0.548453	
17	0.0800	-1.202541	0.921171	-0.248716	-1.176203	0.913828	-0.474014	-1.350934	0.946319	-0.336282	-1.343618	0.950628	-0.432140	-1.246568	0.707542	-0.212324	-1.192663	0.720707	-0.205757	-1.224331	0.656573	-0.211977	-1.169566	0.669307	-0.207852	-1.157110	0.451816	-0.248889	-1.150384	0.447859	-0.347462	-1.272756	0.438503	-0.236984	-1.251276	0.400659	-0.232133	-1.309108	0.411496	-0.235067	-1.277312	0.372841	-0.238393	-1.482468	0.254403	-0.280665	-1.475176	0.240853	-0.359849	-1.464929	0.137523	-0.234981	-1.448647	0.113305	-0.336460	-1.390888	0.086509	-0.279473	-1.549242	0.286944	-0.335338	-1.213667	0.707602	-0.536986	-1.162048	0.715375	-0.526458	-1.210856	0.664943	-0.533617	-1.158054	0.674802	-0.526575	-1.146834	0.477683	-0.491757	-1.156231	0.474407	-0.401867	-1.211930	0.378442	-0.523562	-1.168652	0.366389	-0.501930	-1.227326	0.334873	-0.527429	-1.185657	0.324577	-0.504999	-1.314157	0.103527	-0.487861	-1.296228	0.105698	-0.403121	-1.197029	0.047869	-0.522933	-1.193737	0.041567	-0.415144	-1.130588	0.059753	-0.469120	-1.387271	0.082605	-0.458880	-1.078600	1.320304	-0.221316	-1.064887	1.297165	-0.548331	
18	0.0850	-1.188163	0.921620	-0.248928	-1.161432	0.914056	-0.474289	-1.336555	0.946277	-0.336668	-1.328953	0.950863	-0.432489	-1.228827	0.708327	-0.212535	-1.175111	0.722620	-0.205756	-1.205465	0.657806	-0.211950	-1.150906	0.671704	-0.207721	-1.133617	0.454369	-0.248788	-1.126891	0.450534	-0.347213	-1.248690	0.438184	-0.237118	-1.226419	0.400898	-0.232438	-1.284382	0.410410	-0.235283	-1.251775	0.372499	-0.238818	-1.453898	0.249440	-0.281950	-1.446294	0.236354	-0.361243	-1.432173	0.133433	-0.236335	-1.415317	0.109773	-0.337786	-1.356473	0.085109	-0.280881	-1.521886	0.279752	-0.336554	-1.201742	0.707076	-0.537042	-1.150001	0.713983	-0.526630	-1.199710	0.664387	-0.533640	-1.146778	0.673318	-0.526705	-1.139487	0.476037	-0.491735	-1.149098	0.472998	-0.401820	-1.206049	0.377922	-0.523644	-1.163000	0.365068	-0.501921	-1.222252	0.334605	-0.527453	-1.180755	0.323588	-0.504964	-1.313294	0.104453	-0.487982	-1.295604	0.106411	-0.403075	-1.197045	0.047651	-0.523074	-1.193838	0.041420	-0.415362	-1.130605	0.059514	-0.469047	-1.386997	0.083767	-0.458972	-1.065525	1.320943	-0.221039	-1.049657	1.297059	-0.548033	
19	0.0900	-1.173671	0.922210	-0.249146	-1.146586	0.914385	-0.474553	-1.322051	0.946409	-0.337009	-1.314175	0.951248	-0.432790	-1.211031	0.709342	-0.212717	-1.157512	0.724745	-0.205756	-1.186578	0.659275	-0.211904	-1.132234	0.674316	-0.207592	-1.110217	0.457186	-0.248697	-1.103502	0.453482	-0.346959	-1.224611	0.437870	-0.237220	-1.201485	0.401224	-0.232746	-1.259542	0.409265	-0.235473	-1.226073	0.372209	-0.239243	-1.424686	0.244134	-0.283226	-1.416797	0.231609	-0.362628	-1.398606	0.129132	-0.237808	-1.381206	0.106237	-0.339272	-1.321304	0.083764	-0.282460	-1.493853	0.272068	-0.337689	-1.189833	0.706709	-0.537077	-1.137974	0.712718	-0.526765	-1.188603	0.664000	-0.533652	-1.135544	0.671970	-0.526808	-1.132337	0.474570	-0.491712	-1.142209	0.471764	-0.401752	-1.200356	0.377610	-0.523772	-1.157552	0.363987	-0.501966	-1.217339	0.334555	-0.527529	-1.176017	0.322837	-0.504979	-1.312321	0.105546	-0.488187	-1.294862	0.107296	-0.403132	-1.197093	0.047413	-0.523250	-1.193987	0.041303	-0.415624	-1.130671	0.059360	-0.468982	-1.386600	0.085171	-0.459119	-1.052377	1.321808	-0.220753	-1.034187	1.297381	-0.547554	
20	0.0950	-1.159073	0.922939	-0.249367	-1.131672	0.914818	-0.474803	-1.307431	0.946715	-0.337302	-1.299293	0.951785	-0.433040	-1.193213	0.710576	-0.212870	-1.139899	0.727063	-0.205755	-1.167712	0.660967	-0.211840	-1.113588	0.677120	-0.207467	-1.086982	0.460239	-0.248615	-1.080287	0.456675	-0.346703	-1.200581	0.437548	-0.237294	-1.176541	0.401632	-0.233055	-1.234644	0.408059	-0.235640	-1.200270	0.371970	-0.239662	-1.394868	0.238523	-0.284486	-1.386723	0.226650	-0.363994	-1.364281	0.124684	-0.239390	-1.346380	0.102755	-0.340907	-1.285460	0.082534	-0.284198	-1.465159	0.263932	-0.338742	-1.177930	0.706515	-0.537090	-1.125960	0.711598	-0.526865	-1.177519	0.663793	-0.533650	-1.124338	0.670777	-0.526885	-1.125345	0.473305	-0.491689	-1.135520	0.470728	-0.401666	-1.194814	0.377531	-0.523945	-1.152270	0.363170	-0.502067	-1.212549	0.334743	-0.527655	-1.171405	0.322343	-0.505042	-1.311209	0.106817	-0.488475	-1.293965	0.108364	-0.403296	-1.197167	0.047150	-0.523461	-1.194178	0.041205	-0.415926	-1.130778	0.059271	-0.468924	-1.386044	0.086848	-0.459319	-1.039168	1.322900	-0.220456	-1.018499	1.298131	-0.546895	
21	0.1000	-1.144377	0.923804	-0.249591	-1.116701	0.915354	-0.475035	-1.292703	0.947192	-0.337543	-1.284318	0.952471	-0.433236	-1.175407	0.712015	-0.212995	-1.122300	0.729554	-0.205751	-1.148909	0.662862	-0.211762	-1.095008	0.680089	-0.207345	-1.063982	0.463498	-0.248546	-1.057314	0.460080	-0.346450	-1.176656	0.437208	-0.237343	-1.151652	0.402111	-0.233361	-1.209744	0.406788	-0.235785	-1.174431	0.371780	-0.240071	-1.364485	0.232651	-0.285723	-1.356116	0.221516	-0.365332	-1.329258	0.120153	-0.241070	-1.310909	0.099387	-0.342677	-1.249024	0.081480	-0.286079	-1.435827	0.255387	-0.339708	-1.166021	0.706504	-0.537082	-1.113949	0.710642	-0.526929	-1.166442	0.663779	-0.533636	-1.113146	0.669758	-0.526936	-1.118466	0.472263	-0.491668	-1.128982	0.469910	-0.401565	-1.189379	0.377702	-0.524162	-1.147108	0.362638	-0.502225	-1.207840	0.335190	-0.527831	-1.166878	0.322123	-0.505152	-1.309928	0.108282	-0.488846	-1.292879	0.109621	-0.403566	-1.197263	0.046860	-0.523705	-1.194400	0.041121	-0.416264	-1.130919	0.059226	-0.468874	-1.385290	0.088829	-0.459574	-1.025908	1.324219	-0.220144	-1.002619	1.299300	-0.546057	
22	0.1050	-1.129591	0.924797	-0.249815	-1.101679	0.915995	-0.475246	-1.277876	0.947837	-0.337730	-1.269257	0.953304	-0.433376	-1.157644	0.713643	-0.213093	-1.104748	0.732193	-0.205746	-1.130209	0.664939	-0.211672	-1.076530	0.683192	-0.207225	-1.041286	0.466928	-0.248492	-1.034649	0.463661	-0.346203	-1.152894	0.436834	-0.237371	-1.126883	0.402650	-0.233664	-1.184897	0.405450	-0.235913	-1.148620	0.371638	-0.240467	-1.333582	0.226566	-0.286932	-1.325022	0.216245	-0.366632	-1.293602	0.115608	-0.242835	-1.274869	0.096191	-0.344565	-1.212086	0.080661	-0.288084	-1.405883	0.246482	-0.340587	-1.154094	0.706683	-0.537051	-1.101929	0.709863	-0.526960	-1.155352	0.663965	-0.533608	-1.101949	0.668930	-0.526963	-1.111651	0.471461	-0.491649	-1.122538	0.469330	-0.401453	-1.184006	0.378141	-0.524420	-1.142018	0.362409	-0.502441	-1.203163	0.335911	-0.528053	-1.162389	0.322192	-0.505309	-1.308446	0.109949	-0.489297	-1.291568	0.111074	-0.403941	-1.197372	0.046545	-0.523978	-1.194643	0.041048	-0.416632	-1.131085	0.059204	-0.468833	-1.384298	0.091143	-0.459879	-1.012605	1.325759	-0.219815	-0.986575	1.300873	-0.545043	
23	0.1100	-1.114720	0.925913	-0.250037	-1.086611	0.916738	-0.475434	-1.262956	0.948643	-0.337863	-1.254118	0.954279	-0.433459	-1.139955	0.715440	-0.213164	-1.087267	0.734952	-0.205739	-1.111650	0.667172	-0.211574	-1.058190	0.686395	-0.207109	-1.018955	0.470491	-0.248454	-1.012353	0.467379	-0.345968	-1.129347	0.436413	-0.237385	-1.102296	0.403238	-0.233961	-1.160156	0.404039	-0.236027	-1.122901	0.371538	-0.240845	-1.302207	0.220319	-0.288107	-1.293490	0.210879	-0.367886	-1.257386	0.111117	-0.244670	-1.238341	0.093224	-0.346553	-1.174739	0.080134	-0.290192	-1.375358	0.237271	-0.341378	-1.142134	0.707058	-0.537000	-1.089889	0.709276	-0.526963	-1.144229	0.664359	-0.533566	-1.090729	0.668306	-0.526970	-1.104849	0.470913	-0.491637	-1.116129	0.469001	-0.401333	-1.178645	0.378860	-0.524715	-1.136948	0.362495	-0.502716	-1.198471	0.336917	-0.528319	-1.157890	0.322557	-0.505509	-1.306733	0.111831	-0.489825	-1.289997	0.112728	-0.404420	-1.197487	0.046209	-0.524277	-1.194894	0.040986	-0.417023	-1.131268	0.059185	-0.468802	-1.383028	0.093818	-0.460233	-0.999264	1.327515	-0.219466	-0.970396	1.302829	-0.543859	
24	0.1150	-1.099770	0.927141	-0.250257	-1.071500	0.917581	-0.475597	-1.247947	0.949604	-0.337941	-1.238905	0.955390	-0.433484	-1.122369	0.717384	-0.213213	-1.069885	0.737800	-0.205729	-1.093267	0.669534	-0.211469	-1.040018	0.689665	-0.206996	-0.997047	0.474146	-0.248435	-0.990481	0.471190	-0.345748	-1.106064	0.435930	-0.237390	-1.077948	0.403858	-0.234250	-1.135572	0.402552	-0.236131	-1.097333	0.371475	-0.241201	-1.270413	0.213962	-0.289241	-1.261575	0.205459	-0.369082	-1.220684	0.106748	-0.246558	-1.201408	0.090537	-0.348619	-1.137080	0.079951	-0.292380	-1.344288	0.227811	-0.342080	-1.130123	0.707632	-0.536927	-1.077813	0.708889	-0.526942	-1.133050	0.664961	-0.533511	-1.079464	0.667895	-0.526960	-1.098003	0.470627	-0.491634	-1.109691	0.468931	-0.401208	-1.173242	0.379866	-0.525043	-1.131842	0.362904	-0.503051	-1.193712	0.338216	-0.528624	-1.153329	0.323225	-0.505749	-1.304759	0.113935	-0.490425	-1.288132	0.114589	-0.404998	-1.197598	0.045861	-0.524599	-1.195138	0.040938	-0.417430	-1.131456	0.059153	-0.468781	-1.381437	0.096876	-0.460633	-0.985890	1.329474	-0.219095	-0.954113	1.305142	-0.542513	
25	0.1200	-1.084745	0.928470	-0.250473	-1.056350	0.918520	-0.475733	-1.232853	0.950708	-0.337967	-1.223622	0.956631	-0.433454	-1.104911	0.719450	-0.213242	-1.052621	0.740706	-0.205718	-1.075091	0.671994	-0.211362	-1.022043	0.692962	-0.206889	-0.975611	0.477851	-0.248436	-0.969081	0.475051	-0.345547	-1.083089	0.435370	-0.237392	-1.053893	0.404497	-0.234528	-1.111191	0.400984	-0.236231	-1.071972	0.371441	-0.241532	-1.238255	0.207546	-0.290328	-1.229331	0.200026	-0.370214	-1.183579	0.102566	-0.248481	-1.164157	0.088177	-0.350740	-1.099205	0.080159	-0.294624	-1.312715	0.218163	-0.342694	-1.118046	0.708403	-0.536836	-1.065686	0.708708	-0.526902	-1.121792	0.665771	-0.533444	-1.068133	0.667704	-0.526938	-1.091058	0.470606	-0.491643	-1.103158	0.469123	-0.401084	-1.167745	0.381162	-0.525400	-1.126646	0.363638	-0.503442	-1.188834	0.339811	-0.528963	-1.148655	0.324194	-0.506027	-1.302495	0.116269	-0.491091	-1.285943	0.116660	-0.405671	-1.197693	0.045514	-0.524937	-1.195360	0.040913	-0.417848	-1.131641	0.059091	-0.468773	-1.379484	0.100338	-0.461072	-0.972483	1.331625	-0.218697	-0.937756	1.307780	-0.541014	
26	0.1250	-1.069648	0.929885	-0.250684	-1.041161	0.919550	-0.475841	-1.217676	0.951945	-0.337944	-1.208269	0.957992	-0.433371	-1.087602	0.721609	-0.213253	-1.035495	0.743636	-0.205706	-1.057147	0.674520	-0.211256	-1.004285	0.696249	-0.206789	-0.954686	0.481561	-0.248459	-0.948192	0.478916	-0.345367	-1.060457	0.434717	-0.237397	-1.030178	0.405135	-0.234794	-1.087054	0.399331	-0.236329	-1.046872	0.371428	-0.241834	-1.205791	0.201124	-0.291363	-1.196817	0.194619	-0.371273	-1.146154	0.098630	-0.250420	-1.126677	0.086182	-0.352892	-1.061214	0.080795	-0.296898	-1.280684	0.208388	-0.343223	-1.105883	0.709367	-0.536728	-1.053489	0.708736	-0.526850	-1.110433	0.666783	-0.533367	-1.056713	0.667734	-0.526909	-1.083958	0.470848	-0.491670	-1.096466	0.469574	-0.400963	-1.162099	0.382746	-0.525779	-1.121302	0.364694	-0.503890	-1.183785	0.341698	-0.529331	-1.143818	0.325461	-0.506338	-1.299914	0.118839	-0.491818	-1.283402	0.118944	-0.406430	-1.197763	0.045184	-0.525288	-1.195543	0.040921	-0.418269	-1.131809	0.058987	-0.468779	-1.377130	0.104222	-0.461547	-0.959043	1.333951	-0.218272	-0.921354	1.310705	-0.539374	
27	0.1300	-1.054481	0.931371	-0.250889	-1.025932	0.920662	-0.475922	-1.202418	0.953301	-0.337875	-1.192848	0.959463	-0.433240	-1.070460	0.723834	-0.213252	-1.018520	0.746555	-0.205695	-1.039457	0.677077	-0.211154	-0.986764	0.699487	-0.206698	-0.934305	0.485232	-0.248506	-0.927844	0.482741	-0.345213	-1.038202	0.433958	-0.237411	-1.006845	0.405756	-0.235046	-1.063200	0.397590	-0.236431	-1.022077	0.371425	-0.242105	-1.173087	0.194744	-0.292340	-1.164094	0.189275	-0.372253	-1.108500	0.094993	-0.252355	-1.089061	0.084582	-0.355049	-1.023207	0.081887	-0.299175	-1.248250	0.198550	-0.343669	-1.093617	0.710513	-0.536606	-1.041206	0.708968	-0.526793	-1.098948	0.667988	-0.533280	-1.045181	0.667983	-0.526878	-1.076647	0.471346	-0.491718	-1.089549	0.470276	-0.400849	-1.156252	0.384608	-0.526176	-1.115757	0.366062	-0.504391	-1.178514	0.343869	-0.529720	-1.138766	0.327015	-0.506678	-1.296993	0.121650	-0.492595	-1.280483	0.121442	-0.407269	-1.197792	0.044892	-0.525643	-1.195667	0.040979	-0.418685	-1.131950	0.058832	-0.468802	-1.374336	0.108541	-0.462051	-0.945568	1.336432	-0.217816	-0.904939	1.313878	-0.537604	
28	0.1350	-1.039245	0.932911	-0.251087	-1.010664	0.921849	-0.475976	-1.187078	0.954758	-0.337767	-1.177357	0.961028	-0.433064	-1.053499	0.726093	-0.213242	-1.001708	0.749426	-0.205685	-1.022037	0.679632	-0.211061	-0.969492	0.702636	-0.206617	-0.914490	0.488819	-0.248578	-0.908061	0.486479	-0.345085	-1.016347	0.433080	-0.237441	-0.983927	0.406342	-0.235283	-1.039662	0.395757	-0.236542	-0.997631	0.371422	-0.242343	-1.140208	0.188456	-0.293257	-1.131229	0.184031	-0.373147	-1.070712	0.091699	-0.254266	-1.051403	0.083396	-0.357187	-0.985284	0.083451	-0.301429	-1.215474	0.188714	-0.344036	-1.081228	0.711830	-0.536472	-1.028817	0.709399	-0.526738	-1.087315	0.669372	-0.533186	-1.033514	0.668441	-0.526851	-1.069072	0.472085	-0.491790	-1.082346	0.471213	-0.400745	-1.150153	0.386736	-0.526583	-1.109956	0.367725	-0.504943	-1.172974	0.346313	-0.530124	-1.133451	0.328840	-0.507044	-1.293711	0.124703	-0.493415	-1.277165	0.124155	-0.408176	-1.197768	0.044663	-0.525998	-1.195713	0.041105	-0.419091	-1.132052	0.058617	-0.468843	-1.371067	0.113302	-0.462576	-0.932056	1.339048	-0.217328	-0.888538	1.317255	-0.535719	
29	0.1400	-1.023941	0.934486	-0.251279	-0.995356	0.923099	-0.476005	-1.171658	0.956299	-0.337625	-1.161796	0.962675	-0.432850	-1.036729	0.728355	-0.213227	-0.985066	0.752215	-0.205680	-1.004897	0.682148	-0.210978	-0.952479	0.705658	-0.206551	-0.895254	0.492279	-0.248677	-0.888852	0.490088	-0.344987	-0.994913	0.432071	-0.237491	-0.961454	0.406874	-0.235504	-1.016467	0.393830	-0.236665	-0.973569	0.371406	-0.242547	-1.107228	0.182301	-0.294110	-1.098289	0.178917	-0.373953	-1.032888	0.088783	-0.256135	-1.013798	0.082633	-0.359279	-0.947544	0.085489	-0.303635	-1.182423	0.178943	-0.344330	-1.068699	0.713301	-0.536331	-1.016306	0.710015	-0.526692	-1.075510	0.670917	-0.533088	-1.021688	0.669096	-0.526833	-1.061182	0.473045	-0.491893	-1.074796	0.472362	-0.400653	-1.143752	0.389111	-0.526994	-1.103850	0.369662	-0.505540	-1.167117	0.349010	-0.530536	-1.127828	0.330917	-0.507430	-1.290047	0.128000	-0.494267	-1.273433	0.127082	-0.409142	-1.197673	0.044524	-0.526346	-1.195660	0.041322	-0.419480	-1.132100	0.058342	-0.468904	-1.367291	0.118509	-0.463116	-0.918503	1.341774	-0.216804	-0.872178	1.320791	-0.533733	
30	0.1450	-1.008571	0.936075	-0.251464	-0.980006	0.924399	-0.476012	-1.156158	0.957903	-0.337457	-1.146164	0.964385	-0.432606	-1.020157	0.730586	-0.213211	-0.968596	0.754887	-0.205679	-0.988043	0.684590	-0.210910	-0.935726	0.708516	-0.206501	-0.876599	0.495572	-0.248803	-0.870222	0.493526	-0.344919	-0.973911	0.430921	-0.237569	-0.939446	0.407334	-0.235708	-0.993640	0.391806	-0.236806	-0.949922	0.371366	-0.242716	-1.074221	0.176320	-0.294895	-1.065348	0.173961	-0.374667	-0.995133	0.086269	-0.257942	-0.976347	0.082290	-0.361304	-0.910087	0.087991	-0.305768	-1.149174	0.169298	-0.344555	-1.056012	0.714903	-0.536185	-1.003654	0.710801	-0.526662	-1.063514	0.672600	-0.532988	-1.009683	0.669931	-0.526830	-1.052931	0.474202	-0.492030	-1.066846	0.473698	-0.400576	-1.137004	0.391707	-0.527403	-1.097391	0.371843	-0.506177	-1.160902	0.351939	-0.530950	-1.121855	0.333221	-0.507832	-1.285989	0.131541	-0.495140	-1.269273	0.130223	-0.410154	-1.197490	0.044505	-0.526679	-1.195486	0.041654	-0.419845	-1.132082	0.058005	-0.468987	-1.362980	0.124161	-0.463662	-0.904904	1.344584	-0.216245	-0.855885	1.324439	-0.531664	
31	0.1500	-0.993135	0.937656	-0.251641	-0.964615	0.925736	-0.476000	-1.140579	0.959548	-0.337269	-1.130462	0.966138	-0.432337	-1.003784	0.732754	-0.213200	-0.952300	0.757406	-0.205687	-0.971475	0.686924	-0.210859	-0.919233	0.711176	-0.206471	-0.858520	0.498658	-0.248957	-0.852164	0.496754	-0.344884	-0.953348	0.429623	-0.237678	-0.917919	0.407705	-0.235895	-0.971200	0.389686	-0.236968	-0.926715	0.371287	-0.242852	-1.041271	0.170546	-0.295612	-1.032483	0.169185	-0.375290	-0.957554	0.084171	-0.259669	-0.939150	0.082353	-0.363238	-0.873012	0.090932	-0.307805	-1.115811	0.159841	-0.344719	-1.043152	0.716614	-0.536038	-0.990843	0.711737	-0.526655	-1.051305	0.674396	-0.532890	-0.997477	0.670924	-0.526845	-1.044276	0.475525	-0.492204	-1.058446	0.475187	-0.400515	-1.129867	0.394497	-0.527804	-1.090537	0.374237	-0.506849	-1.154290	0.355072	-0.531357	-1.115493	0.335724	-0.508246	-1.281524	0.135325	-0.496023	-1.264677	0.133575	-0.411199	-1.197200	0.044638	-0.526993	-1.195167	0.042130	-0.420182	-1.131984	0.057612	-0.469094	-1.358112	0.130252	-0.464207	-0.891256	1.347451	-0.215648	-0.839682	1.328153	-0.529526	
32	0.1550	-0.977634	0.939209	-0.251810	-0.949183	0.927092	-0.475973	-1.124924	0.961208	-0.337069	-1.114689	0.967914	-0.432053	-0.987609	0.734826	-0.213196	-0.936174	0.759742	-0.205704	-0.955189	0.689116	-0.210827	-0.902994	0.713604	-0.206463	-0.841002	0.501503	-0.249140	-0.834663	0.499738	-0.344880	-0.933227	0.428172	-0.237824	-0.896880	0.407970	-0.236067	-0.949163	0.387470	-0.237155	-0.903969	0.371158	-0.242955	-1.008463	0.165009	-0.296261	-0.999774	0.164609	-0.375822	-0.920265	0.082488	-0.261302	-0.902310	0.082794	-0.365061	-0.836419	0.094272	-0.309726	-1.082427	0.150629	-0.344829	-1.030103	0.718404	-0.535895	-0.977860	0.712797	-0.526675	-1.038867	0.676275	-0.532796	-0.985054	0.672049	-0.526884	-1.035179	0.476978	-0.492421	-1.049552	0.476791	-0.400472	-1.122303	0.397448	-0.528191	-1.083252	0.376804	-0.507550	-1.147246	0.358379	-0.531753	-1.108709	0.338393	-0.508667	-1.276644	0.139349	-0.496905	-1.259642	0.137136	-0.412262	-1.196782	0.044956	-0.527279	-1.194679	0.042779	-0.420486	-1.131789	0.057171	-0.469225	-1.352669	0.136770	-0.464742	-0.877556	1.350343	-0.215013	-0.823591	1.331887	-0.527337	
33	0.1600	-0.962072	0.940709	-0.251972	-0.933713	0.928451	-0.475935	-1.109194	0.962857	-0.336865	-1.098847	0.969688	-0.431761	-0.971627	0.736772	-0.213204	-0.920212	0.761865	-0.205733	-0.939175	0.691134	-0.210816	-0.886999	0.715772	-0.206481	-0.824020	0.504076	-0.249350	-0.817696	0.502447	-0.344909	-0.913543	0.426565	-0.238009	-0.876332	0.408114	-0.236224	-0.927541	0.385162	-0.237369	-0.881700	0.370965	-0.243028	-0.975889	0.159732	-0.296842	-0.967308	0.160245	-0.376266	-0.883384	0.081209	-0.262825	-0.865934	0.083578	-0.366756	-0.800406	0.097960	-0.311512	-1.049125	0.141715	-0.344893	-1.016852	0.720245	-0.535760	-0.964688	0.713955	-0.526728	-1.026183	0.678205	-0.532710	-0.972395	0.673276	-0.526949	-1.025610	0.478523	-0.492681	-1.040129	0.478470	-0.400445	-1.114279	0.400524	-0.528559	-1.075501	0.379503	-0.508271	-1.139741	0.361826	-0.532131	-1.101473	0.341193	-0.509094	-1.271344	0.143608	-0.497772	-1.254167	0.140902	-0.413332	-1.196214	0.045492	-0.527532	-1.193998	0.043628	-0.420753	-1.131482	0.056695	-0.469382	-1.346637	0.143699	-0.465259	-0.863802	1.353231	-0.214339	-0.807630	1.335595	-0.525113	
34	0.1650	-0.946451	0.942136	-0.252125	-0.918208	0.929795	-0.475892	-1.093396	0.964468	-0.336664	-1.082942	0.971436	-0.431468	-0.955831	0.738562	-0.213226	-0.904405	0.763746	-0.205775	-0.923419	0.692950	-0.210829	-0.871235	0.717654	-0.206526	-0.807545	0.506350	-0.249590	-0.801233	0.504853	-0.344970	-0.894290	0.424805	-0.238237	-0.856274	0.408124	-0.236367	-0.906343	0.382765	-0.237614	-0.859918	0.370694	-0.243076	-0.943643	0.154733	-0.297357	-0.935175	0.156103	-0.376628	-0.847030	0.080314	-0.264228	-0.830129	0.084655	-0.368309	-0.765069	0.101929	-0.313148	-1.016013	0.133151	-0.344921	-1.003388	0.722101	-0.535635	-0.951316	0.715180	-0.526816	-1.013241	0.680150	-0.532635	-0.959486	0.674574	-0.527043	-1.015539	0.480120	-0.492988	-1.030146	0.480181	-0.400436	-1.105766	0.403686	-0.528904	-1.067257	0.382289	-0.509005	-1.131750	0.365376	-0.532486	-1.093761	0.344087	-0.509521	-1.265621	0.148099	-0.498615	-1.248255	0.144868	-0.414392	-1.195470	0.046280	-0.527748	-1.193095	0.044709	-0.420981	-1.131042	0.056199	-0.469566	-1.340008	0.151018	-0.465749	-0.849994	1.356080	-0.213625	-0.791816	1.339237	-0.522871	
35	0.1700	-0.930775	0.943468	-0.252271	-0.902672	0.931103	-0.475849	-1.077536	0.966012	-0.336471	-1.066979	0.973132	-0.431183	-0.940209	0.740167	-0.213266	-0.888744	0.765362	-0.205833	-0.907905	0.694537	-0.210866	-0.855686	0.719229	-0.206602	-0.791540	0.508302	-0.249856	-0.785236	0.506935	-0.345062	-0.875456	0.422895	-0.238509	-0.836698	0.407989	-0.236500	-0.885576	0.380286	-0.237891	-0.838630	0.370336	-0.243101	-0.911826	0.150023	-0.297809	-0.903468	0.152186	-0.376913	-0.811327	0.079767	-0.265500	-0.795002	0.085968	-0.369707	-0.730505	0.106101	-0.314622	-0.983207	0.124981	-0.344921	-0.989704	0.723940	-0.535526	-0.937733	0.716440	-0.526941	-1.000030	0.682076	-0.532574	-0.946316	0.675908	-0.527167	-1.004947	0.481724	-0.493342	-1.019579	0.481876	-0.400444	-1.096739	0.406894	-0.529222	-1.058500	0.385114	-0.509743	-1.123251	0.368993	-0.532815	-1.085553	0.347038	-0.509947	-1.259476	0.152813	-0.499421	-1.241911	0.149029	-0.415429	-1.194524	0.047351	-0.527921	-1.191945	0.046048	-0.421167	-1.130451	0.055701	-0.469775	-1.332781	0.158703	-0.466205	-0.836132	1.358857	-0.212872	-0.776164	1.342770	-0.520627	
36	0.1750	-0.915050	0.944682	-0.252408	-0.887112	0.932356	-0.475812	-1.061621	0.967461	-0.336293	-1.050965	0.974748	-0.430912	-0.924749	0.741563	-0.213325	-0.873216	0.766695	-0.205907	-0.892612	0.695872	-0.210928	-0.840333	0.720481	-0.206710	-0.775963	0.509917	-0.250150	-0.769666	0.508678	-0.345185	-0.857029	0.420843	-0.238825	-0.817593	0.407699	-0.236626	-0.865242	0.377733	-0.238200	-0.817840	0.369878	-0.243110	-0.880540	0.145607	-0.298203	-0.872284	0.148492	-0.377129	-0.776398	0.079528	-0.266635	-0.760664	0.087452	-0.370944	-0.696808	0.110389	-0.315926	-0.950830	0.117247	-0.344903	-0.975791	0.725725	-0.535434	-0.923931	0.717703	-0.527104	-0.986542	0.683944	-0.532530	-0.932875	0.677243	-0.527321	-0.993817	0.483292	-0.493745	-1.008414	0.483511	-0.400466	-1.087180	0.410106	-0.529511	-1.049210	0.387931	-0.510479	-1.114228	0.372639	-0.533113	-1.076833	0.350005	-0.510368	-1.252909	0.157744	-0.500179	-1.235143	0.153379	-0.416430	-1.193345	0.048732	-0.528048	-1.190518	0.047671	-0.421312	-1.129683	0.055225	-0.470010	-1.324956	0.166723	-0.466619	-0.822219	1.361528	-0.212077	-0.760683	1.346158	-0.518397	
37	0.1800	-0.899282	0.945761	-0.252537	-0.871534	0.933534	-0.475786	-1.045661	0.968787	-0.336135	-1.034911	0.976257	-0.430661	-0.909434	0.742727	-0.213405	-0.857807	0.767727	-0.205999	-0.877516	0.696937	-0.211015	-0.825155	0.721398	-0.206852	-0.760766	0.511184	-0.250470	-0.754475	0.510070	-0.345337	-0.838990	0.418658	-0.239186	-0.798943	0.407248	-0.236747	-0.845343	0.375116	-0.238542	-0.797548	0.369311	-0.243108	-0.849890	0.141487	-0.298544	-0.841722	0.145017	-0.377287	-0.742369	0.079543	-0.267628	-0.727223	0.089034	-0.372014	-0.664069	0.114697	-0.317055	-0.919010	0.109982	-0.344878	-0.961647	0.727421	-0.535363	-0.909904	0.718934	-0.527305	-0.972771	0.685717	-0.532505	-0.919156	0.678545	-0.527506	-0.982138	0.484779	-0.494194	-0.996638	0.485039	-0.400503	-1.077072	0.413281	-0.529771	-1.039377	0.390690	-0.511202	-1.104669	0.376273	-0.533380	-1.067588	0.352949	-0.510785	-1.245923	0.162882	-0.500880	-1.227959	0.157911	-0.417381	-1.191901	0.050449	-0.528127	-1.188783	0.049601	-0.421414	-1.128713	0.054794	-0.470269	-1.316541	0.175046	-0.466986	-0.808259	1.364058	-0.211242	-0.745382	1.349368	-0.516195	
38	0.1850	-0.883478	0.946688	-0.252658	-0.855946	0.934619	-0.475774	-1.029667	0.969961	-0.335999	-1.018827	0.977631	-0.430436	-0.894249	0.743642	-0.213506	-0.842503	0.768448	-0.206110	-0.862593	0.697717	-0.211128	-0.810128	0.721972	-0.207028	-0.745902	0.512095	-0.250815	-0.739614	0.511105	-0.345515	-0.821323	0.416355	-0.239589	-0.780733	0.406631	-0.236868	-0.825880	0.372445	-0.238917	-0.777750	0.368627	-0.243102	-0.819980	0.137657	-0.298837	-0.811882	0.141752	-0.377397	-0.709361	0.079757	-0.268479	-0.694785	0.090640	-0.372918	-0.632376	0.118925	-0.318008	-0.887874	0.103215	-0.344856	-0.947267	0.728994	-0.535315	-0.895646	0.720100	-0.527542	-0.958715	0.687359	-0.532502	-0.905154	0.679777	-0.527718	-0.969904	0.486144	-0.494690	-0.984248	0.486416	-0.400552	-1.066403	0.416380	-0.529999	-1.028991	0.393346	-0.511906	-1.094563	0.379860	-0.533614	-1.057811	0.355834	-0.511195	-1.238520	0.168216	-0.501514	-1.220366	0.162615	-0.418272	-1.190156	0.052521	-0.528155	-1.186707	0.051855	-0.421475	-1.127511	0.054434	-0.470551	-1.307546	0.183633	-0.467298	-0.794257	1.366413	-0.210366	-0.730267	1.352369	-0.514035	
39	0.1900	-0.867646	0.947446	-0.252769	-0.840357	0.935592	-0.475782	-1.013652	0.970959	-0.335889	-1.002727	0.978844	-0.430240	-0.879176	0.744292	-0.213628	-0.827288	0.768852	-0.206240	-0.847815	0.698202	-0.211265	-0.795229	0.722204	-0.207240	-0.731319	0.512651	-0.251183	-0.725034	0.511784	-0.345720	-0.804007	0.413950	-0.240031	-0.762942	0.405846	-0.236993	-0.806849	0.369736	-0.239322	-0.758443	0.367819	-0.243098	-0.790915	0.134110	-0.299089	-0.782865	0.138685	-0.377469	-0.677495	0.080107	-0.269189	-0.663455	0.092191	-0.373658	-0.601815	0.122970	-0.318788	-0.857555	0.096968	-0.344846	-0.932653	0.730411	-0.535290	-0.881156	0.721170	-0.527812	-0.944371	0.688836	-0.532521	-0.890866	0.680907	-0.527957	-0.957112	0.487346	-0.495228	-0.971245	0.487602	-0.400610	-1.055165	0.419362	-0.530199	-1.018047	0.395853	-0.512582	-1.083905	0.383363	-0.533816	-1.047495	0.358623	-0.511597	-1.230702	0.173735	-0.502073	-1.212371	0.167482	-0.419092	-1.188071	0.054964	-0.528133	-1.184257	0.054446	-0.421496	-1.126040	0.054172	-0.470852	-1.297982	0.192446	-0.467552	-0.780219	1.368557	-0.209447	-0.715339	1.355136	-0.511931	
40	0.1950	-0.851794	0.948024	-0.252871	-0.824773	0.936435	-0.475813	-0.997629	0.971757	-0.335806	-0.986624	0.979871	-0.430078	-0.864195	0.744667	-0.213771	-0.812146	0.768938	-0.206388	-0.833156	0.698387	-0.211426	-0.780434	0.722096	-0.207486	-0.716965	0.512857	-0.251573	-0.710682	0.512112	-0.345948	-0.787024	0.411460	-0.240509	-0.745549	0.404896	-0.237126	-0.788249	0.367002	-0.239755	-0.739618	0.366885	-0.243104	-0.762797	0.130832	-0.299307	-0.754769	0.135801	-0.377518	-0.646883	0.080528	-0.269762	-0.633333	0.093610	-0.374241	-0.572464	0.126731	-0.319400	-0.828180	0.091258	-0.344857	-0.917806	0.731640	-0.535291	-0.866434	0.722115	-0.528110	-0.929740	0.690115	-0.532564	-0.876293	0.681904	-0.528219	-0.943762	0.488349	-0.495806	-0.957632	0.488559	-0.400676	-1.043352	0.422193	-0.530370	-1.006544	0.398170	-0.513223	-1.072688	0.386747	-0.533986	-1.036637	0.361284	-0.511992	-1.222469	0.179423	-0.502552	-1.203977	0.172499	-0.419832	-1.185603	0.057784	-0.528061	-1.181394	0.057382	-0.421481	-1.124260	0.054036	-0.471170	-1.287864	0.201441	-0.467742	-0.766151	1.370459	-0.208486	-0.700599	1.357648	-0.509894	
41	0.2000	-0.835930	0.948413	-0.252962	-0.809203	0.937135	-0.475866	-0.981609	0.972333	-0.335751	-0.970533	0.980688	-0.429950	-0.849287	0.744764	-0.213933	-0.797062	0.768710	-0.206555	-0.818587	0.698272	-0.211608	-0.765719	0.721659	-0.207765	-0.702789	0.512723	-0.251984	-0.696508	0.512098	-0.346197	-0.770354	0.408906	-0.241018	-0.728533	0.403782	-0.237273	-0.770076	0.364258	-0.240213	-0.721268	0.365820	-0.243125	-0.735724	0.127808	-0.299500	-0.727691	0.133083	-0.377553	-0.617632	0.080955	-0.270205	-0.604512	0.094824	-0.374676	-0.544397	0.130107	-0.319855	-0.799876	0.086093	-0.344899	-0.902729	0.732653	-0.535317	-0.851479	0.722908	-0.528433	-0.914826	0.691167	-0.532630	-0.861434	0.682739	-0.528500	-0.929859	0.489121	-0.496418	-0.943418	0.489255	-0.400747	-1.030959	0.424840	-0.530517	-0.994480	0.400260	-0.513823	-1.060909	0.389982	-0.534127	-1.025234	0.363785	-0.512379	-1.213818	0.185265	-0.502944	-1.195186	0.177654	-0.420485	-1.182707	0.060985	-0.527941	-1.178078	0.060663	-0.421433	-1.122127	0.054051	-0.471501	-1.277206	0.210572	-0.467867	-0.752061	1.372086	-0.207481	-0.686042	1.359887	-0.507934	
42	0.2050	-0.820063	0.948607	-0.253043	-0.793651	0.937679	-0.475944	-0.965607	0.972670	-0.335720	-0.954469	0.981274	-0.429858	-0.834434	0.744580	-0.214111	-0.782020	0.768175	-0.206738	-0.804081	0.697862	-0.211810	-0.751058	0.720905	-0.208076	-0.688743	0.512261	-0.252414	-0.682464	0.511758	-0.346465	-0.753977	0.406311	-0.241551	-0.711870	0.402512	-0.237436	-0.752323	0.361523	-0.240691	-0.703381	0.364625	-0.243170	-0.709787	0.125021	-0.299674	-0.701720	0.130515	-0.377588	-0.589840	0.081325	-0.270527	-0.577079	0.095762	-0.374976	-0.517680	0.133009	-0.320164	-0.772761	0.081476	-0.344979	-0.887425	0.733428	-0.535368	-0.836295	0.723526	-0.528775	-0.899631	0.691968	-0.532720	-0.846293	0.683390	-0.528797	-0.915406	0.489635	-0.497059	-0.928613	0.489664	-0.400821	-1.017984	0.427274	-0.530641	-0.981857	0.402090	-0.514376	-1.048566	0.393040	-0.534242	-1.013285	0.366100	-0.512758	-1.204741	0.191241	-0.503247	-1.185994	0.182929	-0.421044	-1.179330	0.064559	-0.527775	-1.174265	0.064284	-0.421354	-1.119589	0.054244	-0.471842	-1.266023	0.219791	-0.467923	-0.737955	1.373410	-0.206431	-0.671662	1.361840	-0.506061	
43	0.2100	-0.804200	0.948604	-0.253111	-0.778122	0.938056	-0.476043	-0.949635	0.972757	-0.335714	-0.938446	0.981613	-0.429800	-0.819615	0.744120	-0.214303	-0.767004	0.767348	-0.206937	-0.789611	0.697166	-0.212030	-0.736430	0.719853	-0.208416	-0.674780	0.511491	-0.252860	-0.668504	0.511108	-0.346751	-0.737874	0.403696	-0.242101	-0.695541	0.401093	-0.237621	-0.734987	0.358813	-0.241185	-0.685948	0.363302	-0.243243	-0.685071	0.122451	-0.299836	-0.676941	0.128078	-0.377635	-0.563591	0.081579	-0.270739	-0.551110	0.096363	-0.375155	-0.492372	0.135353	-0.320342	-0.746946	0.077402	-0.345103	-0.871899	0.733945	-0.535442	-0.820883	0.723951	-0.529129	-0.884159	0.692498	-0.532832	-0.830872	0.683837	-0.529103	-0.900411	0.489871	-0.497724	-0.913230	0.489765	-0.400895	-1.004425	0.429471	-0.530748	-0.968676	0.403634	-0.514877	-1.035655	0.395896	-0.534335	-1.000787	0.368208	-0.513129	-1.195230	0.197330	-0.503458	-1.176393	0.188306	-0.421506	-1.175418	0.068494	-0.527568	-1.169908	0.068230	-0.421249	-1.116586	0.054637	-0.472188	-1.254328	0.229049	-0.467911	-0.723838	1.374404	-0.205337	-0.657449	1.363498	-0.504284	
44	0.2150	-0.788347	0.948404	-0.253167	-0.762616	0.938260	-0.476159	-0.933702	0.972582	-0.335728	-0.922475	0.981690	-0.429776	-0.804812	0.743393	-0.214505	-0.752000	0.766246	-0.207148	-0.775152	0.696198	-0.212264	-0.721812	0.718525	-0.208782	-0.660858	0.510433	-0.253321	-0.654585	0.510172	-0.347050	-0.722029	0.401086	-0.242661	-0.679523	0.399537	-0.237832	-0.718059	0.356145	-0.241688	-0.668957	0.361856	-0.243351	-0.661651	0.120080	-0.299994	-0.653431	0.125755	-0.377705	-0.538959	0.081663	-0.270853	-0.526674	0.096574	-0.375231	-0.468522	0.137069	-0.320406	-0.722531	0.073862	-0.345278	-0.856156	0.734189	-0.535537	-0.805247	0.724169	-0.529490	-0.868415	0.692742	-0.532965	-0.815174	0.684065	-0.529415	-0.884879	0.489815	-0.498404	-0.897279	0.489546	-0.400967	-0.990280	0.431411	-0.530841	-0.954937	0.404873	-0.515322	-1.022173	0.398531	-0.534408	-0.987737	0.370090	-0.513493	-1.185267	0.203507	-0.503575	-1.166368	0.193765	-0.421869	-1.170912	0.072767	-0.527324	-1.164956	0.072481	-0.421122	-1.113055	0.055248	-0.472535	-1.242130	0.238295	-0.467829	-0.709714	1.375045	-0.204195	-0.643391	1.364857	-0.502608	
45	0.2200	-0.772509	0.948013	-0.253208	-0.747132	0.938287	-0.476288	-0.917817	0.972144	-0.335758	-0.906568	0.981497	-0.429782	-0.790008	0.742412	-0.214713	-0.736993	0.764890	-0.207370	-0.760681	0.694977	-0.212509	-0.707184	0.716947	-0.209170	-0.646942	0.509113	-0.253796	-0.640671	0.508973	-0.347363	-0.706426	0.398504	-0.243222	-0.663797	0.397855	-0.238070	-0.701535	0.353538	-0.242194	-0.652396	0.360291	-0.243498	-0.639591	0.117889	-0.300154	-0.631256	0.123531	-0.377807	-0.516002	0.081531	-0.270883	-0.503824	0.096355	-0.375221	-0.446170	0.138103	-0.320374	-0.699601	0.070839	-0.345505	-0.840200	0.734151	-0.535650	-0.789389	0.724173	-0.529850	-0.852403	0.692691	-0.533115	-0.799204	0.684068	-0.529727	-0.868816	0.489459	-0.499094	-0.880774	0.489001	-0.401034	-0.975546	0.433080	-0.530924	-0.940641	0.405794	-0.515708	-1.008116	0.400928	-0.534466	-0.974131	0.371733	-0.513848	-1.174834	0.209746	-0.503601	-1.155898	0.199282	-0.422130	-1.165747	0.077349	-0.527048	-1.159354	0.077009	-0.420977	-1.108924	0.056093	-0.472877	-1.229437	0.247475	-0.467678	-0.695585	1.375314	-0.203007	-0.629473	1.365916	-0.501040	
46	0.2250	-0.756688	0.947439	-0.253233	-0.731663	0.938139	-0.476420	-0.901986	0.971443	-0.335799	-0.890732	0.981028	-0.429814	-0.775186	0.741196	-0.214923	-0.721971	0.763305	-0.207599	-0.746176	0.693524	-0.212761	-0.692527	0.715147	-0.209574	-0.632999	0.507555	-0.254281	-0.626732	0.507539	-0.347685	-0.691052	0.395972	-0.243776	-0.648345	0.396062	-0.238340	-0.685406	0.351007	-0.242697	-0.636253	0.358617	-0.243688	-0.618941	0.115858	-0.300322	-0.610472	0.121392	-0.377950	-0.494760	0.081146	-0.270843	-0.482602	0.095676	-0.375144	-0.425344	0.138415	-0.320266	-0.678228	0.068314	-0.345789	-0.824035	0.733829	-0.535779	-0.773312	0.723959	-0.530203	-0.836126	0.692342	-0.533281	-0.782963	0.683842	-0.530036	-0.852229	0.488806	-0.499785	-0.863725	0.488132	-0.401093	-0.960220	0.434471	-0.531001	-0.925784	0.406389	-0.516033	-0.993477	0.403077	-0.534513	-0.959963	0.373130	-0.514195	-1.163903	0.216015	-0.503536	-1.144957	0.204829	-0.422292	-1.159856	0.082204	-0.526745	-1.153041	0.081778	-0.420818	-1.104116	0.057181	-0.473211	-1.216250	0.256537	-0.467461	-0.681450	1.375197	-0.201772	-0.615676	1.366679	-0.499583	
47	0.2300	-0.740886	0.946693	-0.253241	-0.716202	0.937819	-0.476545	-0.886212	0.970486	-0.335846	-0.874973	0.980285	-0.429867	-0.760332	0.739766	-0.215129	-0.706921	0.761518	-0.207831	-0.731619	0.691865	-0.213016	-0.677826	0.713156	-0.209991	-0.619004	0.505789	-0.254776	-0.612741	0.505895	-0.348014	-0.675894	0.393511	-0.244315	-0.633153	0.394173	-0.238642	-0.669666	0.348570	-0.243189	-0.620518	0.356843	-0.243924	-0.599739	0.113972	-0.300502	-0.591122	0.119326	-0.378141	-0.475260	0.080482	-0.270750	-0.463035	0.094522	-0.375019	-0.406062	0.137984	-0.320100	-0.658467	0.066259	-0.346127	-0.807663	0.733226	-0.535919	-0.757018	0.723531	-0.530543	-0.819587	0.691698	-0.533457	-0.766454	0.683391	-0.530335	-0.835120	0.487863	-0.500471	-0.846142	0.486950	-0.401143	-0.944298	0.435579	-0.531076	-0.910362	0.406662	-0.516296	-0.978248	0.404969	-0.534552	-0.945224	0.374278	-0.514531	-1.152442	0.222281	-0.503384	-1.133511	0.210378	-0.422356	-1.153168	0.087290	-0.526422	-1.145957	0.086747	-0.420648	-1.098546	0.058518	-0.473532	-1.202567	0.265427	-0.467179	-0.667305	1.374686	-0.200490	-0.601981	1.367152	-0.498241	
48	0.2350	-0.725099	0.945790	-0.253231	-0.700734	0.937335	-0.476652	-0.870495	0.969284	-0.335892	-0.859293	0.979271	-0.429936	-0.745430	0.738146	-0.215326	-0.691833	0.759558	-0.208064	-0.716995	0.690028	-0.213271	-0.663067	0.711005	-0.210415	-0.604941	0.503842	-0.255277	-0.598683	0.504072	-0.348349	-0.660946	0.391143	-0.244829	-0.618207	0.392203	-0.238978	-0.654309	0.346240	-0.243664	-0.605180	0.354981	-0.244207	-0.582009	0.112217	-0.300698	-0.573234	0.117326	-0.378385	-0.457508	0.079523	-0.270617	-0.445135	0.092892	-0.374866	-0.388329	0.136807	-0.319897	-0.640352	0.064645	-0.346520	-0.791086	0.732349	-0.536066	-0.740507	0.722897	-0.530863	-0.802787	0.690769	-0.533641	-0.749679	0.682724	-0.530621	-0.817493	0.486644	-0.501142	-0.828032	0.485472	-0.401182	-0.927776	0.436407	-0.531151	-0.894369	0.406620	-0.516497	-0.962419	0.406603	-0.534585	-0.929902	0.375178	-0.514854	-1.140416	0.228507	-0.503148	-1.121521	0.215898	-0.422324	-1.145609	0.092556	-0.526084	-1.138034	0.091870	-0.420471	-1.092126	0.060100	-0.473834	-1.188380	0.274089	-0.466835	-0.653144	1.373776	-0.199163	-0.588365	1.367349	-0.497014	
49	0.2400	-0.709325	0.944746	-0.253199	-0.685244	0.936699	-0.476726	-0.854831	0.967854	-0.335932	-0.843689	0.977998	-0.430015	-0.730471	0.736365	-0.215510	-0.676697	0.757457	-0.208292	-0.702291	0.688043	-0.213521	-0.648240	0.708726	-0.210840	-0.590799	0.501742	-0.255784	-0.584545	0.502097	-0.348687	-0.646201	0.388883	-0.245311	-0.603497	0.390170	-0.239348	-0.639329	0.344030	-0.244114	-0.590230	0.353042	-0.244538	-0.565759	0.110579	-0.300912	-0.556823	0.115384	-0.378685	-0.441494	0.078263	-0.270458	-0.428900	0.090798	-0.374701	-0.372138	0.134900	-0.319674	-0.623902	0.063440	-0.346965	-0.774304	0.731214	-0.536216	-0.723779	0.722073	-0.531159	-0.785727	0.689571	-0.533827	-0.732637	0.681858	-0.530889	-0.799347	0.485174	-0.501793	-0.809400	0.483724	-0.401206	-0.910645	0.436962	-0.531228	-0.877795	0.406278	-0.516637	-0.945979	0.407980	-0.534614	-0.913984	0.375836	-0.515163	-1.127782	0.234655	-0.502834	-1.108943	0.221352	-0.422202	-1.137101	0.097948	-0.525736	-1.129203	0.097092	-0.420290	-1.084763	0.061920	-0.474114	-1.173677	0.282471	-0.466433	-0.638956	1.372472	-0.197792	-0.574804	1.367281	-0.495904	
50	0.2450	-0.693555	0.943582	-0.253145	-0.669710	0.935925	-0.476753	-0.839213	0.966219	-0.335958	-0.828157	0.976482	-0.430095	-0.715445	0.734451	-0.215675	-0.661505	0.755244	-0.208512	-0.687499	0.685940	-0.213761	-0.633337	0.706351	-0.211261	-0.576575	0.499517	-0.256293	-0.570326	0.499998	-0.349026	-0.631655	0.386748	-0.245753	-0.589018	0.388090	-0.239750	-0.624719	0.341953	-0.244533	-0.575660	0.351041	-0.244916	-0.550982	0.109050	-0.301144	-0.541890	0.113500	-0.379044	-0.427190	0.076709	-0.270289	-0.414310	0.088267	-0.374541	-0.357470	0.132297	-0.319448	-0.609114	0.062609	-0.347455	-0.757317	0.729840	-0.536363	-0.706832	0.721077	-0.531424	-0.768404	0.688124	-0.534011	-0.715327	0.680813	-0.531135	-0.780683	0.483480	-0.502415	-0.790251	0.481737	-0.401213	-0.892898	0.437257	-0.531309	-0.860630	0.405658	-0.516716	-0.928914	0.409104	-0.534641	-0.897454	0.376262	-0.515454	-1.114495	0.240683	-0.502446	-1.095728	0.226706	-0.421993	-1.127568	0.103408	-0.525385	-1.119394	0.102358	-0.420106	-1.076364	0.063963	-0.474368	-1.158440	0.290518	-0.465977	-0.624729	1.370783	-0.196380	-0.561273	1.366969	-0.494909	
51	0.2500	-0.677781	0.942317	-0.253067	-0.654111	0.935032	-0.476716	-0.823630	0.964403	-0.335963	-0.812689	0.974741	-0.430171	-0.700344	0.732436	-0.215816	-0.646252	0.752951	-0.208719	-0.672615	0.683751	-0.213987	-0.618352	0.703910	-0.211671	-0.562274	0.497193	-0.256804	-0.556030	0.497801	-0.349364	-0.617310	0.384749	-0.246148	-0.574765	0.385979	-0.240183	-0.610475	0.340016	-0.244916	-0.561463	0.348990	-0.245340	-0.537655	0.107622	-0.301396	-0.528419	0.111674	-0.379459	-0.414551	0.074877	-0.270120	-0.401332	0.085336	-0.374401	-0.344294	0.129048	-0.319234	-0.595968	0.062115	-0.347986	-0.740121	0.728254	-0.536504	-0.689664	0.719934	-0.531655	-0.750817	0.686455	-0.534188	-0.697748	0.679615	-0.531356	-0.761497	0.481597	-0.503003	-0.770586	0.479549	-0.401202	-0.874529	0.437308	-0.531392	-0.842858	0.404785	-0.516737	-0.911211	0.409986	-0.534666	-0.880295	0.376472	-0.515722	-1.100508	0.246547	-0.501989	-1.081825	0.231921	-0.421702	-1.116933	0.108872	-0.525035	-1.108535	0.107609	-0.419922	-1.066832	0.066209	-0.474592	-1.142647	0.298178	-0.465470	-0.610446	1.368726	-0.194931	-0.547747	1.366433	-0.494028	
52	0.2550	-0.661992	0.940974	-0.252962	-0.638420	0.934040	-0.476600	-0.808068	0.962435	-0.335942	-0.797270	0.972801	-0.430234	-0.685164	0.730351	-0.215927	-0.630933	0.750607	-0.208909	-0.657636	0.681508	-0.214195	-0.603285	0.701432	-0.212064	-0.547907	0.494795	-0.257313	-0.541668	0.495532	-0.349698	-0.603170	0.382896	-0.246491	-0.560740	0.383854	-0.240644	-0.596594	0.338227	-0.245258	-0.547634	0.346905	-0.245806	-0.525743	0.106292	-0.301666	-0.516381	0.109910	-0.379929	-0.403517	0.072794	-0.269962	-0.389916	0.082055	-0.374291	-0.332567	0.125219	-0.319045	-0.584421	0.061922	-0.348550	-0.722714	0.726484	-0.536633	-0.672271	0.718673	-0.531847	-0.732963	0.684596	-0.534353	-0.679897	0.678294	-0.531549	-0.741787	0.479566	-0.503548	-0.750407	0.477205	-0.401169	-0.855527	0.437135	-0.531476	-0.824468	0.403692	-0.516702	-0.892856	0.410636	-0.534687	-0.862488	0.376483	-0.515964	-1.085770	0.252202	-0.501470	-1.067180	0.236957	-0.421335	-1.105120	0.114278	-0.524690	-1.096557	0.112783	-0.419738	-1.056074	0.068630	-0.474784	-1.126272	0.305398	-0.464917	-0.596091	1.366323	-0.193451	-0.534201	1.365698	-0.493257	
53	0.2600	-0.646173	0.939575	-0.252830	-0.622613	0.932973	-0.476387	-0.792511	0.960348	-0.335887	-0.781888	0.970689	-0.430276	-0.669902	0.728228	-0.216006	-0.615545	0.748240	-0.209078	-0.642566	0.679241	-0.214380	-0.588139	0.698943	-0.212436	-0.533495	0.492346	-0.257820	-0.527261	0.493212	-0.350027	-0.589240	0.381194	-0.246778	-0.546947	0.381729	-0.241130	-0.583072	0.336590	-0.245553	-0.534171	0.344800	-0.246311	-0.515193	0.105058	-0.301951	-0.505731	0.108216	-0.380450	-0.394012	0.070492	-0.269826	-0.380000	0.078482	-0.374223	-0.322235	0.120887	-0.318892	-0.574417	0.061994	-0.349139	-0.705091	0.724564	-0.536746	-0.654651	0.717325	-0.531998	-0.714839	0.682582	-0.534501	-0.661773	0.676885	-0.531712	-0.721552	0.477430	-0.504047	-0.729713	0.474751	-0.401113	-0.835888	0.436764	-0.531559	-0.805445	0.402414	-0.516613	-0.873836	0.411071	-0.534703	-0.844017	0.376315	-0.516175	-1.070234	0.257603	-0.500893	-1.051740	0.241774	-0.420897	-1.092060	0.119561	-0.524353	-1.083391	0.117818	-0.419554	-1.044001	0.071193	-0.474939	-1.109288	0.312129	-0.464320	-0.581642	1.363604	-0.191947	-0.520609	1.364788	-0.492592	
54	0.2650	-0.630312	0.938143	-0.252667	-0.606664	0.931855	-0.476062	-0.776943	0.958175	-0.335793	-0.766526	0.968438	-0.430289	-0.654560	0.726097	-0.216048	-0.600091	0.745877	-0.209223	-0.627412	0.676977	-0.214540	-0.572917	0.696467	-0.212781	-0.519063	0.489866	-0.258321	-0.512835	0.490862	-0.350348	-0.575531	0.379647	-0.247005	-0.533392	0.379618	-0.241636	-0.569909	0.335107	-0.245801	-0.521073	0.342688	-0.246849	-0.505943	0.103921	-0.302248	-0.496413	0.106600	-0.381016	-0.385948	0.068014	-0.269718	-0.371507	0.074682	-0.374202	-0.313232	0.116142	-0.318783	-0.565882	0.062295	-0.349743	-0.687251	0.722532	-0.536838	-0.636800	0.715926	-0.532103	-0.696441	0.680452	-0.534628	-0.643372	0.675425	-0.531841	-0.700789	0.475236	-0.504494	-0.708508	0.472238	-0.401031	-0.815607	0.436220	-0.531637	-0.785777	0.400990	-0.516473	-0.854141	0.411307	-0.534711	-0.824864	0.375991	-0.516349	-1.053854	0.262703	-0.500264	-1.035457	0.246333	-0.420393	-1.077687	0.124657	-0.524027	-1.068976	0.122654	-0.419370	-1.030528	0.073864	-0.475057	-1.091667	0.318323	-0.463685	-0.567080	1.360606	-0.190425	-0.506949	1.363734	-0.492029	
55	0.2700	-0.614395	0.936700	-0.252473	-0.590547	0.930713	-0.475611	-0.761345	0.955952	-0.335653	-0.751165	0.966080	-0.430267	-0.639142	0.723986	-0.216049	-0.584572	0.743539	-0.209339	-0.612184	0.674745	-0.214670	-0.557631	0.694024	-0.213095	-0.504643	0.487371	-0.258815	-0.498419	0.488500	-0.350661	-0.562057	0.378255	-0.247171	-0.520087	0.377533	-0.242159	-0.557106	0.333777	-0.245999	-0.508341	0.340582	-0.247416	-0.497918	0.102883	-0.302553	-0.488356	0.105073	-0.381619	-0.379227	0.065405	-0.269644	-0.364352	0.070725	-0.374232	-0.305486	0.111079	-0.318721	-0.558726	0.062792	-0.350355	-0.669189	0.720426	-0.536905	-0.618716	0.714513	-0.532163	-0.677769	0.678247	-0.534730	-0.624695	0.673952	-0.531935	-0.679501	0.473034	-0.504885	-0.686795	0.469718	-0.400920	-0.794682	0.435532	-0.531705	-0.765455	0.399459	-0.516285	-0.833765	0.411364	-0.534707	-0.805017	0.375536	-0.516482	-1.036589	0.267458	-0.499588	-1.018285	0.250595	-0.419829	-1.061946	0.129506	-0.523714	-1.053254	0.127232	-0.419185	-1.015584	0.076601	-0.475136	-1.073383	0.323936	-0.463013	-0.552384	1.357370	-0.188896	-0.493200	1.362564	-0.491560	
56	0.2750	-0.598407	0.935266	-0.252247	-0.574241	0.929572	-0.475021	-0.745699	0.953715	-0.335462	-0.735788	0.963651	-0.430200	-0.623654	0.721923	-0.216008	-0.568995	0.741248	-0.209424	-0.596898	0.672568	-0.214768	-0.542292	0.691632	-0.213373	-0.490271	0.484879	-0.259301	-0.484053	0.486141	-0.350962	-0.548832	0.377013	-0.247276	-0.507046	0.375487	-0.242692	-0.544665	0.332597	-0.246147	-0.495978	0.338496	-0.248005	-0.491034	0.101948	-0.302863	-0.481481	0.103648	-0.382252	-0.373739	0.062713	-0.269607	-0.358438	0.066685	-0.374316	-0.298915	0.105798	-0.318711	-0.552848	0.063455	-0.350963	-0.650906	0.718287	-0.536943	-0.600400	0.713122	-0.532175	-0.658824	0.676009	-0.534802	-0.605744	0.672506	-0.531993	-0.657692	0.470873	-0.505216	-0.664582	0.467247	-0.400780	-0.773119	0.434731	-0.531758	-0.744473	0.397864	-0.516052	-0.812705	0.411263	-0.534687	-0.784468	0.374975	-0.516568	-1.018403	0.271825	-0.498870	-1.000185	0.254522	-0.419208	-1.044792	0.134048	-0.523413	-1.036181	0.131496	-0.418998	-0.999106	0.079363	-0.475174	-1.054413	0.328928	-0.462309	-0.537534	1.353942	-0.187369	-0.479346	1.361311	-0.491180	
57	0.2800	-0.582340	0.933862	-0.251987	-0.557730	0.928458	-0.474282	-0.729988	0.951498	-0.335216	-0.720378	0.961187	-0.430084	-0.608109	0.719932	-0.215922	-0.553369	0.739020	-0.209476	-0.581571	0.670468	-0.214833	-0.526918	0.689304	-0.213612	-0.475990	0.482400	-0.259775	-0.469777	0.483798	-0.351251	-0.535876	0.375916	-0.247323	-0.494285	0.373488	-0.243232	-0.532590	0.331563	-0.246246	-0.483990	0.336440	-0.248609	-0.485200	0.101121	-0.303171	-0.475699	0.102337	-0.382906	-0.369373	0.059991	-0.269608	-0.353661	0.062633	-0.374450	-0.293431	0.100400	-0.318751	-0.548137	0.064255	-0.351561	-0.632404	0.716154	-0.536950	-0.581856	0.711791	-0.532139	-0.639609	0.673780	-0.534841	-0.586525	0.671126	-0.532014	-0.635374	0.468802	-0.505485	-0.641880	0.464875	-0.400608	-0.750928	0.433847	-0.531790	-0.722832	0.396246	-0.515776	-0.790968	0.411025	-0.534645	-0.763216	0.374335	-0.516602	-0.999271	0.275762	-0.498114	-0.981131	0.258080	-0.418536	-1.026193	0.138231	-0.523125	-1.017722	0.135397	-0.418805	-0.981050	0.082105	-0.475171	-1.034738	0.333262	-0.461576	-0.522516	1.350373	-0.185855	-0.465373	1.360006	-0.490882	
58	0.2850	-0.566183	0.932504	-0.251692	-0.541003	0.927395	-0.473387	-0.714200	0.949334	-0.334910	-0.704921	0.958724	-0.429910	-0.592522	0.718034	-0.215792	-0.537708	0.736869	-0.209491	-0.566227	0.668462	-0.214862	-0.511529	0.687050	-0.213810	-0.461843	0.479946	-0.260237	-0.455636	0.481479	-0.351526	-0.523209	0.374956	-0.247314	-0.481825	0.371545	-0.243771	-0.520886	0.330666	-0.246300	-0.472382	0.334426	-0.249224	-0.480317	0.100408	-0.303472	-0.470915	0.101153	-0.383572	-0.366010	0.057287	-0.269649	-0.349912	0.058639	-0.374632	-0.288939	0.094984	-0.318839	-0.544475	0.065168	-0.352137	-0.613690	0.714069	-0.536922	-0.563091	0.710557	-0.532055	-0.620134	0.671603	-0.534844	-0.567047	0.669851	-0.531997	-0.612565	0.466868	-0.505691	-0.618709	0.462654	-0.400402	-0.728128	0.432911	-0.531793	-0.700544	0.394644	-0.515460	-0.768567	0.410672	-0.534577	-0.741267	0.373641	-0.516580	-0.979181	0.279235	-0.497322	-0.961105	0.261238	-0.417816	-1.006135	0.142007	-0.522848	-0.997858	0.138890	-0.418605	-0.961389	0.084786	-0.475127	-1.014348	0.336906	-0.460814	-0.507315	1.346717	-0.184366	-0.451275	1.358682	-0.490656	
59	0.2900	-0.549935	0.931208	-0.251363	-0.524056	0.926407	-0.472334	-0.698326	0.947254	-0.334543	-0.689408	0.956296	-0.429676	-0.576911	0.716246	-0.215617	-0.522030	0.734805	-0.209470	-0.550892	0.666564	-0.214856	-0.496149	0.684877	-0.213965	-0.447879	0.477523	-0.260683	-0.441677	0.479195	-0.351785	-0.510855	0.374123	-0.247253	-0.469685	0.369664	-0.244306	-0.509561	0.329900	-0.246312	-0.461165	0.332463	-0.249840	-0.476286	0.099814	-0.303763	-0.467028	0.100108	-0.384240	-0.363530	0.054650	-0.269727	-0.347079	0.054769	-0.374856	-0.285345	0.089645	-0.318971	-0.541739	0.066174	-0.352686	-0.594775	0.712069	-0.536858	-0.544119	0.709453	-0.531924	-0.600413	0.669518	-0.534810	-0.547327	0.668716	-0.531942	-0.589289	0.465116	-0.505833	-0.595095	0.460631	-0.400162	-0.704748	0.431952	-0.531762	-0.677626	0.393097	-0.515107	-0.745528	0.410226	-0.534477	-0.718641	0.372918	-0.516499	-0.958132	0.282210	-0.496500	-0.940107	0.263968	-0.417052	-0.984623	0.145337	-0.522581	-0.976589	0.141936	-0.418396	-0.940118	0.087363	-0.475041	-0.993244	0.339838	-0.460028	-0.491926	1.343028	-0.182913	-0.437050	1.357369	-0.490497	
60	0.2950	-0.533595	0.929986	-0.250998	-0.506894	0.925514	-0.471121	-0.682362	0.945287	-0.334111	-0.673831	0.953936	-0.429375	-0.561301	0.714582	-0.215399	-0.506355	0.732836	-0.209411	-0.535596	0.664787	-0.214815	-0.480806	0.682790	-0.214075	-0.434145	0.475140	-0.261114	-0.427950	0.476950	-0.352028	-0.498836	0.373405	-0.247148	-0.457889	0.367852	-0.244830	-0.498623	0.329253	-0.246287	-0.450348	0.330559	-0.250453	-0.473005	0.099343	-0.304038	-0.463935	0.099213	-0.384900	-0.361816	0.052123	-0.269839	-0.345048	0.051082	-0.375114	-0.282549	0.084468	-0.319140	-0.539804	0.067255	-0.353199	-0.575679	0.710191	-0.536756	-0.524960	0.708510	-0.531747	-0.580468	0.667562	-0.534737	-0.527387	0.667754	-0.531850	-0.565583	0.463585	-0.505910	-0.571074	0.458849	-0.399887	-0.680826	0.430999	-0.531690	-0.654110	0.391639	-0.514719	-0.721885	0.409710	-0.534340	-0.695365	0.372190	-0.516355	-0.936141	0.284661	-0.495650	-0.918151	0.266249	-0.416246	-0.961680	0.148188	-0.522320	-0.953932	0.144507	-0.418173	-0.917256	0.089797	-0.474915	-0.971437	0.342039	-0.459218	-0.476348	1.339364	-0.181510	-0.422705	1.356098	-0.490394	
61	0.3000	-0.517174	0.928848	-0.250600	-0.489534	0.924732	-0.469754	-0.666311	0.943457	-0.333614	-0.658194	0.951674	-0.429005	-0.545718	0.713055	-0.215139	-0.490710	0.730965	-0.209314	-0.520374	0.663137	-0.214740	-0.465533	0.680790	-0.214141	-0.420691	0.472800	-0.261526	-0.414504	0.474749	-0.352254	-0.487178	0.372791	-0.247003	-0.446461	0.366111	-0.245338	-0.488083	0.328715	-0.246230	-0.439940	0.328721	-0.251056	-0.470371	0.099002	-0.304292	-0.461533	0.098476	-0.385544	-0.360752	0.049746	-0.269982	-0.343708	0.047630	-0.375398	-0.280454	0.079532	-0.319341	-0.538547	0.068397	-0.353672	-0.556426	0.708466	-0.536616	-0.505639	0.707756	-0.531525	-0.560329	0.665770	-0.534625	-0.507258	0.666993	-0.531721	-0.541494	0.462311	-0.505925	-0.546694	0.457345	-0.399577	-0.656414	0.430078	-0.531571	-0.630041	0.390302	-0.514299	-0.697690	0.409143	-0.534162	-0.671484	0.371478	-0.516148	-0.913242	0.286569	-0.494774	-0.895271	0.268065	-0.415404	-0.937356	0.150536	-0.522063	-0.929928	0.146579	-0.417935	-0.892846	0.092054	-0.474749	-0.948954	0.343499	-0.458387	-0.460588	1.335779	-0.180167	-0.408250	1.354898	-0.490340	
62	0.3050	-0.500685	0.927802	-0.250168	-0.472001	0.924077	-0.468241	-0.650186	0.941785	-0.333052	-0.642503	0.949539	-0.428566	-0.530197	0.711669	-0.214840	-0.475127	0.729195	-0.209180	-0.505262	0.661621	-0.214633	-0.450366	0.678876	-0.214164	-0.407566	0.470508	-0.261919	-0.401387	0.472597	-0.352461	-0.475905	0.372268	-0.246828	-0.435423	0.364447	-0.245827	-0.477950	0.328275	-0.246149	-0.429953	0.326957	-0.251643	-0.468285	0.098791	-0.304522	-0.459719	0.097905	-0.386164	-0.360226	0.047551	-0.270151	-0.342948	0.044454	-0.375699	-0.278964	0.074903	-0.319565	-0.537846	0.069589	-0.354098	-0.537050	0.706924	-0.536438	-0.486194	0.707213	-0.531262	-0.540034	0.664170	-0.534474	-0.486980	0.666457	-0.531557	-0.517080	0.461322	-0.505880	-0.522013	0.456149	-0.399233	-0.631578	0.429213	-0.531400	-0.605476	0.389113	-0.513850	-0.673004	0.408545	-0.533938	-0.647056	0.370803	-0.515876	-0.889488	0.287922	-0.493875	-0.871520	0.269406	-0.414526	-0.911723	0.152367	-0.521806	-0.904642	0.148140	-0.417679	-0.866964	0.094103	-0.474545	-0.925835	0.344216	-0.457536	-0.444661	1.332327	-0.178895	-0.393709	1.353793	-0.490328	
63	0.3100	-0.484155	0.926853	-0.249704	-0.454334	0.923558	-0.466593	-0.634005	0.940284	-0.332427	-0.626776	0.947552	-0.428056	-0.514775	0.710430	-0.214507	-0.459641	0.727526	-0.209012	-0.490302	0.660239	-0.214497	-0.435344	0.677047	-0.214145	-0.394815	0.468266	-0.262291	-0.388646	0.470496	-0.352649	-0.465042	0.371823	-0.246629	-0.424800	0.362861	-0.246292	-0.468235	0.327922	-0.246051	-0.420398	0.325271	-0.252209	-0.466654	0.098712	-0.304724	-0.458395	0.097504	-0.386751	-0.360135	0.045566	-0.270339	-0.342664	0.041588	-0.376007	-0.277985	0.070635	-0.319803	-0.537586	0.070823	-0.354475	-0.517593	0.705586	-0.536223	-0.466667	0.706898	-0.530960	-0.519630	0.662788	-0.534285	-0.466602	0.666164	-0.531359	-0.492414	0.460639	-0.505777	-0.497100	0.455286	-0.398856	-0.606396	0.428424	-0.531174	-0.580490	0.388093	-0.513374	-0.647907	0.407934	-0.533667	-0.622155	0.370182	-0.515541	-0.864952	0.288715	-0.492955	-0.846973	0.270270	-0.413617	-0.884880	0.153675	-0.521547	-0.878164	0.149188	-0.417403	-0.839709	0.095919	-0.474305	-0.902140	0.344200	-0.456669	-0.428595	1.329057	-0.177705	-0.379111	1.352808	-0.490348	
64	0.3150	-0.467615	0.926002	-0.249211	-0.436582	0.923182	-0.464827	-0.617800	0.938968	-0.331742	-0.611039	0.945732	-0.427477	-0.499494	0.709338	-0.214142	-0.444294	0.725954	-0.208810	-0.475536	0.658992	-0.214334	-0.420510	0.675299	-0.214087	-0.382485	0.466079	-0.262640	-0.376327	0.468449	-0.352818	-0.454613	0.371445	-0.246414	-0.414613	0.361355	-0.246729	-0.458949	0.327646	-0.245941	-0.411286	0.323668	-0.252748	-0.465388	0.098766	-0.304896	-0.457468	0.097273	-0.387300	-0.360382	0.043809	-0.270543	-0.342757	0.039053	-0.376312	-0.277429	0.066768	-0.320049	-0.537661	0.072094	-0.354800	-0.498109	0.704471	-0.535973	-0.447114	0.706822	-0.530622	-0.499177	0.661641	-0.534061	-0.446181	0.666125	-0.531130	-0.467580	0.460279	-0.505621	-0.472039	0.454770	-0.398449	-0.580960	0.427728	-0.530889	-0.555171	0.387260	-0.512874	-0.622491	0.407327	-0.533346	-0.596870	0.369628	-0.515144	-0.839729	0.288952	-0.492019	-0.821725	0.270661	-0.412681	-0.856951	0.154464	-0.521281	-0.850609	0.149726	-0.417104	-0.811213	0.097484	-0.474029	-0.877945	0.343466	-0.455785	-0.412425	1.326013	-0.176605	-0.364492	1.351961	-0.490394	
65	0.3200	-0.451108	0.925251	-0.248691	-0.418806	0.922950	-0.462962	-0.601608	0.937841	-0.331000	-0.595326	0.944094	-0.426833	-0.484399	0.708391	-0.213752	-0.429130	0.724478	-0.208577	-0.461013	0.657877	-0.214149	-0.405910	0.673630	-0.213992	-0.370615	0.463949	-0.262966	-0.364471	0.466458	-0.352967	-0.444639	0.371123	-0.246192	-0.404884	0.359931	-0.247136	-0.450103	0.327435	-0.245828	-0.402626	0.322153	-0.253256	-0.464407	0.098948	-0.305035	-0.456849	0.097212	-0.387806	-0.360879	0.042293	-0.270755	-0.343138	0.036862	-0.376605	-0.277212	0.063330	-0.320293	-0.537970	0.073397	-0.355072	-0.478657	0.703591	-0.535691	-0.427595	0.706990	-0.530253	-0.478740	0.660742	-0.533803	-0.425787	0.666345	-0.530872	-0.442675	0.460246	-0.505415	-0.446926	0.454608	-0.398014	-0.555376	0.427139	-0.530544	-0.529625	0.386624	-0.512353	-0.596864	0.406737	-0.532974	-0.571307	0.369154	-0.514689	-0.813933	0.288647	-0.491068	-0.795892	0.270590	-0.411720	-0.828087	0.154749	-0.521006	-0.822119	0.149772	-0.416782	-0.781637	0.098786	-0.473721	-0.853344	0.342043	-0.454890	-0.396196	1.323235	-0.175604	-0.349898	1.351268	-0.490459	
66	0.3250	-0.434686	0.924596	-0.248147	-0.401078	0.922862	-0.461020	-0.585479	0.936905	-0.330207	-0.579683	0.942648	-0.426129	-0.469543	0.707584	-0.213342	-0.414201	0.723093	-0.208318	-0.446779	0.656888	-0.213945	-0.391593	0.672034	-0.213863	-0.359244	0.461880	-0.263267	-0.353115	0.464528	-0.353097	-0.435141	0.370847	-0.245970	-0.395631	0.358590	-0.247510	-0.441706	0.327281	-0.245716	-0.394428	0.320729	-0.253730	-0.463636	0.099256	-0.305142	-0.456461	0.097315	-0.388262	-0.361550	0.041022	-0.270971	-0.343725	0.035018	-0.376879	-0.277260	0.060336	-0.320529	-0.538428	0.074729	-0.355290	-0.459309	0.702953	-0.535380	-0.408184	0.707402	-0.529856	-0.458398	0.660098	-0.533516	-0.405496	0.666823	-0.530588	-0.417809	0.460540	-0.505165	-0.421867	0.454798	-0.397556	-0.529765	0.426667	-0.530141	-0.503969	0.386192	-0.511816	-0.571148	0.406176	-0.532553	-0.545587	0.368767	-0.514181	-0.787699	0.287820	-0.490107	-0.769611	0.270078	-0.410738	-0.798464	0.154550	-0.520719	-0.792860	0.149347	-0.416436	-0.751167	0.099820	-0.473384	-0.828449	0.339968	-0.453984	-0.379967	1.320755	-0.174705	-0.335384	1.350740	-0.490536	
67	0.3300	-0.418408	0.924034	-0.247583	-0.383479	0.922911	-0.459025	-0.569472	0.936158	-0.329371	-0.564164	0.941398	-0.425371	-0.454978	0.706910	-0.212916	-0.399559	0.721795	-0.208035	-0.432887	0.656020	-0.213727	-0.377610	0.670510	-0.213706	-0.348405	0.459876	-0.263542	-0.342294	0.462661	-0.353207	-0.426136	0.370609	-0.245755	-0.386870	0.357333	-0.247850	-0.433766	0.327175	-0.245612	-0.386697	0.319399	-0.254167	-0.463012	0.099681	-0.305214	-0.456232	0.097575	-0.388668	-0.362326	0.039994	-0.271185	-0.344445	0.033514	-0.377126	-0.277503	0.057788	-0.320750	-0.538957	0.076089	-0.355457	-0.440142	0.702556	-0.535043	-0.388961	0.708051	-0.529436	-0.438237	0.659709	-0.533202	-0.385396	0.667551	-0.530282	-0.393101	0.461153	-0.504877	-0.396981	0.455331	-0.397077	-0.504255	0.426317	-0.529680	-0.478337	0.385964	-0.511264	-0.545477	0.405654	-0.532086	-0.519846	0.368472	-0.513625	-0.761179	0.286502	-0.489138	-0.743037	0.269150	-0.409742	-0.768278	0.153900	-0.520418	-0.763022	0.148484	-0.416065	-0.720015	0.100586	-0.473019	-0.803388	0.337287	-0.453073	-0.363802	1.318597	-0.173913	-0.321009	1.350383	-0.490622	
68	0.3350	-0.402343	0.923560	-0.247004	-0.366099	0.923089	-0.457003	-0.553654	0.935593	-0.328499	-0.548830	0.940344	-0.424566	-0.440761	0.706361	-0.212481	-0.385262	0.720579	-0.207733	-0.419387	0.655266	-0.213499	-0.364012	0.669055	-0.213524	-0.338127	0.457942	-0.263792	-0.332036	0.460862	-0.353298	-0.417638	0.370402	-0.245551	-0.378614	0.356162	-0.248154	-0.426291	0.327109	-0.245521	-0.379438	0.318165	-0.254566	-0.462480	0.100216	-0.305254	-0.456103	0.097982	-0.389020	-0.363150	0.039202	-0.271393	-0.345236	0.032336	-0.377341	-0.277881	0.055677	-0.320952	-0.539493	0.077474	-0.355573	-0.421244	0.702395	-0.534684	-0.370013	0.708923	-0.528999	-0.418350	0.659568	-0.532868	-0.365579	0.668516	-0.529958	-0.368682	0.462067	-0.504556	-0.372393	0.456188	-0.396584	-0.478988	0.426090	-0.529167	-0.452872	0.385935	-0.510703	-0.519995	0.405178	-0.531575	-0.494230	0.368271	-0.513029	-0.734542	0.284731	-0.488167	-0.716342	0.267840	-0.408735	-0.737748	0.152837	-0.520103	-0.732816	0.147222	-0.415672	-0.688417	0.101093	-0.472631	-0.778304	0.334057	-0.452160	-0.347777	1.316776	-0.173229	-0.306840	1.350200	-0.490710	
69	0.3400	-0.386565	0.923167	-0.246413	-0.349034	0.923385	-0.454978	-0.538097	0.935199	-0.327600	-0.533752	0.939482	-0.423725	-0.426952	0.705927	-0.212043	-0.371368	0.719442	-0.207417	-0.406331	0.654618	-0.213266	-0.350853	0.667666	-0.213322	-0.328433	0.456083	-0.264017	-0.322365	0.459135	-0.353372	-0.409660	0.370222	-0.245365	-0.370874	0.355076	-0.248423	-0.419285	0.327078	-0.245445	-0.372656	0.317028	-0.254923	-0.461996	0.100850	-0.305261	-0.456021	0.098522	-0.389319	-0.363976	0.038632	-0.271590	-0.346046	0.031463	-0.377519	-0.278342	0.053985	-0.321131	-0.539985	0.078881	-0.355643	-0.402707	0.702459	-0.534309	-0.351433	0.710000	-0.528548	-0.398837	0.659665	-0.532517	-0.346145	0.669697	-0.529619	-0.344687	0.463260	-0.504208	-0.348239	0.457344	-0.396082	-0.454111	0.425986	-0.528606	-0.427726	0.386094	-0.510137	-0.494857	0.404753	-0.531026	-0.468896	0.368164	-0.512400	-0.707969	0.282553	-0.487199	-0.689709	0.266186	-0.407725	-0.707106	0.151404	-0.519773	-0.702469	0.145607	-0.415257	-0.656623	0.101354	-0.472224	-0.753352	0.330342	-0.451250	-0.331974	1.315301	-0.172653	-0.292947	1.350187	-0.490796	
70	0.3450	-0.371154	0.922848	-0.245817	-0.332383	0.923783	-0.452978	-0.522883	0.934962	-0.326683	-0.519004	0.938804	-0.422857	-0.413608	0.705596	-0.211607	-0.357938	0.718380	-0.207091	-0.393772	0.654067	-0.213031	-0.338185	0.666343	-0.213105	-0.319341	0.454305	-0.264215	-0.313298	0.457485	-0.353428	-0.402208	0.370063	-0.245199	-0.363656	0.354076	-0.248657	-0.412752	0.327075	-0.245388	-0.366349	0.315990	-0.255240	-0.461524	0.101570	-0.305238	-0.455946	0.099181	-0.389565	-0.364767	0.038266	-0.271773	-0.346833	0.030868	-0.377658	-0.278842	0.052684	-0.321283	-0.540393	0.080307	-0.355669	-0.384627	0.702732	-0.533922	-0.333319	0.711260	-0.528090	-0.379803	0.659982	-0.532154	-0.327199	0.671069	-0.529269	-0.321257	0.464702	-0.503842	-0.324656	0.458767	-0.395575	-0.429775	0.425999	-0.528004	-0.403058	0.386429	-0.509570	-0.470219	0.404383	-0.530446	-0.444007	0.368146	-0.511746	-0.681652	0.280021	-0.486239	-0.663332	0.264234	-0.406716	-0.676598	0.149653	-0.519429	-0.672222	0.143687	-0.414824	-0.624900	0.101388	-0.471800	-0.728698	0.326213	-0.450347	-0.316480	1.314171	-0.172182	-0.279404	1.350338	-0.490879	
71	0.3500	-0.356193	0.922594	-0.245220	-0.316246	0.924269	-0.451027	-0.508093	0.934866	-0.325760	-0.504666	0.938299	-0.421973	-0.400790	0.705359	-0.211177	-0.345031	0.717389	-0.206760	-0.381758	0.653604	-0.212798	-0.326061	0.665086	-0.212877	-0.310864	0.452614	-0.264388	-0.304848	0.455919	-0.353469	-0.395288	0.369924	-0.245057	-0.356962	0.353163	-0.248856	-0.406691	0.327097	-0.245352	-0.360515	0.315050	-0.255517	-0.461037	0.102362	-0.305187	-0.455846	0.099941	-0.389759	-0.365495	0.038083	-0.271939	-0.347565	0.030521	-0.377757	-0.279346	0.051741	-0.321408	-0.540688	0.081745	-0.355657	-0.367103	0.703193	-0.533529	-0.315769	0.712674	-0.527629	-0.361353	0.660498	-0.531785	-0.308843	0.672605	-0.528914	-0.298533	0.466358	-0.503462	-0.301782	0.460422	-0.395071	-0.406134	0.426120	-0.527369	-0.379029	0.386921	-0.509007	-0.446242	0.404068	-0.529841	-0.419728	0.368211	-0.511077	-0.655787	0.277191	-0.485292	-0.637410	0.262032	-0.405716	-0.646476	0.147636	-0.519072	-0.642322	0.141518	-0.414375	-0.593519	0.101216	-0.471366	-0.704512	0.321749	-0.449457	-0.301388	1.313375	-0.171812	-0.266287	1.350642	-0.490956	
72	0.3550	-0.341766	0.922399	-0.244628	-0.300722	0.924824	-0.449148	-0.493814	0.934894	-0.324840	-0.490818	0.937952	-0.421085	-0.388553	0.705202	-0.210760	-0.332706	0.716468	-0.206428	-0.370337	0.653221	-0.212572	-0.314527	0.663895	-0.212644	-0.303009	0.451016	-0.264536	-0.297023	0.454440	-0.353495	-0.388899	0.369802	-0.244939	-0.350792	0.352336	-0.249022	-0.401099	0.327140	-0.245336	-0.355150	0.314209	-0.255753	-0.460519	0.103212	-0.305112	-0.455699	0.100784	-0.389904	-0.366141	0.038059	-0.272086	-0.348217	0.030388	-0.377816	-0.279826	0.051116	-0.321505	-0.540855	0.083190	-0.355609	-0.350232	0.703820	-0.533134	-0.298883	0.714213	-0.527172	-0.343593	0.661186	-0.531414	-0.291183	0.674270	-0.528558	-0.276654	0.468191	-0.503075	-0.279756	0.462265	-0.394574	-0.383338	0.426339	-0.526710	-0.355797	0.387549	-0.508452	-0.423081	0.403808	-0.529219	-0.396224	0.368352	-0.510401	-0.630572	0.274125	-0.484366	-0.612144	0.259631	-0.404733	-0.616992	0.145411	-0.518704	-0.613021	0.139156	-0.413915	-0.562753	0.100866	-0.470924	-0.680967	0.317033	-0.448587	-0.286789	1.312896	-0.171536	-0.253669	1.351083	-0.491025	
73	0.3600	-0.327955	0.922253	-0.244046	-0.285905	0.925430	-0.447361	-0.480128	0.935027	-0.323935	-0.477541	0.937748	-0.420204	-0.376952	0.705115	-0.210360	-0.321016	0.715613	-0.206100	-0.359552	0.652908	-0.212354	-0.303631	0.662773	-0.212409	-0.295778	0.449518	-0.264661	-0.289823	0.453055	-0.353507	-0.383038	0.369697	-0.244847	-0.345140	0.351594	-0.249157	-0.395973	0.327200	-0.245340	-0.350246	0.313465	-0.255951	-0.459959	0.104105	-0.305014	-0.455490	0.101690	-0.390005	-0.366694	0.038169	-0.272215	-0.348776	0.030434	-0.377837	-0.280263	0.050768	-0.321574	-0.540885	0.084633	-0.355533	-0.334110	0.704585	-0.532743	-0.282754	0.715844	-0.526722	-0.326623	0.662020	-0.531048	-0.274319	0.676032	-0.528205	-0.255752	0.470157	-0.502687	-0.258708	0.464254	-0.394091	-0.361529	0.426642	-0.526038	-0.333517	0.388290	-0.507911	-0.400889	0.403600	-0.528590	-0.373653	0.368559	-0.509728	-0.606200	0.270889	-0.483466	-0.587727	0.257086	-0.403774	-0.588394	0.143035	-0.518328	-0.584566	0.136658	-0.413449	-0.532871	0.100365	-0.470481	-0.658234	0.312147	-0.447742	-0.272774	1.312712	-0.171346	-0.241623	1.351645	-0.491084	
74	0.3650	-0.314838	0.922150	-0.243479	-0.271884	0.926071	-0.445683	-0.467115	0.935245	-0.323054	-0.464911	0.937666	-0.419342	-0.366036	0.705085	-0.209979	-0.310013	0.714825	-0.205781	-0.349442	0.652659	-0.212147	-0.293410	0.661721	-0.212176	-0.289169	0.448123	-0.264763	-0.283247	0.451768	-0.353509	-0.377698	0.369608	-0.244778	-0.339999	0.350935	-0.249264	-0.391304	0.327276	-0.245363	-0.345792	0.312814	-0.256113	-0.459355	0.105023	-0.304899	-0.455214	0.102639	-0.390064	-0.367148	0.038388	-0.272323	-0.349233	0.030624	-0.377823	-0.280641	0.050654	-0.321618	-0.540779	0.086063	-0.355433	-0.318827	0.705460	-0.532361	-0.267472	0.717534	-0.526285	-0.310539	0.662969	-0.530690	-0.258344	0.677854	-0.527859	-0.235951	0.472216	-0.502305	-0.238760	0.466341	-0.393625	-0.340842	0.427016	-0.525361	-0.312333	0.389120	-0.507388	-0.379807	0.403441	-0.527961	-0.352166	0.368821	-0.509067	-0.582854	0.267547	-0.482599	-0.564345	0.254451	-0.402845	-0.560916	0.140564	-0.517949	-0.557192	0.134080	-0.412982	-0.504127	0.099744	-0.470040	-0.636474	0.307178	-0.446928	-0.259430	1.312791	-0.171234	-0.230214	1.352306	-0.491135	
75	0.3700	-0.302487	0.922082	-0.242934	-0.258734	0.926728	-0.444130	-0.454848	0.935529	-0.322207	-0.453000	0.937689	-0.418508	-0.355846	0.705103	-0.209623	-0.299739	0.714101	-0.205473	-0.340039	0.652463	-0.211955	-0.283901	0.660742	-0.211950	-0.283171	0.446838	-0.264844	-0.277283	0.450582	-0.353500	-0.372869	0.369535	-0.244733	-0.335356	0.350358	-0.249344	-0.387081	0.327364	-0.245403	-0.341775	0.312254	-0.256242	-0.458710	0.105950	-0.304769	-0.454871	0.103612	-0.390086	-0.367505	0.038689	-0.272411	-0.349587	0.030925	-0.377778	-0.280955	0.050730	-0.321638	-0.540548	0.087471	-0.355314	-0.304462	0.706415	-0.531992	-0.253116	0.719249	-0.525865	-0.295426	0.664002	-0.530344	-0.243341	0.679700	-0.527524	-0.217359	0.474321	-0.501933	-0.220021	0.468482	-0.393183	-0.321395	0.427445	-0.524691	-0.292373	0.390012	-0.506887	-0.359960	0.403326	-0.527342	-0.331898	0.369126	-0.508425	-0.560705	0.264164	-0.481771	-0.542169	0.251778	-0.401955	-0.534778	0.138055	-0.517570	-0.531119	0.131478	-0.412519	-0.476757	0.099033	-0.469606	-0.615840	0.302210	-0.446152	-0.246836	1.313099	-0.171190	-0.219503	1.353045	-0.491177	
76	0.3750	-0.290966	0.922041	-0.242414	-0.246522	0.927386	-0.442711	-0.443393	0.935860	-0.321403	-0.441870	0.937797	-0.417714	-0.346418	0.705157	-0.209292	-0.290230	0.713441	-0.205181	-0.331368	0.652315	-0.211777	-0.275128	0.659837	-0.211734	-0.277773	0.445664	-0.264907	-0.271920	0.449501	-0.353483	-0.368534	0.369478	-0.244708	-0.331196	0.349859	-0.249402	-0.383292	0.327462	-0.245456	-0.338181	0.311780	-0.256340	-0.458030	0.106872	-0.304630	-0.454466	0.104588	-0.390077	-0.367768	0.039050	-0.272481	-0.349841	0.031305	-0.377707	-0.281200	0.050954	-0.321638	-0.540204	0.088844	-0.355181	-0.291085	0.707422	-0.531641	-0.239755	0.720956	-0.525467	-0.281358	0.665088	-0.530016	-0.229383	0.681536	-0.527204	-0.200071	0.476433	-0.501577	-0.202585	0.470631	-0.392768	-0.303291	0.427913	-0.524037	-0.273750	0.390943	-0.506412	-0.341458	0.403251	-0.526740	-0.312966	0.369463	-0.507811	-0.539904	0.260801	-0.480988	-0.521350	0.249119	-0.401111	-0.510172	0.135559	-0.517196	-0.506546	0.128903	-0.412066	-0.450972	0.098261	-0.469186	-0.596465	0.297322	-0.445418	-0.235063	1.313598	-0.171203	-0.209541	1.353840	-0.491210	
77	0.3800	-0.280326	0.922023	-0.241925	-0.235296	0.928030	-0.441433	-0.432804	0.936221	-0.320650	-0.431575	0.937971	-0.416966	-0.337777	0.705239	-0.208989	-0.281513	0.712844	-0.204907	-0.323446	0.652206	-0.211615	-0.267110	0.659009	-0.211529	-0.272955	0.444604	-0.264952	-0.267137	0.448526	-0.353460	-0.364677	0.369436	-0.244701	-0.327500	0.349434	-0.249439	-0.379919	0.327569	-0.245520	-0.334990	0.311386	-0.256411	-0.457327	0.107773	-0.304484	-0.454010	0.105549	-0.390043	-0.367946	0.039447	-0.272534	-0.350004	0.031735	-0.377615	-0.281379	0.051287	-0.321620	-0.539767	0.090169	-0.355040	-0.278752	0.708452	-0.531311	-0.227445	0.722626	-0.525093	-0.268394	0.666197	-0.529707	-0.216528	0.683329	-0.526903	-0.184158	0.478509	-0.501241	-0.186526	0.472748	-0.392384	-0.286610	0.428404	-0.523407	-0.256556	0.391887	-0.505967	-0.324388	0.403209	-0.526164	-0.295468	0.369819	-0.507231	-0.520578	0.257517	-0.480255	-0.502015	0.246521	-0.400317	-0.487266	0.133123	-0.516831	-0.483641	0.126401	-0.411628	-0.426951	0.097456	-0.468781	-0.578466	0.292588	-0.444731	-0.224170	1.314248	-0.171263	-0.200368	1.354667	-0.491235	
78	0.3850	-0.270605	0.922021	-0.241469	-0.225093	0.928647	-0.440298	-0.423120	0.936596	-0.319953	-0.422155	0.938193	-0.416273	-0.329939	0.705340	-0.208715	-0.273605	0.712308	-0.204654	-0.316281	0.652130	-0.211470	-0.259856	0.658259	-0.211340	-0.268696	0.443658	-0.264983	-0.262911	0.447657	-0.353432	-0.361276	0.369409	-0.244708	-0.324246	0.349079	-0.249459	-0.376944	0.327681	-0.245591	-0.332183	0.311066	-0.256458	-0.456614	0.108639	-0.304336	-0.453514	0.106480	-0.389988	-0.368049	0.039862	-0.272571	-0.350085	0.032189	-0.377507	-0.281497	0.051692	-0.321589	-0.539259	0.091434	-0.354895	-0.267505	0.709478	-0.531004	-0.216224	0.724230	-0.524747	-0.256575	0.667300	-0.529422	-0.204814	0.685051	-0.526622	-0.169672	0.480515	-0.500927	-0.171896	0.474792	-0.392032	-0.271409	0.428904	-0.522811	-0.240857	0.392822	-0.505555	-0.308815	0.403194	-0.525621	-0.279475	0.370183	-0.506690	-0.502828	0.254365	-0.479577	-0.484265	0.244026	-0.399581	-0.466189	0.130790	-0.516480	-0.462540	0.124013	-0.411210	-0.404838	0.096645	-0.468399	-0.561931	0.288076	-0.444096	-0.214201	1.315009	-0.171359	-0.192013	1.355505	-0.491253	
79	0.3900	-0.261828	0.922030	-0.241049	-0.215929	0.929226	-0.439307	-0.414368	0.936971	-0.319318	-0.413635	0.938445	-0.415639	-0.322907	0.705452	-0.208471	-0.266509	0.711832	-0.204424	-0.309871	0.652082	-0.211342	-0.253365	0.657586	-0.211167	-0.264967	0.442824	-0.265001	-0.259216	0.446892	-0.353401	-0.358307	0.369396	-0.244728	-0.321410	0.348787	-0.249465	-0.374346	0.327797	-0.245668	-0.329738	0.310814	-0.256486	-0.455906	0.109459	-0.304189	-0.452995	0.107364	-0.389918	-0.368091	0.040276	-0.272594	-0.350097	0.032645	-0.377388	-0.281559	0.052139	-0.321548	-0.538701	0.092626	-0.354751	-0.257365	0.710478	-0.530724	-0.206115	0.725744	-0.524431	-0.245926	0.668374	-0.529161	-0.194266	0.686674	-0.526364	-0.156642	0.482417	-0.500639	-0.158725	0.476731	-0.391715	-0.257722	0.429398	-0.522254	-0.226694	0.393727	-0.505179	-0.294776	0.403201	-0.525116	-0.265033	0.370546	-0.506194	-0.486724	0.251389	-0.478956	-0.468169	0.241672	-0.398906	-0.447039	0.128595	-0.516147	-0.443344	0.121774	-0.410817	-0.384738	0.095849	-0.468040	-0.546925	0.283842	-0.443516	-0.205185	1.315841	-0.171480	-0.184492	1.356332	-0.491265	
80	0.3950	-0.254002	0.922048	-0.240669	-0.207804	0.929759	-0.438454	-0.406558	0.937335	-0.318747	-0.406028	0.938713	-0.415069	-0.316676	0.705569	-0.208256	-0.260221	0.711415	-0.204217	-0.304205	0.652055	-0.211230	-0.247627	0.656991	-0.211011	-0.261739	0.442099	-0.265008	-0.256021	0.446228	-0.353369	-0.355743	0.369395	-0.244756	-0.318965	0.348554	-0.249460	-0.372102	0.327914	-0.245745	-0.327630	0.310620	-0.256497	-0.455216	0.110221	-0.304047	-0.452466	0.108190	-0.389838	-0.368082	0.040675	-0.272606	-0.350055	0.033087	-0.377265	-0.281576	0.052599	-0.321499	-0.538118	0.093736	-0.354611	-0.248339	0.711429	-0.530472	-0.197122	0.727147	-0.524146	-0.236452	0.669394	-0.528927	-0.184886	0.688179	-0.526131	-0.145069	0.484189	-0.500378	-0.147017	0.478538	-0.391433	-0.245556	0.429875	-0.521744	-0.214083	0.394585	-0.504839	-0.282282	0.403224	-0.524654	-0.252160	0.370896	-0.505744	-0.472305	0.248629	-0.478397	-0.453764	0.239490	-0.398295	-0.429869	0.126567	-0.515836	-0.426114	0.119712	-0.410453	-0.366711	0.095090	-0.467710	-0.533484	0.279933	-0.442993	-0.197135	1.316708	-0.171619	-0.177806	1.357130	-0.491272	
81	0.4000	-0.247121	0.922070	-0.240329	-0.200700	0.930240	-0.437734	-0.399685	0.937677	-0.318242	-0.399329	0.938984	-0.414564	-0.311228	0.705686	-0.208070	-0.254722	0.711053	-0.204033	-0.299263	0.652044	-0.211134	-0.242620	0.656472	-0.210873	-0.258979	0.441478	-0.265008	-0.253291	0.445660	-0.353336	-0.353556	0.369404	-0.244789	-0.316882	0.348371	-0.249447	-0.370186	0.328029	-0.245821	-0.325835	0.310477	-0.256496	-0.454559	0.110919	-0.303912	-0.451944	0.108947	-0.389753	-0.368036	0.041049	-0.272609	-0.349971	0.033500	-0.377142	-0.281556	0.053050	-0.321447	-0.537530	0.094753	-0.354479	-0.240415	0.712315	-0.530248	-0.189232	0.728426	-0.523893	-0.228139	0.670345	-0.528719	-0.176660	0.689550	-0.525923	-0.134934	0.485809	-0.500146	-0.136752	0.480189	-0.391187	-0.234890	0.430324	-0.521283	-0.203008	0.395381	-0.504536	-0.271319	0.403259	-0.524238	-0.240845	0.371227	-0.505344	-0.459577	0.246113	-0.477898	-0.441056	0.237502	-0.397749	-0.414696	0.124727	-0.515550	-0.410870	0.117845	-0.410120	-0.350778	0.094381	-0.467410	-0.521613	0.276386	-0.442528	-0.190047	1.317576	-0.171765	-0.171944	1.357883	-0.491276	
82	0.4050	-0.241162	0.922093	-0.240030	-0.194583	0.930666	-0.437136	-0.393728	0.937991	-0.317803	-0.393517	0.939246	-0.414124	-0.306533	0.705798	-0.207911	-0.249983	0.710744	-0.203874	-0.295012	0.652046	-0.211053	-0.238314	0.656026	-0.210753	-0.256650	0.440955	-0.265001	-0.250989	0.445183	-0.353304	-0.351715	0.369422	-0.244826	-0.315131	0.348233	-0.249429	-0.368573	0.328140	-0.245893	-0.324326	0.310378	-0.256485	-0.453946	0.111546	-0.303788	-0.451443	0.109629	-0.389667	-0.367965	0.041389	-0.272605	-0.349860	0.033874	-0.377022	-0.281509	0.053476	-0.321394	-0.536958	0.095670	-0.354356	-0.233561	0.713122	-0.530052	-0.182411	0.729569	-0.523672	-0.220953	0.671210	-0.528539	-0.169553	0.690774	-0.525740	-0.126191	0.487263	-0.499943	-0.127889	0.481669	-0.390975	-0.225682	0.430737	-0.520874	-0.193431	0.396105	-0.504271	-0.261843	0.403300	-0.523871	-0.231051	0.371532	-0.504994	-0.448515	0.243862	-0.477462	-0.430016	0.235724	-0.397271	-0.401495	0.123088	-0.515292	-0.397592	0.116187	-0.409823	-0.336913	0.093737	-0.467141	-0.511289	0.273224	-0.442121	-0.183900	1.318416	-0.171912	-0.166881	1.358577	-0.491276	
83	0.4100	-0.236084	0.922117	-0.239771	-0.189403	0.931035	-0.436650	-0.388648	0.938271	-0.317428	-0.388559	0.939491	-0.413748	-0.302551	0.705901	-0.207777	-0.245964	0.710484	-0.203738	-0.291415	0.652055	-0.210986	-0.234670	0.655649	-0.210651	-0.254713	0.440522	-0.264990	-0.249078	0.444789	-0.353274	-0.350187	0.369446	-0.244862	-0.313680	0.348132	-0.249407	-0.367234	0.328244	-0.245960	-0.323075	0.310313	-0.256469	-0.453387	0.112099	-0.303674	-0.450974	0.110230	-0.389583	-0.367878	0.041690	-0.272596	-0.349734	0.034203	-0.376910	-0.281444	0.053864	-0.321343	-0.536419	0.096483	-0.354245	-0.227730	0.713842	-0.529885	-0.176612	0.730571	-0.523482	-0.214843	0.671981	-0.528384	-0.163513	0.691846	-0.525583	-0.118774	0.488541	-0.499769	-0.120361	0.482971	-0.390797	-0.217863	0.431108	-0.520518	-0.185285	0.396749	-0.504043	-0.253790	0.403344	-0.523551	-0.222714	0.371807	-0.504692	-0.439061	0.241886	-0.477086	-0.420587	0.234165	-0.396858	-0.390205	0.121659	-0.515064	-0.386223	0.114744	-0.409561	-0.325055	0.093164	-0.466905	-0.502460	0.270457	-0.441770	-0.178657	1.319203	-0.172054	-0.162580	1.359203	-0.491275	
84	0.4150	-0.231838	0.922139	-0.239552	-0.185096	0.931348	-0.436264	-0.384397	0.938514	-0.317114	-0.384406	0.939712	-0.413434	-0.299235	0.705994	-0.207667	-0.242617	0.710270	-0.203624	-0.288423	0.652070	-0.210931	-0.231640	0.655336	-0.210565	-0.253129	0.440171	-0.264977	-0.247517	0.444469	-0.353247	-0.348941	0.369474	-0.244898	-0.312498	0.348062	-0.249384	-0.366140	0.328340	-0.246020	-0.322056	0.310276	-0.256448	-0.452890	0.112576	-0.303574	-0.450548	0.110750	-0.389505	-0.367785	0.041950	-0.272584	-0.349602	0.034485	-0.376807	-0.281369	0.054206	-0.321295	-0.535925	0.097190	-0.354147	-0.222859	0.714469	-0.529744	-0.171771	0.731430	-0.523322	-0.209743	0.672653	-0.528255	-0.158474	0.692765	-0.525451	-0.112596	0.489642	-0.499622	-0.114084	0.484090	-0.390649	-0.211345	0.431433	-0.520215	-0.178485	0.397308	-0.503850	-0.247069	0.403387	-0.523280	-0.215748	0.372048	-0.504438	-0.431131	0.240188	-0.476768	-0.412682	0.232827	-0.396507	-0.380727	0.120437	-0.514865	-0.376669	0.113513	-0.409335	-0.315100	0.092666	-0.466702	-0.495049	0.268085	-0.441475	-0.174268	1.319919	-0.172185	-0.158993	1.359755	-0.491272	
85	0.4200	-0.228358	0.922159	-0.239369	-0.181587	0.931606	-0.435964	-0.380911	0.938721	-0.316856	-0.380998	0.939906	-0.413176	-0.296528	0.706076	-0.207579	-0.239885	0.710097	-0.203530	-0.285985	0.652088	-0.210888	-0.229170	0.655082	-0.210495	-0.251859	0.439892	-0.264963	-0.246266	0.444217	-0.353223	-0.347943	0.369504	-0.244930	-0.311553	0.348016	-0.249362	-0.365264	0.328427	-0.246072	-0.321240	0.310260	-0.256426	-0.452458	0.112979	-0.303488	-0.450171	0.111189	-0.389434	-0.367693	0.042167	-0.272571	-0.349474	0.034719	-0.376717	-0.281291	0.054497	-0.321252	-0.535487	0.097791	-0.354063	-0.218873	0.715001	-0.529628	-0.167811	0.732151	-0.523191	-0.205571	0.673223	-0.528148	-0.154354	0.693536	-0.525341	-0.107554	0.490567	-0.499500	-0.108955	0.485031	-0.390529	-0.206021	0.431711	-0.519962	-0.172923	0.397782	-0.503690	-0.241576	0.403428	-0.523054	-0.210046	0.372255	-0.504228	-0.424616	0.238761	-0.476505	-0.406192	0.231704	-0.396217	-0.372936	0.119417	-0.514696	-0.368807	0.112487	-0.409144	-0.306918	0.092246	-0.466531	-0.488955	0.266097	-0.441230	-0.170667	1.320550	-0.172303	-0.156061	1.360228	-0.491269	
86	0.4250	-0.225571	0.922176	-0.239221	-0.178795	0.931815	-0.435738	-0.378117	0.938891	-0.316650	-0.378265	0.940070	-0.412970	-0.294368	0.706144	-0.207509	-0.237705	0.709961	-0.203455	-0.284042	0.652106	-0.210854	-0.227202	0.654881	-0.210439	-0.250861	0.439677	-0.264948	-0.245284	0.444022	-0.353202	-0.347160	0.369533	-0.244959	-0.310813	0.347989	-0.249341	-0.364576	0.328502	-0.246116	-0.320601	0.310257	-0.256405	-0.452094	0.113311	-0.303415	-0.449848	0.111550	-0.389373	-0.367607	0.042343	-0.272557	-0.349356	0.034907	-0.376640	-0.281216	0.054738	-0.321215	-0.535111	0.098290	-0.353993	-0.215685	0.715442	-0.529536	-0.164646	0.732739	-0.523084	-0.202237	0.673695	-0.528063	-0.151062	0.694166	-0.525252	-0.103534	0.491326	-0.499402	-0.104861	0.485802	-0.390434	-0.201773	0.431942	-0.519757	-0.168479	0.398174	-0.503561	-0.237188	0.403464	-0.522870	-0.205485	0.372426	-0.504058	-0.419387	0.237592	-0.476292	-0.400986	0.230785	-0.395982	-0.366680	0.118586	-0.514557	-0.362488	0.111654	-0.408987	-0.300348	0.091900	-0.466390	-0.484060	0.264472	-0.441033	-0.167781	1.321090	-0.172404	-0.153719	1.360624	-0.491266	
