PathFileType	4	(X/Y/Z)	 P13 130r1 04.trc
DataRate	CameraRate	NumFrames	NumMarkers	Units	OrigDataRate	OrigDataStartFrame	OrigNumFrames
200	200	84	38	m	200	1	84
Frame#	Time	RASIS			LASIS			RPSIS			LPSIS			RThighRear1			RThighFront1			RThighRear2			RThighFront2			RKneeLat			RKneeMed			RShankRear1			RShankFront1			RShankRear2			RShankFront2			RAnkleLat			RAnkleMed			RM5			RM1			RMid			RHeel			LThighRear1			LThighFront1			LThighRear2			LThighFront2			LKneeLat			LKneeMed			LShankRear1			LShankFront1			LShankRear2			LShankFront2			LAnkleLat			LAnkleMed			LM5			LM1			LMid			LHeel			RShoulder			LShoulder			
		X1	Y1	Z1	X2	Y2	Z2	X3	Y3	Z3	X4	Y4	Z4	X5	Y5	Z5	X6	Y6	Z6	X7	Y7	Z7	X8	Y8	Z8	X9	Y9	Z9	X10	Y10	Z10	X11	Y11	Z11	X12	Y12	Z12	X13	Y13	Z13	X14	Y14	Z14	X15	Y15	Z15	X16	Y16	Z16	X17	Y17	Z17	X18	Y18	Z18	X19	Y19	Z19	X20	Y20	Z20	X21	Y21	Z21	X22	Y22	Z22	X23	Y23	Z23	X24	Y24	Z24	X25	Y25	Z25	X26	Y26	Z26	X27	Y27	Z27	X28	Y28	Z28	X29	Y29	Z29	X30	Y30	Z30	X31	Y31	Z31	X32	Y32	Z32	X33	Y33	Z33	X34	Y34	Z34	X35	Y35	Z35	X36	Y36	Z36	X37	Y37	Z37	X38	Y38	Z38	
1	0.0000	-1.371653	0.925630	-0.176855	-1.355479	0.918120	-0.399463	-1.518777	0.960947	-0.255791	-1.516488	0.960635	-0.351443	-1.460828	0.716928	-0.132224	-1.405201	0.715588	-0.133230	-1.453440	0.661233	-0.133880	-1.397016	0.659263	-0.135782	-1.447028	0.441587	-0.171070	-1.440622	0.435772	-0.269496	-1.566804	0.443592	-0.152834	-1.549123	0.403590	-0.150586	-1.605080	0.419809	-0.151403	-1.578352	0.379231	-0.155504	-1.797396	0.283713	-0.187665	-1.793849	0.272641	-0.266153	-1.834741	0.158223	-0.154015	-1.822320	0.142158	-0.257789	-1.788930	0.089206	-0.200926	-1.842510	0.339723	-0.238467	-1.367857	0.728962	-0.470554	-1.317721	0.744030	-0.458325	-1.357111	0.687119	-0.470485	-1.305934	0.705468	-0.461895	-1.257913	0.512400	-0.441115	-1.264949	0.501078	-0.350177	-1.299141	0.398636	-0.478499	-1.252988	0.401649	-0.460706	-1.299447	0.352392	-0.485215	-1.253858	0.356229	-0.466106	-1.282140	0.099586	-0.457687	-1.261623	0.106705	-0.377782	-1.151937	0.057431	-0.489927	-1.150254	0.054887	-0.383337	-1.089105	0.089108	-0.435554	-1.342471	0.073327	-0.429099	-1.216197	1.325872	-0.170604	-1.232273	1.321232	-0.480372	
2	0.0050	-1.359904	0.924655	-0.177041	-1.342977	0.917212	-0.399762	-1.507218	0.959076	-0.256524	-1.504644	0.959176	-0.352209	-1.445907	0.715306	-0.132567	-1.390344	0.715006	-0.133181	-1.437406	0.659875	-0.133929	-1.381054	0.658981	-0.135524	-1.426465	0.441137	-0.170652	-1.420053	0.435369	-0.268961	-1.546046	0.443044	-0.153029	-1.528345	0.403048	-0.150411	-1.584357	0.419308	-0.151542	-1.557533	0.378633	-0.155377	-1.776389	0.282948	-0.188145	-1.772560	0.271410	-0.266519	-1.810878	0.157802	-0.153460	-1.798245	0.141049	-0.257103	-1.763740	0.089426	-0.199977	-1.822667	0.337766	-0.239243	-1.356190	0.727316	-0.470830	-1.305992	0.742243	-0.458848	-1.345697	0.685435	-0.470645	-1.294448	0.703576	-0.462315	-1.247276	0.510278	-0.441136	-1.254340	0.499327	-0.350284	-1.289642	0.397337	-0.478224	-1.243637	0.399339	-0.460101	-1.290883	0.351199	-0.484810	-1.245558	0.354072	-0.465448	-1.280803	0.099593	-0.456999	-1.260439	0.105896	-0.376597	-1.151355	0.056360	-0.490092	-1.149658	0.053408	-0.383033	-1.088373	0.086336	-0.435499	-1.341790	0.073827	-0.428728	-1.205384	1.324493	-0.170178	-1.220967	1.317176	-0.481346	
3	0.0100	-1.348003	0.923679	-0.177231	-1.330303	0.916299	-0.400067	-1.495498	0.957195	-0.257277	-1.492626	0.957710	-0.352993	-1.430772	0.713692	-0.132918	-1.375277	0.714453	-0.133132	-1.421134	0.658537	-0.133977	-1.364861	0.658740	-0.135264	-1.405572	0.440742	-0.170225	-1.399154	0.435021	-0.268416	-1.524968	0.442515	-0.153229	-1.507235	0.402526	-0.150238	-1.563313	0.418811	-0.151684	-1.536378	0.378040	-0.155251	-1.755046	0.282101	-0.188638	-1.750923	0.270095	-0.266897	-1.786612	0.157290	-0.152903	-1.773753	0.139848	-0.256418	-1.738101	0.089581	-0.199025	-1.802521	0.335701	-0.240035	-1.344386	0.725641	-0.471111	-1.294123	0.740415	-0.459375	-1.334156	0.683719	-0.470810	-1.282831	0.701640	-0.462738	-1.236561	0.508096	-0.441156	-1.243647	0.497516	-0.350391	-1.280086	0.395988	-0.477947	-1.234233	0.396970	-0.459496	-1.282272	0.349964	-0.484405	-1.237218	0.351863	-0.464785	-1.279478	0.099589	-0.456304	-1.259270	0.105079	-0.375401	-1.150776	0.055314	-0.490251	-1.149058	0.051954	-0.382730	-1.087644	0.083587	-0.435446	-1.341121	0.074308	-0.428353	-1.194416	1.323108	-0.169748	-1.209492	1.313107	-0.482317	
4	0.0150	-1.335961	0.922713	-0.177427	-1.317470	0.915388	-0.400379	-1.483623	0.955317	-0.258048	-1.480443	0.956250	-0.353791	-1.415434	0.712109	-0.133277	-1.360016	0.713953	-0.133083	-1.404639	0.657247	-0.134024	-1.348452	0.658569	-0.135002	-1.384362	0.440434	-0.169788	-1.377937	0.434761	-0.267860	-1.503585	0.442014	-0.153432	-1.485801	0.402038	-0.150066	-1.541959	0.418322	-0.151828	-1.514891	0.377463	-0.155126	-1.733344	0.281134	-0.189141	-1.728914	0.268666	-0.267288	-1.761910	0.156653	-0.152350	-1.748806	0.138529	-0.255738	-1.711976	0.089650	-0.198080	-1.782051	0.333481	-0.240837	-1.332472	0.723942	-0.471395	-1.282139	0.738545	-0.459902	-1.322519	0.681977	-0.470978	-1.271114	0.699660	-0.463161	-1.225819	0.505855	-0.441174	-1.232920	0.495642	-0.350495	-1.270526	0.394589	-0.477670	-1.224829	0.394544	-0.458895	-1.273661	0.348688	-0.484004	-1.228885	0.349607	-0.464120	-1.278177	0.099577	-0.455608	-1.258129	0.104266	-0.374202	-1.150204	0.054305	-0.490400	-1.148460	0.050545	-0.382432	-1.086924	0.080893	-0.435398	-1.340475	0.074765	-0.427974	-1.183301	1.321731	-0.169311	-1.197849	1.309068	-0.483270	
5	0.0200	-1.323785	0.921770	-0.177628	-1.304487	0.914487	-0.400698	-1.471596	0.953457	-0.258835	-1.468096	0.954807	-0.354602	-1.399901	0.710583	-0.133643	-1.344569	0.713531	-0.133033	-1.387926	0.656030	-0.134068	-1.331837	0.658495	-0.134738	-1.362843	0.440251	-0.169341	-1.356411	0.434627	-0.267291	-1.481901	0.441551	-0.153635	-1.464041	0.401599	-0.149895	-1.520292	0.417842	-0.151971	-1.493064	0.376909	-0.155004	-1.711251	0.280008	-0.189654	-1.706498	0.267090	-0.267691	-1.736727	0.155854	-0.151805	-1.723354	0.137068	-0.255071	-1.685313	0.089613	-0.197150	-1.761225	0.331060	-0.241648	-1.320467	0.722226	-0.471681	-1.270062	0.736637	-0.460426	-1.310809	0.680217	-0.471149	-1.259320	0.697640	-0.463579	-1.215098	0.503556	-0.441187	-1.222210	0.493705	-0.350593	-1.261009	0.393141	-0.477394	-1.215474	0.392067	-0.458304	-1.265096	0.347375	-0.483609	-1.220607	0.347309	-0.463459	-1.276911	0.099559	-0.454915	-1.257028	0.103464	-0.373008	-1.149647	0.053348	-0.490537	-1.147871	0.049199	-0.382143	-1.086221	0.078287	-0.435355	-1.339862	0.075195	-0.427596	-1.172046	1.320378	-0.168866	-1.186027	1.305101	-0.484188	
6	0.0250	-1.311475	0.920860	-0.177835	-1.291353	0.913602	-0.401024	-1.459413	0.951630	-0.259636	-1.455580	0.953396	-0.355422	-1.384171	0.709137	-0.134015	-1.328939	0.713213	-0.132981	-1.370997	0.654916	-0.134109	-1.315017	0.658546	-0.134473	-1.341016	0.440229	-0.168880	-1.334577	0.434653	-0.266708	-1.459916	0.441136	-0.153836	-1.441947	0.401224	-0.149725	-1.498306	0.417371	-0.152110	-1.470881	0.376388	-0.154883	-1.688721	0.278684	-0.190175	-1.683629	0.265335	-0.268106	-1.711004	0.154860	-0.151272	-1.697336	0.135442	-0.254422	-1.658051	0.089455	-0.196242	-1.739998	0.328385	-0.242461	-1.308389	0.720501	-0.471966	-1.257906	0.734691	-0.460943	-1.299048	0.678446	-0.471321	-1.247469	0.695579	-0.463991	-1.204442	0.501201	-0.441195	-1.211561	0.491705	-0.350683	-1.251583	0.391646	-0.477120	-1.206216	0.389544	-0.457727	-1.256620	0.346029	-0.483226	-1.212426	0.344978	-0.462804	-1.275692	0.099539	-0.454230	-1.255978	0.102686	-0.371829	-1.149110	0.052453	-0.490660	-1.147295	0.047930	-0.381869	-1.085542	0.075796	-0.435319	-1.339291	0.075597	-0.427219	-1.160651	1.319066	-0.168411	-1.174011	1.301249	-0.485055	
7	0.0300	-1.299026	0.919996	-0.178046	-1.278070	0.912742	-0.401356	-1.447068	0.949851	-0.260449	-1.442889	0.952027	-0.356248	-1.368243	0.707797	-0.134390	-1.313125	0.713023	-0.132927	-1.353849	0.653931	-0.134143	-1.297994	0.658751	-0.134204	-1.318882	0.440401	-0.168406	-1.312436	0.434876	-0.266110	-1.437628	0.440777	-0.154030	-1.419508	0.400927	-0.149553	-1.475990	0.416911	-0.152242	-1.448326	0.375908	-0.154761	-1.665705	0.277124	-0.190701	-1.660253	0.263370	-0.268534	-1.684677	0.153636	-0.150758	-1.670681	0.133631	-0.253799	-1.630123	0.089160	-0.195364	-1.718320	0.325408	-0.243274	-1.296253	0.718774	-0.472248	-1.245686	0.732710	-0.461448	-1.287253	0.676670	-0.471494	-1.235579	0.693481	-0.464393	-1.193895	0.498792	-0.441194	-1.201020	0.489644	-0.350762	-1.242292	0.390109	-0.476850	-1.197100	0.386981	-0.457168	-1.248275	0.344656	-0.482856	-1.204385	0.342620	-0.462160	-1.274527	0.099523	-0.453558	-1.254988	0.101940	-0.370672	-1.148600	0.051628	-0.490767	-1.146741	0.046751	-0.381616	-1.084892	0.073446	-0.435291	-1.338770	0.075972	-0.426845	-1.149115	1.317813	-0.167945	-1.161785	1.297558	-0.485851	
8	0.0350	-1.286432	0.919191	-0.178263	-1.264634	0.911913	-0.401693	-1.434552	0.948134	-0.261271	-1.430015	0.950714	-0.357077	-1.352112	0.706586	-0.134766	-1.297126	0.712987	-0.132870	-1.336480	0.653103	-0.134171	-1.280767	0.659136	-0.133933	-1.296442	0.440803	-0.167917	-1.289990	0.435327	-0.265495	-1.415032	0.440479	-0.154214	-1.396714	0.400720	-0.149379	-1.453333	0.416459	-0.152361	-1.425380	0.375477	-0.154638	-1.642147	0.275291	-0.191230	-1.636317	0.261168	-0.268972	-1.657682	0.152156	-0.150268	-1.643322	0.131617	-0.253205	-1.601460	0.088720	-0.194524	-1.696133	0.322082	-0.244081	-1.284067	0.717053	-0.472527	-1.233411	0.730695	-0.461937	-1.275440	0.674900	-0.471665	-1.223664	0.691349	-0.464781	-1.183495	0.496335	-0.441185	-1.190628	0.487525	-0.350825	-1.233177	0.388535	-0.476587	-1.188166	0.384388	-0.456631	-1.240098	0.343265	-0.482503	-1.196519	0.340248	-0.461530	-1.273424	0.099515	-0.452903	-1.254065	0.101238	-0.369546	-1.148120	0.050878	-0.490858	-1.146212	0.045674	-0.381389	-1.084278	0.071262	-0.435272	-1.338306	0.076322	-0.426478	-1.137437	1.316636	-0.167464	-1.149326	1.294073	-0.486561	
9	0.0400	-1.273684	0.918456	-0.178483	-1.251042	0.911124	-0.402034	-1.421856	0.946494	-0.262097	-1.416949	0.949469	-0.357905	-1.335773	0.705526	-0.135141	-1.280939	0.713125	-0.132808	-1.318888	0.652455	-0.134190	-1.263336	0.659724	-0.133657	-1.273702	0.441462	-0.167412	-1.267242	0.436037	-0.264862	-1.392127	0.440248	-0.154383	-1.373556	0.400616	-0.149201	-1.430323	0.416013	-0.152465	-1.402026	0.375102	-0.154513	-1.617996	0.273152	-0.191758	-1.611765	0.258705	-0.269420	-1.629953	0.150395	-0.149804	-1.615191	0.129392	-0.252647	-1.572001	0.088130	-0.193729	-1.673381	0.318363	-0.244876	-1.271843	0.715348	-0.472798	-1.221091	0.728652	-0.462408	-1.263621	0.673144	-0.471834	-1.211737	0.689187	-0.465153	-1.173278	0.493837	-0.441164	-1.180424	0.485354	-0.350869	-1.224273	0.386933	-0.476330	-1.179452	0.381777	-0.456118	-1.232123	0.341864	-0.482171	-1.188864	0.337873	-0.460918	-1.272387	0.099523	-0.452271	-1.253214	0.100590	-0.368460	-1.147676	0.050208	-0.490933	-1.145716	0.044704	-0.381191	-1.083703	0.069261	-0.435263	-1.337905	0.076653	-0.426120	-1.125614	1.315554	-0.166967	-1.136614	1.290837	-0.487167	
10	0.0450	-1.260773	0.917801	-0.178707	-1.237289	0.910380	-0.402377	-1.408971	0.944945	-0.262923	-1.403683	0.948302	-0.358727	-1.319224	0.704639	-0.135513	-1.264563	0.713459	-0.132740	-1.301073	0.652009	-0.134200	-1.245703	0.660537	-0.133376	-1.250671	0.442405	-0.166889	-1.244204	0.437032	-0.264210	-1.368916	0.440085	-0.154531	-1.350031	0.400623	-0.149017	-1.406957	0.415572	-0.152547	-1.378255	0.374789	-0.154382	-1.593201	0.270682	-0.192283	-1.586549	0.255960	-0.269876	-1.601434	0.148339	-0.149373	-1.586226	0.126950	-0.252129	-1.541689	0.087390	-0.192985	-1.650007	0.314213	-0.245653	-1.259588	0.713668	-0.473059	-1.208734	0.726585	-0.462855	-1.251807	0.671413	-0.471996	-1.199809	0.687001	-0.465505	-1.163276	0.491307	-0.441132	-1.170446	0.483141	-0.350891	-1.215615	0.385315	-0.476083	-1.170990	0.379161	-0.455635	-1.224379	0.340467	-0.481861	-1.181449	0.335510	-0.460328	-1.271419	0.099556	-0.451667	-1.252435	0.100007	-0.367423	-1.147272	0.049616	-0.490992	-1.145257	0.043847	-0.381030	-1.083172	0.067459	-0.435264	-1.337569	0.076973	-0.425773	-1.113645	1.314585	-0.166451	-1.123630	1.287894	-0.487652	
11	0.0500	-1.247693	0.917237	-0.178932	-1.223374	0.909689	-0.402722	-1.395889	0.943499	-0.263742	-1.390212	0.947226	-0.359537	-1.302465	0.703942	-0.135876	-1.248001	0.714004	-0.132666	-1.283038	0.651785	-0.134198	-1.227873	0.661591	-0.133089	-1.227367	0.443653	-0.166349	-1.220894	0.438332	-0.263540	-1.345406	0.439991	-0.154655	-1.326141	0.400749	-0.148823	-1.383232	0.415129	-0.152604	-1.354061	0.374544	-0.154244	-1.567717	0.267857	-0.192799	-1.560623	0.252921	-0.270335	-1.572073	0.145976	-0.148977	-1.556378	0.124295	-0.251655	-1.510482	0.086509	-0.192297	-1.625961	0.309601	-0.246405	-1.247309	0.712025	-0.473309	-1.196347	0.724503	-0.463275	-1.240010	0.669718	-0.472151	-1.187890	0.684800	-0.465835	-1.153517	0.488757	-0.441087	-1.160724	0.480898	-0.350888	-1.207229	0.383694	-0.475847	-1.162809	0.376557	-0.455183	-1.216894	0.339088	-0.481577	-1.174297	0.333177	-0.459763	-1.270518	0.099623	-0.451094	-1.251730	0.099500	-0.366443	-1.146910	0.049101	-0.491036	-1.144842	0.043102	-0.380907	-1.082689	0.065864	-0.435277	-1.337297	0.077294	-0.425440	-1.101530	1.313746	-0.165914	-1.110356	1.285282	-0.488001	
12	0.0550	-1.234434	0.916774	-0.179158	-1.209297	0.909056	-0.403065	-1.382604	0.942169	-0.264550	-1.376533	0.946251	-0.360330	-1.285500	0.703453	-0.136229	-1.231257	0.714775	-0.132583	-1.264794	0.651798	-0.134183	-1.209854	0.662899	-0.132795	-1.203818	0.445220	-0.165792	-1.197337	0.439952	-0.262849	-1.321613	0.439963	-0.154750	-1.301900	0.400999	-0.148619	-1.359157	0.414681	-0.152631	-1.329451	0.374369	-0.154095	-1.541510	0.264664	-0.193301	-1.533954	0.249579	-0.270794	-1.541833	0.143307	-0.148620	-1.525607	0.121436	-0.251228	-1.478348	0.085502	-0.191669	-1.601196	0.304502	-0.247125	-1.235015	0.710431	-0.473543	-1.183939	0.722414	-0.463666	-1.228237	0.668074	-0.472296	-1.175991	0.682594	-0.466139	-1.144023	0.486203	-0.441030	-1.151286	0.478641	-0.350857	-1.199139	0.382088	-0.475623	-1.154931	0.373985	-0.454765	-1.209685	0.337744	-0.481320	-1.167427	0.330892	-0.459228	-1.269680	0.099734	-0.450558	-1.251091	0.099080	-0.365529	-1.146593	0.048657	-0.491067	-1.144474	0.042467	-0.380829	-1.082256	0.064481	-0.435300	-1.337088	0.077629	-0.425123	-1.089272	1.313055	-0.165353	-1.096777	1.283040	-0.488199	
13	0.0600	-1.220991	0.916420	-0.179383	-1.195061	0.908489	-0.403405	-1.369113	0.940968	-0.265337	-1.362644	0.945386	-0.361099	-1.268337	0.703184	-0.136566	-1.214338	0.715779	-0.132491	-1.246352	0.652060	-0.134154	-1.191661	0.664469	-0.132493	-1.180056	0.447115	-0.165217	-1.173568	0.441901	-0.262140	-1.297560	0.439997	-0.154809	-1.277326	0.401375	-0.148400	-1.334745	0.414220	-0.152622	-1.304436	0.374269	-0.153933	-1.514551	0.261095	-0.193783	-1.506516	0.245934	-0.271248	-1.510686	0.140339	-0.148303	-1.493889	0.118392	-0.250851	-1.445275	0.084390	-0.191106	-1.575675	0.298903	-0.247803	-1.222711	0.708900	-0.473760	-1.171516	0.720331	-0.464024	-1.216498	0.666494	-0.472428	-1.164120	0.680395	-0.466418	-1.134813	0.483663	-0.440960	-1.142155	0.476387	-0.350795	-1.191361	0.380517	-0.475413	-1.147371	0.371468	-0.454384	-1.202769	0.336456	-0.481092	-1.160853	0.328677	-0.458725	-1.268898	0.099902	-0.450064	-1.250511	0.098759	-0.364689	-1.146323	0.048277	-0.491086	-1.144158	0.041937	-0.380797	-1.081873	0.063310	-0.435333	-1.336933	0.077995	-0.424824	-1.076875	1.312527	-0.164766	-1.082885	1.281199	-0.488233	
14	0.0650	-1.207360	0.916182	-0.179606	-1.180668	0.907995	-0.403738	-1.355415	0.939906	-0.266097	-1.348548	0.944642	-0.361836	-1.250988	0.703146	-0.136885	-1.197258	0.717024	-0.132388	-1.227733	0.652580	-0.134109	-1.173311	0.666301	-0.132181	-1.156127	0.449341	-0.164626	-1.149631	0.444180	-0.261414	-1.273277	0.440084	-0.154828	-1.252450	0.401875	-0.148163	-1.310020	0.413738	-0.152572	-1.279041	0.374242	-0.153753	-1.486824	0.257150	-0.194239	-1.478296	0.241991	-0.271690	-1.478620	0.137091	-0.148029	-1.461214	0.115190	-0.250525	-1.411263	0.083202	-0.190610	-1.549366	0.292797	-0.248430	-1.210405	0.707447	-0.473956	-1.159087	0.718269	-0.464348	-1.204800	0.664995	-0.472546	-1.152284	0.678220	-0.466668	-1.125897	0.481160	-0.440879	-1.133344	0.474159	-0.350703	-1.183905	0.379003	-0.475218	-1.140140	0.369030	-0.454042	-1.196154	0.335244	-0.480894	-1.154579	0.326555	-0.458259	-1.268161	0.100140	-0.449616	-1.249977	0.098548	-0.363929	-1.146101	0.047952	-0.491098	-1.143897	0.041502	-0.380813	-1.081542	0.062346	-0.435376	-1.336822	0.078412	-0.424546	-1.064346	1.312178	-0.164151	-1.068672	1.279787	-0.488092	
15	0.0700	-1.193538	0.916065	-0.179824	-1.166127	0.907578	-0.404062	-1.341511	0.938993	-0.266821	-1.334250	0.944027	-0.362533	-1.233470	0.703344	-0.137179	-1.180031	0.718508	-0.132274	-1.208960	0.653359	-0.134048	-1.154827	0.668395	-0.131860	-1.132081	0.451891	-0.164020	-1.125577	0.446785	-0.260671	-1.248803	0.440215	-0.154802	-1.227310	0.402496	-0.147907	-1.285010	0.413228	-0.152478	-1.253298	0.374289	-0.153553	-1.458324	0.252839	-0.194661	-1.449291	0.237764	-0.272114	-1.445635	0.133589	-0.147798	-1.427587	0.111864	-0.250250	-1.376332	0.081975	-0.190183	-1.522251	0.286186	-0.248998	-1.198104	0.706087	-0.474129	-1.146659	0.716242	-0.464636	-1.193148	0.663592	-0.472645	-1.140491	0.676085	-0.466890	-1.117281	0.478716	-0.440787	-1.124861	0.471981	-0.350578	-1.176773	0.377573	-0.475041	-1.133238	0.366698	-0.453741	-1.189841	0.334132	-0.480727	-1.148606	0.324553	-0.457834	-1.267453	0.100462	-0.449217	-1.249472	0.098458	-0.363258	-1.145927	0.047669	-0.491105	-1.143695	0.041153	-0.380881	-1.081263	0.061580	-0.435428	-1.336741	0.078905	-0.424291	-1.051693	1.312021	-0.163505	-1.054140	1.278825	-0.487765	
16	0.0750	-1.179526	0.916075	-0.180036	-1.151446	0.907247	-0.404374	-1.327405	0.938237	-0.267499	-1.319759	0.943548	-0.363183	-1.215804	0.703781	-0.137446	-1.162676	0.720229	-0.132148	-1.190061	0.654397	-0.133969	-1.136236	0.670740	-0.131528	-1.107977	0.454754	-0.163402	-1.101466	0.449703	-0.259914	-1.224182	0.440377	-0.154726	-1.201950	0.403232	-0.147627	-1.259755	0.412680	-0.152336	-1.227247	0.374408	-0.153329	-1.429056	0.248178	-0.195041	-1.419512	0.233272	-0.272511	-1.411745	0.129869	-0.147609	-1.393030	0.108457	-0.250025	-1.340515	0.080751	-0.189825	-1.494318	0.279084	-0.249494	-1.185811	0.704837	-0.474277	-1.134238	0.714271	-0.464888	-1.181546	0.662305	-0.472726	-1.128747	0.674010	-0.467083	-1.108962	0.476359	-0.440688	-1.116706	0.469881	-0.350423	-1.169963	0.376253	-0.474884	-1.126661	0.364502	-0.453483	-1.183825	0.333146	-0.480592	-1.142924	0.322696	-0.457452	-1.266758	0.100883	-0.448872	-1.248976	0.098502	-0.362681	-1.145800	0.047417	-0.491110	-1.143551	0.040878	-0.380999	-1.081034	0.060996	-0.435488	-1.336670	0.079497	-0.424059	-1.038927	1.312068	-0.162827	-1.039294	1.278327	-0.487246	
17	0.0800	-1.165325	0.916213	-0.180240	-1.136635	0.907006	-0.404671	-1.313102	0.937647	-0.268123	-1.305084	0.943213	-0.363776	-1.198012	0.704458	-0.137682	-1.145215	0.722177	-0.132008	-1.171069	0.655687	-0.133872	-1.117567	0.673324	-0.131186	-1.083879	0.457910	-0.162774	-1.077360	0.452915	-0.259145	-1.199462	0.440554	-0.154597	-1.176424	0.404072	-0.147321	-1.234297	0.412083	-0.152140	-1.200938	0.374594	-0.153076	-1.399034	0.243191	-0.195372	-1.388979	0.228541	-0.272873	-1.376979	0.125973	-0.147460	-1.357580	0.105014	-0.249848	-1.303862	0.079578	-0.189536	-1.465566	0.271512	-0.249909	-1.173534	0.703714	-0.474397	-1.121832	0.712376	-0.465105	-1.169996	0.661150	-0.472785	-1.117054	0.672018	-0.467250	-1.100931	0.474115	-0.440583	-1.108869	0.467885	-0.350239	-1.163460	0.375070	-0.474748	-1.120394	0.362470	-0.453270	-1.178093	0.332309	-0.480488	-1.137518	0.321012	-0.457119	-1.266053	0.101418	-0.448585	-1.248464	0.098692	-0.362203	-1.145718	0.047184	-0.491115	-1.143467	0.040662	-0.381168	-1.080853	0.060578	-0.435554	-1.336586	0.080218	-0.423853	-1.026061	1.312328	-0.162116	-1.024143	1.278302	-0.486529	
18	0.0850	-1.150937	0.916481	-0.180435	-1.121706	0.906862	-0.404951	-1.298611	0.937228	-0.268684	-1.290238	0.943027	-0.364305	-1.180123	0.705367	-0.137882	-1.127671	0.724340	-0.131855	-1.152019	0.657220	-0.133756	-1.098852	0.676126	-0.130834	-1.059856	0.461334	-0.162139	-1.053329	0.456394	-0.258369	-1.174697	0.440730	-0.154411	-1.150790	0.405004	-0.146986	-1.208685	0.411427	-0.151889	-1.174425	0.374842	-0.152792	-1.368285	0.237909	-0.195645	-1.357723	0.223601	-0.273190	-1.341375	0.121953	-0.147349	-1.321286	0.101591	-0.249716	-1.266438	0.078509	-0.189313	-1.436003	0.263500	-0.250231	-1.161274	0.702737	-0.474488	-1.109445	0.710577	-0.465289	-1.158499	0.660148	-0.472821	-1.105415	0.670130	-0.467391	-1.093171	0.472013	-0.440478	-1.101331	0.466024	-0.350030	-1.157246	0.374054	-0.474636	-1.114417	0.360631	-0.453103	-1.172626	0.331649	-0.480416	-1.132365	0.319527	-0.456838	-1.265313	0.102084	-0.448357	-1.247908	0.099038	-0.361828	-1.145679	0.046958	-0.491126	-1.143441	0.040492	-0.381385	-1.080719	0.060303	-0.435625	-1.336462	0.081098	-0.423673	-1.013104	1.312810	-0.161369	-1.008702	1.278750	-0.485610	
19	0.0900	-1.136367	0.916877	-0.180618	-1.106672	0.906820	-0.405211	-1.283939	0.936984	-0.269174	-1.275232	0.942996	-0.364760	-1.162164	0.706502	-0.138043	-1.110068	0.726700	-0.131688	-1.132947	0.658979	-0.133620	-1.080123	0.679122	-0.130472	-1.035977	0.464993	-0.161501	-1.029442	0.460111	-0.257589	-1.149942	0.440887	-0.154166	-1.125110	0.406013	-0.146621	-1.182971	0.410702	-0.151581	-1.147770	0.375145	-0.152471	-1.336844	0.232370	-0.195852	-1.325786	0.218488	-0.273451	-1.304986	0.117865	-0.147271	-1.284212	0.098243	-0.249624	-1.228319	0.077600	-0.189156	-1.405649	0.255084	-0.250451	-1.149033	0.701921	-0.474548	-1.097081	0.708898	-0.465441	-1.147051	0.659315	-0.472834	-1.093828	0.668369	-0.467510	-1.085657	0.470083	-0.440376	-1.094066	0.464325	-0.349800	-1.151292	0.373232	-0.474549	-1.108700	0.359016	-0.452985	-1.167396	0.331189	-0.480374	-1.127434	0.318266	-0.456613	-1.264511	0.102897	-0.448191	-1.247276	0.099554	-0.361559	-1.145681	0.046729	-0.491143	-1.143472	0.040355	-0.381648	-1.080627	0.060149	-0.435700	-1.336266	0.082168	-0.423518	-1.000070	1.313517	-0.160587	-0.992991	1.279664	-0.484488	
20	0.0950	-1.121618	0.917400	-0.180789	-1.091544	0.906886	-0.405448	-1.269096	0.936918	-0.269583	-1.260082	0.943123	-0.365135	-1.144164	0.707848	-0.138163	-1.092432	0.729235	-0.131507	-1.113893	0.660946	-0.133465	-1.061415	0.682284	-0.130102	-1.012314	0.468852	-0.160863	-1.005771	0.464025	-0.256809	-1.125256	0.441004	-0.153860	-1.099447	0.407082	-0.146223	-1.157210	0.409895	-0.151214	-1.121035	0.375495	-0.152110	-1.304754	0.226615	-0.195986	-1.293218	0.213241	-0.273648	-1.267874	0.113772	-0.147221	-1.246431	0.095030	-0.249567	-1.189591	0.076909	-0.189058	-1.374529	0.246311	-0.250556	-1.136810	0.701284	-0.474577	-1.084740	0.707361	-0.465565	-1.135648	0.658670	-0.472823	-1.082290	0.666760	-0.467611	-1.078357	0.468351	-0.440282	-1.087035	0.462816	-0.349554	-1.145565	0.372632	-0.474489	-1.103206	0.357651	-0.452918	-1.162370	0.330955	-0.480362	-1.122689	0.317255	-0.456447	-1.263616	0.103873	-0.448089	-1.246534	0.100251	-0.361398	-1.145719	0.046486	-0.491170	-1.143555	0.040238	-0.381953	-1.080574	0.060090	-0.435777	-1.335961	0.083461	-0.423389	-0.986970	1.314453	-0.159767	-0.977033	1.281030	-0.483165	
21	0.1000	-1.106697	0.918044	-0.180947	-1.076334	0.907064	-0.405661	-1.254091	0.937030	-0.269906	-1.244799	0.943409	-0.365421	-1.126153	0.709391	-0.138240	-1.074787	0.731920	-0.131313	-1.094892	0.663096	-0.133289	-1.042760	0.685578	-0.129723	-0.988934	0.472866	-0.160231	-0.982383	0.468097	-0.256032	-1.100694	0.441060	-0.153494	-1.073867	0.408192	-0.145792	-1.131457	0.408995	-0.150787	-1.094286	0.375881	-0.151708	-1.272067	0.220691	-0.196037	-1.260075	0.207903	-0.273769	-1.230107	0.109736	-0.147194	-1.208029	0.092011	-0.249540	-1.150351	0.076493	-0.189017	-1.342679	0.237229	-0.250539	-1.124603	0.700841	-0.474573	-1.072423	0.705988	-0.465666	-1.124280	0.658227	-0.472788	-1.070793	0.665326	-0.467697	-1.071233	0.466843	-0.440203	-1.080195	0.461522	-0.349300	-1.140022	0.372278	-0.474459	-1.097894	0.356561	-0.452903	-1.157509	0.330966	-0.480378	-1.118087	0.316514	-0.456344	-1.262597	0.105030	-0.448051	-1.245647	0.101141	-0.361345	-1.145788	0.046225	-0.491209	-1.143686	0.040131	-0.382294	-1.080556	0.060098	-0.435855	-1.335510	0.085011	-0.423284	-0.973814	1.315618	-0.158910	-0.960854	1.282826	-0.481644	
22	0.1050	-1.091610	0.918803	-0.181090	-1.061054	0.907358	-0.405847	-1.238935	0.937318	-0.270135	-1.229398	0.943856	-0.365613	-1.108161	0.711110	-0.138272	-1.057157	0.734727	-0.131106	-1.075983	0.665403	-0.133095	-1.024190	0.688968	-0.129339	-0.965904	0.476992	-0.159608	-0.959344	0.472279	-0.255265	-1.076311	0.441035	-0.153067	-1.048434	0.409322	-0.145326	-1.105768	0.407993	-0.150302	-1.067589	0.376292	-0.151260	-1.238840	0.214649	-0.196001	-1.226424	0.202516	-0.273806	-1.191767	0.105823	-0.147181	-1.169097	0.089246	-0.249534	-1.110701	0.076409	-0.189026	-1.310145	0.227896	-0.250390	-1.112406	0.700605	-0.474539	-1.060125	0.704799	-0.465749	-1.112936	0.658001	-0.472731	-1.059329	0.664087	-0.467774	-1.064240	0.465583	-0.440145	-1.073490	0.460466	-0.349046	-1.134616	0.372194	-0.474460	-1.092714	0.355767	-0.452942	-1.152766	0.331244	-0.480422	-1.113580	0.316064	-0.456306	-1.261419	0.106382	-0.448079	-1.244576	0.102233	-0.361399	-1.145883	0.045942	-0.491260	-1.143857	0.040026	-0.382667	-1.080568	0.060147	-0.435931	-1.334870	0.086851	-0.423202	-0.960612	1.317008	-0.158015	-0.944483	1.285025	-0.479932	
23	0.1100	-1.076364	0.919669	-0.181218	-1.045713	0.907772	-0.406005	-1.223635	0.937780	-0.270267	-1.213889	0.944463	-0.365706	-1.090215	0.712982	-0.138258	-1.039565	0.737622	-0.130887	-1.057198	0.667838	-0.132881	-1.005735	0.692416	-0.128950	-0.943283	0.481178	-0.158998	-0.936715	0.476523	-0.254512	-1.052158	0.440908	-0.152581	-1.023209	0.410450	-0.144826	-1.080197	0.406878	-0.149761	-1.041010	0.376717	-0.150764	-1.205140	0.208540	-0.195870	-1.192334	0.197125	-0.273748	-1.152939	0.102097	-0.147176	-1.129736	0.086790	-0.249542	-1.070749	0.076708	-0.189078	-1.276976	0.218369	-0.250102	-1.100211	0.700586	-0.474474	-1.047840	0.703814	-0.465820	-1.101601	0.658003	-0.472651	-1.047884	0.663062	-0.467848	-1.057327	0.464590	-0.440114	-1.066862	0.459664	-0.348799	-1.129295	0.372396	-0.474493	-1.087613	0.355286	-0.453038	-1.148091	0.331803	-0.480491	-1.109115	0.315917	-0.456337	-1.260049	0.107945	-0.448170	-1.243283	0.103540	-0.361557	-1.145997	0.045636	-0.491324	-1.144058	0.039918	-0.383064	-1.080605	0.060210	-0.436005	-1.333997	0.089014	-0.423139	-0.947370	1.318619	-0.157083	-0.927954	1.287593	-0.478037	
24	0.1150	-1.060963	0.920632	-0.181330	-1.030319	0.908305	-0.406133	-1.208201	0.938408	-0.270298	-1.198284	0.945226	-0.365696	-1.072340	0.714983	-0.138199	-1.022030	0.740573	-0.130658	-1.038571	0.670366	-0.132648	-0.987421	0.695879	-0.128560	-0.921124	0.485376	-0.158407	-0.914549	0.480777	-0.253776	-1.028284	0.440658	-0.152040	-0.998250	0.411554	-0.144292	-1.054796	0.405641	-0.149166	-1.014611	0.377142	-0.150221	-1.171036	0.202416	-0.195641	-1.157881	0.191772	-0.273590	-1.113716	0.098619	-0.147171	-1.090050	0.084693	-0.249556	-1.030607	0.077435	-0.189165	-1.243235	0.208711	-0.249670	-1.088007	0.700792	-0.474379	-1.035560	0.703048	-0.465884	-1.090259	0.658240	-0.472551	-1.036443	0.662268	-0.467923	-1.050439	0.463877	-0.440119	-1.060244	0.459129	-0.348569	-1.124002	0.372900	-0.474560	-1.082532	0.355132	-0.453191	-1.143431	0.332655	-0.480584	-1.104637	0.316086	-0.456439	-1.258451	0.109734	-0.448324	-1.241729	0.105069	-0.361815	-1.146123	0.045313	-0.491401	-1.144281	0.039806	-0.383477	-1.080662	0.060262	-0.436075	-1.332845	0.091530	-0.423093	-0.934094	1.320442	-0.156113	-0.911297	1.290491	-0.475969	
25	0.1200	-1.045416	0.921680	-0.181425	-1.014879	0.908960	-0.406230	-1.192639	0.939194	-0.270226	-1.182591	0.946139	-0.365579	-1.054561	0.717082	-0.138096	-1.004570	0.743544	-0.130419	-1.020129	0.672953	-0.132398	-0.969271	0.699317	-0.128171	-0.899474	0.489532	-0.157839	-0.892891	0.484991	-0.253063	-1.004732	0.440267	-0.151448	-0.973612	0.412611	-0.143726	-1.029613	0.404273	-0.148522	-0.988452	0.377554	-0.149628	-1.136605	0.196327	-0.195309	-1.123145	0.186500	-0.273323	-1.074195	0.095445	-0.147156	-1.050150	0.082998	-0.249568	-0.990390	0.078630	-0.189281	-1.208988	0.198984	-0.249089	-1.075781	0.701228	-0.474257	-1.023274	0.702512	-0.465948	-1.078889	0.658716	-0.472434	-1.024986	0.661717	-0.468005	-1.043518	0.463455	-0.440167	-1.053567	0.458868	-0.348365	-1.118677	0.373714	-0.474663	-1.077412	0.355311	-0.453404	-1.138729	0.333809	-0.480699	-1.100089	0.316577	-0.456614	-1.256592	0.111761	-0.448537	-1.239878	0.106831	-0.362169	-1.146252	0.044982	-0.491488	-1.144511	0.039695	-0.383899	-1.080732	0.060280	-0.436141	-1.331369	0.094430	-0.423059	-0.920787	1.322465	-0.155105	-0.894549	1.293676	-0.473741	
26	0.1250	-1.029728	0.922799	-0.181503	-0.999399	0.909734	-0.406295	-1.176959	0.940127	-0.270051	-1.166820	0.947196	-0.365357	-1.036897	0.719251	-0.137950	-0.987201	0.746496	-0.130172	-1.001896	0.675563	-0.132131	-0.951305	0.702685	-0.127785	-0.878370	0.493596	-0.157297	-0.871778	0.489112	-0.252378	-0.981538	0.439717	-0.150810	-0.949341	0.413598	-0.143129	-1.004694	0.402768	-0.147834	-0.962587	0.377938	-0.148987	-1.101928	0.190324	-0.194874	-1.088210	0.181345	-0.272944	-1.034481	0.092624	-0.147124	-1.010149	0.081741	-0.249568	-0.950213	0.080320	-0.189415	-1.174312	0.189253	-0.248360	-1.063517	0.701892	-0.474109	-1.010966	0.702216	-0.466018	-1.067469	0.659431	-0.472301	-1.013494	0.661416	-0.468100	-1.036504	0.463326	-0.440263	-1.046758	0.458881	-0.348196	-1.113258	0.374842	-0.474800	-1.072192	0.355823	-0.453677	-1.133926	0.335266	-0.480835	-1.095411	0.317388	-0.456861	-1.254438	0.114039	-0.448806	-1.237694	0.108832	-0.362611	-1.146374	0.044656	-0.491585	-1.144735	0.039591	-0.384320	-1.080809	0.060243	-0.436202	-1.329522	0.097740	-0.423034	-0.907451	1.324675	-0.154062	-0.877744	1.297104	-0.471367	
27	0.1300	-1.013907	0.923976	-0.181564	-0.983882	0.910625	-0.406329	-1.161165	0.941194	-0.269775	-1.150977	0.948387	-0.365030	-1.019366	0.721458	-0.137764	-0.969934	0.749393	-0.129919	-0.983890	0.678158	-0.131849	-0.933536	0.705942	-0.127405	-0.857838	0.497518	-0.156786	-0.851238	0.493091	-0.251723	-0.958734	0.438992	-0.150134	-0.925480	0.414492	-0.142505	-0.980079	0.401122	-0.147108	-0.937069	0.378280	-0.148300	-1.067090	0.184452	-0.194334	-1.053162	0.176343	-0.272450	-0.994681	0.090197	-0.147068	-0.970162	0.080946	-0.249548	-0.910193	0.082522	-0.189559	-1.139289	0.179581	-0.247483	-1.051199	0.702782	-0.473939	-0.998621	0.702162	-0.466099	-1.055976	0.660380	-0.472156	-1.001943	0.661369	-0.468213	-1.029334	0.463488	-0.440417	-1.039744	0.459161	-0.348070	-1.107683	0.376283	-0.474974	-1.066808	0.356665	-0.454012	-1.128963	0.337026	-0.480988	-1.090545	0.318517	-0.457182	-1.251958	0.116579	-0.449126	-1.235143	0.111080	-0.363134	-1.146477	0.044353	-0.491688	-1.144936	0.039507	-0.384733	-1.080885	0.060135	-0.436258	-1.327258	0.101484	-0.423013	-0.894087	1.327055	-0.152983	-0.860915	1.300727	-0.468862	
28	0.1350	-0.997959	0.925193	-0.181607	-0.968331	0.911626	-0.406329	-1.145264	0.942376	-0.269401	-1.135068	0.949698	-0.364599	-1.001981	0.723668	-0.137541	-0.952778	0.752197	-0.129661	-0.966127	0.680701	-0.131552	-0.915977	0.709045	-0.127035	-0.837897	0.501249	-0.156308	-0.831289	0.496880	-0.251103	-0.936346	0.438081	-0.149426	-0.902064	0.415274	-0.141857	-0.955805	0.399330	-0.146352	-0.911942	0.378564	-0.147568	-1.032181	0.178753	-0.193693	-1.018092	0.171525	-0.271841	-0.954909	0.088194	-0.146978	-0.930308	0.080626	-0.249500	-0.870444	0.085239	-0.189704	-1.104009	0.170029	-0.246463	-1.038805	0.703887	-0.473749	-0.986221	0.702349	-0.466198	-1.044383	0.661552	-0.472003	-0.990309	0.661572	-0.468349	-1.021948	0.463931	-0.440633	-1.032453	0.459695	-0.347995	-1.101890	0.378027	-0.475183	-1.061200	0.357824	-0.454408	-1.123782	0.339081	-0.481159	-1.085435	0.319952	-0.457575	-1.249124	0.119389	-0.449490	-1.232197	0.113581	-0.363729	-1.146549	0.044098	-0.491794	-1.145097	0.039462	-0.385128	-1.080952	0.059944	-0.436309	-1.324535	0.105681	-0.422989	-0.880692	1.329585	-0.151871	-0.844098	1.304494	-0.466245	
29	0.1400	-0.981893	0.926433	-0.181632	-0.952746	0.912729	-0.406297	-1.129262	0.943657	-0.268934	-1.119098	0.951114	-0.364070	-0.984753	0.725850	-0.137284	-0.935740	0.754871	-0.129401	-0.948617	0.683155	-0.131244	-0.898634	0.711957	-0.126678	-0.818553	0.504745	-0.155868	-0.811938	0.500433	-0.250520	-0.914393	0.436973	-0.148695	-0.879122	0.415922	-0.141189	-0.931903	0.397392	-0.145574	-0.887246	0.378777	-0.146796	-0.997294	0.173262	-0.192954	-0.983092	0.166914	-0.271117	-0.915278	0.086635	-0.146850	-0.890704	0.080783	-0.249418	-0.831081	0.088463	-0.189840	-1.068570	0.160657	-0.245306	-1.026318	0.705193	-0.473544	-0.973746	0.702770	-0.466318	-1.032665	0.662933	-0.471843	-0.978565	0.662019	-0.468511	-1.014286	0.464637	-0.440916	-1.024814	0.460463	-0.347978	-1.095819	0.380062	-0.475426	-1.055310	0.359281	-0.454866	-1.118324	0.341419	-0.481345	-1.080026	0.321678	-0.458038	-1.245910	0.122479	-0.449892	-1.228828	0.116339	-0.364385	-1.146575	0.043918	-0.491898	-1.145195	0.039477	-0.385498	-1.081001	0.059661	-0.436355	-1.321312	0.110349	-0.422958	-0.867266	1.332245	-0.150725	-0.827326	1.308359	-0.463533	
30	0.1450	-0.965716	0.927678	-0.181639	-0.937129	0.913926	-0.406232	-1.113165	0.945013	-0.268379	-1.103070	0.952618	-0.363448	-0.967689	0.727969	-0.136998	-0.918823	0.757380	-0.129139	-0.931363	0.685485	-0.130924	-0.881508	0.714638	-0.126336	-0.799805	0.507965	-0.155467	-0.793182	0.503710	-0.249977	-0.892888	0.435663	-0.147950	-0.856676	0.416420	-0.140507	-0.908401	0.395308	-0.144781	-0.863015	0.378904	-0.145989	-0.962526	0.168011	-0.192122	-0.948257	0.162531	-0.270285	-0.875910	0.085527	-0.146676	-0.851469	0.081403	-0.249294	-0.792216	0.092167	-0.189960	-1.033077	0.151519	-0.244023	-1.013714	0.706682	-0.473325	-0.961174	0.703412	-0.466462	-1.020794	0.664502	-0.471682	-0.966685	0.662696	-0.468700	-1.006289	0.465585	-0.441272	-1.016761	0.461438	-0.348023	-1.089411	0.382367	-0.475703	-1.049082	0.361015	-0.455383	-1.112534	0.344022	-0.481544	-1.074266	0.323674	-0.458568	-1.242291	0.125855	-0.450324	-1.225014	0.119358	-0.365091	-1.146538	0.043844	-0.491996	-1.145210	0.039580	-0.385835	-1.081021	0.059286	-0.436399	-1.317552	0.115498	-0.422913	-0.853805	1.335009	-0.149547	-0.810630	1.312274	-0.460744	
31	0.1500	-0.949437	0.928909	-0.181626	-0.921479	0.915204	-0.406133	-1.096979	0.946421	-0.267744	-1.086989	0.954189	-0.362740	-0.950791	0.729992	-0.136687	-0.902028	0.759691	-0.128878	-0.914366	0.687655	-0.130596	-0.864599	0.717057	-0.126012	-0.781641	0.510873	-0.155107	-0.775010	0.506675	-0.249476	-0.871839	0.434147	-0.147201	-0.834740	0.416751	-0.139815	-0.885323	0.393082	-0.143984	-0.839276	0.378932	-0.145153	-0.927978	0.163024	-0.191207	-0.913684	0.158389	-0.269351	-0.836926	0.084865	-0.146454	-0.812721	0.082463	-0.249122	-0.753956	0.096311	-0.190053	-0.997642	0.142669	-0.242626	-1.000972	0.708330	-0.473098	-0.948484	0.704258	-0.466634	-1.008746	0.666233	-0.471522	-0.954642	0.663582	-0.468920	-0.997903	0.466743	-0.441703	-1.008232	0.462586	-0.348135	-1.082612	0.384917	-0.476010	-1.042463	0.362994	-0.455957	-1.106360	0.346870	-0.481756	-1.068108	0.325916	-0.459160	-1.238248	0.129522	-0.450776	-1.220739	0.122640	-0.365837	-1.146420	0.043912	-0.492082	-1.145117	0.039800	-0.386132	-1.081000	0.058821	-0.436440	-1.313221	0.121135	-0.422847	-0.840306	1.337851	-0.148339	-0.794039	1.316192	-0.457900	
32	0.1550	-0.933065	0.930107	-0.181593	-0.905796	0.916548	-0.406003	-1.080711	0.947856	-0.267037	-1.070860	0.955804	-0.361954	-0.934059	0.731888	-0.136355	-0.885354	0.761773	-0.128618	-0.897621	0.689634	-0.130261	-0.847901	0.719184	-0.125710	-0.764041	0.513439	-0.154790	-0.757402	0.509298	-0.249018	-0.851249	0.432426	-0.146458	-0.813324	0.416903	-0.139120	-0.862686	0.390718	-0.143192	-0.816052	0.378847	-0.144296	-0.893751	0.158318	-0.190216	-0.879470	0.154495	-0.268325	-0.798450	0.084629	-0.146180	-0.774579	0.083922	-0.248900	-0.716409	0.100842	-0.190114	-0.962380	0.134152	-0.241130	-0.988072	0.710110	-0.472866	-0.935655	0.705284	-0.466833	-0.996494	0.668099	-0.471367	-0.942411	0.664656	-0.469169	-0.989078	0.468079	-0.442210	-0.999173	0.463870	-0.348316	-1.075371	0.387682	-0.476347	-1.035406	0.365184	-0.456585	-1.099754	0.349936	-0.481978	-1.061509	0.328373	-0.459810	-1.233765	0.133485	-0.451240	-1.215988	0.126186	-0.366608	-1.146197	0.044160	-0.492152	-1.144889	0.040171	-0.386383	-1.080922	0.058276	-0.436482	-1.308292	0.127262	-0.422755	-0.826767	1.340743	-0.147101	-0.777582	1.320070	-0.455019	
33	0.1600	-0.916610	0.931252	-0.181540	-0.890080	0.917942	-0.405840	-1.064368	0.949290	-0.266268	-1.054686	0.957438	-0.361101	-0.917491	0.733626	-0.136007	-0.868796	0.763600	-0.128362	-0.881118	0.691393	-0.129921	-0.831406	0.720994	-0.125431	-0.746974	0.515638	-0.154515	-0.740328	0.511555	-0.248603	-0.831114	0.430505	-0.145730	-0.792429	0.416863	-0.138427	-0.840506	0.388225	-0.142414	-0.793360	0.378640	-0.143424	-0.859951	0.153904	-0.189162	-0.845715	0.150851	-0.267217	-0.760606	0.084790	-0.145853	-0.737157	0.085729	-0.248624	-0.679677	0.105688	-0.190136	-0.927415	0.126012	-0.239554	-0.974992	0.711989	-0.472632	-0.922663	0.706464	-0.467059	-0.984013	0.670064	-0.471220	-0.929964	0.665886	-0.469446	-0.979769	0.469551	-0.442793	-0.989536	0.465247	-0.348564	-1.067642	0.390627	-0.476710	-1.027870	0.367547	-0.457263	-1.092672	0.353192	-0.482208	-1.054432	0.331013	-0.460510	-1.228827	0.137744	-0.451704	-1.210752	0.129996	-0.367393	-1.145846	0.044628	-0.492201	-1.144498	0.040729	-0.386583	-1.080770	0.057665	-0.436526	-1.302741	0.133874	-0.422629	-0.813185	1.343653	-0.145834	-0.761283	1.323869	-0.452121	
34	0.1650	-0.900082	0.932327	-0.181465	-0.874330	0.919367	-0.405646	-1.047959	0.950694	-0.265446	-1.038473	0.959063	-0.360190	-0.901079	0.735180	-0.135647	-0.852350	0.765149	-0.128111	-0.864846	0.692908	-0.129577	-0.815100	0.722466	-0.125177	-0.730406	0.517453	-0.154284	-0.723752	0.513426	-0.248232	-0.811428	0.428392	-0.145026	-0.772053	0.416626	-0.137743	-0.818794	0.385612	-0.141659	-0.771210	0.378300	-0.142547	-0.826684	0.149784	-0.188057	-0.812519	0.147453	-0.266042	-0.723521	0.085304	-0.145473	-0.700570	0.087823	-0.248294	-0.643856	0.110769	-0.190114	-0.892874	0.118284	-0.237917	-0.961712	0.713932	-0.472399	-0.909488	0.707766	-0.467311	-0.971280	0.672093	-0.471083	-0.917278	0.667240	-0.469749	-0.969934	0.471116	-0.443450	-0.979281	0.466672	-0.348878	-1.059383	0.393714	-0.477095	-1.019816	0.370040	-0.457985	-1.085072	0.356604	-0.482447	-1.046844	0.333799	-0.461252	-1.223426	0.142302	-0.452158	-1.205026	0.134070	-0.368178	-1.145339	0.045357	-0.492224	-1.143911	0.041511	-0.386728	-1.080523	0.057011	-0.436574	-1.296551	0.140964	-0.422463	-0.799560	1.346550	-0.144539	-0.745164	1.327551	-0.449225	
35	0.1700	-0.883494	0.933313	-0.181367	-0.858547	0.920803	-0.405421	-1.031492	0.952039	-0.264581	-1.022226	0.960653	-0.359231	-0.884816	0.736524	-0.135278	-0.836007	0.766400	-0.127864	-0.848786	0.694157	-0.129233	-0.798970	0.723587	-0.124950	-0.714293	0.518871	-0.154094	-0.707633	0.514901	-0.247904	-0.792180	0.426099	-0.144356	-0.752187	0.416186	-0.137076	-0.797556	0.382891	-0.140936	-0.749609	0.377818	-0.141674	-0.794055	0.145957	-0.186916	-0.779981	0.144291	-0.264817	-0.687318	0.086117	-0.145043	-0.664927	0.090129	-0.247911	-0.609042	0.115990	-0.190044	-0.858885	0.111001	-0.236241	-0.948214	0.715902	-0.472171	-0.896109	0.709156	-0.467584	-0.958275	0.674144	-0.470958	-0.904330	0.668683	-0.470073	-0.959540	0.472728	-0.444176	-0.968376	0.468096	-0.349253	-1.050558	0.396902	-0.477500	-1.011215	0.372618	-0.458743	-1.076920	0.360139	-0.482690	-1.038716	0.336695	-0.462028	-1.217552	0.147158	-0.452589	-1.198809	0.138404	-0.368949	-1.144644	0.046386	-0.492216	-1.143096	0.042554	-0.386816	-1.080157	0.056337	-0.436630	-1.289708	0.148515	-0.422250	-0.785889	1.349400	-0.143217	-0.729245	1.331083	-0.446350	
36	0.1750	-0.866856	0.934194	-0.181246	-0.842732	0.922229	-0.405166	-1.014979	0.953296	-0.263683	-1.005953	0.962176	-0.358237	-0.868691	0.737637	-0.134906	-0.819759	0.767339	-0.127623	-0.832921	0.695122	-0.128890	-0.782998	0.724348	-0.124751	-0.698590	0.519887	-0.153946	-0.691922	0.515974	-0.247618	-0.773357	0.423643	-0.143727	-0.732818	0.415542	-0.136431	-0.776798	0.380078	-0.140254	-0.728558	0.377188	-0.140815	-0.762170	0.142414	-0.185752	-0.748200	0.141351	-0.263556	-0.652121	0.087168	-0.144566	-0.630335	0.092566	-0.247477	-0.575320	0.121248	-0.189925	-0.825580	0.104188	-0.234548	-0.934480	0.717858	-0.471950	-0.882507	0.710596	-0.467874	-0.944976	0.676176	-0.470847	-0.891099	0.670174	-0.470413	-0.948556	0.474338	-0.444965	-0.956799	0.469471	-0.349682	-1.041136	0.400149	-0.477918	-1.002038	0.375237	-0.459531	-1.068186	0.363759	-0.482938	-1.030027	0.339661	-0.462828	-1.211199	0.152308	-0.452988	-1.192099	0.142994	-0.369693	-1.143725	0.047755	-0.492174	-1.142015	0.043895	-0.386846	-1.079643	0.055676	-0.436696	-1.282204	0.156509	-0.421985	-0.772174	1.352167	-0.141867	-0.713541	1.334439	-0.443513	
37	0.1800	-0.850181	0.934953	-0.181101	-0.826887	0.923622	-0.404883	-0.998430	0.954434	-0.262761	-0.989660	0.963603	-0.357217	-0.852689	0.738502	-0.134532	-0.803596	0.767959	-0.127388	-0.817226	0.695794	-0.128548	-0.767167	0.724746	-0.124579	-0.683243	0.520504	-0.153838	-0.676568	0.516648	-0.247372	-0.754940	0.421043	-0.143145	-0.713930	0.414696	-0.135815	-0.756519	0.377188	-0.139618	-0.708054	0.376407	-0.139979	-0.731132	0.139140	-0.184583	-0.717273	0.138615	-0.262280	-0.618046	0.088386	-0.144048	-0.596894	0.095047	-0.246997	-0.542773	0.126432	-0.189757	-0.793089	0.097863	-0.232862	-0.920495	0.719760	-0.471738	-0.868663	0.712047	-0.468174	-0.931368	0.678147	-0.470752	-0.877565	0.671674	-0.470762	-0.936958	0.475897	-0.445809	-0.944534	0.470749	-0.350158	-1.031090	0.403412	-0.478346	-0.992265	0.377849	-0.460339	-1.058842	0.367428	-0.483188	-1.020758	0.342657	-0.463641	-1.204363	0.157748	-0.453341	-1.184900	0.147835	-0.370397	-1.142543	0.049500	-0.492093	-1.140628	0.045567	-0.386818	-1.078946	0.055062	-0.436774	-1.274038	0.164920	-0.421661	-0.758415	1.354817	-0.140490	-0.698064	1.337592	-0.440730	
38	0.1850	-0.833482	0.935578	-0.180929	-0.811014	0.924959	-0.404572	-0.981857	0.955427	-0.261826	-0.973356	0.964904	-0.356184	-0.836797	0.739106	-0.134159	-0.787509	0.768255	-0.127159	-0.801679	0.696163	-0.128211	-0.751456	0.724784	-0.124436	-0.668200	0.520729	-0.153766	-0.661518	0.516929	-0.247164	-0.736911	0.418320	-0.142617	-0.695500	0.413652	-0.135235	-0.736719	0.374240	-0.139035	-0.688090	0.375472	-0.139176	-0.701041	0.136118	-0.183421	-0.687295	0.136063	-0.261006	-0.585207	0.089695	-0.143495	-0.564701	0.097480	-0.246477	-0.511476	0.131430	-0.189542	-0.761542	0.092041	-0.231206	-0.906245	0.721568	-0.471536	-0.854562	0.713472	-0.468478	-0.917435	0.680015	-0.470673	-0.863710	0.673144	-0.471112	-0.924728	0.477359	-0.446699	-0.931572	0.471886	-0.350669	-1.020398	0.406648	-0.478780	-0.981879	0.380411	-0.461157	-1.048868	0.371108	-0.483437	-1.010896	0.345646	-0.464455	-1.197038	0.163472	-0.453639	-1.177215	0.152920	-0.371049	-1.141053	0.051652	-0.491973	-1.138894	0.047600	-0.386733	-1.078025	0.054534	-0.436868	-1.265208	0.173717	-0.421273	-0.744614	1.357314	-0.139084	-0.682823	1.340523	-0.438017	
39	0.1900	-0.816771	0.936057	-0.180730	-0.795116	0.926219	-0.404234	-0.965273	0.956248	-0.260885	-0.957049	0.966051	-0.355148	-0.820997	0.739441	-0.133790	-0.771484	0.768230	-0.126935	-0.786254	0.696229	-0.127879	-0.735843	0.724471	-0.124319	-0.653404	0.520575	-0.153730	-0.646715	0.516832	-0.246991	-0.719249	0.415500	-0.142146	-0.677506	0.412418	-0.134695	-0.717391	0.371253	-0.138508	-0.668656	0.374384	-0.138416	-0.671991	0.133326	-0.182284	-0.658355	0.133670	-0.259753	-0.553709	0.091018	-0.142917	-0.533843	0.099773	-0.245925	-0.481496	0.136126	-0.189284	-0.731063	0.086730	-0.229601	-0.891718	0.723242	-0.471347	-0.840189	0.714831	-0.468777	-0.903164	0.681739	-0.470609	-0.849521	0.674542	-0.471456	-0.911851	0.478677	-0.447622	-0.917914	0.472839	-0.351203	-1.009043	0.409815	-0.479212	-0.970866	0.382878	-0.461975	-1.038243	0.374763	-0.483683	-1.000428	0.348590	-0.465259	-1.189220	0.169469	-0.453869	-1.169044	0.158239	-0.371635	-1.139206	0.054237	-0.491810	-1.136764	0.050019	-0.386594	-1.076836	0.054129	-0.436978	-1.255719	0.182864	-0.420816	-0.730773	1.359623	-0.137648	-0.667820	1.343217	-0.435388	
40	0.1950	-0.800060	0.936382	-0.180502	-0.779196	0.927379	-0.403872	-0.948689	0.956874	-0.259947	-0.940750	0.967016	-0.354119	-0.805274	0.739502	-0.133424	-0.755512	0.767889	-0.126715	-0.770924	0.695995	-0.127553	-0.720307	0.723822	-0.124228	-0.638802	0.520063	-0.153725	-0.632106	0.516376	-0.246849	-0.701931	0.412609	-0.141733	-0.659922	0.411006	-0.134201	-0.698531	0.368248	-0.138041	-0.649737	0.373146	-0.137707	-0.644071	0.130740	-0.181185	-0.630539	0.131413	-0.258541	-0.523650	0.092275	-0.142322	-0.504401	0.101836	-0.245351	-0.452894	0.140409	-0.188989	-0.701772	0.081932	-0.228071	-0.876904	0.724745	-0.471169	-0.825530	0.716088	-0.469062	-0.888544	0.683280	-0.470559	-0.834984	0.675832	-0.471783	-0.898318	0.479811	-0.448566	-0.903563	0.473571	-0.351748	-0.997011	0.412874	-0.479638	-0.959217	0.385211	-0.462780	-1.026954	0.378357	-0.483921	-0.989346	0.351454	-0.466040	-1.180901	0.175727	-0.454022	-1.160389	0.163780	-0.372144	-1.136946	0.057276	-0.491604	-1.134189	0.052844	-0.386405	-1.075324	0.053891	-0.437108	-1.245577	0.192320	-0.420286	-0.716894	1.361709	-0.136182	-0.653057	1.345661	-0.432854	
41	0.2000	-0.783360	0.936547	-0.180244	-0.763257	0.928419	-0.403486	-0.932117	0.957285	-0.259019	-0.924466	0.967773	-0.353107	-0.789609	0.739291	-0.133063	-0.739579	0.767247	-0.126498	-0.755661	0.695470	-0.127233	-0.704827	0.722856	-0.124159	-0.624338	0.519216	-0.153749	-0.617635	0.515584	-0.246737	-0.684935	0.409677	-0.141379	-0.642720	0.409430	-0.133757	-0.680127	0.365247	-0.137634	-0.631317	0.371763	-0.137056	-0.617362	0.128334	-0.180138	-0.603925	0.129267	-0.257385	-0.495115	0.093391	-0.141721	-0.476445	0.103582	-0.244765	-0.425719	0.144170	-0.188665	-0.673778	0.077644	-0.226633	-0.861794	0.726042	-0.471004	-0.810575	0.717210	-0.469325	-0.873568	0.684602	-0.470523	-0.820088	0.676979	-0.472086	-0.884122	0.480722	-0.449517	-0.888530	0.474050	-0.352289	-0.984289	0.415787	-0.480052	-0.946924	0.387374	-0.463562	-1.014987	0.381858	-0.484150	-0.977643	0.354206	-0.466786	-1.172073	0.182231	-0.454089	-1.151248	0.169529	-0.372565	-1.134214	0.060780	-0.491355	-1.131115	0.056087	-0.386168	-1.073429	0.053858	-0.437256	-1.234791	0.202039	-0.419679	-0.702978	1.363541	-0.134684	-0.638530	1.347847	-0.430426	
42	0.2050	-0.766682	0.936549	-0.179956	-0.747303	0.929319	-0.403078	-0.915569	0.957464	-0.258107	-0.908206	0.968302	-0.352120	-0.773985	0.738814	-0.132705	-0.723673	0.766319	-0.126283	-0.740441	0.694666	-0.126920	-0.689380	0.721598	-0.124112	-0.609961	0.518062	-0.153797	-0.603250	0.514486	-0.246649	-0.668236	0.406732	-0.141082	-0.625873	0.407705	-0.133367	-0.662169	0.362274	-0.137286	-0.613377	0.370243	-0.136471	-0.591936	0.126084	-0.179154	-0.578584	0.127209	-0.256303	-0.468180	0.094294	-0.141124	-0.450037	0.104932	-0.244179	-0.400015	0.147315	-0.188319	-0.647182	0.073859	-0.225306	-0.846384	0.727103	-0.470848	-0.795314	0.718167	-0.469556	-0.858228	0.685674	-0.470496	-0.804825	0.677952	-0.472355	-0.869259	0.481379	-0.450458	-0.872827	0.474251	-0.352810	-0.970870	0.418524	-0.480447	-0.933980	0.389335	-0.464307	-1.002331	0.385235	-0.484363	-0.965314	0.356818	-0.467484	-1.162723	0.188960	-0.454060	-1.141614	0.175469	-0.372889	-1.130945	0.064752	-0.491062	-1.127483	0.059750	-0.385889	-1.071084	0.054069	-0.437424	-1.223367	0.211971	-0.418991	-0.689028	1.365087	-0.133152	-0.624230	1.349770	-0.428113	
43	0.2100	-0.750033	0.936389	-0.179635	-0.731336	0.930063	-0.402649	-0.899054	0.957399	-0.257217	-0.891977	0.968583	-0.351165	-0.758382	0.738082	-0.132350	-0.707783	0.765127	-0.126068	-0.725236	0.693604	-0.126613	-0.673946	0.720076	-0.124082	-0.595622	0.516634	-0.153868	-0.588904	0.513112	-0.246583	-0.651812	0.403805	-0.140838	-0.609352	0.405850	-0.133032	-0.644644	0.359350	-0.136995	-0.595898	0.368598	-0.135957	-0.567856	0.123965	-0.178244	-0.554579	0.125217	-0.255310	-0.442905	0.094917	-0.140541	-0.425226	0.105818	-0.243606	-0.375813	0.149756	-0.187963	-0.622073	0.070565	-0.224104	-0.830666	0.727904	-0.470701	-0.779739	0.718933	-0.469745	-0.842519	0.686471	-0.470477	-0.789187	0.678727	-0.472580	-0.853729	0.481760	-0.451375	-0.856470	0.474158	-0.353297	-0.956747	0.421056	-0.480817	-0.920380	0.391069	-0.465003	-0.988978	0.388462	-0.484556	-0.952351	0.359265	-0.468121	-1.152834	0.195891	-0.453929	-1.131476	0.181578	-0.373107	-1.127068	0.069188	-0.490727	-1.123231	0.063829	-0.385571	-1.068212	0.054558	-0.437611	-1.211313	0.222060	-0.418221	-0.675041	1.366320	-0.131584	-0.610144	1.351429	-0.425923	
44	0.2150	-0.733421	0.936071	-0.179281	-0.715358	0.930638	-0.402203	-0.882581	0.957083	-0.256353	-0.875786	0.968601	-0.350248	-0.742784	0.737111	-0.131995	-0.691896	0.763696	-0.125850	-0.710022	0.692303	-0.126311	-0.658504	0.718322	-0.124066	-0.581277	0.514964	-0.153956	-0.574552	0.511496	-0.246534	-0.635640	0.400925	-0.140641	-0.593129	0.403884	-0.132754	-0.627537	0.356499	-0.136755	-0.578857	0.366838	-0.135517	-0.545171	0.121955	-0.177415	-0.531962	0.123271	-0.254417	-0.419336	0.095207	-0.139984	-0.402050	0.106183	-0.243057	-0.353137	0.151424	-0.187608	-0.598524	0.067745	-0.223038	-0.814637	0.728423	-0.470560	-0.763844	0.719488	-0.469885	-0.826438	0.686973	-0.470461	-0.773170	0.679282	-0.472754	-0.837532	0.481846	-0.452251	-0.839476	0.473760	-0.353733	-0.941913	0.423359	-0.481154	-0.906119	0.392556	-0.465638	-0.974919	0.391513	-0.484723	-0.938749	0.361527	-0.468686	-1.142386	0.202996	-0.453690	-1.120818	0.187832	-0.373211	-1.122507	0.074071	-0.490351	-1.118292	0.068309	-0.385221	-1.064732	0.055356	-0.437814	-1.198634	0.232249	-0.417367	-0.661018	1.367217	-0.129980	-0.596256	1.352826	-0.423861	
45	0.2200	-0.716851	0.935602	-0.178893	-0.699370	0.931033	-0.401739	-0.866155	0.956514	-0.255518	-0.859637	0.968349	-0.349376	-0.727174	0.735920	-0.131639	-0.676000	0.762057	-0.125627	-0.694776	0.690791	-0.126014	-0.643037	0.716371	-0.124059	-0.566888	0.513088	-0.154058	-0.560155	0.509675	-0.246499	-0.619699	0.398122	-0.140484	-0.577177	0.401829	-0.132534	-0.610834	0.353743	-0.136559	-0.562232	0.364978	-0.135154	-0.523920	0.120033	-0.176675	-0.510775	0.121356	-0.253635	-0.397505	0.095117	-0.139462	-0.380533	0.105984	-0.242545	-0.331998	0.152266	-0.187263	-0.576594	0.065380	-0.222116	-0.798295	0.728648	-0.470421	-0.747623	0.719819	-0.469967	-0.809981	0.687165	-0.470443	-0.756771	0.679604	-0.472868	-0.820672	0.481629	-0.453069	-0.821863	0.473059	-0.354104	-0.926365	0.425418	-0.481452	-0.891191	0.393782	-0.466198	-0.960147	0.394370	-0.484858	-0.924498	0.363589	-0.469167	-1.131353	0.210241	-0.453338	-1.109619	0.194203	-0.373194	-1.117182	0.079374	-0.489934	-1.112596	0.073167	-0.384841	-1.060553	0.056487	-0.438029	-1.185333	0.242474	-0.416427	-0.646954	1.367757	-0.128337	-0.582546	1.353965	-0.421931	
46	0.2250	-0.700323	0.934992	-0.178471	-0.683373	0.931241	-0.401260	-0.849780	0.955697	-0.254715	-0.843533	0.967820	-0.348551	-0.711534	0.734533	-0.131277	-0.660086	0.760239	-0.125397	-0.679478	0.689097	-0.125719	-0.627528	0.714258	-0.124058	-0.552424	0.511043	-0.154170	-0.545682	0.507682	-0.246472	-0.603968	0.395423	-0.140357	-0.561471	0.399706	-0.132369	-0.594517	0.351102	-0.136401	-0.546002	0.363035	-0.134870	-0.504127	0.118183	-0.176027	-0.491045	0.119459	-0.252972	-0.377425	0.094615	-0.138985	-0.360689	0.105193	-0.242081	-0.312399	0.152247	-0.186942	-0.556327	0.063446	-0.221343	-0.781639	0.728571	-0.470280	-0.731075	0.719918	-0.469984	-0.793149	0.687042	-0.470419	-0.739986	0.679687	-0.472916	-0.803151	0.481109	-0.453815	-0.803647	0.472061	-0.354395	-0.910099	0.427219	-0.481702	-0.875590	0.394741	-0.466673	-0.944652	0.397017	-0.484953	-0.909589	0.365439	-0.469552	-1.119705	0.217589	-0.452869	-1.097850	0.200659	-0.373052	-1.111010	0.085063	-0.489479	-1.106068	0.078367	-0.384435	-1.055580	0.057967	-0.438253	-1.171411	0.252670	-0.415403	-0.632844	1.367927	-0.126656	-0.568991	1.354853	-0.420138	
47	0.2300	-0.683840	0.934254	-0.178013	-0.667365	0.931260	-0.400768	-0.833456	0.954640	-0.253944	-0.827472	0.967017	-0.347777	-0.695852	0.732978	-0.130907	-0.644142	0.758277	-0.125157	-0.664110	0.687251	-0.125425	-0.611961	0.712020	-0.124056	-0.537857	0.508864	-0.154289	-0.531108	0.505556	-0.246452	-0.588432	0.392853	-0.140252	-0.545988	0.397538	-0.132259	-0.578572	0.348597	-0.136271	-0.530145	0.361024	-0.134662	-0.485805	0.116392	-0.175472	-0.472790	0.117573	-0.252432	-0.359097	0.093682	-0.138560	-0.342515	0.103799	-0.241677	-0.294331	0.151355	-0.186653	-0.537745	0.061919	-0.220720	-0.764667	0.728193	-0.470133	-0.714196	0.719785	-0.469930	-0.775941	0.686605	-0.470382	-0.722816	0.679530	-0.472892	-0.784973	0.480294	-0.454473	-0.784844	0.470784	-0.354592	-0.893111	0.428758	-0.481896	-0.859309	0.395433	-0.467050	-0.928429	0.399443	-0.485001	-0.894011	0.367073	-0.469832	-1.107405	0.224996	-0.452281	-1.085476	0.207164	-0.372780	-1.103904	0.091090	-0.488988	-1.098633	0.083868	-0.384006	-1.049712	0.059804	-0.438478	-1.156862	0.262768	-0.414295	-0.618679	1.367717	-0.124935	-0.555563	1.355501	-0.418481	
48	0.2350	-0.667396	0.933404	-0.177521	-0.651343	0.931090	-0.400264	-0.817181	0.953357	-0.253205	-0.811454	0.965945	-0.347054	-0.680114	0.731283	-0.130525	-0.628159	0.756204	-0.124905	-0.648658	0.685286	-0.125128	-0.596326	0.709696	-0.124051	-0.523173	0.506585	-0.154411	-0.516414	0.503329	-0.246433	-0.573075	0.390436	-0.140156	-0.530710	0.395346	-0.132199	-0.562982	0.346244	-0.136159	-0.514642	0.358963	-0.134530	-0.468951	0.114652	-0.175011	-0.456015	0.115695	-0.252017	-0.342501	0.092311	-0.138193	-0.325996	0.101809	-0.241341	-0.277775	0.149595	-0.186408	-0.520856	0.060770	-0.220244	-0.747381	0.727520	-0.469975	-0.696986	0.719426	-0.469800	-0.758359	0.685860	-0.470326	-0.705262	0.679141	-0.472791	-0.766142	0.479202	-0.455028	-0.765469	0.469253	-0.354684	-0.875399	0.430034	-0.482026	-0.842339	0.395864	-0.467320	-0.911469	0.401639	-0.484993	-0.877751	0.368488	-0.469998	-1.094416	0.232417	-0.451574	-1.072459	0.213677	-0.372377	-1.095777	0.097401	-0.488460	-1.090211	0.089618	-0.383555	-1.042845	0.061997	-0.438697	-1.141681	0.272698	-0.413105	-0.604449	1.367125	-0.123177	-0.542233	1.355919	-0.416961	
49	0.2400	-0.650988	0.932460	-0.176994	-0.635304	0.930737	-0.399750	-0.800951	0.951869	-0.252499	-0.795473	0.964618	-0.346382	-0.664310	0.729480	-0.130126	-0.612129	0.754055	-0.124637	-0.633111	0.683237	-0.124826	-0.580613	0.707320	-0.124036	-0.508360	0.504239	-0.154532	-0.501593	0.501035	-0.246412	-0.557887	0.388189	-0.140060	-0.515621	0.393151	-0.132185	-0.547735	0.344058	-0.136055	-0.499476	0.356871	-0.134468	-0.453550	0.112957	-0.174639	-0.440708	0.113824	-0.251727	-0.327603	0.090511	-0.137891	-0.311104	0.099244	-0.241081	-0.262702	0.146996	-0.186213	-0.505647	0.059969	-0.219910	-0.729783	0.726565	-0.469801	-0.679447	0.718854	-0.469590	-0.740404	0.684823	-0.470245	-0.687328	0.678534	-0.472609	-0.746666	0.477858	-0.455469	-0.745533	0.467500	-0.354659	-0.856959	0.431053	-0.482085	-0.824671	0.396045	-0.467472	-0.893766	0.403604	-0.484923	-0.860795	0.369689	-0.470041	-1.080695	0.239798	-0.450748	-1.058755	0.220155	-0.371839	-1.086540	0.103931	-0.487896	-1.080724	0.095555	-0.383084	-1.034873	0.064537	-0.438901	-1.125856	0.282386	-0.411836	-0.590141	1.366154	-0.121384	-0.528972	1.356124	-0.415577	
50	0.2450	-0.634607	0.931442	-0.176432	-0.619243	0.930210	-0.399227	-0.784757	0.950200	-0.251823	-0.779522	0.963052	-0.345760	-0.648432	0.727601	-0.129707	-0.596047	0.751865	-0.124352	-0.617462	0.681137	-0.124515	-0.564815	0.704927	-0.124007	-0.493418	0.501856	-0.154649	-0.486642	0.498704	-0.246386	-0.542861	0.386129	-0.139951	-0.500709	0.390973	-0.132213	-0.532816	0.342052	-0.135949	-0.484631	0.354764	-0.134473	-0.439573	0.111308	-0.174352	-0.426849	0.111967	-0.251559	-0.314355	0.088301	-0.137654	-0.297797	0.096143	-0.240903	-0.249075	0.143604	-0.186076	-0.492089	0.059488	-0.219710	-0.711877	0.725349	-0.469603	-0.661581	0.718087	-0.469298	-0.722082	0.683516	-0.470132	-0.669017	0.677729	-0.472345	-0.726549	0.476294	-0.455785	-0.725048	0.465565	-0.354509	-0.837792	0.431825	-0.482062	-0.806297	0.395996	-0.467499	-0.875313	0.405338	-0.484780	-0.843127	0.370682	-0.469955	-1.066197	0.247083	-0.449805	-1.044316	0.226551	-0.371168	-1.076108	0.110610	-0.487298	-1.070094	0.101615	-0.382590	-1.025689	0.067403	-0.439081	-1.109374	0.291761	-0.410489	-0.575743	1.364814	-0.119558	-0.515748	1.356130	-0.414328	
51	0.2500	-0.618244	0.930372	-0.175838	-0.603154	0.929522	-0.398697	-0.768590	0.948379	-0.251175	-0.763593	0.961269	-0.345185	-0.632474	0.725679	-0.129265	-0.579908	0.749664	-0.124046	-0.601708	0.679019	-0.124194	-0.548931	0.702549	-0.123959	-0.478356	0.499463	-0.154759	-0.471570	0.496362	-0.246351	-0.527993	0.384268	-0.139820	-0.485970	0.388828	-0.132277	-0.518216	0.340235	-0.135829	-0.470096	0.352659	-0.134538	-0.426980	0.109708	-0.174145	-0.414401	0.110132	-0.251507	-0.302693	0.085717	-0.137486	-0.286021	0.092557	-0.240810	-0.236844	0.139485	-0.186001	-0.480136	0.059295	-0.219632	-0.693666	0.723897	-0.469378	-0.643395	0.717151	-0.468925	-0.703398	0.681967	-0.469980	-0.650337	0.676752	-0.471998	-0.705800	0.474549	-0.455965	-0.704023	0.463492	-0.354226	-0.817898	0.432366	-0.481951	-0.787209	0.395739	-0.467393	-0.856106	0.406845	-0.484556	-0.824735	0.371478	-0.469735	-1.050877	0.254214	-0.448748	-1.029094	0.232814	-0.370363	-1.064397	0.117361	-0.486663	-1.058245	0.107725	-0.382073	-1.015192	0.070567	-0.439225	-1.092218	0.300748	-0.409071	-0.561238	1.363124	-0.117704	-0.502528	1.355956	-0.413209	
52	0.2550	-0.601890	0.929272	-0.175212	-0.587033	0.928689	-0.398161	-0.752439	0.946437	-0.250552	-0.747674	0.959298	-0.344654	-0.616435	0.723747	-0.128797	-0.563710	0.747483	-0.123718	-0.585854	0.676914	-0.123858	-0.532963	0.700213	-0.123888	-0.463188	0.497082	-0.154859	-0.456392	0.494033	-0.246305	-0.513286	0.382611	-0.139657	-0.471401	0.386734	-0.132370	-0.503928	0.338612	-0.135689	-0.455864	0.350571	-0.134655	-0.415718	0.108163	-0.174009	-0.403317	0.108331	-0.251564	-0.292541	0.082801	-0.137384	-0.275711	0.088552	-0.240804	-0.225955	0.134722	-0.185990	-0.469723	0.059359	-0.219665	-0.675160	0.722241	-0.469118	-0.624896	0.716075	-0.468470	-0.684360	0.680208	-0.469782	-0.631299	0.675636	-0.471568	-0.684430	0.472669	-0.456004	-0.682467	0.461333	-0.353806	-0.797282	0.432695	-0.481743	-0.767400	0.395300	-0.467149	-0.836145	0.408133	-0.484245	-0.805603	0.372093	-0.469375	-1.034693	0.261130	-0.447580	-1.013041	0.238894	-0.369428	-1.051334	0.124102	-0.485991	-1.045107	0.113810	-0.381529	-1.003285	0.073988	-0.439321	-1.074372	0.309276	-0.407584	-0.546610	1.361105	-0.115829	-0.489283	1.355623	-0.412216	
53	0.2600	-0.585531	0.928164	-0.174556	-0.570873	0.927731	-0.397622	-0.736289	0.944410	-0.249951	-0.731755	0.957169	-0.344161	-0.600317	0.721835	-0.128299	-0.547455	0.745350	-0.123366	-0.569904	0.674851	-0.123505	-0.516916	0.697945	-0.123791	-0.447939	0.494733	-0.154947	-0.441134	0.491735	-0.246245	-0.498748	0.381162	-0.139453	-0.457008	0.384702	-0.132486	-0.489948	0.337185	-0.135518	-0.441932	0.348515	-0.134817	-0.405725	0.106683	-0.173936	-0.393539	0.106578	-0.251720	-0.283814	0.079606	-0.137347	-0.266792	0.084204	-0.240882	-0.216344	0.129408	-0.186044	-0.460775	0.059650	-0.219793	-0.656368	0.720416	-0.468818	-0.606094	0.714893	-0.467936	-0.664980	0.678279	-0.469532	-0.611914	0.674416	-0.471058	-0.662454	0.470703	-0.455895	-0.660392	0.459140	-0.353245	-0.775952	0.432836	-0.481431	-0.746868	0.394711	-0.466764	-0.815431	0.409213	-0.483836	-0.785724	0.372542	-0.468875	-1.017604	0.267766	-0.446306	-0.996111	0.244736	-0.368365	-1.036850	0.130749	-0.485280	-1.030616	0.119791	-0.380954	-0.989880	0.077622	-0.439356	-1.055820	0.317274	-0.406033	-0.531843	1.358789	-0.113940	-0.475984	1.355151	-0.411346	
54	0.2650	-0.569158	0.927071	-0.173872	-0.554671	0.926671	-0.397079	-0.720130	0.942334	-0.249366	-0.715826	0.954916	-0.343700	-0.584126	0.719972	-0.127770	-0.531147	0.743288	-0.122988	-0.553872	0.672856	-0.123133	-0.500801	0.695764	-0.123663	-0.432642	0.492428	-0.155021	-0.425826	0.489482	-0.246169	-0.484390	0.379918	-0.139203	-0.442800	0.382743	-0.132618	-0.476275	0.335952	-0.135312	-0.428299	0.346501	-0.135015	-0.396928	0.105278	-0.173916	-0.384998	0.104890	-0.251964	-0.276414	0.076192	-0.137371	-0.259178	0.079594	-0.241043	-0.207940	0.123649	-0.186160	-0.453201	0.060139	-0.220002	-0.637303	0.718463	-0.468473	-0.587005	0.713643	-0.467326	-0.645273	0.676221	-0.469225	-0.592199	0.673130	-0.470472	-0.639889	0.468703	-0.455638	-0.637809	0.456968	-0.352544	-0.753920	0.432814	-0.481009	-0.725614	0.394005	-0.466235	-0.793972	0.410099	-0.483325	-0.765093	0.372845	-0.468233	-0.999578	0.274060	-0.444931	-0.978263	0.250289	-0.367179	-1.020890	0.137218	-0.484528	-1.014718	0.125591	-0.380342	-0.974902	0.081415	-0.439318	-1.036548	0.324676	-0.404425	-0.516925	1.356213	-0.112047	-0.462605	1.354565	-0.410591	
55	0.2700	-0.552761	0.926012	-0.173163	-0.538425	0.925531	-0.396535	-0.703950	0.940247	-0.248793	-0.699876	0.952576	-0.343265	-0.567873	0.718185	-0.127209	-0.514794	0.741316	-0.122583	-0.537776	0.670952	-0.122739	-0.484632	0.693686	-0.123502	-0.417335	0.490179	-0.155078	-0.410509	0.487286	-0.246075	-0.470229	0.378874	-0.138902	-0.428795	0.380863	-0.132760	-0.462913	0.334909	-0.135066	-0.414973	0.344540	-0.135241	-0.389251	0.103961	-0.173940	-0.377618	0.103284	-0.252285	-0.270239	0.072625	-0.137450	-0.252778	0.074811	-0.241280	-0.200668	0.117558	-0.186334	-0.446900	0.060796	-0.220276	-0.617983	0.716421	-0.468079	-0.567648	0.712365	-0.466646	-0.625258	0.674077	-0.468854	-0.572177	0.671821	-0.469813	-0.616759	0.466723	-0.455232	-0.614733	0.454873	-0.351704	-0.731206	0.432657	-0.480469	-0.703647	0.393215	-0.465563	-0.771783	0.410805	-0.482705	-0.743710	0.373022	-0.467450	-0.980588	0.279951	-0.443461	-0.959465	0.255500	-0.365874	-1.003413	0.143425	-0.483732	-0.997373	0.131132	-0.379688	-0.958289	0.085309	-0.439195	-1.016547	0.331418	-0.402764	-0.501842	1.353417	-0.110159	-0.449127	1.353888	-0.409946	
56	0.2750	-0.536331	0.925009	-0.172433	-0.522134	0.924339	-0.395991	-0.687738	0.938185	-0.248227	-0.683898	0.950187	-0.342849	-0.551572	0.716496	-0.126616	-0.498410	0.739451	-0.122152	-0.521638	0.669157	-0.122323	-0.468430	0.691723	-0.123305	-0.402065	0.487992	-0.155117	-0.395228	0.485153	-0.245963	-0.456288	0.378018	-0.138547	-0.415012	0.379068	-0.132905	-0.449870	0.334047	-0.134777	-0.401962	0.342640	-0.135487	-0.382608	0.102746	-0.173998	-0.371315	0.101777	-0.252671	-0.265180	0.068972	-0.137577	-0.247494	0.069945	-0.241586	-0.194449	0.111252	-0.186560	-0.441763	0.061597	-0.220600	-0.598430	0.714336	-0.467631	-0.548046	0.711097	-0.465902	-0.604958	0.671894	-0.468417	-0.551872	0.670530	-0.469087	-0.593095	0.464818	-0.454679	-0.591186	0.452910	-0.350730	-0.707838	0.432394	-0.479809	-0.680982	0.392377	-0.464749	-0.748886	0.411349	-0.481972	-0.721587	0.373096	-0.466530	-0.960619	0.285378	-0.441903	-0.939693	0.260318	-0.364457	-0.984396	0.149292	-0.482888	-0.978552	0.136342	-0.378985	-0.940001	0.089240	-0.438974	-0.995815	0.337443	-0.401056	-0.486587	1.350449	-0.108288	-0.435533	1.353146	-0.409403	
57	0.2800	-0.519866	0.924078	-0.171684	-0.505804	0.923120	-0.395449	-0.671490	0.936184	-0.247663	-0.667889	0.947787	-0.342442	-0.535245	0.714925	-0.125992	-0.482010	0.737704	-0.121693	-0.505486	0.667488	-0.121883	-0.452220	0.689880	-0.123073	-0.386882	0.485870	-0.155137	-0.380035	0.483085	-0.245831	-0.442593	0.377336	-0.138139	-0.401479	0.377359	-0.133048	-0.437157	0.333353	-0.134446	-0.389282	0.340804	-0.135744	-0.376910	0.101643	-0.174081	-0.365998	0.100385	-0.253107	-0.261126	0.065300	-0.137746	-0.243224	0.065085	-0.241953	-0.189197	0.104845	-0.186830	-0.437676	0.062515	-0.220957	-0.578671	0.712249	-0.467126	-0.528229	0.709880	-0.465100	-0.584404	0.669717	-0.467910	-0.531318	0.669299	-0.468301	-0.568937	0.463040	-0.453986	-0.567195	0.451131	-0.349627	-0.683853	0.432055	-0.479025	-0.657645	0.391526	-0.463799	-0.725315	0.411748	-0.481122	-0.698743	0.373088	-0.465477	-0.939671	0.290288	-0.440264	-0.918940	0.264699	-0.362934	-0.963834	0.154743	-0.481993	-0.958248	0.141152	-0.378227	-0.920018	0.093146	-0.438644	-0.974357	0.342701	-0.399308	-0.471158	1.347358	-0.106447	-0.421815	1.352364	-0.408956	
58	0.2850	-0.503365	0.923235	-0.170921	-0.489444	0.921900	-0.394910	-0.655203	0.934278	-0.247094	-0.651847	0.945413	-0.342038	-0.518917	0.713487	-0.125339	-0.465618	0.736082	-0.121208	-0.489354	0.665954	-0.121422	-0.436031	0.688161	-0.122803	-0.371843	0.483811	-0.155138	-0.364987	0.481082	-0.245679	-0.429176	0.376812	-0.137680	-0.388225	0.375735	-0.133183	-0.424791	0.332814	-0.134073	-0.376951	0.339038	-0.136004	-0.372068	0.100666	-0.174179	-0.361575	0.099123	-0.253582	-0.257964	0.061674	-0.137948	-0.239863	0.060316	-0.242369	-0.184828	0.098453	-0.187135	-0.434521	0.063528	-0.221335	-0.558740	0.710205	-0.466563	-0.508233	0.708753	-0.464249	-0.563634	0.667591	-0.467331	-0.510553	0.668167	-0.467462	-0.544332	0.461440	-0.453158	-0.542796	0.449584	-0.348404	-0.659298	0.431669	-0.478115	-0.633675	0.390696	-0.462718	-0.701112	0.412022	-0.480155	-0.675211	0.373019	-0.464298	-0.917758	0.294631	-0.438551	-0.897209	0.268599	-0.361314	-0.941747	0.159710	-0.481043	-0.936472	0.145503	-0.377407	-0.898347	0.096962	-0.438196	-0.952190	0.347151	-0.397526	-0.455556	1.344196	-0.104648	-0.407971	1.351567	-0.408596	
59	0.2900	-0.486834	0.922492	-0.170148	-0.473066	0.920706	-0.394374	-0.638883	0.932497	-0.246517	-0.635781	0.943103	-0.341629	-0.502620	0.712194	-0.124661	-0.449261	0.734588	-0.120699	-0.473280	0.664563	-0.120939	-0.419900	0.686563	-0.122496	-0.357007	0.481811	-0.155119	-0.350141	0.479141	-0.245508	-0.416070	0.376425	-0.137174	-0.375284	0.374194	-0.133305	-0.412789	0.332413	-0.133664	-0.364990	0.337340	-0.136261	-0.367990	0.099824	-0.174285	-0.357951	0.098006	-0.254083	-0.255585	0.058156	-0.138175	-0.237307	0.055718	-0.242825	-0.181254	0.092180	-0.187466	-0.432178	0.064616	-0.221719	-0.538678	0.708242	-0.465941	-0.488099	0.707751	-0.463357	-0.542689	0.665558	-0.466680	-0.489624	0.667172	-0.466578	-0.519339	0.460062	-0.452205	-0.518034	0.448311	-0.347072	-0.634233	0.431263	-0.477081	-0.609120	0.389917	-0.461515	-0.676336	0.412190	-0.479072	-0.651037	0.372911	-0.463002	-0.894910	0.298363	-0.436772	-0.874525	0.271983	-0.359606	-0.918176	0.164137	-0.480037	-0.913260	0.149340	-0.376520	-0.875020	0.100626	-0.437621	-0.929344	0.350759	-0.395715	-0.439793	1.341017	-0.102905	-0.394007	1.350782	-0.408315	
60	0.2950	-0.470287	0.921859	-0.169369	-0.456691	0.919561	-0.393845	-0.622540	0.930867	-0.245926	-0.619701	0.940889	-0.341207	-0.486389	0.711052	-0.123960	-0.432972	0.733221	-0.120166	-0.457307	0.663318	-0.120438	-0.403867	0.685081	-0.122153	-0.342435	0.479867	-0.155080	-0.335561	0.477257	-0.245319	-0.403313	0.376156	-0.136629	-0.362694	0.372730	-0.133412	-0.401173	0.332132	-0.133224	-0.353423	0.335712	-0.136508	-0.364586	0.099125	-0.174392	-0.355031	0.097042	-0.254599	-0.253878	0.054802	-0.138418	-0.235452	0.051360	-0.243308	-0.178389	0.086125	-0.187812	-0.430531	0.065761	-0.222098	-0.518532	0.706398	-0.465259	-0.467878	0.706906	-0.462432	-0.521624	0.663657	-0.465957	-0.468582	0.666347	-0.465659	-0.494027	0.458947	-0.451140	-0.492966	0.447349	-0.345644	-0.608730	0.430865	-0.475925	-0.584045	0.389219	-0.460199	-0.651054	0.412270	-0.477875	-0.626281	0.372784	-0.461599	-0.871180	0.301452	-0.434936	-0.850931	0.274822	-0.357819	-0.893191	0.167974	-0.478971	-0.888670	0.152623	-0.375561	-0.850100	0.104080	-0.436915	-0.905864	0.353503	-0.393883	-0.423887	1.337873	-0.101232	-0.379940	1.350031	-0.408106	
61	0.3000	-0.453743	0.921341	-0.168589	-0.440347	0.918487	-0.393323	-0.606195	0.929411	-0.245317	-0.603629	0.938802	-0.340764	-0.470267	0.710065	-0.123243	-0.416791	0.731978	-0.119613	-0.441482	0.662216	-0.119921	-0.387975	0.683708	-0.121777	-0.328190	0.477970	-0.155022	-0.321307	0.475423	-0.245112	-0.390943	0.375981	-0.136051	-0.350492	0.371338	-0.133499	-0.389968	0.331951	-0.132760	-0.342277	0.334151	-0.136740	-0.361769	0.098573	-0.174493	-0.352723	0.096240	-0.255118	-0.252739	0.051659	-0.138671	-0.234197	0.047305	-0.243807	-0.176149	0.080373	-0.188163	-0.429465	0.066946	-0.222461	-0.498356	0.704707	-0.464522	-0.447628	0.706246	-0.461485	-0.500496	0.661922	-0.465166	-0.447491	0.665720	-0.464712	-0.468479	0.458128	-0.449976	-0.467660	0.446726	-0.344133	-0.582874	0.430497	-0.474652	-0.558530	0.388626	-0.458785	-0.625353	0.412280	-0.476570	-0.601021	0.372655	-0.460101	-0.846638	0.303874	-0.433052	-0.826492	0.277096	-0.355964	-0.866889	0.171186	-0.477845	-0.862788	0.155320	-0.374526	-0.823680	0.107273	-0.436074	-0.881809	0.355374	-0.392037	-0.407865	1.334818	-0.099640	-0.365793	1.349337	-0.407959	
62	0.3050	-0.437232	0.920941	-0.167813	-0.424067	0.917503	-0.392810	-0.589874	0.928146	-0.244687	-0.587591	0.936867	-0.340296	-0.454301	0.709232	-0.122515	-0.400760	0.730851	-0.119042	-0.425858	0.661255	-0.119392	-0.372276	0.682434	-0.121369	-0.314333	0.476115	-0.154946	-0.307443	0.473632	-0.244889	-0.378999	0.375880	-0.135451	-0.338718	0.370012	-0.133566	-0.379199	0.331851	-0.132280	-0.331578	0.332654	-0.136953	-0.359455	0.098171	-0.174584	-0.350935	0.095602	-0.255631	-0.252071	0.048769	-0.138926	-0.233445	0.043602	-0.244311	-0.174449	0.074998	-0.188510	-0.428870	0.068158	-0.222802	-0.478213	0.703196	-0.463730	-0.427411	0.705793	-0.460524	-0.479375	0.660384	-0.464310	-0.426418	0.665313	-0.463747	-0.442786	0.457629	-0.448727	-0.442198	0.446462	-0.342554	-0.556764	0.430181	-0.473270	-0.532666	0.388159	-0.457284	-0.599329	0.412239	-0.475164	-0.575350	0.372541	-0.458522	-0.821377	0.305614	-0.431129	-0.801294	0.278791	-0.354052	-0.839394	0.173749	-0.476658	-0.835726	0.157411	-0.373415	-0.795887	0.110160	-0.435098	-0.857258	0.356374	-0.390182	-0.391764	1.331900	-0.098142	-0.351601	1.348722	-0.407868	
63	0.3100	-0.420791	0.920660	-0.167047	-0.407893	0.916627	-0.392308	-0.573614	0.927082	-0.244033	-0.571625	0.935108	-0.339797	-0.438543	0.708548	-0.121782	-0.384930	0.729833	-0.118458	-0.410489	0.660428	-0.118856	-0.356820	0.681248	-0.120933	-0.300923	0.474293	-0.154854	-0.294027	0.471878	-0.244653	-0.367520	0.375830	-0.134840	-0.327409	0.368745	-0.133610	-0.368890	0.331814	-0.131795	-0.321352	0.331219	-0.137144	-0.357565	0.097919	-0.174662	-0.349582	0.095131	-0.256130	-0.251782	0.046161	-0.139176	-0.233105	0.040288	-0.244809	-0.173212	0.070057	-0.188844	-0.428648	0.069384	-0.223112	-0.458174	0.701889	-0.462890	-0.407302	0.705563	-0.459558	-0.458336	0.659064	-0.463396	-0.405441	0.665143	-0.462774	-0.417055	0.457469	-0.447409	-0.416672	0.446567	-0.340925	-0.530511	0.429934	-0.471787	-0.506565	0.387834	-0.455713	-0.573097	0.412160	-0.473667	-0.549376	0.372455	-0.456876	-0.795509	0.306670	-0.429177	-0.775446	0.279906	-0.352096	-0.810857	0.175652	-0.475411	-0.807625	0.158890	-0.372226	-0.766876	0.112702	-0.433989	-0.832304	0.356517	-0.388326	-0.375631	1.329162	-0.096748	-0.337407	1.348203	-0.407824	
64	0.3150	-0.404465	0.920495	-0.166294	-0.391874	0.915870	-0.391818	-0.557461	0.926227	-0.243354	-0.555776	0.933539	-0.339264	-0.423048	0.708006	-0.121052	-0.369354	0.728912	-0.117864	-0.395431	0.659726	-0.118318	-0.341665	0.680138	-0.120473	-0.288017	0.472501	-0.154746	-0.281116	0.470155	-0.244407	-0.356543	0.375813	-0.134226	-0.316602	0.367531	-0.133633	-0.359067	0.331821	-0.131313	-0.311626	0.329842	-0.137309	-0.356027	0.097813	-0.174722	-0.348585	0.094823	-0.256607	-0.251789	0.043857	-0.139415	-0.233092	0.037387	-0.245292	-0.172362	0.065593	-0.189157	-0.428704	0.070615	-0.223387	-0.438315	0.700803	-0.462007	-0.387377	0.705565	-0.458596	-0.437464	0.657982	-0.462430	-0.384644	0.665219	-0.461801	-0.391399	0.457654	-0.446040	-0.391190	0.447044	-0.339263	-0.504241	0.429770	-0.470216	-0.480350	0.387662	-0.454089	-0.546782	0.412059	-0.472091	-0.523225	0.372409	-0.455180	-0.769169	0.307053	-0.427207	-0.749076	0.280449	-0.350108	-0.781458	0.176898	-0.474108	-0.778649	0.159762	-0.370962	-0.736833	0.114875	-0.432753	-0.807059	0.355832	-0.386477	-0.359521	1.326645	-0.095467	-0.323262	1.347794	-0.407820	
65	0.3200	-0.388310	0.920439	-0.165559	-0.376063	0.915242	-0.391341	-0.541470	0.925582	-0.242649	-0.540096	0.932173	-0.338695	-0.407876	0.707597	-0.120330	-0.354091	0.728077	-0.117264	-0.380745	0.659137	-0.117784	-0.326869	0.679092	-0.119994	-0.275669	0.470733	-0.154626	-0.268764	0.468459	-0.244152	-0.346102	0.375810	-0.133622	-0.306332	0.366364	-0.133635	-0.349753	0.331856	-0.130844	-0.302423	0.328521	-0.137448	-0.354774	0.097846	-0.174765	-0.347871	0.094671	-0.257056	-0.252017	0.041869	-0.139640	-0.233329	0.034913	-0.245752	-0.171831	0.061634	-0.189443	-0.428955	0.071842	-0.223624	-0.418720	0.699948	-0.461088	-0.367723	0.705802	-0.457647	-0.416848	0.657146	-0.461421	-0.364117	0.665543	-0.460837	-0.365945	0.458183	-0.444637	-0.365868	0.447884	-0.337585	-0.478089	0.429698	-0.468571	-0.454157	0.387651	-0.452428	-0.520522	0.411949	-0.470448	-0.497036	0.372411	-0.453450	-0.742510	0.306783	-0.425229	-0.722338	0.280436	-0.348103	-0.751398	0.177504	-0.472754	-0.748992	0.160045	-0.369628	-0.705974	0.116660	-0.431399	-0.781652	0.354361	-0.384641	-0.343501	1.324381	-0.094305	-0.309226	1.347509	-0.407848	
66	0.3250	-0.372387	0.920485	-0.164847	-0.360524	0.914748	-0.390881	-0.525701	0.925141	-0.241920	-0.524646	0.931015	-0.338090	-0.393088	0.707308	-0.119624	-0.339201	0.727319	-0.116664	-0.366490	0.658650	-0.117259	-0.312491	0.678101	-0.119500	-0.263923	0.468987	-0.154495	-0.257016	0.466787	-0.243892	-0.336228	0.375807	-0.133038	-0.296628	0.365240	-0.133616	-0.340969	0.331904	-0.130396	-0.293763	0.327253	-0.137561	-0.353748	0.098009	-0.174789	-0.347374	0.094668	-0.257473	-0.252401	0.040200	-0.139846	-0.233747	0.032865	-0.246180	-0.171554	0.058194	-0.189696	-0.429330	0.073059	-0.223821	-0.399477	0.699329	-0.460142	-0.348428	0.706270	-0.456719	-0.396584	0.656561	-0.460379	-0.343956	0.666111	-0.459890	-0.340826	0.459047	-0.443217	-0.340833	0.449070	-0.335909	-0.452199	0.429724	-0.466867	-0.428134	0.387800	-0.450748	-0.494467	0.411839	-0.468755	-0.470958	0.372467	-0.451704	-0.715700	0.305895	-0.423255	-0.695398	0.279896	-0.346093	-0.720902	0.177498	-0.471354	-0.718864	0.159768	-0.368231	-0.674535	0.118051	-0.429939	-0.756226	0.352157	-0.382827	-0.327642	1.322396	-0.093268	-0.295366	1.347353	-0.407903	
67	0.3300	-0.356765	0.920622	-0.164163	-0.345324	0.914390	-0.390437	-0.510226	0.924895	-0.241170	-0.509493	0.930066	-0.337450	-0.378749	0.707127	-0.118940	-0.324748	0.726624	-0.116069	-0.352724	0.658254	-0.116748	-0.298591	0.677153	-0.118997	-0.252822	0.467263	-0.154355	-0.245914	0.465140	-0.243631	-0.326946	0.375791	-0.132483	-0.287515	0.364156	-0.133579	-0.332734	0.331954	-0.129978	-0.285663	0.326037	-0.137648	-0.352898	0.098291	-0.174794	-0.347037	0.094800	-0.257854	-0.252884	0.038844	-0.140030	-0.234285	0.031233	-0.246573	-0.171473	0.055271	-0.189912	-0.429768	0.074258	-0.223978	-0.380678	0.698942	-0.459177	-0.329587	0.706960	-0.455820	-0.376773	0.656223	-0.459314	-0.324259	0.666910	-0.458969	-0.316181	0.460225	-0.441797	-0.316220	0.450578	-0.334253	-0.426722	0.429850	-0.465121	-0.402437	0.388107	-0.449069	-0.468773	0.411739	-0.467028	-0.445154	0.372580	-0.449960	-0.688925	0.304432	-0.421298	-0.668442	0.278865	-0.344095	-0.690210	0.176920	-0.469917	-0.688500	0.158971	-0.366778	-0.642777	0.119051	-0.428389	-0.730935	0.349287	-0.381044	-0.312026	1.320707	-0.092358	-0.281752	1.347331	-0.407977	
68	0.3350	-0.341519	0.920840	-0.163509	-0.330531	0.914165	-0.390012	-0.495117	0.924831	-0.240403	-0.494709	0.929321	-0.336780	-0.364920	0.707038	-0.118285	-0.310794	0.725984	-0.115483	-0.339507	0.657934	-0.116257	-0.285229	0.676242	-0.118490	-0.242399	0.465565	-0.154210	-0.235492	0.463518	-0.243372	-0.318279	0.375753	-0.131966	-0.279014	0.363110	-0.133527	-0.325060	0.331995	-0.129597	-0.278135	0.324872	-0.137709	-0.352180	0.098678	-0.174783	-0.346811	0.095054	-0.258197	-0.253420	0.037788	-0.140192	-0.234893	0.029996	-0.246925	-0.171539	0.052851	-0.190091	-0.430216	0.075435	-0.224097	-0.362418	0.698780	-0.458204	-0.311293	0.707853	-0.454955	-0.357517	0.656124	-0.458237	-0.305128	0.667924	-0.458081	-0.292151	0.461692	-0.440395	-0.292168	0.452375	-0.332634	-0.401814	0.430074	-0.463352	-0.377230	0.388563	-0.447407	-0.443600	0.411654	-0.465284	-0.419792	0.372751	-0.448234	-0.662376	0.302449	-0.419368	-0.641666	0.277389	-0.342121	-0.659577	0.175823	-0.468453	-0.658145	0.157705	-0.365282	-0.610973	0.119672	-0.426764	-0.705945	0.345828	-0.379299	-0.296736	1.319323	-0.091575	-0.268460	1.347444	-0.408066	
69	0.3400	-0.326726	0.921125	-0.162889	-0.316219	0.914067	-0.389607	-0.480454	0.924933	-0.239623	-0.480369	0.928770	-0.336083	-0.351665	0.707029	-0.117664	-0.297405	0.725390	-0.114911	-0.326893	0.657681	-0.115790	-0.272461	0.675362	-0.117985	-0.232680	0.463895	-0.154062	-0.225775	0.461928	-0.243117	-0.310240	0.375687	-0.131492	-0.271139	0.362102	-0.133461	-0.317957	0.332021	-0.129257	-0.271187	0.323760	-0.137748	-0.351558	0.099154	-0.174755	-0.346655	0.095415	-0.258501	-0.253969	0.037013	-0.140331	-0.235527	0.029126	-0.247235	-0.171707	0.050910	-0.190231	-0.430637	0.076584	-0.224178	-0.344790	0.698830	-0.457233	-0.293642	0.708930	-0.454131	-0.338918	0.656247	-0.457162	-0.286664	0.669129	-0.457231	-0.268880	0.463414	-0.439025	-0.268820	0.454421	-0.331067	-0.377631	0.430391	-0.461579	-0.352677	0.389156	-0.445779	-0.419111	0.411590	-0.463542	-0.395040	0.372977	-0.446544	-0.636256	0.300011	-0.417480	-0.615273	0.275520	-0.340188	-0.629265	0.174265	-0.466974	-0.628055	0.156026	-0.363756	-0.579406	0.119938	-0.425085	-0.681428	0.341866	-0.377601	-0.281861	1.318247	-0.090917	-0.255566	1.347686	-0.408165	
70	0.3450	-0.312467	0.921463	-0.162307	-0.302461	0.914087	-0.389223	-0.466316	0.925178	-0.238837	-0.466551	0.928402	-0.335367	-0.339041	0.707083	-0.117081	-0.284639	0.724834	-0.114357	-0.314933	0.657481	-0.115352	-0.260340	0.674509	-0.117488	-0.223683	0.462262	-0.153914	-0.216782	0.460374	-0.242870	-0.302839	0.375590	-0.131068	-0.263896	0.361134	-0.133385	-0.311429	0.332026	-0.128962	-0.264819	0.322702	-0.137765	-0.351003	0.099704	-0.174714	-0.346535	0.095864	-0.258767	-0.254501	0.036493	-0.140446	-0.236153	0.028589	-0.247501	-0.171940	0.049415	-0.190333	-0.430999	0.077702	-0.224226	-0.327888	0.699073	-0.456273	-0.276726	0.710164	-0.453352	-0.321075	0.656574	-0.456098	-0.268963	0.670497	-0.456427	-0.246504	0.465350	-0.437702	-0.246316	0.456671	-0.329566	-0.354324	0.430792	-0.459821	-0.328939	0.389869	-0.444203	-0.395466	0.411550	-0.461821	-0.371069	0.373255	-0.444905	-0.610765	0.297188	-0.415644	-0.589470	0.273317	-0.338309	-0.599536	0.172313	-0.465491	-0.598491	0.153999	-0.362213	-0.548363	0.119877	-0.423371	-0.657556	0.337494	-0.375959	-0.267489	1.317470	-0.090378	-0.243147	1.348049	-0.408269	
71	0.3500	-0.298818	0.921843	-0.161763	-0.289329	0.914214	-0.388862	-0.452782	0.925547	-0.238053	-0.453328	0.928199	-0.334640	-0.327103	0.707188	-0.116542	-0.272553	0.724310	-0.113827	-0.303674	0.657325	-0.114945	-0.248914	0.673681	-0.117003	-0.215418	0.460674	-0.153767	-0.208522	0.458864	-0.242634	-0.296077	0.375461	-0.130697	-0.257287	0.360208	-0.133301	-0.305475	0.332009	-0.128714	-0.259029	0.321699	-0.137765	-0.350493	0.100310	-0.174662	-0.346428	0.096385	-0.258993	-0.254995	0.036200	-0.140539	-0.236744	0.028343	-0.247724	-0.172206	0.048323	-0.190399	-0.431284	0.078782	-0.224243	-0.311798	0.699487	-0.455335	-0.260631	0.711526	-0.452623	-0.304083	0.657079	-0.455057	-0.252119	0.671996	-0.455671	-0.225157	0.467457	-0.436439	-0.224791	0.459077	-0.328145	-0.332040	0.431266	-0.458097	-0.306176	0.390684	-0.442692	-0.372818	0.411534	-0.460138	-0.348042	0.373578	-0.443332	-0.586101	0.294056	-0.413873	-0.564462	0.270846	-0.336497	-0.570648	0.170041	-0.464019	-0.569709	0.151692	-0.360671	-0.518125	0.119526	-0.421646	-0.634501	0.332810	-0.374382	-0.253708	1.316978	-0.089953	-0.231277	1.348523	-0.408374	
72	0.3550	-0.285856	0.922250	-0.161261	-0.276888	0.914434	-0.388524	-0.439927	0.926015	-0.237278	-0.440775	0.928142	-0.333909	-0.315900	0.707331	-0.116047	-0.261198	0.723815	-0.113325	-0.293153	0.657203	-0.114573	-0.238225	0.672880	-0.116536	-0.207886	0.459139	-0.153624	-0.200997	0.457408	-0.242411	-0.289948	0.375303	-0.130379	-0.251306	0.359326	-0.133213	-0.300087	0.331969	-0.128513	-0.253807	0.320755	-0.137748	-0.350011	0.100957	-0.174600	-0.346314	0.096959	-0.259184	-0.255434	0.036103	-0.140611	-0.237281	0.028346	-0.247905	-0.172481	0.047589	-0.190432	-0.431480	0.079821	-0.224233	-0.296601	0.700045	-0.454428	-0.245439	0.712983	-0.451947	-0.288030	0.657734	-0.454052	-0.236217	0.673592	-0.454969	-0.204960	0.469688	-0.435247	-0.204373	0.461588	-0.326813	-0.310914	0.431801	-0.456425	-0.284532	0.391580	-0.441260	-0.351310	0.411542	-0.458510	-0.326114	0.373939	-0.441838	-0.562453	0.290696	-0.412179	-0.540444	0.268171	-0.334767	-0.542848	0.167522	-0.462572	-0.541956	0.149176	-0.359144	-0.488962	0.118926	-0.419932	-0.612427	0.327915	-0.372877	-0.240601	1.316751	-0.089633	-0.220024	1.349093	-0.408479	
73	0.3600	-0.273649	0.922671	-0.160800	-0.265201	0.914731	-0.388210	-0.427820	0.926558	-0.236520	-0.428956	0.928210	-0.333184	-0.305474	0.707499	-0.115600	-0.250619	0.723347	-0.112852	-0.283404	0.657108	-0.114237	-0.228307	0.672106	-0.116092	-0.201081	0.457670	-0.153487	-0.194199	0.456016	-0.242203	-0.284443	0.375118	-0.130115	-0.245940	0.358493	-0.133124	-0.295255	0.331908	-0.128359	-0.249138	0.319872	-0.137719	-0.349547	0.101626	-0.174532	-0.346182	0.097568	-0.259340	-0.255811	0.036168	-0.140663	-0.237752	0.028553	-0.248046	-0.172747	0.047163	-0.190436	-0.431582	0.080815	-0.224202	-0.282370	0.700721	-0.453562	-0.231220	0.714502	-0.451326	-0.272993	0.658511	-0.453091	-0.221332	0.675250	-0.454322	-0.186019	0.471994	-0.434135	-0.185174	0.464154	-0.325580	-0.291065	0.432381	-0.454822	-0.264141	0.392534	-0.439918	-0.331070	0.411574	-0.456953	-0.305424	0.374330	-0.440435	-0.539997	0.287188	-0.410572	-0.517600	0.265361	-0.333129	-0.516365	0.164834	-0.461165	-0.515466	0.146521	-0.357651	-0.461126	0.118122	-0.418249	-0.591488	0.322909	-0.371454	-0.228242	1.316760	-0.089407	-0.209452	1.349741	-0.408580	
74	0.3650	-0.262259	0.923096	-0.160382	-0.254320	0.915090	-0.387921	-0.416522	0.927153	-0.235788	-0.417931	0.928381	-0.332475	-0.295856	0.707682	-0.115201	-0.240849	0.722902	-0.112414	-0.274448	0.657033	-0.113938	-0.219186	0.671364	-0.115673	-0.194988	0.456275	-0.153358	-0.188115	0.454696	-0.242012	-0.279542	0.374913	-0.129903	-0.241171	0.357712	-0.133034	-0.290960	0.331828	-0.128248	-0.245003	0.319053	-0.137681	-0.349094	0.102303	-0.174459	-0.346026	0.098196	-0.259465	-0.256119	0.036363	-0.140699	-0.238150	0.028922	-0.248152	-0.172990	0.046994	-0.190415	-0.431593	0.081758	-0.224154	-0.269163	0.701486	-0.452744	-0.218032	0.716049	-0.450761	-0.259036	0.659377	-0.452183	-0.207526	0.676934	-0.453733	-0.168426	0.474328	-0.433110	-0.167293	0.466723	-0.324451	-0.272596	0.432993	-0.453304	-0.245117	0.393523	-0.438674	-0.312207	0.411625	-0.455482	-0.286093	0.374741	-0.439131	-0.518888	0.283612	-0.409062	-0.496093	0.262484	-0.331593	-0.491403	0.162049	-0.459810	-0.490446	0.143797	-0.356207	-0.434843	0.117159	-0.416620	-0.571820	0.317891	-0.370118	-0.216700	1.316976	-0.089265	-0.199611	1.350449	-0.408676	
75	0.3700	-0.251735	0.923514	-0.160006	-0.244288	0.915493	-0.387657	-0.406084	0.927777	-0.235089	-0.407748	0.928634	-0.331790	-0.287068	0.707871	-0.114850	-0.231913	0.722483	-0.112010	-0.266300	0.656973	-0.113676	-0.210877	0.670657	-0.115284	-0.189585	0.454966	-0.153239	-0.182721	0.453458	-0.241839	-0.275223	0.374693	-0.129740	-0.236975	0.356987	-0.132948	-0.287180	0.331732	-0.128176	-0.241376	0.318301	-0.137635	-0.348652	0.102972	-0.174385	-0.345844	0.098825	-0.259561	-0.256361	0.036657	-0.140721	-0.238473	0.029408	-0.248225	-0.173201	0.047034	-0.190374	-0.431521	0.082646	-0.224091	-0.257026	0.702310	-0.451982	-0.205921	0.717593	-0.450252	-0.246210	0.660303	-0.451337	-0.194847	0.678610	-0.453202	-0.152250	0.476641	-0.432176	-0.150809	0.469248	-0.323430	-0.255588	0.433619	-0.451884	-0.227553	0.394523	-0.437536	-0.294811	0.411693	-0.454108	-0.268222	0.375163	-0.437934	-0.499260	0.280045	-0.407658	-0.476065	0.259602	-0.330169	-0.468138	0.159239	-0.458521	-0.467079	0.141068	-0.354827	-0.410306	0.116083	-0.415063	-0.553539	0.312953	-0.368877	-0.206029	1.317362	-0.089194	-0.190546	1.351197	-0.408764	
76	0.3750	-0.242117	0.923916	-0.159671	-0.235136	0.915924	-0.387418	-0.396545	0.928410	-0.234430	-0.398443	0.928944	-0.331138	-0.279123	0.708059	-0.114545	-0.223826	0.722089	-0.111644	-0.258962	0.656924	-0.113450	-0.203386	0.669991	-0.114927	-0.184843	0.453751	-0.153129	-0.177989	0.452311	-0.241685	-0.271456	0.374465	-0.129621	-0.233321	0.356322	-0.132866	-0.283889	0.331626	-0.128139	-0.238229	0.317618	-0.137585	-0.348219	0.103621	-0.174311	-0.345637	0.099442	-0.259632	-0.256539	0.037019	-0.140730	-0.238723	0.029973	-0.248271	-0.173376	0.047232	-0.190317	-0.431377	0.083476	-0.224020	-0.245992	0.703165	-0.451279	-0.194916	0.719102	-0.449799	-0.234548	0.661257	-0.450558	-0.183326	0.680245	-0.452728	-0.137541	0.478893	-0.431336	-0.135778	0.471686	-0.322519	-0.240098	0.434246	-0.450572	-0.211517	0.395514	-0.436507	-0.278945	0.411774	-0.452841	-0.251886	0.375585	-0.436848	-0.481218	0.276558	-0.406366	-0.457628	0.256777	-0.328863	-0.446709	0.156470	-0.457310	-0.445512	0.138396	-0.353526	-0.387675	0.114941	-0.413596	-0.536739	0.308181	-0.367735	-0.196271	1.317883	-0.089183	-0.182287	1.351966	-0.408845	
77	0.3800	-0.233428	0.924294	-0.159377	-0.226883	0.916367	-0.387204	-0.387927	0.929033	-0.233818	-0.390038	0.929294	-0.330526	-0.272020	0.708239	-0.114285	-0.216589	0.721723	-0.111316	-0.252427	0.656882	-0.113258	-0.196708	0.669369	-0.114604	-0.180728	0.452637	-0.153030	-0.173884	0.451261	-0.241549	-0.268208	0.374236	-0.129541	-0.230175	0.355718	-0.132790	-0.281055	0.331513	-0.128131	-0.235529	0.317005	-0.137533	-0.347799	0.104237	-0.174240	-0.345410	0.100035	-0.259682	-0.256660	0.037423	-0.140730	-0.238906	0.030580	-0.248294	-0.173512	0.047546	-0.190250	-0.431174	0.084242	-0.223944	-0.236074	0.704026	-0.450641	-0.185031	0.720549	-0.449400	-0.224067	0.662213	-0.449850	-0.172978	0.681810	-0.452311	-0.124322	0.481042	-0.430591	-0.122233	0.473997	-0.321716	-0.226157	0.434858	-0.449377	-0.197052	0.396475	-0.435590	-0.264646	0.411864	-0.451689	-0.237131	0.375998	-0.435876	-0.464837	0.273214	-0.405190	-0.440866	0.254061	-0.327679	-0.427220	0.153800	-0.456187	-0.425857	0.135833	-0.352316	-0.367066	0.113773	-0.412234	-0.521486	0.303649	-0.366697	-0.187453	1.318502	-0.089219	-0.174849	1.352736	-0.408918	
78	0.3850	-0.225677	0.924642	-0.159121	-0.219532	0.916808	-0.387014	-0.380240	0.929630	-0.233258	-0.382541	0.929662	-0.329962	-0.265748	0.708406	-0.114066	-0.210192	0.721385	-0.111026	-0.246677	0.656846	-0.113098	-0.190826	0.668797	-0.114315	-0.177199	0.451631	-0.152943	-0.170366	0.450313	-0.241431	-0.265442	0.374012	-0.129494	-0.227501	0.355178	-0.132721	-0.278645	0.331399	-0.128148	-0.233241	0.316461	-0.137481	-0.347397	0.104811	-0.174171	-0.345171	0.100592	-0.259715	-0.256731	0.037844	-0.140723	-0.239030	0.031199	-0.248299	-0.173612	0.047934	-0.190176	-0.430929	0.084943	-0.223866	-0.227271	0.704868	-0.450070	-0.176261	0.721911	-0.449054	-0.214763	0.663143	-0.449217	-0.163799	0.683280	-0.451949	-0.112592	0.483057	-0.429939	-0.110183	0.476150	-0.321020	-0.213771	0.435445	-0.448303	-0.184171	0.397387	-0.434783	-0.251926	0.411959	-0.450656	-0.223978	0.376395	-0.435018	-0.450159	0.270069	-0.404135	-0.425826	0.251502	-0.326619	-0.409732	0.151278	-0.455160	-0.408184	0.133424	-0.351206	-0.348552	0.112618	-0.410987	-0.507816	0.299420	-0.365763	-0.179585	1.319183	-0.089291	-0.168238	1.353488	-0.408982	
79	0.3900	-0.218857	0.924958	-0.158902	-0.213073	0.917234	-0.386848	-0.373478	0.930188	-0.232752	-0.375946	0.930033	-0.329449	-0.260282	0.708559	-0.113885	-0.204613	0.721077	-0.110773	-0.241685	0.656814	-0.112967	-0.185715	0.668278	-0.114061	-0.174213	0.450734	-0.152867	-0.167389	0.449470	-0.241332	-0.263117	0.373799	-0.129475	-0.225258	0.354702	-0.132659	-0.276622	0.331287	-0.128182	-0.231329	0.315986	-0.137431	-0.347016	0.105337	-0.174108	-0.344926	0.101105	-0.259732	-0.256761	0.038262	-0.140711	-0.239104	0.031805	-0.248290	-0.173679	0.048362	-0.190100	-0.430655	0.085576	-0.223789	-0.219561	0.705671	-0.449566	-0.168587	0.723167	-0.448756	-0.206618	0.664028	-0.448659	-0.155767	0.684635	-0.451638	-0.102329	0.484910	-0.429378	-0.099610	0.478118	-0.320425	-0.202919	0.435994	-0.447354	-0.172861	0.398237	-0.434084	-0.240767	0.412055	-0.449742	-0.212415	0.376768	-0.434271	-0.437194	0.267167	-0.403200	-0.412525	0.249136	-0.325685	-0.394266	0.148945	-0.454235	-0.392523	0.131204	-0.350205	-0.332161	0.111508	-0.409864	-0.495737	0.295546	-0.364936	-0.172661	1.319892	-0.089387	-0.162441	1.354206	-0.409038	
80	0.3950	-0.212945	0.925237	-0.158716	-0.207482	0.917634	-0.386705	-0.367617	0.930697	-0.232304	-0.370231	0.930393	-0.328992	-0.255589	0.708694	-0.113738	-0.199818	0.720801	-0.110556	-0.237413	0.656785	-0.112863	-0.181337	0.667814	-0.113842	-0.171722	0.449949	-0.152802	-0.164907	0.448733	-0.241249	-0.261191	0.373601	-0.129477	-0.223403	0.354289	-0.132606	-0.274950	0.331180	-0.128228	-0.229754	0.315577	-0.137385	-0.346663	0.105809	-0.174051	-0.344683	0.101568	-0.259739	-0.256759	0.038661	-0.140696	-0.239136	0.032375	-0.248270	-0.173717	0.048800	-0.190024	-0.430369	0.086139	-0.223716	-0.212910	0.706417	-0.449128	-0.161970	0.724303	-0.448505	-0.199591	0.664848	-0.448175	-0.148843	0.685860	-0.451375	-0.093482	0.486582	-0.428902	-0.090473	0.479885	-0.319925	-0.193555	0.436497	-0.446527	-0.163080	0.399012	-0.433489	-0.231125	0.412149	-0.448949	-0.202406	0.377110	-0.433631	-0.425918	0.264542	-0.402385	-0.400942	0.246992	-0.324872	-0.380800	0.146831	-0.453416	-0.378860	0.129201	-0.349315	-0.317877	0.110470	-0.408870	-0.485226	0.292063	-0.364212	-0.166660	1.320599	-0.089498	-0.157435	1.354877	-0.409085	
81	0.4000	-0.207906	0.925479	-0.158562	-0.202720	0.918002	-0.386583	-0.362621	0.931151	-0.231914	-0.365359	0.930729	-0.328591	-0.251623	0.708810	-0.113622	-0.195764	0.720558	-0.110373	-0.233816	0.656758	-0.112781	-0.177647	0.667407	-0.113655	-0.169676	0.449273	-0.152747	-0.162870	0.448099	-0.241181	-0.259621	0.373422	-0.129494	-0.221894	0.353937	-0.132561	-0.273589	0.331082	-0.128282	-0.228477	0.315232	-0.137342	-0.346341	0.106223	-0.174000	-0.344449	0.101977	-0.259738	-0.256734	0.039029	-0.140679	-0.239138	0.032896	-0.248244	-0.173731	0.049225	-0.189953	-0.430084	0.086632	-0.223648	-0.207264	0.707095	-0.448756	-0.156357	0.725310	-0.448296	-0.193629	0.665591	-0.447762	-0.142970	0.686943	-0.451157	-0.085982	0.488059	-0.428506	-0.082706	0.481438	-0.319513	-0.185607	0.436948	-0.445820	-0.154763	0.399703	-0.432990	-0.222933	0.412238	-0.448271	-0.193885	0.377419	-0.433093	-0.416275	0.262215	-0.401685	-0.391026	0.245091	-0.324178	-0.369276	0.144957	-0.452702	-0.367143	0.127431	-0.348539	-0.305643	0.109525	-0.408006	-0.476233	0.288992	-0.363591	-0.161545	1.321278	-0.089614	-0.153184	1.355488	-0.409125	
82	0.4050	-0.203688	0.925684	-0.158436	-0.198739	0.918329	-0.386481	-0.358441	0.931546	-0.231582	-0.361281	0.931034	-0.328248	-0.248333	0.708908	-0.113532	-0.192398	0.720347	-0.110222	-0.230840	0.656735	-0.112719	-0.174591	0.667057	-0.113500	-0.168025	0.448702	-0.152702	-0.161227	0.447565	-0.241127	-0.258364	0.373264	-0.129521	-0.220688	0.353643	-0.132523	-0.272500	0.330995	-0.128338	-0.227460	0.314946	-0.137305	-0.346054	0.106580	-0.173956	-0.344232	0.102331	-0.259731	-0.256695	0.039357	-0.140662	-0.239117	0.033356	-0.248216	-0.173728	0.049618	-0.189887	-0.429811	0.087057	-0.223588	-0.202559	0.707694	-0.448444	-0.151681	0.726182	-0.448126	-0.188660	0.666247	-0.447418	-0.138078	0.687882	-0.450980	-0.079739	0.489337	-0.428182	-0.076225	0.482776	-0.319179	-0.178984	0.437343	-0.445227	-0.147820	0.400307	-0.432580	-0.216099	0.412319	-0.447703	-0.186765	0.377690	-0.432648	-0.408183	0.260197	-0.401095	-0.382694	0.243440	-0.323595	-0.359597	0.143332	-0.452092	-0.357284	0.125901	-0.347875	-0.295360	0.108686	-0.407269	-0.468680	0.286342	-0.363066	-0.157264	1.321909	-0.089729	-0.149638	1.356032	-0.409158	
83	0.4100	-0.200229	0.925854	-0.158334	-0.195476	0.918613	-0.386397	-0.355013	0.931880	-0.231304	-0.357938	0.931302	-0.327960	-0.245656	0.708989	-0.113464	-0.189657	0.720169	-0.110099	-0.228427	0.656713	-0.112674	-0.172112	0.666763	-0.113372	-0.166718	0.448231	-0.152666	-0.159927	0.447124	-0.241085	-0.257377	0.373129	-0.129554	-0.219743	0.353402	-0.132492	-0.271647	0.330919	-0.128394	-0.226666	0.314714	-0.137273	-0.345804	0.106880	-0.173919	-0.344035	0.102629	-0.259720	-0.256647	0.039640	-0.140646	-0.239082	0.033751	-0.248186	-0.173713	0.049969	-0.189829	-0.429561	0.087415	-0.223535	-0.198715	0.708211	-0.448189	-0.147864	0.726921	-0.447989	-0.184602	0.666811	-0.447136	-0.134086	0.688676	-0.450837	-0.074649	0.490417	-0.427923	-0.070926	0.483901	-0.318914	-0.173578	0.437680	-0.444741	-0.142141	0.400821	-0.432251	-0.210514	0.412390	-0.447237	-0.180937	0.377922	-0.432288	-0.401530	0.258488	-0.400608	-0.375837	0.242040	-0.323116	-0.351636	0.141957	-0.451583	-0.349158	0.124610	-0.347320	-0.286897	0.107963	-0.406655	-0.462466	0.284106	-0.362632	-0.153754	1.322475	-0.089838	-0.146742	1.356503	-0.409184	
84	0.4150	-0.197458	0.925991	-0.158255	-0.192863	0.918852	-0.386330	-0.352267	0.932156	-0.231078	-0.355258	0.931530	-0.327724	-0.243528	0.709053	-0.113414	-0.187477	0.720021	-0.110001	-0.226514	0.656695	-0.112641	-0.170145	0.666521	-0.113271	-0.165706	0.447851	-0.152638	-0.158922	0.446770	-0.241053	-0.256618	0.373016	-0.129588	-0.219019	0.353210	-0.132468	-0.270993	0.330856	-0.128445	-0.226060	0.314530	-0.137246	-0.345592	0.107125	-0.173888	-0.343864	0.102875	-0.259708	-0.256597	0.039877	-0.140632	-0.239041	0.034079	-0.248159	-0.173690	0.050269	-0.189780	-0.429339	0.087710	-0.223490	-0.195647	0.708644	-0.447986	-0.144818	0.727530	-0.447882	-0.181365	0.667283	-0.446911	-0.130902	0.689330	-0.450726	-0.070592	0.491306	-0.427721	-0.066693	0.484824	-0.318710	-0.169267	0.437961	-0.444351	-0.137604	0.401247	-0.431992	-0.206055	0.412452	-0.446865	-0.176276	0.378117	-0.432004	-0.396188	0.257078	-0.400216	-0.370326	0.240885	-0.322732	-0.345241	0.140823	-0.451167	-0.342618	0.123549	-0.346866	-0.280094	0.107357	-0.406155	-0.457472	0.282268	-0.362281	-0.150942	1.322967	-0.089935	-0.144430	1.356901	-0.409204	
