PathFileType	4	(X/Y/Z)	 P13 130r2 05.trc
DataRate	CameraRate	NumFrames	NumMarkers	Units	OrigDataRate	OrigDataStartFrame	OrigNumFrames
200	200	75	38	m	200	1	75
Frame#	Time	RASIS			LASIS			RPSIS			LPSIS			RThighRear1			RThighFront1			RThighRear2			RThighFront2			RKneeLat			RKneeMed			RShankRear1			RShankFront1			RShankRear2			RShankFront2			RAnkleLat			RAnkleMed			RM5			RM1			RMid			RHeel			LThighRear1			LThighFront1			LThighRear2			LThighFront2			LKneeLat			LKneeMed			LShankRear1			LShankFront1			LShankRear2			LShankFront2			LAnkleLat			LAnkleMed			LM5			LM1			LMid			LHeel			RShoulder			LShoulder			
		X1	Y1	Z1	X2	Y2	Z2	X3	Y3	Z3	X4	Y4	Z4	X5	Y5	Z5	X6	Y6	Z6	X7	Y7	Z7	X8	Y8	Z8	X9	Y9	Z9	X10	Y10	Z10	X11	Y11	Z11	X12	Y12	Z12	X13	Y13	Z13	X14	Y14	Z14	X15	Y15	Z15	X16	Y16	Z16	X17	Y17	Z17	X18	Y18	Z18	X19	Y19	Z19	X20	Y20	Z20	X21	Y21	Z21	X22	Y22	Z22	X23	Y23	Z23	X24	Y24	Z24	X25	Y25	Z25	X26	Y26	Z26	X27	Y27	Z27	X28	Y28	Z28	X29	Y29	Z29	X30	Y30	Z30	X31	Y31	Z31	X32	Y32	Z32	X33	Y33	Z33	X34	Y34	Z34	X35	Y35	Z35	X36	Y36	Z36	X37	Y37	Z37	X38	Y38	Z38	
1	0.0000	-1.421301	0.912095	-0.181382	-1.380200	0.902075	-0.405396	-1.559127	0.941508	-0.280196	-1.547303	0.939050	-0.374448	-1.521986	0.703417	-0.144552	-1.467242	0.700578	-0.137010	-1.516768	0.647493	-0.142590	-1.460049	0.643356	-0.136272	-1.514979	0.426411	-0.170026	-1.495877	0.414715	-0.266849	-1.632719	0.447373	-0.165825	-1.622187	0.404802	-0.159508	-1.673641	0.429528	-0.167682	-1.654269	0.385498	-0.167376	-1.880788	0.325687	-0.220200	-1.872542	0.307745	-0.297304	-1.931276	0.206848	-0.176426	-1.915854	0.177997	-0.275186	-1.890604	0.131596	-0.209671	-1.923579	0.378890	-0.280307	-1.370592	0.719089	-0.476040	-1.324570	0.739777	-0.459046	-1.356185	0.678645	-0.476003	-1.308606	0.702485	-0.462304	-1.246868	0.512968	-0.442092	-1.261736	0.498240	-0.354038	-1.274460	0.398120	-0.488607	-1.230638	0.403231	-0.465864	-1.271587	0.351961	-0.497517	-1.228860	0.358291	-0.473059	-1.241357	0.097232	-0.481392	-1.235465	0.106697	-0.397502	-1.105504	0.070042	-0.496417	-1.116594	0.071867	-0.391138	-1.053460	0.111835	-0.439117	-1.300771	0.065883	-0.462277	-1.268153	1.310052	-0.180290	-1.263995	1.284880	-0.496647	
2	0.0050	-1.406977	0.911001	-0.181567	-1.366066	0.901434	-0.405702	-1.545443	0.939501	-0.280427	-1.533664	0.937608	-0.374753	-1.504199	0.701340	-0.144679	-1.449646	0.699759	-0.136531	-1.497787	0.645752	-0.142242	-1.441209	0.642892	-0.135475	-1.490739	0.425735	-0.168818	-1.470930	0.414265	-0.265720	-1.608383	0.446182	-0.165520	-1.597698	0.403611	-0.158972	-1.649295	0.428207	-0.167589	-1.629669	0.384146	-0.167005	-1.855673	0.323416	-0.221442	-1.846713	0.305155	-0.298451	-1.903680	0.204846	-0.176638	-1.887213	0.175266	-0.275079	-1.861416	0.130076	-0.209036	-1.898629	0.375739	-0.282140	-1.357189	0.717418	-0.476364	-1.310986	0.737913	-0.459665	-1.342997	0.676947	-0.476315	-1.295218	0.700522	-0.462755	-1.233808	0.511005	-0.441988	-1.248861	0.496661	-0.353740	-1.263061	0.397101	-0.488039	-1.219321	0.400974	-0.465034	-1.261258	0.351159	-0.496936	-1.218770	0.356159	-0.472270	-1.239319	0.097235	-0.480728	-1.233458	0.105967	-0.396680	-1.104206	0.067724	-0.496202	-1.115452	0.068893	-0.390518	-1.051567	0.107252	-0.438403	-1.299588	0.066819	-0.461718	-1.254516	1.308678	-0.180259	-1.249533	1.281426	-0.497199	
3	0.0100	-1.392469	0.909899	-0.181762	-1.351730	0.900778	-0.406013	-1.531569	0.937481	-0.280668	-1.519827	0.936151	-0.375066	-1.486148	0.699275	-0.144800	-1.431792	0.698974	-0.136049	-1.478514	0.644036	-0.141882	-1.422085	0.642478	-0.134672	-1.466110	0.425124	-0.167592	-1.445582	0.413894	-0.264565	-1.583681	0.445007	-0.165212	-1.572825	0.402435	-0.158428	-1.624583	0.426882	-0.167491	-1.604682	0.382789	-0.166627	-1.830184	0.321014	-0.222695	-1.820498	0.302458	-0.299614	-1.875632	0.202665	-0.176864	-1.858089	0.172392	-0.274994	-1.831708	0.128410	-0.208424	-1.873358	0.372447	-0.283980	-1.343629	0.715706	-0.476691	-1.297238	0.735994	-0.460288	-1.329663	0.675203	-0.476627	-1.281679	0.698499	-0.463210	-1.220659	0.508955	-0.441891	-1.235880	0.494997	-0.353446	-1.251591	0.396010	-0.487477	-1.207939	0.398633	-0.464211	-1.250872	0.350293	-0.496359	-1.208635	0.353946	-0.471479	-1.237306	0.097221	-0.480055	-1.231483	0.105219	-0.395847	-1.102905	0.065443	-0.495984	-1.114304	0.065954	-0.389899	-1.049676	0.102700	-0.437697	-1.298431	0.067717	-0.461153	-1.240689	1.307291	-0.180223	-1.234854	1.277984	-0.497740	
4	0.0150	-1.377792	0.908802	-0.181966	-1.337203	0.900113	-0.406329	-1.517514	0.935465	-0.280919	-1.505798	0.934692	-0.375386	-1.467847	0.697252	-0.144910	-1.413695	0.698254	-0.135566	-1.458965	0.642380	-0.141507	-1.402694	0.642150	-0.133868	-1.441111	0.424620	-0.166349	-1.419856	0.413647	-0.263385	-1.558635	0.443862	-0.164899	-1.547581	0.401293	-0.157876	-1.599521	0.425558	-0.167382	-1.579312	0.381439	-0.166241	-1.804303	0.318440	-0.223943	-1.793882	0.299624	-0.300778	-1.847090	0.200255	-0.177103	-1.828445	0.169352	-0.274932	-1.801431	0.126577	-0.207846	-1.847762	0.368961	-0.285801	-1.329938	0.713956	-0.477020	-1.283353	0.734020	-0.460908	-1.316213	0.673415	-0.476935	-1.268022	0.696415	-0.463665	-1.207480	0.506808	-0.441800	-1.222851	0.493237	-0.353159	-1.240109	0.394835	-0.486928	-1.196554	0.396204	-0.463405	-1.240487	0.349353	-0.495793	-1.198513	0.351646	-0.470694	-1.235337	0.097193	-0.479377	-1.229562	0.104459	-0.395009	-1.101614	0.063226	-0.495765	-1.113159	0.063082	-0.389288	-1.047805	0.098229	-0.437007	-1.297320	0.068563	-0.460587	-1.226684	1.305904	-0.180176	-1.219958	1.274599	-0.498252	
5	0.0200	-1.362955	0.907725	-0.182181	-1.322489	0.899440	-0.406646	-1.503280	0.933472	-0.281181	-1.491574	0.933245	-0.375713	-1.449303	0.695305	-0.145006	-1.395363	0.697630	-0.135084	-1.439145	0.640820	-0.141118	-1.383046	0.641943	-0.133066	-1.415757	0.424267	-0.165092	-1.393769	0.413574	-0.262179	-1.533255	0.442759	-0.164577	-1.521967	0.400204	-0.157314	-1.574112	0.424239	-0.167255	-1.553556	0.380108	-0.165841	-1.777996	0.315648	-0.225170	-1.766835	0.296623	-0.301930	-1.817994	0.197571	-0.177353	-1.798223	0.166127	-0.274897	-1.770518	0.124555	-0.207310	-1.821823	0.365225	-0.287577	-1.316138	0.712174	-0.477346	-1.269350	0.731990	-0.461520	-1.302672	0.671587	-0.477233	-1.254270	0.694268	-0.464116	-1.194330	0.504554	-0.441718	-1.209829	0.491372	-0.352881	-1.228671	0.393569	-0.486396	-1.185226	0.393685	-0.462626	-1.230158	0.348333	-0.495242	-1.188460	0.349258	-0.469920	-1.233433	0.097150	-0.478700	-1.227717	0.103693	-0.394171	-1.100344	0.061096	-0.495548	-1.112029	0.060307	-0.388694	-1.045970	0.093885	-0.436342	-1.296272	0.069349	-0.460023	-1.212509	1.304533	-0.180112	-1.204838	1.271314	-0.498718	
6	0.0250	-1.347961	0.906679	-0.182406	-1.307586	0.898765	-0.406963	-1.488861	0.931521	-0.281453	-1.477148	0.931825	-0.376043	-1.430516	0.693465	-0.145083	-1.376799	0.697135	-0.134606	-1.419056	0.639391	-0.140711	-1.363143	0.641893	-0.132271	-1.390052	0.424109	-0.163823	-1.367332	0.413723	-0.260946	-1.507543	0.441712	-0.164243	-1.495978	0.399187	-0.156739	-1.548350	0.422929	-0.167104	-1.527398	0.378809	-0.165423	-1.751215	0.312595	-0.226357	-1.739313	0.293424	-0.303054	-1.788269	0.194568	-0.177609	-1.767353	0.162700	-0.274890	-1.738891	0.122331	-0.206826	-1.795505	0.361180	-0.289283	-1.302243	0.710364	-0.477666	-1.255245	0.729903	-0.462118	-1.289061	0.669722	-0.477518	-1.240443	0.692057	-0.464558	-1.181263	0.502186	-0.441644	-1.196865	0.489394	-0.352613	-1.217332	0.392205	-0.485889	-1.174009	0.391072	-0.461884	-1.219936	0.347226	-0.494713	-1.178530	0.346779	-0.469164	-1.231610	0.097095	-0.478026	-1.225966	0.102930	-0.393338	-1.099105	0.059073	-0.495338	-1.110921	0.057654	-0.388124	-1.044187	0.089713	-0.435708	-1.295305	0.070065	-0.459466	-1.198164	1.303195	-0.180027	-1.189480	1.268174	-0.499118	
7	0.0300	-1.332808	0.905680	-0.182642	-1.292490	0.898090	-0.407277	-1.474251	0.929630	-0.281736	-1.462509	0.930447	-0.376377	-1.411485	0.691767	-0.145137	-1.358002	0.696802	-0.134134	-1.398696	0.638129	-0.140285	-1.342986	0.642036	-0.131486	-1.364002	0.424189	-0.162544	-1.340555	0.414142	-0.259685	-1.481501	0.440729	-0.163892	-1.469605	0.398262	-0.156148	-1.522226	0.421629	-0.166919	-1.500822	0.377554	-0.164982	-1.723903	0.309238	-0.227486	-1.711264	0.289997	-0.304133	-1.757833	0.191208	-0.177867	-1.735757	0.159059	-0.274910	-1.706464	0.119894	-0.206398	-1.768763	0.356771	-0.290890	-1.288266	0.708532	-0.477976	-1.241048	0.727758	-0.462694	-1.275396	0.667827	-0.477785	-1.226560	0.689780	-0.464987	-1.168327	0.499699	-0.441580	-1.184008	0.487298	-0.352356	-1.206140	0.390739	-0.485411	-1.162954	0.388366	-0.461187	-1.209869	0.346029	-0.494209	-1.168770	0.344212	-0.468429	-1.229882	0.097032	-0.477362	-1.224324	0.102177	-0.392515	-1.097907	0.057173	-0.495136	-1.109846	0.055146	-0.387586	-1.042467	0.085751	-0.435110	-1.294433	0.070708	-0.458921	-1.183649	1.301908	-0.179912	-1.173867	1.265222	-0.499432	
8	0.0350	-1.317490	0.904741	-0.182888	-1.277191	0.897421	-0.407584	-1.459436	0.927819	-0.282028	-1.447643	0.929127	-0.376714	-1.392205	0.690241	-0.145165	-1.338969	0.696662	-0.133671	-1.378062	0.637068	-0.139841	-1.322574	0.642405	-0.130715	-1.337614	0.424548	-0.161258	-1.313448	0.414873	-0.258397	-1.455126	0.439821	-0.163519	-1.442839	0.397445	-0.155539	-1.495729	0.420342	-0.166693	-1.473809	0.376356	-0.164511	-1.695999	0.305538	-0.228538	-1.682631	0.286316	-0.305148	-1.726599	0.187462	-0.178121	-1.703354	0.155199	-0.274956	-1.673150	0.117244	-0.206031	-1.741543	0.351942	-0.292371	-1.274214	0.706686	-0.478272	-1.226767	0.725557	-0.463243	-1.261690	0.665907	-0.478030	-1.212631	0.687438	-0.465398	-1.155566	0.497090	-0.441524	-1.171304	0.485080	-0.352109	-1.195141	0.389171	-0.484967	-1.152108	0.385571	-0.460543	-1.200000	0.344743	-0.493735	-1.159224	0.341561	-0.467722	-1.228262	0.096965	-0.476711	-1.222802	0.101444	-0.391708	-1.096760	0.055407	-0.494945	-1.108812	0.052800	-0.387087	-1.040824	0.082031	-0.434555	-1.293668	0.071277	-0.458391	-1.168961	1.300692	-0.179762	-1.157981	1.262501	-0.499642	
9	0.0400	-1.301999	0.903879	-0.183141	-1.261683	0.896763	-0.407879	-1.444405	0.926108	-0.282328	-1.432537	0.927881	-0.377050	-1.372674	0.688918	-0.145163	-1.319699	0.696742	-0.133218	-1.357155	0.636242	-0.139376	-1.301909	0.643030	-0.129960	-1.310898	0.425222	-0.159966	-1.286029	0.415957	-0.257083	-1.428419	0.438994	-0.163119	-1.415671	0.396753	-0.154906	-1.468848	0.419067	-0.166417	-1.446343	0.375226	-0.164006	-1.667439	0.301464	-0.229494	-1.653356	0.282358	-0.306082	-1.694480	0.183310	-0.178364	-1.670066	0.151123	-0.275024	-1.638867	0.114390	-0.205727	-1.713786	0.346644	-0.293697	-1.260094	0.704833	-0.478551	-1.212409	0.723302	-0.463760	-1.247953	0.663970	-0.478248	-1.198667	0.685034	-0.465787	-1.143022	0.494361	-0.441478	-1.158795	0.482743	-0.351873	-1.184377	0.387505	-0.484560	-1.141512	0.382695	-0.459961	-1.190371	0.343372	-0.493294	-1.149932	0.338835	-0.467046	-1.226756	0.096901	-0.476079	-1.221408	0.100743	-0.390925	-1.095672	0.053784	-0.494769	-1.107828	0.050629	-0.386635	-1.039266	0.078583	-0.434045	-1.293019	0.071776	-0.457882	-1.154096	1.299566	-0.179571	-1.141801	1.260051	-0.499729	
10	0.0450	-1.286330	0.903107	-0.183401	-1.245959	0.896123	-0.408160	-1.429145	0.924514	-0.282635	-1.417176	0.926725	-0.377385	-1.352891	0.687827	-0.145128	-1.300192	0.697070	-0.132777	-1.335978	0.635677	-0.138891	-1.280995	0.643939	-0.129224	-1.283871	0.426243	-0.158672	-1.258319	0.417428	-0.255742	-1.401384	0.438252	-0.162687	-1.388101	0.396200	-0.154248	-1.441579	0.417804	-0.166083	-1.418413	0.374175	-0.163460	-1.638164	0.296988	-0.230333	-1.623385	0.278108	-0.306914	-1.661396	0.178743	-0.178588	-1.635822	0.146842	-0.275110	-1.603545	0.111351	-0.205487	-1.685431	0.340836	-0.294840	-1.245910	0.702984	-0.478809	-1.197977	0.720999	-0.464237	-1.234195	0.662028	-0.478435	-1.184679	0.682572	-0.466148	-1.130728	0.491518	-0.441441	-1.146519	0.480291	-0.351646	-1.173882	0.385750	-0.484195	-1.131203	0.379748	-0.459447	-1.181014	0.341924	-0.492889	-1.140926	0.336048	-0.466407	-1.225367	0.096850	-0.475472	-1.220143	0.100086	-0.390170	-1.094651	0.052307	-0.494610	-1.106902	0.048643	-0.386235	-1.037803	0.075427	-0.433584	-1.292490	0.072214	-0.457397	-1.139052	1.298550	-0.179331	-1.125312	1.257909	-0.499674	
11	0.0500	-1.270476	0.902440	-0.183664	-1.230012	0.895505	-0.408421	-1.413647	0.923057	-0.282947	-1.401551	0.925677	-0.377717	-1.332863	0.686991	-0.145057	-1.280453	0.697667	-0.132349	-1.314539	0.635401	-0.138387	-1.259841	0.645153	-0.128510	-1.256559	0.427637	-0.157379	-1.230351	0.419311	-0.254378	-1.374034	0.437597	-0.162218	-1.360136	0.395798	-0.153560	-1.413921	0.416549	-0.165683	-1.390017	0.373213	-0.162867	-1.608117	0.292095	-0.231036	-1.592668	0.273553	-0.307625	-1.627279	0.173766	-0.178782	-1.600562	0.142377	-0.275205	-1.567124	0.108155	-0.205306	-1.656420	0.334482	-0.295775	-1.231666	0.701152	-0.479040	-1.183477	0.718653	-0.464671	-1.220424	0.660091	-0.478587	-1.170673	0.680061	-0.466479	-1.118715	0.488571	-0.441413	-1.134512	0.477737	-0.351427	-1.163688	0.383920	-0.483873	-1.121210	0.376747	-0.459005	-1.171959	0.340412	-0.492521	-1.132233	0.333216	-0.465808	-1.224093	0.096820	-0.474893	-1.219004	0.099486	-0.389450	-1.093704	0.050973	-0.494472	-1.106042	0.046843	-0.385893	-1.036441	0.072576	-0.433173	-1.292082	0.072605	-0.456940	-1.123827	1.297664	-0.179036	-1.108499	1.256108	-0.499461	
12	0.0550	-1.254430	0.901892	-0.183927	-1.213841	0.894919	-0.408657	-1.397902	0.921754	-0.283260	-1.385653	0.924752	-0.378042	-1.312597	0.686434	-0.144949	-1.260492	0.698550	-0.131938	-1.292854	0.635433	-0.137865	-1.238462	0.646688	-0.127819	-1.228998	0.429422	-0.156091	-1.202167	0.421625	-0.252995	-1.346387	0.437028	-0.161706	-1.331790	0.395555	-0.152838	-1.385883	0.415302	-0.165210	-1.361161	0.372350	-0.162222	-1.577254	0.286777	-0.231583	-1.561164	0.268690	-0.308195	-1.592070	0.168397	-0.178937	-1.564240	0.137756	-0.275301	-1.529563	0.104843	-0.205178	-1.626697	0.327559	-0.296477	-1.217366	0.699348	-0.479242	-1.168914	0.716277	-0.465056	-1.206645	0.658175	-0.478703	-1.156656	0.677511	-0.466773	-1.107004	0.485538	-0.441392	-1.122801	0.475095	-0.351212	-1.153819	0.382032	-0.483595	-1.111559	0.373713	-0.458640	-1.163227	0.338853	-0.492192	-1.123873	0.330363	-0.465251	-1.222928	0.096826	-0.474349	-1.217983	0.098959	-0.388772	-1.092837	0.049777	-0.494357	-1.105256	0.045229	-0.385615	-1.035186	0.070038	-0.432813	-1.291788	0.072969	-0.456517	-1.108424	1.296928	-0.178680	-1.091353	1.254676	-0.499074	
13	0.0600	-1.238190	0.901475	-0.184186	-1.197445	0.894371	-0.408863	-1.381906	0.920620	-0.283571	-1.369480	0.923965	-0.378356	-1.292109	0.686171	-0.144802	-1.240322	0.699733	-0.131543	-1.270944	0.635788	-0.137326	-1.216878	0.648554	-0.127155	-1.201232	0.431608	-0.154813	-1.173817	0.424379	-0.251595	-1.318470	0.436541	-0.161146	-1.303089	0.395477	-0.152081	-1.357482	0.414056	-0.164656	-1.331864	0.371592	-0.161519	-1.545537	0.281035	-0.231956	-1.528844	0.263523	-0.308605	-1.555729	0.162670	-0.179039	-1.526829	0.133020	-0.275386	-1.490844	0.101464	-0.205096	-1.596214	0.320055	-0.296920	-1.203014	0.697591	-0.479410	-1.154293	0.713882	-0.465388	-1.192866	0.656297	-0.478777	-1.142636	0.674937	-0.467029	-1.095612	0.482439	-0.441377	-1.111410	0.472386	-0.350999	-1.144293	0.380112	-0.483362	-1.102263	0.370672	-0.458355	-1.154835	0.337270	-0.491902	-1.115858	0.327515	-0.464740	-1.221861	0.096881	-0.473844	-1.217064	0.098522	-0.388142	-1.092057	0.048710	-0.494267	-1.104550	0.043795	-0.385403	-1.034043	0.067813	-0.432501	-1.291599	0.073331	-0.456130	-1.092848	1.296360	-0.178257	-1.073871	1.253637	-0.498502	
14	0.0650	-1.221755	0.901200	-0.184437	-1.180831	0.893872	-0.409034	-1.365657	0.919671	-0.283874	-1.353031	0.923332	-0.378656	-1.271419	0.686215	-0.144617	-1.219964	0.701221	-0.131165	-1.248837	0.636476	-0.136774	-1.195118	0.650754	-0.126517	-1.173317	0.434197	-0.153549	-1.145366	0.427573	-0.250186	-1.290319	0.436128	-0.160533	-1.274069	0.395566	-0.151283	-1.328742	0.412808	-0.164016	-1.302152	0.370947	-0.160753	-1.512942	0.274882	-0.232137	-1.495690	0.258063	-0.308834	-1.518232	0.156629	-0.179076	-1.488317	0.128217	-0.275446	-1.450964	0.098080	-0.205048	-1.564930	0.311966	-0.297085	-1.188615	0.695896	-0.479542	-1.139620	0.711486	-0.465664	-1.179090	0.654475	-0.478810	-1.128617	0.672356	-0.467243	-1.084549	0.479301	-0.441368	-1.100354	0.469638	-0.350786	-1.135119	0.378186	-0.483173	-1.093333	0.367653	-0.458151	-1.146789	0.335689	-0.491650	-1.108191	0.324704	-0.464277	-1.220875	0.097004	-0.473384	-1.216228	0.098193	-0.387568	-1.091369	0.047760	-0.494205	-1.103931	0.042535	-0.385262	-1.033017	0.065893	-0.432237	-1.291496	0.073722	-0.455782	-1.077105	1.295978	-0.177764	-1.056055	1.253007	-0.497733	
15	0.0700	-1.205126	0.901078	-0.184676	-1.164004	0.893431	-0.409165	-1.349157	0.918919	-0.284166	-1.336310	0.922867	-0.378937	-1.250556	0.686575	-0.144392	-1.199441	0.703016	-0.130805	-1.226570	0.637500	-0.136209	-1.173214	0.653282	-0.125909	-1.145318	0.437184	-0.152306	-1.116882	0.431195	-0.248773	-1.261977	0.435781	-0.159864	-1.244775	0.395822	-0.150444	-1.299700	0.411551	-0.163284	-1.272066	0.370417	-0.159921	-1.479457	0.268343	-0.232110	-1.461696	0.252329	-0.308865	-1.479575	0.150335	-0.179034	-1.448715	0.123401	-0.275467	-1.409949	0.094758	-0.205020	-1.532812	0.303305	-0.296953	-1.174173	0.694283	-0.479633	-1.124901	0.709108	-0.465882	-1.165322	0.652730	-0.478799	-1.114604	0.669789	-0.467412	-1.073814	0.476153	-0.441363	-1.089640	0.466878	-0.350570	-1.126300	0.376288	-0.483026	-1.084767	0.364689	-0.458026	-1.139088	0.334141	-0.491435	-1.100869	0.321965	-0.463864	-1.219948	0.097214	-0.472972	-1.215450	0.097991	-0.387053	-1.090779	0.046913	-0.494173	-1.103407	0.041436	-0.385191	-1.032111	0.064267	-0.432018	-1.291456	0.074179	-0.455475	-1.061205	1.295797	-0.177194	-1.037914	1.252796	-0.496758	
16	0.0750	-1.188305	0.901117	-0.184897	-1.146976	0.893058	-0.409250	-1.332412	0.918375	-0.284439	-1.319328	0.922581	-0.379192	-1.229549	0.687251	-0.144130	-1.178785	0.705111	-0.130463	-1.204184	0.638857	-0.135637	-1.151204	0.656128	-0.125329	-1.117306	0.440553	-0.151089	-1.088445	0.435226	-0.247363	-1.233495	0.435487	-0.159135	-1.215263	0.396239	-0.149561	-1.270399	0.410278	-0.162457	-1.241655	0.370004	-0.159018	-1.445087	0.261448	-0.231860	-1.426869	0.246347	-0.308682	-1.439771	0.143857	-0.178898	-1.408051	0.118635	-0.275433	-1.367841	0.091575	-0.204997	-1.499841	0.294092	-0.296508	-1.159691	0.692772	-0.479682	-1.110142	0.706769	-0.466041	-1.151565	0.651084	-0.478744	-1.100600	0.667261	-0.467536	-1.063401	0.473030	-0.441361	-1.079269	0.464143	-0.350348	-1.117827	0.374452	-0.482920	-1.076557	0.361816	-0.457981	-1.131724	0.332660	-0.491255	-1.093877	0.319336	-0.463503	-1.219054	0.097531	-0.472614	-1.214698	0.097938	-0.386606	-1.090293	0.046154	-0.494173	-1.102982	0.040486	-0.385192	-1.031330	0.062914	-0.431840	-1.291450	0.074744	-0.455212	-1.045160	1.295830	-0.176545	-1.019462	1.253009	-0.495572	
17	0.0800	-1.171298	0.901323	-0.185096	-1.129760	0.892764	-0.409287	-1.315430	0.918048	-0.284686	-1.302097	0.922485	-0.379415	-1.208436	0.688240	-0.143833	-1.158027	0.707495	-0.130139	-1.181724	0.640538	-0.135060	-1.129130	0.659272	-0.124779	-1.089360	0.444279	-0.149904	-1.060137	0.439635	-0.245966	-1.204931	0.435230	-0.158344	-1.185594	0.396810	-0.148633	-1.240888	0.408981	-0.161534	-1.210978	0.369710	-0.158043	-1.409845	0.254241	-0.231374	-1.391232	0.240149	-0.308268	-1.398855	0.137276	-0.178653	-1.366374	0.113984	-0.275326	-1.324706	0.088609	-0.204960	-1.466006	0.284362	-0.295737	-1.145174	0.691384	-0.479686	-1.095350	0.704495	-0.466139	-1.137819	0.649560	-0.478644	-1.086608	0.664797	-0.467614	-1.053295	0.469969	-0.441360	-1.069228	0.461467	-0.350118	-1.109687	0.372717	-0.482851	-1.068684	0.359073	-0.458012	-1.124678	0.331283	-0.491108	-1.087194	0.316857	-0.463195	-1.218163	0.097981	-0.472313	-1.213937	0.098054	-0.386229	-1.089916	0.045469	-0.494205	-1.102662	0.039672	-0.385263	-1.030679	0.061811	-0.431699	-1.291441	0.075462	-0.454993	-1.028985	1.296087	-0.175814	-1.000719	1.253642	-0.494173	
18	0.0850	-1.154113	0.901701	-0.185267	-1.112372	0.892560	-0.409270	-1.298223	0.917943	-0.284900	-1.284633	0.922588	-0.379600	-1.187254	0.689532	-0.143501	-1.137203	0.710148	-0.129832	-1.159239	0.642526	-0.134481	-1.107039	0.662688	-0.124259	-1.061561	0.448330	-0.148758	-1.032048	0.444383	-0.244589	-1.176346	0.434992	-0.157489	-1.155838	0.397521	-0.147660	-1.211225	0.407651	-0.160512	-1.180103	0.369530	-0.156994	-1.373764	0.246771	-0.230644	-1.354819	0.233774	-0.307611	-1.356881	0.130680	-0.178284	-1.323751	0.109519	-0.275127	-1.280632	0.085943	-0.204891	-1.431311	0.274160	-0.294631	-1.130624	0.690140	-0.479645	-1.080529	0.702312	-0.466179	-1.124082	0.648181	-0.478501	-1.072626	0.662427	-0.467646	-1.043471	0.467008	-0.441360	-1.059500	0.458890	-0.349878	-1.101854	0.371122	-0.482817	-1.061124	0.356497	-0.458114	-1.117923	0.330047	-0.490992	-1.080787	0.314569	-0.462941	-1.217238	0.098587	-0.472071	-1.213128	0.098364	-0.385929	-1.089651	0.044844	-0.494270	-1.102451	0.038982	-0.385401	-1.030161	0.060932	-0.431592	-1.291387	0.076382	-0.454817	-1.012694	1.296575	-0.174997	-0.981711	1.254685	-0.492559	
19	0.0900	-1.136757	0.902251	-0.185407	-1.094827	0.892456	-0.409196	-1.280806	0.918063	-0.285074	-1.266953	0.922894	-0.379737	-1.166046	0.691112	-0.143139	-1.116351	0.713048	-0.129541	-1.136783	0.644798	-0.133905	-1.084977	0.666342	-0.123768	-1.033992	0.452666	-0.147658	-1.004263	0.449422	-0.243242	-1.147804	0.434755	-0.156570	-1.126069	0.398358	-0.146641	-1.181471	0.406280	-0.159393	-1.149101	0.369461	-0.155870	-1.336886	0.239095	-0.229661	-1.317676	0.227265	-0.306701	-1.313921	0.124161	-0.177775	-1.280265	0.105307	-0.274819	-1.235723	0.083658	-0.204770	-1.395771	0.263539	-0.293188	-1.116044	0.689062	-0.479557	-1.065686	0.700245	-0.466163	-1.110352	0.646970	-0.478315	-1.058654	0.660178	-0.467634	-1.033896	0.464186	-0.441361	-1.050052	0.456449	-0.349627	-1.094295	0.369706	-0.482812	-1.053839	0.354128	-0.458283	-1.111423	0.328992	-0.490902	-1.074619	0.312511	-0.462741	-1.216243	0.099378	-0.471890	-1.212228	0.098889	-0.385707	-1.089504	0.044268	-0.494368	-1.102353	0.038405	-0.385604	-1.029783	0.060245	-0.431514	-1.291239	0.077559	-0.454683	-0.996302	1.297298	-0.174094	-0.962468	1.256123	-0.490735	
20	0.0950	-1.119239	0.902973	-0.185512	-1.077143	0.892464	-0.409062	-1.263192	0.918409	-0.285198	-1.249079	0.923409	-0.379820	-1.144854	0.692960	-0.142750	-1.095508	0.716163	-0.129264	-1.114405	0.647327	-0.133334	-1.062991	0.670195	-0.123305	-1.006736	0.457240	-0.146609	-0.976871	0.454697	-0.241933	-1.119372	0.434499	-0.155587	-1.096363	0.399303	-0.145578	-1.151693	0.404859	-0.158180	-1.118050	0.369495	-0.154672	-1.299269	0.231275	-0.228421	-1.279864	0.220667	-0.305530	-1.270064	0.117814	-0.177114	-1.236018	0.101417	-0.274384	-1.190099	0.081834	-0.204577	-1.359414	0.252562	-0.291405	-1.101433	0.688168	-0.479423	-1.050821	0.698323	-0.466092	-1.096622	0.645950	-0.478090	-1.044686	0.658080	-0.467580	-1.024530	0.461541	-0.441361	-1.040846	0.454182	-0.349365	-1.086969	0.368508	-0.482833	-1.046788	0.352002	-0.458512	-1.105135	0.328154	-0.490836	-1.068642	0.310723	-0.462596	-1.215135	0.100379	-0.471772	-1.211190	0.099654	-0.385566	-1.089477	0.043731	-0.494499	-1.102368	0.037933	-0.385864	-1.029548	0.059719	-0.431461	-1.290945	0.079046	-0.454589	-0.979825	1.298254	-0.173104	-0.943023	1.257932	-0.488705	
21	0.1000	-1.101569	0.903863	-0.185575	-1.059338	0.892593	-0.408865	-1.245399	0.918976	-0.285266	-1.231033	0.924131	-0.379841	-1.123718	0.695050	-0.142337	-1.074712	0.719459	-0.129000	-1.092159	0.650078	-0.132772	-1.041126	0.674204	-0.122871	-0.979873	0.461999	-0.145619	-0.949952	0.460146	-0.240672	-1.091117	0.434201	-0.154542	-1.066797	0.400335	-0.144472	-1.121955	0.403378	-0.156875	-1.087031	0.369622	-0.153401	-1.260982	0.223377	-0.226924	-1.241453	0.214028	-0.304095	-1.225418	0.111733	-0.176287	-1.191125	0.097911	-0.273804	-1.143895	0.080543	-0.204292	-1.322284	0.241301	-0.289287	-1.086789	0.687476	-0.479244	-1.035937	0.696571	-0.465972	-1.082884	0.645138	-0.477829	-1.030715	0.656162	-0.467487	-1.015324	0.459109	-0.441362	-1.031833	0.452123	-0.349091	-1.079827	0.367563	-0.482875	-1.039918	0.350153	-0.458794	-1.099007	0.327570	-0.490789	-1.062802	0.309240	-0.462506	-1.213870	0.101620	-0.471716	-1.209966	0.100679	-0.385508	-1.089573	0.043231	-0.494662	-1.102497	0.037559	-0.386177	-1.029461	0.059321	-0.431430	-1.290446	0.080897	-0.454530	-0.963279	1.299440	-0.172026	-0.923412	1.260085	-0.486478	
22	0.1050	-1.083757	0.904915	-0.185596	-1.041427	0.892851	-0.408605	-1.227445	0.919758	-0.285270	-1.212835	0.925057	-0.379791	-1.102678	0.697352	-0.141904	-1.053998	0.722896	-0.128745	-1.070091	0.653013	-0.132221	-1.019426	0.678320	-0.122462	-0.953478	0.466887	-0.144691	-0.923584	0.465702	-0.239467	-1.063102	0.433842	-0.153438	-1.037448	0.401430	-0.143326	-1.092328	0.401828	-0.155486	-1.056125	0.369831	-0.152062	-1.222108	0.215468	-0.225172	-1.202524	0.207400	-0.302395	-1.180102	0.106006	-0.175283	-1.145712	0.094844	-0.273066	-1.097259	0.079847	-0.203897	-1.284437	0.229831	-0.286842	-1.072110	0.687002	-0.479021	-1.021033	0.695014	-0.465808	-1.069125	0.644553	-0.477534	-1.016730	0.654450	-0.467360	-1.006225	0.456922	-0.441364	-1.022955	0.450303	-0.348807	-1.072811	0.366904	-0.482934	-1.033172	0.348612	-0.459123	-1.092981	0.327274	-0.490760	-1.057039	0.308095	-0.462470	-1.212403	0.103128	-0.471720	-1.208507	0.101988	-0.385532	-1.089790	0.042768	-0.494853	-1.102736	0.037283	-0.386534	-1.029526	0.059017	-0.431417	-1.289681	0.083168	-0.454502	-0.946676	1.300848	-0.170861	-0.903674	1.262549	-0.484066	
23	0.1100	-1.065813	0.906119	-0.185569	-1.023425	0.893246	-0.408279	-1.209346	0.920745	-0.285203	-1.194509	0.926182	-0.379664	-1.081773	0.699831	-0.141455	-1.033398	0.726430	-0.128498	-1.048248	0.656090	-0.131685	-0.997931	0.682490	-0.122078	-0.927617	0.471841	-0.143833	-0.897834	0.471296	-0.238326	-1.035389	0.433398	-0.152280	-1.008389	0.402564	-0.142144	-1.062876	0.400203	-0.154018	-1.025411	0.370109	-0.150657	-1.182738	0.207615	-0.223172	-1.163168	0.200829	-0.300434	-1.134252	0.100717	-0.174095	-1.099917	0.092265	-0.272154	-1.050347	0.079798	-0.203374	-1.245942	0.218233	-0.284085	-1.057388	0.686758	-0.478757	-1.006104	0.693674	-0.465605	-1.055331	0.644206	-0.477210	-1.002719	0.652967	-0.467202	-0.997171	0.455008	-0.441369	-1.014147	0.448747	-0.348513	-1.065858	0.366558	-0.483005	-1.026487	0.347403	-0.459489	-1.086992	0.327293	-0.490743	-1.051288	0.307314	-0.462488	-1.210688	0.104929	-0.471783	-1.206763	0.103600	-0.385636	-1.090126	0.042347	-0.495070	-1.103079	0.037107	-0.386927	-1.029744	0.058777	-0.431420	-1.288584	0.085910	-0.454498	-0.930029	1.302466	-0.169610	-0.883848	1.265288	-0.481482	
24	0.1150	-1.047745	0.907463	-0.185493	-1.005345	0.893783	-0.407888	-1.191120	0.921924	-0.285058	-1.176075	0.927496	-0.379453	-1.061034	0.702449	-0.140993	-1.012940	0.730017	-0.128255	-1.026668	0.659263	-0.131163	-0.976675	0.686661	-0.121717	-0.902349	0.476801	-0.143048	-0.872759	0.476858	-0.237255	-1.008033	0.432852	-0.151073	-0.979690	0.403710	-0.140928	-1.033665	0.398494	-0.152482	-0.994968	0.370439	-0.149193	-1.142977	0.199884	-0.220933	-1.123487	0.194364	-0.298220	-1.088016	0.095938	-0.172715	-1.053889	0.090210	-0.271060	-1.003322	0.080433	-0.202710	-1.206883	0.206590	-0.281033	-1.042615	0.686750	-0.478454	-0.991143	0.692567	-0.465369	-1.041484	0.644107	-0.476861	-0.988665	0.651732	-0.467020	-0.988097	0.453387	-0.441377	-1.005338	0.447474	-0.348211	-1.058902	0.366548	-0.483083	-1.019795	0.346547	-0.459885	-1.080974	0.327652	-0.490735	-1.045480	0.306918	-0.462558	-1.208677	0.107051	-0.471899	-1.204684	0.105535	-0.385816	-1.090574	0.041981	-0.495309	-1.103513	0.037040	-0.387347	-1.030117	0.058573	-0.431436	-1.287089	0.089172	-0.454510	-0.913348	1.304276	-0.168275	-0.863973	1.268262	-0.478742	
25	0.1200	-1.029564	0.908932	-0.185367	-0.987198	0.894465	-0.407431	-1.172784	0.923278	-0.284830	-1.157554	0.928985	-0.379153	-1.040490	0.705166	-0.140520	-0.992649	0.733608	-0.128012	-1.005385	0.662484	-0.130658	-0.955685	0.690779	-0.121377	-0.877721	0.481701	-0.142340	-0.848405	0.482314	-0.236262	-0.981087	0.432184	-0.149824	-0.951414	0.404842	-0.139686	-1.004757	0.396695	-0.150886	-0.964869	0.370805	-0.147677	-1.102937	0.192337	-0.218470	-1.083588	0.188048	-0.295765	-1.041550	0.091730	-0.171141	-1.007783	0.088702	-0.269775	-0.956354	0.081772	-0.201891	-1.167358	0.194986	-0.277709	-1.027780	0.686981	-0.478117	-0.976143	0.691709	-0.465108	-1.027565	0.644260	-0.476493	-0.974550	0.650760	-0.466819	-0.978935	0.452074	-0.441392	-0.996452	0.446497	-0.347904	-1.051870	0.366888	-0.483165	-1.013024	0.346055	-0.460302	-1.074852	0.328368	-0.490733	-1.039544	0.306919	-0.462679	-1.206324	0.109516	-0.472063	-1.202222	0.107808	-0.386067	-1.091122	0.041684	-0.495564	-1.104025	0.037095	-0.387784	-1.030639	0.058378	-0.431464	-1.285128	0.092997	-0.454529	-0.896644	1.306261	-0.166857	-0.844087	1.271428	-0.475863	
26	0.1250	-1.011278	0.910509	-0.185187	-0.968993	0.895293	-0.406909	-1.154352	0.924788	-0.284515	-1.138963	0.930632	-0.378760	-1.020165	0.707939	-0.140041	-0.972543	0.737154	-0.127767	-0.984427	0.665706	-0.130168	-0.934986	0.694787	-0.121056	-0.853770	0.486481	-0.141711	-0.824804	0.487596	-0.235350	-0.954596	0.431379	-0.148540	-0.923620	0.405932	-0.138422	-0.976209	0.394802	-0.149243	-0.935184	0.371188	-0.146115	-1.062740	0.185030	-0.215801	-1.043587	0.181922	-0.293087	-0.995023	0.088137	-0.169374	-0.961757	0.087750	-0.268297	-0.909613	0.083818	-0.200910	-1.127477	0.183504	-0.274140	-1.012870	0.687451	-0.477749	-0.961089	0.691107	-0.464827	-1.013550	0.644662	-0.476109	-0.960352	0.650060	-0.466604	-0.969614	0.451077	-0.441416	-0.987409	0.445819	-0.347593	-1.044687	0.367588	-0.483245	-1.006102	0.345933	-0.460731	-1.068554	0.329451	-0.490732	-1.033408	0.307324	-0.462847	-1.203581	0.112345	-0.472268	-1.199330	0.110433	-0.386383	-1.091754	0.041481	-0.495831	-1.104591	0.037287	-0.388228	-1.031302	0.058171	-0.431504	-1.282633	0.097424	-0.454546	-0.879923	1.308397	-0.165359	-0.824230	1.274744	-0.472866	
27	0.1300	-0.992895	0.912175	-0.184955	-0.950736	0.896263	-0.406323	-1.135839	0.926430	-0.284111	-1.120318	0.932419	-0.378270	-1.000075	0.710725	-0.139556	-0.952635	0.740609	-0.127516	-0.963811	0.668879	-0.129695	-0.914591	0.698635	-0.120752	-0.830520	0.491079	-0.141164	-0.801975	0.492637	-0.234523	-0.928597	0.430423	-0.147231	-0.896356	0.406955	-0.137143	-0.948074	0.392811	-0.147564	-0.905976	0.371569	-0.144518	-1.022516	0.178014	-0.212946	-1.003608	0.176021	-0.290205	-0.948608	0.085188	-0.167418	-0.915977	0.087350	-0.266624	-0.863271	0.086551	-0.199761	-1.087363	0.172227	-0.270357	-0.997868	0.688150	-0.477353	-0.945968	0.690764	-0.464534	-0.999416	0.645307	-0.475714	-0.946047	0.649635	-0.466379	-0.960062	0.450395	-0.441451	-0.978128	0.445437	-0.347282	-1.037278	0.368646	-0.483321	-0.998953	0.346179	-0.461165	-1.062003	0.330905	-0.490729	-1.026999	0.308130	-0.463058	-1.200404	0.115557	-0.472506	-1.195961	0.113420	-0.386755	-1.092447	0.041398	-0.496101	-1.105185	0.037640	-0.388667	-1.032092	0.057936	-0.431555	-1.279537	0.102482	-0.454549	-0.863190	1.310657	-0.163785	-0.804434	1.278167	-0.469770	
28	0.1350	-0.974423	0.913908	-0.184669	-0.932430	0.897369	-0.405676	-1.117258	0.928178	-0.283617	-1.101635	0.934321	-0.377683	-0.980233	0.713480	-0.139068	-0.932934	0.743925	-0.127256	-0.943549	0.671956	-0.129235	-0.894509	0.702270	-0.120462	-0.807982	0.495438	-0.140697	-0.779925	0.497374	-0.233782	-0.903121	0.429305	-0.145906	-0.869666	0.407884	-0.135856	-0.920401	0.390722	-0.145862	-0.877302	0.371928	-0.142895	-0.982399	0.171333	-0.209930	-0.963777	0.170374	-0.287145	-0.902484	0.082895	-0.165281	-0.870609	0.087480	-0.264763	-0.817497	0.089934	-0.198443	-1.047152	0.161230	-0.266396	-0.982755	0.689068	-0.476935	-0.930761	0.690676	-0.464233	-0.985135	0.646180	-0.475312	-0.931610	0.649482	-0.466151	-0.950208	0.450021	-0.441499	-0.968528	0.445339	-0.346972	-1.029564	0.370056	-0.483387	-0.991504	0.346781	-0.461594	-1.055124	0.332725	-0.490719	-1.020243	0.309327	-0.463309	-1.196748	0.119165	-0.472766	-1.192073	0.116776	-0.387172	-1.093169	0.041467	-0.496368	-1.105771	0.038177	-0.389092	-1.032986	0.057662	-0.431618	-1.275777	0.108192	-0.454526	-0.846448	1.313014	-0.162137	-0.784734	1.281653	-0.466597	
29	0.1400	-0.955868	0.915684	-0.184331	-0.914078	0.898604	-0.404968	-1.098620	0.930007	-0.283032	-1.082924	0.936313	-0.377000	-0.960641	0.716163	-0.138577	-0.913441	0.747058	-0.126983	-0.923644	0.674892	-0.128789	-0.874739	0.705646	-0.120185	-0.786154	0.499507	-0.140312	-0.758644	0.501752	-0.233129	-0.878191	0.428020	-0.144575	-0.843581	0.408697	-0.134568	-0.893230	0.388536	-0.144153	-0.849211	0.372245	-0.141258	-0.942531	0.165019	-0.206781	-0.924228	0.165003	-0.283935	-0.856834	0.081252	-0.162975	-0.825819	0.088103	-0.262722	-0.772458	0.093910	-0.196958	-1.006990	0.150589	-0.262294	-0.967512	0.690184	-0.476498	-0.915448	0.690834	-0.463930	-0.970679	0.647264	-0.474908	-0.917014	0.649591	-0.465923	-0.939980	0.449937	-0.441563	-0.958528	0.445504	-0.346664	-1.021470	0.371802	-0.483440	-0.983680	0.347723	-0.462009	-1.047843	0.334900	-0.490700	-1.013072	0.310895	-0.463593	-1.192570	0.123180	-0.473037	-1.187625	0.120504	-0.387622	-1.093880	0.041721	-0.496624	-1.106304	0.038926	-0.389492	-1.033954	0.057343	-0.431695	-1.271290	0.114566	-0.454466	-0.829700	1.315437	-0.160419	-0.765157	1.285162	-0.463370	
30	0.1450	-0.937236	0.917478	-0.183941	-0.895679	0.899955	-0.404203	-1.079936	0.931884	-0.282359	-1.064194	0.938366	-0.376224	-0.941299	0.718731	-0.138082	-0.894153	0.749967	-0.126694	-0.904092	0.677643	-0.128352	-0.855276	0.708722	-0.119919	-0.765024	0.503239	-0.140006	-0.738111	0.505722	-0.232563	-0.853823	0.426564	-0.143249	-0.818126	0.409370	-0.133289	-0.866598	0.386255	-0.142448	-0.821745	0.372501	-0.139617	-0.903057	0.159101	-0.203530	-0.885095	0.159926	-0.280606	-0.811842	0.080234	-0.160515	-0.781773	0.089169	-0.260514	-0.728317	0.098400	-0.195315	-0.967030	0.140368	-0.258092	-0.952115	0.691477	-0.476046	-0.900006	0.691224	-0.463628	-0.956019	0.648534	-0.474504	-0.902229	0.649946	-0.465697	-0.929311	0.450121	-0.441644	-0.948052	0.445906	-0.346360	-1.012922	0.373862	-0.483476	-0.975411	0.348980	-0.462404	-1.040085	0.337409	-0.490667	-1.005418	0.312809	-0.463903	-1.187830	0.127605	-0.473308	-1.182578	0.124601	-0.388092	-1.094533	0.042198	-0.496860	-1.106734	0.039916	-0.389858	-1.034955	0.056979	-0.431785	-1.266019	0.121605	-0.454356	-0.812945	1.317893	-0.158634	-0.745730	1.288655	-0.460110	
31	0.1500	-0.918534	0.919266	-0.183500	-0.877229	0.901405	-0.403382	-1.061212	0.933781	-0.281601	-1.045452	0.940451	-0.375358	-0.922199	0.721148	-0.137584	-0.875059	0.752615	-0.126386	-0.884878	0.680171	-0.127922	-0.836104	0.711460	-0.119661	-0.744565	0.506594	-0.139776	-0.718293	0.509243	-0.232081	-0.830027	0.424939	-0.141937	-0.793316	0.409885	-0.132025	-0.840535	0.383884	-0.140763	-0.794936	0.372676	-0.137985	-0.864123	0.153592	-0.200209	-0.846517	0.155151	-0.277195	-0.767693	0.079797	-0.157923	-0.738635	0.090613	-0.258158	-0.685227	0.103310	-0.193525	-0.927436	0.130630	-0.253834	-0.936541	0.692918	-0.475583	-0.884411	0.691825	-0.463331	-0.941124	0.649960	-0.474104	-0.887226	0.650525	-0.465475	-0.918136	0.450543	-0.441742	-0.937026	0.446510	-0.346060	-1.003847	0.376206	-0.483491	-0.966628	0.350520	-0.462769	-1.031783	0.340226	-0.490614	-0.997215	0.315035	-0.464231	-1.182487	0.132440	-0.473564	-1.176895	0.129061	-0.388567	-1.095066	0.042934	-0.497067	-1.106997	0.041175	-0.390179	-1.035939	0.056575	-0.431891	-1.259912	0.129299	-0.454181	-0.796182	1.320351	-0.156786	-0.726475	1.292095	-0.456840	
32	0.1550	-0.899765	0.921019	-0.183011	-0.858724	0.902937	-0.402510	-1.042455	0.935664	-0.280762	-1.026702	0.942536	-0.374409	-0.903326	0.723377	-0.137081	-0.856145	0.754969	-0.126056	-0.865983	0.682442	-0.127496	-0.817206	0.713832	-0.119409	-0.724741	0.509538	-0.139619	-0.699145	0.512282	-0.231680	-0.806802	0.423148	-0.140651	-0.769160	0.410225	-0.130787	-0.815065	0.381432	-0.139111	-0.768810	0.372752	-0.136376	-0.825877	0.148502	-0.196851	-0.808632	0.150681	-0.273737	-0.724565	0.079885	-0.155220	-0.696563	0.092356	-0.255675	-0.643335	0.108527	-0.191603	-0.888375	0.121424	-0.249565	-0.920764	0.694475	-0.475110	-0.868636	0.692611	-0.463039	-0.925965	0.651509	-0.473707	-0.871974	0.651302	-0.465258	-0.906393	0.451169	-0.441856	-0.925382	0.447278	-0.345762	-0.994176	0.378797	-0.483482	-0.957267	0.352305	-0.463095	-1.022867	0.343317	-0.490538	-0.988404	0.317534	-0.464568	-1.176503	0.137679	-0.473792	-1.170543	0.133874	-0.389030	-1.095412	0.043966	-0.497237	-1.107023	0.042732	-0.390449	-1.036840	0.056143	-0.432013	-1.252920	0.137624	-0.453930	-0.779409	1.322774	-0.154880	-0.707407	1.295450	-0.453582	
33	0.1600	-0.880934	0.922712	-0.182475	-0.840159	0.904529	-0.401590	-1.023670	0.937502	-0.279850	-1.007947	0.944587	-0.373384	-0.884660	0.725387	-0.136571	-0.837393	0.757004	-0.125702	-0.847379	0.684426	-0.127070	-0.798553	0.715814	-0.119163	-0.705507	0.512046	-0.139530	-0.680612	0.514818	-0.231355	-0.784145	0.421202	-0.139400	-0.745654	0.410376	-0.129582	-0.790206	0.378908	-0.137505	-0.743385	0.372712	-0.134800	-0.788466	0.143829	-0.193492	-0.771578	0.146511	-0.270270	-0.682634	0.080423	-0.152434	-0.655709	0.094312	-0.253090	-0.602778	0.113927	-0.189567	-0.850018	0.112797	-0.245328	-0.904758	0.696112	-0.474629	-0.852653	0.693552	-0.462752	-0.910509	0.653144	-0.473316	-0.856442	0.652245	-0.465043	-0.894025	0.451958	-0.441985	-0.913058	0.448168	-0.345464	-0.983843	0.381595	-0.483443	-0.947264	0.354295	-0.463376	-1.013276	0.346644	-0.490434	-0.978926	0.320261	-0.464901	-1.169838	0.143308	-0.473976	-1.163487	0.139022	-0.389466	-1.095487	0.045328	-0.497360	-1.106729	0.044609	-0.390657	-1.037583	0.055698	-0.432152	-1.245003	0.146548	-0.453589	-0.762622	1.325131	-0.152918	-0.688539	1.298691	-0.450356	
34	0.1650	-0.862044	0.924319	-0.181894	-0.821528	0.906156	-0.400624	-1.004858	0.939264	-0.278870	-0.989185	0.946572	-0.372292	-0.866177	0.727153	-0.136051	-0.818779	0.758699	-0.125323	-0.829034	0.686102	-0.126640	-0.780115	0.717389	-0.118919	-0.686807	0.514102	-0.139504	-0.662632	0.516836	-0.231100	-0.762044	0.419112	-0.138193	-0.722792	0.410329	-0.128420	-0.765968	0.376323	-0.135958	-0.718671	0.372543	-0.133273	-0.752031	0.139563	-0.190167	-0.735488	0.142633	-0.266833	-0.642068	0.081328	-0.149592	-0.616218	0.096386	-0.250432	-0.563681	0.119377	-0.187442	-0.812537	0.104782	-0.241169	-0.888495	0.697793	-0.474142	-0.836435	0.694616	-0.462467	-0.894726	0.654827	-0.472928	-0.840599	0.653320	-0.464828	-0.880980	0.452869	-0.442125	-0.899999	0.449134	-0.345163	-0.972788	0.384554	-0.483370	-0.936563	0.356444	-0.463602	-1.002949	0.350162	-0.490295	-0.968730	0.323168	-0.465219	-1.162456	0.149309	-0.474103	-1.155695	0.144486	-0.389856	-1.095201	0.047049	-0.497427	-1.106024	0.046830	-0.390799	-1.038077	0.055262	-0.432307	-1.236123	0.156025	-0.453146	-0.745814	1.327389	-0.150905	-0.669879	1.301793	-0.447183	
35	0.1700	-0.843097	0.925814	-0.181273	-0.802821	0.907794	-0.399616	-0.986021	0.940918	-0.277830	-0.970415	0.948458	-0.371143	-0.847848	0.728651	-0.135519	-0.800276	0.760040	-0.124916	-0.810910	0.687451	-0.126202	-0.761857	0.718550	-0.118677	-0.668582	0.515695	-0.139534	-0.645136	0.518333	-0.230911	-0.740482	0.416894	-0.137039	-0.700557	0.410076	-0.127309	-0.742358	0.373691	-0.134480	-0.694668	0.372230	-0.131805	-0.716711	0.135687	-0.186908	-0.700495	0.139031	-0.263465	-0.603023	0.082505	-0.146725	-0.578225	0.098479	-0.247732	-0.526159	0.124735	-0.185252	-0.776099	0.097407	-0.237129	-0.871949	0.699478	-0.473649	-0.819951	0.695768	-0.462180	-0.878586	0.656515	-0.472543	-0.824415	0.654490	-0.464608	-0.867208	0.453859	-0.442270	-0.886155	0.450131	-0.344853	-0.960954	0.387627	-0.483259	-0.925110	0.358705	-0.463765	-0.991833	0.353826	-0.490116	-0.957765	0.326205	-0.465509	-1.154318	0.155656	-0.474155	-1.147134	0.150238	-0.390182	-1.094449	0.049154	-0.497430	-1.104809	0.049407	-0.390867	-1.038220	0.054857	-0.432477	-1.226251	0.165996	-0.452589	-0.728979	1.329515	-0.148846	-0.651429	1.304736	-0.444079	
36	0.1750	-0.824094	0.927174	-0.180612	-0.784032	0.909415	-0.398570	-0.967157	0.942435	-0.276739	-0.951632	0.950214	-0.369948	-0.829641	0.729868	-0.134972	-0.781856	0.761018	-0.124480	-0.792964	0.688463	-0.125754	-0.743741	0.719296	-0.118434	-0.650766	0.516825	-0.139616	-0.628051	0.519314	-0.230779	-0.719438	0.414569	-0.135945	-0.678926	0.409616	-0.126257	-0.719376	0.371026	-0.133081	-0.671373	0.371763	-0.130410	-0.682635	0.132180	-0.183751	-0.666722	0.135687	-0.260203	-0.565645	0.083854	-0.143866	-0.541854	0.100488	-0.245023	-0.490311	0.129861	-0.183024	-0.740869	0.090689	-0.233251	-0.855092	0.701128	-0.473148	-0.803171	0.696972	-0.461886	-0.862059	0.658170	-0.472156	-0.807860	0.655718	-0.464377	-0.852668	0.454884	-0.442415	-0.871484	0.451115	-0.344527	-0.948287	0.390764	-0.483104	-0.912855	0.361030	-0.463858	-0.979874	0.357584	-0.489892	-0.945986	0.329318	-0.465756	-1.145386	0.162318	-0.474119	-1.137773	0.156247	-0.390426	-1.093117	0.051659	-0.497361	-1.102972	0.052350	-0.390856	-1.037893	0.054511	-0.432660	-1.215361	0.176394	-0.451908	-0.712110	1.331481	-0.146743	-0.633187	1.307502	-0.441063	
37	0.1800	-0.805034	0.928377	-0.179915	-0.765152	0.910991	-0.397489	-0.948263	0.943790	-0.275604	-0.932829	0.951810	-0.368716	-0.811520	0.730790	-0.134407	-0.763486	0.761633	-0.124016	-0.775152	0.689134	-0.125292	-0.725725	0.719631	-0.118190	-0.633288	0.517497	-0.139741	-0.611300	0.519793	-0.230698	-0.698886	0.412156	-0.134917	-0.657873	0.408948	-0.125271	-0.697016	0.368347	-0.131770	-0.648774	0.371136	-0.129098	-0.649923	0.129013	-0.180725	-0.634285	0.132579	-0.257083	-0.530062	0.085274	-0.141045	-0.507215	0.102313	-0.242338	-0.456225	0.134613	-0.180788	-0.707002	0.084637	-0.229572	-0.837896	0.702706	-0.472638	-0.786068	0.698192	-0.461578	-0.845117	0.659752	-0.471764	-0.790904	0.656966	-0.464127	-0.837322	0.455903	-0.442550	-0.855952	0.452045	-0.344177	-0.934741	0.393915	-0.482900	-0.899754	0.363372	-0.463871	-0.967028	0.361387	-0.489614	-0.933352	0.332457	-0.465946	-1.135622	0.169256	-0.473979	-1.127577	0.162478	-0.390571	-1.091083	0.054575	-0.497213	-1.100396	0.055658	-0.390762	-1.036969	0.054250	-0.432852	-1.203435	0.187140	-0.451092	-0.695196	1.333258	-0.144601	-0.615145	1.310080	-0.438149	
38	0.1850	-0.785915	0.929404	-0.179184	-0.746172	0.912496	-0.396377	-0.929335	0.944959	-0.274434	-0.914000	0.953217	-0.367460	-0.793448	0.731414	-0.133820	-0.745134	0.761889	-0.123522	-0.757427	0.689465	-0.124813	-0.707767	0.719570	-0.117942	-0.616079	0.517723	-0.139905	-0.594810	0.519790	-0.230662	-0.678796	0.409681	-0.133958	-0.637364	0.408076	-0.124358	-0.675268	0.365670	-0.130551	-0.626854	0.370344	-0.127880	-0.618685	0.126157	-0.177858	-0.603292	0.129682	-0.254139	-0.496390	0.086663	-0.138296	-0.474407	0.103861	-0.239712	-0.423971	0.138860	-0.178573	-0.674643	0.079252	-0.226125	-0.820335	0.704176	-0.472114	-0.768612	0.699395	-0.461247	-0.827731	0.661224	-0.471361	-0.773519	0.658200	-0.463849	-0.821135	0.456877	-0.442665	-0.839529	0.452883	-0.343795	-0.920273	0.397034	-0.482639	-0.885765	0.365685	-0.463797	-0.953252	0.365186	-0.489277	-0.919824	0.335572	-0.466063	-1.124985	0.176426	-0.473721	-1.116512	0.168890	-0.390599	-1.088216	0.057900	-0.496979	-1.096958	0.059323	-0.390582	-1.035306	0.054104	-0.433047	-1.190459	0.198146	-0.450135	-0.678226	1.334822	-0.142424	-0.597291	1.312462	-0.435350	
39	0.1900	-0.766736	0.930238	-0.178423	-0.727083	0.913901	-0.395237	-0.910365	0.945921	-0.273237	-0.895135	0.954413	-0.366189	-0.775388	0.731740	-0.133208	-0.726769	0.761798	-0.123000	-0.739742	0.689465	-0.124315	-0.689825	0.719129	-0.117690	-0.599068	0.517523	-0.140099	-0.578505	0.519334	-0.230662	-0.659138	0.407169	-0.133073	-0.617365	0.407009	-0.123525	-0.654117	0.363013	-0.129430	-0.605590	0.369383	-0.126764	-0.589014	0.123578	-0.175175	-0.573838	0.126971	-0.251399	-0.464722	0.087923	-0.135649	-0.443510	0.105043	-0.237177	-0.393605	0.142478	-0.176409	-0.643921	0.074527	-0.222939	-0.802384	0.705506	-0.471573	-0.750776	0.700549	-0.460884	-0.809876	0.662551	-0.470941	-0.755680	0.659385	-0.463534	-0.804080	0.457774	-0.442749	-0.822195	0.453597	-0.343369	-0.904846	0.400073	-0.482315	-0.870850	0.367929	-0.463628	-0.938507	0.368931	-0.488873	-0.905367	0.338617	-0.466093	-1.113434	0.183776	-0.473333	-1.104542	0.175438	-0.390494	-1.084380	0.061624	-0.496653	-1.092528	0.063327	-0.390312	-1.032757	0.054100	-0.433239	-1.176424	0.209316	-0.449028	-0.661188	1.336153	-0.140217	-0.579610	1.314642	-0.432678	
40	0.1950	-0.747491	0.930866	-0.177632	-0.707878	0.915183	-0.394072	-0.891347	0.946661	-0.272019	-0.876224	0.955374	-0.364913	-0.757302	0.731774	-0.132568	-0.708356	0.761375	-0.122449	-0.722050	0.689146	-0.123796	-0.671859	0.718335	-0.117431	-0.582187	0.516922	-0.140318	-0.562314	0.518459	-0.230694	-0.639879	0.404645	-0.132260	-0.597838	0.405755	-0.122776	-0.633545	0.360397	-0.128408	-0.584957	0.368257	-0.125760	-0.560993	0.121243	-0.172698	-0.546004	0.124423	-0.248889	-0.435135	0.088965	-0.133131	-0.414590	0.105783	-0.234765	-0.365169	0.145360	-0.174324	-0.614949	0.070449	-0.220039	-0.784020	0.706666	-0.471009	-0.732535	0.701626	-0.460480	-0.791530	0.663706	-0.470495	-0.737363	0.660494	-0.463172	-0.786135	0.458563	-0.442789	-0.803934	0.454163	-0.342889	-0.888428	0.402993	-0.481922	-0.854976	0.370065	-0.463357	-0.922762	0.372577	-0.488395	-0.889950	0.341550	-0.466020	-1.100929	0.191252	-0.472802	-1.091630	0.182073	-0.390241	-1.079432	0.065727	-0.496230	-1.086976	0.067642	-0.389949	-1.029164	0.054262	-0.433419	-1.161324	0.220550	-0.447768	-0.644067	1.337232	-0.137984	-0.562081	1.316619	-0.430140	
41	0.2000	-0.728175	0.931281	-0.176816	-0.688548	0.916319	-0.392885	-0.872271	0.947167	-0.270787	-0.857259	0.956086	-0.363642	-0.739154	0.731527	-0.131898	-0.689867	0.760642	-0.121870	-0.704309	0.688527	-0.123255	-0.653829	0.717215	-0.117165	-0.565373	0.515948	-0.140557	-0.546174	0.517203	-0.230750	-0.620985	0.402135	-0.131521	-0.578743	0.404329	-0.122116	-0.613531	0.357839	-0.127485	-0.564924	0.366969	-0.124872	-0.534683	0.119120	-0.170442	-0.519857	0.122013	-0.246630	-0.407682	0.089710	-0.130771	-0.387694	0.106018	-0.232504	-0.338686	0.147418	-0.172347	-0.587824	0.066996	-0.217441	-0.765222	0.707635	-0.470417	-0.713865	0.702604	-0.460023	-0.772671	0.664665	-0.470017	-0.718547	0.661503	-0.462752	-0.767281	0.459225	-0.442771	-0.784737	0.454563	-0.342344	-0.870992	0.405756	-0.481450	-0.838114	0.372063	-0.462974	-0.905987	0.376082	-0.487834	-0.873544	0.344333	-0.465830	-1.087427	0.198791	-0.472118	-1.077737	0.188743	-0.389827	-1.073233	0.070176	-0.495707	-1.080170	0.072232	-0.389492	-1.024369	0.054612	-0.433577	-1.145158	0.231739	-0.446351	-0.626849	1.338047	-0.135729	-0.544681	1.318396	-0.427745	
42	0.2050	-0.708782	0.931475	-0.175974	-0.669088	0.917289	-0.391678	-0.853127	0.947432	-0.269547	-0.838228	0.956534	-0.362382	-0.720910	0.731015	-0.131195	-0.671272	0.759624	-0.121265	-0.686476	0.687631	-0.122690	-0.635700	0.715801	-0.116891	-0.548566	0.514633	-0.140809	-0.530025	0.515608	-0.230826	-0.602423	0.399667	-0.130851	-0.560042	0.402745	-0.121546	-0.594050	0.355358	-0.126661	-0.545461	0.365525	-0.124106	-0.510133	0.117179	-0.168419	-0.495448	0.119721	-0.244638	-0.382395	0.090091	-0.128589	-0.362850	0.105700	-0.230419	-0.314166	0.148583	-0.170501	-0.562619	0.064144	-0.215159	-0.745973	0.708394	-0.469791	-0.694749	0.703464	-0.459505	-0.753284	0.665410	-0.469498	-0.699215	0.662393	-0.462263	-0.747506	0.459746	-0.442680	-0.764602	0.454789	-0.341720	-0.852517	0.408332	-0.480894	-0.820241	0.373896	-0.462473	-0.888160	0.379410	-0.487185	-0.856126	0.346936	-0.465510	-1.072886	0.206331	-0.471272	-1.062826	0.195393	-0.389241	-1.065643	0.074931	-0.495079	-1.071980	0.077049	-0.388940	-1.018209	0.055167	-0.433701	-1.127930	0.242775	-0.444776	-0.609518	1.338588	-0.133459	-0.527385	1.319977	-0.425498	
43	0.2100	-0.689305	0.931450	-0.175110	-0.649492	0.918076	-0.390453	-0.833906	0.947455	-0.268303	-0.819121	0.956712	-0.361139	-0.702540	0.730257	-0.130459	-0.652547	0.758348	-0.120636	-0.668515	0.686484	-0.122103	-0.617440	0.714130	-0.116606	-0.531717	0.513014	-0.141071	-0.513819	0.513717	-0.230917	-0.584161	0.397265	-0.130248	-0.541697	0.401022	-0.121069	-0.575076	0.352972	-0.125929	-0.526533	0.363936	-0.123464	-0.487369	0.115392	-0.166636	-0.472812	0.117529	-0.242923	-0.359285	0.090057	-0.126604	-0.340069	0.104797	-0.228533	-0.291602	0.148811	-0.168807	-0.539385	0.061862	-0.213196	-0.726260	0.708932	-0.469123	-0.675170	0.704195	-0.458915	-0.733355	0.665931	-0.468929	-0.679354	0.663153	-0.461696	-0.726804	0.460118	-0.442502	-0.743531	0.454840	-0.341006	-0.832992	0.410697	-0.480244	-0.801337	0.375545	-0.461847	-0.869265	0.382529	-0.486439	-0.837676	0.349336	-0.465049	-1.057266	0.213801	-0.470258	-1.046858	0.201966	-0.388473	-1.056526	0.079941	-0.494344	-1.062283	0.082040	-0.388289	-1.010527	0.055941	-0.433778	-1.109645	0.253547	-0.443044	-0.592056	1.338853	-0.131177	-0.510164	1.321369	-0.423400	
44	0.2150	-0.669736	0.931208	-0.174224	-0.629756	0.918671	-0.389212	-0.814597	0.947238	-0.267059	-0.799930	0.956617	-0.359919	-0.684019	0.729278	-0.129687	-0.633671	0.756848	-0.119983	-0.650398	0.685116	-0.121493	-0.599023	0.712238	-0.116310	-0.514782	0.511126	-0.141337	-0.497514	0.511574	-0.231020	-0.566170	0.394951	-0.129706	-0.523673	0.399177	-0.120685	-0.556586	0.350697	-0.125287	-0.508109	0.362213	-0.122946	-0.466402	0.113737	-0.165095	-0.451966	0.115422	-0.241489	-0.338340	0.089574	-0.124831	-0.319342	0.103298	-0.226863	-0.270970	0.148082	-0.167285	-0.518151	0.060114	-0.211553	-0.706073	0.709246	-0.468407	-0.655117	0.704791	-0.458245	-0.712877	0.666224	-0.468302	-0.658955	0.663777	-0.461042	-0.705175	0.460344	-0.442223	-0.721534	0.454724	-0.340192	-0.812410	0.412832	-0.479494	-0.781391	0.376999	-0.461091	-0.849291	0.385414	-0.485590	-0.818179	0.351516	-0.464436	-1.040530	0.221133	-0.469070	-1.029797	0.208404	-0.387517	-1.045758	0.085145	-0.493500	-1.050963	0.087143	-0.387540	-1.001174	0.056938	-0.433794	-1.090315	0.263946	-0.441158	-0.574449	1.338841	-0.128891	-0.492992	1.322580	-0.421454	
45	0.2200	-0.650071	0.930756	-0.173316	-0.609879	0.919064	-0.387955	-0.795192	0.946790	-0.265816	-0.780648	0.956250	-0.358723	-0.665326	0.728103	-0.128879	-0.614629	0.755154	-0.119309	-0.632099	0.683558	-0.120860	-0.580431	0.710162	-0.116001	-0.497731	0.509007	-0.141606	-0.481082	0.509224	-0.231130	-0.548425	0.392747	-0.129219	-0.505939	0.397230	-0.120391	-0.538552	0.348547	-0.124725	-0.490158	0.360371	-0.122552	-0.447223	0.112195	-0.163794	-0.432909	0.113392	-0.240337	-0.319526	0.088623	-0.123280	-0.300643	0.101207	-0.225420	-0.252236	0.146402	-0.165947	-0.498922	0.058864	-0.210222	-0.685409	0.709336	-0.467636	-0.634587	0.705252	-0.457487	-0.691848	0.666291	-0.467610	-0.638018	0.664266	-0.460293	-0.682629	0.460433	-0.441829	-0.698627	0.454457	-0.339267	-0.790772	0.414728	-0.478635	-0.760396	0.378254	-0.460197	-0.828238	0.388046	-0.484630	-0.797628	0.353466	-0.463663	-1.022645	0.228255	-0.467707	-1.011612	0.214647	-0.386368	-1.033226	0.090476	-0.492546	-1.037920	0.092292	-0.386690	-0.990010	0.058158	-0.433733	-1.069953	0.273865	-0.439122	-0.556680	1.338557	-0.126605	-0.475841	1.323622	-0.419659	
46	0.2250	-0.630305	0.930107	-0.172389	-0.589862	0.919254	-0.386683	-0.775684	0.946123	-0.264576	-0.761270	0.955620	-0.357554	-0.646448	0.726760	-0.128036	-0.595412	0.753302	-0.118615	-0.613605	0.681843	-0.120208	-0.561652	0.707941	-0.115680	-0.480541	0.506694	-0.141873	-0.464506	0.506708	-0.231247	-0.530905	0.390670	-0.128779	-0.488468	0.395201	-0.120186	-0.520951	0.346536	-0.124238	-0.472651	0.358424	-0.122278	-0.429804	0.110751	-0.162725	-0.415623	0.111431	-0.239460	-0.302790	0.087204	-0.121955	-0.283926	0.098547	-0.224211	-0.235348	0.143801	-0.164803	-0.481681	0.058073	-0.209192	-0.664273	0.709212	-0.466805	-0.613582	0.705584	-0.456635	-0.670273	0.666142	-0.466844	-0.616546	0.664628	-0.459444	-0.659180	0.460402	-0.441307	-0.674834	0.454064	-0.338222	-0.768093	0.416382	-0.477660	-0.738357	0.379311	-0.459163	-0.806112	0.390413	-0.483556	-0.776024	0.355185	-0.462725	-1.003584	0.235095	-0.466167	-0.992276	0.220638	-0.385024	-1.018834	0.095863	-0.491483	-1.023064	0.097415	-0.385739	-0.976914	0.059594	-0.433581	-1.048578	0.283203	-0.436945	-0.538737	1.338013	-0.124328	-0.458685	1.324506	-0.418014	
47	0.2300	-0.610435	0.929277	-0.171442	-0.569710	0.919242	-0.385396	-0.756069	0.945253	-0.263338	-0.741794	0.954739	-0.356411	-0.627379	0.725280	-0.127158	-0.576017	0.751323	-0.117904	-0.594908	0.680004	-0.119536	-0.542681	0.705609	-0.115344	-0.463203	0.504222	-0.142136	-0.447778	0.504067	-0.231367	-0.513594	0.388735	-0.128379	-0.471240	0.393111	-0.120066	-0.503763	0.344673	-0.123814	-0.455562	0.356389	-0.122119	-0.414102	0.109396	-0.161877	-0.400071	0.109540	-0.238847	-0.288058	0.085332	-0.120855	-0.269130	0.095359	-0.223239	-0.220243	0.140334	-0.163856	-0.466385	0.057700	-0.208445	-0.642674	0.708889	-0.465907	-0.592112	0.705801	-0.455686	-0.648165	0.665795	-0.465999	-0.594553	0.664876	-0.458489	-0.634856	0.460274	-0.440647	-0.650188	0.453574	-0.337050	-0.744394	0.417796	-0.476564	-0.715285	0.380179	-0.457985	-0.782930	0.392509	-0.482362	-0.753375	0.356677	-0.461619	-0.983330	0.241585	-0.464453	-0.971770	0.226320	-0.383487	-1.002506	0.101229	-0.490310	-1.006330	0.102438	-0.384685	-0.961783	0.061230	-0.433322	-1.026215	0.291867	-0.434633	-0.520609	1.337223	-0.122066	-0.441502	1.325244	-0.416513	
48	0.2350	-0.590462	0.928284	-0.170475	-0.549432	0.919037	-0.384094	-0.736346	0.944202	-0.262104	-0.722225	0.953623	-0.355292	-0.608122	0.723693	-0.126247	-0.556449	0.749252	-0.117179	-0.576012	0.678074	-0.118847	-0.523524	0.703203	-0.114993	-0.445720	0.501625	-0.142393	-0.430907	0.501338	-0.231491	-0.496484	0.386953	-0.128011	-0.454241	0.390978	-0.120025	-0.486970	0.342966	-0.123446	-0.438872	0.354284	-0.122069	-0.400058	0.108126	-0.161236	-0.386202	0.107719	-0.238483	-0.275240	0.083038	-0.119978	-0.256177	0.091699	-0.222498	-0.206848	0.136076	-0.163107	-0.452973	0.057702	-0.207960	-0.620634	0.708386	-0.464940	-0.570195	0.705918	-0.454638	-0.625546	0.665269	-0.465069	-0.572061	0.665029	-0.457427	-0.609692	0.460076	-0.439840	-0.624728	0.453023	-0.335746	-0.719710	0.418981	-0.475342	-0.691204	0.380874	-0.456662	-0.758723	0.394334	-0.481045	-0.729701	0.357952	-0.460345	-0.961875	0.247659	-0.462570	-0.950086	0.231639	-0.381761	-0.984191	0.106496	-0.489029	-0.987671	0.107290	-0.383529	-0.944543	0.063048	-0.432942	-1.002896	0.299770	-0.432199	-0.502289	1.336205	-0.119828	-0.424274	1.325851	-0.415154	
49	0.2400	-0.570393	0.927150	-0.169489	-0.529041	0.918650	-0.382777	-0.716521	0.942994	-0.260870	-0.702568	0.952294	-0.354195	-0.588689	0.722028	-0.125305	-0.536723	0.747119	-0.116440	-0.556931	0.676085	-0.118144	-0.504197	0.700754	-0.114628	-0.428109	0.498934	-0.142644	-0.413910	0.498552	-0.231617	-0.479573	0.385331	-0.127666	-0.437466	0.388821	-0.120058	-0.470558	0.341419	-0.123125	-0.422565	0.352125	-0.122120	-0.387597	0.106940	-0.160782	-0.373950	0.105976	-0.238349	-0.264232	0.080366	-0.119312	-0.244974	0.087633	-0.221982	-0.195077	0.131122	-0.162549	-0.441363	0.058040	-0.207710	-0.598179	0.707728	-0.463901	-0.547860	0.705957	-0.453490	-0.602448	0.664593	-0.464052	-0.549101	0.665108	-0.456258	-0.583738	0.459842	-0.438881	-0.598507	0.452449	-0.334308	-0.694089	0.419951	-0.473990	-0.666153	0.381414	-0.455193	-0.733533	0.395896	-0.479604	-0.705035	0.359026	-0.458906	-0.939228	0.253254	-0.460525	-0.927229	0.236545	-0.379851	-0.963863	0.111587	-0.487642	-0.967069	0.111899	-0.382270	-0.925146	0.065018	-0.432428	-0.978660	0.306840	-0.429655	-0.483777	1.334983	-0.117621	-0.406989	1.326339	-0.413929	
50	0.2450	-0.550238	0.925900	-0.168483	-0.508558	0.918096	-0.381443	-0.696604	0.941654	-0.259636	-0.682839	0.950776	-0.353116	-0.569100	0.720317	-0.124336	-0.516861	0.744954	-0.115691	-0.537688	0.674067	-0.117429	-0.484724	0.698290	-0.114248	-0.410396	0.496179	-0.142887	-0.396817	0.495739	-0.231745	-0.462867	0.383871	-0.127339	-0.420916	0.386657	-0.120156	-0.454521	0.340033	-0.122840	-0.406631	0.349931	-0.122262	-0.376634	0.105840	-0.160497	-0.363234	0.104320	-0.238421	-0.254915	0.077373	-0.118846	-0.235419	0.083241	-0.221676	-0.184838	0.125583	-0.162175	-0.431456	0.058672	-0.207669	-0.575351	0.706944	-0.462787	-0.525145	0.705943	-0.452246	-0.578913	0.663796	-0.462946	-0.525715	0.665139	-0.454985	-0.557053	0.459608	-0.437766	-0.571586	0.451893	-0.332735	-0.667593	0.420727	-0.472506	-0.640179	0.381824	-0.453580	-0.707417	0.397204	-0.478038	-0.679425	0.359919	-0.457306	-0.915409	0.258316	-0.458326	-0.903220	0.240993	-0.377769	-0.941530	0.116428	-0.486152	-0.944533	0.116197	-0.380907	-0.903579	0.067111	-0.431769	-0.953556	0.313013	-0.427014	-0.465079	1.333583	-0.115454	-0.389642	1.326721	-0.412833	
51	0.2500	-0.530015	0.924560	-0.167458	-0.488009	0.917395	-0.380092	-0.676612	0.940213	-0.258401	-0.663058	0.949098	-0.352051	-0.549389	0.718586	-0.123342	-0.496896	0.742782	-0.114935	-0.518319	0.672046	-0.116704	-0.465139	0.695838	-0.113853	-0.392623	0.493383	-0.143121	-0.379672	0.492923	-0.231875	-0.446380	0.382573	-0.127021	-0.404603	0.384500	-0.120313	-0.438856	0.338807	-0.122584	-0.391071	0.347718	-0.122484	-0.367072	0.104832	-0.160359	-0.353963	0.102761	-0.238675	-0.247161	0.074124	-0.118562	-0.227397	0.078610	-0.221564	-0.176029	0.119579	-0.161970	-0.423137	0.059559	-0.207806	-0.552199	0.706066	-0.461599	-0.502101	0.705901	-0.450911	-0.554995	0.662911	-0.461751	-0.501956	0.665152	-0.453614	-0.529712	0.459409	-0.436495	-0.544040	0.451398	-0.331031	-0.640298	0.421332	-0.470891	-0.613351	0.382129	-0.451828	-0.680447	0.398276	-0.476349	-0.652931	0.360655	-0.455554	-0.890460	0.262797	-0.455987	-0.878096	0.244945	-0.375525	-0.917231	0.120951	-0.484563	-0.920104	0.120124	-0.379444	-0.879865	0.069289	-0.430954	-0.927645	0.318243	-0.424292	-0.446207	1.332034	-0.113336	-0.372235	1.327013	-0.411857	
52	0.2550	-0.509751	0.923157	-0.166415	-0.467428	0.916569	-0.378725	-0.656571	0.938698	-0.257161	-0.643252	0.947288	-0.350995	-0.529595	0.716861	-0.122328	-0.476869	0.740628	-0.114173	-0.498869	0.670050	-0.115973	-0.445490	0.693418	-0.113444	-0.374842	0.490569	-0.143346	-0.362525	0.490124	-0.232007	-0.430134	0.381433	-0.126707	-0.388545	0.382365	-0.120519	-0.423569	0.337735	-0.122349	-0.375887	0.345502	-0.122776	-0.358807	0.103924	-0.160343	-0.346035	0.101312	-0.239084	-0.240834	0.070688	-0.118443	-0.220785	0.073829	-0.221626	-0.168546	0.113240	-0.161918	-0.416281	0.060662	-0.208090	-0.528784	0.705125	-0.460339	-0.478788	0.705860	-0.449492	-0.530760	0.661974	-0.460470	-0.477891	0.665174	-0.452151	-0.501803	0.459283	-0.435071	-0.515956	0.451004	-0.329201	-0.612298	0.421793	-0.469147	-0.585751	0.382358	-0.449942	-0.652711	0.399131	-0.474543	-0.625634	0.361261	-0.453662	-0.864441	0.266658	-0.453519	-0.851915	0.248369	-0.373134	-0.891040	0.125091	-0.482879	-0.893856	0.123626	-0.377880	-0.854066	0.071514	-0.429977	-0.900998	0.322496	-0.421506	-0.427185	1.330367	-0.111277	-0.354781	1.327226	-0.410994	
53	0.2600	-0.489479	0.921718	-0.165355	-0.446855	0.915642	-0.377340	-0.636515	0.937140	-0.255915	-0.623458	0.945379	-0.349943	-0.509773	0.715166	-0.121300	-0.456831	0.738512	-0.113409	-0.479395	0.668098	-0.115240	-0.425830	0.691050	-0.113022	-0.357114	0.487757	-0.143561	-0.345439	0.487358	-0.232140	-0.414158	0.380441	-0.126393	-0.372771	0.380262	-0.120767	-0.408670	0.336810	-0.122128	-0.361092	0.343297	-0.123126	-0.351729	0.103124	-0.160429	-0.339342	0.099985	-0.239621	-0.235794	0.067141	-0.118467	-0.215455	0.068992	-0.221838	-0.162277	0.106699	-0.162001	-0.410754	0.061946	-0.208491	-0.505179	0.704157	-0.459012	-0.455279	0.705846	-0.447998	-0.506284	0.661018	-0.459106	-0.453596	0.665233	-0.450607	-0.473431	0.459264	-0.433501	-0.487435	0.450749	-0.327253	-0.583702	0.422136	-0.467280	-0.557477	0.382539	-0.447930	-0.624316	0.399791	-0.472625	-0.597630	0.361762	-0.451642	-0.837436	0.269868	-0.450941	-0.824757	0.251242	-0.370614	-0.863067	0.128796	-0.481106	-0.865896	0.126660	-0.376222	-0.826285	0.073747	-0.428836	-0.873702	0.325754	-0.418672	-0.408044	1.328616	-0.109285	-0.337301	1.327373	-0.410236	
54	0.2650	-0.469241	0.920271	-0.164277	-0.426341	0.914642	-0.375938	-0.616488	0.935568	-0.254664	-0.603720	0.943403	-0.348891	-0.489982	0.713522	-0.120261	-0.436843	0.736450	-0.112644	-0.459963	0.666209	-0.114507	-0.406225	0.688748	-0.112589	-0.339513	0.484960	-0.143766	-0.328484	0.484635	-0.232274	-0.398489	0.379588	-0.126074	-0.357315	0.378201	-0.121046	-0.394176	0.336022	-0.121916	-0.346704	0.341116	-0.123522	-0.345725	0.102441	-0.160592	-0.333771	0.098793	-0.240257	-0.231898	0.063556	-0.118611	-0.211276	0.064187	-0.222176	-0.157112	0.100085	-0.162197	-0.406415	0.063377	-0.208979	-0.481468	0.703193	-0.457623	-0.431657	0.705884	-0.446442	-0.481658	0.660079	-0.457666	-0.429160	0.665357	-0.448992	-0.444713	0.459384	-0.431795	-0.458591	0.450666	-0.325200	-0.554634	0.422391	-0.465298	-0.528647	0.382702	-0.445803	-0.595385	0.400281	-0.470604	-0.569033	0.362185	-0.449510	-0.809547	0.272411	-0.448268	-0.796723	0.253549	-0.367983	-0.833459	0.132021	-0.479253	-0.836367	0.129192	-0.374472	-0.796664	0.075948	-0.427529	-0.845858	0.328018	-0.415809	-0.388827	1.326812	-0.107370	-0.319829	1.327467	-0.409573	
55	0.2700	-0.449092	0.918840	-0.163186	-0.405943	0.913593	-0.374522	-0.596541	0.934011	-0.253406	-0.584092	0.941392	-0.347836	-0.470294	0.711945	-0.119220	-0.416975	0.734457	-0.111884	-0.440647	0.664400	-0.113779	-0.386748	0.686522	-0.112146	-0.322117	0.482194	-0.143960	-0.311735	0.481965	-0.232410	-0.383172	0.378858	-0.125750	-0.342218	0.376190	-0.121348	-0.380112	0.335358	-0.121710	-0.332748	0.338971	-0.123951	-0.340683	0.101880	-0.160811	-0.329206	0.097747	-0.240965	-0.229004	0.060005	-0.118853	-0.208114	0.059499	-0.222616	-0.152938	0.093524	-0.162485	-0.403121	0.064922	-0.209526	-0.457746	0.702264	-0.456179	-0.408019	0.705998	-0.444836	-0.456983	0.659187	-0.456160	-0.404683	0.665569	-0.447322	-0.415781	0.459670	-0.429967	-0.429552	0.450785	-0.323054	-0.525235	0.422585	-0.463210	-0.499396	0.382871	-0.443575	-0.566057	0.400627	-0.468491	-0.539977	0.362557	-0.447285	-0.780905	0.274279	-0.445522	-0.767939	0.255285	-0.365263	-0.802399	0.134735	-0.477327	-0.805445	0.131201	-0.372638	-0.765387	0.078077	-0.426062	-0.817583	0.329302	-0.412936	-0.369587	1.324988	-0.105539	-0.302407	1.327518	-0.408999	
56	0.2750	-0.429091	0.917450	-0.162082	-0.385726	0.912524	-0.373092	-0.576736	0.932493	-0.252142	-0.564634	0.939378	-0.346776	-0.450789	0.710449	-0.118181	-0.397305	0.732542	-0.111129	-0.421529	0.662680	-0.113058	-0.367479	0.684380	-0.111695	-0.305011	0.479468	-0.144142	-0.295273	0.479353	-0.232547	-0.368254	0.378237	-0.125419	-0.327529	0.374234	-0.121664	-0.366505	0.334803	-0.121507	-0.319254	0.336873	-0.124403	-0.336488	0.101449	-0.161067	-0.325530	0.096854	-0.241720	-0.226974	0.056556	-0.119171	-0.205840	0.055007	-0.223130	-0.149643	0.087133	-0.162842	-0.400731	0.066552	-0.210105	-0.434117	0.701399	-0.454691	-0.384468	0.706208	-0.443194	-0.432371	0.658371	-0.454597	-0.380276	0.665889	-0.445611	-0.386781	0.460143	-0.428032	-0.400459	0.451127	-0.320834	-0.495661	0.422744	-0.461029	-0.469873	0.383071	-0.441260	-0.536486	0.400853	-0.466300	-0.510613	0.362902	-0.444986	-0.751658	0.275478	-0.442722	-0.738553	0.256455	-0.362475	-0.770101	0.136918	-0.475339	-0.773338	0.132675	-0.370729	-0.732674	0.080099	-0.424441	-0.789009	0.329637	-0.410071	-0.350389	1.323178	-0.103803	-0.285087	1.327537	-0.408503	
57	0.2800	-0.409311	0.916122	-0.160969	-0.365765	0.911458	-0.371653	-0.557146	0.931039	-0.250874	-0.545417	0.937392	-0.345707	-0.431552	0.709047	-0.117151	-0.377915	0.730713	-0.110384	-0.402700	0.661060	-0.112350	-0.348506	0.682327	-0.111238	-0.288284	0.476791	-0.144314	-0.279182	0.476803	-0.232685	-0.353790	0.377708	-0.125081	-0.313298	0.372338	-0.121987	-0.353388	0.334343	-0.121304	-0.306255	0.334829	-0.124867	-0.333032	0.101151	-0.161341	-0.322629	0.096121	-0.242497	-0.225674	0.053269	-0.119542	-0.204323	0.050778	-0.223695	-0.147117	0.081017	-0.163246	-0.399106	0.068240	-0.210693	-0.410695	0.700621	-0.453169	-0.361119	0.706529	-0.441533	-0.407942	0.657657	-0.452989	-0.356060	0.666332	-0.443875	-0.357868	0.460817	-0.426009	-0.371464	0.451705	-0.318557	-0.466080	0.422891	-0.458772	-0.440246	0.383322	-0.438876	-0.506844	0.400984	-0.464047	-0.481105	0.363240	-0.442634	-0.721979	0.276024	-0.439891	-0.708733	0.257073	-0.359644	-0.736813	0.138563	-0.473300	-0.740285	0.133619	-0.368754	-0.698784	0.081983	-0.422678	-0.760283	0.329073	-0.407233	-0.331306	1.321410	-0.102166	-0.267934	1.327532	-0.408079	
58	0.2850	-0.389829	0.914875	-0.159851	-0.346140	0.910420	-0.370209	-0.537849	0.929669	-0.249604	-0.526518	0.935460	-0.344631	-0.412675	0.707744	-0.116138	-0.358896	0.728976	-0.109652	-0.384250	0.659544	-0.111657	-0.329921	0.680366	-0.110780	-0.272026	0.474171	-0.144473	-0.263546	0.474316	-0.232823	-0.339834	0.377254	-0.124738	-0.299580	0.370505	-0.122308	-0.340797	0.333960	-0.121103	-0.293787	0.332849	-0.125331	-0.330210	0.100987	-0.161618	-0.320392	0.095550	-0.243275	-0.224977	0.050196	-0.119947	-0.203443	0.046869	-0.224287	-0.145256	0.075265	-0.163678	-0.398112	0.069961	-0.211269	-0.387601	0.699952	-0.451625	-0.338091	0.706972	-0.439869	-0.383826	0.657064	-0.451350	-0.332161	0.666909	-0.442131	-0.329210	0.461700	-0.423920	-0.342728	0.452525	-0.316244	-0.436670	0.423048	-0.456456	-0.410692	0.383640	-0.436441	-0.477310	0.401045	-0.461748	-0.451635	0.363590	-0.440250	-0.692059	0.275946	-0.437050	-0.678670	0.257163	-0.356794	-0.702808	0.139673	-0.471224	-0.706549	0.134046	-0.366727	-0.664002	0.083702	-0.420789	-0.731564	0.327670	-0.404442	-0.312422	1.319712	-0.100636	-0.251018	1.327513	-0.407718	
59	0.2900	-0.370733	0.913725	-0.158732	-0.326937	0.909430	-0.368764	-0.518930	0.928399	-0.248337	-0.508018	0.933607	-0.343548	-0.394252	0.706546	-0.115148	-0.340341	0.727332	-0.108937	-0.366277	0.658134	-0.110985	-0.311817	0.678497	-0.110321	-0.256326	0.471614	-0.144620	-0.248449	0.471894	-0.232960	-0.326443	0.376857	-0.124393	-0.286428	0.368738	-0.122620	-0.328769	0.333641	-0.120904	-0.281890	0.330937	-0.125789	-0.327926	0.100954	-0.161885	-0.318715	0.095141	-0.244034	-0.224765	0.047378	-0.120365	-0.203083	0.043323	-0.224885	-0.143958	0.069951	-0.164118	-0.397627	0.071692	-0.211817	-0.364959	0.699406	-0.450072	-0.315512	0.707542	-0.438217	-0.360157	0.656607	-0.449696	-0.308711	0.667625	-0.440396	-0.300979	0.462793	-0.421787	-0.314421	0.453587	-0.313916	-0.407619	0.423232	-0.454101	-0.381401	0.384037	-0.433978	-0.448075	0.401056	-0.459424	-0.422393	0.363966	-0.437858	-0.662106	0.275286	-0.434224	-0.648570	0.256758	-0.353950	-0.668381	0.140268	-0.469124	-0.672417	0.133981	-0.364660	-0.628644	0.085234	-0.418793	-0.703027	0.325503	-0.401714	-0.293829	1.318108	-0.099218	-0.234417	1.327487	-0.407413	
60	0.2950	-0.352112	0.912682	-0.157618	-0.308247	0.908507	-0.367326	-0.500481	0.927243	-0.247077	-0.490006	0.931856	-0.342462	-0.376380	0.705454	-0.114188	-0.322345	0.725782	-0.108241	-0.348876	0.656832	-0.110337	-0.294289	0.676720	-0.109866	-0.241271	0.469127	-0.144754	-0.233970	0.469539	-0.233095	-0.313671	0.376503	-0.124048	-0.273897	0.367038	-0.122919	-0.317342	0.333368	-0.120708	-0.270600	0.329100	-0.126230	-0.326090	0.101047	-0.162130	-0.317499	0.094888	-0.244760	-0.224932	0.044848	-0.120782	-0.203135	0.040171	-0.225471	-0.143131	0.065131	-0.164549	-0.397535	0.073413	-0.212323	-0.342899	0.698993	-0.448525	-0.293509	0.708239	-0.436595	-0.337071	0.656294	-0.448041	-0.285847	0.668477	-0.438687	-0.273352	0.464087	-0.419633	-0.286716	0.454878	-0.311597	-0.379116	0.423455	-0.451728	-0.352568	0.384519	-0.431506	-0.419334	0.401037	-0.457095	-0.393576	0.364377	-0.435479	-0.632339	0.274092	-0.431435	-0.618651	0.255901	-0.351137	-0.633844	0.140375	-0.467016	-0.638190	0.133462	-0.362569	-0.593040	0.086566	-0.416710	-0.674852	0.322659	-0.399067	-0.275624	1.316619	-0.097915	-0.218215	1.327458	-0.407158	
61	0.3000	-0.334062	0.911756	-0.156516	-0.290162	0.907665	-0.365902	-0.482596	0.926209	-0.245829	-0.472570	0.930223	-0.341376	-0.359155	0.704468	-0.113265	-0.305001	0.724327	-0.107568	-0.332141	0.655637	-0.109716	-0.277430	0.675035	-0.109418	-0.226940	0.466715	-0.144874	-0.220183	0.467251	-0.233229	-0.301571	0.376176	-0.123707	-0.262037	0.365408	-0.123200	-0.306550	0.333129	-0.120518	-0.259953	0.327343	-0.126650	-0.324620	0.101259	-0.162347	-0.316655	0.094783	-0.245438	-0.225379	0.042626	-0.121183	-0.203504	0.037431	-0.226027	-0.142687	0.060842	-0.164959	-0.397733	0.075105	-0.212777	-0.321546	0.698718	-0.446997	-0.272209	0.709059	-0.435016	-0.314706	0.656130	-0.446401	-0.263702	0.669461	-0.437022	-0.246507	0.465568	-0.417484	-0.259787	0.456382	-0.309307	-0.351355	0.423726	-0.449360	-0.324391	0.385088	-0.429050	-0.391287	0.401005	-0.454781	-0.365388	0.364831	-0.433137	-0.602987	0.272424	-0.428705	-0.589141	0.254639	-0.348379	-0.599517	0.140033	-0.464916	-0.604178	0.132532	-0.360473	-0.557536	0.087688	-0.414566	-0.647228	0.319234	-0.396518	-0.257911	1.315261	-0.096729	-0.202500	1.327433	-0.406945	
62	0.3050	-0.316677	0.910950	-0.155431	-0.272775	0.906915	-0.364501	-0.465370	0.925303	-0.244602	-0.455801	0.928723	-0.340295	-0.342668	0.703586	-0.112384	-0.288401	0.722964	-0.106922	-0.316161	0.654544	-0.109127	-0.261329	0.673440	-0.108980	-0.213405	0.464386	-0.144981	-0.207156	0.465035	-0.233360	-0.290190	0.375865	-0.123374	-0.250892	0.363850	-0.123457	-0.296428	0.332910	-0.120336	-0.249981	0.325669	-0.127041	-0.323445	0.101577	-0.162530	-0.316102	0.094816	-0.246059	-0.226023	0.040722	-0.121557	-0.204100	0.035107	-0.226541	-0.142546	0.057104	-0.165335	-0.398132	0.076751	-0.213172	-0.301027	0.698581	-0.445503	-0.251739	0.709990	-0.433497	-0.293195	0.656113	-0.444792	-0.242409	0.670562	-0.435415	-0.220616	0.467214	-0.415364	-0.233805	0.458073	-0.307071	-0.324522	0.424050	-0.447019	-0.297068	0.385742	-0.426631	-0.364127	0.400972	-0.452504	-0.338029	0.365329	-0.430852	-0.574280	0.270349	-0.426056	-0.560273	0.253029	-0.345700	-0.565724	0.139291	-0.462842	-0.570697	0.131245	-0.358388	-0.522480	0.088599	-0.412387	-0.620345	0.315331	-0.394082	-0.240792	1.314045	-0.095661	-0.187359	1.327414	-0.406770	
63	0.3100	-0.300052	0.910265	-0.154370	-0.256175	0.906264	-0.363131	-0.448897	0.924525	-0.243403	-0.439786	0.927364	-0.339228	-0.327007	0.702802	-0.111551	-0.272631	0.721692	-0.106305	-0.301019	0.653550	-0.108572	-0.246068	0.671933	-0.108556	-0.200729	0.462146	-0.145075	-0.194946	0.462894	-0.233486	-0.279568	0.375560	-0.123053	-0.240502	0.362365	-0.123690	-0.287003	0.332702	-0.120165	-0.240711	0.324084	-0.127401	-0.322503	0.101989	-0.162675	-0.315771	0.094973	-0.246617	-0.226791	0.039135	-0.121896	-0.204849	0.033193	-0.227004	-0.142638	0.053921	-0.165669	-0.398654	0.078337	-0.213505	-0.281459	0.698576	-0.444056	-0.232216	0.711019	-0.432049	-0.272665	0.656234	-0.443230	-0.222093	0.671765	-0.433880	-0.195843	0.468999	-0.413295	-0.208933	0.459920	-0.304907	-0.298797	0.424427	-0.444730	-0.270789	0.386473	-0.424273	-0.338041	0.400949	-0.450286	-0.311693	0.365870	-0.428645	-0.546447	0.267939	-0.423510	-0.532273	0.251130	-0.343121	-0.532780	0.138202	-0.460811	-0.538054	0.129658	-0.356333	-0.488214	0.089304	-0.410199	-0.594389	0.311058	-0.391771	-0.224369	1.312980	-0.094709	-0.172878	1.327405	-0.406627	
64	0.3150	-0.284275	0.909699	-0.153342	-0.240448	0.905715	-0.361801	-0.433265	0.923875	-0.242239	-0.424607	0.926153	-0.338181	-0.312250	0.702111	-0.110770	-0.257768	0.720509	-0.105722	-0.286788	0.652650	-0.108055	-0.231722	0.670513	-0.108149	-0.188961	0.460003	-0.145155	-0.183601	0.460834	-0.233608	-0.269738	0.375252	-0.122748	-0.230897	0.360957	-0.123896	-0.278298	0.332497	-0.120006	-0.232163	0.322589	-0.127727	-0.321741	0.102479	-0.162782	-0.315600	0.095236	-0.247106	-0.227620	0.037856	-0.122194	-0.205686	0.031671	-0.227409	-0.142900	0.051279	-0.165956	-0.399235	0.079852	-0.213774	-0.262951	0.698694	-0.442669	-0.213750	0.712127	-0.430685	-0.253233	0.656484	-0.441728	-0.202869	0.673050	-0.432431	-0.172342	0.470890	-0.411299	-0.185323	0.461888	-0.302837	-0.274347	0.424855	-0.442513	-0.245733	0.387270	-0.421996	-0.313205	0.400944	-0.448146	-0.286564	0.366448	-0.426534	-0.519707	0.265269	-0.421083	-0.505363	0.249005	-0.340662	-0.500988	0.136826	-0.458839	-0.506546	0.127833	-0.354328	-0.455067	0.089812	-0.408031	-0.569540	0.306524	-0.389598	-0.208739	1.312068	-0.093872	-0.159138	1.327406	-0.406512	
65	0.3200	-0.269429	0.909247	-0.152353	-0.225671	0.905269	-0.360523	-0.418555	0.923346	-0.241119	-0.410341	0.925090	-0.337162	-0.298464	0.701508	-0.110046	-0.243881	0.719412	-0.105174	-0.273531	0.651840	-0.107577	-0.218351	0.669181	-0.107761	-0.178140	0.457965	-0.145222	-0.173155	0.458861	-0.233724	-0.260722	0.374939	-0.122462	-0.222098	0.359627	-0.124074	-0.270326	0.332289	-0.119862	-0.224350	0.321190	-0.128017	-0.321116	0.103031	-0.162853	-0.315538	0.095588	-0.247527	-0.228462	0.036868	-0.122448	-0.206556	0.030513	-0.227753	-0.143278	0.049153	-0.166192	-0.399824	0.081283	-0.213982	-0.245598	0.698922	-0.441354	-0.196436	0.713293	-0.429413	-0.235003	0.656846	-0.440301	-0.184837	0.674392	-0.431076	-0.150249	0.472853	-0.409398	-0.163113	0.463938	-0.300878	-0.251322	0.425328	-0.440389	-0.222064	0.388120	-0.419820	-0.289778	0.400961	-0.446104	-0.262810	0.367057	-0.424536	-0.494265	0.262416	-0.418794	-0.479749	0.246718	-0.338342	-0.470630	0.135225	-0.456945	-0.476449	0.125834	-0.352390	-0.423348	0.090139	-0.405909	-0.545967	0.301837	-0.387571	-0.193993	1.311306	-0.093145	-0.146213	1.327419	-0.406420	
66	0.3250	-0.255585	0.908900	-0.151411	-0.211911	0.904922	-0.359304	-0.404839	0.922930	-0.240051	-0.397053	0.924174	-0.336181	-0.285706	0.700984	-0.109382	-0.231025	0.718400	-0.104664	-0.261296	0.651112	-0.107140	-0.206007	0.667936	-0.107395	-0.168288	0.456040	-0.145276	-0.163631	0.456983	-0.233834	-0.252533	0.374618	-0.122197	-0.214115	0.358380	-0.124225	-0.263094	0.332074	-0.119734	-0.217276	0.319888	-0.128270	-0.320592	0.103626	-0.162889	-0.315546	0.096011	-0.247880	-0.229278	0.036147	-0.122656	-0.207417	0.029686	-0.228035	-0.143727	0.047505	-0.166379	-0.400382	0.082622	-0.214133	-0.229482	0.699244	-0.440121	-0.180355	0.714495	-0.428241	-0.218061	0.657301	-0.438960	-0.168085	0.675767	-0.429826	-0.129680	0.474851	-0.407607	-0.142420	0.466029	-0.299044	-0.229851	0.425836	-0.438379	-0.199924	0.389006	-0.417764	-0.267896	0.401001	-0.444175	-0.240577	0.367686	-0.422666	-0.470304	0.259457	-0.416656	-0.455616	0.244332	-0.336175	-0.441957	0.133463	-0.455143	-0.448010	0.123724	-0.350538	-0.393333	0.090302	-0.403860	-0.523820	0.297102	-0.385700	-0.180211	1.310691	-0.092522	-0.134169	1.327443	-0.406348	
67	0.3300	-0.242802	0.908648	-0.150522	-0.199223	0.904667	-0.358154	-0.392175	0.922618	-0.239042	-0.384797	0.923399	-0.335245	-0.274016	0.700533	-0.108778	-0.219241	0.717470	-0.104193	-0.250118	0.650463	-0.106745	-0.194723	0.666779	-0.107055	-0.159413	0.454236	-0.145319	-0.155037	0.455208	-0.233937	-0.245172	0.374289	-0.121955	-0.206949	0.357218	-0.124349	-0.256600	0.331852	-0.119623	-0.210938	0.318685	-0.128488	-0.320143	0.104247	-0.162895	-0.315589	0.096483	-0.248169	-0.230039	0.035663	-0.122821	-0.208235	0.029150	-0.228256	-0.144209	0.046288	-0.166517	-0.400882	0.083862	-0.214232	-0.214665	0.699640	-0.438977	-0.165571	0.715708	-0.427174	-0.202478	0.657830	-0.437715	-0.152679	0.677148	-0.428685	-0.110726	0.476846	-0.405942	-0.123337	0.468121	-0.297348	-0.210037	0.426369	-0.436497	-0.179431	0.389910	-0.415843	-0.247672	0.401066	-0.442376	-0.219988	0.368325	-0.420934	-0.447982	0.256464	-0.414680	-0.433125	0.241909	-0.334173	-0.415187	0.131602	-0.453448	-0.421443	0.121562	-0.348788	-0.365261	0.090325	-0.401906	-0.503228	0.292416	-0.383988	-0.167458	1.310212	-0.091997	-0.123057	1.327477	-0.406292	
68	0.3350	-0.231124	0.908481	-0.149692	-0.187645	0.904495	-0.357081	-0.380607	0.922397	-0.238101	-0.373610	0.922756	-0.334363	-0.263420	0.700147	-0.108237	-0.208555	0.716621	-0.103764	-0.240017	0.649886	-0.106392	-0.184521	0.665711	-0.106741	-0.151510	0.452560	-0.145352	-0.147369	0.453546	-0.234032	-0.238628	0.373955	-0.121739	-0.200587	0.356144	-0.124449	-0.250832	0.331623	-0.119529	-0.205320	0.317585	-0.128672	-0.319748	0.104877	-0.162875	-0.315646	0.096987	-0.248398	-0.230725	0.035385	-0.122943	-0.208987	0.028863	-0.228422	-0.144694	0.045451	-0.166610	-0.401307	0.084999	-0.214285	-0.201190	0.700093	-0.437930	-0.152125	0.716908	-0.426215	-0.188298	0.658411	-0.436572	-0.138664	0.678509	-0.427657	-0.093454	0.478802	-0.404414	-0.105932	0.470173	-0.295799	-0.191955	0.426916	-0.434758	-0.160674	0.390815	-0.414069	-0.229189	0.401152	-0.440718	-0.201135	0.368961	-0.419350	-0.427428	0.253508	-0.412875	-0.412404	0.239506	-0.332345	-0.390495	0.129701	-0.451871	-0.396923	0.119407	-0.347154	-0.339327	0.090230	-0.400069	-0.484294	0.287870	-0.382438	-0.155786	1.309857	-0.091562	-0.112917	1.327520	-0.406251	
69	0.3400	-0.220578	0.908385	-0.148927	-0.177201	0.904397	-0.356092	-0.370161	0.922255	-0.237232	-0.363517	0.922236	-0.333541	-0.253926	0.699820	-0.107757	-0.198977	0.715852	-0.103376	-0.230994	0.649377	-0.106081	-0.175403	0.664733	-0.106455	-0.144557	0.451020	-0.145374	-0.140608	0.452004	-0.234119	-0.232882	0.373621	-0.121549	-0.195007	0.355162	-0.124526	-0.245769	0.331390	-0.119453	-0.200401	0.316588	-0.128823	-0.319393	0.105500	-0.162834	-0.315698	0.097504	-0.248572	-0.231326	0.035277	-0.123028	-0.209657	0.028780	-0.228536	-0.145160	0.044935	-0.166663	-0.401649	0.086028	-0.214300	-0.189078	0.700581	-0.436985	-0.140041	0.718073	-0.425364	-0.175548	0.659022	-0.435538	-0.126065	0.679825	-0.426743	-0.077901	0.480685	-0.403030	-0.090245	0.472150	-0.294403	-0.175652	0.427463	-0.433172	-0.143713	0.391702	-0.412453	-0.212499	0.401255	-0.439208	-0.184081	0.369583	-0.417918	-0.408733	0.250648	-0.411247	-0.393550	0.237175	-0.330697	-0.368009	0.127813	-0.450423	-0.374579	0.117310	-0.345647	-0.315679	0.090043	-0.398366	-0.467092	0.283541	-0.381052	-0.145227	1.309613	-0.091208	-0.103770	1.327570	-0.406220	
70	0.3450	-0.211173	0.908347	-0.148230	-0.167896	0.904360	-0.355191	-0.360846	0.922178	-0.236440	-0.354524	0.921824	-0.332787	-0.245527	0.699544	-0.107338	-0.190498	0.715160	-0.103031	-0.223036	0.648932	-0.105810	-0.167356	0.663845	-0.106198	-0.138520	0.449620	-0.145389	-0.134723	0.450590	-0.234198	-0.227901	0.373290	-0.121384	-0.190176	0.354272	-0.124583	-0.241383	0.331156	-0.119392	-0.196148	0.315693	-0.128946	-0.319070	0.106101	-0.162778	-0.315735	0.098018	-0.248699	-0.231835	0.035305	-0.123081	-0.210238	0.028857	-0.228607	-0.145591	0.044684	-0.166683	-0.401905	0.086949	-0.214284	-0.178328	0.701086	-0.436141	-0.129316	0.719183	-0.424619	-0.164228	0.659642	-0.434615	-0.114881	0.681075	-0.425942	-0.064075	0.482465	-0.401796	-0.076287	0.474019	-0.293162	-0.161141	0.427999	-0.431746	-0.128573	0.392554	-0.411000	-0.197624	0.401372	-0.437854	-0.168853	0.370180	-0.416642	-0.391954	0.247939	-0.409796	-0.376621	0.234960	-0.329230	-0.347812	0.125988	-0.449110	-0.354494	0.115313	-0.344276	-0.294411	0.089788	-0.396811	-0.451665	0.279496	-0.379827	-0.135798	1.309463	-0.090926	-0.095625	1.327625	-0.406199	
71	0.3500	-0.202900	0.908356	-0.147605	-0.159718	0.904373	-0.354383	-0.352652	0.922153	-0.235729	-0.346618	0.921509	-0.332103	-0.238196	0.699314	-0.106976	-0.183094	0.714546	-0.102727	-0.216112	0.648544	-0.105577	-0.160351	0.663049	-0.105971	-0.133352	0.448364	-0.145396	-0.129672	0.449310	-0.234268	-0.223643	0.372969	-0.121245	-0.186054	0.353476	-0.124624	-0.237635	0.330926	-0.119347	-0.192524	0.314901	-0.129042	-0.318773	0.106668	-0.162711	-0.315753	0.098514	-0.248787	-0.232255	0.035435	-0.123106	-0.210727	0.029052	-0.228641	-0.145977	0.044641	-0.166675	-0.402081	0.087762	-0.214246	-0.168918	0.701591	-0.435401	-0.119928	0.720219	-0.423978	-0.154315	0.660252	-0.433803	-0.105089	0.682238	-0.425250	-0.051953	0.484116	-0.400711	-0.064038	0.475752	-0.292075	-0.148405	0.428513	-0.430482	-0.115248	0.393357	-0.409713	-0.184550	0.401498	-0.436656	-0.155446	0.370741	-0.415520	-0.377109	0.245424	-0.408521	-0.361635	0.232901	-0.327943	-0.329935	0.124265	-0.447938	-0.336702	0.113455	-0.343049	-0.275565	0.089489	-0.395414	-0.438022	0.275786	-0.378758	-0.127492	1.309391	-0.090707	-0.088470	1.327683	-0.406185	
72	0.3550	-0.195730	0.908398	-0.147052	-0.152637	0.904422	-0.353669	-0.345552	0.922168	-0.235101	-0.339771	0.921276	-0.331495	-0.231893	0.699123	-0.106670	-0.176725	0.714005	-0.102464	-0.210178	0.648211	-0.105382	-0.154343	0.662344	-0.105772	-0.128996	0.447254	-0.145398	-0.125402	0.448168	-0.234330	-0.220060	0.372663	-0.121129	-0.182589	0.352774	-0.124650	-0.234480	0.330704	-0.119314	-0.189482	0.314208	-0.129116	-0.318499	0.107190	-0.162639	-0.315750	0.098979	-0.248841	-0.232589	0.035635	-0.123109	-0.211126	0.029326	-0.228645	-0.146311	0.044752	-0.166647	-0.402186	0.088469	-0.214191	-0.160804	0.702079	-0.434761	-0.111834	0.721167	-0.423434	-0.145765	0.660835	-0.433100	-0.096645	0.683301	-0.424662	-0.041487	0.485617	-0.399773	-0.053451	0.477327	-0.291139	-0.137395	0.428993	-0.429380	-0.103697	0.394097	-0.408590	-0.173234	0.401626	-0.435614	-0.143824	0.371258	-0.414550	-0.364177	0.243138	-0.407419	-0.348575	0.231025	-0.326831	-0.314360	0.122678	-0.446907	-0.321188	0.111762	-0.341966	-0.259129	0.089166	-0.394179	-0.426140	0.272449	-0.377840	-0.120285	1.309380	-0.090542	-0.082280	1.327741	-0.406176	
73	0.3600	-0.189618	0.908463	-0.146571	-0.146605	0.904497	-0.353048	-0.339500	0.922210	-0.234554	-0.333938	0.921111	-0.330962	-0.226562	0.698967	-0.106414	-0.171336	0.713536	-0.102240	-0.205175	0.647928	-0.105219	-0.149275	0.661729	-0.105602	-0.125386	0.446287	-0.145396	-0.121851	0.447166	-0.234383	-0.217095	0.372379	-0.121034	-0.179727	0.352165	-0.124665	-0.231870	0.330495	-0.119293	-0.186971	0.313613	-0.129170	-0.318250	0.107661	-0.162565	-0.315727	0.099405	-0.248870	-0.232847	0.035878	-0.123096	-0.211443	0.029646	-0.228628	-0.146592	0.044968	-0.166604	-0.402232	0.089075	-0.214128	-0.153922	0.702536	-0.434218	-0.104969	0.722017	-0.422981	-0.138511	0.661377	-0.432502	-0.089482	0.684251	-0.424172	-0.032599	0.486955	-0.398976	-0.044452	0.478731	-0.290346	-0.128037	0.429433	-0.428435	-0.093851	0.394765	-0.407628	-0.163603	0.401753	-0.434722	-0.133915	0.371724	-0.413724	-0.353103	0.241103	-0.406481	-0.337385	0.229352	-0.325886	-0.301023	0.121250	-0.446016	-0.307892	0.110255	-0.341028	-0.245042	0.088839	-0.393108	-0.415964	0.269507	-0.377063	-0.114136	1.309415	-0.090421	-0.077013	1.327798	-0.406172	
74	0.3650	-0.184502	0.908541	-0.146161	-0.141559	0.904587	-0.352519	-0.334435	0.922270	-0.234088	-0.329058	0.921000	-0.330505	-0.222135	0.698840	-0.106205	-0.166856	0.713137	-0.102052	-0.201033	0.647690	-0.105088	-0.145077	0.661201	-0.105459	-0.122449	0.445460	-0.145390	-0.118953	0.446301	-0.234428	-0.214686	0.372121	-0.120959	-0.177405	0.351644	-0.124671	-0.229750	0.330302	-0.119281	-0.184937	0.313109	-0.129209	-0.318025	0.108075	-0.162494	-0.315690	0.099784	-0.248879	-0.233037	0.036139	-0.123073	-0.211686	0.029981	-0.228597	-0.146821	0.045246	-0.166553	-0.402232	0.089584	-0.214061	-0.148190	0.702953	-0.433765	-0.099252	0.722761	-0.422612	-0.132468	0.661867	-0.432004	-0.083517	0.685081	-0.423770	-0.025189	0.488122	-0.398312	-0.036942	0.479953	-0.289687	-0.120226	0.429826	-0.427642	-0.085613	0.395355	-0.406819	-0.155555	0.401874	-0.433973	-0.125623	0.372135	-0.413035	-0.343794	0.239333	-0.405698	-0.327975	0.227894	-0.325099	-0.289816	0.119995	-0.445260	-0.296709	0.108943	-0.340230	-0.233196	0.088523	-0.392196	-0.407408	0.266969	-0.376417	-0.108984	1.309481	-0.090336	-0.072612	1.327851	-0.406171	
75	0.3700	-0.180306	0.908623	-0.145818	-0.137422	0.904682	-0.352077	-0.330282	0.922337	-0.233698	-0.325057	0.920932	-0.330120	-0.218531	0.698739	-0.106038	-0.163209	0.712802	-0.101897	-0.197673	0.647494	-0.104983	-0.141668	0.660757	-0.105340	-0.120109	0.444768	-0.145384	-0.116636	0.445571	-0.234466	-0.212770	0.371892	-0.120902	-0.175561	0.351209	-0.124671	-0.228063	0.330130	-0.119276	-0.183323	0.312691	-0.129236	-0.317825	0.108429	-0.162428	-0.315641	0.100113	-0.248875	-0.233172	0.036397	-0.123043	-0.211866	0.030309	-0.228557	-0.147003	0.045550	-0.166499	-0.402198	0.090004	-0.213995	-0.143512	0.703321	-0.433396	-0.094587	0.723398	-0.422316	-0.127536	0.662297	-0.431596	-0.078649	0.685790	-0.423449	-0.019137	0.489115	-0.397772	-0.030801	0.480994	-0.289151	-0.113841	0.430167	-0.426989	-0.078860	0.395862	-0.406152	-0.148968	0.401984	-0.433359	-0.118827	0.372489	-0.412472	-0.336132	0.237830	-0.405057	-0.320225	0.226654	-0.324455	-0.280596	0.118922	-0.444633	-0.287500	0.107830	-0.339566	-0.223442	0.088232	-0.391438	-0.400362	0.264830	-0.375892	-0.104756	1.309565	-0.090280	-0.069010	1.327900	-0.406172	
