PathFileType	4	(X/Y/Z)	 P2 250r2 05.trc
DataRate	CameraRate	NumFrames	NumMarkers	Units	OrigDataRate	OrigDataStartFrame	OrigNumFrames
200	200	72	38	m	200	2	73
Frame#	Time	RASIS			LASIS			RPSIS			LPSIS			RThighRear1			RThighFront1			RThighRear2			RThighFront2			RKneeLat			RKneeMed			RShankRear1			RShankFront1			RShankRear2			RShankFront2			RAnkleLat			RAnkleMed			RM5			RM1			RMid			RHeel			LThighRear1			LThighFront1			LThighRear2			LThighFront2			LKneeLat			LKneeMed			LShankRear1			LShankFront1			LShankRear2			LShankFront2			LAnkleLat			LAnkleMed			LM5			LM1			LMid			LHeel			RShoulder			LShoulder			
		X1	Y1	Z1	X2	Y2	Z2	X3	Y3	Z3	X4	Y4	Z4	X5	Y5	Z5	X6	Y6	Z6	X7	Y7	Z7	X8	Y8	Z8	X9	Y9	Z9	X10	Y10	Z10	X11	Y11	Z11	X12	Y12	Z12	X13	Y13	Z13	X14	Y14	Z14	X15	Y15	Z15	X16	Y16	Z16	X17	Y17	Z17	X18	Y18	Z18	X19	Y19	Z19	X20	Y20	Z20	X21	Y21	Z21	X22	Y22	Z22	X23	Y23	Z23	X24	Y24	Z24	X25	Y25	Z25	X26	Y26	Z26	X27	Y27	Z27	X28	Y28	Z28	X29	Y29	Z29	X30	Y30	Z30	X31	Y31	Z31	X32	Y32	Z32	X33	Y33	Z33	X34	Y34	Z34	X35	Y35	Z35	X36	Y36	Z36	X37	Y37	Z37	X38	Y38	Z38	
1	0.0000	-1.495730	0.870821	-0.278694	-1.499652	0.883051	-0.511038	-1.679801	0.913991	-0.348923	-1.679359	0.918065	-0.437213	-1.553767	0.632469	-0.212291	-1.494532	0.646697	-0.230386	-1.549089	0.582993	-0.212464	-1.486365	0.593090	-0.228231	-1.567984	0.390385	-0.239771	-1.542552	0.385609	-0.363846	-1.701660	0.378312	-0.243074	-1.673774	0.325265	-0.255601	-1.769653	0.352964	-0.263739	-1.737202	0.303092	-0.275211	-1.925666	0.285563	-0.311416	-1.909272	0.283745	-0.393537	-1.986105	0.164837	-0.293627	-1.969375	0.155513	-0.406221	-1.937720	0.092713	-0.356496	-1.973676	0.351556	-0.373241	-1.515239	0.684806	-0.584513	-1.465130	0.714098	-0.574196	-1.493574	0.639001	-0.580236	-1.444574	0.675038	-0.576461	-1.383979	0.431860	-0.558498	-1.359241	0.440219	-0.449160	-1.434882	0.310445	-0.574797	-1.384240	0.312037	-0.561749	-1.436337	0.260762	-0.567628	-1.387626	0.262543	-0.553947	-1.430268	0.068777	-0.533468	-1.423375	0.080760	-0.452074	-1.329047	0.001109	-0.561154	-1.302783	0.005769	-0.446288	-1.242472	0.031167	-0.510988	-1.505674	0.039217	-0.484777	-1.415764	1.366917	-0.294940	-1.444640	1.322017	-0.612772	
2	0.0050	-1.479754	0.868990	-0.277444	-1.483513	0.881601	-0.510252	-1.664190	0.911535	-0.348171	-1.663448	0.916598	-0.436404	-1.532549	0.632490	-0.210373	-1.473958	0.648190	-0.228602	-1.526366	0.583446	-0.210153	-1.464238	0.595183	-0.226112	-1.538985	0.391675	-0.236790	-1.512904	0.387198	-0.361072	-1.672135	0.378670	-0.240626	-1.643679	0.325624	-0.252772	-1.740009	0.352768	-0.261324	-1.707059	0.302964	-0.272506	-1.895473	0.283764	-0.309193	-1.878732	0.281591	-0.391251	-1.953213	0.162737	-0.289990	-1.936302	0.152144	-0.402391	-1.903055	0.090783	-0.351941	-1.944817	0.348371	-0.372109	-1.501206	0.682745	-0.584205	-1.450722	0.711483	-0.574250	-1.480153	0.636682	-0.580054	-1.430698	0.672165	-0.576732	-1.372643	0.428341	-0.558901	-1.347281	0.436045	-0.449535	-1.425919	0.308348	-0.574896	-1.375460	0.308730	-0.561788	-1.428745	0.258986	-0.567563	-1.380284	0.259571	-0.553752	-1.428787	0.068394	-0.532576	-1.421814	0.080195	-0.450965	-1.328864	0.001171	-0.561253	-1.302232	0.005085	-0.446177	-1.241782	0.029330	-0.510428	-1.505240	0.039198	-0.483882	-1.400401	1.364953	-0.293592	-1.426481	1.319227	-0.612135	
3	0.0100	-1.463567	0.867145	-0.276177	-1.467148	0.880113	-0.509466	-1.648360	0.909085	-0.347413	-1.647319	0.915114	-0.435584	-1.511079	0.632594	-0.208439	-1.453160	0.649791	-0.226806	-1.503370	0.584006	-0.207831	-1.441864	0.597411	-0.223985	-1.509614	0.393136	-0.233793	-1.482913	0.388972	-0.358283	-1.642226	0.379073	-0.238141	-1.613148	0.326057	-0.249910	-1.709956	0.352547	-0.258854	-1.676465	0.302850	-0.269747	-1.864804	0.281780	-0.306884	-1.847732	0.279264	-0.388890	-1.919723	0.160429	-0.286264	-1.902625	0.148579	-0.398472	-1.867727	0.088715	-0.347308	-1.915554	0.344924	-0.370874	-1.487028	0.680655	-0.583873	-1.436162	0.708821	-0.574291	-1.466604	0.634331	-0.579855	-1.416685	0.669239	-0.576992	-1.361293	0.424745	-0.559312	-1.335290	0.431772	-0.449931	-1.416975	0.306203	-0.574997	-1.366701	0.305364	-0.561836	-1.421177	0.257168	-0.567498	-1.372972	0.256554	-0.553564	-1.427363	0.068017	-0.531689	-1.420298	0.079636	-0.449857	-1.328686	0.001207	-0.561339	-1.301675	0.004400	-0.446063	-1.241081	0.027540	-0.509868	-1.504868	0.039154	-0.482985	-1.384864	1.363001	-0.292212	-1.408048	1.316464	-0.611453	
4	0.0150	-1.447169	0.865306	-0.274889	-1.450548	0.878591	-0.508677	-1.632301	0.906663	-0.346649	-1.630960	0.913624	-0.434753	-1.489377	0.632813	-0.206494	-1.432159	0.651527	-0.225003	-1.480121	0.584708	-0.205505	-1.419271	0.599804	-0.221859	-1.479907	0.394811	-0.230788	-1.452630	0.390978	-0.355488	-1.611954	0.379529	-0.235616	-1.582194	0.326588	-0.247020	-1.679498	0.352288	-0.256320	-1.645420	0.302758	-0.266930	-1.833625	0.279563	-0.304470	-1.816241	0.276724	-0.386435	-1.885568	0.157878	-0.282435	-1.868277	0.144796	-0.394455	-1.831667	0.086506	-0.342595	-1.885853	0.341141	-0.369501	-1.472710	0.678551	-0.583510	-1.421456	0.706119	-0.574309	-1.452937	0.631963	-0.579632	-1.402546	0.666269	-0.577230	-1.349977	0.421086	-0.559726	-1.323323	0.427414	-0.450346	-1.408092	0.304027	-0.575102	-1.358010	0.301961	-0.561894	-1.413672	0.255327	-0.567434	-1.365730	0.253511	-0.553390	-1.426007	0.067660	-0.530825	-1.418838	0.079096	-0.448768	-1.328520	0.001204	-0.561411	-1.301121	0.003717	-0.445948	-1.240375	0.025811	-0.509312	-1.504567	0.039099	-0.482105	-1.369172	1.361087	-0.290796	-1.389339	1.313764	-0.610708	
5	0.0200	-1.430550	0.863493	-0.273581	-1.433693	0.877042	-0.507881	-1.615999	0.904292	-0.345880	-1.614356	0.912139	-0.433912	-1.467451	0.633180	-0.204541	-1.410968	0.653429	-0.223198	-1.456636	0.585587	-0.203183	-1.396476	0.602393	-0.219743	-1.449895	0.396743	-0.227785	-1.422097	0.393258	-0.352692	-1.581331	0.380041	-0.233048	-1.550820	0.327239	-0.244101	-1.648629	0.351982	-0.253712	-1.613910	0.302694	-0.264049	-1.801885	0.277071	-0.301930	-1.784218	0.273932	-0.383868	-1.850668	0.155050	-0.278490	-1.833176	0.140779	-0.390328	-1.794793	0.084160	-0.337799	-1.855668	0.336949	-0.367958	-1.458247	0.676447	-0.583106	-1.406601	0.703386	-0.574291	-1.439153	0.629597	-0.579375	-1.388285	0.663267	-0.577429	-1.338738	0.417385	-0.560139	-1.311428	0.422988	-0.450775	-1.399310	0.301841	-0.575210	-1.349425	0.298543	-0.561963	-1.406263	0.253483	-0.567375	-1.358591	0.250467	-0.553233	-1.424725	0.067340	-0.529998	-1.417441	0.078594	-0.447716	-1.328370	0.001152	-0.561470	-1.300581	0.003033	-0.445836	-1.239676	0.024158	-0.508765	-1.504344	0.039049	-0.481260	-1.353336	1.359242	-0.289343	-1.370344	1.311163	-0.609881	
6	0.0250	-1.413695	0.861732	-0.272247	-1.416560	0.875472	-0.507071	-1.599433	0.901997	-0.345108	-1.597484	0.910672	-0.433063	-1.445309	0.633725	-0.202584	-1.389594	0.655523	-0.221395	-1.432925	0.586677	-0.200870	-1.373493	0.605209	-0.217643	-1.419607	0.398972	-0.224793	-1.391356	0.395853	-0.349901	-1.550366	0.380614	-0.230431	-1.519026	0.328032	-0.241155	-1.617335	0.351615	-0.251021	-1.581917	0.302667	-0.261097	-1.769525	0.274262	-0.299243	-1.751611	0.270854	-0.381171	-1.814930	0.151922	-0.274415	-1.797230	0.136519	-0.386079	-1.757016	0.081687	-0.332916	-1.824935	0.332277	-0.366210	-1.443631	0.674361	-0.582651	-1.391590	0.700634	-0.574222	-1.425249	0.627251	-0.579078	-1.373898	0.660244	-0.577575	-1.327611	0.413663	-0.560543	-1.299651	0.418514	-0.451213	-1.390662	0.299670	-0.575321	-1.340979	0.295137	-0.562045	-1.398977	0.251660	-0.567323	-1.351584	0.247449	-0.553101	-1.423518	0.067074	-0.529229	-1.416110	0.078146	-0.446721	-1.328241	0.001042	-0.561517	-1.300067	0.002350	-0.445732	-1.238994	0.022592	-0.508232	-1.504198	0.039026	-0.480472	-1.337363	1.357493	-0.287848	-1.351053	1.308698	-0.608954	
7	0.0300	-1.396588	0.860047	-0.270887	-1.399121	0.873891	-0.506240	-1.582578	0.899802	-0.344334	-1.580316	0.909237	-0.432207	-1.422954	0.634481	-0.200625	-1.368044	0.657835	-0.219599	-1.408995	0.588008	-0.198574	-1.350332	0.608275	-0.215567	-1.389071	0.401532	-0.221818	-1.360446	0.398795	-0.347119	-1.519063	0.381249	-0.227762	-1.486812	0.328987	-0.238183	-1.585603	0.351176	-0.248238	-1.549424	0.302685	-0.258068	-1.736481	0.271100	-0.296390	-1.718362	0.267459	-0.378326	-1.778261	0.148478	-0.270199	-1.760346	0.132011	-0.381700	-1.718247	0.079105	-0.327946	-1.793589	0.327061	-0.364225	-1.428847	0.672313	-0.582135	-1.376412	0.697873	-0.574088	-1.411216	0.624947	-0.578730	-1.359378	0.657214	-0.577652	-1.316630	0.409947	-0.560931	-1.288034	0.414018	-0.451652	-1.382175	0.297542	-0.575435	-1.332702	0.291774	-0.562140	-1.391838	0.249886	-0.567282	-1.344730	0.244487	-0.552996	-1.422385	0.066884	-0.528536	-1.414845	0.077773	-0.445801	-1.328138	0.000863	-0.561554	-1.299590	0.001666	-0.445639	-1.238339	0.021119	-0.507715	-1.504127	0.039056	-0.479763	-1.321258	1.355871	-0.286309	-1.331452	1.306409	-0.607906	
8	0.0350	-1.379210	0.858466	-0.269497	-1.381347	0.872310	-0.505380	-1.565411	0.897730	-0.343559	-1.562826	0.907849	-0.431346	-1.400387	0.635473	-0.198666	-1.346318	0.660387	-0.217813	-1.384856	0.589609	-0.196299	-1.327003	0.611615	-0.213522	-1.358319	0.404449	-0.218868	-1.329408	0.402111	-0.344350	-1.487430	0.381944	-0.225034	-1.454184	0.330122	-0.235183	-1.553419	0.350654	-0.245352	-1.516415	0.302756	-0.254958	-1.702691	0.267557	-0.293352	-1.684417	0.263724	-0.375316	-1.740573	0.144709	-0.265831	-1.722434	0.127264	-0.377181	-1.678405	0.076441	-0.322886	-1.761557	0.321244	-0.361975	-1.413878	0.670321	-0.581549	-1.361049	0.695119	-0.573874	-1.397042	0.622709	-0.578322	-1.344715	0.654192	-0.577643	-1.305821	0.406268	-0.561294	-1.276611	0.409529	-0.452085	-1.373870	0.295488	-0.575551	-1.324614	0.288489	-0.562250	-1.384861	0.248191	-0.567253	-1.338048	0.241615	-0.552923	-1.421316	0.066791	-0.527937	-1.413639	0.077496	-0.444979	-1.328066	0.000609	-0.561586	-1.299165	0.000979	-0.445562	-1.237726	0.019745	-0.507221	-1.504122	0.039169	-0.479156	-1.305025	1.354407	-0.284724	-1.311531	1.304333	-0.606720	
9	0.0400	-1.361542	0.857018	-0.268074	-1.363211	0.870741	-0.504481	-1.547907	0.895804	-0.342784	-1.544987	0.906524	-0.430481	-1.377612	0.636725	-0.196709	-1.324419	0.663196	-0.216041	-1.360518	0.591500	-0.194050	-1.303515	0.615242	-0.211514	-1.327389	0.407744	-0.215950	-1.298287	0.405818	-0.341596	-1.455479	0.382695	-0.222243	-1.421150	0.331451	-0.232157	-1.520774	0.350039	-0.242358	-1.482880	0.302885	-0.251762	-1.668098	0.263612	-0.290115	-1.649723	0.259633	-0.372127	-1.701786	0.140619	-0.261302	-1.683416	0.122293	-0.372517	-1.637420	0.073730	-0.317738	-1.728770	0.314781	-0.359435	-1.398703	0.668408	-0.580884	-1.345485	0.692387	-0.573564	-1.382713	0.620560	-0.577847	-1.329896	0.651197	-0.577531	-1.295203	0.402659	-0.561623	-1.265416	0.405081	-0.452499	-1.365762	0.293544	-0.575670	-1.316730	0.285317	-0.562372	-1.378057	0.246610	-0.567241	-1.331545	0.238867	-0.552887	-1.420298	0.066816	-0.527453	-1.412483	0.077337	-0.444274	-1.328028	0.000275	-0.561615	-1.298804	0.000289	-0.445507	-1.237166	0.018471	-0.506752	-1.504170	0.039398	-0.478675	-1.288667	1.353132	-0.283092	-1.291281	1.302507	-0.605376	
10	0.0450	-1.343569	0.855732	-0.266614	-1.344686	0.869200	-0.503532	-1.530046	0.894048	-0.342009	-1.526772	0.905279	-0.429614	-1.354635	0.638257	-0.194756	-1.302352	0.666273	-0.214285	-1.335994	0.593699	-0.191831	-1.279880	0.619165	-0.209547	-1.296322	0.411425	-0.213070	-1.267132	0.409923	-0.338861	-1.423227	0.383495	-0.219386	-1.387732	0.332983	-0.229105	-1.487664	0.349320	-0.239248	-1.448819	0.303079	-0.248477	-1.632654	0.259255	-0.286667	-1.614236	0.255178	-0.368748	-1.661834	0.136225	-0.256607	-1.643227	0.117127	-0.367703	-1.595243	0.071016	-0.312503	-1.695162	0.307639	-0.356583	-1.383301	0.666597	-0.580130	-1.329702	0.689694	-0.573143	-1.368212	0.618527	-0.577294	-1.314906	0.648247	-0.577300	-1.284789	0.399160	-0.561907	-1.254474	0.400711	-0.452882	-1.357858	0.291747	-0.575788	-1.309059	0.282299	-0.562507	-1.371429	0.245180	-0.567247	-1.325226	0.236282	-0.552889	-1.419310	0.066984	-0.527102	-1.411359	0.077318	-0.443707	-1.328028	-0.000141	-0.561648	-1.298520	-0.000404	-0.445478	-1.236675	0.017295	-0.506313	-1.504248	0.039782	-0.478343	-1.272189	1.352076	-0.281411	-1.270700	1.300964	-0.603860	
11	0.0500	-1.325277	0.854637	-0.265117	-1.325751	0.867704	-0.502522	-1.511809	0.892482	-0.341236	-1.508162	0.904132	-0.428747	-1.331465	0.640081	-0.192809	-1.280121	0.669623	-0.212549	-1.311303	0.596216	-0.189646	-1.256112	0.623386	-0.207625	-1.265172	0.415493	-0.210233	-1.235999	0.414421	-0.336145	-1.390700	0.384334	-0.216458	-1.353959	0.334724	-0.226028	-1.454099	0.348490	-0.236018	-1.414245	0.303342	-0.245103	-1.596323	0.254486	-0.282999	-1.577925	0.250362	-0.365169	-1.620671	0.131552	-0.251744	-1.601820	0.111803	-0.362740	-1.551843	0.068348	-0.307187	-1.660678	0.299800	-0.353405	-1.367652	0.664912	-0.579282	-1.313681	0.687060	-0.572596	-1.353522	0.616635	-0.576658	-1.299730	0.645364	-0.576934	-1.274587	0.395809	-0.562136	-1.243806	0.396463	-0.453221	-1.350156	0.290139	-0.575905	-1.301600	0.279478	-0.562651	-1.364971	0.243940	-0.567273	-1.319085	0.233901	-0.552931	-1.418326	0.067320	-0.526901	-1.410248	0.077464	-0.443297	-1.328066	-0.000637	-0.561691	-1.298328	-0.001099	-0.445482	-1.236266	0.016210	-0.505908	-1.504328	0.040362	-0.478184	-1.255596	1.351265	-0.279682	-1.249792	1.299738	-0.602157	
12	0.0550	-1.306658	0.853761	-0.263579	-1.306390	0.866273	-0.501440	-1.493185	0.891127	-0.340465	-1.489139	0.903101	-0.427881	-1.308117	0.642206	-0.190869	-1.257736	0.673246	-0.210834	-1.286468	0.599051	-0.187497	-1.232229	0.627896	-0.205752	-1.233996	0.419938	-0.207444	-1.204946	0.419297	-0.333450	-1.357932	0.385200	-0.213460	-1.319874	0.336675	-0.222928	-1.420096	0.347541	-0.232669	-1.379182	0.303679	-0.241641	-1.559084	0.249314	-0.279108	-1.540772	0.245197	-0.361387	-1.578272	0.126639	-0.246715	-1.559173	0.106368	-0.357630	-1.507217	0.065785	-0.301796	-1.625272	0.291261	-0.349892	-1.351736	0.663376	-0.578333	-1.297406	0.684505	-0.571910	-1.338627	0.614912	-0.575930	-1.284355	0.642571	-0.576416	-1.264595	0.392650	-0.562299	-1.233423	0.392382	-0.453501	-1.342648	0.288759	-0.576018	-1.294344	0.276896	-0.562801	-1.358672	0.242930	-0.567322	-1.313110	0.231763	-0.553014	-1.417315	0.067848	-0.526866	-1.409122	0.077798	-0.443060	-1.328144	-0.001206	-0.561751	-1.298238	-0.001791	-0.445524	-1.235954	0.015211	-0.505540	-1.504376	0.041182	-0.478217	-1.238895	1.350725	-0.277906	-1.228567	1.298856	-0.600255	
13	0.0600	-1.287709	0.853132	-0.262000	-1.286592	0.864925	-0.500273	-1.474167	0.890000	-0.339696	-1.469693	0.902204	-0.427018	-1.284609	0.644632	-0.188937	-1.235208	0.677133	-0.209141	-1.261515	0.602201	-0.185388	-1.208252	0.632679	-0.203930	-1.202860	0.424736	-0.204709	-1.174039	0.424525	-0.330777	-1.324967	0.386078	-0.210390	-1.285531	0.338830	-0.219806	-1.385684	0.346468	-0.229200	-1.343667	0.304091	-0.238093	-1.520934	0.243761	-0.274994	-1.502772	0.239703	-0.357401	-1.534639	0.121534	-0.241525	-1.515285	0.100877	-0.352380	-1.461387	0.063387	-0.296338	-1.588915	0.282037	-0.346041	-1.335535	0.662012	-0.577278	-1.280862	0.682050	-0.571072	-1.323510	0.613383	-0.575104	-1.268767	0.639890	-0.575734	-1.254804	0.389726	-0.562383	-1.223331	0.388513	-0.453706	-1.335317	0.287649	-0.576124	-1.287276	0.274598	-0.562954	-1.352512	0.242190	-0.567393	-1.307281	0.229911	-0.553138	-1.416237	0.068594	-0.527010	-1.407949	0.078345	-0.443014	-1.328258	-0.001837	-0.561835	-1.298261	-0.002474	-0.445610	-1.235752	0.014287	-0.505214	-1.504350	0.042291	-0.478464	-1.222097	1.350477	-0.276085	-1.207042	1.298343	-0.598146	
14	0.0650	-1.268432	0.852774	-0.260376	-1.266354	0.863681	-0.499009	-1.454754	0.889115	-0.338928	-1.449821	0.901459	-0.426159	-1.260963	0.647353	-0.187015	-1.212552	0.681267	-0.207472	-1.236479	0.605651	-0.183317	-1.184206	0.637712	-0.202159	-1.171835	0.429858	-0.202032	-1.143345	0.430067	-0.328126	-1.291857	0.386950	-0.207251	-1.250995	0.341181	-0.216665	-1.350904	0.345268	-0.225615	-1.307753	0.304579	-0.234464	-1.481888	0.237858	-0.270662	-1.463942	0.233911	-0.353213	-1.489798	0.116295	-0.236183	-1.470185	0.095392	-0.346999	-1.414404	0.061218	-0.290826	-1.551591	0.272156	-0.341857	-1.319032	0.660843	-0.576112	-1.264037	0.679718	-0.570071	-1.308155	0.612073	-0.574176	-1.252952	0.637347	-0.574873	-1.245198	0.387078	-0.562378	-1.213526	0.384904	-0.453819	-1.328136	0.286851	-0.576219	-1.280370	0.272625	-0.563104	-1.346462	0.241760	-0.567486	-1.301568	0.228384	-0.553299	-1.415051	0.069585	-0.527344	-1.406693	0.079129	-0.443169	-1.328406	-0.002512	-0.561950	-1.298404	-0.003138	-0.445745	-1.235673	0.013429	-0.504933	-1.504199	0.043738	-0.478938	-1.205209	1.350541	-0.274221	-1.185241	1.298218	-0.595825	
15	0.0700	-1.248833	0.852707	-0.258708	-1.245680	0.862564	-0.497638	-1.434951	0.888485	-0.338160	-1.429523	0.900883	-0.425304	-1.237207	0.650356	-0.185102	-1.189786	0.685626	-0.205826	-1.211395	0.609381	-0.181287	-1.160117	0.642962	-0.200439	-1.140997	0.435261	-0.199414	-1.112935	0.435875	-0.325497	-1.258663	0.387799	-0.204044	-1.216340	0.343711	-0.213508	-1.315809	0.343939	-0.221921	-1.271503	0.305143	-0.230760	-1.441979	0.231644	-0.266122	-1.424311	0.227859	-0.348831	-1.443801	0.110985	-0.230702	-1.423924	0.089982	-0.341501	-1.366347	0.059343	-0.285270	-1.513304	0.261665	-0.337351	-1.302214	0.659889	-0.574835	-1.246920	0.677530	-0.568898	-1.292547	0.611005	-0.573142	-1.236900	0.634965	-0.573825	-1.235749	0.384748	-0.562271	-1.203996	0.381601	-0.453822	-1.321071	0.286403	-0.576298	-1.273593	0.271019	-0.563245	-1.340487	0.241678	-0.567598	-1.295936	0.227220	-0.553494	-1.413709	0.070844	-0.527875	-1.405311	0.080174	-0.443536	-1.328581	-0.003210	-0.562104	-1.298674	-0.003770	-0.445935	-1.235729	0.012624	-0.504701	-1.503868	0.045571	-0.479653	-1.188244	1.350928	-0.272317	-1.163195	1.298495	-0.593287	
16	0.0750	-1.228925	0.852947	-0.256995	-1.224580	0.861594	-0.496148	-1.414770	0.888118	-0.337391	-1.408808	0.900492	-0.424453	-1.213371	0.653623	-0.183199	-1.166930	0.690179	-0.204203	-1.186304	0.613363	-0.179296	-1.136017	0.648390	-0.198768	-1.110425	0.440896	-0.196859	-1.082878	0.441894	-0.322890	-1.225451	0.388605	-0.200776	-1.181651	0.346403	-0.210339	-1.280461	0.342482	-0.218127	-1.234994	0.305779	-0.226990	-1.401260	0.225169	-0.261387	-1.383930	0.221594	-0.344265	-1.396728	0.105674	-0.225096	-1.376584	0.084717	-0.335899	-1.317319	0.057823	-0.279685	-1.474074	0.250625	-0.332541	-1.285070	0.659169	-0.573444	-1.229505	0.675508	-0.567546	-1.276673	0.610198	-0.571998	-1.220600	0.632766	-0.572579	-1.226425	0.382772	-0.562051	-1.194718	0.378647	-0.453700	-1.314081	0.286340	-0.576355	-1.266904	0.269815	-0.563370	-1.334543	0.241979	-0.567727	-1.290341	0.226453	-0.553718	-1.412158	0.072398	-0.528606	-1.403759	0.081503	-0.444119	-1.328774	-0.003901	-0.562303	-1.299071	-0.004353	-0.446183	-1.235928	0.011862	-0.504521	-1.503294	0.047843	-0.480617	-1.171214	1.351646	-0.270376	-1.140941	1.299181	-0.590535	
17	0.0800	-1.208726	0.853506	-0.255237	-1.203070	0.860789	-0.494530	-1.394228	0.888021	-0.336620	-1.387692	0.900299	-0.423604	-1.189489	0.657125	-0.181305	-1.144007	0.694890	-0.202601	-1.161247	0.617561	-0.177342	-1.111936	0.653948	-0.197142	-1.080198	0.446705	-0.194369	-1.053243	0.448059	-0.320305	-1.192295	0.389346	-0.197453	-1.147015	0.349230	-0.207161	-1.244933	0.340899	-0.214244	-1.198312	0.306484	-0.223162	-1.359803	0.218488	-0.256476	-1.342865	0.215166	-0.339531	-1.348686	0.100435	-0.219383	-1.328268	0.079666	-0.330212	-1.267451	0.056719	-0.274084	-1.433942	0.239108	-0.327449	-1.267593	0.658698	-0.571940	-1.211785	0.673671	-0.566010	-1.260522	0.609668	-0.570743	-1.204044	0.630772	-0.571131	-1.217182	0.381183	-0.561709	-1.185661	0.376080	-0.453436	-1.307114	0.286692	-0.576385	-1.260253	0.269046	-0.563470	-1.328578	0.242693	-0.567867	-1.284733	0.226112	-0.553963	-1.410344	0.074270	-0.529537	-1.401986	0.083138	-0.444919	-1.328971	-0.004551	-0.562553	-1.299592	-0.004863	-0.446495	-1.236277	0.011134	-0.504398	-1.502411	0.050601	-0.481833	-1.154129	1.352697	-0.268401	-1.118517	1.300277	-0.587572	
18	0.0850	-1.188258	0.854389	-0.253434	-1.181174	0.860170	-0.492775	-1.373347	0.888193	-0.335843	-1.366195	0.900317	-0.422757	-1.165597	0.660832	-0.179420	-1.121041	0.699719	-0.201017	-1.136269	0.621933	-0.175423	-1.087905	0.659587	-0.195558	-1.050391	0.452625	-0.191944	-1.024094	0.454301	-0.317741	-1.159269	0.390003	-0.194082	-1.112528	0.352167	-0.203980	-1.209305	0.339195	-0.210285	-1.161552	0.307250	-0.219288	-1.317695	0.211660	-0.251409	-1.301197	0.208631	-0.334645	-1.299802	0.095341	-0.213586	-1.279106	0.074900	-0.324459	-1.216896	0.056079	-0.268484	-1.392968	0.227200	-0.322106	-1.249778	0.658486	-0.570325	-1.193759	0.672037	-0.564289	-1.244082	0.609427	-0.569376	-1.187224	0.628999	-0.569477	-1.207971	0.380005	-0.561234	-1.176782	0.373935	-0.453015	-1.300112	0.287484	-0.576379	-1.253586	0.268736	-0.563536	-1.322537	0.243846	-0.568012	-1.279056	0.226223	-0.554220	-1.408210	0.076482	-0.530661	-1.399941	0.085101	-0.445933	-1.329155	-0.005120	-0.562859	-1.300228	-0.005275	-0.446872	-1.236776	0.010432	-0.504333	-1.501145	0.053893	-0.483296	-1.137000	1.354076	-0.266396	-1.095968	1.301778	-0.584406	
19	0.0900	-1.167546	0.855598	-0.251587	-1.158920	0.859752	-0.490877	-1.352154	0.888633	-0.335057	-1.344343	0.900554	-0.421908	-1.141729	0.664704	-0.177542	-1.098057	0.704618	-0.199446	-1.111412	0.626434	-0.173535	-1.063957	0.665249	-0.194008	-1.021077	0.458587	-0.189583	-0.995490	0.460546	-0.315198	-1.126453	0.390556	-0.190673	-1.078284	0.355181	-0.200800	-1.173663	0.337375	-0.206267	-1.124814	0.308069	-0.215379	-1.275044	0.204750	-0.246211	-1.259026	0.202046	-0.329628	-1.250230	0.090463	-0.207724	-1.229248	0.070480	-0.318660	-1.165824	0.055947	-0.262898	-1.351231	0.214997	-0.316544	-1.231624	0.658539	-0.568603	-1.175428	0.670619	-0.562383	-1.227344	0.609480	-0.567899	-1.170134	0.627464	-0.567617	-1.198734	0.379257	-0.560618	-1.168028	0.372235	-0.452423	-1.293012	0.288733	-0.576330	-1.246840	0.268905	-0.563559	-1.316355	0.245456	-0.568153	-1.273247	0.226804	-0.554479	-1.405698	0.079055	-0.531967	-1.397568	0.087410	-0.447150	-1.329307	-0.005562	-0.563224	-1.300965	-0.005557	-0.447315	-1.237422	0.009753	-0.504329	-1.499420	0.057762	-0.484998	-1.119837	1.355773	-0.264362	-1.073337	1.303672	-0.581048	
20	0.0950	-1.146619	0.857124	-0.249695	-1.136341	0.859548	-0.488830	-1.330678	0.889334	-0.334258	-1.322166	0.901016	-0.421054	-1.117923	0.668699	-0.175670	-1.075081	0.709538	-0.197886	-1.086718	0.631011	-0.171672	-1.040123	0.670875	-0.192484	-0.992322	0.464522	-0.187287	-0.967484	0.466719	-0.312674	-1.093924	0.390987	-0.187237	-1.044378	0.358239	-0.197626	-1.138098	0.335446	-0.202205	-1.088202	0.308932	-0.211447	-1.231968	0.197822	-0.240908	-1.216462	0.195471	-0.324504	-1.200139	0.085865	-0.201823	-1.178864	0.066465	-0.312836	-1.114425	0.056352	-0.257341	-1.308829	0.202600	-0.310803	-1.213131	0.658859	-0.566777	-1.156795	0.669430	-0.560296	-1.210301	0.609828	-0.566313	-1.152769	0.626176	-0.565553	-1.189406	0.378948	-0.559856	-1.159339	0.370998	-0.451649	-1.285743	0.290450	-0.576229	-1.239948	0.269562	-0.563527	-1.309965	0.247536	-0.568280	-1.267240	0.227863	-0.554727	-1.402748	0.082009	-0.533441	-1.394812	0.090083	-0.448556	-1.329399	-0.005827	-0.563648	-1.301780	-0.005674	-0.447825	-1.238206	0.009094	-0.504387	-1.497160	0.062248	-0.486923	-1.102646	1.357771	-0.262300	-1.050670	1.305940	-0.577509	
21	0.1000	-1.125509	0.858955	-0.247761	-1.113477	0.859568	-0.486633	-1.308953	0.890284	-0.333443	-1.299699	0.901706	-0.420190	-1.094215	0.672771	-0.173801	-1.052137	0.714426	-0.196328	-1.062227	0.635612	-0.169831	-1.016431	0.676406	-0.190979	-0.964186	0.470358	-0.185053	-0.940119	0.472746	-0.310170	-1.061759	0.391277	-0.183786	-1.010904	0.361304	-0.194463	-1.102704	0.333417	-0.198118	-1.051824	0.309825	-0.207505	-1.188603	0.190941	-0.235529	-1.173631	0.188963	-0.319299	-1.149719	0.081607	-0.195906	-1.128142	0.062900	-0.307011	-1.062900	0.057312	-0.251829	-1.265877	0.190116	-0.304924	-1.194304	0.659443	-0.564852	-1.137863	0.668475	-0.558034	-1.192946	0.610466	-0.564621	-1.135124	0.625143	-0.563291	-1.179916	0.379076	-0.558940	-1.150643	0.370229	-0.450685	-1.278231	0.292635	-0.576067	-1.232836	0.270708	-0.563430	-1.303295	0.250088	-0.568381	-1.260965	0.229405	-0.554950	-1.399302	0.085359	-0.535061	-1.391615	0.093134	-0.450130	-1.329401	-0.005861	-0.564131	-1.302644	-0.005589	-0.448399	-1.239110	0.008459	-0.504508	-1.494283	0.067384	-0.489049	-1.085434	1.360045	-0.260212	-1.028012	1.308557	-0.573806	
22	0.1050	-1.104247	0.861073	-0.245786	-1.090366	0.859819	-0.484285	-1.287015	0.891470	-0.332607	-1.276980	0.902621	-0.419311	-1.070639	0.676870	-0.171932	-1.029251	0.719230	-0.194767	-1.037977	0.640179	-0.168004	-0.992909	0.681780	-0.189482	-0.936715	0.476026	-0.182879	-0.913427	0.478554	-0.307685	-1.030032	0.391413	-0.180332	-0.977948	0.364338	-0.191317	-1.067578	0.331298	-0.194026	-1.015786	0.310735	-0.203566	-1.145093	0.184168	-0.230106	-1.130667	0.182576	-0.314038	-1.099172	0.077738	-0.189998	-1.077281	0.059823	-0.301206	-1.011461	0.058829	-0.246374	-1.222509	0.177654	-0.298950	-1.175148	0.660280	-0.562835	-1.118640	0.667759	-0.555607	-1.175274	0.611380	-0.562827	-1.117196	0.624365	-0.560840	-1.170190	0.379633	-0.557869	-1.141861	0.369926	-0.449522	-1.270397	0.295280	-0.575834	-1.225430	0.272336	-0.563256	-1.296268	0.253109	-0.568443	-1.254349	0.231423	-0.555133	-1.395304	0.089118	-0.536800	-1.387920	0.096574	-0.451849	-1.329276	-0.005608	-0.564667	-1.303518	-0.005259	-0.449031	-1.240107	0.007857	-0.504690	-1.490712	0.073197	-0.491346	-1.068202	1.362568	-0.258096	-1.005404	1.311492	-0.569958	
23	0.1100	-1.082866	0.863450	-0.243770	-1.067053	0.860301	-0.481788	-1.264900	0.892872	-0.331746	-1.254049	0.903756	-0.418412	-1.047226	0.680945	-0.170061	-1.006445	0.723895	-0.193195	-1.013999	0.644656	-0.166186	-0.969581	0.686938	-0.187982	-0.909950	0.481457	-0.180761	-0.887434	0.484073	-0.305220	-0.998812	0.391381	-0.176890	-0.945591	0.367305	-0.188194	-1.032813	0.329099	-0.189946	-0.980193	0.311647	-0.199644	-1.101592	0.177563	-0.224667	-1.087714	0.176362	-0.308750	-1.048710	0.074297	-0.184124	-1.026494	0.057256	-0.295442	-0.960323	0.060890	-0.240990	-1.178873	0.165324	-0.292928	-1.155673	0.661355	-0.560733	-1.099133	0.667277	-0.553024	-1.157281	0.612552	-0.560935	-1.098982	0.623838	-0.558211	-1.160147	0.380597	-0.556640	-1.132907	0.370071	-0.448157	-1.262160	0.298370	-0.575520	-1.217652	0.274427	-0.562993	-1.288808	0.256584	-0.568450	-1.247317	0.233904	-0.555261	-1.390696	0.093297	-0.538629	-1.383669	0.100412	-0.453680	-1.328980	-0.005010	-0.565251	-1.304354	-0.004641	-0.449714	-1.241163	0.007300	-0.504930	-1.486368	0.079705	-0.493778	-1.050949	1.365303	-0.255950	-0.982884	1.314710	-0.565983	
24	0.1150	-1.061401	0.866058	-0.241716	-1.043581	0.861012	-0.479148	-1.242645	0.894468	-0.330853	-1.230946	0.905100	-0.417488	-1.024007	0.684944	-0.168183	-0.983742	0.728370	-0.191604	-0.990323	0.648988	-0.164370	-0.946469	0.691824	-0.186468	-0.883917	0.486589	-0.178697	-0.862151	0.489242	-0.302774	-0.968163	0.391173	-0.173472	-0.913908	0.370166	-0.185099	-0.998503	0.326831	-0.185899	-0.945144	0.312542	-0.195752	-1.058262	0.171176	-0.219247	-1.044925	0.170365	-0.303464	-0.998555	0.071310	-0.178310	-0.975999	0.055208	-0.289743	-0.909706	0.063465	-0.235689	-1.135131	0.153230	-0.286902	-1.135888	0.662647	-0.558552	-1.079351	0.667025	-0.550301	-1.138963	0.613957	-0.558952	-1.080479	0.623554	-0.555417	-1.149707	0.381937	-0.555253	-1.123687	0.370640	-0.446589	-1.253439	0.301876	-0.575114	-1.209422	0.276954	-0.562630	-1.280837	0.260493	-0.568388	-1.239796	0.236824	-0.555316	-1.385427	0.097901	-0.540512	-1.378806	0.104653	-0.455588	-1.328464	-0.004010	-0.565870	-1.305096	-0.003691	-0.450439	-1.242231	0.006806	-0.505224	-1.481176	0.086920	-0.496305	-1.033672	1.368213	-0.253771	-0.960488	1.318170	-0.561902	
25	0.1200	-1.039882	0.868859	-0.239624	-1.019995	0.861946	-0.476371	-1.220289	0.896233	-0.329926	-1.207714	0.906639	-0.416531	-1.001006	0.688816	-0.166296	-0.961161	0.732605	-0.189986	-0.966971	0.653121	-0.162549	-0.923588	0.696386	-0.184928	-0.858631	0.491364	-0.176681	-0.837581	0.494004	-0.300348	-0.938142	0.390780	-0.170091	-0.882961	0.372885	-0.182038	-0.964737	0.324504	-0.181904	-0.910735	0.313402	-0.191902	-1.015271	0.165053	-0.213874	-1.002456	0.164624	-0.298209	-0.948930	0.068790	-0.172578	-0.926020	0.053674	-0.284129	-0.859828	0.066508	-0.230481	-1.091459	0.141475	-0.280918	-1.115804	0.664130	-0.556301	-1.059304	0.666991	-0.547453	-1.120318	0.615566	-0.556883	-1.061684	0.623498	-0.552476	-1.138786	0.383614	-0.553709	-1.114104	0.371595	-0.444820	-1.244151	0.305767	-0.574608	-1.200661	0.279882	-0.562154	-1.272276	0.264804	-0.568239	-1.231710	0.240153	-0.555280	-1.379445	0.102935	-0.542411	-1.373274	0.109299	-0.457535	-1.327669	-0.002553	-0.566512	-1.305674	-0.002366	-0.451192	-1.243254	0.006397	-0.505563	-1.475064	0.094842	-0.498879	-1.016363	1.371253	-0.251554	-0.938244	1.321827	-0.557739	
26	0.1250	-1.018341	0.871815	-0.237497	-0.996339	0.863089	-0.473468	-1.197866	0.898138	-0.328959	-1.184395	0.908354	-0.415537	-0.978245	0.692511	-0.164395	-0.938722	0.736554	-0.188331	-0.943961	0.657004	-0.160716	-0.900954	0.700577	-0.183350	-0.834094	0.495732	-0.174711	-0.813715	0.498313	-0.297942	-0.908799	0.390200	-0.166762	-0.852804	0.375426	-0.179016	-0.931602	0.322129	-0.177978	-0.877053	0.314207	-0.188108	-0.972786	0.159233	-0.208580	-0.960467	0.159168	-0.293014	-0.900060	0.066736	-0.166953	-0.876782	0.052634	-0.278621	-0.810901	0.069958	-0.225379	-1.048040	0.130151	-0.275020	-1.095434	0.665774	-0.553988	-1.039001	0.667159	-0.544496	-1.101343	0.617342	-0.554736	-1.042594	0.623652	-0.549405	-1.127301	0.385580	-0.552012	-1.104057	0.372890	-0.442854	-1.234215	0.309998	-0.573990	-1.191290	0.283166	-0.561554	-1.263048	0.269480	-0.567986	-1.222986	0.243853	-0.555135	-1.372702	0.108394	-0.544285	-1.367020	0.114345	-0.459478	-1.326532	-0.000587	-0.567159	-1.306012	-0.000625	-0.451956	-1.244161	0.006099	-0.505938	-1.467966	0.103461	-0.501448	-0.999012	1.374378	-0.249291	-0.916176	1.325635	-0.553515	
27	0.1300	-0.996805	0.874883	-0.235335	-0.972656	0.864427	-0.470450	-1.175412	0.900154	-0.327948	-1.161028	0.910221	-0.414499	-0.955742	0.695985	-0.162476	-0.916438	0.740177	-0.186630	-0.921305	0.660592	-0.158865	-0.878576	0.704356	-0.181722	-0.810300	0.499651	-0.172780	-0.790535	0.502130	-0.295558	-0.880176	0.389430	-0.163497	-0.823482	0.377756	-0.176040	-0.899177	0.319716	-0.174139	-0.844179	0.314937	-0.184381	-0.930979	0.153744	-0.203395	-0.919120	0.154021	-0.287906	-0.852167	0.065135	-0.161456	-0.828505	0.052055	-0.273239	-0.763131	0.073738	-0.220392	-1.005067	0.119344	-0.269250	-1.074789	0.667544	-0.551621	-1.018452	0.667509	-0.541449	-1.082036	0.619245	-0.552516	-1.023207	0.623993	-0.546225	-1.115168	0.387778	-0.550167	-1.093444	0.374469	-0.440698	-1.223552	0.314520	-0.573251	-1.181231	0.286756	-0.560819	-1.253078	0.274475	-0.567611	-1.213551	0.247879	-0.554864	-1.365153	0.114272	-0.546088	-1.359989	0.119785	-0.461370	-1.324980	0.001932	-0.567791	-1.306021	0.001570	-0.452713	-1.244870	0.005943	-0.506337	-1.459820	0.112757	-0.503958	-0.981606	1.377539	-0.246977	-0.894302	1.329544	-0.549252	
28	0.1350	-0.975300	0.878018	-0.233141	-0.948985	0.865939	-0.467331	-1.152958	0.902247	-0.326890	-1.137652	0.912214	-0.413414	-0.933509	0.699194	-0.160535	-0.894324	0.743436	-0.184875	-0.899009	0.663843	-0.156991	-0.856461	0.707691	-0.180033	-0.787230	0.503087	-0.170884	-0.768015	0.505427	-0.293197	-0.852308	0.388475	-0.160306	-0.795026	0.379845	-0.173114	-0.867536	0.317276	-0.170402	-0.812183	0.315571	-0.180733	-0.890016	0.148605	-0.198346	-0.878575	0.149197	-0.282914	-0.805467	0.063958	-0.156108	-0.781407	0.051890	-0.268000	-0.716713	0.077761	-0.215531	-0.962735	0.109127	-0.263647	-1.053881	0.669401	-0.549207	-0.997663	0.668018	-0.538330	-1.062395	0.621233	-0.550232	-1.003516	0.624495	-0.542954	-1.102307	0.390148	-0.548180	-1.082159	0.376272	-0.438363	-1.212084	0.319278	-0.572382	-1.170409	0.290595	-0.559939	-1.242292	0.279739	-0.567098	-1.203337	0.252182	-0.554449	-1.356755	0.120558	-0.547776	-1.352130	0.125607	-0.463166	-1.322932	0.005044	-0.568384	-1.305602	0.004251	-0.453440	-1.245285	0.005961	-0.506742	-1.450572	0.122698	-0.506352	-0.964127	1.380687	-0.244602	-0.872634	1.333506	-0.544974	
29	0.1400	-0.953847	0.881174	-0.230914	-0.925363	0.867600	-0.464127	-1.130533	0.904385	-0.325782	-1.114302	0.914302	-0.412276	-0.911553	0.702101	-0.158569	-0.872388	0.746304	-0.183057	-0.877073	0.666724	-0.155088	-0.834608	0.710556	-0.178274	-0.764853	0.506015	-0.169017	-0.746118	0.508187	-0.290859	-0.825219	0.387339	-0.157201	-0.767457	0.381666	-0.170244	-0.836744	0.314817	-0.166781	-0.781127	0.316087	-0.177176	-0.850061	0.143828	-0.193458	-0.838991	0.144702	-0.278063	-0.760166	0.063166	-0.150929	-0.735697	0.052081	-0.262924	-0.671828	0.081929	-0.210804	-0.921243	0.099564	-0.258248	-1.032720	0.671305	-0.546754	-0.976642	0.668661	-0.535157	-1.042416	0.623259	-0.547891	-0.983516	0.625128	-0.539615	-1.088641	0.392625	-0.546056	-1.070102	0.378232	-0.435858	-1.199738	0.324214	-0.571376	-1.158751	0.294622	-0.558904	-1.230621	0.285216	-0.566429	-1.192276	0.256707	-0.553873	-1.347467	0.127234	-0.549303	-1.343391	0.131792	-0.464816	-1.320300	0.008777	-0.568912	-1.304646	0.007444	-0.454111	-1.245296	0.006186	-0.507136	-1.440171	0.133241	-0.508570	-0.946559	1.383774	-0.242156	-0.851177	1.337470	-0.540702	
30	0.1450	-0.932463	0.884307	-0.228656	-0.901823	0.869385	-0.460854	-1.108163	0.906535	-0.324623	-1.091010	0.916452	-0.411082	-0.889879	0.704676	-0.156573	-0.850638	0.748758	-0.181170	-0.855492	0.669208	-0.153152	-0.813018	0.712933	-0.176434	-0.743135	0.508419	-0.167175	-0.724806	0.510402	-0.288546	-0.798929	0.386029	-0.154190	-0.740789	0.383195	-0.167434	-0.806860	0.312348	-0.163288	-0.751061	0.316465	-0.173717	-0.811272	0.139417	-0.188757	-0.800518	0.140535	-0.273377	-0.716459	0.062712	-0.145938	-0.691570	0.052560	-0.258027	-0.628644	0.086137	-0.206221	-0.880786	0.090705	-0.253083	-1.011315	0.673215	-0.544270	-0.955393	0.669411	-0.531950	-1.022094	0.625278	-0.545498	-0.963200	0.625863	-0.536228	-1.074095	0.395144	-0.543804	-1.057172	0.380278	-0.433198	-1.186445	0.329264	-0.570223	-1.146187	0.298773	-0.557703	-1.217997	0.290847	-0.565590	-1.180305	0.261396	-0.553120	-1.337248	0.134276	-0.550623	-1.333721	0.138319	-0.466272	-1.316987	0.013149	-0.569347	-1.303035	0.011164	-0.454699	-1.244781	0.006652	-0.507496	-1.428577	0.144334	-0.510554	-0.928879	1.386752	-0.239632	-0.829930	1.341389	-0.536456	
31	0.1500	-0.911160	0.887374	-0.226368	-0.878392	0.871262	-0.457531	-1.085867	0.908662	-0.323410	-1.067805	0.918629	-0.409831	-0.868483	0.706893	-0.154545	-0.829076	0.750784	-0.179205	-0.834254	0.671274	-0.151179	-0.791682	0.714816	-0.174505	-0.722029	0.510292	-0.165352	-0.704030	0.512073	-0.286257	-0.773446	0.384555	-0.151279	-0.715021	0.384412	-0.164688	-0.777933	0.309877	-0.159933	-0.722028	0.316684	-0.170368	-0.773795	0.135364	-0.184264	-0.763304	0.136687	-0.268879	-0.674524	0.062536	-0.141151	-0.649209	0.053253	-0.253326	-0.587309	0.090274	-0.201793	-0.841556	0.082588	-0.248182	-0.989673	0.675089	-0.541759	-0.933920	0.670240	-0.528724	-1.001424	0.627244	-0.543061	-0.942559	0.626669	-0.532813	-1.058600	0.397637	-0.541430	-1.043274	0.382343	-0.430393	-1.172139	0.334364	-0.568917	-1.132652	0.302984	-0.556330	-1.204358	0.296569	-0.564564	-1.167362	0.266192	-0.552175	-1.326060	0.141655	-0.551692	-1.323071	0.145159	-0.467489	-1.312891	0.018164	-0.569656	-1.300643	0.015419	-0.455173	-1.243606	0.007393	-0.507797	-1.415754	0.155911	-0.512247	-0.911065	1.389576	-0.237018	-0.808888	1.345215	-0.532256	
32	0.1550	-0.889947	0.890332	-0.224049	-0.855093	0.873201	-0.454174	-1.063662	0.910736	-0.322144	-1.044709	0.920797	-0.408520	-0.847358	0.708736	-0.152480	-0.807703	0.752373	-0.177157	-0.813343	0.672913	-0.149166	-0.770592	0.716203	-0.172482	-0.701487	0.511636	-0.163541	-0.683741	0.513211	-0.283994	-0.748773	0.382930	-0.148475	-0.690147	0.385302	-0.162009	-0.750004	0.307411	-0.156723	-0.694059	0.316727	-0.167135	-0.737768	0.131657	-0.179997	-0.727482	0.133143	-0.264590	-0.634524	0.062575	-0.136583	-0.608779	0.054080	-0.248836	-0.547954	0.094231	-0.197527	-0.803735	0.075237	-0.243566	-0.967797	0.676888	-0.539228	-0.912221	0.671119	-0.525496	-0.980398	0.629112	-0.540585	-0.921583	0.627516	-0.529389	-1.042092	0.400043	-0.538941	-1.028318	0.384359	-0.427460	-1.156762	0.339452	-0.567452	-1.118084	0.307190	-0.554775	-1.189646	0.302321	-0.563340	-1.153390	0.271034	-0.551023	-1.313863	0.149337	-0.552468	-1.311390	0.152281	-0.468421	-1.307899	0.023814	-0.569810	-1.297336	0.020204	-0.455502	-1.241626	0.008436	-0.508011	-1.401672	0.167897	-0.513595	-0.893093	1.392204	-0.234305	-0.788038	1.348907	-0.528117	
33	0.1600	-0.868825	0.893144	-0.221700	-0.831941	0.875169	-0.450801	-1.041560	0.912725	-0.320824	-1.021739	0.922917	-0.407149	-0.826492	0.710196	-0.150378	-0.786512	0.753527	-0.175022	-0.792739	0.674119	-0.147111	-0.749734	0.717102	-0.170358	-0.681454	0.512462	-0.161738	-0.663888	0.513835	-0.281755	-0.724907	0.381168	-0.145778	-0.666151	0.385854	-0.159400	-0.723105	0.304955	-0.153663	-0.667173	0.316576	-0.164025	-0.703316	0.128279	-0.175972	-0.693178	0.129883	-0.260527	-0.596598	0.062761	-0.132247	-0.570428	0.054962	-0.244570	-0.510690	0.097898	-0.193435	-0.767497	0.068664	-0.239256	-0.945688	0.678572	-0.536682	-0.890294	0.672021	-0.522280	-0.959006	0.630841	-0.538076	-0.900258	0.628374	-0.525974	-1.024513	0.402302	-0.536344	-1.012220	0.386263	-0.424409	-1.140259	0.344466	-0.565821	-1.102425	0.311331	-0.553031	-1.173807	0.308040	-0.561904	-1.138335	0.275865	-0.549652	-1.300618	0.157279	-0.552912	-1.298628	0.159643	-0.469026	-1.301897	0.030076	-0.569773	-1.292974	0.025505	-0.455652	-1.238686	0.009806	-0.508107	-1.386310	0.180207	-0.514548	-0.874935	1.394600	-0.231484	-0.767365	1.352424	-0.524056	
34	0.1650	-0.847791	0.895778	-0.219321	-0.808949	0.877135	-0.447431	-1.019566	0.914601	-0.319452	-0.998909	0.924955	-0.405719	-0.805868	0.711268	-0.148235	-0.765497	0.754253	-0.172797	-0.772415	0.674897	-0.145013	-0.729090	0.717528	-0.168132	-0.661874	0.512786	-0.159936	-0.644416	0.513970	-0.279538	-0.701836	0.379284	-0.143191	-0.643011	0.386060	-0.156863	-0.697260	0.302515	-0.150755	-0.641384	0.316216	-0.161042	-0.670548	0.125205	-0.172202	-0.660502	0.126886	-0.256705	-0.560868	0.063026	-0.128156	-0.534279	0.055818	-0.240542	-0.475605	0.101175	-0.189525	-0.732997	0.062869	-0.235264	-0.923342	0.680107	-0.534123	-0.868132	0.672922	-0.519087	-0.937236	0.632396	-0.535536	-0.878570	0.629219	-0.522580	-1.005810	0.404362	-0.533645	-0.994906	0.387999	-0.421254	-1.122580	0.349348	-0.564020	-1.085622	0.315349	-0.551093	-1.156792	0.313668	-0.560247	-1.122145	0.280629	-0.548050	-1.286284	0.165433	-0.552988	-1.284734	0.167204	-0.469266	-1.294761	0.036911	-0.569512	-1.287413	0.031292	-0.455589	-1.234622	0.011523	-0.508054	-1.369649	0.192749	-0.515059	-0.856567	1.396731	-0.228549	-0.746848	1.355731	-0.520086	
35	0.1700	-0.826837	0.898206	-0.216911	-0.786118	0.879065	-0.444079	-0.997680	0.916340	-0.318029	-0.976224	0.926873	-0.404231	-0.785466	0.711959	-0.146050	-0.744646	0.754565	-0.170478	-0.752344	0.675259	-0.142872	-0.708641	0.717505	-0.165800	-0.642691	0.512633	-0.158127	-0.625274	0.513648	-0.277341	-0.679544	0.377295	-0.140712	-0.620699	0.385919	-0.154398	-0.672482	0.300098	-0.148001	-0.616694	0.315635	-0.158192	-0.639557	0.122410	-0.168698	-0.629551	0.124125	-0.253138	-0.527428	0.063302	-0.124318	-0.500434	0.056574	-0.236762	-0.442767	0.103969	-0.185805	-0.700374	0.057841	-0.231599	-0.900754	0.681462	-0.531554	-0.845725	0.673799	-0.515926	-0.915074	0.633743	-0.532969	-0.856501	0.630029	-0.519222	-0.985940	0.406181	-0.530847	-0.976308	0.389521	-0.418004	-1.103682	0.354044	-0.562043	-1.067625	0.319191	-0.548953	-1.138556	0.319148	-0.558361	-1.104774	0.285275	-0.546209	-1.270819	0.173746	-0.552665	-1.269658	0.174912	-0.469107	-1.286367	0.044267	-0.568995	-1.280509	0.037523	-0.455279	-1.229268	0.013596	-0.507816	-1.351678	0.205420	-0.515090	-0.837962	1.398571	-0.225491	-0.726463	1.358799	-0.516218	
36	0.1750	-0.805949	0.900405	-0.214468	-0.763449	0.880931	-0.440760	-0.975898	0.917920	-0.316556	-0.953685	0.928640	-0.402687	-0.765260	0.712280	-0.143822	-0.723942	0.754483	-0.168067	-0.732493	0.675224	-0.140687	-0.688364	0.717060	-0.163364	-0.623848	0.512031	-0.156307	-0.606410	0.512903	-0.275161	-0.658010	0.375217	-0.138337	-0.599182	0.385431	-0.152004	-0.648777	0.297707	-0.145396	-0.593096	0.314825	-0.155475	-0.610419	0.119864	-0.165467	-0.600404	0.121574	-0.249835	-0.496353	0.063525	-0.120741	-0.468971	0.057159	-0.233239	-0.412222	0.106199	-0.182285	-0.669749	0.053560	-0.228267	-0.877912	0.682613	-0.528975	-0.823063	0.674635	-0.512805	-0.892505	0.634859	-0.530376	-0.834035	0.630785	-0.515909	-0.964863	0.407723	-0.527953	-0.956372	0.390791	-0.414669	-1.083530	0.358508	-0.559886	-1.048392	0.322814	-0.546606	-1.119061	0.324428	-0.556238	-1.086176	0.289754	-0.544118	-1.254178	0.182157	-0.551916	-1.253348	0.182714	-0.468519	-1.276588	0.052077	-0.568189	-1.272114	0.044146	-0.454687	-1.222451	0.016030	-0.507358	-1.332388	0.218113	-0.514608	-0.819091	1.400100	-0.222308	-0.706185	1.361604	-0.512461	
37	0.1800	-0.785109	0.902359	-0.211993	-0.740932	0.882703	-0.437488	-0.954209	0.919324	-0.315036	-0.931287	0.930224	-0.401090	-0.745221	0.712251	-0.141550	-0.703368	0.754033	-0.165563	-0.712829	0.674816	-0.138460	-0.668233	0.716226	-0.160825	-0.605292	0.511013	-0.154468	-0.587776	0.511776	-0.272993	-0.637210	0.373069	-0.136060	-0.578426	0.384604	-0.149679	-0.626141	0.295349	-0.142939	-0.570577	0.313780	-0.152892	-0.583191	0.117540	-0.162512	-0.573121	0.119207	-0.246803	-0.467687	0.063638	-0.117431	-0.439942	0.057514	-0.229983	-0.383994	0.107799	-0.178973	-0.641215	0.049994	-0.225268	-0.854804	0.683541	-0.526386	-0.800130	0.675415	-0.509727	-0.869511	0.635725	-0.527758	-0.811152	0.631477	-0.512647	-0.942551	0.408967	-0.524963	-0.935054	0.391786	-0.411255	-1.062093	0.362699	-0.557545	-1.027883	0.326178	-0.544048	-1.098273	0.329461	-0.553874	-1.066313	0.294027	-0.541772	-1.236318	0.190602	-0.550720	-1.235755	0.190551	-0.467479	-1.265297	0.060257	-0.567065	-1.262087	0.051094	-0.453782	-1.214001	0.018816	-0.506645	-1.311776	0.230716	-0.513588	-0.799931	1.401306	-0.218997	-0.685986	1.364126	-0.508821	
38	0.1850	-0.764294	0.904059	-0.209485	-0.718553	0.884357	-0.434275	-0.932598	0.920538	-0.313470	-0.909019	0.931600	-0.399443	-0.725321	0.711895	-0.139234	-0.682902	0.753245	-0.162970	-0.693316	0.674066	-0.136191	-0.648223	0.715040	-0.158186	-0.586973	0.509617	-0.152603	-0.569328	0.510305	-0.270831	-0.617116	0.370869	-0.133876	-0.558391	0.383447	-0.147421	-0.604565	0.293028	-0.140621	-0.549116	0.312499	-0.150443	-0.557909	0.115410	-0.159835	-0.547747	0.117002	-0.244047	-0.441453	0.063590	-0.114390	-0.413374	0.057588	-0.226998	-0.358085	0.108722	-0.175873	-0.614846	0.047107	-0.222598	-0.831415	0.684233	-0.523786	-0.776911	0.676130	-0.506693	-0.846074	0.636332	-0.525113	-0.787833	0.632096	-0.509439	-0.918981	0.409901	-0.521878	-0.912319	0.392495	-0.407765	-1.039348	0.366584	-0.555015	-1.006067	0.329257	-0.541273	-1.076167	0.334207	-0.551264	-1.045150	0.298057	-0.539164	-1.217193	0.199012	-0.549060	-1.216830	0.198358	-0.465969	-1.252369	0.068716	-0.565594	-1.250288	0.058289	-0.452533	-1.203750	0.021938	-0.505642	-1.289842	0.243113	-0.512012	-0.780454	1.402182	-0.215558	-0.665838	1.366355	-0.505303	
39	0.1900	-0.743480	0.905501	-0.206942	-0.696296	0.885872	-0.431129	-0.911048	0.921555	-0.311861	-0.886868	0.932746	-0.397748	-0.705525	0.711243	-0.136874	-0.662521	0.752154	-0.160290	-0.673920	0.673008	-0.133882	-0.628307	0.713541	-0.155453	-0.568847	0.507882	-0.150706	-0.551026	0.508531	-0.268668	-0.597697	0.368635	-0.131774	-0.539040	0.381975	-0.145226	-0.584030	0.290752	-0.138436	-0.528687	0.310983	-0.148124	-0.534593	0.113448	-0.157434	-0.524303	0.114936	-0.241566	-0.417647	0.063342	-0.111620	-0.389267	0.057345	-0.224287	-0.334475	0.108937	-0.172992	-0.590687	0.044857	-0.220249	-0.807726	0.684683	-0.521172	-0.753386	0.676776	-0.503702	-0.822176	0.636676	-0.522439	-0.764059	0.632643	-0.506286	-0.894142	0.410526	-0.518695	-0.888151	0.392919	-0.404201	-1.015281	0.370137	-0.552292	-0.982919	0.332029	-0.538277	-1.052721	0.338633	-0.548409	-1.022657	0.301815	-0.536291	-1.196758	0.207311	-0.546926	-1.196526	0.206070	-0.463975	-1.237684	0.077348	-0.563751	-1.236588	0.065647	-0.450913	-1.191538	0.025369	-0.504315	-1.266591	0.255186	-0.509871	-0.760640	1.402729	-0.211993	-0.645714	1.368285	-0.501910	
40	0.1950	-0.722636	0.906688	-0.204364	-0.674138	0.887229	-0.428059	-0.889535	0.922370	-0.310209	-0.864814	0.933646	-0.396008	-0.685804	0.710326	-0.134472	-0.642199	0.750794	-0.157527	-0.654606	0.671680	-0.131535	-0.608457	0.711771	-0.152630	-0.550875	0.505847	-0.148770	-0.532838	0.506495	-0.266498	-0.578924	0.366384	-0.129746	-0.520334	0.380205	-0.143089	-0.564512	0.288525	-0.136375	-0.509258	0.309239	-0.145933	-0.513240	0.111633	-0.155303	-0.502794	0.112993	-0.239360	-0.396240	0.062862	-0.109118	-0.367596	0.056760	-0.221851	-0.313127	0.108433	-0.170334	-0.568757	0.043195	-0.218211	-0.783721	0.684894	-0.518540	-0.729541	0.677356	-0.500750	-0.797800	0.636765	-0.519733	-0.739814	0.633123	-0.503185	-0.868031	0.410854	-0.515408	-0.862542	0.393074	-0.400562	-0.989884	0.373344	-0.549371	-0.958421	0.334484	-0.535058	-1.027926	0.342712	-0.545305	-0.998812	0.305281	-0.533150	-1.174971	0.215423	-0.544313	-1.174799	0.213617	-0.461492	-1.221132	0.086041	-0.561516	-1.220869	0.073070	-0.448896	-1.177217	0.029070	-0.502632	-1.242029	0.266818	-0.507164	-0.740467	1.402957	-0.208308	-0.625590	1.369914	-0.498645	
41	0.2000	-0.701735	0.907629	-0.201750	-0.652055	0.888417	-0.425070	-0.868037	0.922986	-0.308517	-0.842836	0.934288	-0.394228	-0.666124	0.709182	-0.132029	-0.621913	0.749204	-0.154689	-0.635342	0.670122	-0.129152	-0.588649	0.709770	-0.149725	-0.533026	0.503553	-0.146789	-0.514734	0.504235	-0.264311	-0.560765	0.364134	-0.127781	-0.502237	0.378158	-0.141003	-0.545982	0.286357	-0.134428	-0.490795	0.307279	-0.143862	-0.493827	0.109946	-0.153435	-0.483203	0.111160	-0.237423	-0.377181	0.062134	-0.106882	-0.348311	0.055822	-0.219688	-0.293982	0.107219	-0.167899	-0.549048	0.042071	-0.216469	-0.759381	0.684875	-0.515885	-0.705357	0.677875	-0.497831	-0.772931	0.636612	-0.516990	-0.715084	0.633547	-0.500132	-0.840656	0.410910	-0.512014	-0.835502	0.392987	-0.396843	-0.963163	0.376195	-0.546249	-0.932564	0.336621	-0.531612	-1.001779	0.346424	-0.541956	-0.973599	0.308439	-0.529740	-1.151793	0.223270	-0.541220	-1.151614	0.220929	-0.458518	-1.202613	0.094676	-0.558871	-1.203028	0.080461	-0.446464	-1.160651	0.032996	-0.500564	-1.216170	0.277893	-0.503896	-0.719920	1.402880	-0.204511	-0.605442	1.371251	-0.495505	
42	0.2050	-0.680746	0.908336	-0.199101	-0.630021	0.889426	-0.422165	-0.846527	0.923409	-0.306784	-0.820911	0.934669	-0.392407	-0.646456	0.707849	-0.129547	-0.601637	0.747421	-0.151780	-0.616099	0.668375	-0.126735	-0.568858	0.707580	-0.146744	-0.515277	0.501039	-0.144758	-0.496696	0.501788	-0.262101	-0.543189	0.361903	-0.125869	-0.484713	0.375859	-0.138963	-0.528404	0.284253	-0.132583	-0.473258	0.305115	-0.141906	-0.476316	0.108373	-0.151819	-0.465496	0.109428	-0.235748	-0.360395	0.061150	-0.104904	-0.331339	0.054535	-0.217793	-0.276965	0.105324	-0.165687	-0.531527	0.041436	-0.215008	-0.734692	0.684640	-0.513203	-0.680823	0.678346	-0.494939	-0.747558	0.636239	-0.514206	-0.689859	0.633932	-0.497118	-0.812038	0.410728	-0.508505	-0.807055	0.392699	-0.393041	-0.935131	0.378689	-0.542922	-0.905352	0.338445	-0.527939	-0.974287	0.349758	-0.538363	-0.947013	0.311283	-0.526061	-1.127191	0.230774	-0.537654	-1.126940	0.227935	-0.455058	-1.182041	0.103132	-0.555804	-1.182977	0.087714	-0.443599	-1.141727	0.037092	-0.498089	-1.189030	0.288300	-0.500082	-0.698986	1.402518	-0.200613	-0.585252	1.372306	-0.492492	
43	0.2100	-0.659641	0.908827	-0.196416	-0.608010	0.890254	-0.419347	-0.824982	0.923649	-0.305011	-0.799016	0.934789	-0.390549	-0.626774	0.706365	-0.127027	-0.581351	0.745482	-0.148808	-0.596853	0.666482	-0.124287	-0.549066	0.705238	-0.143698	-0.497613	0.498345	-0.142672	-0.478709	0.499186	-0.259859	-0.526168	0.359705	-0.124000	-0.467732	0.373333	-0.136963	-0.511741	0.282224	-0.130831	-0.456608	0.302768	-0.140057	-0.460648	0.106906	-0.150444	-0.449617	0.107795	-0.234324	-0.345788	0.059915	-0.103177	-0.316588	0.052914	-0.216158	-0.261987	0.102792	-0.163696	-0.516133	0.041237	-0.213807	-0.709642	0.684213	-0.510487	-0.655930	0.678784	-0.492064	-0.721677	0.635673	-0.511373	-0.664137	0.634298	-0.494137	-0.782208	0.410351	-0.504875	-0.777243	0.392258	-0.389147	-0.905815	0.380836	-0.539386	-0.876799	0.339972	-0.524038	-0.945471	0.352708	-0.534531	-0.919060	0.313811	-0.522116	-1.101140	0.237856	-0.533626	-1.100759	0.234564	-0.451122	-1.159349	0.111289	-0.552308	-1.160652	0.094725	-0.440293	-1.120353	0.041295	-0.495185	-1.160634	0.297936	-0.495741	-0.677659	1.401900	-0.196627	-0.565007	1.373096	-0.489601	
44	0.2150	-0.638397	0.909126	-0.193699	-0.586000	0.890902	-0.416614	-0.803379	0.923720	-0.303197	-0.777130	0.934657	-0.388655	-0.607056	0.704770	-0.124474	-0.561036	0.743423	-0.145781	-0.577586	0.664480	-0.121809	-0.529256	0.702783	-0.140593	-0.480028	0.495505	-0.140527	-0.460770	0.496460	-0.257577	-0.509676	0.357556	-0.122162	-0.451267	0.370611	-0.134994	-0.495951	0.280278	-0.129161	-0.440802	0.300258	-0.138307	-0.446748	0.105541	-0.149293	-0.435498	0.106263	-0.233139	-0.333247	0.058444	-0.101689	-0.303942	0.050986	-0.214774	-0.248942	0.099686	-0.161921	-0.502785	0.041424	-0.212848	-0.684226	0.683619	-0.507732	-0.630674	0.679209	-0.489198	-0.695288	0.634948	-0.508488	-0.637920	0.634671	-0.491176	-0.751213	0.409831	-0.501117	-0.746123	0.391724	-0.385155	-0.875253	0.382647	-0.535639	-0.846931	0.341223	-0.519910	-0.915364	0.355276	-0.530463	-0.889759	0.316027	-0.517909	-1.073629	0.244442	-0.529150	-1.073064	0.240749	-0.446727	-1.134491	0.119026	-0.548381	-1.136013	0.101392	-0.436540	-1.096465	0.045538	-0.491839	-1.131014	0.306701	-0.490902	-0.655938	1.401055	-0.192571	-0.544699	1.373642	-0.486832	
45	0.2200	-0.616993	0.909255	-0.190949	-0.563969	0.891377	-0.413966	-0.781699	0.923642	-0.301341	-0.755235	0.934284	-0.386725	-0.587288	0.703100	-0.121891	-0.540678	0.741277	-0.142707	-0.558285	0.662409	-0.119305	-0.509419	0.700246	-0.137441	-0.462524	0.492556	-0.138322	-0.442879	0.493636	-0.255249	-0.493689	0.355471	-0.120348	-0.435295	0.367721	-0.133052	-0.480993	0.278425	-0.127562	-0.425801	0.297611	-0.136646	-0.434527	0.104278	-0.148352	-0.423052	0.104836	-0.232177	-0.322646	0.056760	-0.100428	-0.293273	0.048790	-0.213627	-0.237715	0.096081	-0.160355	-0.491379	0.041949	-0.212109	-0.658446	0.682892	-0.504933	-0.605060	0.679644	-0.486331	-0.668402	0.634103	-0.505545	-0.611223	0.635079	-0.488226	-0.719114	0.409223	-0.497224	-0.713768	0.391160	-0.381057	-0.843501	0.384143	-0.531680	-0.815793	0.342226	-0.515559	-0.884013	0.357470	-0.526169	-0.859143	0.317944	-0.513446	-1.044660	0.250461	-0.524248	-1.043863	0.246428	-0.441892	-1.107449	0.126232	-0.544027	-1.109047	0.107615	-0.432342	-1.070031	0.049751	-0.488043	-1.100210	0.314511	-0.485596	-0.633834	1.400021	-0.188462	-0.524329	1.373969	-0.484182	
46	0.2250	-0.595415	0.909242	-0.188171	-0.541905	0.891689	-0.411401	-0.759929	0.923434	-0.299443	-0.733318	0.933691	-0.384760	-0.567462	0.701389	-0.119281	-0.520272	0.739076	-0.139595	-0.538946	0.660305	-0.116778	-0.489552	0.697659	-0.134249	-0.445113	0.489528	-0.136056	-0.425049	0.490739	-0.252870	-0.478187	0.353461	-0.118550	-0.419798	0.364696	-0.131129	-0.466822	0.276675	-0.126024	-0.411562	0.294853	-0.135065	-0.423885	0.103122	-0.147601	-0.412181	0.103525	-0.231422	-0.313844	0.054898	-0.099381	-0.284436	0.046370	-0.212702	-0.228180	0.092062	-0.158989	-0.481791	0.042769	-0.211566	-0.632312	0.682068	-0.502086	-0.579102	0.680114	-0.483454	-0.641041	0.633179	-0.502538	-0.584070	0.635551	-0.485276	-0.685987	0.408589	-0.493192	-0.680273	0.390633	-0.376847	-0.810629	0.385348	-0.527509	-0.783443	0.343014	-0.510992	-0.851484	0.359302	-0.521656	-0.827263	0.319575	-0.508736	-1.014250	0.255851	-0.518945	-1.013184	0.251541	-0.436644	-1.078228	0.132804	-0.539256	-1.079771	0.113305	-0.427706	-1.041053	0.053863	-0.483797	-1.068276	0.321291	-0.479861	-0.611361	1.398835	-0.184321	-0.503904	1.374107	-0.481647	
47	0.2300	-0.573661	0.909114	-0.185369	-0.519799	0.891851	-0.408914	-0.738063	0.923121	-0.297500	-0.711370	0.932900	-0.382760	-0.547577	0.699672	-0.116650	-0.499817	0.736846	-0.136453	-0.519575	0.658199	-0.114231	-0.469660	0.695047	-0.131027	-0.427816	0.486450	-0.133729	-0.407299	0.487789	-0.250437	-0.463154	0.351539	-0.116760	-0.404763	0.361568	-0.129222	-0.453397	0.275038	-0.124540	-0.398048	0.292015	-0.133556	-0.414709	0.102081	-0.147022	-0.402774	0.102341	-0.230855	-0.306689	0.052894	-0.098532	-0.277278	0.043780	-0.211982	-0.220204	0.087725	-0.157813	-0.473884	0.043841	-0.211198	-0.605848	0.681183	-0.499186	-0.552826	0.680645	-0.480561	-0.613238	0.632220	-0.499464	-0.556496	0.636118	-0.482316	-0.651925	0.407990	-0.489018	-0.645747	0.390213	-0.372519	-0.776724	0.386291	-0.523129	-0.749961	0.343623	-0.506215	-0.817857	0.360790	-0.516935	-0.794188	0.320941	-0.503791	-0.982440	0.260555	-0.513269	-0.981075	0.256039	-0.431012	-1.046870	0.138650	-0.534084	-1.048236	0.118379	-0.422646	-1.009572	0.057804	-0.479106	-1.035275	0.326980	-0.473739	-0.588547	1.397539	-0.180171	-0.483440	1.374083	-0.479225	
48	0.2350	-0.551733	0.908899	-0.182548	-0.497654	0.891883	-0.406503	-0.716105	0.922726	-0.295512	-0.689395	0.931940	-0.380724	-0.527645	0.697975	-0.114002	-0.479323	0.734611	-0.133292	-0.500184	0.656120	-0.111668	-0.449758	0.692432	-0.127787	-0.410662	0.483348	-0.131346	-0.389656	0.484802	-0.247949	-0.448581	0.349715	-0.114975	-0.390184	0.358369	-0.127325	-0.440675	0.273522	-0.123101	-0.385222	0.289127	-0.132109	-0.406879	0.101165	-0.146594	-0.394714	0.101299	-0.230456	-0.301025	0.050793	-0.097865	-0.271637	0.041075	-0.211447	-0.213650	0.083166	-0.156813	-0.467507	0.045128	-0.210981	-0.579087	0.680277	-0.496232	-0.526267	0.681261	-0.477644	-0.585039	0.631270	-0.496323	-0.528552	0.636807	-0.479339	-0.617040	0.407486	-0.484701	-0.610319	0.389966	-0.368070	-0.741892	0.387003	-0.518546	-0.715444	0.344089	-0.501242	-0.783234	0.361956	-0.512020	-0.760008	0.322064	-0.498625	-0.949292	0.264527	-0.507256	-0.947605	0.259879	-0.425030	-1.013446	0.143694	-0.528532	-1.014526	0.122769	-0.417183	-0.975668	0.061508	-0.473986	-1.001290	0.331533	-0.467276	-0.565431	1.396173	-0.176035	-0.462964	1.373931	-0.476914	
49	0.2400	-0.529650	0.908624	-0.179715	-0.475481	0.891804	-0.404163	-0.694066	0.922277	-0.293479	-0.667402	0.930840	-0.378652	-0.507686	0.696325	-0.111344	-0.458810	0.732392	-0.130121	-0.480799	0.654092	-0.109094	-0.429868	0.689835	-0.124538	-0.393686	0.480247	-0.128912	-0.372155	0.481794	-0.245406	-0.434459	0.347999	-0.113191	-0.376057	0.355133	-0.125436	-0.428617	0.272137	-0.121701	-0.373049	0.286220	-0.130717	-0.400271	0.100385	-0.146298	-0.387875	0.100414	-0.230207	-0.296691	0.048640	-0.097361	-0.267345	0.038314	-0.211079	-0.208376	0.078487	-0.155975	-0.462503	0.046598	-0.210893	-0.552077	0.679389	-0.493225	-0.499477	0.681988	-0.474699	-0.556507	0.630372	-0.493112	-0.500300	0.637646	-0.476337	-0.581460	0.407134	-0.480245	-0.574135	0.389954	-0.363501	-0.706256	0.387517	-0.513768	-0.680010	0.344453	-0.496087	-0.747735	0.362824	-0.506926	-0.724834	0.322968	-0.493257	-0.914893	0.267732	-0.500941	-0.912871	0.263027	-0.418737	-0.978067	0.147875	-0.522629	-0.978764	0.126420	-0.411344	-0.939462	0.064913	-0.468457	-0.966418	0.334921	-0.460520	-0.542060	1.394779	-0.171937	-0.442509	1.373682	-0.474711	
50	0.2450	-0.507439	0.908315	-0.176877	-0.453303	0.891636	-0.401892	-0.671971	0.921797	-0.291399	-0.645414	0.929634	-0.376545	-0.487730	0.694741	-0.108683	-0.438307	0.730207	-0.126949	-0.461454	0.652135	-0.106515	-0.410023	0.687269	-0.121290	-0.376933	0.477166	-0.126433	-0.354837	0.478779	-0.242813	-0.420789	0.346396	-0.111408	-0.362386	0.351892	-0.123554	-0.417187	0.270891	-0.120337	-0.361499	0.283325	-0.129372	-0.394756	0.099754	-0.146114	-0.382131	0.099699	-0.230084	-0.293525	0.046480	-0.097004	-0.264237	0.035554	-0.210854	-0.204243	0.073784	-0.155286	-0.458707	0.048220	-0.210912	-0.524883	0.678557	-0.490165	-0.472520	0.682846	-0.471726	-0.527718	0.629568	-0.489836	-0.471820	0.638658	-0.473306	-0.545329	0.406987	-0.475657	-0.537360	0.390234	-0.358816	-0.669960	0.387865	-0.508807	-0.643798	0.344750	-0.490769	-0.711500	0.363420	-0.501672	-0.688798	0.323681	-0.487707	-0.879356	0.270146	-0.494366	-0.876993	0.265464	-0.412174	-0.940878	0.151150	-0.516409	-0.941109	0.129292	-0.405163	-0.901120	0.067968	-0.462550	-0.930774	0.337134	-0.453523	-0.518496	1.393397	-0.167903	-0.422121	1.373367	-0.472616	
51	0.2500	-0.485143	0.907996	-0.174042	-0.431156	0.891403	-0.399686	-0.649858	0.921311	-0.289274	-0.623464	0.928355	-0.374405	-0.467821	0.693240	-0.106027	-0.417855	0.728068	-0.123789	-0.442191	0.650266	-0.103937	-0.390265	0.684748	-0.118056	-0.360451	0.474125	-0.123920	-0.337753	0.475767	-0.240176	-0.407572	0.344915	-0.109628	-0.349178	0.348675	-0.121679	-0.406353	0.269790	-0.119005	-0.350546	0.280473	-0.128068	-0.390205	0.099283	-0.146022	-0.377351	0.099168	-0.230069	-0.291367	0.044359	-0.096776	-0.262146	0.032850	-0.210752	-0.201110	0.069149	-0.154731	-0.455955	0.049969	-0.211017	-0.497580	0.677815	-0.487057	-0.445475	0.683854	-0.468724	-0.498764	0.628893	-0.486498	-0.443205	0.639863	-0.470245	-0.508812	0.407089	-0.470946	-0.500173	0.390850	-0.354023	-0.633166	0.388081	-0.503680	-0.606970	0.345018	-0.485311	-0.674689	0.363775	-0.496280	-0.652057	0.324228	-0.482000	-0.842823	0.271762	-0.487575	-0.840120	0.267178	-0.405387	-0.902061	0.153497	-0.509910	-0.901756	0.131362	-0.398679	-0.860849	0.070628	-0.456302	-0.894493	0.338179	-0.446337	-0.494814	1.392064	-0.163958	-0.401853	1.373016	-0.470628	
52	0.2550	-0.462818	0.907688	-0.171222	-0.409087	0.891128	-0.397543	-0.627776	0.920842	-0.287107	-0.601598	0.927038	-0.372233	-0.448012	0.691835	-0.103384	-0.397505	0.725987	-0.120650	-0.423067	0.648497	-0.101368	-0.370649	0.682281	-0.114847	-0.344294	0.471140	-0.121383	-0.320955	0.472771	-0.237504	-0.394817	0.343558	-0.107853	-0.336445	0.345513	-0.119814	-0.396084	0.268838	-0.117704	-0.340166	0.277692	-0.126800	-0.386492	0.098982	-0.146003	-0.373410	0.098832	-0.230141	-0.290061	0.042318	-0.096658	-0.260913	0.030252	-0.210753	-0.198842	0.064669	-0.154292	-0.454085	0.051824	-0.211189	-0.470263	0.677194	-0.483909	-0.418433	0.685025	-0.465699	-0.469754	0.628380	-0.483107	-0.414564	0.641272	-0.467156	-0.472087	0.407477	-0.466129	-0.462769	0.391841	-0.349135	-0.596053	0.388195	-0.498407	-0.569704	0.345289	-0.479738	-0.637481	0.363916	-0.490774	-0.614789	0.324637	-0.476165	-0.805464	0.272583	-0.480615	-0.802428	0.268172	-0.398423	-0.861838	0.154913	-0.503177	-0.860938	0.132624	-0.391938	-0.818897	0.072861	-0.449758	-0.857729	0.338082	-0.439016	-0.471097	1.390814	-0.160124	-0.381768	1.372658	-0.468746	
53	0.2600	-0.440533	0.907408	-0.168427	-0.387158	0.890835	-0.395463	-0.605788	0.920411	-0.284901	-0.579874	0.925717	-0.370033	-0.428365	0.690534	-0.100765	-0.377319	0.723973	-0.117545	-0.404143	0.646836	-0.098816	-0.351236	0.679875	-0.111674	-0.328522	0.468226	-0.118837	-0.304504	0.469800	-0.234809	-0.382535	0.342330	-0.106089	-0.324203	0.342433	-0.117961	-0.386356	0.268039	-0.116433	-0.330341	0.275010	-0.125565	-0.383494	0.098858	-0.146039	-0.370185	0.098698	-0.230280	-0.289459	0.040395	-0.096634	-0.260384	0.027805	-0.210834	-0.197308	0.060417	-0.153955	-0.452941	0.053764	-0.211410	-0.443037	0.676720	-0.480729	-0.391503	0.686368	-0.462656	-0.440809	0.628055	-0.479674	-0.386017	0.642895	-0.464044	-0.435347	0.408177	-0.461225	-0.425356	0.393228	-0.344168	-0.558817	0.388237	-0.493013	-0.532201	0.345590	-0.474080	-0.600073	0.363872	-0.485182	-0.577190	0.324933	-0.470234	-0.767473	0.272627	-0.473535	-0.764118	0.268462	-0.391333	-0.820461	0.155412	-0.496260	-0.818921	0.133092	-0.384991	-0.775551	0.074646	-0.442967	-0.820658	0.336889	-0.431615	-0.447444	1.389678	-0.156426	-0.361936	1.372317	-0.466971	
54	0.2650	-0.418371	0.907171	-0.165669	-0.365441	0.890545	-0.393444	-0.583968	0.920034	-0.282662	-0.558362	0.924421	-0.367809	-0.408954	0.689342	-0.098180	-0.357371	0.722030	-0.114485	-0.385491	0.645288	-0.096291	-0.332096	0.677536	-0.108552	-0.313193	0.465396	-0.116295	-0.288463	0.466865	-0.232106	-0.370741	0.341231	-0.104342	-0.312469	0.339459	-0.116127	-0.377149	0.267394	-0.115194	-0.321053	0.272450	-0.124360	-0.381097	0.098916	-0.146114	-0.367559	0.098769	-0.230469	-0.289423	0.038621	-0.096688	-0.260416	0.025545	-0.210976	-0.196386	0.056458	-0.153705	-0.452375	0.055772	-0.211663	-0.416022	0.676413	-0.477530	-0.364802	0.687886	-0.459605	-0.412066	0.627936	-0.476211	-0.357698	0.644730	-0.460917	-0.398799	0.409204	-0.456258	-0.388152	0.395023	-0.339146	-0.521668	0.388233	-0.487528	-0.494676	0.345946	-0.468372	-0.562679	0.363673	-0.479535	-0.539478	0.325140	-0.464242	-0.729073	0.271928	-0.466386	-0.725415	0.268075	-0.384169	-0.778217	0.155031	-0.489211	-0.776002	0.132792	-0.377891	-0.731134	0.075974	-0.435987	-0.783472	0.334663	-0.424188	-0.423960	1.388681	-0.152885	-0.342435	1.372016	-0.465301	
55	0.2700	-0.396425	0.906989	-0.162961	-0.344020	0.890277	-0.391489	-0.562404	0.919726	-0.280398	-0.537143	0.923180	-0.365570	-0.389861	0.688261	-0.095639	-0.337740	0.720163	-0.111484	-0.367188	0.643856	-0.093805	-0.313307	0.675270	-0.105492	-0.298368	0.462663	-0.113774	-0.272895	0.463978	-0.229409	-0.359453	0.340261	-0.102621	-0.301263	0.336615	-0.114317	-0.368447	0.266900	-0.113990	-0.312292	0.270035	-0.123185	-0.379191	0.099155	-0.146214	-0.365425	0.099044	-0.230689	-0.289823	0.037021	-0.096804	-0.260878	0.023503	-0.211162	-0.195961	0.052840	-0.153528	-0.452249	0.057833	-0.211935	-0.389350	0.676287	-0.474326	-0.338458	0.689575	-0.456560	-0.383671	0.628036	-0.472735	-0.329753	0.646771	-0.457787	-0.362655	0.410562	-0.451255	-0.351383	0.397223	-0.334093	-0.484827	0.388205	-0.481984	-0.457359	0.346375	-0.462649	-0.525522	0.363346	-0.473866	-0.501885	0.325281	-0.458229	-0.690507	0.270531	-0.459223	-0.686566	0.267052	-0.376986	-0.735418	0.153824	-0.482087	-0.732506	0.131770	-0.370698	-0.685997	0.076848	-0.428879	-0.746378	0.331483	-0.416792	-0.400763	1.387842	-0.149519	-0.323348	1.371771	-0.463738	
56	0.2750	-0.374801	0.906869	-0.160316	-0.322989	0.890049	-0.389598	-0.541193	0.919499	-0.278118	-0.516308	0.922018	-0.363322	-0.371172	0.687290	-0.093156	-0.318514	0.718377	-0.108555	-0.349318	0.642540	-0.091367	-0.294952	0.673080	-0.102508	-0.284108	0.460036	-0.111291	-0.257867	0.461149	-0.226738	-0.348691	0.339419	-0.100935	-0.290606	0.333921	-0.112540	-0.360236	0.266555	-0.112823	-0.304047	0.267781	-0.122041	-0.377679	0.099572	-0.146326	-0.363684	0.099518	-0.230928	-0.290544	0.035614	-0.096967	-0.261650	0.021698	-0.211375	-0.195928	0.049603	-0.153410	-0.452440	0.059932	-0.212212	-0.363160	0.676350	-0.471134	-0.312610	0.691427	-0.453535	-0.355778	0.628359	-0.469265	-0.302331	0.649004	-0.454669	-0.327138	0.412244	-0.446250	-0.315278	0.399812	-0.329041	-0.448525	0.388173	-0.476418	-0.420487	0.346889	-0.456951	-0.488838	0.362917	-0.468213	-0.464656	0.325375	-0.452234	-0.652035	0.268494	-0.452098	-0.647836	0.265442	-0.369838	-0.692403	0.151858	-0.474947	-0.688778	0.130086	-0.363474	-0.640517	0.077283	-0.421707	-0.709601	0.327445	-0.409479	-0.377975	1.387176	-0.146345	-0.304763	1.371598	-0.462283	
57	0.2800	-0.353611	0.906814	-0.157747	-0.302449	0.889875	-0.387776	-0.520440	0.919357	-0.275834	-0.495956	0.920957	-0.361078	-0.352980	0.686425	-0.090742	-0.299787	0.716673	-0.105710	-0.331967	0.641337	-0.088992	-0.277119	0.670970	-0.099615	-0.270470	0.457525	-0.108863	-0.243444	0.458391	-0.224111	-0.338474	0.338701	-0.099294	-0.280518	0.331391	-0.110805	-0.352508	0.266351	-0.111699	-0.296312	0.265703	-0.120929	-0.376473	0.100159	-0.146439	-0.362249	0.100180	-0.231170	-0.291484	0.034411	-0.097164	-0.262628	0.020144	-0.211600	-0.196192	0.046767	-0.153339	-0.452840	0.062054	-0.212485	-0.337596	0.676602	-0.467972	-0.287400	0.693426	-0.450547	-0.328547	0.628900	-0.465822	-0.275589	0.651410	-0.451579	-0.292470	0.414232	-0.441275	-0.280064	0.402759	-0.324023	-0.412993	0.388152	-0.470870	-0.384306	0.347494	-0.451317	-0.452866	0.362411	-0.462614	-0.428042	0.325440	-0.446301	-0.613934	0.265888	-0.445066	-0.609500	0.263308	-0.362780	-0.649521	0.149219	-0.467851	-0.645179	0.127810	-0.356279	-0.595086	0.077303	-0.414539	-0.673372	0.322657	-0.402301	-0.355723	1.386689	-0.143378	-0.286767	1.371506	-0.460934	
58	0.2850	-0.332974	0.906827	-0.155267	-0.282506	0.889766	-0.386026	-0.500255	0.919305	-0.273560	-0.476190	0.920011	-0.358848	-0.335379	0.685661	-0.088409	-0.281655	0.715052	-0.102964	-0.315221	0.640245	-0.086690	-0.259895	0.668945	-0.096825	-0.257510	0.455141	-0.106507	-0.229686	0.455717	-0.221547	-0.328824	0.338103	-0.097707	-0.271018	0.329041	-0.109121	-0.345258	0.266281	-0.110621	-0.289082	0.263811	-0.119852	-0.375496	0.100903	-0.146544	-0.361043	0.101015	-0.231406	-0.292553	0.033417	-0.097385	-0.263723	0.018845	-0.211825	-0.196671	0.044344	-0.153303	-0.453354	0.064187	-0.212745	-0.312807	0.677038	-0.464862	-0.262970	0.695551	-0.447615	-0.302141	0.629650	-0.462429	-0.249684	0.653961	-0.448536	-0.258871	0.416496	-0.436367	-0.245967	0.406025	-0.319075	-0.378464	0.388153	-0.465381	-0.349062	0.348192	-0.445789	-0.417846	0.361849	-0.457107	-0.392296	0.325490	-0.440473	-0.576485	0.262790	-0.438180	-0.571842	0.260720	-0.355866	-0.607135	0.146001	-0.460858	-0.602078	0.125026	-0.349178	-0.550105	0.076944	-0.407441	-0.637932	0.317239	-0.395311	-0.334137	1.386384	-0.140627	-0.269449	1.371499	-0.459692	
59	0.2900	-0.313011	0.906904	-0.152891	-0.263268	0.889727	-0.384353	-0.480751	0.919342	-0.271310	-0.457116	0.919191	-0.356646	-0.318463	0.684992	-0.086169	-0.264214	0.713518	-0.100330	-0.299168	0.639258	-0.084474	-0.243371	0.667010	-0.094153	-0.245276	0.452890	-0.104239	-0.216651	0.453139	-0.219067	-0.319760	0.337619	-0.096185	-0.262125	0.326879	-0.107497	-0.338481	0.266334	-0.109593	-0.282352	0.262110	-0.118814	-0.374684	0.101789	-0.146635	-0.360004	0.102004	-0.231626	-0.293678	0.032629	-0.097619	-0.264859	0.017796	-0.212041	-0.197291	0.042331	-0.153294	-0.453906	0.066314	-0.212985	-0.288939	0.677646	-0.461824	-0.239465	0.697777	-0.444758	-0.276717	0.630590	-0.459109	-0.224768	0.656626	-0.445561	-0.226552	0.418999	-0.431565	-0.213202	0.409557	-0.314234	-0.345165	0.388184	-0.459996	-0.314994	0.348977	-0.440409	-0.384012	0.361252	-0.451733	-0.357669	0.325536	-0.434793	-0.539974	0.259288	-0.431492	-0.535145	0.257753	-0.349150	-0.565605	0.142306	-0.454028	-0.559845	0.121822	-0.342232	-0.505975	0.076248	-0.400480	-0.603518	0.311318	-0.388555	-0.313343	1.386256	-0.138100	-0.252896	1.371578	-0.458557	
60	0.2950	-0.293840	0.907041	-0.150629	-0.244842	0.889763	-0.382761	-0.462041	0.919464	-0.269100	-0.438841	0.918505	-0.354488	-0.302323	0.684411	-0.084035	-0.247558	0.712071	-0.097821	-0.283888	0.638371	-0.082357	-0.227629	0.665168	-0.091611	-0.233811	0.450780	-0.102076	-0.204392	0.450672	-0.216687	-0.311298	0.337241	-0.094738	-0.253852	0.324912	-0.105944	-0.332175	0.266497	-0.108622	-0.276118	0.260604	-0.117819	-0.373984	0.102795	-0.146707	-0.359079	0.103123	-0.231824	-0.294796	0.032039	-0.097856	-0.265975	0.016988	-0.212238	-0.197991	0.040715	-0.153303	-0.454435	0.068421	-0.213200	-0.266133	0.678408	-0.458880	-0.217019	0.700075	-0.441997	-0.252428	0.631698	-0.455887	-0.200989	0.659369	-0.442676	-0.195714	0.421697	-0.426906	-0.181967	0.413297	-0.309538	-0.313309	0.388249	-0.454757	-0.282332	0.349842	-0.435218	-0.351589	0.360639	-0.446532	-0.324403	0.325587	-0.429306	-0.504678	0.255472	-0.425052	-0.499689	0.254489	-0.342679	-0.525287	0.138244	-0.447417	-0.518839	0.118294	-0.335501	-0.463089	0.075265	-0.393721	-0.570366	0.305026	-0.382079	-0.293464	1.386297	-0.135801	-0.237187	1.371742	-0.457526	
61	0.3000	-0.275578	0.907232	-0.148494	-0.227331	0.889872	-0.381258	-0.444233	0.919664	-0.266948	-0.421466	0.917952	-0.352389	-0.287043	0.683910	-0.082017	-0.231775	0.710714	-0.095448	-0.269458	0.637578	-0.080350	-0.212749	0.663425	-0.089212	-0.223149	0.448817	-0.100031	-0.192951	0.448328	-0.214427	-0.303452	0.336961	-0.093373	-0.246210	0.323142	-0.104471	-0.326338	0.266756	-0.107710	-0.270378	0.259289	-0.116872	-0.373355	0.103901	-0.146757	-0.358229	0.104346	-0.231994	-0.295862	0.031634	-0.098091	-0.267025	0.016404	-0.212412	-0.198722	0.039472	-0.153324	-0.454896	0.070493	-0.213389	-0.244520	0.679303	-0.456051	-0.195761	0.702413	-0.439350	-0.229416	0.632945	-0.452787	-0.178482	0.662151	-0.439901	-0.166539	0.424538	-0.422427	-0.152446	0.417180	-0.305023	-0.283094	0.388349	-0.449707	-0.251290	0.350772	-0.430252	-0.320784	0.360024	-0.441542	-0.292723	0.325649	-0.424051	-0.470863	0.251435	-0.418905	-0.465735	0.251011	-0.336502	-0.486518	0.133925	-0.441081	-0.479405	0.114537	-0.329042	-0.421818	0.074047	-0.387225	-0.538697	0.298499	-0.375924	-0.274616	1.386491	-0.133731	-0.222397	1.371984	-0.456598	
62	0.3050	-0.258331	0.907468	-0.146495	-0.210831	0.890051	-0.379846	-0.427428	0.919932	-0.264870	-0.405085	0.917530	-0.350364	-0.272701	0.683482	-0.080125	-0.216946	0.709447	-0.093223	-0.255945	0.636874	-0.078464	-0.198802	0.661785	-0.086965	-0.213317	0.447005	-0.098117	-0.182363	0.446120	-0.212301	-0.296232	0.336769	-0.092100	-0.239204	0.321569	-0.103086	-0.320969	0.267096	-0.106862	-0.265125	0.258162	-0.115977	-0.372766	0.105079	-0.146785	-0.357424	0.105646	-0.232135	-0.296839	0.031396	-0.098316	-0.267976	0.016022	-0.212559	-0.199444	0.038570	-0.153350	-0.455257	0.072512	-0.213548	-0.224217	0.680305	-0.453356	-0.175804	0.704756	-0.436838	-0.207807	0.634299	-0.449832	-0.157367	0.664932	-0.437256	-0.139186	0.427469	-0.418162	-0.124795	0.421136	-0.300725	-0.254696	0.388483	-0.444885	-0.222058	0.351752	-0.425549	-0.291785	0.359420	-0.436798	-0.262832	0.325724	-0.419066	-0.438774	0.247271	-0.413094	-0.433530	0.247404	-0.330660	-0.449610	0.129458	-0.435065	-0.441860	0.110648	-0.322905	-0.382507	0.072650	-0.381046	-0.508719	0.291867	-0.370125	-0.256900	1.386822	-0.131886	-0.208589	1.372294	-0.455770	
63	0.3100	-0.242195	0.907739	-0.144641	-0.195425	0.890293	-0.378533	-0.411715	0.920256	-0.262883	-0.389782	0.917231	-0.348431	-0.259361	0.683118	-0.078367	-0.203140	0.708273	-0.091154	-0.243406	0.636252	-0.076707	-0.185847	0.660255	-0.084881	-0.204330	0.445346	-0.096343	-0.172654	0.444058	-0.210322	-0.289642	0.336656	-0.090923	-0.232834	0.320189	-0.101797	-0.316065	0.267500	-0.106081	-0.260354	0.257212	-0.115139	-0.372194	0.106305	-0.146789	-0.356645	0.106993	-0.232244	-0.297704	0.031306	-0.098528	-0.268805	0.015819	-0.212677	-0.200127	0.037973	-0.153378	-0.455500	0.074463	-0.213678	-0.205326	0.681385	-0.450816	-0.157245	0.707072	-0.434475	-0.187708	0.635727	-0.447043	-0.137746	0.667672	-0.434762	-0.113789	0.430433	-0.414143	-0.099146	0.425096	-0.296675	-0.228265	0.388647	-0.440329	-0.194800	0.352763	-0.421137	-0.264749	0.358840	-0.432334	-0.234908	0.325816	-0.414385	-0.408630	0.243071	-0.407653	-0.403288	0.243749	-0.325189	-0.414842	0.124947	-0.429415	-0.406488	0.106719	-0.317136	-0.345461	0.071129	-0.375233	-0.480615	0.285258	-0.364713	-0.240405	1.387267	-0.130261	-0.195815	1.372661	-0.455039	
64	0.3150	-0.227249	0.908035	-0.142939	-0.181182	0.890588	-0.377320	-0.397170	0.920625	-0.261003	-0.375628	0.917045	-0.346602	-0.247077	0.682811	-0.076750	-0.190413	0.707192	-0.089251	-0.231884	0.635706	-0.075088	-0.173931	0.658838	-0.082966	-0.196196	0.443843	-0.094719	-0.163837	0.442152	-0.208502	-0.283681	0.336611	-0.089847	-0.227096	0.318994	-0.100608	-0.311620	0.267952	-0.105368	-0.256054	0.256429	-0.114361	-0.371629	0.107551	-0.146772	-0.355880	0.108357	-0.232323	-0.298445	0.031338	-0.098723	-0.269502	0.015767	-0.212767	-0.200748	0.037640	-0.153405	-0.455620	0.076330	-0.213780	-0.187927	0.682516	-0.448445	-0.140160	0.709325	-0.432277	-0.169205	0.637194	-0.444437	-0.119699	0.670331	-0.432433	-0.090452	0.433376	-0.410398	-0.075596	0.428992	-0.292900	-0.203918	0.388835	-0.436071	-0.169648	0.353785	-0.417045	-0.239807	0.358292	-0.428175	-0.209095	0.325921	-0.410036	-0.380617	0.238919	-0.402612	-0.375193	0.240123	-0.320120	-0.382454	0.120492	-0.424165	-0.373531	0.102836	-0.311772	-0.310941	0.069538	-0.369827	-0.454538	0.278791	-0.359714	-0.225202	1.387803	-0.128846	-0.184113	1.373072	-0.454399	
65	0.3200	-0.213555	0.908346	-0.141391	-0.168157	0.890925	-0.376212	-0.383850	0.921023	-0.259245	-0.362675	0.916959	-0.344893	-0.235884	0.682554	-0.075278	-0.178805	0.706207	-0.087516	-0.221408	0.635230	-0.073610	-0.163087	0.657538	-0.081225	-0.188908	0.442495	-0.093247	-0.155913	0.440409	-0.206846	-0.278342	0.336622	-0.088875	-0.221978	0.317975	-0.099526	-0.307627	0.268436	-0.104725	-0.252214	0.255798	-0.113647	-0.371064	0.108791	-0.146736	-0.355126	0.109710	-0.232373	-0.299056	0.031471	-0.098898	-0.270064	0.015838	-0.212830	-0.201296	0.037526	-0.153429	-0.455620	0.078097	-0.213857	-0.172076	0.683667	-0.446258	-0.124604	0.711485	-0.430256	-0.152357	0.638666	-0.442032	-0.103279	0.672874	-0.430285	-0.069242	0.436244	-0.406947	-0.054212	0.432760	-0.289422	-0.181738	0.389042	-0.432137	-0.146699	0.354798	-0.413291	-0.217050	0.357782	-0.424346	-0.185500	0.326040	-0.406041	-0.354880	0.234894	-0.397994	-0.349389	0.236596	-0.315474	-0.352634	0.116179	-0.419343	-0.343183	0.099076	-0.306843	-0.279157	0.067928	-0.364860	-0.430610	0.272573	-0.355144	-0.211342	1.388405	-0.127631	-0.173507	1.373513	-0.453847	
66	0.3250	-0.201156	0.908662	-0.140001	-0.156383	0.891292	-0.375211	-0.371794	0.921437	-0.257620	-0.350959	0.916956	-0.343313	-0.225803	0.682341	-0.073953	-0.168340	0.705317	-0.085955	-0.211993	0.634818	-0.072279	-0.153331	0.656358	-0.079661	-0.182453	0.441299	-0.091931	-0.148873	0.438835	-0.205360	-0.273611	0.336678	-0.088008	-0.217460	0.317121	-0.098551	-0.304075	0.268934	-0.104152	-0.248819	0.255305	-0.113000	-0.370500	0.110001	-0.146685	-0.354386	0.111025	-0.232397	-0.299541	0.031681	-0.099054	-0.270496	0.016005	-0.212868	-0.201763	0.037588	-0.153448	-0.455512	0.079750	-0.213910	-0.157806	0.684810	-0.444265	-0.110604	0.713524	-0.428420	-0.137196	0.640109	-0.439838	-0.088517	0.675267	-0.428327	-0.050194	0.438989	-0.403809	-0.035023	0.436342	-0.286259	-0.161773	0.389259	-0.428547	-0.126009	0.355783	-0.409890	-0.196534	0.357315	-0.420863	-0.164192	0.326168	-0.402416	-0.331522	0.231065	-0.393814	-0.325978	0.233232	-0.311269	-0.325522	0.112086	-0.414969	-0.315584	0.095507	-0.302370	-0.250258	0.066343	-0.360354	-0.408915	0.266697	-0.351016	-0.198853	1.389049	-0.126601	-0.164003	1.373970	-0.453376	
67	0.3300	-0.190070	0.908975	-0.138767	-0.145873	0.891676	-0.374316	-0.361020	0.921855	-0.256139	-0.340495	0.917022	-0.341874	-0.216837	0.682165	-0.072776	-0.159024	0.704521	-0.084566	-0.203635	0.634466	-0.071094	-0.144663	0.655299	-0.078272	-0.176803	0.440252	-0.090769	-0.142694	0.437430	-0.204045	-0.269467	0.336769	-0.087245	-0.213520	0.316416	-0.097686	-0.300951	0.269432	-0.103648	-0.245850	0.254932	-0.112419	-0.369941	0.111157	-0.146622	-0.353665	0.112279	-0.232399	-0.299907	0.031943	-0.099190	-0.270808	0.016240	-0.212884	-0.202149	0.037783	-0.153462	-0.455311	0.081276	-0.213943	-0.145122	0.685918	-0.442472	-0.098166	0.715418	-0.426774	-0.123728	0.641494	-0.437863	-0.075412	0.677484	-0.426566	-0.033306	0.441569	-0.400991	-0.018022	0.439688	-0.283419	-0.144032	0.389480	-0.425316	-0.107596	0.356723	-0.406849	-0.178275	0.356895	-0.417735	-0.145198	0.326302	-0.399170	-0.310602	0.227489	-0.390080	-0.305015	0.230083	-0.307509	-0.301201	0.108274	-0.411054	-0.290821	0.092183	-0.298364	-0.224336	0.064824	-0.356321	-0.389495	0.261242	-0.347332	-0.187743	1.389711	-0.125741	-0.155594	1.374428	-0.452979	
68	0.3350	-0.180296	0.909274	-0.137687	-0.136620	0.892063	-0.373528	-0.351524	0.922264	-0.254807	-0.331276	0.917139	-0.340580	-0.208971	0.682021	-0.071745	-0.150841	0.703819	-0.083347	-0.196316	0.634167	-0.070054	-0.137065	0.654361	-0.077056	-0.171924	0.439348	-0.089758	-0.137345	0.436195	-0.202896	-0.265885	0.336884	-0.086582	-0.210128	0.315846	-0.096927	-0.298236	0.269916	-0.103210	-0.243286	0.254661	-0.111906	-0.369396	0.112240	-0.146551	-0.352973	0.113449	-0.232384	-0.300167	0.032237	-0.099305	-0.271016	0.016519	-0.212883	-0.202455	0.038071	-0.153471	-0.455040	0.082666	-0.213959	-0.134002	0.686970	-0.440882	-0.087267	0.717146	-0.425320	-0.111928	0.642796	-0.436111	-0.063940	0.679504	-0.425006	-0.018540	0.443950	-0.398499	-0.003167	0.442758	-0.280908	-0.128484	0.389698	-0.422448	-0.091438	0.357601	-0.404169	-0.162251	0.356523	-0.414966	-0.128503	0.326438	-0.396304	-0.292129	0.224211	-0.386788	-0.286508	0.227191	-0.304196	-0.279695	0.104793	-0.407598	-0.268918	0.089147	-0.294829	-0.201420	0.063402	-0.352765	-0.372354	0.256266	-0.344090	-0.177995	1.390368	-0.125035	-0.148252	1.374876	-0.452650	
69	0.3400	-0.171807	0.909555	-0.136756	-0.128595	0.892442	-0.372843	-0.343278	0.922652	-0.253628	-0.323276	0.917291	-0.339436	-0.202172	0.681905	-0.070854	-0.143763	0.703208	-0.082293	-0.190002	0.633917	-0.069154	-0.130503	0.653543	-0.076007	-0.167771	0.438578	-0.088892	-0.132780	0.435126	-0.201910	-0.262831	0.337013	-0.086017	-0.207249	0.315395	-0.096273	-0.295910	0.270375	-0.102836	-0.241102	0.254476	-0.111459	-0.368873	0.113235	-0.146476	-0.352318	0.114521	-0.232355	-0.300337	0.032544	-0.099401	-0.271134	0.016819	-0.212868	-0.202690	0.038416	-0.153476	-0.454719	0.083912	-0.213963	-0.124401	0.687944	-0.439494	-0.077860	0.718697	-0.424054	-0.101745	0.643994	-0.434580	-0.054047	0.681311	-0.423644	-0.005823	0.446104	-0.396328	0.009619	0.445523	-0.278721	-0.115064	0.389907	-0.419943	-0.077474	0.358406	-0.401842	-0.148400	0.356199	-0.412553	-0.114051	0.326571	-0.393813	-0.276068	0.221265	-0.383932	-0.270420	0.224586	-0.301320	-0.260974	0.101676	-0.404596	-0.249846	0.086430	-0.291755	-0.181475	0.062103	-0.349677	-0.357452	0.251811	-0.341278	-0.169569	1.391000	-0.124465	-0.141937	1.375302	-0.452381	
70	0.3450	-0.164557	0.909811	-0.135966	-0.121749	0.892802	-0.372258	-0.336238	0.923012	-0.252603	-0.316446	0.917464	-0.338440	-0.196391	0.681813	-0.070098	-0.137738	0.702685	-0.081398	-0.184642	0.633710	-0.068389	-0.124929	0.652840	-0.075117	-0.164292	0.437933	-0.088163	-0.128948	0.434215	-0.201078	-0.260270	0.337147	-0.085541	-0.204843	0.315047	-0.095718	-0.293946	0.270799	-0.102521	-0.239269	0.254359	-0.111077	-0.368382	0.114129	-0.146401	-0.351712	0.115481	-0.232317	-0.300433	0.032848	-0.099480	-0.271183	0.017123	-0.212843	-0.202862	0.038788	-0.153477	-0.454371	0.085010	-0.213956	-0.116247	0.688827	-0.438302	-0.069873	0.720061	-0.422971	-0.093102	0.645071	-0.433265	-0.045656	0.682898	-0.422476	0.004949	0.448014	-0.394470	0.020443	0.447962	-0.276849	-0.103672	0.390102	-0.417792	-0.065604	0.359128	-0.399856	-0.136625	0.355922	-0.410484	-0.101750	0.326697	-0.391683	-0.262338	0.218670	-0.381494	-0.256668	0.222288	-0.298864	-0.244953	0.098942	-0.402030	-0.233519	0.084047	-0.289129	-0.164412	0.060945	-0.347042	-0.344713	0.247900	-0.338879	-0.162406	1.391592	-0.124014	-0.136593	1.375696	-0.452166	
71	0.3500	-0.158476	0.910039	-0.135307	-0.116016	0.893134	-0.371766	-0.330334	0.923337	-0.251729	-0.310723	0.917644	-0.337591	-0.191564	0.681739	-0.069466	-0.132703	0.702244	-0.080650	-0.180174	0.633542	-0.067750	-0.120278	0.652247	-0.074376	-0.161430	0.437403	-0.087560	-0.125787	0.433454	-0.200389	-0.258157	0.337280	-0.085150	-0.202867	0.314785	-0.095256	-0.292317	0.271180	-0.102262	-0.237757	0.254296	-0.110756	-0.367932	0.114914	-0.146328	-0.351162	0.116323	-0.232273	-0.300471	0.033136	-0.099543	-0.271179	0.017414	-0.212813	-0.202980	0.039159	-0.153475	-0.454017	0.085960	-0.213943	-0.109449	0.689608	-0.437298	-0.063216	0.721237	-0.422062	-0.085900	0.646018	-0.432157	-0.038668	0.684262	-0.421493	0.013907	0.449671	-0.392909	0.029440	0.450071	-0.275276	-0.094177	0.390278	-0.415979	-0.055701	0.359761	-0.398192	-0.126799	0.355690	-0.408744	-0.091471	0.326815	-0.389896	-0.250817	0.216433	-0.379451	-0.245131	0.220304	-0.296805	-0.231497	0.096596	-0.399878	-0.219803	0.082002	-0.286927	-0.150087	0.059937	-0.344836	-0.334020	0.244539	-0.336868	-0.156428	1.392131	-0.123664	-0.132152	1.376050	-0.451997	
72	0.3550	-0.153481	0.910236	-0.134770	-0.111311	0.893432	-0.371362	-0.325486	0.923622	-0.250998	-0.306023	0.917820	-0.336881	-0.187615	0.681682	-0.068951	-0.128581	0.701880	-0.080038	-0.176525	0.633407	-0.067227	-0.116476	0.651757	-0.073770	-0.159120	0.436976	-0.087073	-0.123233	0.432831	-0.199830	-0.256450	0.337406	-0.084834	-0.201277	0.314594	-0.094880	-0.290991	0.271514	-0.102052	-0.236534	0.254270	-0.110491	-0.367530	0.115588	-0.146260	-0.350676	0.117043	-0.232229	-0.300469	0.033397	-0.099593	-0.271139	0.017680	-0.212780	-0.203056	0.039510	-0.153471	-0.453675	0.086765	-0.213926	-0.103895	0.690282	-0.436469	-0.057780	0.722227	-0.421315	-0.080021	0.646830	-0.431242	-0.032967	0.685409	-0.420682	0.021205	0.451076	-0.391625	0.036767	0.451851	-0.273983	-0.086425	0.390433	-0.414482	-0.047605	0.360303	-0.396827	-0.118764	0.355500	-0.407309	-0.083057	0.326920	-0.388428	-0.241348	0.214549	-0.377773	-0.235650	0.218631	-0.295115	-0.220429	0.094630	-0.398111	-0.208516	0.080289	-0.285117	-0.138308	0.059081	-0.343026	-0.325229	0.241715	-0.335217	-0.151539	1.392606	-0.123400	-0.128535	1.376362	-0.451868	
