PathFileType	4	(X/Y/Z)	 P2 250r2 04.trc
DataRate	CameraRate	NumFrames	NumMarkers	Units	OrigDataRate	OrigDataStartFrame	OrigNumFrames
200	200	77	38	m	200	1	77
Frame#	Time	RASIS			LASIS			RPSIS			LPSIS			RThighRear1			RThighFront1			RThighRear2			RThighFront2			RKneeLat			RKneeMed			RShankRear1			RShankFront1			RShankRear2			RShankFront2			RAnkleLat			RAnkleMed			RM5			RM1			RMid			RHeel			LThighRear1			LThighFront1			LThighRear2			LThighFront2			LKneeLat			LKneeMed			LShankRear1			LShankFront1			LShankRear2			LShankFront2			LAnkleLat			LAnkleMed			LM5			LM1			LMid			LHeel			RShoulder			LShoulder			
		X1	Y1	Z1	X2	Y2	Z2	X3	Y3	Z3	X4	Y4	Z4	X5	Y5	Z5	X6	Y6	Z6	X7	Y7	Z7	X8	Y8	Z8	X9	Y9	Z9	X10	Y10	Z10	X11	Y11	Z11	X12	Y12	Z12	X13	Y13	Z13	X14	Y14	Z14	X15	Y15	Z15	X16	Y16	Z16	X17	Y17	Z17	X18	Y18	Z18	X19	Y19	Z19	X20	Y20	Z20	X21	Y21	Z21	X22	Y22	Z22	X23	Y23	Z23	X24	Y24	Z24	X25	Y25	Z25	X26	Y26	Z26	X27	Y27	Z27	X28	Y28	Z28	X29	Y29	Z29	X30	Y30	Z30	X31	Y31	Z31	X32	Y32	Z32	X33	Y33	Z33	X34	Y34	Z34	X35	Y35	Z35	X36	Y36	Z36	X37	Y37	Z37	X38	Y38	Z38	
1	0.0000	-1.514919	0.864327	-0.270133	-1.512086	0.880740	-0.501556	-1.695442	0.913817	-0.346994	-1.693171	0.918096	-0.435311	-1.590763	0.624412	-0.212468	-1.529506	0.634383	-0.228384	-1.590369	0.574988	-0.214136	-1.526736	0.579938	-0.227618	-1.627789	0.383439	-0.244622	-1.600893	0.377722	-0.367467	-1.763037	0.378358	-0.248207	-1.737798	0.324911	-0.263032	-1.831337	0.356607	-0.271000	-1.802074	0.306994	-0.282910	-1.989936	0.299214	-0.322147	-1.972347	0.298499	-0.404378	-2.063018	0.178807	-0.311249	-2.046383	0.172473	-0.423866	-2.023094	0.107735	-0.370308	-2.040206	0.367427	-0.384828	-1.527957	0.685034	-0.580882	-1.478223	0.714645	-0.571255	-1.506489	0.638996	-0.575626	-1.457485	0.676028	-0.573292	-1.393741	0.434167	-0.552239	-1.366840	0.445906	-0.443843	-1.435202	0.308038	-0.563202	-1.383748	0.314362	-0.553078	-1.431284	0.258365	-0.555120	-1.381967	0.264728	-0.544284	-1.402297	0.066985	-0.518133	-1.395409	0.081780	-0.438013	-1.295978	0.003222	-0.541803	-1.271419	0.012167	-0.428155	-1.211988	0.040552	-0.495872	-1.473185	0.036735	-0.468151	-1.420640	1.358036	-0.269853	-1.454795	1.336457	-0.588466	
2	0.0050	-1.499035	0.862863	-0.269435	-1.496907	0.879905	-0.501262	-1.680231	0.911610	-0.345705	-1.677982	0.916908	-0.433958	-1.569184	0.624437	-0.210733	-1.508580	0.635866	-0.227005	-1.567316	0.575265	-0.212028	-1.504172	0.581897	-0.225931	-1.598635	0.384139	-0.241884	-1.571506	0.378791	-0.365144	-1.733368	0.378819	-0.245688	-1.707839	0.325122	-0.260328	-1.801776	0.356954	-0.268397	-1.772318	0.307191	-0.280093	-1.960387	0.298951	-0.319457	-1.942706	0.297867	-0.401623	-2.031410	0.178571	-0.307111	-2.015112	0.171077	-0.419644	-1.990544	0.107253	-0.365589	-2.010752	0.366591	-0.382710	-1.514233	0.683602	-0.580495	-1.464144	0.712836	-0.571141	-1.493027	0.637391	-0.575355	-1.443754	0.674016	-0.573369	-1.381469	0.431593	-0.552317	-1.354448	0.442696	-0.443802	-1.425253	0.306694	-0.563350	-1.373998	0.311795	-0.552840	-1.422820	0.257243	-0.555128	-1.373717	0.262377	-0.543841	-1.400457	0.066875	-0.517266	-1.393572	0.081375	-0.436865	-1.295644	0.003178	-0.541890	-1.270760	0.011101	-0.427908	-1.211034	0.038224	-0.494937	-1.472550	0.037156	-0.467354	-1.404829	1.355783	-0.268648	-1.437501	1.333940	-0.588095	
3	0.0100	-1.482936	0.861377	-0.268727	-1.481513	0.879040	-0.500975	-1.664803	0.909393	-0.344413	-1.662578	0.915703	-0.432599	-1.547313	0.624521	-0.208979	-1.487387	0.637436	-0.225614	-1.543943	0.575622	-0.209900	-1.481313	0.583965	-0.224228	-1.569037	0.384971	-0.239115	-1.541689	0.380002	-0.362797	-1.703274	0.379335	-0.243145	-1.677417	0.325394	-0.257581	-1.771792	0.357304	-0.265755	-1.742103	0.307399	-0.277227	-1.930410	0.298561	-0.316704	-1.912637	0.297108	-0.398809	-1.999287	0.178160	-0.302882	-1.983313	0.169487	-0.415325	-1.957406	0.106611	-0.360767	-1.980950	0.365584	-0.380536	-1.500347	0.682120	-0.580090	-1.449896	0.710963	-0.571021	-1.479420	0.635729	-0.575067	-1.429868	0.671934	-0.573440	-1.369124	0.428915	-0.552386	-1.341968	0.439375	-0.443763	-1.415267	0.305272	-0.563486	-1.364215	0.309138	-0.552590	-1.414332	0.256052	-0.555120	-1.365450	0.259947	-0.543383	-1.398654	0.066743	-0.516382	-1.391766	0.080947	-0.435694	-1.295314	0.003133	-0.541967	-1.270088	0.010046	-0.427657	-1.210068	0.035927	-0.494002	-1.471952	0.037529	-0.466539	-1.388814	1.353514	-0.267413	-1.419951	1.331415	-0.587704	
4	0.0150	-1.466632	0.859886	-0.268008	-1.465904	0.878145	-0.500693	-1.649160	0.907189	-0.343125	-1.646960	0.914493	-0.431241	-1.525182	0.624698	-0.207212	-1.465959	0.639124	-0.224213	-1.520282	0.576100	-0.207758	-1.458195	0.586181	-0.222520	-1.539037	0.385990	-0.236323	-1.511489	0.381409	-0.360432	-1.672791	0.379921	-0.240580	-1.646554	0.325756	-0.254793	-1.741407	0.357649	-0.263070	-1.711438	0.307625	-0.274310	-1.899994	0.297986	-0.313873	-1.882132	0.296169	-0.395924	-1.966604	0.177515	-0.298552	-1.950939	0.167649	-0.410901	-1.923623	0.105775	-0.355836	-1.950811	0.364320	-0.378288	-1.486315	0.680593	-0.579659	-1.435496	0.709026	-0.570885	-1.465692	0.634015	-0.574754	-1.415848	0.669779	-0.573495	-1.356771	0.426132	-0.552440	-1.329466	0.435944	-0.443722	-1.405304	0.303775	-0.563603	-1.354460	0.306395	-0.552326	-1.405872	0.254794	-0.555091	-1.357217	0.257445	-0.542912	-1.396909	0.066594	-0.515487	-1.390011	0.080503	-0.434508	-1.294993	0.003079	-0.542030	-1.269412	0.009009	-0.427407	-1.209100	0.033685	-0.493076	-1.471407	0.037852	-0.465715	-1.372623	1.351255	-0.266143	-1.402151	1.328914	-0.587280	
5	0.0200	-1.450123	0.858410	-0.267274	-1.450070	0.877223	-0.500413	-1.633296	0.905023	-0.341848	-1.631119	0.913289	-0.429893	-1.502810	0.625006	-0.205438	-1.444322	0.640968	-0.222809	-1.496355	0.576742	-0.205612	-1.434847	0.588585	-0.220811	-1.508664	0.387252	-0.233516	-1.480946	0.383066	-0.358053	-1.641939	0.380590	-0.237995	-1.615256	0.326236	-0.251964	-1.710626	0.357979	-0.260337	-1.680316	0.307877	-0.271339	-1.869108	0.297167	-0.310950	-1.851166	0.294996	-0.392956	-1.933295	0.176577	-0.294110	-1.917917	0.165512	-0.406360	-1.889113	0.104711	-0.350789	-1.920327	0.362710	-0.375944	-1.472146	0.679028	-0.579194	-1.420955	0.707026	-0.570724	-1.451860	0.632258	-0.574408	-1.401711	0.667553	-0.573520	-1.344469	0.423249	-0.552471	-1.317003	0.432407	-0.443677	-1.395422	0.302208	-0.563695	-1.344790	0.303576	-0.552048	-1.397490	0.253473	-0.555036	-1.349071	0.254881	-0.542429	-1.395239	0.066434	-0.514592	-1.388324	0.080048	-0.433319	-1.294689	0.003009	-0.542079	-1.268740	0.007995	-0.427161	-1.208140	0.031517	-0.492168	-1.470928	0.038122	-0.464894	-1.356274	1.349037	-0.264835	-1.384100	1.326470	-0.586807	
6	0.0250	-1.433405	0.856972	-0.266523	-1.433993	0.876278	-0.500131	-1.617198	0.902919	-0.340591	-1.615039	0.912104	-0.428560	-1.480211	0.625484	-0.203660	-1.422492	0.643001	-0.221406	-1.472177	0.577590	-0.203468	-1.411291	0.591215	-0.219111	-1.477943	0.388812	-0.230702	-1.450095	0.385029	-0.355663	-1.610730	0.381354	-0.235388	-1.583527	0.326864	-0.249094	-1.679445	0.358284	-0.257551	-1.648724	0.308162	-0.268310	-1.837709	0.296048	-0.307918	-1.819698	0.293537	-0.389890	-1.899280	0.175293	-0.289544	-1.884160	0.163030	-0.401689	-1.853782	0.103394	-0.345620	-1.889473	0.360665	-0.373482	-1.457841	0.677435	-0.578685	-1.406276	0.704964	-0.570526	-1.437934	0.630468	-0.574020	-1.387466	0.665257	-0.573504	-1.332277	0.420271	-0.552471	-1.304637	0.428772	-0.443621	-1.385674	0.300579	-0.563757	-1.335259	0.300693	-0.551752	-1.389234	0.252100	-0.554951	-1.341058	0.252268	-0.541934	-1.393660	0.066270	-0.513707	-1.386718	0.079593	-0.432138	-1.294408	0.002915	-0.542113	-1.268084	0.007007	-0.426923	-1.207199	0.029442	-0.491287	-1.470526	0.038344	-0.464087	-1.339783	1.346892	-0.263482	-1.365790	1.324119	-0.586266	
7	0.0300	-1.416466	0.855595	-0.265752	-1.417651	0.875314	-0.499841	-1.600849	0.900903	-0.339360	-1.598700	0.910952	-0.427251	-1.457394	0.626169	-0.201883	-1.400481	0.645259	-0.220008	-1.447762	0.578687	-0.201332	-1.387543	0.594110	-0.217424	-1.446897	0.390721	-0.227887	-1.418965	0.387346	-0.353265	-1.579171	0.382223	-0.232757	-1.551360	0.327668	-0.246183	-1.647854	0.358555	-0.254703	-1.616639	0.308487	-0.265218	-1.805741	0.294574	-0.304759	-1.787678	0.291742	-0.386711	-1.864466	0.173615	-0.284843	-1.849572	0.160164	-0.396879	-1.817529	0.101807	-0.340320	-1.858209	0.358099	-0.370877	-1.443397	0.675824	-0.578124	-1.391455	0.702845	-0.570281	-1.423920	0.628656	-0.573582	-1.373118	0.662895	-0.573434	-1.320246	0.417212	-0.552433	-1.292422	0.425050	-0.443548	-1.376108	0.298902	-0.563783	-1.325914	0.297761	-0.551438	-1.381147	0.250689	-0.554834	-1.333221	0.249624	-0.541430	-1.392182	0.066112	-0.512844	-1.385205	0.079147	-0.430978	-1.294157	0.002787	-0.542134	-1.267456	0.006045	-0.426698	-1.206286	0.027475	-0.490443	-1.470209	0.038524	-0.463306	-1.323160	1.344852	-0.262079	-1.347210	1.321896	-0.585641	
8	0.0350	-1.399291	0.854305	-0.264955	-1.401017	0.874338	-0.499535	-1.584226	0.898999	-0.338161	-1.582075	0.909847	-0.425973	-1.434365	0.627096	-0.200110	-1.378297	0.647774	-0.218618	-1.423118	0.580072	-0.199212	-1.363617	0.597304	-0.215758	-1.415551	0.393025	-0.225078	-1.387588	0.390064	-0.350860	-1.547268	0.383204	-0.230098	-1.518754	0.328674	-0.243230	-1.615836	0.358778	-0.251786	-1.584039	0.308859	-0.262060	-1.773143	0.292698	-0.301459	-1.755050	0.289567	-0.383404	-1.828758	0.171504	-0.279995	-1.814052	0.156884	-0.391918	-1.780250	0.099942	-0.334885	-1.826485	0.354930	-0.368107	-1.428806	0.674210	-0.577503	-1.376488	0.700674	-0.569977	-1.409820	0.626839	-0.573086	-1.358665	0.660475	-0.573295	-1.308423	0.414089	-0.552347	-1.280408	0.421257	-0.443452	-1.366769	0.297197	-0.563768	-1.316799	0.294803	-0.551104	-1.373265	0.249256	-0.554681	-1.325597	0.246969	-0.540920	-1.390813	0.065973	-0.512014	-1.383792	0.078723	-0.429853	-1.293942	0.002618	-0.542142	-1.266866	0.005109	-0.426490	-1.205415	0.025626	-0.489642	-1.469985	0.038675	-0.462567	-1.306414	1.342953	-0.260621	-1.328344	1.319837	-0.584913	
9	0.0400	-1.381864	0.853130	-0.264129	-1.384063	0.873359	-0.499207	-1.567308	0.897232	-0.337000	-1.565139	0.908805	-0.424731	-1.411129	0.628299	-0.198344	-1.355948	0.650575	-0.217241	-1.398256	0.581778	-0.197114	-1.339525	0.600827	-0.214117	-1.383931	0.395764	-0.222282	-1.356001	0.393219	-0.348449	-1.515027	0.384298	-0.227408	-1.485706	0.329903	-0.240234	-1.583380	0.358941	-0.248793	-1.550905	0.309287	-0.258831	-1.739854	0.290375	-0.298000	-1.721757	0.286973	-0.379956	-1.792060	0.168935	-0.274993	-1.777501	0.153174	-0.386800	-1.741848	0.097802	-0.329313	-1.794245	0.351084	-0.365148	-1.414057	0.672608	-0.576813	-1.361364	0.698461	-0.569601	-1.395631	0.625033	-0.572523	-1.344106	0.658006	-0.573075	-1.296849	0.410923	-0.552208	-1.268642	0.417416	-0.443324	-1.357695	0.295487	-0.563710	-1.307952	0.291845	-0.550750	-1.365621	0.247825	-0.554491	-1.318217	0.244331	-0.540406	-1.389555	0.065868	-0.511230	-1.382481	0.078335	-0.428777	-1.293769	0.002398	-0.542139	-1.266328	0.004196	-0.426303	-1.204595	0.023903	-0.488892	-1.469852	0.038813	-0.461884	-1.289553	1.341231	-0.259104	-1.309179	1.317978	-0.584064	
10	0.0450	-1.364171	0.852099	-0.263269	-1.366762	0.872387	-0.498847	-1.550074	0.895626	-0.335880	-1.547866	0.907842	-0.423531	-1.387694	0.629807	-0.196588	-1.333442	0.653684	-0.215879	-1.373189	0.583836	-0.195042	-1.315282	0.604704	-0.212507	-1.352075	0.398969	-0.219505	-1.324242	0.396840	-0.346033	-1.482460	0.385506	-0.224680	-1.452226	0.331374	-0.237197	-1.550474	0.359034	-0.245715	-1.517223	0.309775	-0.255528	-1.705814	0.287575	-0.294371	-1.687746	0.283931	-0.376355	-1.754287	0.165892	-0.269829	-1.739831	0.149029	-0.381519	-1.702238	0.095403	-0.323605	-1.761429	0.346500	-0.361980	-1.399139	0.671038	-0.576047	-1.346074	0.696218	-0.569143	-1.381348	0.623262	-0.571886	-1.329436	0.655502	-0.572761	-1.285560	0.407743	-0.552008	-1.257162	0.413554	-0.443157	-1.348915	0.293801	-0.563603	-1.299403	0.288917	-0.550374	-1.358240	0.246425	-0.554264	-1.311106	0.241739	-0.539890	-1.388404	0.065814	-0.510507	-1.381271	0.078002	-0.427767	-1.293642	0.002121	-0.542128	-1.265855	0.003304	-0.426141	-1.203838	0.022307	-0.488200	-1.469809	0.038960	-0.461274	-1.272583	1.339721	-0.257524	-1.289704	1.316356	-0.583075	
11	0.0500	-1.346197	0.851239	-0.262371	-1.349089	0.871433	-0.498444	-1.532505	0.894205	-0.334807	-1.530234	0.906974	-0.422378	-1.364070	0.631642	-0.194845	-1.310786	0.657120	-0.214535	-1.347934	0.586268	-0.193002	-1.290904	0.608948	-0.210932	-1.320023	0.402659	-0.216753	-1.292361	0.400942	-0.343614	-1.449583	0.386822	-0.221910	-1.418327	0.333101	-0.234120	-1.517116	0.359042	-0.242546	-1.482989	0.310330	-0.252149	-1.670972	0.284272	-0.290559	-1.652967	0.280422	-0.372591	-1.715362	0.162375	-0.264503	-1.700963	0.144460	-0.376076	-1.661352	0.092773	-0.317765	-1.727979	0.341127	-0.358584	-1.384039	0.669521	-0.575198	-1.330607	0.693960	-0.568592	-1.366965	0.621547	-0.571169	-1.314648	0.652980	-0.572339	-1.274585	0.404584	-0.551739	-1.246004	0.409704	-0.442943	-1.340454	0.292173	-0.563445	-1.291174	0.286057	-0.549977	-1.351139	0.245088	-0.553999	-1.304281	0.239228	-0.539377	-1.387352	0.065831	-0.509857	-1.380152	0.077743	-0.426838	-1.293565	0.001781	-0.542113	-1.265459	0.002428	-0.426009	-1.203156	0.020840	-0.487570	-1.469846	0.039147	-0.460751	-1.255512	1.338458	-0.255879	-1.269911	1.315003	-0.581931	
12	0.0550	-1.327930	0.850581	-0.261430	-1.331023	0.870514	-0.497989	-1.514587	0.892990	-0.333782	-1.512222	0.906219	-0.421277	-1.340270	0.633824	-0.193118	-1.287993	0.660894	-0.213211	-1.322512	0.589088	-0.190998	-1.266411	0.613569	-0.209395	-1.287830	0.406843	-0.214033	-1.260412	0.405533	-0.341190	-1.416423	0.388237	-0.219093	-1.384037	0.335090	-0.231004	-1.483309	0.358954	-0.239282	-1.448210	0.310956	-0.248695	-1.635284	0.280457	-0.286559	-1.617384	0.276435	-0.368656	-1.675227	0.158397	-0.259016	-1.660838	0.139492	-0.370473	-1.619140	0.089953	-0.311802	-1.693836	0.334933	-0.354944	-1.368744	0.668080	-0.574262	-1.314952	0.691706	-0.567936	-1.352474	0.619916	-0.570367	-1.299736	0.650461	-0.571798	-1.263942	0.401485	-0.551397	-1.235194	0.405904	-0.442671	-1.332325	0.290643	-0.563235	-1.283278	0.283305	-0.549559	-1.344329	0.243851	-0.553699	-1.297750	0.236838	-0.538871	-1.386382	0.065942	-0.509294	-1.379112	0.077579	-0.426005	-1.293539	0.001375	-0.542097	-1.265152	0.001566	-0.425911	-1.202558	0.019495	-0.487007	-1.469947	0.039405	-0.460332	-1.238350	1.337475	-0.254168	-1.249797	1.313951	-0.580616	
13	0.0600	-1.309365	0.850152	-0.260443	-1.312546	0.869644	-0.497469	-1.496309	0.892001	-0.332807	-1.493816	0.905593	-0.420228	-1.316313	0.636364	-0.191407	-1.265075	0.665008	-0.211909	-1.296952	0.592305	-0.189035	-1.241826	0.618564	-0.207900	-1.255556	0.411518	-0.211351	-1.228459	0.410603	-0.338762	-1.383014	0.389738	-0.216223	-1.349395	0.337346	-0.227855	-1.449070	0.358759	-0.235917	-1.412907	0.311656	-0.245166	-1.598721	0.276127	-0.282366	-1.580968	0.271974	-0.364547	-1.633840	0.153986	-0.253372	-1.619415	0.134167	-0.364718	-1.575581	0.086995	-0.305728	-1.658952	0.327898	-0.351050	-1.353242	0.666742	-0.573234	-1.299098	0.689477	-0.567166	-1.337865	0.618398	-0.569476	-1.284691	0.647968	-0.571128	-1.253643	0.398490	-0.550976	-1.224751	0.402196	-0.442334	-1.324533	0.289251	-0.562972	-1.275721	0.280705	-0.549121	-1.337809	0.242755	-0.553364	-1.291514	0.234609	-0.538375	-1.385472	0.066171	-0.508832	-1.378130	0.077534	-0.425285	-1.293566	0.000905	-0.542087	-1.264946	0.000714	-0.425850	-1.202056	0.018265	-0.486515	-1.470090	0.039775	-0.460031	-1.221108	1.336803	-0.252390	-1.229365	1.313230	-0.579117	
14	0.0650	-1.290497	0.849978	-0.259406	-1.293648	0.868841	-0.496873	-1.477664	0.891256	-0.331882	-1.475005	0.905113	-0.419235	-1.292220	0.639265	-0.189715	-1.242051	0.669456	-0.210629	-1.271285	0.595916	-0.187115	-1.217175	0.623921	-0.206448	-1.223273	0.416668	-0.208713	-1.196572	0.416134	-0.336331	-1.349398	0.391307	-0.213297	-1.314452	0.339862	-0.224675	-1.414421	0.358446	-0.232450	-1.377111	0.312432	-0.241565	-1.561264	0.271295	-0.277978	-1.543707	0.267052	-0.360261	-1.591184	0.149186	-0.247580	-1.576676	0.128538	-0.358822	-1.530675	0.083963	-0.299559	-1.623282	0.320022	-0.346895	-1.337520	0.665534	-0.572110	-1.283036	0.687298	-0.566275	-1.323129	0.617021	-0.568493	-1.269507	0.645529	-0.570320	-1.243691	0.395645	-0.550471	-1.214684	0.398628	-0.441921	-1.317074	0.288044	-0.562655	-1.268496	0.278304	-0.548663	-1.331573	0.241844	-0.552997	-1.285563	0.232588	-0.537893	-1.384594	0.066547	-0.508483	-1.377181	0.077633	-0.424693	-1.293644	0.000374	-0.542086	-1.264849	-0.000129	-0.425830	-1.201659	0.017140	-0.486097	-1.470247	0.040302	-0.459862	-1.203797	1.336471	-0.250548	-1.208623	1.312865	-0.577422	
15	0.0700	-1.271328	0.850084	-0.258316	-1.274323	0.868123	-0.496187	-1.458653	0.890770	-0.331006	-1.455785	0.904797	-0.418296	-1.268020	0.642524	-0.188042	-1.218938	0.674227	-0.209373	-1.245548	0.599910	-0.185240	-1.192488	0.629620	-0.205039	-1.191059	0.422263	-0.206123	-1.164829	0.422091	-0.333897	-1.315629	0.392923	-0.210311	-1.279271	0.342630	-0.221470	-1.379401	0.358005	-0.228882	-1.340871	0.313285	-0.237897	-1.522915	0.265984	-0.273400	-1.505601	0.261693	-0.355801	-1.547262	0.144052	-0.241655	-1.532626	0.122675	-0.352800	-1.484454	0.080930	-0.293314	-1.586794	0.311320	-0.342476	-1.321571	0.664482	-0.570891	-1.266760	0.685195	-0.565254	-1.308255	0.615818	-0.567415	-1.254175	0.643174	-0.569364	-1.234077	0.393000	-0.549879	-1.204995	0.395248	-0.441426	-1.309932	0.287069	-0.562285	-1.261589	0.276152	-0.548186	-1.325601	0.241162	-0.552602	-1.279878	0.230818	-0.537429	-1.383713	0.067099	-0.508257	-1.376232	0.077906	-0.424241	-1.293769	-0.000209	-0.542101	-1.264869	-0.000961	-0.425854	-1.201376	0.016107	-0.485754	-1.470381	0.041034	-0.459838	-1.186432	1.336501	-0.248643	-1.187586	1.312875	-0.575523	
16	0.0750	-1.251865	0.850491	-0.257169	-1.254573	0.867512	-0.495400	-1.439279	0.890557	-0.330174	-1.436157	0.904660	-0.417410	-1.243741	0.646129	-0.186389	-1.195759	0.679297	-0.208138	-1.219784	0.604268	-0.183412	-1.167796	0.635628	-0.203674	-1.159000	0.428265	-0.203588	-1.133309	0.428430	-0.331459	-1.281765	0.394562	-0.207262	-1.243926	0.345633	-0.218246	-1.344054	0.357428	-0.225213	-1.304246	0.314213	-0.234167	-1.483687	0.260231	-0.268639	-1.466667	0.255933	-0.351173	-1.502103	0.138653	-0.235611	-1.487298	0.116656	-0.346671	-1.436973	0.077977	-0.287015	-1.549466	0.301828	-0.337796	-1.305383	0.663614	-0.569576	-1.250261	0.683198	-0.564099	-1.293231	0.614817	-0.566244	-1.238688	0.640933	-0.568255	-1.224783	0.390605	-0.549198	-1.195673	0.392105	-0.440838	-1.303082	0.286373	-0.561862	-1.254973	0.274297	-0.547691	-1.319867	0.240757	-0.552180	-1.274430	0.229348	-0.536984	-1.382789	0.067857	-0.508164	-1.375245	0.078379	-0.423941	-1.293935	-0.000829	-0.542137	-1.265012	-0.001778	-0.425925	-1.201213	0.015152	-0.485488	-1.470449	0.042026	-0.459967	-1.169024	1.336915	-0.246680	-1.166275	1.313277	-0.573414	
17	0.0800	-1.232118	0.851215	-0.255963	-1.234403	0.867027	-0.494501	-1.419553	0.890624	-0.329385	-1.416129	0.904716	-0.416573	-1.219419	0.650063	-0.184756	-1.172537	0.684637	-0.206924	-1.194036	0.608960	-0.181630	-1.143134	0.641906	-0.202352	-1.127184	0.434621	-0.201110	-1.102098	0.435094	-0.329018	-1.247875	0.396196	-0.204151	-1.208499	0.348850	-0.215008	-1.308436	0.356709	-0.221448	-1.267307	0.315214	-0.230382	-1.443612	0.254080	-0.263705	-1.426936	0.249817	-0.346385	-1.455761	0.133065	-0.229468	-1.440746	0.110570	-0.340457	-1.388318	0.075188	-0.280685	-1.511289	0.291594	-0.332864	-1.288949	0.662959	-0.568165	-1.233534	0.681334	-0.562804	-1.278045	0.614049	-0.564979	-1.223036	0.638838	-0.566988	-1.215778	0.388508	-0.548426	-1.186695	0.389248	-0.440151	-1.296485	0.286002	-0.561388	-1.248612	0.272787	-0.547180	-1.314331	0.240673	-0.551736	-1.269180	0.228221	-0.536562	-1.381774	0.068855	-0.508210	-1.374176	0.079084	-0.423802	-1.294133	-0.001467	-0.542198	-1.265278	-0.002572	-0.426045	-1.201176	0.014261	-0.485298	-1.470399	0.043333	-0.460257	-1.151589	1.337724	-0.244663	-1.144715	1.314081	-0.571092	
18	0.0850	-1.212102	0.852271	-0.254696	-1.213827	0.866688	-0.493476	-1.399489	0.890980	-0.328631	-1.395713	0.904980	-0.415781	-1.195088	0.654297	-0.183140	-1.149296	0.690210	-0.205728	-1.168352	0.613951	-0.179892	-1.118536	0.648405	-0.201068	-1.095701	0.441270	-0.198694	-1.071277	0.442017	-0.326574	-1.214030	0.397797	-0.200977	-1.173081	0.352253	-0.211763	-1.272614	0.355843	-0.217595	-1.230138	0.316282	-0.226550	-1.402740	0.247586	-0.258613	-1.386455	0.243399	-0.341450	-1.408310	0.127373	-0.223247	-1.393051	0.104512	-0.334181	-1.338597	0.072652	-0.274349	-1.472269	0.280686	-0.327691	-1.272262	0.662539	-0.566662	-1.216576	0.679633	-0.561369	-1.262684	0.613540	-0.563624	-1.207212	0.636921	-0.565561	-1.207022	0.386755	-0.547562	-1.178030	0.386725	-0.439359	-1.290095	0.286000	-0.560864	-1.242459	0.271667	-0.546652	-1.308946	0.240954	-0.551271	-1.264081	0.227479	-0.536163	-1.380619	0.070125	-0.508400	-1.372976	0.080050	-0.423831	-1.294350	-0.002098	-0.542289	-1.265666	-0.003330	-0.426214	-1.201268	0.013421	-0.485184	-1.470174	0.045015	-0.460711	-1.134139	1.338936	-0.242598	-1.122936	1.315291	-0.568556	
19	0.0900	-1.191835	0.853665	-0.253367	-1.192864	0.866515	-0.492318	-1.379104	0.891626	-0.327906	-1.374927	0.905462	-0.415026	-1.170786	0.658798	-0.181540	-1.126063	0.695972	-0.204547	-1.142779	0.619195	-0.178196	-1.094038	0.655069	-0.199819	-1.064642	0.448141	-0.196341	-1.040930	0.449124	-0.324128	-1.180307	0.399336	-0.197744	-1.137769	0.355810	-0.208518	-1.236658	0.354826	-0.213660	-1.192828	0.317413	-0.222681	-1.361134	0.240812	-0.253379	-1.345286	0.236740	-0.336380	-1.359853	0.121669	-0.216973	-1.344315	0.098580	-0.327869	-1.287945	0.070455	-0.268032	-1.432424	0.269182	-0.322295	-1.255318	0.662378	-0.565071	-1.199382	0.678124	-0.559792	-1.247135	0.613315	-0.562180	-1.191205	0.635212	-0.563973	-1.198464	0.385388	-0.546606	-1.169632	0.384577	-0.438454	-1.283853	0.286408	-0.560291	-1.236458	0.270977	-0.546108	-1.303656	0.241640	-0.550788	-1.259075	0.227163	-0.535787	-1.379266	0.071701	-0.508734	-1.371592	0.081309	-0.424029	-1.294571	-0.002689	-0.542412	-1.266168	-0.004034	-0.426435	-1.201487	0.012621	-0.485143	-1.469711	0.047130	-0.461329	-1.116685	1.340553	-0.240490	-1.100973	1.316906	-0.565810	
20	0.0950	-1.171339	0.855401	-0.251975	-1.171535	0.866527	-0.491015	-1.358423	0.892561	-0.327201	-1.353793	0.906172	-0.414301	-1.146550	0.663528	-0.179954	-1.102860	0.701872	-0.203374	-1.117365	0.624641	-0.176538	-1.069672	0.661836	-0.198599	-1.034094	0.455158	-0.194053	-1.011134	0.456333	-0.321680	-1.146785	0.400781	-0.194454	-1.102659	0.359485	-0.205279	-1.200649	0.353659	-0.209655	-1.155476	0.318597	-0.218784	-1.318874	0.233828	-0.248025	-1.303505	0.229906	-0.331195	-1.310509	0.116043	-0.210670	-1.294663	0.092873	-0.321548	-1.236516	0.068680	-0.261760	-1.391792	0.257174	-0.316699	-1.238110	0.662495	-0.563395	-1.181949	0.676833	-0.558075	-1.231381	0.613392	-0.560652	-1.175006	0.633740	-0.562226	-1.190043	0.384443	-0.545560	-1.161446	0.382842	-0.437433	-1.277692	0.287261	-0.559670	-1.230542	0.270754	-0.545546	-1.298394	0.242766	-0.550286	-1.254098	0.227304	-0.535431	-1.377658	0.073616	-0.509210	-1.369967	0.082890	-0.424396	-1.294778	-0.003202	-0.542570	-1.266772	-0.004661	-0.426704	-1.201830	0.011851	-0.485172	-1.468941	0.049738	-0.462106	-1.099238	1.342570	-0.238345	-1.078860	1.318919	-0.562859	
21	0.1000	-1.150638	0.857474	-0.250519	-1.149870	0.866739	-0.489563	-1.337468	0.893781	-0.326509	-1.332338	0.907117	-0.413597	-1.122418	0.668438	-0.178377	-1.079713	0.707856	-0.202206	-1.092156	0.630233	-0.174913	-1.045471	0.668640	-0.197400	-1.004138	0.462239	-0.191831	-0.981960	0.463560	-0.319232	-1.113541	0.402104	-0.191114	-1.067853	0.363240	-0.202054	-1.164670	0.352341	-0.205593	-1.118184	0.319825	-0.214869	-1.276055	0.226704	-0.242573	-1.261201	0.222966	-0.325914	-1.260420	0.110586	-0.204363	-1.244240	0.087485	-0.315243	-1.184483	0.067403	-0.255556	-1.350423	0.244764	-0.310930	-1.220635	0.662903	-0.561641	-1.164276	0.675782	-0.556222	-1.215409	0.613787	-0.559045	-1.158604	0.632529	-0.560324	-1.181686	0.383945	-0.544424	-1.153404	0.381548	-0.436292	-1.271536	0.288585	-0.559001	-1.224639	0.271025	-0.544967	-1.293087	0.244363	-0.549767	-1.249077	0.227932	-0.535093	-1.375733	0.075902	-0.509821	-1.368042	0.084822	-0.424926	-1.294947	-0.003595	-0.542762	-1.267460	-0.005182	-0.427021	-1.202288	0.011107	-0.485268	-1.467790	0.052896	-0.463033	-1.081805	1.344972	-0.236169	-1.056635	1.321316	-0.559713	
22	0.1050	-1.129758	0.859876	-0.249000	-1.127899	0.867167	-0.487954	-1.316268	0.895276	-0.325818	-1.310590	0.908301	-0.412902	-1.098424	0.673480	-0.176805	-1.056645	0.713865	-0.201033	-1.067194	0.635911	-0.173313	-1.021464	0.675410	-0.196216	-0.974848	0.469300	-0.189672	-0.953471	0.470716	-0.316783	-1.080656	0.403277	-0.187732	-1.033447	0.367033	-0.198848	-1.128808	0.350877	-0.201488	-1.081058	0.321086	-0.210947	-1.232786	0.219517	-0.237047	-1.218476	0.215992	-0.320558	-1.209745	0.105386	-0.198079	-1.193209	0.082508	-0.308981	-1.132035	0.066691	-0.249444	-1.308385	0.232060	-0.305017	-1.202890	0.663612	-0.559814	-1.146361	0.674992	-0.554238	-1.199203	0.614508	-0.557364	-1.141987	0.631599	-0.558273	-1.173314	0.383915	-0.543202	-1.145430	0.380717	-0.435030	-1.265300	0.290401	-0.558286	-1.218668	0.271809	-0.544367	-1.287656	0.246452	-0.549229	-1.243935	0.229065	-0.534768	-1.373430	0.078591	-0.510557	-1.365754	0.087133	-0.425609	-1.295051	-0.003816	-0.542986	-1.268207	-0.005562	-0.427382	-1.202849	0.010389	-0.485425	-1.466180	0.056659	-0.464096	-1.064391	1.347742	-0.233969	-1.034337	1.324076	-0.556383	
23	0.1100	-1.108726	0.862591	-0.247418	-1.105657	0.867821	-0.486185	-1.294852	0.897035	-0.325120	-1.288583	0.909724	-0.412207	-1.074603	0.678599	-0.175233	-1.033677	0.719837	-0.199849	-1.042519	0.641609	-0.171731	-0.997679	0.682074	-0.195035	-0.946289	0.476255	-0.187576	-0.925719	0.477715	-0.314336	-1.048203	0.404273	-0.184317	-0.999538	0.370820	-0.195666	-1.093152	0.349270	-0.197356	-1.044206	0.322367	-0.207029	-1.189187	0.212339	-0.231474	-1.175443	0.209054	-0.315151	-1.158661	0.100522	-0.191842	-1.141747	0.078020	-0.302788	-1.079373	0.066599	-0.243443	-1.265765	0.219175	-0.298995	-1.184873	0.664625	-0.557921	-1.128202	0.674479	-0.552130	-1.182745	0.615556	-0.555615	-1.125144	0.630966	-0.556079	-1.164842	0.384361	-0.541896	-1.137437	0.380358	-0.433646	-1.258895	0.292721	-0.557523	-1.212542	0.273118	-0.543744	-1.282015	0.249047	-0.548668	-1.238589	0.230715	-0.534447	-1.370684	0.081709	-0.511403	-1.363040	0.089849	-0.426430	-1.295059	-0.003814	-0.543238	-1.268983	-0.005764	-0.427780	-1.203492	0.009700	-0.485636	-1.464034	0.061076	-0.465277	-1.046997	1.350853	-0.231747	-1.012003	1.327175	-0.552883	
24	0.1150	-1.087572	0.865597	-0.245774	-1.083181	0.868710	-0.484257	-1.273250	0.899041	-0.324403	-1.266351	0.911384	-0.411498	-1.050985	0.683737	-0.173655	-1.010828	0.725710	-0.198645	-1.018168	0.647264	-0.170158	-0.974138	0.688561	-0.193848	-0.918515	0.483021	-0.185539	-0.898747	0.484472	-0.311891	-1.016257	0.405069	-0.180881	-0.966214	0.374558	-0.192516	-1.057795	0.347527	-0.193214	-1.007732	0.323651	-0.203126	-1.145391	0.205244	-0.225882	-1.132225	0.202219	-0.309716	-1.107355	0.096065	-0.185676	-1.090045	0.074089	-0.296687	-1.026708	0.067163	-0.237572	-1.222663	0.206224	-0.292900	-1.166582	0.665940	-0.555970	-1.109799	0.674251	-0.549908	-1.166021	0.616928	-0.553803	-1.108060	0.630639	-0.553755	-1.156175	0.385280	-0.540510	-1.129331	0.380473	-0.432142	-1.252228	0.295545	-0.556712	-1.206172	0.274952	-0.543094	-1.276075	0.252155	-0.548080	-1.232952	0.232886	-0.534124	-1.367434	0.085284	-0.512341	-1.359838	0.092992	-0.427371	-1.294936	-0.003531	-0.543513	-1.269749	-0.005742	-0.428209	-1.204193	0.009051	-0.485893	-1.461270	0.066191	-0.466553	-1.029622	1.354272	-0.229508	-0.989669	1.330583	-0.549230	
25	0.1200	-1.066323	0.868869	-0.244070	-1.060510	0.869837	-0.482170	-1.251494	0.901274	-0.323656	-1.243930	0.913273	-0.410764	-1.027598	0.688838	-0.172064	-0.988116	0.731422	-0.197410	-0.994171	0.652809	-0.168584	-0.950862	0.694801	-0.192642	-0.891569	0.489516	-0.183559	-0.872586	0.490905	-0.309451	-0.984883	0.405644	-0.177436	-0.933558	0.378202	-0.189401	-1.022824	0.345655	-0.189080	-0.971741	0.324925	-0.199248	-1.101539	0.198298	-0.220298	-1.088954	0.195550	-0.304280	-1.056028	0.092075	-0.179606	-1.038304	0.070769	-0.290701	-0.974253	0.068407	-0.231845	-1.179198	0.193322	-0.286771	-1.148018	0.667547	-0.553966	-1.091150	0.674314	-0.547581	-1.149014	0.618611	-0.551936	-1.090725	0.630622	-0.551310	-1.147219	0.386658	-0.539048	-1.121011	0.381049	-0.430521	-1.245199	0.298867	-0.555850	-1.199464	0.277301	-0.542411	-1.269745	0.255771	-0.547461	-1.226938	0.235571	-0.533786	-1.363618	0.089335	-0.513348	-1.356086	0.096581	-0.428408	-1.294639	-0.002907	-0.543800	-1.270458	-0.005449	-0.428659	-1.204917	0.008459	-0.486187	-1.457810	0.072040	-0.467895	-1.012262	1.357963	-0.227255	-0.967369	1.334265	-0.545442	
26	0.1250	-1.045007	0.872372	-0.242307	-1.037684	0.871202	-0.479929	-1.229614	0.903711	-0.322871	-1.221358	0.915381	-0.409994	-1.004467	0.693841	-0.170454	-0.965558	0.736914	-0.196135	-0.970553	0.658180	-0.167001	-0.927867	0.700728	-0.191406	-0.865480	0.495665	-0.181630	-0.847253	0.496941	-0.307017	-0.954145	0.405982	-0.173996	-0.901645	0.381710	-0.186326	-0.988330	0.343663	-0.184974	-0.936333	0.326168	-0.195406	-1.057780	0.191564	-0.214751	-1.045770	0.189105	-0.298868	-1.004888	0.088595	-0.173652	-0.986733	0.068097	-0.284850	-0.922229	0.070334	-0.226276	-1.135502	0.180581	-0.280647	-1.129180	0.669430	-0.551918	-1.072255	0.674666	-0.545161	-1.131708	0.620585	-0.550019	-1.073123	0.630912	-0.548758	-1.137874	0.388472	-0.537515	-1.112373	0.382064	-0.428786	-1.237711	0.302667	-0.554937	-1.192325	0.280147	-0.541692	-1.262931	0.259883	-0.546803	-1.220458	0.238755	-0.533423	-1.359179	0.093881	-0.514398	-1.351723	0.100632	-0.429515	-1.294123	-0.001883	-0.544088	-1.271057	-0.004836	-0.429118	-1.205624	0.007944	-0.486506	-1.453575	0.078651	-0.469273	-0.994910	1.361881	-0.224989	-0.945134	1.338181	-0.541538	
27	0.1300	-1.023652	0.876072	-0.240486	-1.014743	0.872802	-0.477541	-1.207643	0.906325	-0.322037	-1.198670	0.917693	-0.409175	-0.981614	0.698689	-0.168818	-0.943168	0.742126	-0.194809	-0.947335	0.663315	-0.165398	-0.905165	0.706278	-0.190126	-0.840266	0.501400	-0.179747	-0.822755	0.502514	-0.304592	-0.924098	0.406071	-0.170577	-0.870540	0.385041	-0.183297	-0.954399	0.341561	-0.180914	-0.901601	0.327363	-0.191610	-1.014271	0.185095	-0.209268	-1.002818	0.182932	-0.293505	-0.954147	0.085657	-0.167834	-0.935546	0.066090	-0.279151	-0.870853	0.072926	-0.220873	-1.091723	0.168107	-0.274569	-1.110069	0.671566	-0.549832	-1.053114	0.675300	-0.542662	-1.114088	0.622823	-0.548058	-1.055242	0.631497	-0.546115	-1.128040	0.390685	-0.535914	-1.103309	0.383485	-0.426945	-1.229666	0.306917	-0.553968	-1.184662	0.283459	-0.540928	-1.255543	0.264468	-0.546098	-1.213424	0.242412	-0.533022	-1.354059	0.098933	-0.515463	-1.346690	0.105156	-0.430660	-1.293338	-0.000399	-0.544364	-1.271483	-0.003851	-0.429573	-1.206265	0.007534	-0.486838	-1.448490	0.086042	-0.470653	-0.977554	1.365981	-0.222708	-0.922993	1.342290	-0.537539	
28	0.1350	-1.002285	0.879928	-0.238611	-0.991726	0.874625	-0.475015	-1.185610	0.909088	-0.321145	-1.175906	0.920190	-0.408298	-0.959055	0.703329	-0.167149	-0.920957	0.747007	-0.193421	-0.924531	0.668157	-0.163766	-0.882766	0.711397	-0.188791	-0.815932	0.506659	-0.177905	-0.799086	0.507568	-0.302177	-0.894790	0.405901	-0.167193	-0.840299	0.388154	-0.180315	-0.921113	0.339358	-0.176920	-0.867632	0.328490	-0.187870	-0.971173	0.178937	-0.203879	-0.960249	0.177073	-0.288219	-0.904023	0.083272	-0.162171	-0.884959	0.064749	-0.273620	-0.820338	0.076147	-0.215644	-1.048021	0.155999	-0.268578	-1.090687	0.673926	-0.547715	-1.033727	0.676201	-0.540097	-1.096141	0.625293	-0.546060	-1.037069	0.632364	-0.543394	-1.117621	0.393252	-0.534251	-1.093710	0.385269	-0.425004	-1.220967	0.311582	-0.552941	-1.176382	0.287198	-0.540114	-1.247490	0.269495	-0.545337	-1.205751	0.246511	-0.532569	-1.348207	0.104498	-0.516510	-1.340932	0.110160	-0.431809	-1.292227	0.001602	-0.544612	-1.271667	-0.002442	-0.430009	-1.206780	0.007263	-0.487168	-1.442485	0.094219	-0.471996	-0.960183	1.370211	-0.220412	-0.900971	1.346548	-0.533468	
29	0.1400	-0.980929	0.883896	-0.236683	-0.968672	0.876661	-0.472361	-1.163545	0.911968	-0.320188	-1.153099	0.922849	-0.407353	-0.936803	0.707707	-0.165439	-0.898936	0.751508	-0.191960	-0.902151	0.672652	-0.162094	-0.860675	0.716035	-0.187387	-0.792470	0.511392	-0.176099	-0.776229	0.512057	-0.299775	-0.866265	0.405469	-0.163862	-0.810966	0.391014	-0.177385	-0.888550	0.337065	-0.173010	-0.834508	0.329527	-0.184196	-0.928648	0.173124	-0.198610	-0.918214	0.171558	-0.283034	-0.854729	0.081439	-0.156678	-0.835187	0.064054	-0.268270	-0.770891	0.079942	-0.210594	-1.004569	0.144345	-0.262714	-1.071037	0.676478	-0.545574	-1.014095	0.677351	-0.537479	-1.077853	0.627954	-0.544030	-1.018590	0.633488	-0.540614	-1.106520	0.396119	-0.532531	-1.083468	0.387363	-0.422972	-1.211521	0.316614	-0.551852	-1.167399	0.291316	-0.539242	-1.238686	0.274925	-0.544512	-1.197359	0.251009	-0.532048	-1.341572	0.110577	-0.517506	-1.334397	0.115644	-0.432928	-1.290727	0.004171	-0.544812	-1.271531	-0.000563	-0.430406	-1.207103	0.007166	-0.487479	-1.435494	0.103178	-0.473263	-0.942782	1.374519	-0.218096	-0.879089	1.350907	-0.529347	
30	0.1450	-0.959608	0.887930	-0.234704	-0.945617	0.878889	-0.469595	-1.141475	0.914931	-0.319161	-1.130286	0.925644	-0.406332	-0.914869	0.711777	-0.163682	-0.877114	0.755588	-0.190416	-0.880198	0.676756	-0.160374	-0.838894	0.720154	-0.185901	-0.769860	0.515558	-0.174322	-0.754158	0.515948	-0.297389	-0.838555	0.404773	-0.160597	-0.782576	0.393589	-0.174511	-0.856785	0.334690	-0.169204	-0.802299	0.330453	-0.180597	-0.886859	0.167681	-0.193486	-0.876868	0.166407	-0.277975	-0.806479	0.080137	-0.151370	-0.786442	0.063967	-0.263113	-0.722711	0.084234	-0.205725	-0.961547	0.133225	-0.257015	-1.051120	0.679180	-0.543414	-0.994216	0.678725	-0.534824	-1.059212	0.630763	-0.541973	-0.999793	0.634841	-0.537789	-1.094648	0.399224	-0.530758	-1.072480	0.389707	-0.420858	-1.201243	0.321961	-0.550699	-1.157628	0.295759	-0.538305	-1.229049	0.280709	-0.543613	-1.188169	0.255857	-0.531447	-1.334110	0.117163	-0.518416	-1.327034	0.121604	-0.433977	-1.288771	0.007354	-0.544945	-1.270989	0.001833	-0.430747	-1.207155	0.007282	-0.487754	-1.427458	0.112902	-0.474415	-0.925336	1.378851	-0.215756	-0.857363	1.355321	-0.525197	
31	0.1500	-0.938341	0.891984	-0.232676	-0.922597	0.881289	-0.466730	-1.119427	0.917943	-0.318057	-1.107498	0.928544	-0.405228	-0.893259	0.715498	-0.161871	-0.855498	0.759213	-0.188779	-0.858671	0.680429	-0.158597	-0.817424	0.723721	-0.184323	-0.748074	0.519125	-0.172568	-0.732837	0.519217	-0.295021	-0.811689	0.403816	-0.157415	-0.755153	0.395849	-0.171694	-0.825882	0.332245	-0.165517	-0.771069	0.331246	-0.177081	-0.845967	0.162621	-0.188532	-0.836364	0.161631	-0.273065	-0.759478	0.079330	-0.146260	-0.738930	0.064432	-0.258158	-0.675983	0.088933	-0.201039	-0.919142	0.122706	-0.251518	-1.030940	0.681990	-0.541241	-0.974090	0.680294	-0.532144	-1.040207	0.633672	-0.539895	-0.980665	0.636393	-0.534937	-1.081919	0.402501	-0.528938	-1.060645	0.392236	-0.418671	-1.190048	0.327563	-0.549477	-1.146991	0.300465	-0.537293	-1.218502	0.286794	-0.542630	-1.178111	0.261003	-0.530749	-1.325779	0.124243	-0.519206	-1.318799	0.128028	-0.434921	-1.286286	0.011186	-0.544990	-1.269950	0.004784	-0.431008	-1.206848	0.007653	-0.487973	-1.418324	0.123362	-0.475413	-0.907826	1.383152	-0.213385	-0.835807	1.359742	-0.521041	
32	0.1550	-0.917145	0.896012	-0.230601	-0.899641	0.883834	-0.463783	-1.097425	0.920968	-0.316873	-1.084766	0.931516	-0.404037	-0.871974	0.718834	-0.160001	-0.834092	0.762355	-0.187040	-0.837564	0.683639	-0.156759	-0.796261	0.726716	-0.182640	-0.727074	0.522075	-0.170831	-0.712222	0.521854	-0.292672	-0.785684	0.402607	-0.154330	-0.728709	0.397769	-0.168937	-0.795904	0.329737	-0.161965	-0.740870	0.331883	-0.173657	-0.806131	0.157949	-0.183770	-0.796852	0.157230	-0.268328	-0.713922	0.078969	-0.141358	-0.692847	0.065377	-0.253412	-0.630880	0.093931	-0.196535	-0.877543	0.112840	-0.246256	-1.010499	0.684862	-0.539058	-0.953718	0.682026	-0.529453	-1.020828	0.636630	-0.537800	-0.961194	0.638107	-0.532072	-1.068255	0.405880	-0.527074	-1.047870	0.394881	-0.416423	-1.177864	0.333358	-0.548183	-1.135417	0.305369	-0.536201	-1.206976	0.293121	-0.541554	-1.167117	0.266386	-0.529941	-1.316539	0.131797	-0.519839	-1.309648	0.134900	-0.435721	-1.283193	0.015694	-0.544924	-1.268314	0.008321	-0.431168	-1.206086	0.008320	-0.488116	-1.408046	0.134515	-0.476215	-0.890234	1.387370	-0.210977	-0.814428	1.364126	-0.516899	
33	0.1600	-0.896035	0.899967	-0.228479	-0.876779	0.886496	-0.460771	-1.075489	0.923971	-0.315609	-1.062116	0.934525	-0.402755	-0.851013	0.721758	-0.158067	-0.812902	0.764998	-0.185190	-0.816865	0.686364	-0.154851	-0.775398	0.729126	-0.180845	-0.706811	0.524399	-0.169105	-0.692264	0.523862	-0.290345	-0.760552	0.401155	-0.151353	-0.703247	0.399330	-0.166243	-0.766901	0.327174	-0.158561	-0.711745	0.332345	-0.170332	-0.767501	0.153656	-0.179221	-0.758475	0.153193	-0.263783	-0.669996	0.078990	-0.136674	-0.648378	0.066715	-0.248883	-0.587555	0.099109	-0.192215	-0.836943	0.103669	-0.241260	-0.989798	0.687748	-0.536871	-0.933098	0.683885	-0.526762	-1.001065	0.639584	-0.535691	-0.941369	0.639944	-0.529210	-1.053588	0.409287	-0.525171	-1.034069	0.397570	-0.414123	-1.164624	0.339279	-0.546814	-1.122841	0.310403	-0.535019	-1.194408	0.299627	-0.540376	-1.155127	0.271946	-0.529009	-1.306354	0.139796	-0.520284	-1.299542	0.142195	-0.436341	-1.279407	0.020892	-0.544723	-1.265976	0.012465	-0.431204	-1.204762	0.009322	-0.488160	-1.396588	0.146307	-0.476787	-0.872542	1.391451	-0.208523	-0.793232	1.368426	-0.512792	
34	0.1650	-0.875021	0.903806	-0.226312	-0.854032	0.889243	-0.457712	-1.053637	0.926917	-0.314263	-1.039571	0.937532	-0.401382	-0.830369	0.724249	-0.156064	-0.791927	0.767131	-0.183223	-0.796559	0.688589	-0.152872	-0.754827	0.730950	-0.178927	-0.687234	0.526099	-0.167384	-0.672907	0.525251	-0.288039	-0.736299	0.399474	-0.148495	-0.678762	0.400516	-0.163613	-0.738919	0.324566	-0.155317	-0.683728	0.332609	-0.167113	-0.730218	0.149727	-0.174903	-0.721373	0.149504	-0.259451	-0.627870	0.079320	-0.132216	-0.605694	0.068351	-0.244575	-0.546147	0.104339	-0.188076	-0.797526	0.095221	-0.236556	-0.968838	0.690600	-0.534681	-0.912227	0.685834	-0.524083	-0.980910	0.642483	-0.533572	-0.921178	0.641865	-0.526365	-1.037855	0.412653	-0.523231	-1.019166	0.400236	-0.411781	-1.150268	0.345257	-0.545367	-1.109203	0.315497	-0.533740	-1.180740	0.306248	-0.539089	-1.142088	0.277618	-0.527941	-1.295191	0.148204	-0.520507	-1.288441	0.149882	-0.436746	-1.274839	0.026780	-0.544364	-1.262827	0.017228	-0.431090	-1.202760	0.010694	-0.488083	-1.383916	0.158670	-0.477094	-0.854730	1.395348	-0.206014	-0.772220	1.372600	-0.508737	
35	0.1700	-0.854110	0.907488	-0.224100	-0.831420	0.892042	-0.454622	-1.031884	0.929771	-0.312837	-1.017151	0.940498	-0.399918	-0.810035	0.726296	-0.153990	-0.771167	0.768753	-0.181133	-0.776626	0.690309	-0.150817	-0.734536	0.732196	-0.176880	-0.668284	0.527187	-0.165662	-0.654093	0.526044	-0.285755	-0.712919	0.397580	-0.145764	-0.655237	0.401315	-0.161048	-0.711993	0.321917	-0.152242	-0.656840	0.332658	-0.164007	-0.694414	0.146136	-0.170832	-0.685674	0.146135	-0.255347	-0.587696	0.079876	-0.127990	-0.564950	0.070179	-0.240493	-0.506774	0.109489	-0.184120	-0.759476	0.087511	-0.232167	-0.947618	0.693371	-0.532491	-0.891103	0.687836	-0.521424	-0.960354	0.645276	-0.531445	-0.900610	0.643831	-0.523548	-1.021004	0.415909	-0.521258	-1.003093	0.402812	-0.409405	-1.134748	0.351226	-0.543838	-1.094454	0.320585	-0.532356	-1.165926	0.312916	-0.537684	-1.127953	0.283338	-0.526726	-1.283015	0.156978	-0.520480	-1.276311	0.157924	-0.436905	-1.269393	0.033343	-0.543825	-1.258752	0.022607	-0.430804	-1.199956	0.012467	-0.487862	-1.370008	0.171526	-0.477104	-0.836779	1.399014	-0.203441	-0.751387	1.376609	-0.504752	
36	0.1750	-0.833304	0.910976	-0.221843	-0.808956	0.894857	-0.451518	-1.010240	0.932500	-0.311334	-0.994869	0.943384	-0.398365	-0.789996	0.727892	-0.151843	-0.750619	0.769872	-0.178916	-0.757042	0.691528	-0.148687	-0.714511	0.732881	-0.174700	-0.649900	0.527684	-0.163933	-0.635762	0.526272	-0.283492	-0.690405	0.395490	-0.143166	-0.632649	0.401722	-0.158549	-0.686151	0.319234	-0.149341	-0.631094	0.332474	-0.161017	-0.660206	0.142853	-0.167022	-0.651494	0.143056	-0.251488	-0.549608	0.080574	-0.124004	-0.526281	0.072092	-0.236640	-0.469532	0.114425	-0.180345	-0.722962	0.080541	-0.228111	-0.926137	0.696014	-0.530301	-0.869720	0.689856	-0.518792	-0.939388	0.647917	-0.529312	-0.879653	0.645803	-0.520768	-1.002994	0.418994	-0.519251	-0.985794	0.405237	-0.407002	-1.118021	0.357119	-0.542226	-1.078548	0.325599	-0.530861	-1.149923	0.319566	-0.536157	-1.112678	0.289043	-0.525353	-1.269796	0.166065	-0.520176	-1.263116	0.166274	-0.436788	-1.262970	0.040551	-0.543084	-1.253633	0.028586	-0.430321	-1.196219	0.014663	-0.487473	-1.354846	0.184783	-0.476793	-0.818670	1.402409	-0.200796	-0.730728	1.380416	-0.500851	
37	0.1800	-0.812601	0.914237	-0.219540	-0.786647	0.897653	-0.448414	-0.988711	0.935076	-0.309757	-0.972734	0.946151	-0.396728	-0.770235	0.729043	-0.149622	-0.730276	0.770502	-0.176569	-0.737781	0.692256	-0.146481	-0.694735	0.733029	-0.172383	-0.632017	0.527618	-0.162193	-0.617854	0.525974	-0.281248	-0.668738	0.393226	-0.140704	-0.610967	0.401735	-0.156116	-0.661408	0.316524	-0.146619	-0.606493	0.332043	-0.158150	-0.627698	0.139842	-0.163484	-0.618939	0.140230	-0.247884	-0.513717	0.081322	-0.120259	-0.489803	0.073978	-0.233020	-0.434498	0.119014	-0.176753	-0.688142	0.074305	-0.224401	-0.904390	0.698489	-0.528112	-0.848073	0.691856	-0.516192	-0.918004	0.650361	-0.527173	-0.858295	0.647747	-0.518033	-0.983791	0.421852	-0.517211	-0.967223	0.407459	-0.404578	-1.100056	0.362875	-0.540526	-1.061450	0.330479	-0.529248	-1.132698	0.326133	-0.534502	-1.096228	0.294672	-0.523814	-1.255501	0.175407	-0.519574	-1.248823	0.174883	-0.436372	-1.255467	0.048359	-0.542121	-1.247351	0.035135	-0.429618	-1.191412	0.017298	-0.486894	-1.338417	0.198341	-0.476138	-0.800383	1.405496	-0.198071	-0.710232	1.383989	-0.497048	
38	0.1850	-0.791997	0.917243	-0.217190	-0.764496	0.900395	-0.445326	-0.967299	0.937470	-0.308112	-0.950751	0.948762	-0.395013	-0.750732	0.729758	-0.147326	-0.710129	0.770665	-0.174092	-0.718811	0.692513	-0.144202	-0.675189	0.732674	-0.169928	-0.614571	0.527025	-0.160435	-0.600307	0.525193	-0.279021	-0.647896	0.390808	-0.138377	-0.590154	0.401358	-0.153749	-0.637773	0.313791	-0.144074	-0.583029	0.331351	-0.155407	-0.596975	0.137064	-0.160224	-0.588097	0.137617	-0.244548	-0.480112	0.082035	-0.116761	-0.455609	0.075731	-0.229635	-0.401725	0.123132	-0.173346	-0.655157	0.068785	-0.221046	-0.882370	0.700757	-0.525923	-0.826154	0.693807	-0.513626	-0.896191	0.652572	-0.525027	-0.836526	0.649630	-0.515348	-0.963370	0.424436	-0.515137	-0.947345	0.409434	-0.402136	-1.080827	0.368435	-0.538737	-1.043127	0.335169	-0.527509	-1.114224	0.332557	-0.532714	-1.078571	0.300170	-0.522102	-1.240098	0.184936	-0.518655	-1.233396	0.183690	-0.435636	-1.246777	0.056706	-0.540917	-1.239783	0.042209	-0.428676	-1.185393	0.020375	-0.486102	-1.320714	0.212092	-0.475123	-0.781900	1.408244	-0.195257	-0.689885	1.387301	-0.493353	
39	0.1900	-0.771479	0.919973	-0.214791	-0.742499	0.903049	-0.442263	-0.946002	0.939660	-0.306404	-0.928919	0.951179	-0.393224	-0.731463	0.730056	-0.144958	-0.690165	0.770390	-0.171486	-0.700099	0.692324	-0.141852	-0.655851	0.731853	-0.167335	-0.597498	0.525947	-0.158654	-0.583062	0.523978	-0.276805	-0.627851	0.388259	-0.136183	-0.570167	0.400597	-0.151446	-0.615244	0.311041	-0.141706	-0.560686	0.330392	-0.152790	-0.568106	0.134477	-0.157249	-0.559041	0.135178	-0.241485	-0.448859	0.082628	-0.113512	-0.423769	0.077251	-0.226488	-0.371246	0.126665	-0.170125	-0.624128	0.063953	-0.218050	-0.860068	0.702787	-0.523730	-0.803953	0.695680	-0.511095	-0.873941	0.654520	-0.522874	-0.814332	0.651426	-0.512715	-0.941717	0.426710	-0.513025	-0.926139	0.411130	-0.399678	-1.060317	0.373750	-0.536855	-1.023557	0.339619	-0.525638	-1.094480	0.338780	-0.530791	-1.059683	0.305484	-0.520212	-1.223552	0.194581	-0.517404	-1.216801	0.192631	-0.434564	-1.236791	0.065514	-0.539456	-1.230811	0.049748	-0.427474	-1.178018	0.023887	-0.485075	-1.301734	0.225918	-0.473738	-0.763201	1.410631	-0.192350	-0.669673	1.390327	-0.489773	
40	0.1950	-0.751035	0.922411	-0.212342	-0.720647	0.905583	-0.439236	-0.924811	0.941626	-0.304639	-0.907229	0.953372	-0.391371	-0.712401	0.729962	-0.142519	-0.670368	0.769711	-0.168752	-0.681611	0.691722	-0.139437	-0.636697	0.730610	-0.164607	-0.580736	0.524428	-0.156845	-0.566064	0.522379	-0.274597	-0.608569	0.385602	-0.134116	-0.550960	0.399466	-0.149205	-0.593809	0.308279	-0.139509	-0.539438	0.329160	-0.150301	-0.541139	0.132043	-0.154560	-0.531827	0.132874	-0.238701	-0.419998	0.083025	-0.110512	-0.394330	0.078447	-0.223581	-0.343070	0.129513	-0.167093	-0.595154	0.059778	-0.215411	-0.837474	0.704554	-0.521531	-0.781459	0.697452	-0.508595	-0.851242	0.656181	-0.520709	-0.791703	0.653112	-0.510134	-0.918825	0.428650	-0.510871	-0.903590	0.412526	-0.397202	-1.038517	0.378773	-0.534875	-1.002718	0.343788	-0.523629	-1.073452	0.344750	-0.528729	-1.039541	0.310568	-0.518138	-1.205829	0.204262	-0.515813	-1.199004	0.201635	-0.433144	-1.225399	0.074693	-0.537724	-1.220314	0.057678	-0.425996	-1.169141	0.027815	-0.483796	-1.281478	0.239697	-0.471976	-0.744267	1.412637	-0.189343	-0.649576	1.393051	-0.486317	
41	0.2000	-0.730645	0.924545	-0.209840	-0.698924	0.907967	-0.436251	-0.903714	0.943353	-0.302823	-0.885672	0.955310	-0.389460	-0.693514	0.729504	-0.140013	-0.650719	0.768665	-0.165896	-0.663307	0.690745	-0.136960	-0.617701	0.728993	-0.161749	-0.564225	0.522518	-0.155002	-0.549260	0.520450	-0.272390	-0.590013	0.382861	-0.132168	-0.532483	0.397980	-0.147023	-0.573449	0.305514	-0.137475	-0.519253	0.327655	-0.147939	-0.516105	0.129722	-0.152158	-0.506492	0.130668	-0.236197	-0.393546	0.083158	-0.107762	-0.367312	0.079239	-0.220913	-0.317187	0.131592	-0.164254	-0.568311	0.056220	-0.213124	-0.814572	0.706040	-0.519321	-0.758659	0.699106	-0.506122	-0.828083	0.657540	-0.518530	-0.768625	0.654675	-0.507600	-0.894696	0.430242	-0.508667	-0.879699	0.413615	-0.394703	-1.015425	0.383468	-0.532795	-0.980600	0.347645	-0.521475	-1.051132	0.350422	-0.526526	-1.018127	0.315382	-0.515876	-1.186892	0.213896	-0.513875	-1.179969	0.210627	-0.431370	-1.212493	0.084142	-0.535712	-1.208178	0.065913	-0.424227	-1.158617	0.032127	-0.482245	-1.259948	0.253300	-0.469837	-0.725082	1.414252	-0.186236	-0.629575	1.395459	-0.482988	
42	0.2050	-0.710287	0.926373	-0.207283	-0.677311	0.910175	-0.433313	-0.882695	0.944830	-0.300964	-0.864228	0.956971	-0.387500	-0.674771	0.728718	-0.137443	-0.631197	0.767295	-0.162923	-0.645151	0.689433	-0.134428	-0.598833	0.727051	-0.158766	-0.547911	0.520267	-0.153120	-0.532599	0.518242	-0.270177	-0.572141	0.380061	-0.130328	-0.514684	0.396160	-0.144896	-0.554134	0.302752	-0.135594	-0.500090	0.325880	-0.145702	-0.493012	0.127481	-0.150037	-0.483054	0.128527	-0.233973	-0.369493	0.082973	-0.105260	-0.342714	0.079564	-0.218487	-0.293565	0.132841	-0.161611	-0.543647	0.053238	-0.211181	-0.791349	0.707233	-0.517094	-0.735540	0.700629	-0.503670	-0.804453	0.658590	-0.516332	-0.745089	0.656105	-0.505108	-0.869339	0.431487	-0.506406	-0.854473	0.414403	-0.392175	-0.991046	0.387806	-0.530608	-0.957194	0.351164	-0.519170	-1.027516	0.355755	-0.524180	-0.995430	0.319892	-0.513426	-1.166704	0.223395	-0.511588	-1.159660	0.219527	-0.429238	-1.197964	0.093745	-0.533411	-1.194292	0.074354	-0.422158	-1.146306	0.036781	-0.480410	-1.237150	0.266600	-0.467325	-0.705625	1.415472	-0.183025	-0.609648	1.397543	-0.479788	
43	0.2100	-0.689935	0.927895	-0.204668	-0.655783	0.912183	-0.430424	-0.861733	0.946053	-0.299066	-0.842878	0.958334	-0.385499	-0.656137	0.727642	-0.134815	-0.611776	0.765643	-0.159840	-0.627103	0.687830	-0.131847	-0.580067	0.724834	-0.155665	-0.531743	0.517726	-0.151195	-0.516038	0.515806	-0.267950	-0.554909	0.377224	-0.128584	-0.497511	0.394028	-0.142821	-0.535827	0.300001	-0.133854	-0.481905	0.323844	-0.143586	-0.471850	0.125291	-0.148193	-0.461510	0.126425	-0.232025	-0.347807	0.082426	-0.103003	-0.320508	0.079376	-0.216300	-0.272155	0.133218	-0.159166	-0.521188	0.050786	-0.209566	-0.767789	0.708131	-0.514844	-0.712088	0.702016	-0.501229	-0.780341	0.659335	-0.514107	-0.721083	0.657401	-0.502649	-0.842773	0.432395	-0.504077	-0.827934	0.414906	-0.389609	-0.965389	0.391766	-0.528308	-0.932498	0.354331	-0.516708	-1.002610	0.360718	-0.521688	-0.971440	0.324073	-0.510783	-1.145229	0.232669	-0.508956	-1.138042	0.228252	-0.426751	-1.181711	0.103383	-0.530818	-1.178552	0.082893	-0.419779	-1.132075	0.041722	-0.478277	-1.213090	0.279464	-0.464448	-0.685882	1.416299	-0.179715	-0.589774	1.399302	-0.476718	
44	0.2150	-0.669562	0.929119	-0.201994	-0.634314	0.913974	-0.427584	-0.840804	0.947020	-0.297136	-0.821595	0.959387	-0.383464	-0.637577	0.726316	-0.132133	-0.592430	0.763755	-0.156655	-0.609124	0.685984	-0.129223	-0.561370	0.722394	-0.152457	-0.515676	0.514945	-0.149222	-0.499538	0.513189	-0.265701	-0.538271	0.374375	-0.126920	-0.480911	0.391611	-0.140793	-0.518486	0.297273	-0.132242	-0.464646	0.321560	-0.141588	-0.452589	0.123129	-0.146616	-0.441842	0.124340	-0.230347	-0.328434	0.081490	-0.100987	-0.300646	0.078645	-0.214351	-0.252889	0.132704	-0.156921	-0.500929	0.048819	-0.208263	-0.743875	0.708739	-0.512563	-0.688289	0.703268	-0.498789	-0.755737	0.659785	-0.511848	-0.696598	0.658569	-0.500213	-0.815021	0.432991	-0.501669	-0.800110	0.415156	-0.386991	-0.938474	0.395335	-0.525889	-0.906516	0.357142	-0.514082	-0.976421	0.365283	-0.519049	-0.946153	0.327907	-0.507948	-1.122430	0.241627	-0.505984	-1.115083	0.236717	-0.423913	-1.163637	0.112927	-0.527931	-1.160864	0.091416	-0.417088	-1.115797	0.046885	-0.475837	-1.187778	0.291765	-0.461219	-0.665836	1.416744	-0.176307	-0.569930	1.400739	-0.473777	
45	0.2200	-0.649139	0.930056	-0.199257	-0.612872	0.915535	-0.424789	-0.819881	0.947736	-0.295178	-0.800353	0.960123	-0.381401	-0.619055	0.724783	-0.129404	-0.573131	0.761673	-0.153378	-0.591177	0.683939	-0.126563	-0.542715	0.719778	-0.149150	-0.499671	0.511973	-0.147198	-0.483066	0.510435	-0.263423	-0.522181	0.371538	-0.125324	-0.464832	0.388940	-0.138805	-0.502061	0.294580	-0.130741	-0.448260	0.319045	-0.139701	-0.435180	0.120981	-0.145293	-0.424010	0.122259	-0.228929	-0.311296	0.080154	-0.099207	-0.283056	0.077360	-0.212636	-0.235684	0.131305	-0.154878	-0.482842	0.047291	-0.207252	-0.719591	0.709071	-0.510244	-0.664130	0.704391	-0.496338	-0.730633	0.659959	-0.509548	-0.671629	0.659619	-0.497787	-0.786117	0.433308	-0.499169	-0.771040	0.415193	-0.384309	-0.910325	0.398509	-0.523343	-0.879258	0.359599	-0.511285	-0.948965	0.369432	-0.516259	-0.919572	0.331380	-0.504918	-1.098273	0.250177	-0.502682	-1.090752	0.244838	-0.420733	-1.143655	0.122250	-0.524752	-1.141146	0.099804	-0.414083	-1.097362	0.052196	-0.473086	-1.161225	0.303377	-0.457654	-0.645473	1.416822	-0.172809	-0.550095	1.401861	-0.470962	
46	0.2250	-0.628636	0.930725	-0.196456	-0.591426	0.916856	-0.422034	-0.798937	0.948211	-0.293196	-0.779121	0.960542	-0.379317	-0.600538	0.723085	-0.126633	-0.553849	0.759442	-0.150020	-0.573228	0.681744	-0.123873	-0.524071	0.717033	-0.145756	-0.483696	0.508856	-0.145118	-0.466594	0.507585	-0.261107	-0.506593	0.368736	-0.123777	-0.449227	0.386044	-0.136852	-0.486498	0.291933	-0.129338	-0.432691	0.316322	-0.137919	-0.419560	0.118838	-0.144213	-0.407960	0.120174	-0.227760	-0.296300	0.078420	-0.097654	-0.267647	0.075531	-0.211150	-0.220444	0.129048	-0.153036	-0.466873	0.046160	-0.206510	-0.694925	0.709146	-0.507878	-0.639601	0.705399	-0.493865	-0.705023	0.659883	-0.507197	-0.646173	0.660571	-0.495356	-0.756101	0.433389	-0.496563	-0.740774	0.415068	-0.381547	-0.880974	0.401290	-0.520661	-0.850743	0.361713	-0.508313	-0.920265	0.373153	-0.513316	-0.891704	0.334490	-0.501694	-1.072729	0.258232	-0.499061	-1.065022	0.252531	-0.417224	-1.121690	0.131221	-0.521287	-1.119328	0.107934	-0.410768	-1.076671	0.057575	-0.470021	-1.133444	0.314182	-0.453769	-0.624781	1.416556	-0.169229	-0.530250	1.402681	-0.468271	
47	0.2300	-0.608023	0.931144	-0.193591	-0.569946	0.917935	-0.419315	-0.777943	0.948458	-0.291192	-0.757871	0.960649	-0.377217	-0.581991	0.721265	-0.123825	-0.534559	0.757101	-0.146591	-0.555244	0.679441	-0.121158	-0.505413	0.714203	-0.142288	-0.467728	0.505639	-0.142981	-0.450103	0.504674	-0.258747	-0.491462	0.365990	-0.122266	-0.434049	0.382959	-0.134929	-0.471742	0.289350	-0.128016	-0.417882	0.313416	-0.136234	-0.405648	0.116700	-0.143358	-0.393619	0.118089	-0.226826	-0.283332	0.076306	-0.096319	-0.254310	0.073181	-0.209885	-0.207061	0.125983	-0.151393	-0.452944	0.045383	-0.206012	-0.669866	0.708991	-0.505456	-0.614695	0.706310	-0.491356	-0.678908	0.659591	-0.504786	-0.620231	0.661447	-0.492906	-0.725021	0.433287	-0.493838	-0.709372	0.414838	-0.378688	-0.850460	0.403689	-0.517834	-0.820995	0.363504	-0.505160	-0.890352	0.376440	-0.510216	-0.862566	0.337236	-0.498276	-1.045775	0.265706	-0.495137	-1.037877	0.259714	-0.413399	-1.097681	0.139717	-0.517544	-1.095358	0.115688	-0.407148	-1.053648	0.062937	-0.466645	-1.104452	0.324066	-0.449587	-0.603754	1.415973	-0.165579	-0.510379	1.403218	-0.465699	
48	0.2350	-0.587275	0.931340	-0.190662	-0.548403	0.918773	-0.416623	-0.756873	0.948496	-0.289169	-0.736574	0.960457	-0.375103	-0.563387	0.719362	-0.120989	-0.515233	0.754689	-0.143103	-0.537200	0.677075	-0.118425	-0.486717	0.711326	-0.138756	-0.451750	0.502361	-0.140784	-0.433579	0.501732	-0.256336	-0.476745	0.363322	-0.120776	-0.419259	0.379719	-0.133029	-0.457734	0.286844	-0.126759	-0.403774	0.310356	-0.134639	-0.393351	0.114574	-0.142710	-0.380902	0.116010	-0.226111	-0.272268	0.073842	-0.095193	-0.242923	0.070352	-0.208833	-0.195417	0.122179	-0.149946	-0.440957	0.044923	-0.205733	-0.644409	0.708638	-0.502970	-0.589412	0.707145	-0.488797	-0.652291	0.659121	-0.502306	-0.593811	0.662274	-0.490422	-0.692934	0.433057	-0.490978	-0.676902	0.414568	-0.375715	-0.818832	0.405719	-0.514853	-0.790049	0.364997	-0.501821	-0.859264	0.379295	-0.506958	-0.832182	0.339628	-0.494663	-1.017397	0.272519	-0.490926	-1.009305	0.266312	-0.409275	-1.071584	0.147618	-0.513533	-1.069200	0.122951	-0.403235	-1.028236	0.068195	-0.462962	-1.074274	0.332930	-0.445127	-0.582385	1.415107	-0.161872	-0.490468	1.403491	-0.463241	
49	0.2400	-0.566369	0.931337	-0.187669	-0.526770	0.919377	-0.413952	-0.735702	0.948344	-0.287126	-0.715203	0.959984	-0.372979	-0.544702	0.717414	-0.118128	-0.495851	0.752241	-0.139568	-0.519073	0.674684	-0.115679	-0.467964	0.708437	-0.135176	-0.435754	0.499059	-0.138527	-0.417015	0.498785	-0.253870	-0.462404	0.360751	-0.119292	-0.404820	0.376360	-0.131148	-0.444415	0.284434	-0.125552	-0.390314	0.307175	-0.133124	-0.382564	0.112473	-0.142252	-0.369713	0.113952	-0.225598	-0.262968	0.071072	-0.094263	-0.233348	0.067100	-0.207982	-0.185388	0.117723	-0.148688	-0.430794	0.044744	-0.205645	-0.618555	0.708123	-0.500412	-0.563755	0.707931	-0.486178	-0.625184	0.658516	-0.499746	-0.566928	0.663084	-0.487887	-0.659909	0.432760	-0.487971	-0.643444	0.414323	-0.372611	-0.786149	0.407404	-0.511709	-0.757952	0.366221	-0.498293	-0.827051	0.381724	-0.503537	-0.800588	0.341677	-0.490858	-0.987594	0.278600	-0.486447	-0.979309	0.272255	-0.404871	-1.043378	0.154817	-0.509269	-1.040842	0.129614	-0.399041	-1.000406	0.073264	-0.458983	-1.042939	0.340683	-0.440414	-0.560678	1.413993	-0.158124	-0.470510	1.403526	-0.460892	
50	0.2450	-0.545285	0.931163	-0.184615	-0.505028	0.919758	-0.411292	-0.714409	0.948028	-0.285065	-0.693739	0.959254	-0.370846	-0.525918	0.715458	-0.115251	-0.476396	0.749786	-0.135999	-0.500849	0.672304	-0.112924	-0.449141	0.705566	-0.131558	-0.419739	0.495764	-0.136212	-0.400412	0.495852	-0.251345	-0.448405	0.358297	-0.117802	-0.390702	0.372918	-0.129279	-0.431728	0.282138	-0.124381	-0.377449	0.303908	-0.131682	-0.373175	0.110418	-0.141961	-0.359943	0.111936	-0.225268	-0.255288	0.068048	-0.093515	-0.225439	0.063493	-0.207321	-0.176845	0.112715	-0.147612	-0.422323	0.044817	-0.205722	-0.592315	0.707487	-0.497775	-0.537737	0.708697	-0.483488	-0.597608	0.657821	-0.497099	-0.539605	0.663908	-0.485289	-0.626021	0.432461	-0.484805	-0.609090	0.414172	-0.369361	-0.752479	0.408766	-0.508393	-0.724760	0.367212	-0.494574	-0.793773	0.383738	-0.499951	-0.767833	0.343401	-0.486862	-0.956377	0.283887	-0.481721	-0.947905	0.277479	-0.400206	-1.013065	0.161217	-0.504767	-1.010297	0.135581	-0.394582	-0.970156	0.078060	-0.454720	-1.010485	0.347250	-0.435470	-0.538639	1.412674	-0.154351	-0.450502	1.403351	-0.458647	
51	0.2500	-0.524014	0.930849	-0.181502	-0.483164	0.919934	-0.408636	-0.692983	0.947574	-0.282985	-0.672167	0.958295	-0.368703	-0.507023	0.713524	-0.112363	-0.456857	0.747350	-0.132407	-0.482521	0.669967	-0.110165	-0.430241	0.702737	-0.127918	-0.403714	0.492506	-0.133841	-0.383780	0.492952	-0.248761	-0.434721	0.355977	-0.116296	-0.376883	0.369429	-0.127420	-0.419618	0.279973	-0.123234	-0.365129	0.300590	-0.130302	-0.365066	0.108432	-0.141818	-0.351478	0.109987	-0.225101	-0.249075	0.064831	-0.092936	-0.219042	0.059604	-0.206833	-0.169656	0.107266	-0.146709	-0.415400	0.045115	-0.205935	-0.565706	0.706773	-0.495052	-0.511381	0.709471	-0.480716	-0.569592	0.657084	-0.494356	-0.511876	0.664781	-0.482613	-0.591359	0.432220	-0.481468	-0.573942	0.414181	-0.365951	-0.717903	0.409835	-0.504899	-0.690547	0.368005	-0.490665	-0.759504	0.385354	-0.496199	-0.733979	0.344820	-0.482680	-0.923776	0.288327	-0.476768	-0.915126	0.281933	-0.395303	-0.980671	0.166738	-0.500045	-0.977601	0.140768	-0.389879	-0.937516	0.082507	-0.450190	-0.976963	0.352570	-0.430320	-0.516284	1.411190	-0.150574	-0.430447	1.402995	-0.456501	
52	0.2550	-0.502552	0.930422	-0.178337	-0.461172	0.919924	-0.405979	-0.671415	0.947009	-0.280884	-0.650480	0.957141	-0.366550	-0.488017	0.711639	-0.109471	-0.437230	0.744957	-0.128807	-0.464091	0.667701	-0.107407	-0.411267	0.699971	-0.124269	-0.387697	0.489309	-0.131418	-0.367135	0.490096	-0.246119	-0.421328	0.353805	-0.114767	-0.363347	0.365928	-0.125567	-0.408035	0.277956	-0.122101	-0.353312	0.297259	-0.128979	-0.358112	0.106542	-0.141801	-0.344198	0.108132	-0.225074	-0.244174	0.061485	-0.092511	-0.214002	0.055518	-0.206504	-0.163688	0.101496	-0.145966	-0.409871	0.045614	-0.206260	-0.538761	0.706022	-0.492240	-0.484717	0.710283	-0.477857	-0.541178	0.656350	-0.491513	-0.483784	0.665734	-0.479849	-0.556023	0.432099	-0.477954	-0.538113	0.414412	-0.362371	-0.682516	0.410641	-0.501222	-0.655399	0.368640	-0.486568	-0.724331	0.386591	-0.492281	-0.699104	0.345960	-0.478316	-0.889841	0.291880	-0.471612	-0.881024	0.285574	-0.390186	-0.946256	0.171315	-0.495125	-0.942822	0.145107	-0.384952	-0.902551	0.086536	-0.445413	-0.942434	0.356601	-0.424988	-0.493637	1.409589	-0.146812	-0.410358	1.402490	-0.454449	
53	0.2600	-0.480908	0.929911	-0.175126	-0.439058	0.919750	-0.403315	-0.649711	0.946362	-0.278761	-0.628680	0.955826	-0.364387	-0.468906	0.709828	-0.106582	-0.417523	0.742623	-0.125210	-0.445571	0.665527	-0.104654	-0.392228	0.697282	-0.120624	-0.371712	0.486192	-0.128949	-0.350501	0.487292	-0.243421	-0.408211	0.351796	-0.113209	-0.350085	0.362450	-0.123718	-0.396932	0.276104	-0.120973	-0.341959	0.293950	-0.127702	-0.352192	0.104778	-0.141888	-0.337982	0.106401	-0.225168	-0.240430	0.058078	-0.092223	-0.210159	0.051317	-0.206317	-0.158811	0.095524	-0.145371	-0.405578	0.046296	-0.206671	-0.511520	0.705277	-0.489337	-0.457791	0.711164	-0.474905	-0.512421	0.655666	-0.488564	-0.455386	0.666799	-0.476989	-0.520127	0.432152	-0.474258	-0.501729	0.414922	-0.358612	-0.646425	0.411215	-0.497359	-0.619418	0.369155	-0.482289	-0.688358	0.387474	-0.488198	-0.663305	0.346845	-0.473778	-0.854642	0.294521	-0.466278	-0.845674	0.288375	-0.384878	-0.909908	0.174903	-0.490028	-0.906059	0.148545	-0.379827	-0.865361	0.090089	-0.440413	-0.906976	0.359318	-0.419498	-0.470732	1.407914	-0.143086	-0.390255	1.401869	-0.452486	
54	0.2650	-0.459098	0.929345	-0.171876	-0.416840	0.919440	-0.400640	-0.627883	0.945660	-0.276615	-0.606781	0.954390	-0.362213	-0.449708	0.708109	-0.103703	-0.397752	0.740363	-0.121629	-0.426983	0.663465	-0.101912	-0.373144	0.694682	-0.116997	-0.355794	0.483172	-0.126442	-0.333912	0.484549	-0.240675	-0.395363	0.349959	-0.111620	-0.337095	0.359026	-0.121873	-0.386270	0.274432	-0.119844	-0.331039	0.290700	-0.126467	-0.347182	0.103168	-0.142060	-0.332706	0.104824	-0.225362	-0.237691	0.054679	-0.092057	-0.207357	0.047087	-0.206252	-0.154897	0.089473	-0.144909	-0.402361	0.047143	-0.207143	-0.484042	0.704579	-0.486342	-0.430659	0.712138	-0.471860	-0.483388	0.655074	-0.485510	-0.426751	0.668003	-0.474028	-0.483796	0.432428	-0.470379	-0.464928	0.415757	-0.354673	-0.609753	0.411591	-0.493310	-0.582726	0.369588	-0.477836	-0.651702	0.388027	-0.483954	-0.626696	0.347505	-0.469077	-0.818276	0.296236	-0.460791	-0.809174	0.290317	-0.379405	-0.871750	0.177477	-0.484780	-0.867441	0.151051	-0.374529	-0.826085	0.093120	-0.435216	-0.870683	0.360716	-0.413877	-0.447612	1.406210	-0.139418	-0.370167	1.401164	-0.450610	
55	0.2700	-0.437154	0.928748	-0.168597	-0.394545	0.919019	-0.397953	-0.605957	0.944932	-0.274446	-0.584809	0.952869	-0.360025	-0.430454	0.706497	-0.100841	-0.377943	0.738186	-0.118076	-0.408358	0.661528	-0.099187	-0.354047	0.692178	-0.113401	-0.339982	0.480263	-0.123906	-0.317406	0.481868	-0.237888	-0.382783	0.348303	-0.110000	-0.324384	0.355687	-0.120033	-0.376015	0.272953	-0.118710	-0.320525	0.287542	-0.125267	-0.342963	0.101741	-0.142295	-0.328251	0.103429	-0.225634	-0.235809	0.051351	-0.091997	-0.205444	0.042909	-0.206292	-0.151823	0.083457	-0.144567	-0.400061	0.048142	-0.207655	-0.456396	0.703964	-0.483258	-0.403390	0.713229	-0.468724	-0.454160	0.654611	-0.482350	-0.397960	0.669368	-0.470964	-0.447169	0.432970	-0.466322	-0.427862	0.416956	-0.350555	-0.572640	0.411800	-0.489081	-0.545461	0.369973	-0.473221	-0.614501	0.388278	-0.479558	-0.589411	0.347966	-0.464227	-0.780864	0.297030	-0.455178	-0.771646	0.291400	-0.373796	-0.831938	0.179030	-0.479405	-0.827133	0.152611	-0.369088	-0.784899	0.095596	-0.429853	-0.833669	0.360810	-0.408149	-0.424334	1.404520	-0.135829	-0.350131	1.400406	-0.448817	
56	0.2750	-0.415119	0.928144	-0.165301	-0.372216	0.918517	-0.395255	-0.583973	0.944202	-0.272254	-0.562803	0.951302	-0.357824	-0.411183	0.705002	-0.098005	-0.358135	0.736099	-0.114565	-0.389741	0.659725	-0.096483	-0.334976	0.689773	-0.109851	-0.324325	0.477475	-0.121353	-0.301032	0.479255	-0.235073	-0.370477	0.346834	-0.108353	-0.311964	0.352460	-0.118200	-0.366142	0.271677	-0.117570	-0.310401	0.284508	-0.124097	-0.339421	0.100521	-0.142574	-0.324501	0.102241	-0.225964	-0.234643	0.048154	-0.092026	-0.204275	0.038858	-0.206419	-0.149471	0.077585	-0.144327	-0.398524	0.049282	-0.208188	-0.428667	0.703467	-0.480092	-0.376069	0.714456	-0.465501	-0.424835	0.654310	-0.479091	-0.369109	0.670912	-0.467799	-0.410400	0.433808	-0.462094	-0.390691	0.418547	-0.346265	-0.535238	0.411873	-0.484679	-0.507778	0.370343	-0.468460	-0.576907	0.388258	-0.475019	-0.551605	0.348257	-0.459242	-0.742554	0.296920	-0.449468	-0.733239	0.291636	-0.368078	-0.790664	0.179578	-0.473932	-0.785332	0.153231	-0.363535	-0.742019	0.097498	-0.424354	-0.796066	0.359634	-0.402341	-0.400964	1.402886	-0.132339	-0.330195	1.399626	-0.447105	
57	0.2800	-0.393050	0.927553	-0.162001	-0.349909	0.917962	-0.392550	-0.561983	0.943493	-0.270040	-0.540813	0.949727	-0.355611	-0.391947	0.703631	-0.095203	-0.338377	0.734105	-0.111109	-0.371185	0.658062	-0.093809	-0.315983	0.687470	-0.106359	-0.308876	0.474815	-0.118795	-0.284842	0.476709	-0.232241	-0.358461	0.345556	-0.106684	-0.299855	0.349370	-0.116379	-0.356631	0.270612	-0.116424	-0.300655	0.281625	-0.122955	-0.336450	0.099531	-0.142881	-0.321345	0.101282	-0.226334	-0.234062	0.045143	-0.092130	-0.203712	0.035002	-0.206613	-0.147732	0.071955	-0.144174	-0.397606	0.050551	-0.208725	-0.400953	0.703114	-0.476851	-0.348791	0.715832	-0.462202	-0.395521	0.654197	-0.475739	-0.340306	0.672647	-0.464539	-0.373653	0.434964	-0.457711	-0.353588	0.420543	-0.341816	-0.497716	0.411839	-0.480119	-0.469852	0.370726	-0.463573	-0.539090	0.387997	-0.470352	-0.513449	0.348407	-0.454145	-0.703521	0.295940	-0.443689	-0.694128	0.291052	-0.362282	-0.748153	0.179154	-0.468390	-0.742270	0.152939	-0.357902	-0.697696	0.098823	-0.418755	-0.758027	0.357244	-0.396481	-0.377583	1.401344	-0.128970	-0.310416	1.398852	-0.445471	
58	0.2850	-0.371017	0.926994	-0.158711	-0.327692	0.917382	-0.389844	-0.540053	0.942827	-0.267808	-0.518906	0.948179	-0.353386	-0.372810	0.702386	-0.092445	-0.318731	0.732207	-0.107718	-0.352752	0.656541	-0.091172	-0.297129	0.685269	-0.102939	-0.293695	0.472290	-0.116246	-0.268898	0.474233	-0.229408	-0.346754	0.344468	-0.105001	-0.288082	0.346438	-0.114575	-0.347470	0.269760	-0.115276	-0.291280	0.278917	-0.121838	-0.333950	0.098787	-0.143199	-0.318682	0.100569	-0.226726	-0.233943	0.042362	-0.092293	-0.203629	0.031399	-0.206858	-0.146505	0.066652	-0.144094	-0.397170	0.051940	-0.209249	-0.373365	0.702927	-0.473548	-0.321665	0.717366	-0.458839	-0.366341	0.654291	-0.472307	-0.311672	0.674577	-0.461196	-0.337104	0.436449	-0.453191	-0.316736	0.422947	-0.337226	-0.460256	0.411723	-0.475418	-0.431873	0.371146	-0.458585	-0.501234	0.387524	-0.465575	-0.475136	0.348441	-0.448959	-0.663965	0.294136	-0.437873	-0.654511	0.289687	-0.356440	-0.704662	0.177811	-0.462811	-0.698208	0.151777	-0.352223	-0.652216	0.099578	-0.413092	-0.719725	0.353714	-0.390596	-0.354280	1.399927	-0.125740	-0.290859	1.398109	-0.443914	
59	0.2900	-0.349101	0.926482	-0.155448	-0.305647	0.916802	-0.387146	-0.518259	0.942220	-0.265562	-0.497158	0.946688	-0.351154	-0.353844	0.701268	-0.089739	-0.299269	0.730404	-0.104408	-0.334516	0.655160	-0.088580	-0.278486	0.683166	-0.099605	-0.278844	0.469903	-0.113722	-0.253262	0.471828	-0.226591	-0.335383	0.343568	-0.103315	-0.276673	0.343682	-0.112793	-0.338656	0.269122	-0.114130	-0.282278	0.276405	-0.120745	-0.331833	0.098299	-0.143515	-0.316419	0.100112	-0.227124	-0.234177	0.039847	-0.092503	-0.203911	0.028098	-0.207137	-0.145695	0.061745	-0.144071	-0.397093	0.053438	-0.209749	-0.346028	0.702921	-0.470197	-0.294811	0.719059	-0.455428	-0.337430	0.654603	-0.468809	-0.283336	0.676699	-0.457783	-0.300940	0.438261	-0.448559	-0.280322	0.425748	-0.332518	-0.423052	0.411551	-0.470598	-0.394043	0.371620	-0.453522	-0.463540	0.386871	-0.460711	-0.436873	0.348385	-0.443711	-0.624109	0.291571	-0.432053	-0.614613	0.287597	-0.350584	-0.660479	0.175619	-0.457225	-0.653436	0.149809	-0.346532	-0.605899	0.099789	-0.407402	-0.681351	0.349134	-0.384717	-0.331155	1.398663	-0.122666	-0.271596	1.397421	-0.442435	
60	0.2950	-0.327398	0.926027	-0.152226	-0.283867	0.916246	-0.384465	-0.496694	0.941687	-0.263307	-0.475658	0.945283	-0.348919	-0.335132	0.700273	-0.087097	-0.280070	0.728695	-0.101189	-0.316556	0.653917	-0.086044	-0.260130	0.681160	-0.096369	-0.264388	0.467655	-0.111238	-0.238004	0.469498	-0.223809	-0.324377	0.342852	-0.101637	-0.265662	0.341116	-0.111043	-0.330188	0.268695	-0.112992	-0.273654	0.274105	-0.119678	-0.330020	0.098072	-0.143817	-0.314473	0.099915	-0.227516	-0.234666	0.037625	-0.092747	-0.204455	0.025132	-0.207435	-0.145221	0.057289	-0.144091	-0.397264	0.055034	-0.210215	-0.319075	0.703105	-0.466816	-0.268358	0.720906	-0.451988	-0.308932	0.655138	-0.465265	-0.255439	0.679004	-0.454319	-0.265353	0.440390	-0.443842	-0.244544	0.428923	-0.327723	-0.386309	0.411343	-0.465689	-0.356580	0.372162	-0.448415	-0.426218	0.386068	-0.455786	-0.398881	0.348260	-0.438433	-0.584197	0.288318	-0.426262	-0.574674	0.284847	-0.344750	-0.615915	0.172662	-0.451667	-0.608272	0.147110	-0.340866	-0.559088	0.099490	-0.401726	-0.643113	0.343614	-0.378874	-0.308319	1.397574	-0.119763	-0.252708	1.396805	-0.441033	
61	0.3000	-0.306012	0.925638	-0.149065	-0.262452	0.915735	-0.381815	-0.475456	0.941236	-0.261053	-0.454506	0.943987	-0.346687	-0.316762	0.699397	-0.084529	-0.261225	0.727077	-0.098075	-0.298959	0.652804	-0.083572	-0.242149	0.679248	-0.093245	-0.250394	0.465549	-0.108809	-0.223194	0.467244	-0.221080	-0.313772	0.342311	-0.099979	-0.255084	0.338750	-0.109333	-0.322075	0.268470	-0.111869	-0.265418	0.272026	-0.118639	-0.328442	0.098102	-0.144096	-0.312773	0.099975	-0.227889	-0.235324	0.035712	-0.093013	-0.205172	0.022526	-0.207740	-0.145006	0.053322	-0.144143	-0.397588	0.056717	-0.210640	-0.292646	0.703480	-0.463426	-0.242441	0.722897	-0.448541	-0.280998	0.655891	-0.461695	-0.228126	0.681476	-0.450826	-0.230539	0.442813	-0.439074	-0.209596	0.432436	-0.322873	-0.350236	0.411117	-0.460721	-0.319707	0.372779	-0.443299	-0.389486	0.385145	-0.450831	-0.361394	0.348089	-0.433159	-0.544492	0.284462	-0.420535	-0.534956	0.281514	-0.338974	-0.571303	0.169036	-0.446171	-0.563049	0.143770	-0.335261	-0.512151	0.098728	-0.396102	-0.605235	0.337275	-0.373099	-0.285888	1.396676	-0.117043	-0.234279	1.396277	-0.439707	
62	0.3050	-0.285054	0.925319	-0.145982	-0.241513	0.915285	-0.379211	-0.454656	0.940875	-0.258808	-0.433809	0.942818	-0.344468	-0.298830	0.698632	-0.082046	-0.242826	0.725548	-0.095078	-0.281814	0.651817	-0.081176	-0.224631	0.677428	-0.090244	-0.236927	0.463585	-0.106453	-0.208901	0.465072	-0.218423	-0.303602	0.341936	-0.098357	-0.244974	0.336593	-0.107672	-0.314326	0.268437	-0.110770	-0.257582	0.270175	-0.117629	-0.327042	0.098382	-0.144343	-0.311256	0.100284	-0.228233	-0.236079	0.034113	-0.093291	-0.205985	0.020291	-0.208038	-0.144987	0.049866	-0.144215	-0.397983	0.058474	-0.211018	-0.266888	0.704040	-0.460049	-0.217200	0.725016	-0.445111	-0.253782	0.656850	-0.458125	-0.201546	0.684091	-0.447328	-0.196697	0.445499	-0.434292	-0.175675	0.436243	-0.318006	-0.315047	0.410888	-0.455731	-0.283652	0.373474	-0.438211	-0.353568	0.384129	-0.445879	-0.324647	0.347888	-0.427925	-0.505267	0.280095	-0.414906	-0.495730	0.277682	-0.333290	-0.526991	0.164848	-0.440770	-0.518119	0.139889	-0.329754	-0.465468	0.097557	-0.390571	-0.567951	0.330251	-0.367425	-0.263984	1.395979	-0.114516	-0.216396	1.395846	-0.438460	
63	0.3100	-0.264641	0.925074	-0.142995	-0.221163	0.914910	-0.376668	-0.434405	0.940606	-0.256585	-0.413678	0.941788	-0.342272	-0.281432	0.697971	-0.079659	-0.224974	0.724106	-0.092210	-0.265213	0.650944	-0.078868	-0.207667	0.675697	-0.087380	-0.224049	0.461760	-0.104185	-0.195196	0.462985	-0.215857	-0.293905	0.341714	-0.096781	-0.235367	0.334646	-0.106069	-0.306956	0.268582	-0.109704	-0.250162	0.268553	-0.116652	-0.325774	0.098894	-0.144554	-0.309874	0.100825	-0.228542	-0.236870	0.032827	-0.093573	-0.206832	0.018428	-0.208322	-0.145108	0.046925	-0.144297	-0.398386	0.060289	-0.211346	-0.241946	0.704775	-0.456709	-0.192777	0.727241	-0.441725	-0.227441	0.657999	-0.454579	-0.175848	0.686821	-0.443852	-0.164021	0.448408	-0.429536	-0.142972	0.440290	-0.313164	-0.280953	0.410668	-0.450757	-0.248643	0.374244	-0.433188	-0.318687	0.383049	-0.440966	-0.288882	0.347673	-0.422769	-0.466802	0.275318	-0.409412	-0.457272	0.273445	-0.327737	-0.483331	0.160210	-0.435498	-0.473838	0.135573	-0.324381	-0.419425	0.096039	-0.385171	-0.531500	0.322684	-0.361885	-0.242731	1.395486	-0.112190	-0.199147	1.395519	-0.437290	
64	0.3150	-0.244894	0.924900	-0.140122	-0.201518	0.914619	-0.374201	-0.414823	0.940427	-0.254397	-0.394228	0.940906	-0.340110	-0.264666	0.697404	-0.077379	-0.207766	0.722748	-0.089481	-0.249249	0.650179	-0.076656	-0.191351	0.674055	-0.084663	-0.211820	0.460076	-0.102019	-0.182145	0.460990	-0.213401	-0.284717	0.341632	-0.095267	-0.226296	0.332909	-0.104533	-0.299981	0.268886	-0.108677	-0.243173	0.267157	-0.115713	-0.324599	0.099619	-0.144726	-0.308586	0.101578	-0.228810	-0.237651	0.031841	-0.093851	-0.207663	0.016927	-0.208583	-0.145321	0.044493	-0.144381	-0.398746	0.062146	-0.211624	-0.217966	0.705666	-0.453432	-0.169310	0.729546	-0.438407	-0.202127	0.659314	-0.451087	-0.151177	0.689634	-0.440428	-0.132698	0.451493	-0.424845	-0.111668	0.444515	-0.308386	-0.248161	0.410465	-0.445841	-0.214902	0.375082	-0.428270	-0.285062	0.381928	-0.436130	-0.254332	0.347458	-0.417731	-0.429378	0.270233	-0.404086	-0.419863	0.268899	-0.322349	-0.440679	0.155238	-0.430391	-0.430565	0.130932	-0.319177	-0.374410	0.094240	-0.379940	-0.496124	0.314722	-0.356512	-0.222253	1.395193	-0.110068	-0.182622	1.395298	-0.436200	
65	0.3200	-0.225930	0.924796	-0.137379	-0.182692	0.914416	-0.371828	-0.396023	0.940337	-0.252257	-0.375572	0.940174	-0.337997	-0.248628	0.696923	-0.075216	-0.191299	0.721473	-0.086903	-0.234008	0.649512	-0.074554	-0.175772	0.672502	-0.082103	-0.200293	0.458528	-0.099968	-0.169807	0.459094	-0.211071	-0.276069	0.341673	-0.093826	-0.217792	0.331380	-0.103075	-0.293420	0.269330	-0.107700	-0.236629	0.265980	-0.114815	-0.323491	0.100530	-0.144857	-0.307364	0.102515	-0.229035	-0.238384	0.031135	-0.094120	-0.208439	0.015770	-0.208817	-0.145590	0.042548	-0.144463	-0.399025	0.064026	-0.211852	-0.195084	0.706692	-0.450244	-0.146931	0.731901	-0.435186	-0.177986	0.660765	-0.447677	-0.127672	0.692492	-0.437083	-0.102903	0.454704	-0.420262	-0.081934	0.448852	-0.303718	-0.216866	0.410286	-0.441025	-0.182640	0.375977	-0.423496	-0.252901	0.380791	-0.431410	-0.221224	0.347251	-0.412848	-0.393270	0.264946	-0.398964	-0.383773	0.264141	-0.317162	-0.399379	0.150049	-0.425479	-0.388648	0.126078	-0.314177	-0.330797	0.092228	-0.374916	-0.462057	0.306513	-0.351340	-0.202668	1.395093	-0.108151	-0.166901	1.395181	-0.435189	
66	0.3250	-0.207864	0.924755	-0.134782	-0.164793	0.914304	-0.369564	-0.378119	0.940326	-0.250181	-0.357819	0.939589	-0.335945	-0.233409	0.696519	-0.073179	-0.175667	0.720280	-0.084485	-0.219575	0.648933	-0.072569	-0.161012	0.671037	-0.079708	-0.189514	0.457116	-0.098045	-0.158239	0.457303	-0.208882	-0.267993	0.341820	-0.092468	-0.209880	0.330052	-0.101700	-0.287286	0.269892	-0.106778	-0.230544	0.265010	-0.113964	-0.322431	0.101596	-0.144949	-0.306188	0.103606	-0.229215	-0.239044	0.030686	-0.094374	-0.209133	0.014929	-0.209019	-0.145882	0.041057	-0.144535	-0.399202	0.065911	-0.212032	-0.173430	0.707827	-0.447168	-0.125763	0.734274	-0.432087	-0.155150	0.662321	-0.444377	-0.105458	0.695359	-0.433847	-0.074794	0.457986	-0.415828	-0.053921	0.453234	-0.299201	-0.187247	0.410134	-0.436351	-0.152054	0.376916	-0.418903	-0.222398	0.379659	-0.426845	-0.189766	0.347061	-0.408160	-0.358737	0.259561	-0.394076	-0.349262	0.259270	-0.312210	-0.359759	0.144755	-0.420794	-0.348418	0.121119	-0.309410	-0.288941	0.090071	-0.370130	-0.429527	0.298206	-0.346399	-0.184089	1.395170	-0.106439	-0.152064	1.395163	-0.434257	
67	0.3300	-0.190801	0.924771	-0.132345	-0.147922	0.914278	-0.367424	-0.361213	0.940388	-0.248184	-0.341071	0.939145	-0.333971	-0.219089	0.696181	-0.071277	-0.160952	0.719168	-0.082234	-0.206022	0.648433	-0.070712	-0.147148	0.669664	-0.077487	-0.179519	0.455836	-0.096258	-0.147484	0.455623	-0.206845	-0.260511	0.342057	-0.091203	-0.202578	0.328915	-0.100418	-0.281596	0.270547	-0.105918	-0.224929	0.264234	-0.113164	-0.321409	0.102785	-0.145003	-0.305046	0.104818	-0.229351	-0.239613	0.030464	-0.094611	-0.209729	0.014373	-0.209187	-0.146175	0.039980	-0.144597	-0.399264	0.067779	-0.212168	-0.153116	0.709043	-0.444231	-0.105914	0.736633	-0.429134	-0.133740	0.663948	-0.441214	-0.084648	0.698194	-0.430747	-0.048508	0.461283	-0.411582	-0.027759	0.457593	-0.294875	-0.159463	0.410011	-0.431859	-0.123317	0.377883	-0.414527	-0.193724	0.378551	-0.422471	-0.160149	0.346893	-0.403701	-0.326020	0.254178	-0.389454	-0.316565	0.254379	-0.307523	-0.322122	0.139466	-0.416364	-0.310183	0.116160	-0.304907	-0.249169	0.087835	-0.365613	-0.398740	0.289942	-0.341720	-0.166618	1.395405	-0.104925	-0.138177	1.395236	-0.433406	
68	0.3350	-0.174835	0.924837	-0.130079	-0.132167	0.914332	-0.365421	-0.345398	0.940511	-0.246280	-0.325416	0.938832	-0.332087	-0.205741	0.695902	-0.069516	-0.147228	0.718137	-0.080157	-0.193414	0.648004	-0.068989	-0.134245	0.668382	-0.075445	-0.170338	0.454685	-0.094616	-0.137577	0.454061	-0.204971	-0.253641	0.342364	-0.090037	-0.195900	0.327957	-0.099232	-0.276360	0.271272	-0.105125	-0.219790	0.263634	-0.112418	-0.320417	0.104060	-0.145022	-0.303934	0.106115	-0.229446	-0.240084	0.030436	-0.094826	-0.210218	0.014065	-0.209323	-0.146452	0.039270	-0.144645	-0.399209	0.069610	-0.212265	-0.134239	0.710311	-0.441453	-0.087476	0.738944	-0.426349	-0.113854	0.665611	-0.438215	-0.065336	0.700960	-0.427810	-0.024159	0.464540	-0.407559	-0.003554	0.461861	-0.290777	-0.133646	0.409917	-0.427589	-0.096576	0.378861	-0.410400	-0.167029	0.377483	-0.418324	-0.132533	0.346751	-0.399503	-0.295331	0.248891	-0.385122	-0.285896	0.249559	-0.303129	-0.286735	0.134279	-0.412213	-0.274216	0.111294	-0.300692	-0.211770	0.085580	-0.361390	-0.369883	0.281855	-0.337328	-0.150341	1.395777	-0.103603	-0.125299	1.395388	-0.432633	
69	0.3400	-0.160047	0.924942	-0.127993	-0.117601	0.914458	-0.363565	-0.330752	0.940685	-0.244483	-0.310929	0.938636	-0.330309	-0.193422	0.695673	-0.067902	-0.134557	0.717188	-0.078258	-0.181801	0.647638	-0.067407	-0.122355	0.667196	-0.073584	-0.161986	0.453659	-0.093122	-0.128543	0.452622	-0.203267	-0.247394	0.342725	-0.088977	-0.189852	0.327165	-0.098149	-0.271587	0.272043	-0.104402	-0.215131	0.263191	-0.111729	-0.319458	0.105387	-0.145010	-0.302851	0.107461	-0.229502	-0.240454	0.030566	-0.095020	-0.210598	0.013967	-0.209426	-0.146700	0.038875	-0.144680	-0.399044	0.071383	-0.212326	-0.116874	0.711599	-0.438856	-0.070521	0.741177	-0.423753	-0.095572	0.667274	-0.435402	-0.047594	0.703620	-0.425057	-0.001831	0.467707	-0.403791	0.018616	0.465977	-0.286940	-0.109901	0.409850	-0.423573	-0.071949	0.379832	-0.406550	-0.142427	0.376471	-0.414434	-0.107050	0.346635	-0.395593	-0.266847	0.243785	-0.381103	-0.257430	0.244889	-0.299050	-0.253827	0.129283	-0.408362	-0.240748	0.106608	-0.296787	-0.176990	0.083363	-0.357484	-0.343111	0.274067	-0.333247	-0.135329	1.396260	-0.102463	-0.113472	1.395606	-0.431938	
70	0.3450	-0.146496	0.925078	-0.126094	-0.104280	0.914644	-0.361866	-0.317336	0.940896	-0.242806	-0.297668	0.938542	-0.328647	-0.182175	0.695487	-0.066437	-0.122982	0.716320	-0.076540	-0.171219	0.647327	-0.065969	-0.111515	0.666106	-0.071907	-0.154468	0.452752	-0.091780	-0.120393	0.451311	-0.201734	-0.241773	0.343122	-0.088025	-0.184431	0.326524	-0.097170	-0.267278	0.272837	-0.103752	-0.210949	0.262886	-0.111101	-0.318534	0.106731	-0.144973	-0.301804	0.108823	-0.229525	-0.240728	0.030822	-0.095192	-0.210874	0.014038	-0.209500	-0.146914	0.038741	-0.144701	-0.398783	0.073077	-0.212357	-0.101073	0.712881	-0.436454	-0.055098	0.743302	-0.421359	-0.078945	0.668905	-0.432794	-0.031470	0.706142	-0.422509	0.018421	0.470735	-0.400304	0.038704	0.469886	-0.283390	-0.088300	0.409808	-0.419842	-0.049517	0.380780	-0.402999	-0.120004	0.375524	-0.410828	-0.083795	0.346545	-0.391994	-0.240711	0.238935	-0.377415	-0.231307	0.240442	-0.295304	-0.223576	0.124556	-0.404829	-0.209965	0.102174	-0.293206	-0.145021	0.081232	-0.353909	-0.318547	0.266684	-0.329494	-0.121633	1.396828	-0.101493	-0.102727	1.395876	-0.431319	
71	0.3500	-0.134224	0.925236	-0.124386	-0.092239	0.914877	-0.360329	-0.305189	0.941133	-0.241259	-0.285671	0.938533	-0.327114	-0.172025	0.695338	-0.065123	-0.112531	0.715534	-0.075002	-0.161687	0.647065	-0.064678	-0.101747	0.665115	-0.070411	-0.147779	0.451960	-0.090588	-0.113125	0.450129	-0.200375	-0.236773	0.343538	-0.087181	-0.179626	0.326017	-0.096295	-0.263431	0.273630	-0.103176	-0.207236	0.262697	-0.110535	-0.317652	0.108060	-0.144916	-0.300801	0.110167	-0.229519	-0.240913	0.031168	-0.095341	-0.211055	0.014240	-0.209547	-0.147090	0.038816	-0.144709	-0.398442	0.074676	-0.212364	-0.086864	0.714127	-0.434261	-0.041231	0.745294	-0.419181	-0.064001	0.670473	-0.430407	-0.016988	0.708496	-0.420179	0.036577	0.473583	-0.397119	0.056695	0.473540	-0.280148	-0.068879	0.409787	-0.416420	-0.029327	0.381688	-0.399766	-0.099807	0.374653	-0.407526	-0.062825	0.346479	-0.388722	-0.217016	0.234404	-0.374070	-0.207623	0.236278	-0.291906	-0.196111	0.120158	-0.401623	-0.181998	0.098053	-0.289961	-0.116000	0.079227	-0.350676	-0.296275	0.259796	-0.326083	-0.109284	1.397453	-0.100680	-0.093075	1.396184	-0.430774	
72	0.3550	-0.123252	0.925406	-0.122868	-0.081492	0.915144	-0.358957	-0.294330	0.941384	-0.239851	-0.274954	0.938592	-0.325716	-0.162982	0.695218	-0.063959	-0.103214	0.714829	-0.073643	-0.153210	0.646846	-0.063533	-0.093054	0.664223	-0.069094	-0.141900	0.451275	-0.089545	-0.106724	0.449077	-0.199185	-0.232379	0.343959	-0.086443	-0.175421	0.325627	-0.095525	-0.260037	0.274404	-0.102671	-0.203979	0.262603	-0.110031	-0.316820	0.109343	-0.144844	-0.299850	0.111463	-0.229490	-0.241020	0.031574	-0.095469	-0.211154	0.014536	-0.209572	-0.147227	0.039047	-0.144708	-0.398042	0.076162	-0.212353	-0.074248	0.715315	-0.432285	-0.028922	0.747132	-0.417225	-0.050739	0.671952	-0.428250	-0.004143	0.710660	-0.418079	0.052649	0.476217	-0.394249	0.072606	0.476899	-0.277229	-0.051639	0.409783	-0.413323	-0.011385	0.382543	-0.396859	-0.081845	0.373864	-0.404543	-0.044158	0.346436	-0.385786	-0.195816	0.230242	-0.371073	-0.186428	0.232446	-0.288860	-0.171505	0.116138	-0.398751	-0.156925	0.094288	-0.287057	-0.090005	0.077379	-0.347789	-0.276340	0.253473	-0.323022	-0.098290	1.398109	-0.100009	-0.084514	1.396515	-0.430299	
73	0.3600	-0.113577	0.925582	-0.121538	-0.072031	0.915432	-0.357749	-0.284757	0.941639	-0.238587	-0.265512	0.938702	-0.324461	-0.155033	0.695124	-0.062941	-0.095021	0.714204	-0.072457	-0.145772	0.646664	-0.062531	-0.085424	0.663430	-0.067949	-0.136802	0.450692	-0.088644	-0.101164	0.448153	-0.198160	-0.228569	0.344371	-0.085809	-0.171789	0.325337	-0.094856	-0.257083	0.275141	-0.102237	-0.201159	0.262584	-0.109589	-0.316046	0.110554	-0.144763	-0.298963	0.112686	-0.229444	-0.241063	0.032011	-0.095576	-0.211185	0.014892	-0.209578	-0.147329	0.039388	-0.144697	-0.397605	0.077523	-0.212327	-0.063200	0.716423	-0.430530	-0.018144	0.748800	-0.415493	-0.039132	0.673319	-0.426331	0.007093	0.712617	-0.416212	0.066680	0.478610	-0.391701	0.086486	0.479937	-0.274639	-0.036546	0.409793	-0.410561	0.004337	0.383332	-0.394284	-0.066092	0.373160	-0.401888	-0.027771	0.346413	-0.383190	-0.177113	0.226484	-0.368425	-0.167727	0.228979	-0.286169	-0.149773	0.112528	-0.396213	-0.134765	0.090912	-0.284494	-0.067053	0.075711	-0.345246	-0.258742	0.247767	-0.320311	-0.088636	1.398771	-0.099465	-0.077023	1.396855	-0.429891	
74	0.3650	-0.105173	0.925755	-0.120390	-0.063828	0.915726	-0.356703	-0.276443	0.941888	-0.237471	-0.257318	0.938845	-0.323352	-0.148152	0.695050	-0.062065	-0.087923	0.713658	-0.071437	-0.139344	0.646514	-0.061667	-0.078826	0.662736	-0.066968	-0.132447	0.450201	-0.087878	-0.096406	0.447355	-0.197290	-0.225314	0.344763	-0.085272	-0.168697	0.325131	-0.094284	-0.254549	0.275827	-0.101868	-0.198754	0.262620	-0.109207	-0.315337	0.111673	-0.144677	-0.298148	0.113814	-0.229387	-0.241056	0.032455	-0.095664	-0.211163	0.015278	-0.209570	-0.147400	0.039795	-0.144680	-0.397152	0.078748	-0.212292	-0.053670	0.717435	-0.428996	-0.008848	0.750286	-0.413984	-0.029125	0.674559	-0.424649	0.016775	0.714356	-0.414579	0.078748	0.480746	-0.389475	0.098415	0.482634	-0.272377	-0.023529	0.409812	-0.408137	0.017908	0.384046	-0.392038	-0.052484	0.372542	-0.399560	-0.013603	0.346404	-0.380930	-0.160865	0.223152	-0.366120	-0.151478	0.225902	-0.283825	-0.130875	0.109346	-0.394003	-0.115481	0.087940	-0.282264	-0.047100	0.074237	-0.343040	-0.243443	0.242707	-0.317947	-0.080285	1.399417	-0.099033	-0.070565	1.397190	-0.429545	
75	0.3700	-0.097993	0.925919	-0.119416	-0.056832	0.916016	-0.355811	-0.269343	0.942124	-0.236500	-0.250325	0.939008	-0.322387	-0.142291	0.694992	-0.061322	-0.081876	0.713188	-0.070574	-0.133879	0.646392	-0.060935	-0.073214	0.662137	-0.066142	-0.128786	0.449795	-0.087238	-0.092400	0.446677	-0.196564	-0.222578	0.345125	-0.084826	-0.166109	0.324992	-0.093803	-0.252410	0.276449	-0.101562	-0.196734	0.262695	-0.108882	-0.314700	0.112683	-0.144591	-0.297413	0.114831	-0.229323	-0.241011	0.032884	-0.095736	-0.211102	0.015669	-0.209552	-0.147444	0.040232	-0.144659	-0.396703	0.079832	-0.212252	-0.045584	0.718340	-0.427677	-0.000962	0.751586	-0.412692	-0.020639	0.675660	-0.423201	0.024982	0.715872	-0.413176	0.088958	0.482615	-0.387564	0.108500	0.484984	-0.270437	-0.012488	0.409838	-0.406046	0.029428	0.384680	-0.390112	-0.040921	0.372011	-0.397555	-0.001556	0.346408	-0.378996	-0.146985	0.220254	-0.364147	-0.137594	0.223222	-0.281819	-0.114718	0.106596	-0.392110	-0.098982	0.085375	-0.280356	-0.030047	0.072962	-0.341157	-0.230363	0.238306	-0.315919	-0.073181	1.400028	-0.098696	-0.065089	1.397510	-0.429256	
76	0.3750	-0.091971	0.926070	-0.118603	-0.050974	0.916290	-0.355066	-0.263390	0.942339	-0.235673	-0.244464	0.939178	-0.321563	-0.137390	0.694949	-0.060704	-0.076816	0.712791	-0.069856	-0.129316	0.646294	-0.060325	-0.068526	0.661630	-0.065459	-0.125764	0.449465	-0.086713	-0.089088	0.446111	-0.195971	-0.220320	0.345452	-0.084462	-0.163980	0.324906	-0.093407	-0.250636	0.277001	-0.101312	-0.195068	0.262794	-0.108611	-0.314140	0.113574	-0.144508	-0.296765	0.115728	-0.229257	-0.240942	0.033282	-0.095793	-0.211017	0.016043	-0.209527	-0.147467	0.040667	-0.144636	-0.396275	0.080771	-0.212211	-0.038848	0.719131	-0.426565	0.005607	0.752700	-0.411606	-0.013573	0.676616	-0.421977	0.031813	0.717167	-0.411993	0.097438	0.484216	-0.385954	0.116872	0.486990	-0.268803	-0.003292	0.409867	-0.404275	0.039030	0.385230	-0.388491	-0.031275	0.371561	-0.395860	0.008500	0.346420	-0.377371	-0.135347	0.217786	-0.362488	-0.125950	0.220936	-0.280132	-0.101161	0.104268	-0.390518	-0.085126	0.083209	-0.278754	-0.015744	0.071884	-0.339580	-0.219383	0.234554	-0.314210	-0.067247	1.400588	-0.098440	-0.060527	1.397807	-0.429020	
77	0.3800	-0.087023	0.926205	-0.117940	-0.046169	0.916541	-0.354455	-0.258499	0.942529	-0.234982	-0.239652	0.939343	-0.320875	-0.133375	0.694916	-0.060199	-0.072669	0.712461	-0.069272	-0.125583	0.646217	-0.059828	-0.064690	0.661208	-0.064904	-0.123318	0.449203	-0.086292	-0.086406	0.445648	-0.195496	-0.218493	0.345738	-0.084172	-0.162263	0.324859	-0.093086	-0.249194	0.277478	-0.101112	-0.193721	0.262902	-0.108390	-0.313657	0.114339	-0.144432	-0.296205	0.116498	-0.229193	-0.240860	0.033640	-0.095837	-0.210919	0.016387	-0.209499	-0.147474	0.041078	-0.144613	-0.395882	0.081568	-0.212171	-0.033350	0.719806	-0.425646	0.010969	0.753634	-0.410712	-0.007809	0.677427	-0.420964	0.037383	0.718249	-0.411016	0.104341	0.485557	-0.384625	0.123683	0.488663	-0.267457	0.004212	0.409896	-0.402809	0.046871	0.385696	-0.387155	-0.023392	0.371190	-0.394456	0.016724	0.346437	-0.376035	-0.125788	0.215729	-0.361122	-0.116384	0.219030	-0.278742	-0.090019	0.102342	-0.389206	-0.073730	0.081420	-0.277434	-0.003993	0.070995	-0.338284	-0.210354	0.231427	-0.312800	-0.062390	1.401087	-0.098251	-0.056805	1.398072	-0.428829	
