PathFileType	4	(X/Y/Z)	 P2 pr2 02.trc
DataRate	CameraRate	NumFrames	NumMarkers	Units	OrigDataRate	OrigDataStartFrame	OrigNumFrames
200	200	76	38	m	200	1	76
Frame#	Time	RASIS			LASIS			RPSIS			LPSIS			RThighRear1			RThighFront1			RThighRear2			RThighFront2			RKneeLat			RKneeMed			RShankRear1			RShankFront1			RShankRear2			RShankFront2			RAnkleLat			RAnkleMed			RM5			RM1			RMid			RHeel			LThighRear1			LThighFront1			LThighRear2			LThighFront2			LKneeLat			LKneeMed			LShankRear1			LShankFront1			LShankRear2			LShankFront2			LAnkleLat			LAnkleMed			LM5			LM1			LMid			LHeel			RShoulder			LShoulder			
		X1	Y1	Z1	X2	Y2	Z2	X3	Y3	Z3	X4	Y4	Z4	X5	Y5	Z5	X6	Y6	Z6	X7	Y7	Z7	X8	Y8	Z8	X9	Y9	Z9	X10	Y10	Z10	X11	Y11	Z11	X12	Y12	Z12	X13	Y13	Z13	X14	Y14	Z14	X15	Y15	Z15	X16	Y16	Z16	X17	Y17	Z17	X18	Y18	Z18	X19	Y19	Z19	X20	Y20	Z20	X21	Y21	Z21	X22	Y22	Z22	X23	Y23	Z23	X24	Y24	Z24	X25	Y25	Z25	X26	Y26	Z26	X27	Y27	Z27	X28	Y28	Z28	X29	Y29	Z29	X30	Y30	Z30	X31	Y31	Z31	X32	Y32	Z32	X33	Y33	Z33	X34	Y34	Z34	X35	Y35	Z35	X36	Y36	Z36	X37	Y37	Z37	X38	Y38	Z38	
1	0.0000	-1.522373	0.863566	-0.148216	-1.521504	0.873057	-0.383122	-1.702044	0.918260	-0.235707	-1.701470	0.921758	-0.322718	-1.628771	0.637114	-0.084490	-1.568045	0.635126	-0.098576	-1.636748	0.586641	-0.082072	-1.574847	0.580521	-0.092235	-1.703069	0.394278	-0.090515	-1.678809	0.365596	-0.204760	-1.841173	0.382213	-0.089893	-1.814737	0.331308	-0.102017	-1.901091	0.357874	-0.109194	-1.875911	0.308729	-0.118261	-2.063807	0.288883	-0.155208	-2.047835	0.277206	-0.235755	-2.155638	0.170409	-0.133421	-2.124991	0.151455	-0.242940	-2.116320	0.089567	-0.178104	-2.102493	0.347467	-0.223906	-1.549685	0.686658	-0.469233	-1.499823	0.718334	-0.460549	-1.524219	0.641679	-0.467283	-1.476911	0.680951	-0.464760	-1.397205	0.443585	-0.449278	-1.358852	0.458013	-0.344127	-1.436338	0.317774	-0.450997	-1.386689	0.323800	-0.446502	-1.433675	0.267941	-0.441254	-1.385637	0.274715	-0.436124	-1.405428	0.079755	-0.401263	-1.384631	0.095598	-0.324569	-1.309413	0.018540	-0.453715	-1.255073	0.030105	-0.350067	-1.214579	0.063254	-0.426580	-1.459705	0.033533	-0.334178	-1.373202	1.325963	-0.175710	-1.426822	1.310124	-0.487614	
2	0.0050	-1.506025	0.861546	-0.149810	-1.506881	0.872476	-0.384399	-1.686329	0.915840	-0.234675	-1.686299	0.920372	-0.321711	-1.605961	0.634618	-0.085544	-1.545689	0.634561	-0.100368	-1.612271	0.584237	-0.083088	-1.550582	0.580150	-0.094061	-1.671919	0.391642	-0.092388	-1.647653	0.364127	-0.207353	-1.809579	0.380567	-0.092023	-1.783259	0.329091	-0.104072	-1.869749	0.356705	-0.111168	-1.844773	0.307148	-0.120292	-2.033040	0.288815	-0.157127	-2.017280	0.277303	-0.237815	-2.122904	0.170331	-0.134122	-2.093413	0.150724	-0.243638	-2.083145	0.089450	-0.178686	-2.072829	0.347472	-0.225932	-1.537037	0.685268	-0.470714	-1.486885	0.716570	-0.462724	-1.511985	0.640028	-0.468973	-1.464308	0.678912	-0.467192	-1.386318	0.440603	-0.452227	-1.347966	0.454175	-0.347025	-1.427838	0.315966	-0.452772	-1.378187	0.320882	-0.448641	-1.426334	0.266382	-0.442641	-1.378287	0.272033	-0.437768	-1.402956	0.079085	-0.400928	-1.381491	0.094659	-0.324308	-1.308940	0.017282	-0.453996	-1.254041	0.027824	-0.350219	-1.213275	0.059287	-0.426503	-1.458250	0.034217	-0.333489	-1.357685	1.323756	-0.175279	-1.408762	1.306633	-0.488183	
3	0.0100	-1.489457	0.859458	-0.151449	-1.492091	0.871848	-0.385724	-1.670407	0.913373	-0.233629	-1.670939	0.918941	-0.320683	-1.582829	0.632146	-0.086628	-1.523036	0.634052	-0.102196	-1.587438	0.581875	-0.084137	-1.525984	0.579858	-0.095928	-1.640267	0.389102	-0.094312	-1.616011	0.362777	-0.210010	-1.777498	0.378964	-0.094195	-1.751266	0.326914	-0.106167	-1.837931	0.355547	-0.113165	-1.813131	0.305575	-0.122348	-2.001812	0.288649	-0.159038	-1.986273	0.277305	-0.239872	-2.089614	0.170098	-0.134803	-2.061297	0.149842	-0.244325	-2.049352	0.089193	-0.179265	-2.042780	0.347350	-0.227932	-1.524248	0.683825	-0.472204	-1.473808	0.714749	-0.464944	-1.499614	0.638317	-0.470679	-1.451569	0.676805	-0.469670	-1.375325	0.437518	-0.455219	-1.336967	0.450219	-0.349971	-1.419264	0.314084	-0.454569	-1.369619	0.317877	-0.450807	-1.418935	0.264758	-0.444041	-1.370886	0.269272	-0.439426	-1.400498	0.078402	-0.400562	-1.378350	0.093704	-0.324016	-1.308458	0.016040	-0.454271	-1.252983	0.025576	-0.350369	-1.211955	0.055353	-0.426417	-1.456804	0.034863	-0.332766	-1.341967	1.321516	-0.174836	-1.390426	1.303088	-0.488740	
4	0.0150	-1.472683	0.857302	-0.153128	-1.477142	0.871165	-0.387100	-1.654289	0.910867	-0.232579	-1.655397	0.917464	-0.319643	-1.559406	0.629739	-0.087745	-1.500123	0.633639	-0.104059	-1.562280	0.579605	-0.085226	-1.501095	0.579693	-0.097841	-1.608145	0.386735	-0.096293	-1.583922	0.361622	-0.212731	-1.744953	0.377431	-0.096406	-1.718766	0.324821	-0.108303	-1.805654	0.354409	-0.115179	-1.780987	0.304032	-0.124426	-1.970106	0.288332	-0.160928	-1.954803	0.277163	-0.241913	-2.055714	0.169650	-0.135459	-2.028585	0.148762	-0.244998	-2.014871	0.088760	-0.179842	-2.012346	0.347023	-0.229885	-1.511329	0.682326	-0.473691	-1.460605	0.712866	-0.467201	-1.487121	0.636546	-0.472392	-1.438711	0.674627	-0.472182	-1.364263	0.434327	-0.458240	-1.325894	0.446143	-0.352949	-1.410653	0.312128	-0.456378	-1.361022	0.314785	-0.452985	-1.411511	0.263070	-0.445445	-1.363472	0.266436	-0.441088	-1.398077	0.077717	-0.400168	-1.375234	0.092741	-0.323692	-1.307974	0.014823	-0.454538	-1.251910	0.023381	-0.350519	-1.210630	0.051493	-0.426321	-1.455386	0.035463	-0.332011	-1.326070	1.319258	-0.174376	-1.371820	1.299510	-0.489267	
5	0.0200	-1.455710	0.855084	-0.154845	-1.462030	0.870416	-0.388529	-1.637979	0.908331	-0.231538	-1.639673	0.915942	-0.318603	-1.535714	0.627444	-0.088899	-1.476979	0.633366	-0.105958	-1.536819	0.577480	-0.086362	-1.475945	0.579706	-0.099801	-1.575574	0.384617	-0.098337	-1.551414	0.360737	-0.215519	-1.711957	0.375999	-0.098656	-1.685757	0.322859	-0.110483	-1.772915	0.353297	-0.117207	-1.748325	0.302540	-0.126524	-1.937890	0.287812	-0.162784	-1.922841	0.276829	-0.243925	-2.021129	0.168930	-0.136089	-1.995195	0.147440	-0.245658	-1.979610	0.088121	-0.180425	-1.981508	0.346407	-0.231771	-1.498283	0.680772	-0.475165	-1.447278	0.710915	-0.469485	-1.474512	0.634715	-0.474101	-1.425741	0.672372	-0.474718	-1.353170	0.431026	-0.461272	-1.314781	0.441943	-0.355943	-1.402038	0.310099	-0.458190	-1.352433	0.311610	-0.455165	-1.404094	0.261321	-0.446845	-1.356080	0.263529	-0.442746	-1.395716	0.077038	-0.399745	-1.372170	0.091777	-0.323335	-1.307493	0.013639	-0.454794	-1.250828	0.021261	-0.350669	-1.209309	0.047746	-0.426213	-1.454018	0.036010	-0.331227	-1.310007	1.317000	-0.173896	-1.352943	1.295920	-0.489748	
6	0.0250	-1.438536	0.852808	-0.156596	-1.446743	0.869595	-0.390011	-1.621473	0.905775	-0.230520	-1.623758	0.914376	-0.317575	-1.511765	0.625306	-0.090095	-1.453626	0.633275	-0.107893	-1.511071	0.575554	-0.087550	-1.450560	0.579947	-0.101813	-1.542569	0.382825	-0.100451	-1.518508	0.360198	-0.218377	-1.678510	0.374694	-0.100944	-1.652227	0.321072	-0.112709	-1.739706	0.352217	-0.119244	-1.715121	0.301121	-0.128641	-1.905115	0.287036	-0.164598	-1.890341	0.276251	-0.245900	-1.985767	0.167881	-0.136691	-1.961030	0.145834	-0.246308	-1.943459	0.087251	-0.181020	-1.950229	0.345417	-0.233573	-1.485104	0.679162	-0.476616	-1.433825	0.708893	-0.471786	-1.461785	0.632823	-0.475797	-1.412659	0.670034	-0.477263	-1.342077	0.427614	-0.464296	-1.303660	0.437617	-0.358936	-1.393450	0.308002	-0.459994	-1.343884	0.308356	-0.457333	-1.396712	0.259516	-0.448233	-1.348742	0.260560	-0.444388	-1.393438	0.076375	-0.399298	-1.369181	0.090821	-0.322946	-1.307024	0.012492	-0.455039	-1.249750	0.019232	-0.350819	-1.208005	0.044146	-0.426094	-1.452720	0.036501	-0.330421	-1.293784	1.314762	-0.173389	-1.333783	1.292345	-0.490164	
7	0.0300	-1.421155	0.850486	-0.158373	-1.431262	0.868694	-0.391546	-1.604760	0.903209	-0.229542	-1.607638	0.912769	-0.316575	-1.487572	0.623372	-0.091335	-1.430081	0.633409	-0.109865	-1.485047	0.573878	-0.088797	-1.424961	0.580466	-0.103878	-1.509143	0.381434	-0.102640	-1.485225	0.360079	-0.221307	-1.644611	0.373540	-0.103268	-1.618160	0.319505	-0.114985	-1.706010	0.351172	-0.121286	-1.681346	0.299796	-0.130777	-1.871723	0.285951	-0.166361	-1.857249	0.275382	-0.247829	-1.949527	0.166452	-0.137267	-1.925982	0.143907	-0.246952	-1.906305	0.086130	-0.181637	-1.918459	0.343967	-0.235276	-1.471779	0.677497	-0.478036	-1.420233	0.706795	-0.474091	-1.448935	0.630874	-0.477468	-1.399459	0.667610	-0.479804	-1.331015	0.424093	-0.467292	-1.292561	0.433166	-0.361907	-1.384919	0.305844	-0.461780	-1.335407	0.305031	-0.459476	-1.389394	0.257663	-0.449603	-1.341487	0.257536	-0.446006	-1.391261	0.075740	-0.398830	-1.366291	0.089881	-0.322529	-1.306572	0.011385	-0.455272	-1.248685	0.017307	-0.350969	-1.206726	0.040725	-0.425963	-1.451512	0.036937	-0.329601	-1.277405	1.312565	-0.172851	-1.314327	1.288812	-0.490496	
8	0.0350	-1.403558	0.848130	-0.160169	-1.415558	0.867711	-0.393131	-1.587829	0.900646	-0.228620	-1.591291	0.911126	-0.315619	-1.463143	0.621685	-0.092624	-1.406359	0.633808	-0.111873	-1.458757	0.572503	-0.090109	-1.399165	0.581310	-0.106001	-1.475314	0.380512	-0.104911	-1.451586	0.360448	-0.224308	-1.610258	0.372558	-0.105627	-1.583543	0.318198	-0.117314	-1.671809	0.350165	-0.123331	-1.646969	0.298584	-0.132932	-1.837651	0.284509	-0.168067	-1.823504	0.274176	-0.249707	-1.912305	0.164601	-0.137822	-1.889939	0.141630	-0.247597	-1.868030	0.084750	-0.182286	-1.886141	0.341976	-0.236870	-1.458292	0.675779	-0.479415	-1.406486	0.704617	-0.476386	-1.435949	0.628871	-0.479105	-1.386130	0.665097	-0.482323	-1.320013	0.420467	-0.470241	-1.281510	0.428595	-0.364838	-1.376471	0.303633	-0.463537	-1.327030	0.301643	-0.461578	-1.382164	0.255774	-0.450944	-1.334345	0.254471	-0.447591	-1.389202	0.075144	-0.398348	-1.363520	0.088968	-0.322088	-1.306144	0.010319	-0.455491	-1.247648	0.015495	-0.351122	-1.205484	0.037508	-0.425823	-1.450411	0.037320	-0.328775	-1.260868	1.310432	-0.172277	-1.294561	1.285348	-0.490726	
9	0.0400	-1.385734	0.845757	-0.161974	-1.399602	0.866642	-0.394759	-1.570664	0.898100	-0.227772	-1.574695	0.909455	-0.314726	-1.438486	0.620288	-0.093962	-1.382474	0.634509	-0.113916	-1.432215	0.571477	-0.091488	-1.373194	0.582523	-0.108180	-1.441102	0.380124	-0.107265	-1.417618	0.361364	-0.227379	-1.575453	0.371767	-0.108016	-1.548367	0.317191	-0.119698	-1.637087	0.349194	-0.125375	-1.611963	0.297506	-0.135108	-1.802837	0.282666	-0.169713	-1.789046	0.272592	-0.251531	-1.874000	0.162292	-0.138363	-1.852793	0.138984	-0.248252	-1.828527	0.083110	-0.182981	-1.853214	0.339366	-0.238346	-1.444622	0.674016	-0.480744	-1.392562	0.702361	-0.478656	-1.422813	0.626822	-0.480696	-1.372656	0.662496	-0.484803	-1.309095	0.416747	-0.473118	-1.270533	0.423915	-0.367704	-1.368129	0.301385	-0.465254	-1.318778	0.298208	-0.463625	-1.375044	0.253863	-0.452250	-1.327338	0.251380	-0.449131	-1.387275	0.074600	-0.397861	-1.360886	0.088092	-0.321630	-1.305748	0.009293	-0.455698	-1.246651	0.013803	-0.351278	-1.204289	0.034517	-0.425676	-1.449432	0.037659	-0.327957	-1.244172	1.308386	-0.171661	-1.274469	1.281985	-0.490837	
10	0.0450	-1.367672	0.843386	-0.163774	-1.383358	0.865491	-0.396422	-1.553249	0.895588	-0.227017	-1.557825	0.907764	-0.313914	-1.413613	0.619220	-0.095350	-1.358441	0.635547	-0.115992	-1.405435	0.570841	-0.092938	-1.347066	0.584141	-0.110416	-1.406538	0.380322	-0.109705	-1.383357	0.362879	-0.230515	-1.540205	0.371177	-0.110432	-1.512632	0.316516	-0.122138	-1.601835	0.348256	-0.127416	-1.576310	0.296576	-0.137305	-1.767221	0.280384	-0.171299	-1.753819	0.270598	-0.253299	-1.834522	0.159503	-0.138900	-1.814443	0.135957	-0.248928	-1.787700	0.081220	-0.183736	-1.819615	0.336068	-0.239701	-1.430744	0.672214	-0.482016	-1.378437	0.700026	-0.480883	-1.409509	0.624737	-0.482231	-1.359019	0.659810	-0.487223	-1.298284	0.412946	-0.475901	-1.259653	0.419138	-0.370483	-1.359914	0.299118	-0.466918	-1.310673	0.294744	-0.465602	-1.368054	0.251950	-0.453513	-1.320488	0.248283	-0.450619	-1.385488	0.074122	-0.397379	-1.358402	0.087266	-0.321165	-1.305392	0.008304	-0.455893	-1.245708	0.012231	-0.351438	-1.203152	0.031765	-0.425523	-1.448589	0.037968	-0.327160	-1.227315	1.306454	-0.170999	-1.254041	1.278756	-0.490812	
11	0.0500	-1.349362	0.841042	-0.165557	-1.366794	0.864262	-0.398109	-1.535572	0.893127	-0.226373	-1.540658	0.906066	-0.313203	-1.388540	0.618514	-0.096788	-1.334279	0.636949	-0.118097	-1.378440	0.570632	-0.094459	-1.320808	0.586194	-0.112706	-1.371665	0.381150	-0.112228	-1.348845	0.365034	-0.233708	-1.504533	0.370797	-0.112868	-1.476351	0.316203	-0.124633	-1.566053	0.347346	-0.129451	-1.540004	0.295809	-0.139523	-1.730755	0.277634	-0.172827	-1.717773	0.268165	-0.255012	-1.793793	0.156222	-0.139444	-1.774802	0.132551	-0.249637	-1.745471	0.079101	-0.184563	-1.785284	0.332026	-0.240937	-1.416634	0.670386	-0.483223	-1.364085	0.697617	-0.483048	-1.396020	0.622628	-0.483700	-1.345199	0.657044	-0.489563	-1.287601	0.409085	-0.478566	-1.248891	0.414287	-0.373150	-1.351844	0.296854	-0.468517	-1.302733	0.291274	-0.467494	-1.361210	0.250057	-0.454725	-1.313811	0.245205	-0.452044	-1.383847	0.073727	-0.396915	-1.356079	0.086502	-0.320704	-1.305083	0.007347	-0.456078	-1.244837	0.010779	-0.351605	-1.202086	0.029262	-0.425370	-1.447890	0.038265	-0.326402	-1.210296	1.304662	-0.170288	-1.233269	1.275695	-0.490636	
12	0.0550	-1.330798	0.838752	-0.167306	-1.349873	0.862963	-0.399807	-1.517619	0.890737	-0.225858	-1.523170	0.904377	-0.312613	-1.363286	0.618200	-0.098272	-1.310006	0.638737	-0.120226	-1.351255	0.570879	-0.096049	-1.294447	0.588705	-0.115045	-1.336535	0.382640	-0.114832	-1.314137	0.367854	-0.236950	-1.468465	0.370627	-0.115318	-1.439549	0.316272	-0.127182	-1.529750	0.346456	-0.131477	-1.503052	0.295216	-0.141764	-1.693401	0.274396	-0.174300	-1.680871	0.265276	-0.256675	-1.751756	0.152451	-0.140010	-1.733802	0.128779	-0.250394	-1.701789	0.076785	-0.185479	-1.750168	0.327190	-0.242058	-1.402266	0.668543	-0.484357	-1.349479	0.695143	-0.485129	-1.382325	0.620511	-0.485092	-1.331174	0.654209	-0.491801	-1.277063	0.405190	-0.481088	-1.238266	0.409388	-0.375680	-1.343932	0.294621	-0.470041	-1.294973	0.287825	-0.469286	-1.354523	0.248211	-0.455879	-1.307320	0.242173	-0.453399	-1.382351	0.073429	-0.396483	-1.353924	0.085816	-0.320261	-1.304827	0.006419	-0.456255	-1.244054	0.009441	-0.351780	-1.201102	0.027011	-0.425220	-1.447339	0.038575	-0.325700	-1.193117	1.303036	-0.169523	-1.212152	1.272836	-0.490294	
13	0.0600	-1.311976	0.836548	-0.169005	-1.332564	0.861607	-0.401500	-1.499381	0.888438	-0.225491	-1.505341	0.902712	-0.312164	-1.337878	0.618300	-0.099798	-1.285648	0.640923	-0.122372	-1.323916	0.571604	-0.097704	-1.268017	0.591684	-0.117426	-1.301215	0.384809	-0.117509	-1.279300	0.371353	-0.240227	-1.432044	0.370664	-0.117774	-1.402270	0.316737	-0.129782	-1.492950	0.345577	-0.133491	-1.465475	0.294806	-0.144027	-1.655133	0.270656	-0.175726	-1.643086	0.261921	-0.258292	-1.708376	0.148204	-0.140612	-1.691397	0.124663	-0.251212	-1.656625	0.074312	-0.186497	-1.714223	0.321530	-0.243074	-1.387615	0.666704	-0.485414	-1.334592	0.692612	-0.487106	-1.368405	0.618405	-0.486397	-1.316925	0.651317	-0.493912	-1.266682	0.401289	-0.483442	-1.227793	0.404471	-0.378046	-1.336188	0.292449	-0.471478	-1.287402	0.284430	-0.470963	-1.348000	0.246444	-0.456969	-1.301023	0.239219	-0.454674	-1.380994	0.073249	-0.396101	-1.351936	0.085225	-0.319852	-1.304633	0.005516	-0.456427	-1.243375	0.008210	-0.351964	-1.200213	0.025007	-0.425077	-1.446933	0.038926	-0.325077	-1.175780	1.301602	-0.168702	-1.190696	1.270216	-0.489776	
14	0.0650	-1.292896	0.834462	-0.170635	-1.314837	0.860209	-0.403171	-1.480851	0.886252	-0.225286	-1.487152	0.901092	-0.311873	-1.312345	0.618830	-0.101360	-1.261229	0.643515	-0.124528	-1.296461	0.572818	-0.099418	-1.241554	0.595134	-0.119841	-1.265783	0.387661	-0.120251	-1.244407	0.375528	-0.243524	-1.395325	0.370898	-0.120227	-1.364568	0.317606	-0.132427	-1.455689	0.344698	-0.135492	-1.427312	0.294581	-0.146311	-1.615944	0.266412	-0.177113	-1.604408	0.258100	-0.259871	-1.663640	0.143510	-0.141266	-1.647565	0.120239	-0.252105	-1.609983	0.071732	-0.187631	-1.677415	0.315027	-0.243999	-1.372657	0.664887	-0.486388	-1.319399	0.690039	-0.488957	-1.354243	0.616330	-0.487607	-1.302429	0.648385	-0.495875	-1.256469	0.397420	-0.485604	-1.217484	0.399575	-0.380223	-1.328616	0.290374	-0.472818	-1.280025	0.281124	-0.472512	-1.341644	0.244789	-0.457990	-1.294920	0.236379	-0.455864	-1.379764	0.073206	-0.395785	-1.350113	0.084746	-0.319493	-1.304506	0.004635	-0.456597	-1.242820	0.007078	-0.352159	-1.199432	0.023245	-0.424945	-1.446666	0.039355	-0.324554	-1.158292	1.300386	-0.167823	-1.168913	1.267868	-0.489072	
15	0.0700	-1.273561	0.832529	-0.172178	-1.296666	0.858788	-0.404800	-1.462027	0.884201	-0.225258	-1.468592	0.899535	-0.311756	-1.286723	0.619797	-0.102951	-1.236778	0.646510	-0.126682	-1.268936	0.574524	-0.101184	-1.215097	0.599047	-0.122277	-1.230327	0.391182	-0.123046	-1.209544	0.380361	-0.246822	-1.358372	0.371313	-0.122668	-1.326516	0.318875	-0.135109	-1.418015	0.343806	-0.137476	-1.388616	0.294544	-0.148613	-1.575842	0.261675	-0.178471	-1.564843	0.253824	-0.261421	-1.617565	0.138407	-0.141990	-1.602312	0.115553	-0.253089	-1.561896	0.069103	-0.188893	-1.639724	0.307680	-0.244849	-1.357371	0.663114	-0.487274	-1.303878	0.687441	-0.490661	-1.339819	0.614312	-0.488711	-1.287668	0.645434	-0.497666	-1.246427	0.393621	-0.487552	-1.207347	0.394742	-0.382186	-1.321212	0.288434	-0.474051	-1.272838	0.277946	-0.473920	-1.335451	0.243284	-0.458937	-1.289006	0.233691	-0.456962	-1.378644	0.073321	-0.395555	-1.348443	0.084401	-0.319205	-1.304452	0.003775	-0.456768	-1.242404	0.006037	-0.352365	-1.198773	0.021709	-0.424829	-1.446522	0.039903	-0.324155	-1.140662	1.299411	-0.166885	-1.146821	1.265825	-0.488175	
16	0.0750	-1.253978	0.830784	-0.173618	-1.278030	0.857367	-0.406367	-1.442909	0.882305	-0.225416	-1.449649	0.898065	-0.311827	-1.261049	0.621201	-0.104561	-1.212326	0.649895	-0.128824	-1.241391	0.576714	-0.102990	-1.188688	0.603403	-0.124721	-1.194946	0.395348	-0.125880	-1.174802	0.385820	-0.250103	-1.321264	0.371888	-0.125087	-1.288199	0.320534	-0.137819	-1.379991	0.342886	-0.139442	-1.349458	0.294691	-0.150931	-1.534855	0.256460	-0.179813	-1.524413	0.249110	-0.262952	-1.570193	0.132946	-0.142798	-1.555671	0.110657	-0.254176	-1.512429	0.066489	-0.190293	-1.601143	0.299501	-0.245645	-1.341735	0.661407	-0.488069	-1.288007	0.684837	-0.492197	-1.325119	0.612374	-0.489703	-1.272623	0.642485	-0.499264	-1.236555	0.389935	-0.489266	-1.197384	0.390016	-0.383912	-1.313971	0.286668	-0.475170	-1.265836	0.274939	-0.475177	-1.329409	0.241967	-0.459807	-1.283271	0.231196	-0.457963	-1.377609	0.073618	-0.395431	-1.346911	0.084211	-0.319005	-1.304475	0.002939	-0.456944	-1.242145	0.005077	-0.352584	-1.198249	0.020385	-0.424733	-1.446480	0.040616	-0.323904	-1.122899	1.298700	-0.165887	-1.124446	1.264117	-0.487082	
17	0.0800	-1.234158	0.829262	-0.174936	-1.258912	0.855967	-0.407853	-1.423501	0.880587	-0.225768	-1.430318	0.896704	-0.312096	-1.235366	0.623033	-0.106179	-1.187903	0.653652	-0.130942	-1.213881	0.579373	-0.104825	-1.162371	0.608172	-0.127158	-1.159743	0.400115	-0.128736	-1.140277	0.391858	-0.253343	-1.284085	0.372597	-0.127473	-1.249714	0.322565	-0.140548	-1.341689	0.341926	-0.141388	-1.309920	0.295014	-0.153261	-1.493026	0.250795	-0.181151	-1.483158	0.243985	-0.264476	-1.521594	0.127188	-0.143707	-1.507702	0.105614	-0.255379	-1.461676	0.063954	-0.191838	-1.561681	0.290521	-0.246412	-1.325735	0.659790	-0.488769	-1.271767	0.682249	-0.493547	-1.310126	0.610544	-0.490574	-1.257277	0.639563	-0.500648	-1.226843	0.386405	-0.490726	-1.187591	0.385446	-0.385381	-1.306875	0.285118	-0.476168	-1.259001	0.272147	-0.476275	-1.323503	0.240880	-0.460598	-1.277696	0.228936	-0.458863	-1.376629	0.074122	-0.395432	-1.345494	0.084200	-0.318914	-1.304579	0.002132	-0.457130	-1.242057	0.004194	-0.352815	-1.197874	0.019250	-0.424660	-1.446509	0.041544	-0.323825	-1.105018	1.298270	-0.164830	-1.101820	1.262773	-0.485789	
18	0.0850	-1.214114	0.827997	-0.176119	-1.239304	0.854617	-0.409235	-1.403810	0.879065	-0.226319	-1.410598	0.895472	-0.312568	-1.209716	0.625276	-0.107794	-1.163540	0.657750	-0.133021	-1.186459	0.582471	-0.106675	-1.136188	0.613314	-0.129571	-1.124824	0.405430	-0.131596	-1.106066	0.398412	-0.256521	-1.246930	0.373410	-0.129818	-1.211167	0.324939	-0.143282	-1.303192	0.340909	-0.143312	-1.270100	0.295503	-0.155596	-1.450419	0.244716	-0.182499	-1.441135	0.238486	-0.266003	-1.471865	0.121200	-0.144730	-1.458495	0.100489	-0.256707	-1.409761	0.061567	-0.193534	-1.521362	0.280787	-0.247173	-1.309355	0.658289	-0.489374	-1.255146	0.679701	-0.494693	-1.294827	0.608848	-0.491321	-1.241617	0.636696	-0.501801	-1.217277	0.383078	-0.491917	-1.177959	0.381080	-0.386574	-1.299902	0.283826	-0.477041	-1.252312	0.269612	-0.477206	-1.317706	0.240062	-0.461311	-1.272254	0.226952	-0.459662	-1.375668	0.074858	-0.395576	-1.344165	0.084396	-0.318953	-1.304763	0.001365	-0.457329	-1.242154	0.003382	-0.353059	-1.197659	0.018285	-0.424611	-1.446570	0.042743	-0.323942	-1.087032	1.298137	-0.163716	-1.078979	1.261814	-0.484300	
19	0.0900	-1.193860	0.827019	-0.177153	-1.219201	0.853341	-0.410497	-1.383844	0.877757	-0.227068	-1.390491	0.894393	-0.313248	-1.184143	0.627904	-0.109393	-1.139266	0.662153	-0.135049	-1.159183	0.585973	-0.108524	-1.110181	0.618780	-0.131943	-1.090298	0.411224	-0.134443	-1.072266	0.405409	-0.259613	-1.209894	0.374293	-0.132112	-1.172671	0.327622	-0.146008	-1.264592	0.339822	-0.145212	-1.230102	0.296142	-0.157933	-1.407113	0.238266	-0.183871	-1.398415	0.232655	-0.267547	-1.421126	0.115056	-0.145879	-1.408165	0.095353	-0.258168	-1.356835	0.059393	-0.195380	-1.480229	0.270357	-0.247956	-1.292585	0.656927	-0.489881	-1.238131	0.677217	-0.495622	-1.279211	0.607313	-0.491937	-1.225630	0.633910	-0.502708	-1.207834	0.379996	-0.492830	-1.168470	0.376965	-0.387477	-1.293022	0.282832	-0.477787	-1.245739	0.267379	-0.477968	-1.311987	0.239554	-0.461945	-1.266912	0.225284	-0.460359	-1.374682	0.075855	-0.395883	-1.342886	0.084824	-0.319138	-1.305025	0.000653	-0.457546	-1.242445	0.002641	-0.353316	-1.197617	0.017467	-0.424590	-1.446618	0.044269	-0.324277	-1.068957	1.298311	-0.162545	-1.055961	1.261259	-0.482618	
20	0.0950	-1.173416	0.826356	-0.178027	-1.198605	0.852168	-0.411619	-1.363615	0.876679	-0.228011	-1.370005	0.893486	-0.314130	-1.158687	0.630884	-0.110963	-1.115108	0.666817	-0.137009	-1.132106	0.589833	-0.110357	-1.084387	0.624511	-0.134254	-1.056269	0.417416	-0.137256	-1.038972	0.412765	-0.262595	-1.173079	0.375210	-0.134348	-1.134343	0.330571	-0.148712	-1.225987	0.338648	-0.147090	-1.190042	0.296911	-0.160262	-1.363203	0.231496	-0.185281	-1.355087	0.226539	-0.269119	-1.369524	0.108832	-0.147163	-1.356853	0.090273	-0.259768	-1.303072	0.057495	-0.197376	-1.438338	0.259306	-0.248790	-1.275417	0.655727	-0.490291	-1.220715	0.674822	-0.496323	-1.263267	0.605962	-0.492421	-1.209305	0.631232	-0.503357	-1.198484	0.377201	-0.493457	-1.159101	0.373149	-0.388080	-1.286195	0.282174	-0.478407	-1.239244	0.265489	-0.478560	-1.306305	0.239392	-0.462505	-1.261627	0.223973	-0.460956	-1.373623	0.077141	-0.396368	-1.341619	0.085514	-0.319487	-1.305360	0.000015	-0.457782	-1.242936	0.001977	-0.353583	-1.197756	0.016771	-0.424596	-1.446596	0.046181	-0.324851	-1.050810	1.298799	-0.161321	-1.032811	1.261122	-0.480750	
21	0.1000	-1.152797	0.826030	-0.178735	-1.177527	0.851123	-0.412586	-1.343137	0.875842	-0.229139	-1.349151	0.892770	-0.315210	-1.133391	0.634174	-0.112491	-1.091091	0.671690	-0.138888	-1.105279	0.593997	-0.112158	-1.058842	0.630442	-0.136485	-1.022839	0.423919	-0.140015	-1.006271	0.420387	-0.265448	-1.136586	0.376121	-0.136518	-1.096303	0.333738	-0.151380	-1.187478	0.337374	-0.148943	-1.150039	0.297790	-0.162577	-1.318800	0.224461	-0.186741	-1.311253	0.220192	-0.270729	-1.317225	0.102607	-0.148589	-1.304722	0.085320	-0.261509	-1.248670	0.055926	-0.199516	-1.395765	0.247719	-0.249700	-1.257847	0.654710	-0.490605	-1.202895	0.672540	-0.496790	-1.246986	0.604817	-0.492772	-1.192635	0.628689	-0.503742	-1.189187	0.374732	-0.493796	-1.149819	0.369671	-0.388379	-1.279376	0.281887	-0.478903	-1.232781	0.263978	-0.478983	-1.300612	0.239611	-0.462995	-1.256353	0.223052	-0.461454	-1.372437	0.078743	-0.397045	-1.340313	0.086494	-0.320016	-1.305758	-0.000521	-0.458042	-1.243627	0.001398	-0.353859	-1.198082	0.016179	-0.424629	-1.446443	0.048540	-0.325679	-1.032606	1.299601	-0.160046	-1.009571	1.261408	-0.478706	
22	0.1050	-1.132025	0.826059	-0.179271	-1.155980	0.850232	-0.413386	-1.322424	0.875256	-0.230440	-1.327943	0.892260	-0.316475	-1.108290	0.637727	-0.113962	-1.067234	0.676715	-0.140671	-1.078751	0.598404	-0.113908	-1.033574	0.636501	-0.138617	-0.990100	0.430637	-0.142701	-0.974243	0.428174	-0.268148	-1.100513	0.376988	-0.138617	-1.058668	0.337069	-0.153997	-1.149171	0.335987	-0.150772	-1.110216	0.298750	-0.164869	-1.274029	0.217218	-0.188264	-1.267031	0.213668	-0.272390	-1.264414	0.096457	-0.150160	-1.251957	0.080556	-0.263389	-1.193841	0.054735	-0.201790	-1.352602	0.235691	-0.250713	-1.239874	0.653894	-0.490824	-1.184670	0.670396	-0.497019	-1.230361	0.603898	-0.492990	-1.175613	0.626305	-0.503859	-1.179897	0.372621	-0.493850	-1.140583	0.366570	-0.388373	-1.272511	0.282000	-0.479281	-1.226298	0.262880	-0.479244	-1.294854	0.240239	-0.463420	-1.251031	0.222553	-0.461861	-1.371065	0.080689	-0.397924	-1.338916	0.087793	-0.320735	-1.306203	-0.000923	-0.458328	-1.244510	0.000920	-0.354142	-1.198596	0.015669	-0.424686	-1.446086	0.051405	-0.326776	-1.014361	1.300713	-0.158723	-0.986286	1.262119	-0.476497	
23	0.1100	-1.111118	0.826452	-0.179635	-1.133988	0.849516	-0.414007	-1.301493	0.874927	-0.231896	-1.306399	0.891969	-0.317910	-1.083417	0.641490	-0.115365	-1.043555	0.681831	-0.142343	-1.052563	0.602988	-0.115593	-1.008609	0.642613	-0.140631	-0.958133	0.437467	-0.145295	-0.942957	0.436024	-0.270678	-1.064956	0.377772	-0.140640	-1.021552	0.340507	-0.156548	-1.111171	0.334477	-0.152578	-1.070697	0.299765	-0.167129	-1.229026	0.209829	-0.189861	-1.222548	0.207024	-0.274108	-1.211296	0.090454	-0.151876	-1.198762	0.076038	-0.265404	-1.138815	0.053955	-0.204186	-1.308958	0.223325	-0.251855	-1.221499	0.653294	-0.490951	-1.166043	0.668410	-0.497012	-1.213387	0.603219	-0.493077	-1.158234	0.624103	-0.503709	-1.170560	0.370895	-0.493627	-1.131345	0.363874	-0.388068	-1.265536	0.282536	-0.479549	-1.219736	0.262222	-0.479351	-1.288967	0.241301	-0.463787	-1.245600	0.222500	-0.462180	-1.369442	0.083007	-0.399013	-1.337367	0.089441	-0.321654	-1.306675	-0.001155	-0.458640	-1.245572	0.000564	-0.354429	-1.199293	0.015228	-0.424766	-1.445448	0.054831	-0.328150	-0.996090	1.302126	-0.157356	-0.962999	1.263248	-0.474139	
24	0.1150	-1.090094	0.827214	-0.179829	-1.111576	0.848996	-0.414442	-1.280360	0.874855	-0.233487	-1.284541	0.891907	-0.319493	-1.058800	0.645405	-0.116686	-1.020064	0.686975	-0.143891	-1.026751	0.607679	-0.117197	-0.983964	0.648699	-0.142509	-0.927009	0.444306	-0.147781	-0.912470	0.443832	-0.273023	-1.030003	0.378434	-0.142585	-0.985063	0.343989	-0.159019	-1.073584	0.332832	-0.154362	-1.031606	0.300804	-0.169350	-1.183938	0.202356	-0.191539	-1.177944	0.200317	-0.275893	-1.158086	0.084665	-0.153734	-1.145355	0.071816	-0.267547	-1.083830	0.053610	-0.206690	-1.264957	0.210729	-0.253146	-1.202726	0.652920	-0.490989	-1.147021	0.666602	-0.496774	-1.196058	0.602789	-0.493038	-1.140497	0.622101	-0.503300	-1.161113	0.369571	-0.493141	-1.122049	0.361605	-0.387475	-1.258385	0.283513	-0.479717	-1.213027	0.262024	-0.479315	-1.282882	0.242814	-0.464106	-1.239990	0.222912	-0.462420	-1.367501	0.085721	-0.400314	-1.335602	0.091464	-0.322777	-1.307146	-0.001173	-0.458980	-1.246791	0.000356	-0.354717	-1.200162	0.014842	-0.424863	-1.444443	0.058872	-0.329806	-0.977806	1.303824	-0.155947	-0.939752	1.264783	-0.471647	
25	0.1200	-1.068974	0.828341	-0.179858	-1.088778	0.848688	-0.414688	-1.259043	0.875038	-0.235190	-1.262392	0.892079	-0.321201	-1.034464	0.649409	-0.117914	-0.996769	0.692078	-0.145302	-1.001345	0.612403	-0.118703	-0.959652	0.654680	-0.144234	-0.896785	0.451050	-0.150143	-0.882829	0.451492	-0.275169	-0.995739	0.378940	-0.144450	-0.949301	0.347454	-0.161399	-1.036511	0.331044	-0.156124	-0.993062	0.301834	-0.171523	-1.138922	0.194858	-0.193306	-1.133368	0.193603	-0.277751	-1.105010	0.079150	-0.155726	-1.091967	0.067930	-0.269807	-1.029132	0.053709	-0.209281	-1.220739	0.198014	-0.254605	-1.183563	0.652778	-0.490944	-1.127613	0.664987	-0.496315	-1.178370	0.602614	-0.492879	-1.122400	0.620315	-0.502642	-1.151489	0.368659	-0.492411	-1.112630	0.359776	-0.386610	-1.250983	0.284938	-0.479797	-1.206100	0.262298	-0.479150	-1.276525	0.244787	-0.464385	-1.234127	0.223798	-0.462591	-1.365171	0.088856	-0.401826	-1.333550	0.093890	-0.324104	-1.307580	-0.000933	-0.459346	-1.248132	0.000328	-0.355003	-1.201184	0.014506	-0.424974	-1.442982	0.063575	-0.331742	-0.959519	1.305787	-0.154501	-0.916583	1.266704	-0.469039	
26	0.1250	-1.047772	0.829822	-0.179730	-1.065630	0.848604	-0.414744	-1.237559	0.875470	-0.236979	-1.239978	0.892486	-0.323007	-1.010425	0.653440	-0.119040	-0.973676	0.697076	-0.146565	-0.976367	0.617087	-0.120101	-0.935680	0.660477	-0.145791	-0.867503	0.457597	-0.152368	-0.854063	0.458904	-0.277106	-0.962237	0.379255	-0.146235	-0.914356	0.350839	-0.163676	-1.000052	0.329109	-0.157865	-0.955180	0.302821	-0.173639	-1.094143	0.187396	-0.195166	-1.088975	0.186934	-0.279684	-1.052302	0.073959	-0.157844	-1.038837	0.064405	-0.272171	-0.974968	0.054246	-0.211941	-1.176457	0.185294	-0.256247	-1.164019	0.652869	-0.490819	-1.107829	0.663578	-0.495648	-1.160321	0.602692	-0.492608	-1.103941	0.618755	-0.501750	-1.141612	0.368161	-0.491460	-1.103017	0.358390	-0.385496	-1.243249	0.286812	-0.479803	-1.198877	0.263047	-0.478872	-1.269814	0.247223	-0.464635	-1.227932	0.225163	-0.462700	-1.362377	0.092431	-0.403543	-1.331136	0.096739	-0.325631	-1.307934	-0.000385	-0.459738	-1.249551	0.000517	-0.355282	-1.202328	0.014217	-0.425092	-1.440969	0.068981	-0.333951	-0.941239	1.307989	-0.153020	-0.893528	1.268986	-0.466335	
27	0.1300	-1.026507	0.831637	-0.179457	-1.042174	0.848751	-0.414611	-1.215927	0.876139	-0.238826	-1.217327	0.893125	-0.324881	-0.986697	0.657434	-0.120052	-0.950783	0.701902	-0.147670	-0.951833	0.621657	-0.121376	-0.912048	0.666015	-0.147167	-0.839190	0.463850	-0.154444	-0.826192	0.465973	-0.278829	-0.929563	0.379351	-0.147942	-0.880309	0.354082	-0.165841	-0.964301	0.327021	-0.159587	-0.918067	0.303731	-0.175692	-1.049769	0.180023	-0.197121	-1.044930	0.180360	-0.281695	-1.000201	0.069132	-0.160073	-0.986211	0.061259	-0.274624	-0.921588	0.055203	-0.214647	-1.132278	0.172677	-0.258083	-1.144103	0.653188	-0.490621	-1.087683	0.662382	-0.494789	-1.141907	0.603016	-0.492235	-1.085122	0.617429	-0.500644	-1.131403	0.368067	-0.490315	-1.093133	0.357440	-0.384160	-1.235099	0.289128	-0.479753	-1.191277	0.264265	-0.478499	-1.262666	0.250114	-0.464867	-1.221321	0.227000	-0.462760	-1.359043	0.096463	-0.405454	-1.328281	0.100034	-0.327351	-1.308154	0.000521	-0.460154	-1.250993	0.000964	-0.355553	-1.203554	0.013978	-0.425212	-1.438306	0.075122	-0.336422	-0.922972	1.310400	-0.151506	-0.870619	1.271598	-0.463555	
28	0.1350	-1.005193	0.833761	-0.179050	-1.018454	0.849130	-0.414296	-1.194165	0.877032	-0.240701	-1.194470	0.893989	-0.326794	-0.963288	0.661326	-0.120945	-0.928088	0.706495	-0.148608	-0.927750	0.626041	-0.122521	-0.888752	0.671221	-0.148350	-0.811859	0.469717	-0.156365	-0.799220	0.472610	-0.280336	-0.897774	0.379203	-0.149572	-0.847228	0.357124	-0.167885	-0.929346	0.324780	-0.161290	-0.881825	0.304531	-0.177676	-1.005973	0.172792	-0.199171	-1.001399	0.173924	-0.283784	-0.948945	0.064698	-0.162400	-0.934337	0.058495	-0.277146	-0.869233	0.056545	-0.217375	-1.088380	0.160272	-0.260117	-1.123828	0.653726	-0.490357	-1.067187	0.661404	-0.493760	-1.123125	0.603575	-0.491770	-1.065943	0.616337	-0.499346	-1.120777	0.368360	-0.489008	-1.082894	0.356908	-0.382632	-1.226446	0.291867	-0.479661	-1.183213	0.265940	-0.478052	-1.254992	0.253446	-0.465091	-1.214209	0.229296	-0.462780	-1.355091	0.100962	-0.407545	-1.324902	0.103788	-0.329249	-1.308177	0.001836	-0.460591	-1.252388	0.001711	-0.355810	-1.204807	0.013799	-0.425328	-1.434894	0.082020	-0.339135	-0.904721	1.312986	-0.149962	-0.847881	1.274504	-0.460722	
29	0.1400	-0.983843	0.836163	-0.178523	-0.994516	0.849740	-0.413806	-1.172291	0.878131	-0.242574	-1.171437	0.895067	-0.328712	-0.940200	0.665056	-0.121713	-0.905585	0.710794	-0.149372	-0.904121	0.630173	-0.123527	-0.865784	0.676031	-0.149331	-0.785509	0.475116	-0.158123	-0.773140	0.478738	-0.281628	-0.866916	0.378792	-0.151128	-0.815170	0.359909	-0.169804	-0.895268	0.322386	-0.162975	-0.846544	0.305188	-0.179585	-0.962930	0.165747	-0.201312	-0.958552	0.167667	-0.285949	-0.898771	0.060675	-0.164806	-0.883461	0.056103	-0.279721	-0.818140	0.058225	-0.220104	-1.044948	0.148178	-0.262351	-1.103204	0.654467	-0.490032	-1.046356	0.660643	-0.492580	-1.103972	0.604348	-0.491226	-1.046403	0.615479	-0.497884	-1.109645	0.369014	-0.487573	-1.072214	0.356769	-0.380947	-1.217198	0.295005	-0.479548	-1.174597	0.268048	-0.477551	-1.246701	0.257196	-0.465319	-1.206507	0.232029	-0.462772	-1.350441	0.105936	-0.409797	-1.320914	0.108013	-0.331310	-1.307929	0.003608	-0.461045	-1.253654	0.002803	-0.356052	-1.206022	0.013693	-0.425433	-1.430631	0.089687	-0.342068	-0.886487	1.315708	-0.148389	-0.825336	1.277664	-0.457858	
30	0.1450	-0.962469	0.838803	-0.177893	-0.970406	0.850573	-0.413150	-1.150322	0.879414	-0.244417	-1.148259	0.896343	-0.330606	-0.917433	0.668566	-0.122350	-0.883266	0.714746	-0.149958	-0.880942	0.633991	-0.124389	-0.843131	0.680386	-0.150105	-0.760125	0.479975	-0.159716	-0.747932	0.484287	-0.282709	-0.837026	0.378101	-0.152614	-0.784178	0.362385	-0.171593	-0.862141	0.319843	-0.164643	-0.812308	0.305670	-0.181414	-0.920813	0.158930	-0.203540	-0.916560	0.161621	-0.288185	-0.849908	0.057071	-0.167274	-0.833824	0.054064	-0.282326	-0.768533	0.060183	-0.222809	-1.002174	0.136490	-0.264780	-1.082243	0.655394	-0.489656	-1.025203	0.660096	-0.491275	-1.084444	0.605314	-0.490616	-1.026502	0.614846	-0.496284	-1.097919	0.369993	-0.486046	-1.060998	0.356987	-0.379143	-1.207265	0.298509	-0.479430	-1.165339	0.270557	-0.477016	-1.237704	0.261332	-0.465561	-1.198125	0.235168	-0.462748	-1.345012	0.111385	-0.412186	-1.316228	0.112713	-0.333512	-1.307325	0.005882	-0.461512	-1.254695	0.004282	-0.356276	-1.207115	0.013678	-0.425522	-1.425418	0.098121	-0.345192	-0.868266	1.318528	-0.146788	-0.803001	1.281034	-0.454984	
31	0.1500	-0.941081	0.841639	-0.177173	-0.946173	0.851615	-0.412342	-1.128276	0.880858	-0.246201	-1.124967	0.897797	-0.332443	-0.894982	0.671802	-0.122854	-0.861123	0.718304	-0.150362	-0.858202	0.637438	-0.125103	-0.820779	0.684236	-0.150666	-0.735681	0.484234	-0.161144	-0.723568	0.489202	-0.283588	-0.808133	0.377124	-0.154033	-0.754285	0.364506	-0.173251	-0.830032	0.317157	-0.166292	-0.779187	0.305949	-0.183162	-0.879793	0.152373	-0.205847	-0.875589	0.155813	-0.290486	-0.802577	0.053882	-0.169784	-0.785659	0.052345	-0.284942	-0.720623	0.062351	-0.225470	-0.960255	0.125292	-0.267394	-1.060955	0.656482	-0.489235	-1.003741	0.659755	-0.489869	-1.064535	0.606446	-0.489954	-1.006238	0.614429	-0.494578	-1.085507	0.371255	-0.484464	-1.049154	0.357520	-0.377259	-1.196553	0.302338	-0.479325	-1.155348	0.273428	-0.476470	-1.227906	0.265816	-0.465827	-1.188973	0.238678	-0.462717	-1.338724	0.117303	-0.414687	-1.310754	0.117886	-0.335831	-1.306268	0.008698	-0.461989	-1.255402	0.006187	-0.356480	-1.207988	0.013777	-0.425590	-1.419157	0.107308	-0.348475	-0.850053	1.321402	-0.145161	-0.780887	1.284569	-0.452123	
32	0.1550	-0.919687	0.844625	-0.176378	-0.921860	0.852849	-0.411393	-1.106167	0.882438	-0.247898	-1.101592	0.899406	-0.334196	-0.872837	0.674717	-0.123225	-0.839146	0.721427	-0.150581	-0.835887	0.640468	-0.125669	-0.798711	0.687539	-0.151014	-0.712138	0.487844	-0.162408	-0.700010	0.493440	-0.284274	-0.780253	0.375855	-0.155388	-0.725511	0.366234	-0.174779	-0.798999	0.314336	-0.167922	-0.747243	0.305998	-0.184825	-0.840034	0.146106	-0.208223	-0.835805	0.150265	-0.292845	-0.756987	0.051094	-0.172315	-0.739188	0.050906	-0.287549	-0.674604	0.064652	-0.228064	-0.919386	0.114658	-0.270181	-1.039350	0.657704	-0.488776	-0.981979	0.659609	-0.488386	-1.044239	0.607712	-0.489254	-0.985606	0.614215	-0.492794	-1.072317	0.372754	-0.482864	-1.036584	0.358320	-0.375334	-1.184972	0.306446	-0.479251	-1.144531	0.276617	-0.475932	-1.217215	0.270603	-0.466127	-1.178960	0.242515	-0.462691	-1.331497	0.123675	-0.417271	-1.304400	0.123525	-0.338240	-1.304652	0.012088	-0.462473	-1.255653	0.008556	-0.356664	-1.208530	0.014014	-0.425633	-1.411752	0.117222	-0.351879	-0.831838	1.324287	-0.143506	-0.759000	1.288219	-0.449296	
33	0.1600	-0.898294	0.847710	-0.175522	-0.897512	0.854255	-0.410317	-1.084011	0.884125	-0.249486	-1.078162	0.901144	-0.335837	-0.850989	0.677271	-0.123462	-0.817325	0.724083	-0.150617	-0.813979	0.643042	-0.126087	-0.776907	0.690265	-0.151149	-0.689450	0.490770	-0.163512	-0.677212	0.496969	-0.284781	-0.753397	0.374298	-0.156683	-0.697865	0.367536	-0.176177	-0.769091	0.311390	-0.169531	-0.716526	0.305795	-0.186404	-0.801693	0.140150	-0.210656	-0.797365	0.144992	-0.295252	-0.713330	0.048684	-0.174848	-0.694616	0.049700	-0.290127	-0.630650	0.067005	-0.230575	-0.879761	0.104652	-0.273121	-1.017434	0.659032	-0.488288	-0.959925	0.659644	-0.486851	-1.023547	0.609079	-0.488530	-0.964600	0.614187	-0.490962	-1.058258	0.374438	-0.481281	-1.023191	0.359334	-0.373407	-1.172431	0.310782	-0.479223	-1.132797	0.280072	-0.475421	-1.205543	0.275643	-0.466469	-1.167997	0.246631	-0.462677	-1.323248	0.130482	-0.419906	-1.297076	0.129611	-0.340711	-1.302357	0.016074	-0.462959	-1.255311	0.011417	-0.356829	-1.208609	0.014417	-0.425648	-1.403113	0.127819	-0.355366	-0.813607	1.327140	-0.141823	-0.737339	1.291938	-0.446523	
34	0.1650	-0.876905	0.850846	-0.174618	-0.873167	0.855807	-0.409130	-1.061820	0.885893	-0.250942	-1.054704	0.902983	-0.337344	-0.829422	0.679430	-0.123567	-0.795649	0.726247	-0.150471	-0.792454	0.645129	-0.126360	-0.755349	0.692392	-0.151075	-0.667565	0.492989	-0.164462	-0.655126	0.499772	-0.285123	-0.727567	0.372461	-0.157920	-0.671348	0.368387	-0.177450	-0.740349	0.308332	-0.171116	-0.687076	0.305321	-0.187899	-0.764917	0.134521	-0.213135	-0.760417	0.140003	-0.297697	-0.671779	0.046625	-0.177363	-0.652131	0.048673	-0.292656	-0.588914	0.069326	-0.232987	-0.841566	0.095324	-0.276191	-0.995210	0.660434	-0.487777	-0.937585	0.659845	-0.485285	-1.002447	0.610512	-0.487796	-0.943212	0.614327	-0.489112	-1.043243	0.376255	-0.479748	-1.008880	0.360508	-0.371517	-1.158843	0.315291	-0.479255	-1.120058	0.283738	-0.474953	-1.192800	0.280880	-0.466858	-1.155997	0.250974	-0.462685	-1.313899	0.137695	-0.422563	-1.288687	0.136123	-0.343214	-1.299254	0.020667	-0.463444	-1.254231	0.014789	-0.356976	-1.208083	0.015011	-0.425634	-1.393155	0.139043	-0.358896	-0.795342	1.329919	-0.140112	-0.715900	1.295678	-0.443825	
35	0.1700	-0.855523	0.853982	-0.173676	-0.848861	0.857479	-0.407844	-1.039606	0.887712	-0.252249	-1.031242	0.904892	-0.338698	-0.808122	0.681170	-0.123544	-0.774107	0.727903	-0.150147	-0.771290	0.646711	-0.126492	-0.734016	0.693910	-0.150797	-0.646424	0.494493	-0.165263	-0.633697	0.501843	-0.285315	-0.702756	0.370356	-0.159101	-0.645950	0.368770	-0.178602	-0.712804	0.305177	-0.172673	-0.658922	0.304561	-0.189310	-0.729839	0.129229	-0.215644	-0.725097	0.135304	-0.300167	-0.632489	0.044881	-0.179842	-0.611898	0.047769	-0.295120	-0.549527	0.071532	-0.235285	-0.804977	0.086713	-0.279368	-0.972679	0.661877	-0.487250	-0.914959	0.660195	-0.483711	-0.980925	0.611977	-0.487062	-0.921429	0.614618	-0.487269	-1.027186	0.378149	-0.478296	-0.993558	0.361786	-0.369695	-1.144123	0.319916	-0.479358	-1.106225	0.287561	-0.474541	-1.178903	0.286258	-0.467300	-1.142874	0.255489	-0.462720	-1.303370	0.145276	-0.425207	-1.279143	0.143026	-0.345717	-1.295207	0.025866	-0.463927	-1.252255	0.018684	-0.357108	-1.206792	0.015824	-0.425592	-1.381801	0.150824	-0.362426	-0.777024	1.332583	-0.138371	-0.694672	1.299393	-0.441218	
36	0.1750	-0.834145	0.857069	-0.172703	-0.824623	0.859241	-0.406474	-1.017376	0.889555	-0.253393	-1.007797	0.906841	-0.339881	-0.787070	0.682475	-0.123397	-0.752691	0.729046	-0.149648	-0.750458	0.647777	-0.126489	-0.712890	0.694820	-0.150323	-0.625967	0.495283	-0.165924	-0.612870	0.503188	-0.285373	-0.678953	0.368002	-0.160226	-0.621652	0.368676	-0.179637	-0.686480	0.301941	-0.174198	-0.632082	0.303507	-0.190640	-0.696579	0.124280	-0.218170	-0.691529	0.130895	-0.302650	-0.595587	0.043413	-0.182268	-0.574061	0.046932	-0.297503	-0.512595	0.073544	-0.237460	-0.770157	0.078848	-0.282622	-0.949837	0.663332	-0.486712	-0.892046	0.660677	-0.482145	-0.958966	0.613440	-0.486341	-0.899239	0.615040	-0.485457	-1.010007	0.380071	-0.476949	-0.977133	0.363117	-0.367973	-1.128193	0.324601	-0.479540	-1.091214	0.291480	-0.474198	-1.163769	0.291719	-0.467796	-1.128547	0.260121	-0.462787	-1.291583	0.153181	-0.427809	-1.268353	0.150279	-0.348190	-1.290069	0.031658	-0.464407	-1.249220	0.023099	-0.357230	-1.204564	0.016879	-0.425523	-1.368977	0.163077	-0.365916	-0.758629	1.335096	-0.136600	-0.673641	1.303038	-0.438719	
37	0.1800	-0.812770	0.860061	-0.171706	-0.800476	0.861064	-0.405032	-0.995137	0.891395	-0.254363	-0.984385	0.908795	-0.340884	-0.766249	0.683338	-0.123131	-0.731390	0.729675	-0.148982	-0.729932	0.648328	-0.126359	-0.691951	0.695129	-0.149661	-0.606130	0.495375	-0.166453	-0.592589	0.503824	-0.285311	-0.656140	0.365420	-0.161296	-0.598429	0.368104	-0.180563	-0.661390	0.298644	-0.175686	-0.606564	0.302155	-0.191890	-0.665239	0.119676	-0.220696	-0.659818	0.126776	-0.305133	-0.561179	0.042181	-0.184625	-0.538735	0.046106	-0.299793	-0.478197	0.075289	-0.239505	-0.737252	0.071745	-0.285925	-0.926679	0.664768	-0.486167	-0.868838	0.661273	-0.480603	-0.936550	0.614868	-0.485641	-0.876623	0.615578	-0.483696	-0.991629	0.381972	-0.475728	-0.959521	0.364450	-0.366375	-1.110978	0.329290	-0.479807	-1.074944	0.295441	-0.473928	-1.147325	0.297203	-0.468347	-1.112938	0.264815	-0.462887	-1.278461	0.161358	-0.430337	-1.256228	0.157835	-0.350605	-1.283688	0.038012	-0.464882	-1.244952	0.028019	-0.357347	-1.201216	0.018196	-0.425431	-1.354621	0.175707	-0.369324	-0.740127	1.337424	-0.134796	-0.652788	1.306573	-0.436341	
38	0.1850	-0.791390	0.862917	-0.170688	-0.776436	0.862917	-0.403531	-0.972890	0.893207	-0.255152	-0.961017	0.910725	-0.341699	-0.745637	0.683760	-0.122751	-0.710195	0.729801	-0.148155	-0.709683	0.648372	-0.126109	-0.671182	0.694858	-0.148823	-0.586853	0.494795	-0.166857	-0.572802	0.503778	-0.285144	-0.634294	0.362635	-0.162308	-0.576252	0.367060	-0.181383	-0.637539	0.295304	-0.177130	-0.582367	0.300504	-0.193062	-0.635900	0.115414	-0.223207	-0.630054	0.122940	-0.307603	-0.529342	0.041142	-0.186900	-0.506010	0.045240	-0.301976	-0.446386	0.076702	-0.241413	-0.706388	0.065408	-0.289245	-0.903193	0.666157	-0.485619	-0.845325	0.661969	-0.479096	-0.913656	0.616233	-0.484969	-0.853562	0.616215	-0.482001	-0.971985	0.383809	-0.474647	-0.940644	0.365745	-0.364919	-1.092411	0.333930	-0.480159	-1.057342	0.299389	-0.473736	-1.129500	0.302653	-0.468950	-1.095972	0.269517	-0.463022	-1.263930	0.169746	-0.432762	-1.242683	0.165635	-0.352931	-1.275906	0.044887	-0.465354	-1.239278	0.033416	-0.357465	-1.196558	0.019790	-0.425322	-1.338678	0.188603	-0.372613	-0.721491	1.339538	-0.132960	-0.632089	1.309963	-0.434097	
39	0.1900	-0.769997	0.865599	-0.169650	-0.752514	0.864770	-0.401980	-0.950636	0.894967	-0.255759	-0.937702	0.912600	-0.342322	-0.725216	0.683752	-0.122265	-0.689097	0.729442	-0.147176	-0.689683	0.647929	-0.125746	-0.650566	0.694031	-0.147819	-0.568078	0.493578	-0.167144	-0.553455	0.503085	-0.284885	-0.613389	0.359678	-0.163262	-0.555084	0.365558	-0.182105	-0.614924	0.291943	-0.178524	-0.559480	0.298561	-0.194159	-0.608625	0.111491	-0.225688	-0.602304	0.119382	-0.310046	-0.500123	0.040257	-0.189082	-0.475944	0.044288	-0.304046	-0.417191	0.077731	-0.243183	-0.677666	0.059834	-0.292551	-0.879365	0.667476	-0.485068	-0.821495	0.662751	-0.477631	-0.890262	0.617511	-0.484329	-0.830036	0.616938	-0.480384	-0.951012	0.385548	-0.473713	-0.920430	0.366967	-0.363617	-1.072431	0.338471	-0.480594	-1.038336	0.303275	-0.473620	-1.110231	0.308015	-0.469599	-1.077582	0.274175	-0.463188	-1.247918	0.178278	-0.435059	-1.227634	0.173615	-0.355144	-1.266566	0.052224	-0.465825	-1.232022	0.039248	-0.357591	-1.190393	0.021669	-0.425202	-1.321100	0.201648	-0.375747	-0.702686	1.341414	-0.131091	-0.611518	1.313174	-0.431994	
40	0.1950	-0.748579	0.868076	-0.168590	-0.728711	0.866597	-0.400389	-0.928369	0.896656	-0.256184	-0.914442	0.914390	-0.342756	-0.704964	0.683331	-0.121678	-0.668088	0.728621	-0.146052	-0.669903	0.647025	-0.125281	-0.630087	0.692684	-0.146662	-0.549748	0.491766	-0.167321	-0.534502	0.501785	-0.284546	-0.593393	0.356578	-0.164152	-0.534888	0.363619	-0.182732	-0.593533	0.288582	-0.179861	-0.537883	0.296338	-0.195183	-0.583455	0.107900	-0.228123	-0.576614	0.116095	-0.312449	-0.473544	0.039487	-0.191161	-0.448566	0.043212	-0.305994	-0.390610	0.078335	-0.244814	-0.651163	0.055007	-0.295814	-0.855178	0.668704	-0.484516	-0.797330	0.663608	-0.476213	-0.866343	0.618683	-0.483723	-0.806021	0.617740	-0.478852	-0.928660	0.387162	-0.472928	-0.898820	0.368090	-0.362474	-1.050986	0.342869	-0.481105	-1.017866	0.307053	-0.473574	-1.089465	0.313238	-0.470286	-1.057708	0.278743	-0.463380	-1.230357	0.186882	-0.437205	-1.211005	0.181705	-0.357220	-1.255510	0.059951	-0.466295	-1.223009	0.045458	-0.357732	-1.182521	0.023835	-0.425080	-1.301851	0.214713	-0.378695	-0.683678	1.343034	-0.129189	-0.591048	1.316182	-0.430041	
41	0.2000	-0.727123	0.870322	-0.167505	-0.705024	0.868370	-0.398765	-0.906083	0.898255	-0.256432	-0.891233	0.916069	-0.343005	-0.684861	0.682522	-0.120996	-0.647159	0.727369	-0.144794	-0.650317	0.645694	-0.124720	-0.609732	0.690855	-0.145364	-0.531815	0.489410	-0.167395	-0.515900	0.499926	-0.284133	-0.574276	0.353368	-0.164976	-0.515622	0.361268	-0.183268	-0.573346	0.285245	-0.181132	-0.517551	0.293850	-0.196134	-0.560408	0.104634	-0.230498	-0.553009	0.113072	-0.314799	-0.449596	0.038797	-0.193129	-0.423877	0.041981	-0.307816	-0.366620	0.078487	-0.246310	-0.626931	0.050906	-0.299004	-0.830615	0.669826	-0.483959	-0.772814	0.664531	-0.474842	-0.841875	0.619737	-0.483149	-0.781495	0.618613	-0.477406	-0.904885	0.388633	-0.472284	-0.875762	0.369100	-0.361485	-1.028033	0.347085	-0.481679	-0.995877	0.310686	-0.473587	-1.067155	0.318277	-0.471001	-1.036295	0.283179	-0.463589	-1.211183	0.195478	-0.439177	-1.192725	0.189826	-0.359137	-1.242583	0.067986	-0.466769	-1.212073	0.051976	-0.357897	-1.172747	0.026280	-0.424964	-1.280902	0.227666	-0.381427	-0.664432	1.344387	-0.127256	-0.570647	1.318965	-0.428241	
42	0.2050	-0.705611	0.872319	-0.166388	-0.681441	0.870068	-0.397114	-0.883768	0.899752	-0.256510	-0.868069	0.917614	-0.343077	-0.664887	0.681357	-0.120228	-0.626302	0.725720	-0.143411	-0.630900	0.643976	-0.124072	-0.589488	0.688590	-0.143938	-0.514236	0.486565	-0.167370	-0.497611	0.497560	-0.283655	-0.556003	0.350082	-0.165728	-0.497245	0.358540	-0.183718	-0.554338	0.281953	-0.182330	-0.498448	0.291119	-0.197013	-0.539478	0.101684	-0.232799	-0.531491	0.110306	-0.317083	-0.428243	0.038158	-0.194982	-0.401845	0.040577	-0.309510	-0.345170	0.078174	-0.247672	-0.604989	0.047504	-0.302096	-0.805654	0.670834	-0.483394	-0.747926	0.665517	-0.473513	-0.816835	0.620663	-0.482602	-0.756437	0.619556	-0.476044	-0.879658	0.389954	-0.471768	-0.851221	0.369993	-0.360641	-1.003540	0.351090	-0.482301	-0.972326	0.314143	-0.473646	-1.043267	0.323091	-0.471728	-1.013298	0.287446	-0.463805	-1.190339	0.203984	-0.440960	-1.172730	0.197898	-0.360877	-1.227640	0.076233	-0.467247	-1.199054	0.058719	-0.358092	-1.160880	0.028990	-0.424864	-1.258236	0.240368	-0.383921	-0.644912	1.345468	-0.125295	-0.550285	1.321509	-0.426595	
43	0.2100	-0.684028	0.874056	-0.165234	-0.657946	0.871670	-0.395441	-0.861409	0.901136	-0.256428	-0.844939	0.919006	-0.342982	-0.645021	0.679873	-0.119378	-0.605510	0.723713	-0.141914	-0.611627	0.641916	-0.123343	-0.569345	0.685935	-0.142397	-0.496974	0.483288	-0.167250	-0.479605	0.494738	-0.283114	-0.538538	0.346753	-0.166404	-0.479713	0.355470	-0.184081	-0.536474	0.278731	-0.183447	-0.480535	0.288170	-0.197820	-0.520638	0.099043	-0.235014	-0.512037	0.107793	-0.319290	-0.409423	0.037545	-0.196716	-0.382413	0.038987	-0.311074	-0.326187	0.077399	-0.248907	-0.585333	0.044766	-0.305064	-0.780276	0.671721	-0.482816	-0.722648	0.666564	-0.472220	-0.791202	0.621464	-0.482076	-0.730826	0.620572	-0.474757	-0.852960	0.391129	-0.471361	-0.825173	0.370776	-0.359922	-0.977488	0.354857	-0.482951	-0.947180	0.317402	-0.473731	-1.017776	0.327648	-0.472450	-0.988685	0.291516	-0.464015	-1.167775	0.212316	-0.442540	-1.150965	0.205836	-0.362426	-1.210545	0.084587	-0.467734	-1.183807	0.065597	-0.358324	-1.146741	0.031940	-0.424786	-1.233846	0.252679	-0.386158	-0.625084	1.346278	-0.123309	-0.529931	1.323804	-0.425104	
44	0.2150	-0.662354	0.875527	-0.164033	-0.634520	0.873161	-0.393749	-0.838994	0.902400	-0.256197	-0.821829	0.920230	-0.342734	-0.625247	0.678110	-0.118453	-0.584775	0.721391	-0.140310	-0.592479	0.639561	-0.122542	-0.549295	0.682942	-0.140752	-0.480000	0.479642	-0.167038	-0.461858	0.491517	-0.282512	-0.521847	0.343416	-0.166997	-0.462986	0.352099	-0.184360	-0.519715	0.275599	-0.184476	-0.463765	0.285032	-0.198553	-0.503839	0.096703	-0.237131	-0.494604	0.105527	-0.321408	-0.393045	0.036937	-0.198330	-0.365493	0.037213	-0.312509	-0.309575	0.076178	-0.250020	-0.567926	0.042654	-0.307887	-0.754464	0.672492	-0.482217	-0.696964	0.667674	-0.470954	-0.764959	0.622144	-0.481561	-0.704647	0.621667	-0.473535	-0.824789	0.392170	-0.471038	-0.797610	0.371469	-0.359306	-0.949869	0.358372	-0.483607	-0.920421	0.320447	-0.473821	-0.990672	0.331919	-0.473150	-0.962432	0.295363	-0.464201	-1.143451	0.220387	-0.443905	-1.127388	0.213552	-0.363771	-1.191176	0.092938	-0.468231	-1.166203	0.072508	-0.358597	-1.130166	0.035098	-0.424740	-1.207734	0.264461	-0.388123	-0.604916	1.346827	-0.121303	-0.509556	1.325848	-0.423765	
45	0.2200	-0.640572	0.876735	-0.162778	-0.611138	0.874530	-0.392040	-0.816505	0.903542	-0.255831	-0.798722	0.921274	-0.342346	-0.605547	0.676112	-0.117459	-0.564091	0.718796	-0.138611	-0.573439	0.636963	-0.121672	-0.529330	0.679661	-0.139016	-0.463295	0.475687	-0.166735	-0.444353	0.487950	-0.281848	-0.505895	0.340101	-0.167501	-0.447023	0.348473	-0.184554	-0.504017	0.272581	-0.185409	-0.448089	0.281737	-0.199211	-0.489009	0.094657	-0.239140	-0.479125	0.103507	-0.323427	-0.378999	0.036323	-0.199824	-0.350976	0.035264	-0.313818	-0.295221	0.074541	-0.251017	-0.552706	0.041130	-0.310548	-0.728202	0.673152	-0.481590	-0.670859	0.668853	-0.469701	-0.738094	0.622717	-0.481044	-0.677891	0.622852	-0.472362	-0.795156	0.393101	-0.470767	-0.768543	0.372099	-0.358761	-0.920691	0.361625	-0.484240	-0.892042	0.323273	-0.473890	-0.961958	0.335886	-0.473805	-0.934531	0.298972	-0.464347	-1.117338	0.228111	-0.445049	-1.101970	0.220961	-0.364904	-1.169434	0.101172	-0.468738	-1.146133	0.079346	-0.358914	-1.111013	0.038423	-0.424732	-1.179918	0.275578	-0.389807	-0.584379	1.347128	-0.119283	-0.489135	1.327645	-0.422573	
46	0.2250	-0.618665	0.877688	-0.161460	-0.587778	0.875769	-0.390317	-0.793928	0.904561	-0.255342	-0.775601	0.922133	-0.341834	-0.585909	0.673925	-0.116401	-0.543455	0.715973	-0.136825	-0.554493	0.634173	-0.120740	-0.509448	0.676143	-0.137198	-0.446847	0.471484	-0.166342	-0.427079	0.484091	-0.281118	-0.490647	0.336841	-0.167913	-0.431785	0.344636	-0.184661	-0.489332	0.269697	-0.186239	-0.433453	0.278320	-0.199790	-0.476059	0.092899	-0.241033	-0.465517	0.101731	-0.325338	-0.367153	0.035692	-0.201200	-0.338728	0.033157	-0.315005	-0.282993	0.072527	-0.251907	-0.539585	0.040149	-0.313033	-0.701482	0.673715	-0.480924	-0.644327	0.670111	-0.468449	-0.710603	0.623200	-0.480511	-0.650553	0.624138	-0.471221	-0.764089	0.393952	-0.470514	-0.738000	0.372704	-0.358252	-0.889979	0.364613	-0.484824	-0.862057	0.325882	-0.473913	-0.931653	0.339534	-0.474393	-0.904990	0.302332	-0.464432	-1.089420	0.235403	-0.445967	-1.074695	0.227977	-0.365817	-1.145237	0.109172	-0.469256	-1.123513	0.086002	-0.359278	-1.089165	0.041870	-0.424767	-1.150425	0.285902	-0.391203	-0.563450	1.347202	-0.117258	-0.468644	1.329202	-0.421522	
47	0.2300	-0.596618	0.878398	-0.160072	-0.564415	0.876874	-0.388579	-0.771249	0.905463	-0.254747	-0.752450	0.922806	-0.341213	-0.566323	0.671596	-0.115283	-0.522864	0.712965	-0.134962	-0.535632	0.631243	-0.119750	-0.489648	0.672438	-0.135309	-0.430651	0.467095	-0.165859	-0.410035	0.479993	-0.280319	-0.476071	0.333664	-0.168226	-0.417237	0.340637	-0.184680	-0.475606	0.266966	-0.186962	-0.419802	0.274817	-0.200289	-0.464883	0.091422	-0.242802	-0.453675	0.100199	-0.327134	-0.357357	0.035041	-0.202460	-0.328599	0.030918	-0.316072	-0.272745	0.070187	-0.252694	-0.528452	0.039670	-0.315331	-0.674300	0.674198	-0.480210	-0.617366	0.671459	-0.467182	-0.682489	0.623616	-0.479948	-0.622641	0.625542	-0.470092	-0.731636	0.394763	-0.470243	-0.706029	0.373330	-0.357741	-0.857773	0.367341	-0.485326	-0.830494	0.328282	-0.473861	-0.899796	0.342858	-0.474889	-0.873833	0.305440	-0.464435	-1.059701	0.242184	-0.446657	-1.045567	0.234520	-0.366506	-1.118535	0.116824	-0.469781	-1.098289	0.092367	-0.359685	-1.064536	0.045386	-0.424846	-1.119299	0.295314	-0.392312	-0.542113	1.347076	-0.115236	-0.448066	1.330533	-0.420605	
48	0.2350	-0.574422	0.878885	-0.158606	-0.541030	0.877847	-0.386827	-0.748457	0.906253	-0.254057	-0.729255	0.923297	-0.340498	-0.546783	0.669171	-0.114111	-0.502319	0.709817	-0.133031	-0.516851	0.628224	-0.118704	-0.469934	0.668594	-0.133359	-0.414712	0.462576	-0.165285	-0.393224	0.475705	-0.279444	-0.462136	0.330597	-0.168438	-0.403346	0.336523	-0.184608	-0.462786	0.264406	-0.187573	-0.407078	0.271268	-0.200702	-0.455357	0.090223	-0.244441	-0.443482	0.098913	-0.328807	-0.349447	0.034372	-0.203608	-0.320420	0.028579	-0.317027	-0.264323	0.067580	-0.253388	-0.519176	0.039649	-0.317435	-0.646664	0.674623	-0.479436	-0.589984	0.672909	-0.465886	-0.653770	0.623994	-0.479336	-0.594172	0.627082	-0.468955	-0.697861	0.395576	-0.469914	-0.672699	0.374026	-0.357188	-0.824135	0.369821	-0.485717	-0.797404	0.330489	-0.473705	-0.866441	0.345857	-0.475269	-0.841105	0.308297	-0.464336	-1.028199	0.248380	-0.447119	-1.014610	0.240513	-0.366971	-1.089306	0.124020	-0.470310	-1.070437	0.098335	-0.360134	-1.037075	0.048915	-0.424968	-1.086597	0.303705	-0.393135	-0.520360	1.346779	-0.113227	-0.427393	1.331658	-0.419813	
49	0.2400	-0.552071	0.879170	-0.157056	-0.517605	0.878692	-0.385061	-0.725546	0.906942	-0.253287	-0.706005	0.923614	-0.339703	-0.527288	0.666695	-0.112888	-0.481826	0.706567	-0.131038	-0.498154	0.625162	-0.117606	-0.450315	0.664656	-0.131354	-0.399039	0.457982	-0.164619	-0.376658	0.471275	-0.278488	-0.448816	0.327665	-0.168545	-0.390082	0.332344	-0.184443	-0.450816	0.262033	-0.188069	-0.395223	0.267709	-0.201027	-0.447349	0.089295	-0.245947	-0.434807	0.097874	-0.330351	-0.343248	0.033689	-0.204649	-0.314012	0.026176	-0.317875	-0.257560	0.064770	-0.253995	-0.511610	0.040045	-0.319341	-0.618592	0.675014	-0.478592	-0.562201	0.674477	-0.464546	-0.624472	0.624363	-0.478661	-0.565173	0.628774	-0.467789	-0.662852	0.396440	-0.469489	-0.638099	0.374845	-0.356552	-0.789144	0.372066	-0.485964	-0.762859	0.332523	-0.473417	-0.831665	0.348537	-0.475509	-0.806869	0.310911	-0.464111	-0.994958	0.253924	-0.447357	-0.981871	0.245890	-0.367213	-1.057562	0.130658	-0.470837	-1.039967	0.103808	-0.360616	-1.006770	0.052400	-0.425131	-1.052393	0.310982	-0.393679	-0.498193	1.346346	-0.111243	-0.406620	1.332596	-0.419136	
50	0.2450	-0.529568	0.879279	-0.155420	-0.494132	0.879417	-0.383281	-0.702518	0.907541	-0.252449	-0.682697	0.923770	-0.338842	-0.507843	0.664209	-0.111618	-0.461393	0.703257	-0.128994	-0.479546	0.622104	-0.116459	-0.430802	0.660665	-0.129304	-0.383652	0.453364	-0.163862	-0.360353	0.466747	-0.277444	-0.436083	0.324888	-0.168545	-0.377420	0.328145	-0.184182	-0.439640	0.259860	-0.188447	-0.384181	0.264180	-0.201259	-0.440717	0.088634	-0.247316	-0.427510	0.097083	-0.331763	-0.338580	0.033000	-0.205588	-0.309190	0.023749	-0.318622	-0.252288	0.061823	-0.254521	-0.505591	0.040816	-0.321051	-0.590112	0.675398	-0.477669	-0.534047	0.676175	-0.463147	-0.594639	0.624754	-0.477905	-0.535689	0.630636	-0.466573	-0.626715	0.397402	-0.468930	-0.602341	0.375842	-0.355794	-0.752902	0.374096	-0.486040	-0.726951	0.334410	-0.472971	-0.795565	0.350907	-0.475588	-0.771214	0.313292	-0.463743	-0.960044	0.258759	-0.447375	-0.947418	0.250591	-0.367232	-1.023353	0.136648	-0.471353	-1.006930	0.108696	-0.361123	-0.973653	0.055783	-0.425328	-1.016782	0.317069	-0.393953	-0.475625	1.345813	-0.109295	-0.385756	1.333374	-0.418565	
51	0.2500	-0.506924	0.879239	-0.153696	-0.470609	0.880032	-0.381487	-0.679381	0.908063	-0.251554	-0.659334	0.923781	-0.337925	-0.488460	0.661752	-0.110306	-0.441036	0.699921	-0.126905	-0.461042	0.619090	-0.115264	-0.411414	0.656661	-0.127215	-0.368573	0.448769	-0.163013	-0.344333	0.462160	-0.276308	-0.423915	0.322286	-0.168439	-0.365337	0.323973	-0.183823	-0.429205	0.257900	-0.188708	-0.373895	0.260717	-0.201395	-0.435313	0.088234	-0.248547	-0.421446	0.096542	-0.333037	-0.335257	0.032314	-0.206432	-0.305762	0.021337	-0.319274	-0.248336	0.058806	-0.254973	-0.500952	0.041925	-0.322566	-0.561270	0.675802	-0.476656	-0.505566	0.678017	-0.461680	-0.564329	0.625201	-0.477054	-0.505778	0.632684	-0.465291	-0.589577	0.398512	-0.468205	-0.565558	0.377069	-0.354876	-0.715533	0.375935	-0.485917	-0.689800	0.336177	-0.472343	-0.758261	0.352981	-0.475483	-0.734250	0.315456	-0.463210	-0.923547	0.262838	-0.447179	-0.911350	0.254569	-0.367035	-0.986768	0.141912	-0.471848	-0.971414	0.112921	-0.361642	-0.937803	0.059007	-0.425549	-0.979874	0.321908	-0.393969	-0.452682	1.345218	-0.107396	-0.364816	1.334017	-0.418091	
52	0.2550	-0.484158	0.879077	-0.151883	-0.447048	0.880550	-0.379680	-0.656152	0.908523	-0.250611	-0.635931	0.923666	-0.336964	-0.469159	0.659361	-0.108956	-0.420777	0.696592	-0.124780	-0.442663	0.616156	-0.114025	-0.392174	0.652679	-0.125095	-0.353831	0.444241	-0.162075	-0.328626	0.457555	-0.275074	-0.412293	0.319872	-0.168228	-0.353814	0.319870	-0.183365	-0.419455	0.256160	-0.188853	-0.364311	0.257354	-0.201433	-0.430985	0.088090	-0.249640	-0.416465	0.096251	-0.334173	-0.333095	0.031643	-0.207185	-0.303538	0.018980	-0.319840	-0.245532	0.055785	-0.255359	-0.497516	0.043334	-0.323892	-0.532125	0.676253	-0.475547	-0.476819	0.680015	-0.460133	-0.533616	0.625732	-0.476094	-0.475513	0.634929	-0.463926	-0.551589	0.399814	-0.467281	-0.527906	0.378574	-0.353767	-0.677181	0.377604	-0.485572	-0.651546	0.337854	-0.471514	-0.719896	0.354778	-0.475177	-0.696113	0.317420	-0.462498	-0.885587	0.266126	-0.446777	-0.873790	0.257787	-0.366627	-0.947937	0.146389	-0.472311	-0.933549	0.116422	-0.362160	-0.899343	0.062021	-0.425782	-0.941801	0.325461	-0.393740	-0.429404	1.344599	-0.105559	-0.343827	1.334555	-0.417702	
53	0.2600	-0.461303	0.878823	-0.149986	-0.423470	0.880986	-0.377862	-0.632861	0.908936	-0.249630	-0.612510	0.923448	-0.335968	-0.449965	0.657065	-0.107573	-0.400644	0.693300	-0.122627	-0.424437	0.613335	-0.112745	-0.373113	0.648748	-0.122951	-0.339458	0.439816	-0.161048	-0.313265	0.452964	-0.273742	-0.401201	0.317661	-0.167915	-0.342836	0.315876	-0.182808	-0.410341	0.254648	-0.188883	-0.355379	0.254126	-0.201370	-0.427585	0.088195	-0.250595	-0.412421	0.096207	-0.335169	-0.331914	0.030998	-0.207856	-0.302330	0.016717	-0.320324	-0.243711	0.052821	-0.255682	-0.495109	0.045009	-0.325037	-0.502750	0.676777	-0.474335	-0.447879	0.682177	-0.458501	-0.502591	0.626379	-0.475015	-0.444985	0.637382	-0.462464	-0.512919	0.401347	-0.466136	-0.489560	0.380398	-0.352438	-0.638015	0.379129	-0.484986	-0.612357	0.339469	-0.470467	-0.680634	0.356317	-0.474655	-0.656965	0.319203	-0.461593	-0.846313	0.268604	-0.446179	-0.834892	0.260224	-0.366016	-0.907032	0.150032	-0.472729	-0.893510	0.119151	-0.362661	-0.858449	0.064779	-0.426012	-0.902716	0.327712	-0.393283	-0.405845	1.343995	-0.103796	-0.322829	1.335015	-0.417391	
54	0.2650	-0.438402	0.878502	-0.148009	-0.399909	0.881355	-0.376036	-0.609550	0.909315	-0.248618	-0.589108	0.923149	-0.334942	-0.430915	0.654892	-0.106161	-0.380675	0.690070	-0.120454	-0.406399	0.610654	-0.111427	-0.354267	0.644897	-0.120790	-0.325490	0.435529	-0.159938	-0.298285	0.448421	-0.272311	-0.390625	0.315660	-0.167504	-0.332390	0.312027	-0.182154	-0.401816	0.253365	-0.188805	-0.347051	0.251062	-0.201207	-0.424966	0.088538	-0.251415	-0.409169	0.096407	-0.336026	-0.331539	0.030389	-0.208449	-0.301958	0.014581	-0.320735	-0.242713	0.049971	-0.255951	-0.493560	0.046915	-0.326011	-0.473239	0.677398	-0.473018	-0.418836	0.684507	-0.456780	-0.471362	0.627164	-0.473810	-0.414300	0.640046	-0.460897	-0.473757	0.403146	-0.464750	-0.450715	0.382575	-0.350870	-0.598222	0.380535	-0.484145	-0.572421	0.341051	-0.469192	-0.640664	0.357620	-0.473908	-0.616989	0.320826	-0.460487	-0.805902	0.270263	-0.445394	-0.794836	0.261871	-0.365211	-0.864269	0.152815	-0.473088	-0.851510	0.121082	-0.363129	-0.815344	0.067241	-0.426224	-0.862794	0.328668	-0.392615	-0.382075	1.343441	-0.102119	-0.301870	1.335425	-0.417148	
55	0.2700	-0.415510	0.878142	-0.145962	-0.376413	0.881673	-0.374203	-0.586271	0.909674	-0.247580	-0.565774	0.922793	-0.333894	-0.412051	0.652861	-0.104726	-0.360913	0.686927	-0.118269	-0.388592	0.608134	-0.110075	-0.335680	0.641149	-0.118620	-0.311963	0.431411	-0.158750	-0.283726	0.443955	-0.270783	-0.380555	0.313877	-0.167001	-0.322468	0.308357	-0.181406	-0.393835	0.252313	-0.188622	-0.339284	0.248188	-0.200943	-0.422989	0.089110	-0.252103	-0.406571	0.096843	-0.336746	-0.331807	0.029828	-0.208970	-0.302254	0.012601	-0.321079	-0.242387	0.047282	-0.256169	-0.492702	0.049021	-0.326823	-0.443696	0.678134	-0.471596	-0.389795	0.687007	-0.454970	-0.440055	0.628109	-0.472474	-0.383579	0.642920	-0.459221	-0.434310	0.405235	-0.463113	-0.411583	0.385128	-0.349050	-0.558011	0.381843	-0.483041	-0.531952	0.342625	-0.467684	-0.600194	0.358709	-0.472930	-0.576394	0.322309	-0.459174	-0.764559	0.271112	-0.444435	-0.753832	0.262735	-0.364223	-0.819901	0.154729	-0.473375	-0.807806	0.122204	-0.363545	-0.770298	0.069376	-0.426399	-0.822229	0.328357	-0.391755	-0.358176	1.342968	-0.100538	-0.281011	1.335810	-0.416965	
56	0.2750	-0.392698	0.877766	-0.143855	-0.353046	0.881956	-0.372369	-0.563091	0.910026	-0.246523	-0.542569	0.922404	-0.332828	-0.393424	0.650990	-0.103275	-0.341412	0.683888	-0.116083	-0.371065	0.605793	-0.108694	-0.317400	0.637525	-0.116449	-0.298915	0.427484	-0.157490	-0.269629	0.439592	-0.269166	-0.370983	0.312312	-0.166415	-0.313062	0.304894	-0.180568	-0.386360	0.251488	-0.188344	-0.332037	0.245526	-0.200583	-0.421524	0.089898	-0.252665	-0.404498	0.097507	-0.337332	-0.332566	0.029323	-0.209427	-0.303057	0.010802	-0.321362	-0.242594	0.044797	-0.256343	-0.492381	0.051298	-0.327486	-0.414244	0.679001	-0.470070	-0.360874	0.689672	-0.453076	-0.408808	0.629227	-0.471006	-0.352959	0.645998	-0.457435	-0.394802	0.407628	-0.461221	-0.372391	0.388067	-0.346973	-0.517609	0.383076	-0.481674	-0.491179	0.344213	-0.465945	-0.559452	0.359608	-0.471721	-0.535411	0.323672	-0.457656	-0.722517	0.271173	-0.443315	-0.712117	0.262837	-0.363066	-0.774223	0.155784	-0.473576	-0.762693	0.122526	-0.363894	-0.723625	0.071163	-0.426522	-0.781239	0.326829	-0.390723	-0.334246	1.342605	-0.099065	-0.260323	1.336195	-0.416834	
57	0.2800	-0.370044	0.877394	-0.141700	-0.329883	0.882218	-0.370540	-0.540089	0.910382	-0.245451	-0.519569	0.922004	-0.331748	-0.375093	0.649291	-0.101814	-0.322230	0.680972	-0.113905	-0.353871	0.603642	-0.107292	-0.299483	0.634043	-0.114286	-0.286383	0.423771	-0.156169	-0.256035	0.435357	-0.267466	-0.361904	0.310967	-0.165754	-0.304166	0.301661	-0.179648	-0.379355	0.250885	-0.187977	-0.325276	0.243093	-0.200129	-0.420452	0.090885	-0.253105	-0.402833	0.098386	-0.337788	-0.333677	0.028881	-0.209824	-0.304227	0.009203	-0.321592	-0.243204	0.042547	-0.256477	-0.492455	0.053715	-0.328013	-0.385017	0.680009	-0.468447	-0.332205	0.692492	-0.451104	-0.377776	0.630527	-0.469412	-0.322587	0.649266	-0.455542	-0.355467	0.410331	-0.459080	-0.333377	0.391391	-0.344643	-0.477256	0.384250	-0.480050	-0.450354	0.345832	-0.463981	-0.518681	0.360338	-0.470287	-0.494289	0.324932	-0.455938	-0.680035	0.270482	-0.442049	-0.669951	0.262212	-0.361753	-0.727562	0.156009	-0.473681	-0.716499	0.122077	-0.364161	-0.675681	0.072590	-0.426576	-0.740056	0.324158	-0.389539	-0.310396	1.342376	-0.097706	-0.239887	1.336601	-0.416748	
58	0.2850	-0.347642	0.877045	-0.139512	-0.307012	0.882472	-0.368721	-0.517356	0.910751	-0.244369	-0.496860	0.921616	-0.330659	-0.357123	0.647770	-0.100351	-0.303434	0.678191	-0.111745	-0.337072	0.601689	-0.105874	-0.281989	0.630716	-0.112141	-0.274404	0.420289	-0.154797	-0.242987	0.431272	-0.265695	-0.353315	0.309838	-0.165028	-0.295779	0.298677	-0.178655	-0.372792	0.250496	-0.187532	-0.318969	0.240903	-0.199588	-0.419665	0.092055	-0.253430	-0.401471	0.099462	-0.338119	-0.335019	0.028506	-0.210167	-0.305634	0.007815	-0.321773	-0.244103	0.040555	-0.256578	-0.492796	0.056245	-0.328416	-0.356163	0.681162	-0.466735	-0.303930	0.695453	-0.449066	-0.347122	0.632011	-0.467698	-0.292624	0.652705	-0.453552	-0.316550	0.413336	-0.456703	-0.294789	0.395087	-0.342074	-0.437206	0.385381	-0.478180	-0.409739	0.347493	-0.461808	-0.478139	0.360923	-0.468639	-0.453292	0.326107	-0.454031	-0.637392	0.269089	-0.440653	-0.627616	0.260909	-0.360300	-0.680277	0.155449	-0.473679	-0.669583	0.120902	-0.364330	-0.626855	0.073656	-0.426546	-0.698931	0.320434	-0.388225	-0.286748	1.342297	-0.096469	-0.219792	1.337044	-0.416701	
59	0.2900	-0.325594	0.876732	-0.137309	-0.284533	0.882730	-0.366922	-0.494994	0.911140	-0.243280	-0.474539	0.921257	-0.329563	-0.339586	0.646430	-0.098894	-0.285098	0.675557	-0.109615	-0.320730	0.599937	-0.104450	-0.264982	0.627558	-0.110025	-0.263012	0.417049	-0.153387	-0.230524	0.427358	-0.263868	-0.345215	0.308919	-0.164249	-0.287897	0.295956	-0.177598	-0.366644	0.250309	-0.187018	-0.313090	0.238964	-0.198967	-0.419072	0.093386	-0.253648	-0.400320	0.100717	-0.338334	-0.336485	0.028201	-0.210462	-0.307171	0.006644	-0.321911	-0.245191	0.038833	-0.256648	-0.493292	0.058860	-0.328708	-0.327835	0.682459	-0.464947	-0.276199	0.698534	-0.446976	-0.317019	0.633672	-0.465878	-0.263233	0.656290	-0.451478	-0.278301	0.416626	-0.454109	-0.256876	0.399127	-0.339285	-0.397719	0.386481	-0.476083	-0.369606	0.349205	-0.459445	-0.438093	0.361381	-0.466794	-0.412697	0.327209	-0.451952	-0.594886	0.267055	-0.439144	-0.585409	0.258986	-0.358726	-0.632748	0.154166	-0.473563	-0.622331	0.119061	-0.364392	-0.577564	0.074368	-0.426421	-0.658128	0.315767	-0.386802	-0.263431	1.342381	-0.095357	-0.200133	1.337537	-0.416688	
60	0.2950	-0.304010	0.876467	-0.135108	-0.262552	0.883000	-0.365149	-0.473111	0.911552	-0.242190	-0.452712	0.920943	-0.328465	-0.322556	0.645269	-0.097452	-0.267297	0.673079	-0.107527	-0.304914	0.598385	-0.103029	-0.248530	0.624577	-0.107949	-0.252236	0.414060	-0.151952	-0.218684	0.423633	-0.262002	-0.337602	0.308202	-0.163429	-0.280519	0.293506	-0.176491	-0.360891	0.250310	-0.186449	-0.307617	0.237278	-0.198277	-0.418593	0.094857	-0.253767	-0.399305	0.102129	-0.338439	-0.337984	0.027968	-0.210712	-0.308743	0.005689	-0.322013	-0.246383	0.037386	-0.256694	-0.493851	0.061531	-0.328901	-0.300193	0.683892	-0.463097	-0.249165	0.701712	-0.444849	-0.287643	0.635498	-0.463966	-0.234586	0.659989	-0.449337	-0.240969	0.420172	-0.451328	-0.219888	0.403473	-0.336306	-0.359058	0.387558	-0.473787	-0.330230	0.350968	-0.456919	-0.398812	0.361734	-0.464774	-0.372785	0.328252	-0.449722	-0.552825	0.264455	-0.437541	-0.543639	0.256517	-0.357050	-0.585373	0.152234	-0.473328	-0.575142	0.116628	-0.364338	-0.528245	0.074743	-0.426190	-0.617917	0.310282	-0.385294	-0.240584	1.342633	-0.094374	-0.181008	1.338089	-0.416704	
61	0.3000	-0.283004	0.876258	-0.132927	-0.241185	0.883290	-0.363413	-0.451822	0.911990	-0.241102	-0.431491	0.920686	-0.327370	-0.306111	0.644284	-0.096036	-0.250111	0.670762	-0.105491	-0.289690	0.597029	-0.101621	-0.232701	0.621783	-0.105924	-0.242104	0.411329	-0.150507	-0.207502	0.420113	-0.260113	-0.330477	0.307674	-0.162580	-0.273642	0.291332	-0.175345	-0.355516	0.250482	-0.185834	-0.302529	0.235845	-0.197526	-0.418165	0.096442	-0.253795	-0.398365	0.103671	-0.338445	-0.339446	0.027802	-0.210923	-0.310276	0.004945	-0.322083	-0.247605	0.036211	-0.256719	-0.494396	0.064233	-0.329009	-0.273400	0.685448	-0.461203	-0.222985	0.704956	-0.442706	-0.259172	0.637471	-0.461982	-0.206851	0.663767	-0.447148	-0.204799	0.423936	-0.448392	-0.184069	0.408074	-0.333171	-0.321484	0.388616	-0.471320	-0.291888	0.352777	-0.454259	-0.360566	0.361997	-0.462605	-0.333839	0.329243	-0.447367	-0.511524	0.261368	-0.435864	-0.502622	0.253579	-0.355293	-0.538558	0.149739	-0.472976	-0.528426	0.113689	-0.364165	-0.479345	0.074808	-0.425850	-0.578575	0.304114	-0.383722	-0.218346	1.343052	-0.093518	-0.162518	1.338704	-0.416745	
62	0.3050	-0.262697	0.876107	-0.130785	-0.220547	0.883604	-0.361723	-0.431247	0.912454	-0.240024	-0.410992	0.920495	-0.326281	-0.290328	0.643465	-0.094653	-0.233620	0.668612	-0.103521	-0.275127	0.595862	-0.100236	-0.217563	0.619180	-0.103962	-0.232636	0.408856	-0.149066	-0.197009	0.416810	-0.258222	-0.323839	0.307323	-0.161715	-0.267263	0.289431	-0.174177	-0.350507	0.250808	-0.185187	-0.297813	0.234658	-0.196729	-0.417739	0.098116	-0.253744	-0.397451	0.105317	-0.338361	-0.340813	0.027702	-0.211098	-0.311712	0.004401	-0.322126	-0.248801	0.035297	-0.256728	-0.494868	0.066938	-0.329043	-0.247614	0.687111	-0.459284	-0.197810	0.708234	-0.440567	-0.231778	0.639566	-0.459948	-0.180194	0.667585	-0.444934	-0.170027	0.427873	-0.445341	-0.149651	0.412874	-0.329922	-0.285249	0.389657	-0.468720	-0.254846	0.354623	-0.451501	-0.323617	0.362187	-0.460319	-0.296135	0.330190	-0.444918	-0.471298	0.257885	-0.434134	-0.462668	0.250260	-0.353478	-0.492707	0.146774	-0.472508	-0.482595	0.110336	-0.363873	-0.431311	0.074592	-0.425398	-0.540374	0.297410	-0.382109	-0.196858	1.343630	-0.092788	-0.144764	1.339382	-0.416806	
63	0.3100	-0.243204	0.876017	-0.128702	-0.200757	0.883943	-0.360089	-0.411502	0.912941	-0.238959	-0.391329	0.920375	-0.325205	-0.275284	0.642802	-0.093314	-0.217902	0.666632	-0.101627	-0.261288	0.594873	-0.098885	-0.203182	0.616772	-0.102076	-0.223850	0.406639	-0.147646	-0.187228	0.413736	-0.256350	-0.317689	0.307133	-0.160846	-0.261380	0.287798	-0.173000	-0.345853	0.251266	-0.184519	-0.293454	0.233706	-0.195897	-0.417280	0.099851	-0.253623	-0.396531	0.107038	-0.338199	-0.342044	0.027662	-0.211241	-0.313007	0.004040	-0.322146	-0.249927	0.034625	-0.256723	-0.495227	0.069619	-0.329015	-0.222988	0.688856	-0.457360	-0.173788	0.711512	-0.438453	-0.205626	0.641755	-0.457888	-0.154772	0.671400	-0.442720	-0.136871	0.431929	-0.442218	-0.116851	0.417805	-0.326602	-0.250592	0.390680	-0.466025	-0.219357	0.356493	-0.448682	-0.288215	0.362317	-0.457949	-0.259939	0.331095	-0.442406	-0.432453	0.254096	-0.432374	-0.424084	0.246648	-0.351628	-0.448217	0.143440	-0.471931	-0.438048	0.106668	-0.363466	-0.384580	0.074134	-0.424839	-0.503581	0.290318	-0.380477	-0.176255	1.344355	-0.092178	-0.127841	1.340120	-0.416883	
64	0.3150	-0.224640	0.875985	-0.126695	-0.181927	0.884307	-0.358522	-0.392702	0.913447	-0.237916	-0.372614	0.920328	-0.324148	-0.261051	0.642284	-0.092029	-0.203032	0.664821	-0.099822	-0.248234	0.594052	-0.097579	-0.189618	0.614562	-0.100277	-0.215755	0.404673	-0.146262	-0.178180	0.410899	-0.254516	-0.312024	0.307086	-0.159986	-0.255987	0.286422	-0.171829	-0.341546	0.251835	-0.183843	-0.289441	0.232974	-0.195045	-0.416766	0.101619	-0.253443	-0.395584	0.108804	-0.337970	-0.343111	0.027675	-0.211357	-0.314135	0.003844	-0.322149	-0.250951	0.034175	-0.256709	-0.495446	0.072251	-0.328936	-0.199664	0.690660	-0.455454	-0.151052	0.714752	-0.436386	-0.180869	0.644004	-0.455829	-0.130729	0.675169	-0.440531	-0.105530	0.436047	-0.439068	-0.085863	0.422798	-0.323258	-0.217731	0.391680	-0.463277	-0.185656	0.358370	-0.445842	-0.254589	0.362400	-0.455532	-0.225497	0.331962	-0.439867	-0.395276	0.250097	-0.430606	-0.387156	0.242836	-0.349767	-0.405460	0.139836	-0.471257	-0.395169	0.102784	-0.362952	-0.339568	0.073473	-0.424181	-0.468446	0.282989	-0.378849	-0.156666	1.345208	-0.091683	-0.111838	1.340910	-0.416975	
65	0.3200	-0.207110	0.876007	-0.124780	-0.164161	0.884693	-0.357031	-0.374952	0.913967	-0.236901	-0.354951	0.920351	-0.323117	-0.247692	0.641895	-0.090806	-0.189076	0.663179	-0.098117	-0.236018	0.593383	-0.096329	-0.176928	0.612550	-0.098575	-0.208356	0.402950	-0.144928	-0.169875	0.408304	-0.252742	-0.306840	0.307164	-0.159146	-0.251076	0.285288	-0.170681	-0.337580	0.252492	-0.183169	-0.285766	0.232445	-0.194186	-0.416184	0.103392	-0.253215	-0.394601	0.110585	-0.337687	-0.344002	0.027734	-0.211447	-0.315079	0.003792	-0.322137	-0.251851	0.033919	-0.256688	-0.495512	0.074806	-0.328816	-0.177768	0.692493	-0.453587	-0.129723	0.717919	-0.434387	-0.157642	0.646278	-0.453795	-0.108191	0.678849	-0.438392	-0.076176	0.440166	-0.435937	-0.056855	0.427779	-0.319939	-0.186859	0.392652	-0.460519	-0.153949	0.360232	-0.443020	-0.222944	0.362446	-0.453104	-0.193028	0.332790	-0.437337	-0.360035	0.245981	-0.428852	-0.352149	0.238912	-0.347919	-0.364784	0.136066	-0.470499	-0.354311	0.098782	-0.362344	-0.296660	0.072653	-0.423435	-0.435200	0.275572	-0.377244	-0.138206	1.346168	-0.091294	-0.096835	1.341740	-0.417076	
66	0.3250	-0.190708	0.876077	-0.122974	-0.147552	0.885097	-0.355626	-0.358347	0.914492	-0.235922	-0.338432	0.920439	-0.322121	-0.235265	0.641620	-0.089654	-0.176094	0.661703	-0.096520	-0.224686	0.592853	-0.095144	-0.165156	0.610733	-0.096981	-0.201648	0.401459	-0.143657	-0.162318	0.405954	-0.251045	-0.302131	0.307347	-0.158338	-0.246637	0.284379	-0.169569	-0.333951	0.253215	-0.182509	-0.282418	0.232097	-0.193334	-0.415536	0.105142	-0.252949	-0.393581	0.112352	-0.337362	-0.344711	0.027831	-0.211517	-0.315838	0.003862	-0.322114	-0.252618	0.033830	-0.256662	-0.495427	0.077263	-0.328665	-0.157406	0.694327	-0.451780	-0.109903	0.720976	-0.432476	-0.136057	0.648543	-0.451813	-0.087265	0.682399	-0.436329	-0.048951	0.444227	-0.432869	-0.029966	0.432678	-0.316691	-0.158140	0.393588	-0.457793	-0.124414	0.362060	-0.440257	-0.193456	0.362464	-0.450704	-0.162722	0.333577	-0.434851	-0.326965	0.241838	-0.427134	-0.319297	0.234966	-0.346109	-0.326493	0.132224	-0.469675	-0.315791	0.094757	-0.361656	-0.256199	0.071718	-0.422616	-0.404047	0.268206	-0.375684	-0.120978	1.347210	-0.091001	-0.082899	1.342598	-0.417185	
67	0.3300	-0.175513	0.876189	-0.121288	-0.132180	0.885512	-0.354314	-0.342967	0.915015	-0.234985	-0.323136	0.920585	-0.321166	-0.223815	0.641443	-0.088579	-0.164131	0.660390	-0.095040	-0.214272	0.592445	-0.094033	-0.154339	0.609108	-0.095503	-0.195624	0.400187	-0.142462	-0.155505	0.403847	-0.249443	-0.297890	0.307614	-0.157570	-0.242658	0.283674	-0.168507	-0.330652	0.253979	-0.181872	-0.279390	0.231907	-0.192502	-0.414826	0.106845	-0.252658	-0.392532	0.114076	-0.337008	-0.345244	0.027956	-0.211568	-0.316415	0.004028	-0.322083	-0.253247	0.033878	-0.256635	-0.495200	0.079598	-0.328492	-0.138665	0.696133	-0.450054	-0.091671	0.723891	-0.430671	-0.116204	0.650763	-0.449906	-0.068034	0.685779	-0.434362	-0.023963	0.448170	-0.429907	-0.005299	0.437423	-0.313559	-0.131701	0.394483	-0.455140	-0.097191	0.363832	-0.437590	-0.166263	0.362461	-0.448366	-0.134734	0.334320	-0.432443	-0.296262	0.237752	-0.425474	-0.288794	0.231076	-0.344357	-0.290849	0.128403	-0.468802	-0.279879	0.090796	-0.360907	-0.218476	0.070708	-0.421742	-0.375155	0.261024	-0.374186	-0.105063	1.348307	-0.090795	-0.070083	1.343469	-0.417298	
68	0.3350	-0.161588	0.876333	-0.119734	-0.118104	0.885932	-0.353102	-0.328875	0.915529	-0.234099	-0.309124	0.920779	-0.320260	-0.213373	0.641349	-0.087588	-0.153222	0.659232	-0.093683	-0.204801	0.592143	-0.093003	-0.144500	0.607669	-0.094147	-0.190266	0.399117	-0.141352	-0.149425	0.401980	-0.247950	-0.294103	0.307945	-0.156850	-0.239124	0.283149	-0.167505	-0.327677	0.254764	-0.181267	-0.276672	0.231851	-0.191703	-0.414068	0.108476	-0.252351	-0.391468	0.115732	-0.336637	-0.345615	0.028101	-0.211603	-0.316825	0.004269	-0.322046	-0.253744	0.034034	-0.256607	-0.494848	0.081792	-0.328305	-0.121602	0.697882	-0.448426	-0.075081	0.726634	-0.428988	-0.098143	0.652903	-0.448099	-0.050552	0.688956	-0.432514	-0.001283	0.451942	-0.427091	0.017080	0.441951	-0.310584	-0.107631	0.395327	-0.452599	-0.072379	0.365525	-0.435052	-0.141466	0.362444	-0.446124	-0.109177	0.335017	-0.430144	-0.268081	0.233800	-0.423892	-0.260795	0.227317	-0.342687	-0.258058	0.124684	-0.467901	-0.246792	0.086977	-0.360116	-0.183726	0.069663	-0.420834	-0.348658	0.254141	-0.372767	-0.090524	1.349430	-0.090662	-0.058423	1.344338	-0.417414	
69	0.3400	-0.148974	0.876500	-0.118319	-0.105365	0.886348	-0.351996	-0.316111	0.916024	-0.233271	-0.296437	0.921010	-0.319411	-0.203959	0.641321	-0.086685	-0.143386	0.658223	-0.092454	-0.196282	0.591932	-0.092061	-0.135650	0.606410	-0.092918	-0.185551	0.398232	-0.140335	-0.144058	0.400345	-0.246577	-0.290755	0.308321	-0.156186	-0.236016	0.282782	-0.166575	-0.325020	0.255547	-0.180701	-0.274255	0.231904	-0.190947	-0.413280	0.110014	-0.252038	-0.390407	0.117297	-0.336260	-0.345841	0.028259	-0.211626	-0.317085	0.004562	-0.322007	-0.254119	0.034268	-0.256581	-0.494396	0.083827	-0.328112	-0.106250	0.699548	-0.446913	-0.060163	0.729179	-0.427440	-0.081908	0.654934	-0.446409	-0.034849	0.691900	-0.430802	0.019059	0.455495	-0.424454	0.037141	0.446206	-0.307799	-0.085979	0.396114	-0.450202	-0.050036	0.367120	-0.432674	-0.119124	0.362417	-0.444008	-0.086119	0.335663	-0.427983	-0.242530	0.230049	-0.422404	-0.235406	0.223752	-0.341116	-0.228269	0.121138	-0.466993	-0.216689	0.083366	-0.359304	-0.152121	0.068620	-0.419913	-0.324645	0.247659	-0.371441	-0.077398	1.350553	-0.090591	-0.047939	1.345188	-0.417528	
70	0.3450	-0.137691	0.876683	-0.117049	-0.093980	0.886753	-0.350999	-0.304697	0.916495	-0.232506	-0.285094	0.921268	-0.318625	-0.195575	0.641346	-0.085873	-0.134626	0.657355	-0.091355	-0.188712	0.591795	-0.091210	-0.127787	0.605321	-0.091819	-0.181450	0.397513	-0.139416	-0.139377	0.398932	-0.245334	-0.287829	0.308723	-0.155582	-0.233312	0.282547	-0.165724	-0.322671	0.256312	-0.180181	-0.272128	0.232042	-0.190243	-0.412481	0.111442	-0.251727	-0.389366	0.118753	-0.335888	-0.345944	0.028423	-0.211638	-0.317219	0.004886	-0.321967	-0.254383	0.034556	-0.256556	-0.493870	0.085691	-0.327918	-0.092613	0.701108	-0.445526	-0.046918	0.731506	-0.426035	-0.067498	0.656829	-0.444853	-0.020921	0.694589	-0.429237	0.037069	0.458786	-0.422023	0.054895	0.450141	-0.305235	-0.066753	0.396837	-0.447978	-0.030176	0.368600	-0.430480	-0.099253	0.362384	-0.442042	-0.065585	0.336255	-0.425983	-0.219666	0.226553	-0.421025	-0.212684	0.220433	-0.339660	-0.201568	0.117825	-0.466099	-0.189668	0.080017	-0.358493	-0.123764	0.067609	-0.419000	-0.303162	0.241659	-0.370220	-0.065700	1.351650	-0.090570	-0.038629	1.346004	-0.417639	
71	0.3500	-0.127738	0.876872	-0.115924	-0.083946	0.887140	-0.350113	-0.294629	0.916933	-0.231809	-0.275090	0.921539	-0.317908	-0.188207	0.641408	-0.085153	-0.126928	0.656618	-0.090385	-0.182075	0.591719	-0.090453	-0.120892	0.604392	-0.090849	-0.177929	0.396942	-0.138599	-0.135346	0.397728	-0.244225	-0.285303	0.309134	-0.155041	-0.230989	0.282420	-0.164958	-0.320619	0.257039	-0.179709	-0.270276	0.232240	-0.189600	-0.411691	0.112745	-0.251428	-0.388367	0.120083	-0.335530	-0.345947	0.028585	-0.211642	-0.317249	0.005223	-0.321928	-0.254553	0.034872	-0.256534	-0.493297	0.087372	-0.327731	-0.080666	0.702544	-0.444275	-0.035320	0.733601	-0.424781	-0.054885	0.658567	-0.443444	-0.008738	0.697006	-0.427831	0.052794	0.461784	-0.419819	0.070390	0.453718	-0.302912	-0.049916	0.397492	-0.445949	-0.012770	0.369952	-0.428489	-0.081823	0.362349	-0.440246	-0.047554	0.336791	-0.424162	-0.199493	0.223356	-0.419768	-0.192635	0.217402	-0.338332	-0.177977	0.114791	-0.465238	-0.165761	0.076972	-0.357701	-0.098689	0.066655	-0.418116	-0.284210	0.236205	-0.369112	-0.055419	1.352697	-0.090588	-0.030474	1.346774	-0.417745	
72	0.3550	-0.119088	0.877060	-0.114944	-0.075233	0.887501	-0.349336	-0.285881	0.917334	-0.231184	-0.266400	0.921813	-0.317263	-0.181829	0.641495	-0.084524	-0.120262	0.656001	-0.089542	-0.176340	0.591688	-0.089790	-0.114934	0.603610	-0.090006	-0.174948	0.396498	-0.137885	-0.131925	0.396718	-0.243252	-0.283151	0.309538	-0.154564	-0.229020	0.282377	-0.164279	-0.318851	0.257717	-0.179290	-0.268685	0.232477	-0.189022	-0.410931	0.113914	-0.251147	-0.387427	0.121277	-0.335193	-0.345875	0.028740	-0.211640	-0.317200	0.005556	-0.321891	-0.254647	0.035198	-0.256515	-0.492706	0.088866	-0.327553	-0.070356	0.703841	-0.443165	-0.025315	0.735456	-0.423678	-0.044010	0.660131	-0.442189	0.001759	0.699143	-0.426588	0.066317	0.464467	-0.417857	0.083710	0.456913	-0.300845	-0.035395	0.398075	-0.444131	0.002256	0.371164	-0.426714	-0.066768	0.362313	-0.438635	-0.031962	0.337269	-0.422534	-0.181969	0.220489	-0.418640	-0.175215	0.214687	-0.337141	-0.157459	0.112069	-0.464427	-0.144937	0.074257	-0.356947	-0.076863	0.065780	-0.417278	-0.267742	0.231337	-0.368124	-0.046519	1.353674	-0.090633	-0.023438	1.347484	-0.417844	
73	0.3600	-0.111694	0.877240	-0.114104	-0.067792	0.887831	-0.348668	-0.278405	0.917693	-0.230633	-0.258975	0.922079	-0.316694	-0.176395	0.641597	-0.083984	-0.114583	0.655492	-0.088822	-0.171464	0.591691	-0.089219	-0.109869	0.602964	-0.089287	-0.172462	0.396162	-0.137270	-0.129068	0.395886	-0.242415	-0.281345	0.309923	-0.154153	-0.227375	0.282396	-0.163689	-0.317349	0.258333	-0.178924	-0.267339	0.232734	-0.188512	-0.410219	0.114943	-0.250889	-0.386563	0.122328	-0.334885	-0.345751	0.028883	-0.211633	-0.317095	0.005874	-0.321857	-0.254680	0.035515	-0.256499	-0.492121	0.090170	-0.327390	-0.061605	0.704990	-0.442198	-0.016827	0.737069	-0.422726	-0.034789	0.661512	-0.441092	0.010655	0.700999	-0.425509	0.077755	0.466822	-0.416143	0.094972	0.459713	-0.299040	-0.023077	0.398585	-0.442532	0.015011	0.372231	-0.425160	-0.053977	0.362280	-0.437217	-0.018703	0.337687	-0.421104	-0.166998	0.217969	-0.417647	-0.160331	0.212303	-0.336092	-0.139915	0.109676	-0.463680	-0.127107	0.071886	-0.356246	-0.058189	0.064996	-0.416504	-0.253670	0.227077	-0.367257	-0.038942	1.354564	-0.090697	-0.017467	1.348127	-0.417935	
74	0.3650	-0.105489	0.877407	-0.113399	-0.061554	0.888127	-0.348102	-0.272132	0.918008	-0.230157	-0.252747	0.922330	-0.316201	-0.171848	0.641704	-0.083529	-0.109833	0.655081	-0.088218	-0.167392	0.591717	-0.088736	-0.105638	0.602438	-0.088683	-0.170425	0.395916	-0.136753	-0.126722	0.395212	-0.241707	-0.279856	0.310277	-0.153804	-0.226025	0.282458	-0.163187	-0.316095	0.258881	-0.178611	-0.266219	0.232993	-0.188072	-0.409568	0.115831	-0.250658	-0.385787	0.123235	-0.334609	-0.345595	0.029013	-0.211624	-0.316956	0.006165	-0.321827	-0.254670	0.035812	-0.256486	-0.491565	0.091288	-0.327244	-0.054314	0.705986	-0.441372	-0.009756	0.738443	-0.421920	-0.027112	0.662705	-0.440152	0.018057	0.702579	-0.424591	0.087252	0.468847	-0.414675	0.104320	0.462116	-0.297496	-0.012820	0.399022	-0.441156	0.025640	0.373152	-0.423827	-0.043309	0.362249	-0.435995	-0.007634	0.338047	-0.419874	-0.154446	0.215801	-0.416790	-0.147850	0.210256	-0.335186	-0.125193	0.107620	-0.463009	-0.112123	0.069861	-0.355611	-0.042511	0.064313	-0.415805	-0.241864	0.223426	-0.366513	-0.032610	1.355357	-0.090771	-0.012491	1.348695	-0.418016	
75	0.3700	-0.100388	0.877557	-0.112818	-0.056429	0.888384	-0.347634	-0.266976	0.918277	-0.229753	-0.247627	0.922558	-0.315783	-0.168121	0.641809	-0.083153	-0.105938	0.654756	-0.087722	-0.164059	0.591757	-0.088336	-0.102175	0.602019	-0.088187	-0.168788	0.395742	-0.136326	-0.124834	0.394679	-0.241122	-0.278650	0.310595	-0.153514	-0.224938	0.282546	-0.162767	-0.315068	0.259355	-0.178349	-0.265304	0.233240	-0.187701	-0.408991	0.116580	-0.250457	-0.385108	0.124000	-0.334369	-0.345426	0.029126	-0.211614	-0.316801	0.006424	-0.321800	-0.254631	0.036078	-0.256476	-0.491056	0.092226	-0.327116	-0.048360	0.706830	-0.440682	-0.003984	0.739590	-0.421252	-0.020851	0.663714	-0.439364	0.024092	0.703894	-0.423826	0.094979	0.470549	-0.413446	0.111924	0.464134	-0.296204	-0.004452	0.399389	-0.439997	0.034318	0.373929	-0.422710	-0.034593	0.362221	-0.434964	0.001418	0.338350	-0.418839	-0.144137	0.213979	-0.416065	-0.137596	0.208537	-0.334421	-0.113094	0.105895	-0.462422	-0.099793	0.068173	-0.355051	-0.029620	0.063733	-0.415190	-0.232161	0.220369	-0.365886	-0.027425	1.356044	-0.090847	-0.008427	1.349186	-0.418086	
76	0.3750	-0.096289	0.877687	-0.112351	-0.052316	0.888603	-0.347254	-0.262834	0.918502	-0.229420	-0.243517	0.922758	-0.315437	-0.165134	0.641906	-0.082850	-0.102816	0.654503	-0.087323	-0.161393	0.591803	-0.088014	-0.099405	0.601694	-0.087789	-0.167501	0.395624	-0.135982	-0.123348	0.394267	-0.240650	-0.277696	0.310869	-0.153280	-0.224081	0.282644	-0.162426	-0.314245	0.259754	-0.178135	-0.264573	0.233466	-0.187396	-0.408494	0.117196	-0.250286	-0.384530	0.124629	-0.334166	-0.345258	0.029221	-0.211603	-0.316645	0.006646	-0.321778	-0.254576	0.036307	-0.256468	-0.490605	0.092994	-0.327008	-0.043611	0.707527	-0.440119	0.000618	0.740523	-0.420712	-0.015860	0.664544	-0.438719	0.028899	0.704964	-0.423205	0.101121	0.471945	-0.412443	0.117967	0.465785	-0.295150	0.002220	0.399689	-0.439045	0.041241	0.374567	-0.421795	-0.027634	0.362198	-0.434117	0.008651	0.338599	-0.417991	-0.135865	0.212487	-0.415468	-0.129368	0.207132	-0.333791	-0.103382	0.104485	-0.461921	-0.089881	0.066800	-0.354571	-0.019269	0.063255	-0.414664	-0.224370	0.217872	-0.365372	-0.023277	1.356625	-0.090920	-0.005184	1.349598	-0.418146	
