PathFileType	4	(X/Y/Z)	 P2 pr1 06.trc
DataRate	CameraRate	NumFrames	NumMarkers	Units	OrigDataRate	OrigDataStartFrame	OrigNumFrames
200	200	80	38	m	200	1	80
Frame#	Time	RASIS			LASIS			RPSIS			LPSIS			RThighRear1			RThighFront1			RThighRear2			RThighFront2			RKneeLat			RKneeMed			RShankRear1			RShankFront1			RShankRear2			RShankFront2			RAnkleLat			RAnkleMed			RM5			RM1			RMid			RHeel			LThighRear1			LThighFront1			LThighRear2			LThighFront2			LKneeLat			LKneeMed			LShankRear1			LShankFront1			LShankRear2			LShankFront2			LAnkleLat			LAnkleMed			LM5			LM1			LMid			LHeel			RShoulder			LShoulder			
		X1	Y1	Z1	X2	Y2	Z2	X3	Y3	Z3	X4	Y4	Z4	X5	Y5	Z5	X6	Y6	Z6	X7	Y7	Z7	X8	Y8	Z8	X9	Y9	Z9	X10	Y10	Z10	X11	Y11	Z11	X12	Y12	Z12	X13	Y13	Z13	X14	Y14	Z14	X15	Y15	Z15	X16	Y16	Z16	X17	Y17	Z17	X18	Y18	Z18	X19	Y19	Z19	X20	Y20	Z20	X21	Y21	Z21	X22	Y22	Z22	X23	Y23	Z23	X24	Y24	Z24	X25	Y25	Z25	X26	Y26	Z26	X27	Y27	Z27	X28	Y28	Z28	X29	Y29	Z29	X30	Y30	Z30	X31	Y31	Z31	X32	Y32	Z32	X33	Y33	Z33	X34	Y34	Z34	X35	Y35	Z35	X36	Y36	Z36	X37	Y37	Z37	X38	Y38	Z38	
1	0.0000	-1.405035	0.907605	-0.147625	-1.409930	0.916286	-0.382194	-1.590095	0.951046	-0.226688	-1.591699	0.953903	-0.315141	-1.485271	0.671222	-0.085911	-1.427095	0.675921	-0.106131	-1.488825	0.620578	-0.086058	-1.429140	0.621259	-0.101943	-1.538993	0.426597	-0.099031	-1.533412	0.417555	-0.222873	-1.675124	0.400108	-0.085859	-1.643527	0.351736	-0.099992	-1.733200	0.367978	-0.097167	-1.703485	0.322458	-0.107523	-1.888565	0.273553	-0.126159	-1.880918	0.268048	-0.207447	-1.954708	0.146026	-0.105662	-1.942157	0.138719	-0.218162	-1.913111	0.075492	-0.160061	-1.938782	0.332133	-0.183444	-1.446104	0.707982	-0.454203	-1.393465	0.733879	-0.446698	-1.427213	0.660243	-0.448532	-1.375165	0.692518	-0.447699	-1.334291	0.444680	-0.420328	-1.329914	0.447755	-0.302362	-1.379395	0.320766	-0.425043	-1.330111	0.324510	-0.416446	-1.379273	0.270708	-0.415121	-1.331133	0.275532	-0.406038	-1.357130	0.081320	-0.371376	-1.346684	0.097635	-0.292860	-1.252821	0.012361	-0.400540	-1.220977	0.025630	-0.288622	-1.165480	0.050233	-0.354397	-1.423965	0.039517	-0.313716	-1.337961	1.403321	-0.167183	-1.391038	1.371423	-0.482302	
2	0.0050	-1.392352	0.904972	-0.148459	-1.398208	0.914782	-0.382807	-1.577833	0.948364	-0.225979	-1.579773	0.952141	-0.314451	-1.467667	0.669109	-0.086431	-1.409896	0.675193	-0.106979	-1.469941	0.618590	-0.086424	-1.410496	0.620731	-0.102790	-1.515155	0.424654	-0.099801	-1.509560	0.415801	-0.224011	-1.650837	0.398717	-0.086799	-1.619368	0.350075	-0.100948	-1.709123	0.366990	-0.098161	-1.679569	0.321203	-0.108628	-1.865071	0.273616	-0.127308	-1.857304	0.267999	-0.208597	-1.929750	0.146081	-0.106153	-1.917006	0.138212	-0.218591	-1.886912	0.075758	-0.160255	-1.916198	0.331839	-0.184897	-1.435758	0.706321	-0.455055	-1.382919	0.731891	-0.448034	-1.417138	0.658412	-0.449474	-1.364939	0.690358	-0.449208	-1.325065	0.442109	-0.421595	-1.320710	0.445031	-0.303655	-1.371817	0.319068	-0.425762	-1.322596	0.321982	-0.417154	-1.372727	0.269236	-0.415580	-1.324677	0.273222	-0.406397	-1.355130	0.080808	-0.370583	-1.344495	0.096961	-0.292012	-1.252544	0.012152	-0.400455	-1.220362	0.024225	-0.288311	-1.164617	0.047968	-0.353738	-1.423142	0.039924	-0.313055	-1.325219	1.400677	-0.167336	-1.376352	1.367476	-0.483302	
3	0.0100	-1.379502	0.902293	-0.149302	-1.386341	0.913235	-0.383448	-1.565407	0.945658	-0.225268	-1.567694	0.950348	-0.313753	-1.449829	0.667002	-0.086958	-1.392474	0.674490	-0.107840	-1.450797	0.616618	-0.086801	-1.391603	0.620244	-0.103652	-1.490944	0.422760	-0.100601	-1.485348	0.414107	-0.225184	-1.626193	0.397358	-0.087778	-1.594828	0.348438	-0.101927	-1.684691	0.366015	-0.099180	-1.655277	0.319954	-0.109749	-1.841217	0.273623	-0.128460	-1.833332	0.267883	-0.209755	-1.904354	0.146064	-0.106610	-1.891437	0.137596	-0.218984	-1.860243	0.075950	-0.160409	-1.893306	0.331453	-0.186360	-1.425286	0.704611	-0.455902	-1.372246	0.729849	-0.449379	-1.406940	0.656527	-0.450412	-1.354590	0.688140	-0.450725	-1.315738	0.439455	-0.422865	-1.311407	0.442225	-0.304952	-1.364166	0.317308	-0.426481	-1.315017	0.319381	-0.417860	-1.366125	0.267711	-0.416035	-1.318172	0.270848	-0.406749	-1.353146	0.080283	-0.369778	-1.342317	0.096273	-0.291146	-1.252269	0.011958	-0.400373	-1.219742	0.022847	-0.288004	-1.163757	0.045719	-0.353081	-1.422325	0.040309	-0.312383	-1.312301	1.397991	-0.167485	-1.361440	1.363476	-0.484305	
4	0.0150	-1.366499	0.899583	-0.150151	-1.374335	0.911645	-0.384120	-1.552828	0.942947	-0.224565	-1.555466	0.948533	-0.313058	-1.431783	0.664935	-0.087492	-1.374856	0.673844	-0.108712	-1.431417	0.614700	-0.087190	-1.372490	0.619833	-0.104530	-1.466385	0.420967	-0.101438	-1.460806	0.412529	-0.226398	-1.601211	0.396056	-0.088803	-1.569919	0.346856	-0.102934	-1.659919	0.365061	-0.100227	-1.630613	0.318727	-0.110886	-1.816989	0.273539	-0.129611	-1.808993	0.267665	-0.210918	-1.878475	0.145940	-0.107026	-1.865414	0.136834	-0.219332	-1.833058	0.076047	-0.160520	-1.870101	0.330920	-0.187827	-1.414701	0.702854	-0.456734	-1.361457	0.727753	-0.450722	-1.396633	0.654590	-0.451336	-1.344132	0.685865	-0.452238	-1.306348	0.436720	-0.424125	-1.302042	0.439338	-0.306237	-1.356482	0.315490	-0.427193	-1.307413	0.316711	-0.418556	-1.359502	0.266136	-0.416481	-1.311656	0.268415	-0.407090	-1.351198	0.079752	-0.368964	-1.340170	0.095577	-0.290266	-1.252000	0.011778	-0.400298	-1.219122	0.021512	-0.287708	-1.162908	0.043510	-0.352432	-1.421528	0.040663	-0.311705	-1.299223	1.395279	-0.167626	-1.346304	1.359450	-0.485298	
5	0.0200	-1.353347	0.896858	-0.150999	-1.362185	0.910011	-0.384823	-1.540095	0.940250	-0.223883	-1.543088	0.946706	-0.312375	-1.413547	0.662942	-0.088035	-1.357065	0.673290	-0.109594	-1.411822	0.612875	-0.087595	-1.353182	0.619536	-0.105426	-1.441492	0.419327	-0.102321	-1.435956	0.411120	-0.227655	-1.575905	0.394834	-0.089881	-1.544639	0.345362	-0.103974	-1.634809	0.364137	-0.101302	-1.605568	0.317539	-0.112040	-1.792362	0.273329	-0.130757	-1.784264	0.267309	-0.212085	-1.852054	0.145678	-0.107393	-1.838887	0.135892	-0.219629	-1.805294	0.076029	-0.160584	-1.846568	0.330180	-0.189290	-1.404009	0.701052	-0.457543	-1.350559	0.725604	-0.452051	-1.386228	0.652604	-0.452236	-1.333572	0.683532	-0.453733	-1.296933	0.433905	-0.425362	-1.292653	0.436374	-0.307498	-1.348801	0.313616	-0.427888	-1.299822	0.313978	-0.419234	-1.352891	0.264514	-0.416910	-1.305163	0.265929	-0.407414	-1.349307	0.079217	-0.368147	-1.338075	0.094877	-0.289377	-1.251739	0.011612	-0.400231	-1.218506	0.020233	-0.287426	-1.162077	0.041363	-0.351797	-1.420763	0.040979	-0.311024	-1.285993	1.392558	-0.167755	-1.330941	1.355424	-0.486270	
6	0.0250	-1.340047	0.894137	-0.151842	-1.349883	0.908336	-0.385559	-1.527206	0.937588	-0.223234	-1.530550	0.944876	-0.311716	-1.395134	0.661062	-0.088585	-1.339116	0.672860	-0.110488	-1.392024	0.611182	-0.088020	-1.333696	0.619392	-0.106344	-1.416277	0.417895	-0.103256	-1.410815	0.409939	-0.228962	-1.550276	0.393716	-0.091016	-1.518980	0.343990	-0.105052	-1.609354	0.363250	-0.102409	-1.580124	0.316408	-0.113212	-1.767297	0.272956	-0.131893	-1.759111	0.266778	-0.213253	-1.825018	0.145243	-0.107707	-1.811789	0.134734	-0.219872	-1.776877	0.075882	-0.160600	-1.822677	0.329173	-0.190743	-1.393211	0.699210	-0.458319	-1.339553	0.723400	-0.453353	-1.375730	0.650575	-0.453102	-1.322917	0.681143	-0.455194	-1.287527	0.431015	-0.426561	-1.283276	0.433336	-0.308720	-1.341162	0.311693	-0.428559	-1.292283	0.311190	-0.419887	-1.346327	0.262854	-0.417317	-1.298728	0.263398	-0.407716	-1.347495	0.078686	-0.367332	-1.336051	0.094178	-0.288481	-1.251490	0.011460	-0.400174	-1.217900	0.019022	-0.287164	-1.161270	0.039299	-0.351182	-1.420045	0.041250	-0.310344	-1.272620	1.389850	-0.167866	-1.315340	1.351426	-0.487208	
7	0.0300	-1.326595	0.891439	-0.152674	-1.337413	0.906621	-0.386328	-1.514152	0.934983	-0.222629	-1.517837	0.943055	-0.311094	-1.376553	0.659330	-0.089144	-1.321022	0.672589	-0.111394	-1.372032	0.609664	-0.088467	-1.314047	0.619440	-0.107284	-1.390746	0.416723	-0.104252	-1.385395	0.409039	-0.230322	-1.524325	0.392722	-0.092213	-1.492931	0.342770	-0.106173	-1.583542	0.362404	-0.103550	-1.554259	0.315348	-0.114404	-1.741750	0.272382	-0.133018	-1.733491	0.266038	-0.214422	-1.797291	0.144606	-0.107967	-1.784047	0.133330	-0.220060	-1.747728	0.075591	-0.160573	-1.798389	0.327838	-0.192179	-1.382303	0.697333	-0.459053	-1.328435	0.721144	-0.454617	-1.365141	0.648509	-0.453925	-1.312167	0.678700	-0.456608	-1.278168	0.428057	-0.427709	-1.273945	0.430234	-0.309888	-1.333599	0.309730	-0.429198	-1.284831	0.308356	-0.420504	-1.339843	0.261162	-0.417696	-1.292385	0.260832	-0.407990	-1.345778	0.078163	-0.366524	-1.334117	0.093488	-0.287585	-1.251254	0.011317	-0.400129	-1.217308	0.017886	-0.286924	-1.160493	0.037336	-0.350592	-1.419384	0.041473	-0.309668	-1.259107	1.387174	-0.167956	-1.299488	1.347489	-0.488097	
8	0.0350	-1.312983	0.888788	-0.153490	-1.324755	0.904871	-0.387129	-1.500921	0.932454	-0.222084	-1.504933	0.941255	-0.310522	-1.357811	0.657784	-0.089713	-1.302792	0.672514	-0.112311	-1.351855	0.608360	-0.088941	-1.294247	0.619720	-0.108249	-1.364910	0.415861	-0.105313	-1.359712	0.408475	-0.231737	-1.498049	0.391871	-0.093477	-1.466481	0.341733	-0.107340	-1.557362	0.361604	-0.104724	-1.527950	0.314377	-0.115619	-1.715672	0.271574	-0.134130	-1.707361	0.265054	-0.215590	-1.768793	0.143740	-0.108173	-1.755588	0.131655	-0.220196	-1.717767	0.075149	-0.160508	-1.773663	0.326117	-0.193592	-1.371280	0.695428	-0.459739	-1.317201	0.718837	-0.455830	-1.354460	0.646415	-0.454696	-1.301320	0.676204	-0.457959	-1.268891	0.425039	-0.428791	-1.264697	0.427076	-0.310988	-1.326149	0.307739	-0.429796	-1.277504	0.305488	-0.421080	-1.333472	0.259450	-0.418041	-1.286167	0.258243	-0.408232	-1.344173	0.077657	-0.365728	-1.332287	0.092812	-0.286693	-1.251033	0.011181	-0.400095	-1.216736	0.016832	-0.286710	-1.159750	0.035490	-0.350032	-1.418795	0.041645	-0.309001	-1.245454	1.384555	-0.168018	-1.283370	1.343644	-0.488925	
9	0.0400	-1.299203	0.886207	-0.154284	-1.311888	0.903093	-0.387958	-1.487502	0.930025	-0.221609	-1.491817	0.939490	-0.310013	-1.338913	0.656459	-0.090292	-1.284436	0.672666	-0.113240	-1.331501	0.607309	-0.089445	-1.274308	0.620266	-0.109241	-1.338780	0.415358	-0.106446	-1.333781	0.408294	-0.233211	-1.471449	0.391178	-0.094808	-1.439620	0.340909	-0.108559	-1.530798	0.360851	-0.105933	-1.501176	0.313508	-0.116858	-1.689016	0.270498	-0.135229	-1.680676	0.263798	-0.216759	-1.739449	0.142621	-0.108331	-1.726336	0.129691	-0.220284	-1.686916	0.074555	-0.160415	-1.748451	0.323955	-0.194977	-1.360133	0.693504	-0.460369	-1.305840	0.716483	-0.456980	-1.343686	0.644303	-0.455407	-1.290372	0.673661	-0.459234	-1.259730	0.421977	-0.429795	-1.255564	0.423878	-0.312006	-1.318845	0.305735	-0.430345	-1.270333	0.302603	-0.421607	-1.327243	0.257732	-0.418345	-1.280103	0.255647	-0.408437	-1.342692	0.077176	-0.364950	-1.330574	0.092159	-0.285811	-1.250830	0.011047	-0.400074	-1.216189	0.015862	-0.286525	-1.159045	0.033774	-0.349506	-1.418285	0.041765	-0.308348	-1.231666	1.382018	-0.168050	-1.266974	1.339926	-0.489677	
10	0.0450	-1.285246	0.883722	-0.155051	-1.298788	0.901294	-0.388812	-1.473880	0.927715	-0.221219	-1.478469	0.937774	-0.309580	-1.319868	0.655389	-0.090881	-1.265963	0.673077	-0.114181	-1.310981	0.606546	-0.089981	-1.254243	0.621114	-0.110261	-1.312375	0.415255	-0.107655	-1.307625	0.408541	-0.234742	-1.444528	0.390654	-0.096206	-1.412345	0.340322	-0.109833	-1.503844	0.360144	-0.107176	-1.473920	0.312755	-0.118124	-1.661737	0.269126	-0.136314	-1.653393	0.262245	-0.217929	-1.709190	0.141232	-0.108446	-1.696223	0.127427	-0.220334	-1.655110	0.073811	-0.160307	-1.722709	0.321303	-0.196329	-1.348852	0.691575	-0.460938	-1.294345	0.714090	-0.458054	-1.332815	0.642188	-0.456052	-1.279319	0.671078	-0.460418	-1.250719	0.418888	-0.430709	-1.246581	0.420656	-0.312931	-1.311720	0.303735	-0.430838	-1.263352	0.299720	-0.422077	-1.321186	0.256026	-0.418603	-1.274222	0.253063	-0.408603	-1.341345	0.076728	-0.364196	-1.328989	0.091536	-0.284946	-1.250644	0.010909	-0.400066	-1.215672	0.014976	-0.286370	-1.158381	0.032197	-0.349017	-1.417865	0.041837	-0.307714	-1.217743	1.379589	-0.168046	-1.250287	1.336370	-0.490341	
11	0.0500	-1.271105	0.881360	-0.155786	-1.285431	0.899485	-0.389684	-1.460043	0.925547	-0.220926	-1.464867	0.936123	-0.309239	-1.300685	0.654606	-0.091482	-1.247384	0.673776	-0.115132	-1.290307	0.606106	-0.090551	-1.234069	0.622293	-0.111311	-1.285720	0.415589	-0.108941	-1.281272	0.409254	-0.236329	-1.417297	0.390309	-0.097669	-1.384661	0.339997	-0.111163	-1.476494	0.359483	-0.108452	-1.446174	0.312129	-0.119418	-1.633797	0.267433	-0.137387	-1.625478	0.260373	-0.219100	-1.677960	0.139560	-0.108530	-1.665189	0.124859	-0.220359	-1.622294	0.072928	-0.160202	-1.696393	0.318119	-0.197645	-1.337428	0.689655	-0.461442	-1.282704	0.711666	-0.459041	-1.321846	0.640086	-0.456625	-1.268156	0.668464	-0.461498	-1.241890	0.415794	-0.431520	-1.237778	0.417434	-0.313749	-1.304805	0.301763	-0.431269	-1.256589	0.296863	-0.422485	-1.315326	0.254352	-0.418813	-1.268549	0.250514	-0.408727	-1.340138	0.076324	-0.363473	-1.327535	0.090954	-0.284104	-1.250479	0.010761	-0.400070	-1.215189	0.014170	-0.286246	-1.157761	0.030765	-0.348567	-1.417538	0.041869	-0.307104	-1.203691	1.377296	-0.168003	-1.233302	1.333015	-0.490905	
12	0.0550	-1.256772	0.879150	-0.156482	-1.271795	0.897680	-0.390567	-1.445982	0.923542	-0.220741	-1.450995	0.934555	-0.309000	-1.281374	0.654137	-0.092094	-1.228712	0.674787	-0.116095	-1.269495	0.606016	-0.091157	-1.213802	0.623827	-0.112390	-1.258849	0.416391	-0.110304	-1.254758	0.410460	-0.237967	-1.389771	0.390145	-0.099191	-1.356581	0.339950	-0.112551	-1.448754	0.358863	-0.109758	-1.417938	0.311640	-0.120742	-1.605168	0.265401	-0.138449	-1.596903	0.258169	-0.220276	-1.645716	0.137601	-0.108596	-1.633189	0.121994	-0.220372	-1.588429	0.071921	-0.160116	-1.669465	0.314369	-0.198922	-1.325850	0.687760	-0.461876	-1.270909	0.709222	-0.459931	-1.310774	0.638017	-0.457121	-1.256878	0.665834	-0.462463	-1.233273	0.412722	-0.432219	-1.229185	0.414237	-0.314450	-1.298125	0.299846	-0.431632	-1.250070	0.294059	-0.422826	-1.309687	0.252734	-0.418969	-1.263104	0.248024	-0.408807	-1.339071	0.075976	-0.362788	-1.326217	0.090424	-0.283296	-1.250333	0.010597	-0.400085	-1.214747	0.013437	-0.286153	-1.157185	0.029481	-0.348159	-1.417310	0.041871	-0.306525	-1.189516	1.375168	-0.167917	-1.216016	1.329896	-0.491354	
13	0.0600	-1.242243	0.877121	-0.157135	-1.257860	0.895893	-0.391451	-1.431687	0.921720	-0.220673	-1.436834	0.933088	-0.308876	-1.261951	0.654008	-0.092716	-1.209962	0.676130	-0.117066	-1.248569	0.606302	-0.091800	-1.193466	0.625735	-0.113498	-1.231807	0.417682	-0.111741	-1.228124	0.412180	-0.239652	-1.361977	0.390162	-0.100766	-1.328130	0.340195	-0.113995	-1.420635	0.358277	-0.111091	-1.389224	0.311296	-0.122096	-1.575829	0.263015	-0.139503	-1.567649	0.255625	-0.221457	-1.612432	0.135355	-0.108659	-1.600189	0.118847	-0.220393	-1.553494	0.070813	-0.160072	-1.641895	0.310029	-0.200157	-1.314111	0.685911	-0.462239	-1.258951	0.706775	-0.460714	-1.299598	0.636002	-0.457538	-1.245480	0.663203	-0.463301	-1.224895	0.409703	-0.432797	-1.220827	0.411096	-0.315027	-1.291705	0.298011	-0.431921	-1.243816	0.291339	-0.423097	-1.304287	0.251200	-0.419071	-1.257906	0.245623	-0.408843	-1.338143	0.075698	-0.362150	-1.325030	0.089958	-0.282529	-1.250209	0.010409	-0.400109	-1.214350	0.012771	-0.286092	-1.156656	0.028345	-0.347793	-1.417178	0.041859	-0.305983	-1.175226	1.373233	-0.167786	-1.198432	1.327050	-0.491680	
14	0.0650	-1.227516	0.875302	-0.157740	-1.243607	0.894143	-0.392326	-1.417153	0.920099	-0.220732	-1.422371	0.931739	-0.308878	-1.242434	0.654238	-0.093349	-1.191151	0.677820	-0.118045	-1.227551	0.606982	-0.092479	-1.173082	0.628030	-0.114633	-1.204645	0.419474	-0.113248	-1.201421	0.414427	-0.241374	-1.333947	0.390355	-0.102385	-1.299341	0.340742	-0.115492	-1.392158	0.357718	-0.112445	-1.360054	0.311103	-0.123480	-1.545774	0.260270	-0.140553	-1.537709	0.252741	-0.222646	-1.578100	0.132831	-0.108737	-1.566172	0.115441	-0.220439	-1.517487	0.069633	-0.160091	-1.613659	0.305084	-0.201351	-1.302201	0.684130	-0.462530	-1.246822	0.704342	-0.461382	-1.288313	0.634066	-0.457873	-1.233960	0.660589	-0.464003	-1.216778	0.406772	-0.433248	-1.212726	0.408045	-0.315471	-1.285563	0.296293	-0.432136	-1.237844	0.288737	-0.423297	-1.299141	0.249781	-0.419117	-1.252965	0.243344	-0.408838	-1.337344	0.075503	-0.361565	-1.323968	0.089569	-0.281814	-1.250107	0.010193	-0.400141	-1.214004	0.012162	-0.286060	-1.156176	0.027350	-0.347469	-1.417138	0.041853	-0.305485	-1.160832	1.371519	-0.167607	-1.180557	1.324512	-0.491871	
15	0.0700	-1.212590	0.873721	-0.158293	-1.229022	0.892449	-0.393180	-1.402377	0.918699	-0.220923	-1.407595	0.930528	-0.309013	-1.222843	0.654843	-0.093991	-1.172297	0.679866	-0.119030	-1.206470	0.608069	-0.093192	-1.152679	0.630718	-0.115792	-1.177423	0.421771	-0.114818	-1.174705	0.417200	-0.243123	-1.305723	0.390713	-0.104037	-1.270262	0.341593	-0.117040	-1.363353	0.357178	-0.113816	-1.330461	0.311062	-0.124893	-1.515007	0.257164	-0.141604	-1.507086	0.249523	-0.223847	-1.542729	0.130043	-0.108849	-1.531140	0.111808	-0.220533	-1.480429	0.068412	-0.160195	-1.584743	0.299530	-0.202505	-1.290113	0.682442	-0.462751	-1.234516	0.701942	-0.461929	-1.276919	0.632236	-0.458127	-1.222313	0.658016	-0.464562	-1.208941	0.403966	-0.433569	-1.204899	0.405121	-0.315780	-1.279710	0.294727	-0.432274	-1.232163	0.286290	-0.423425	-1.294257	0.248510	-0.419109	-1.248287	0.241219	-0.408793	-1.336662	0.075409	-0.361045	-1.323018	0.089275	-0.281162	-1.250027	0.009942	-0.400179	-1.213713	0.011598	-0.286055	-1.155745	0.026491	-0.347187	-1.417182	0.041879	-0.305041	-1.146346	1.370054	-0.167379	-1.162405	1.322315	-0.491919	
16	0.0750	-1.197468	0.872403	-0.158789	-1.214095	0.890831	-0.394000	-1.387358	0.917534	-0.221250	-1.392501	0.929474	-0.309288	-1.203201	0.655831	-0.094640	-1.153420	0.682272	-0.120018	-1.185359	0.609569	-0.093939	-1.132284	0.633798	-0.116972	-1.150208	0.424567	-0.116442	-1.148039	0.420491	-0.244887	-1.277353	0.391225	-0.105709	-1.240945	0.342747	-0.118632	-1.334258	0.356645	-0.115198	-1.300488	0.311174	-0.126333	-1.483543	0.253704	-0.142659	-1.475796	0.245983	-0.225061	-1.506347	0.127014	-0.109015	-1.495110	0.107988	-0.220694	-1.442358	0.067190	-0.160407	-1.555141	0.293374	-0.203622	-1.277842	0.680872	-0.462901	-1.222027	0.699600	-0.462349	-1.265412	0.630540	-0.458300	-1.210537	0.655506	-0.464972	-1.201394	0.401326	-0.433757	-1.197354	0.402362	-0.315952	-1.274153	0.293350	-0.432336	-1.226777	0.284037	-0.423483	-1.289637	0.247421	-0.419049	-1.243873	0.239287	-0.408714	-1.336079	0.075434	-0.360598	-1.322164	0.089090	-0.280585	-1.249971	0.009653	-0.400219	-1.213483	0.011069	-0.286076	-1.155366	0.025755	-0.346945	-1.417296	0.041968	-0.304657	-1.131782	1.368863	-0.167102	-1.143995	1.320490	-0.491817	
17	0.0800	-1.182154	0.871375	-0.159225	-1.198817	0.889312	-0.394773	-1.372099	0.916620	-0.221714	-1.377083	0.928595	-0.309707	-1.183532	0.657207	-0.095296	-1.134542	0.685035	-0.121006	-1.164251	0.611480	-0.094714	-1.111927	0.637260	-0.118168	-1.123071	0.427847	-0.118108	-1.121488	0.424280	-0.246653	-1.248892	0.391871	-0.107388	-1.211454	0.344195	-0.120262	-1.304920	0.356109	-0.116584	-1.270190	0.311438	-0.127798	-1.451413	0.249903	-0.143724	-1.443866	0.242141	-0.226293	-1.469003	0.123771	-0.109254	-1.458117	0.104028	-0.220943	-1.403332	0.066005	-0.160748	-1.524858	0.286634	-0.204707	-1.265383	0.679446	-0.462985	-1.209353	0.697341	-0.462639	-1.253791	0.629007	-0.458395	-1.198630	0.653087	-0.465231	-1.194141	0.398893	-0.433815	-1.190094	0.399808	-0.315988	-1.268889	0.292202	-0.432325	-1.221682	0.282018	-0.423476	-1.285276	0.246551	-0.418941	-1.239714	0.237583	-0.408607	-1.335571	0.075598	-0.360234	-1.321383	0.089035	-0.280096	-1.249939	0.009324	-0.400260	-1.213317	0.010566	-0.286118	-1.155040	0.025130	-0.346741	-1.417462	0.042154	-0.304345	-1.117155	1.367968	-0.166774	-1.125350	1.319062	-0.491559	
18	0.0850	-1.166655	0.870656	-0.159600	-1.183186	0.887915	-0.395486	-1.356604	0.915968	-0.222314	-1.361344	0.927909	-0.310269	-1.163864	0.658967	-0.095955	-1.115683	0.688145	-0.121991	-1.143182	0.613797	-0.095513	-1.091637	0.641089	-0.119375	-1.096089	0.431585	-0.119803	-1.095120	0.428539	-0.248405	-1.220400	0.392630	-0.109059	-1.181860	0.345925	-0.121920	-1.275392	0.355558	-0.117966	-1.239627	0.311846	-0.129283	-1.418656	0.245779	-0.144806	-1.411333	0.238022	-0.227545	-1.430760	0.120345	-0.109585	-1.420213	0.099977	-0.221301	-1.363429	0.064901	-0.161235	-1.493909	0.279338	-0.205767	-1.252733	0.678193	-0.463006	-1.196490	0.695190	-0.462799	-1.242052	0.627665	-0.458416	-1.186589	0.650787	-0.465337	-1.187177	0.396709	-0.433746	-1.183114	0.397501	-0.315892	-1.263908	0.291320	-0.432246	-1.216866	0.280273	-0.423410	-1.281161	0.245937	-0.418792	-1.235795	0.236147	-0.408480	-1.335110	0.075922	-0.359964	-1.320649	0.089130	-0.279707	-1.249933	0.008955	-0.400299	-1.213220	0.010078	-0.286180	-1.154770	0.024600	-0.346572	-1.417656	0.042478	-0.304114	-1.102481	1.367388	-0.166396	-1.106498	1.318053	-0.491141	
19	0.0900	-1.150978	0.870265	-0.159911	-1.167203	0.886661	-0.396126	-1.340880	0.915587	-0.223044	-1.345287	0.927433	-0.310972	-1.144220	0.661103	-0.096614	-1.096862	0.691586	-0.122969	-1.122187	0.616502	-0.096333	-1.071443	0.645260	-0.120588	-1.069338	0.435746	-0.121512	-1.069002	0.433229	-0.250128	-1.191942	0.393480	-0.110709	-1.152237	0.347918	-0.123596	-1.245732	0.354980	-0.119339	-1.208871	0.312393	-0.130784	-1.385325	0.241359	-0.145909	-1.378244	0.233657	-0.228822	-1.391699	0.116775	-0.110026	-1.381468	0.095890	-0.221786	-1.322741	0.063920	-0.161884	-1.462321	0.271525	-0.206808	-1.239887	0.677139	-0.462968	-1.183437	0.693174	-0.462830	-1.230191	0.626544	-0.458368	-1.174413	0.648633	-0.465293	-1.180490	0.394814	-0.433558	-1.176398	0.395478	-0.315671	-1.259190	0.290743	-0.432105	-1.212309	0.278841	-0.423292	-1.277270	0.245616	-0.418608	-1.232094	0.235014	-0.408342	-1.334664	0.076428	-0.359797	-1.319930	0.089395	-0.279430	-1.249951	0.008550	-0.400332	-1.213196	0.009602	-0.286256	-1.154560	0.024150	-0.346436	-1.417849	0.042984	-0.303974	-1.087773	1.367139	-0.165969	-1.087468	1.317479	-0.490562	
20	0.0950	-1.135134	0.870214	-0.160158	-1.150874	0.885573	-0.396682	-1.324937	0.915483	-0.223899	-1.328920	0.927181	-0.311811	-1.124629	0.663599	-0.097270	-1.078101	0.695335	-0.123935	-1.101301	0.619575	-0.097165	-1.051374	0.649743	-0.121798	-1.042895	0.440289	-0.123219	-1.043202	0.438303	-0.251805	-1.163583	0.394393	-0.112323	-1.122665	0.350151	-0.125281	-1.216005	0.354362	-0.120695	-1.177997	0.313067	-0.132296	-1.351481	0.236671	-0.147040	-1.344657	0.229081	-0.230125	-1.351917	0.113098	-0.110592	-1.341964	0.091824	-0.222413	-1.281380	0.063103	-0.162708	-1.430127	0.263241	-0.207843	-1.226845	0.676308	-0.462879	-1.170194	0.691322	-0.462735	-1.218204	0.625670	-0.458256	-1.162099	0.646656	-0.465102	-1.174056	0.393246	-0.433260	-1.169923	0.393775	-0.315335	-1.254708	0.290507	-0.431910	-1.207981	0.277758	-0.423132	-1.273575	0.245622	-0.418400	-1.228579	0.234219	-0.408204	-1.334196	0.077139	-0.359745	-1.319191	0.089853	-0.279279	-1.249997	0.008115	-0.400357	-1.213245	0.009132	-0.286343	-1.154412	0.023761	-0.346328	-1.418007	0.043721	-0.303936	-1.073046	1.367232	-0.165495	-1.068293	1.317351	-0.489821	
21	0.1000	-1.119132	0.870512	-0.160342	-1.134207	0.884671	-0.397141	-1.308784	0.915660	-0.224867	-1.312256	0.927165	-0.312776	-1.105113	0.666434	-0.097920	-1.059414	0.699364	-0.124886	-1.080559	0.622987	-0.098003	-1.031453	0.654501	-0.122997	-1.016833	0.445163	-0.124909	-1.017781	0.443707	-0.253420	-1.135391	0.395342	-0.113887	-1.093226	0.352596	-0.126962	-1.186276	0.353694	-0.122029	-1.147083	0.313856	-0.133813	-1.317197	0.231751	-0.148205	-1.310638	0.224332	-0.231459	-1.311522	0.109357	-0.111297	-1.301799	0.087834	-0.223195	-1.239467	0.062490	-0.163713	-1.397373	0.254542	-0.208881	-1.213604	0.675725	-0.462743	-1.156761	0.689660	-0.462522	-1.206085	0.625066	-0.458088	-1.149643	0.644881	-0.464772	-1.167843	0.392041	-0.432864	-1.163655	0.392426	-0.314896	-1.250423	0.290644	-0.431673	-1.203845	0.277058	-0.422941	-1.270037	0.245987	-0.418177	-1.225211	0.233796	-0.408076	-1.333665	0.078081	-0.359817	-1.318392	0.090528	-0.279265	-1.250068	0.007663	-0.400372	-1.213370	0.008671	-0.286438	-1.154331	0.023417	-0.346244	-1.418090	0.044740	-0.304010	-1.058310	1.367671	-0.164974	-1.049007	1.317673	-0.488921	
22	0.1050	-1.102983	0.871163	-0.160464	-1.117218	0.883974	-0.397495	-1.292434	0.916117	-0.225936	-1.295307	0.927397	-0.313855	-1.085698	0.669580	-0.098559	-1.040819	0.703638	-0.125814	-1.059993	0.626702	-0.098839	-1.011704	0.659489	-0.124177	-0.991222	0.450311	-0.126564	-0.992798	0.449381	-0.254958	-1.107432	0.396298	-0.115390	-1.064000	0.355221	-0.128627	-1.156616	0.352963	-0.123335	-1.116213	0.314746	-0.135329	-1.282552	0.226636	-0.149410	-1.276261	0.219452	-0.232826	-1.270635	0.105594	-0.112151	-1.261083	0.083975	-0.224140	-1.197136	0.062113	-0.164904	-1.364115	0.245490	-0.209936	-1.200164	0.675410	-0.462567	-1.143139	0.688212	-0.462196	-1.193827	0.624753	-0.457872	-1.137043	0.643336	-0.464313	-1.161808	0.391226	-0.432385	-1.157550	0.391457	-0.314370	-1.246290	0.291183	-0.431405	-1.199855	0.276770	-0.422732	-1.266611	0.246742	-0.417951	-1.221946	0.233771	-0.407970	-1.333027	0.079276	-0.360021	-1.317491	0.091442	-0.279398	-1.250164	0.007207	-0.400374	-1.213569	0.008224	-0.286536	-1.154320	0.023101	-0.346182	-1.418055	0.046093	-0.304207	-1.043576	1.368459	-0.164410	-1.029643	1.318443	-0.487866	
23	0.1100	-1.086699	0.872165	-0.160526	-1.099923	0.883498	-0.397737	-1.275900	0.916851	-0.227091	-1.278092	0.927882	-0.315035	-1.066406	0.673003	-0.099183	-1.022327	0.708118	-0.126716	-1.039631	0.630680	-0.099665	-0.992146	0.664660	-0.125329	-0.966125	0.455670	-0.128168	-0.968304	0.455257	-0.256403	-1.079772	0.397233	-0.116820	-1.035067	0.357992	-0.130265	-1.127095	0.352161	-0.124609	-1.085471	0.315718	-0.136835	-1.247636	0.221367	-0.150659	-1.241609	0.214483	-0.234230	-1.229390	0.101849	-0.113160	-1.219938	0.080298	-0.225254	-1.154530	0.062002	-0.166278	-1.330418	0.236153	-0.211021	-1.186522	0.675379	-0.462358	-1.129327	0.687002	-0.461769	-1.181420	0.624748	-0.457615	-1.124292	0.642042	-0.463734	-1.155901	0.390825	-0.431840	-1.151558	0.390890	-0.313773	-1.242251	0.292147	-0.431118	-1.195957	0.276918	-0.422518	-1.263242	0.247910	-0.417734	-1.218730	0.234168	-0.407900	-1.332236	0.080751	-0.360367	-1.316442	0.092621	-0.279690	-1.250283	0.006767	-0.400361	-1.213840	0.007802	-0.286634	-1.154383	0.022798	-0.346136	-1.417851	0.047836	-0.304536	-1.028852	1.369589	-0.163805	-1.010236	1.319652	-0.486660	
24	0.1150	-1.070291	0.873508	-0.160532	-1.082343	0.883258	-0.397860	-1.259195	0.917854	-0.228315	-1.260631	0.928626	-0.316297	-1.047254	0.676665	-0.099788	-1.003950	0.712758	-0.127584	-1.019500	0.634874	-0.100472	-0.972795	0.669959	-0.126441	-0.941598	0.461174	-0.129705	-0.944344	0.461267	-0.257742	-1.052473	0.398118	-0.118170	-1.006505	0.360868	-0.131864	-1.097784	0.351278	-0.125847	-1.054942	0.316756	-0.138326	-1.212544	0.215987	-0.151958	-1.206769	0.209468	-0.235672	-1.187925	0.098162	-0.114327	-1.178494	0.076847	-0.226537	-1.111801	0.062179	-0.167828	-1.296357	0.226602	-0.212151	-1.172679	0.675644	-0.462124	-1.115326	0.686048	-0.461251	-1.168854	0.625061	-0.457327	-1.111384	0.641019	-0.463051	-1.150061	0.390852	-0.431247	-1.145616	0.390739	-0.313125	-1.238244	0.293552	-0.430828	-1.192089	0.277516	-0.422312	-1.259870	0.249510	-0.417538	-1.215503	0.235006	-0.407876	-1.331243	0.082527	-0.360859	-1.315199	0.094085	-0.280146	-1.250421	0.006369	-0.400332	-1.214176	0.007420	-0.286730	-1.154523	0.022496	-0.346102	-1.417427	0.050023	-0.305006	-1.014141	1.371051	-0.163160	-0.990818	1.321285	-0.485312	
25	0.1200	-1.053773	0.875181	-0.160486	-1.064502	0.883262	-0.397862	-1.242334	0.919117	-0.229590	-1.242947	0.929627	-0.317621	-1.028263	0.680523	-0.100368	-0.985695	0.717511	-0.128412	-0.999623	0.639234	-0.101252	-0.953664	0.675331	-0.127505	-0.917689	0.466753	-0.131160	-0.920954	0.467338	-0.258964	-1.025596	0.398926	-0.119433	-0.978388	0.363812	-0.133413	-1.068752	0.350306	-0.127048	-1.024707	0.317838	-0.139795	-1.177377	0.210538	-0.153310	-1.171835	0.204448	-0.237155	-1.146388	0.094569	-0.115651	-1.136893	0.073663	-0.227987	-1.069104	0.062657	-0.169542	-1.262016	0.216913	-0.213339	-1.158632	0.676213	-0.461870	-1.101137	0.685365	-0.460657	-1.156118	0.625698	-0.457016	-1.098311	0.640282	-0.462278	-1.144219	0.391316	-0.430626	-1.139659	0.391010	-0.312445	-1.234198	0.295409	-0.430548	-1.188183	0.278577	-0.422130	-1.256428	0.251555	-0.417376	-1.212201	0.236295	-0.407910	-1.329999	0.084629	-0.361505	-1.313712	0.095859	-0.280773	-1.250572	0.006040	-0.400286	-1.214570	0.007101	-0.286820	-1.154739	0.022184	-0.346077	-1.416725	0.052707	-0.305625	-0.999446	1.372829	-0.162479	-0.971420	1.323320	-0.483830	
26	0.1250	-1.037155	0.877164	-0.160392	-1.046428	0.883518	-0.397743	-1.225333	0.920625	-0.230896	-1.225064	0.930883	-0.318988	-1.009445	0.684528	-0.100919	-0.967569	0.722324	-0.129194	-0.980019	0.643704	-0.101996	-0.934762	0.680715	-0.128509	-0.894437	0.472336	-0.132521	-0.898161	0.473399	-0.260059	-0.999194	0.399632	-0.120605	-0.950782	0.366780	-0.134901	-1.040070	0.349240	-0.128210	-0.994848	0.318942	-0.141234	-1.142241	0.205062	-0.154719	-1.136906	0.199465	-0.238680	-1.104933	0.091102	-0.117129	-1.095281	0.070775	-0.229596	-1.026599	0.063440	-0.171405	-1.227489	0.207160	-0.214601	-1.144379	0.677087	-0.461606	-1.086759	0.684965	-0.460000	-1.143198	0.626659	-0.456692	-1.085066	0.639841	-0.461431	-1.138300	0.392215	-0.429998	-1.133611	0.391700	-0.311755	-1.230036	0.297719	-0.430293	-1.184167	0.280099	-0.421985	-1.252842	0.254051	-0.417260	-1.208754	0.238039	-0.408012	-1.328451	0.087076	-0.362306	-1.311933	0.097964	-0.281575	-1.250726	0.005813	-0.400224	-1.215008	0.006871	-0.286903	-1.155032	0.021856	-0.346057	-1.415685	0.055939	-0.306399	-0.984765	1.374901	-0.161762	-0.952071	1.325731	-0.482226	
27	0.1300	-1.020451	0.879433	-0.160257	-1.028149	0.884028	-0.397503	-1.208207	0.922361	-0.232213	-1.207009	0.932386	-0.320375	-0.990816	0.688629	-0.101435	-0.949576	0.727144	-0.129921	-0.960703	0.648229	-0.102694	-0.916096	0.686053	-0.129442	-0.871871	0.477853	-0.133776	-0.875983	0.479376	-0.261019	-0.973320	0.400211	-0.121684	-0.923750	0.369730	-0.136320	-1.011803	0.348075	-0.129334	-0.965444	0.320046	-0.142637	-1.107249	0.199602	-0.156186	-1.102087	0.194555	-0.240248	-1.063717	0.087787	-0.118752	-1.053810	0.068206	-0.231354	-0.984446	0.064524	-0.173398	-1.192878	0.197419	-0.215949	-1.129920	0.678262	-0.461336	-1.072192	0.684853	-0.459295	-1.130079	0.627935	-0.456364	-1.071636	0.639701	-0.460528	-1.132222	0.393537	-0.429382	-1.127393	0.392797	-0.311076	-1.225674	0.300475	-0.430079	-1.179962	0.282078	-0.421889	-1.249035	0.256998	-0.417204	-1.205089	0.240235	-0.408193	-1.326550	0.089890	-0.363264	-1.309810	0.100417	-0.282552	-1.250872	0.005727	-0.400144	-1.215476	0.006762	-0.286978	-1.155397	0.021510	-0.346040	-1.414246	0.059766	-0.307335	-0.970094	1.377239	-0.161013	-0.932797	1.328485	-0.480511	
28	0.1350	-1.003673	0.881959	-0.160085	-1.009698	0.884791	-0.397147	-1.190973	0.924305	-0.233520	-1.188809	0.934125	-0.321759	-0.972384	0.692775	-0.101912	-0.931718	0.731916	-0.130587	-0.941688	0.652749	-0.103340	-0.897668	0.691281	-0.130294	-0.850012	0.483232	-0.134915	-0.854431	0.485200	-0.261842	-0.948018	0.400642	-0.122672	-0.897348	0.372621	-0.137661	-0.984017	0.346808	-0.130421	-0.936568	0.321127	-0.143999	-1.072515	0.194196	-0.157713	-1.067484	0.189753	-0.241858	-1.022897	0.084646	-0.120509	-1.012638	0.065968	-0.233246	-0.942807	0.065892	-0.175497	-1.158292	0.187765	-0.217395	-1.115251	0.679728	-0.461068	-1.057434	0.685029	-0.458557	-1.116745	0.629514	-0.456040	-1.058010	0.639861	-0.459586	-1.125900	0.395262	-0.428800	-1.120921	0.394282	-0.310431	-1.221029	0.303664	-0.429919	-1.175488	0.284497	-0.421857	-1.244926	0.260385	-0.417216	-1.201131	0.242872	-0.408460	-1.324246	0.093085	-0.364377	-1.307295	0.103238	-0.283703	-1.250992	0.005822	-0.400050	-1.215950	0.006811	-0.287045	-1.155826	0.021148	-0.346022	-1.412344	0.064229	-0.308435	-0.955428	1.379813	-0.160232	-0.913622	1.331545	-0.478698	
29	0.1400	-0.986834	0.884710	-0.159883	-0.991108	0.885801	-0.396682	-1.173646	0.926431	-0.234798	-1.170493	0.936083	-0.323119	-0.954161	0.696910	-0.102346	-0.913997	0.736584	-0.131184	-0.922982	0.657206	-0.103926	-0.879479	0.696342	-0.131055	-0.828869	0.488408	-0.135934	-0.833507	0.490805	-0.262525	-0.923330	0.400908	-0.123572	-0.871626	0.375409	-0.138920	-0.956773	0.345437	-0.131476	-0.908291	0.322159	-0.145314	-1.038155	0.188879	-0.159301	-1.033209	0.185089	-0.243511	-0.982635	0.081693	-0.122386	-0.971923	0.064063	-0.235256	-0.901842	0.067520	-0.177676	-1.123851	0.178267	-0.218951	-1.100370	0.681467	-0.460807	-1.042481	0.685488	-0.457803	-1.103179	0.631374	-0.455729	-1.044175	0.640313	-0.458624	-1.119246	0.397360	-0.428271	-1.114111	0.396124	-0.309838	-1.216010	0.307262	-0.429828	-1.170663	0.287333	-0.421898	-1.240434	0.264196	-0.417309	-1.196803	0.245931	-0.408819	-1.321487	0.096676	-0.365643	-1.304340	0.106439	-0.285023	-1.251063	0.006140	-0.399944	-1.216405	0.007058	-0.287105	-1.156305	0.020776	-0.346002	-1.409915	0.069365	-0.309701	-0.940758	1.382587	-0.159420	-0.894566	1.334870	-0.476802	
30	0.1450	-0.969946	0.887650	-0.159657	-0.972411	0.887048	-0.396116	-1.156245	0.928716	-0.236029	-1.152090	0.938242	-0.324433	-0.936153	0.700979	-0.102731	-0.896414	0.741094	-0.131705	-0.904592	0.661540	-0.104445	-0.861528	0.701175	-0.131713	-0.808444	0.493316	-0.136828	-0.813204	0.496127	-0.263069	-0.899291	0.400992	-0.124389	-0.846625	0.378054	-0.140091	-0.930130	0.343960	-0.132500	-0.880679	0.323120	-0.146579	-1.004290	0.183684	-0.160949	-0.999375	0.180587	-0.245205	-0.943089	0.078937	-0.124368	-0.931827	0.062484	-0.237365	-0.861705	0.069373	-0.179911	-1.089676	0.168991	-0.220624	-1.085272	0.683457	-0.460560	-1.027331	0.686219	-0.457046	-1.089363	0.633488	-0.455438	-1.030115	0.641043	-0.457659	-1.112169	0.399792	-0.427813	-1.106876	0.398285	-0.309319	-1.210529	0.311239	-0.429817	-1.165403	0.290553	-0.422023	-1.235475	0.268406	-0.417489	-1.192028	0.249386	-0.409274	-1.318226	0.100673	-0.367056	-1.300898	0.110032	-0.286506	-1.251059	0.006726	-0.399830	-1.216808	0.007547	-0.287158	-1.156816	0.020405	-0.345980	-1.406894	0.075200	-0.311133	-0.926073	1.385520	-0.158577	-0.875648	1.338417	-0.474836	
31	0.1500	-0.953021	0.890739	-0.159413	-0.953643	0.888518	-0.395460	-1.138784	0.931130	-0.237195	-1.133629	0.940578	-0.325681	-0.918366	0.704928	-0.103063	-0.878969	0.745393	-0.132142	-0.886521	0.665696	-0.104891	-0.843813	0.705727	-0.132260	-0.788730	0.497898	-0.137595	-0.793512	0.501110	-0.263478	-0.875932	0.400883	-0.125132	-0.822381	0.380517	-0.141172	-0.904144	0.342378	-0.133501	-0.853791	0.323983	-0.147792	-0.971038	0.178638	-0.162655	-0.966095	0.176267	-0.246939	-0.904416	0.076379	-0.126438	-0.892510	0.061212	-0.239552	-0.822549	0.071409	-0.182174	-1.055899	0.159999	-0.222422	-1.069953	0.685669	-0.460331	-1.011979	0.687204	-0.456302	-1.075279	0.635823	-0.455176	-1.015814	0.642033	-0.456708	-1.104579	0.402512	-0.427444	-1.099132	0.400722	-0.308891	-1.204496	0.315555	-0.429899	-1.159625	0.294119	-0.422239	-1.229967	0.272984	-0.417766	-1.186730	0.253203	-0.409827	-1.314416	0.105081	-0.368607	-1.296922	0.114025	-0.288141	-1.250945	0.007627	-0.399712	-1.217119	0.008321	-0.287210	-1.157331	0.020051	-0.345956	-1.403220	0.081753	-0.312729	-0.911363	1.388572	-0.157703	-0.856882	1.342138	-0.472816	
32	0.1550	-0.936072	0.893936	-0.159155	-0.934837	0.890193	-0.394726	-1.121281	0.933642	-0.238282	-1.115140	0.943064	-0.326846	-0.900804	0.708704	-0.103339	-0.861661	0.749431	-0.132487	-0.868768	0.669618	-0.105260	-0.826330	0.709945	-0.132688	-0.769715	0.502099	-0.138238	-0.774413	0.505703	-0.263759	-0.853279	0.400570	-0.125808	-0.798921	0.382762	-0.142165	-0.878865	0.340693	-0.134482	-0.827682	0.324726	-0.148951	-0.938517	0.173764	-0.164416	-0.933485	0.172142	-0.248710	-0.866769	0.074016	-0.128576	-0.854128	0.060220	-0.241797	-0.784518	0.073576	-0.184438	-1.022652	0.151344	-0.224348	-1.054407	0.688070	-0.460125	-0.996417	0.688422	-0.455582	-1.060907	0.638341	-0.454948	-1.001255	0.643258	-0.455786	-1.096388	0.405467	-0.427177	-1.090795	0.403382	-0.308570	-1.197826	0.320167	-0.430082	-1.153248	0.297985	-0.422551	-1.223827	0.277892	-0.418144	-1.180833	0.257343	-0.410478	-1.310011	0.109904	-0.370287	-1.292369	0.118421	-0.289916	-1.250677	0.008886	-0.399597	-1.217293	0.009425	-0.287264	-1.157816	0.019734	-0.345931	-1.398830	0.089033	-0.314483	-0.896614	1.391697	-0.156796	-0.838281	1.345987	-0.470758	
33	0.1600	-0.919111	0.897198	-0.158888	-0.916026	0.892053	-0.393926	-1.103753	0.936221	-0.239277	-1.096648	0.945669	-0.327912	-0.883471	0.712257	-0.103556	-0.844492	0.753161	-0.132735	-0.851334	0.673255	-0.105549	-0.809075	0.713784	-0.132990	-0.751376	0.505875	-0.138761	-0.755883	0.509862	-0.263921	-0.831352	0.400047	-0.126429	-0.776269	0.384753	-0.143068	-0.854343	0.338907	-0.135449	-0.802403	0.325324	-0.150055	-0.906844	0.169080	-0.166231	-0.901659	0.168223	-0.250517	-0.830293	0.071836	-0.130763	-0.816835	0.059475	-0.244077	-0.747747	0.075816	-0.186680	-0.990070	0.143074	-0.226403	-1.038627	0.690620	-0.459945	-0.980639	0.689846	-0.454899	-1.046226	0.641000	-0.454761	-0.986418	0.644689	-0.454907	-1.087511	0.408597	-0.427025	-1.081786	0.406209	-0.308370	-1.190434	0.325022	-0.430376	-1.146196	0.302099	-0.422964	-1.216978	0.283084	-0.418629	-1.174266	0.261760	-0.411224	-1.304967	0.115138	-0.372083	-1.287196	0.123218	-0.291818	-1.250208	0.010546	-0.399492	-1.217275	0.010902	-0.287326	-1.158228	0.019478	-0.345909	-1.393666	0.097037	-0.316389	-0.881812	1.394849	-0.155854	-0.819853	1.349914	-0.468676	
34	0.1650	-0.902148	0.900484	-0.158616	-0.897239	0.894072	-0.393074	-1.086213	0.938833	-0.240171	-1.078180	0.948361	-0.328866	-0.866369	0.715539	-0.103710	-0.827461	0.756541	-0.132879	-0.834214	0.676562	-0.105755	-0.792042	0.717202	-0.133158	-0.733690	0.509183	-0.139170	-0.737898	0.513550	-0.263973	-0.810169	0.399310	-0.127006	-0.754439	0.386460	-0.143888	-0.830619	0.337021	-0.136409	-0.777995	0.325755	-0.151105	-0.876132	0.164598	-0.168095	-0.870728	0.164512	-0.252356	-0.795127	0.069825	-0.132982	-0.780779	0.058933	-0.246374	-0.712366	0.078070	-0.188876	-0.958289	0.135228	-0.228585	-1.022606	0.693278	-0.459795	-0.964636	0.691446	-0.454261	-1.031219	0.643751	-0.454620	-0.971286	0.646293	-0.454084	-1.077867	0.411840	-0.426997	-1.072030	0.409142	-0.308301	-1.182240	0.330066	-0.430787	-1.138392	0.306406	-0.423479	-1.209344	0.288512	-0.419221	-1.166961	0.266404	-0.412061	-1.299243	0.120774	-0.373983	-1.281363	0.128412	-0.293830	-1.249478	0.012645	-0.399407	-1.217005	0.012792	-0.287402	-1.158512	0.019309	-0.345893	-1.387673	0.105753	-0.318439	-0.866944	1.397982	-0.154876	-0.801605	1.353872	-0.466586	
35	0.1700	-0.885196	0.903751	-0.158342	-0.878505	0.896225	-0.392184	-1.068677	0.941445	-0.240957	-1.059759	0.951104	-0.329701	-0.849499	0.718509	-0.103800	-0.810568	0.759533	-0.132915	-0.817404	0.679498	-0.105878	-0.775226	0.720163	-0.133190	-0.716626	0.511993	-0.139473	-0.720430	0.516738	-0.263929	-0.789741	0.398358	-0.127548	-0.733441	0.387855	-0.144627	-0.807732	0.335040	-0.137368	-0.754498	0.325997	-0.152105	-0.846489	0.160326	-0.170004	-0.840801	0.161008	-0.254225	-0.761400	0.067962	-0.135215	-0.746098	0.058549	-0.248667	-0.678490	0.080270	-0.191008	-0.927444	0.127835	-0.230890	-1.006334	0.695998	-0.459679	-0.948397	0.693188	-0.453677	-1.015863	0.646547	-0.454529	-0.955835	0.648033	-0.453326	-1.067382	0.415130	-0.427100	-1.061460	0.412119	-0.308372	-1.173170	0.335241	-0.431319	-1.129768	0.310845	-0.424096	-1.200856	0.294122	-0.419922	-1.158852	0.271223	-0.412983	-1.292796	0.126801	-0.375972	-1.274829	0.133990	-0.295936	-1.248420	0.015217	-0.399352	-1.216414	0.015128	-0.287503	-1.158605	0.019257	-0.345891	-1.380798	0.115155	-0.320623	-0.851996	1.401050	-0.153857	-0.783539	1.357812	-0.464502	
36	0.1750	-0.868262	0.906957	-0.158067	-0.859849	0.898482	-0.391268	-1.051158	0.944024	-0.241631	-1.041406	0.953861	-0.330411	-0.832861	0.721130	-0.103824	-0.793816	0.762105	-0.132837	-0.800896	0.682027	-0.105919	-0.758623	0.722641	-0.133082	-0.700153	0.514279	-0.139681	-0.703449	0.519405	-0.263802	-0.770076	0.397193	-0.128069	-0.713280	0.388914	-0.145292	-0.785717	0.332965	-0.138330	-0.731942	0.326031	-0.153057	-0.818016	0.156266	-0.171953	-0.811981	0.157704	-0.256119	-0.729230	0.066226	-0.137443	-0.712922	0.058269	-0.250940	-0.646223	0.082352	-0.193059	-0.897664	0.120920	-0.233310	-0.989800	0.698734	-0.459597	-0.931910	0.695034	-0.453151	-1.000139	0.649338	-0.454490	-0.940047	0.649870	-0.452641	-1.055985	0.418400	-0.427336	-1.050011	0.415078	-0.308586	-1.163156	0.340485	-0.431974	-1.120259	0.315358	-0.424812	-1.191449	0.299857	-0.420731	-1.149878	0.276160	-0.413982	-1.285587	0.133199	-0.378034	-1.267557	0.139936	-0.298116	-1.246958	0.018289	-0.399338	-1.215423	0.017939	-0.287637	-1.158431	0.019353	-0.345909	-1.372993	0.125204	-0.322926	-0.836952	1.404006	-0.152795	-0.765656	1.361689	-0.462437	
37	0.1800	-0.851356	0.910064	-0.157792	-0.841290	0.900812	-0.390340	-1.033666	0.946536	-0.242194	-1.023137	0.956594	-0.330993	-0.816453	0.723370	-0.103782	-0.777204	0.764233	-0.132643	-0.784683	0.684123	-0.105879	-0.742227	0.724613	-0.132833	-0.684236	0.516023	-0.139804	-0.686927	0.521535	-0.263605	-0.751178	0.395817	-0.128578	-0.693954	0.389618	-0.145891	-0.764602	0.330801	-0.139301	-0.710353	0.325838	-0.153965	-0.790806	0.152417	-0.173937	-0.784366	0.154589	-0.258036	-0.698722	0.064592	-0.139654	-0.681369	0.058042	-0.253178	-0.615657	0.084252	-0.195017	-0.869074	0.114495	-0.235836	-0.972993	0.701436	-0.459551	-0.915163	0.696947	-0.452687	-0.984026	0.652072	-0.454506	-0.923898	0.651766	-0.452035	-1.043617	0.421588	-0.427706	-1.037629	0.417957	-0.308944	-1.152136	0.345737	-0.432752	-1.109805	0.319883	-0.425622	-1.181061	0.305660	-0.421646	-1.139984	0.281158	-0.415048	-1.277577	0.139945	-0.380152	-1.259509	0.146228	-0.300351	-1.245007	0.021879	-0.399379	-1.213949	0.021244	-0.287816	-1.157903	0.019626	-0.345958	-1.364214	0.135852	-0.325337	-0.821799	1.406808	-0.151686	-0.747954	1.365459	-0.460405	
38	0.1850	-0.834482	0.913035	-0.157516	-0.822845	0.903184	-0.389411	-1.016212	0.948950	-0.242648	-1.004966	0.959263	-0.331450	-0.800273	0.725204	-0.103673	-0.760734	0.765897	-0.132331	-0.768756	0.685762	-0.105763	-0.726033	0.726064	-0.132444	-0.668840	0.517215	-0.139856	-0.670834	0.523122	-0.263352	-0.733047	0.394236	-0.129086	-0.675458	0.389951	-0.146432	-0.744410	0.328550	-0.140285	-0.689749	0.325402	-0.154834	-0.764943	0.148773	-0.175952	-0.758042	0.151651	-0.259971	-0.669966	0.063032	-0.141833	-0.651542	0.057815	-0.255367	-0.586868	0.085908	-0.196874	-0.841789	0.108568	-0.238454	-0.955899	0.704059	-0.459541	-0.898139	0.698890	-0.452285	-0.967505	0.654701	-0.454578	-0.907366	0.653680	-0.451510	-1.030222	0.424631	-0.428207	-1.024266	0.420698	-0.309446	-1.140056	0.350940	-0.433653	-1.098354	0.324362	-0.426521	-1.169641	0.311471	-0.422662	-1.129118	0.286162	-0.416170	-1.268724	0.147007	-0.382310	-1.250645	0.152837	-0.302624	-1.242473	0.025998	-0.399489	-1.211898	0.025053	-0.288051	-1.156921	0.020107	-0.346048	-1.354420	0.147035	-0.327839	-0.806523	1.409414	-0.150526	-0.730427	1.369081	-0.458417	
39	0.1900	-0.817646	0.915837	-0.157237	-0.804525	0.905565	-0.388493	-0.998800	0.951235	-0.243000	-0.986901	0.961832	-0.331788	-0.784316	0.726615	-0.103500	-0.744405	0.767085	-0.131901	-0.753104	0.686932	-0.105574	-0.710036	0.726987	-0.131917	-0.653930	0.517854	-0.139849	-0.655144	0.524164	-0.263058	-0.715680	0.392456	-0.129600	-0.657783	0.389902	-0.146922	-0.725157	0.326217	-0.141284	-0.670143	0.324711	-0.155670	-0.740500	0.145324	-0.177992	-0.733091	0.148874	-0.261923	-0.643038	0.061523	-0.143969	-0.623529	0.057534	-0.257498	-0.559917	0.087263	-0.198627	-0.815915	0.103135	-0.241152	-0.938505	0.706556	-0.459569	-0.880825	0.700824	-0.451944	-0.950555	0.657179	-0.454705	-0.890430	0.655575	-0.451068	-1.015755	0.427472	-0.428831	-1.009882	0.423249	-0.310084	-1.126868	0.356033	-0.434672	-1.085857	0.328737	-0.427500	-1.157141	0.317235	-0.423774	-1.117234	0.291116	-0.417339	-1.258991	0.154349	-0.384492	-1.240929	0.159730	-0.304916	-1.239253	0.030645	-0.399681	-1.209172	0.029365	-0.288355	-1.155378	0.020823	-0.346191	-1.343575	0.158679	-0.330415	-0.791108	1.411786	-0.149312	-0.713067	1.372519	-0.456483	
40	0.1950	-0.800848	0.918439	-0.156952	-0.786336	0.907924	-0.387593	-0.981435	0.953365	-0.243257	-0.968946	0.964262	-0.332014	-0.768576	0.727590	-0.103264	-0.728217	0.767789	-0.131353	-0.737715	0.687626	-0.105319	-0.694230	0.727383	-0.131257	-0.639472	0.517944	-0.139795	-0.639831	0.524668	-0.262734	-0.699069	0.390488	-0.130128	-0.640914	0.389463	-0.147371	-0.706857	0.323805	-0.142301	-0.651542	0.323754	-0.156478	-0.717537	0.142059	-0.180051	-0.709578	0.146239	-0.263886	-0.617993	0.060038	-0.146053	-0.597402	0.057152	-0.259564	-0.534849	0.088270	-0.200274	-0.791544	0.098189	-0.243913	-0.920793	0.708885	-0.459632	-0.863202	0.702714	-0.451660	-0.933158	0.659462	-0.454887	-0.873068	0.657415	-0.450707	-1.000179	0.430062	-0.429571	-0.994444	0.425560	-0.310851	-1.112534	0.360965	-0.435803	-1.072274	0.332957	-0.428550	-1.143520	0.322895	-0.424975	-1.104290	0.295969	-0.418540	-1.248337	0.161931	-0.386681	-1.230321	0.166865	-0.307208	-1.235239	0.035807	-0.399971	-1.205663	0.034166	-0.288743	-1.153153	0.021797	-0.346403	-1.331649	0.170701	-0.333047	-0.775542	1.413889	-0.148039	-0.695863	1.375737	-0.454611	
41	0.2000	-0.784088	0.920817	-0.156658	-0.768277	0.910230	-0.386718	-0.964117	0.955313	-0.243430	-0.951100	0.966520	-0.332139	-0.753046	0.728126	-0.102967	-0.712168	0.768012	-0.130690	-0.722577	0.687844	-0.105003	-0.678609	0.727256	-0.130469	-0.625435	0.517497	-0.139705	-0.624873	0.524645	-0.262393	-0.683205	0.388340	-0.130674	-0.624835	0.388634	-0.147786	-0.689512	0.321318	-0.143335	-0.633945	0.322524	-0.157263	-0.696102	0.138965	-0.182125	-0.687559	0.143728	-0.265858	-0.594873	0.058556	-0.148078	-0.573214	0.056626	-0.261560	-0.511691	0.088887	-0.201819	-0.768753	0.093714	-0.246720	-0.902749	0.711008	-0.459729	-0.845254	0.704527	-0.451427	-0.915295	0.661513	-0.455121	-0.855258	0.659168	-0.450422	-0.983467	0.432359	-0.430413	-0.977927	0.427594	-0.311735	-1.097023	0.365687	-0.437038	-1.057570	0.336974	-0.429660	-1.128745	0.328398	-0.426256	-1.090251	0.300670	-0.419763	-1.236721	0.169703	-0.388864	-1.218781	0.174197	-0.309483	-1.230315	0.041460	-0.400375	-1.201261	0.039430	-0.289229	-1.150117	0.023049	-0.346697	-1.318612	0.183005	-0.335716	-0.759810	1.415696	-0.146705	-0.678803	1.378708	-0.452810	
42	0.2050	-0.767361	0.922948	-0.156349	-0.750342	0.912453	-0.385874	-0.946843	0.957059	-0.243532	-0.933357	0.968571	-0.332179	-0.737715	0.728226	-0.102614	-0.696256	0.767759	-0.129916	-0.707676	0.687595	-0.104635	-0.663167	0.726620	-0.129561	-0.611788	0.516529	-0.139592	-0.610249	0.524111	-0.262044	-0.668073	0.386024	-0.131243	-0.609527	0.387417	-0.148175	-0.673123	0.318762	-0.144385	-0.617345	0.321018	-0.158031	-0.676227	0.136027	-0.184206	-0.667075	0.141324	-0.267835	-0.573697	0.057059	-0.150039	-0.550999	0.055919	-0.263483	-0.490454	0.089084	-0.203268	-0.747603	0.089690	-0.249554	-0.884356	0.712890	-0.459858	-0.826964	0.706234	-0.451240	-0.896948	0.663301	-0.455402	-0.836981	0.660806	-0.450208	-0.965597	0.434330	-0.431344	-0.960314	0.429320	-0.312721	-1.080311	0.370155	-0.438367	-1.041716	0.340748	-0.430818	-1.112788	0.333697	-0.427608	-1.075083	0.305178	-0.420995	-1.224102	0.177615	-0.391025	-1.206269	0.181674	-0.311727	-1.224359	0.047570	-0.400907	-1.195849	0.045119	-0.289826	-1.146132	0.024590	-0.347091	-1.304443	0.195488	-0.338403	-0.743899	1.417180	-0.145308	-0.661869	1.381405	-0.451085	
43	0.2100	-0.750660	0.924815	-0.156020	-0.732522	0.914565	-0.385065	-0.929605	0.958585	-0.243577	-0.915707	0.970388	-0.332147	-0.722574	0.727899	-0.102209	-0.680477	0.767044	-0.129036	-0.692996	0.686893	-0.104221	-0.647896	0.725493	-0.128541	-0.598505	0.515064	-0.139464	-0.595942	0.523087	-0.261695	-0.653657	0.383553	-0.131835	-0.594967	0.385819	-0.148543	-0.657681	0.316141	-0.145450	-0.601731	0.319237	-0.158786	-0.657929	0.133232	-0.186291	-0.648152	0.139007	-0.269812	-0.554468	0.055531	-0.151932	-0.530770	0.055002	-0.265332	-0.471131	0.088841	-0.204629	-0.728138	0.086092	-0.252397	-0.865595	0.714504	-0.460017	-0.808313	0.707811	-0.451089	-0.878101	0.664799	-0.455728	-0.818218	0.662307	-0.450058	-0.946560	0.435953	-0.432347	-0.941595	0.430715	-0.313792	-1.062384	0.374333	-0.439779	-1.024690	0.344246	-0.432012	-1.095628	0.338749	-0.429020	-1.058761	0.309452	-0.422223	-1.210437	0.185607	-0.393152	-1.192742	0.189238	-0.313925	-1.217250	0.054088	-0.401582	-1.189311	0.051179	-0.290548	-1.141058	0.026427	-0.347601	-1.289119	0.208037	-0.341089	-0.727793	1.418324	-0.143846	-0.645044	1.383809	-0.449441	
44	0.2150	-0.733974	0.926406	-0.155664	-0.714799	0.916540	-0.384290	-0.912395	0.959877	-0.243578	-0.898133	0.971946	-0.332060	-0.707608	0.727161	-0.101757	-0.664824	0.765884	-0.128057	-0.678522	0.685758	-0.103770	-0.632789	0.723898	-0.127420	-0.585560	0.513130	-0.139330	-0.581936	0.521600	-0.261352	-0.639938	0.380941	-0.132450	-0.581130	0.383853	-0.148897	-0.643173	0.313463	-0.146524	-0.587082	0.317184	-0.159531	-0.641212	0.130564	-0.188371	-0.630801	0.136765	-0.271787	-0.537167	0.053961	-0.153756	-0.512522	0.053853	-0.267108	-0.453698	0.088149	-0.205910	-0.710382	0.082894	-0.255230	-0.846451	0.715829	-0.460200	-0.789286	0.709239	-0.450964	-0.858739	0.665992	-0.456091	-0.798952	0.663654	-0.449962	-0.926353	0.437215	-0.433403	-0.921767	0.431769	-0.314929	-1.043232	0.378193	-0.441259	-1.006474	0.347441	-0.433229	-1.077252	0.343515	-0.430480	-1.041262	0.313460	-0.423436	-1.195683	0.193617	-0.395233	-1.178158	0.196828	-0.316065	-1.208862	0.060955	-0.402411	-1.181527	0.057547	-0.291408	-1.134748	0.028557	-0.348243	-1.272627	0.220537	-0.343752	-0.711480	1.419113	-0.142318	-0.628308	1.385904	-0.447880	
45	0.2200	-0.717293	0.927713	-0.155275	-0.697152	0.918356	-0.383550	-0.895198	0.960926	-0.243551	-0.880618	0.973225	-0.331936	-0.692802	0.726035	-0.101264	-0.649291	0.764303	-0.126985	-0.664239	0.684219	-0.103289	-0.617836	0.721863	-0.126207	-0.572933	0.510760	-0.139196	-0.568219	0.519677	-0.261018	-0.626894	0.378204	-0.133086	-0.567990	0.381536	-0.149239	-0.629577	0.310736	-0.147604	-0.573376	0.314868	-0.160269	-0.626060	0.128013	-0.190442	-0.615018	0.134582	-0.273754	-0.521760	0.052344	-0.155510	-0.496228	0.052462	-0.268814	-0.438115	0.087013	-0.207123	-0.694339	0.080064	-0.258035	-0.826908	0.716852	-0.460403	-0.769867	0.710505	-0.450856	-0.838850	0.666870	-0.456485	-0.779169	0.664838	-0.449911	-0.904981	0.438116	-0.434491	-0.900836	0.432480	-0.316110	-1.022858	0.381713	-0.442792	-0.987059	0.350317	-0.434454	-1.057653	0.347965	-0.431975	-1.022570	0.317177	-0.424623	-1.179800	0.201580	-0.397259	-1.162475	0.204377	-0.318136	-1.199074	0.068101	-0.403407	-1.172379	0.064148	-0.292419	-1.127055	0.030970	-0.349034	-1.254953	0.232867	-0.346373	-0.694944	1.419541	-0.140725	-0.611640	1.387681	-0.446403	
46	0.2250	-0.700599	0.928732	-0.154848	-0.679558	0.919993	-0.382843	-0.877999	0.961728	-0.243510	-0.863138	0.974210	-0.331791	-0.678142	0.724549	-0.100736	-0.633868	0.762329	-0.125830	-0.650128	0.682306	-0.102787	-0.603029	0.719422	-0.124915	-0.560606	0.507992	-0.139065	-0.554782	0.517350	-0.260694	-0.614499	0.375359	-0.133738	-0.555518	0.378889	-0.149572	-0.616868	0.307967	-0.148684	-0.560581	0.312303	-0.161001	-0.612445	0.125568	-0.192497	-0.600781	0.132449	-0.275709	-0.508191	0.050679	-0.157192	-0.481843	0.050825	-0.270451	-0.424324	0.085448	-0.208276	-0.679996	0.077572	-0.260794	-0.806952	0.717567	-0.460622	-0.750042	0.711601	-0.450753	-0.818425	0.667430	-0.456902	-0.758860	0.665854	-0.449892	-0.882459	0.438665	-0.435591	-0.878812	0.432858	-0.317315	-1.001268	0.384879	-0.444360	-0.966441	0.352863	-0.435673	-1.036832	0.352073	-0.433492	-1.002675	0.320583	-0.425772	-1.162746	0.209425	-0.399219	-1.145653	0.211814	-0.320129	-1.187766	0.075448	-0.404577	-1.161755	0.070896	-0.293589	-1.117835	0.033645	-0.349987	-1.236090	0.244902	-0.348932	-0.678174	1.419607	-0.139070	-0.595018	1.389135	-0.445012	
47	0.2300	-0.683877	0.929463	-0.154375	-0.661988	0.921436	-0.382165	-0.860780	0.962283	-0.243468	-0.845667	0.974893	-0.331641	-0.663611	0.722733	-0.100179	-0.618546	0.759992	-0.124601	-0.636174	0.680056	-0.102270	-0.588358	0.716609	-0.123554	-0.548564	0.504864	-0.138942	-0.541617	0.514653	-0.260381	-0.602729	0.372423	-0.134401	-0.543685	0.375937	-0.149896	-0.605014	0.305169	-0.149755	-0.548665	0.309507	-0.161727	-0.600324	0.123221	-0.194528	-0.588054	0.130361	-0.277646	-0.496392	0.048970	-0.158804	-0.469302	0.048949	-0.272022	-0.412255	0.083480	-0.209381	-0.667318	0.075388	-0.263489	-0.786573	0.717975	-0.460849	-0.729803	0.712526	-0.450645	-0.797458	0.667681	-0.457334	-0.738019	0.666707	-0.449895	-0.858811	0.438883	-0.436681	-0.855717	0.432922	-0.318518	-0.978481	0.387687	-0.445945	-0.944624	0.355077	-0.436871	-1.014796	0.355822	-0.435016	-0.981571	0.323665	-0.426873	-1.144483	0.217083	-0.401107	-1.127651	0.219070	-0.322036	-1.174829	0.082907	-0.405928	-1.149546	0.077697	-0.294927	-1.106951	0.036555	-0.351117	-1.216034	0.256520	-0.351411	-0.661157	1.419317	-0.137355	-0.578419	1.390266	-0.443704	
48	0.2350	-0.667108	0.929911	-0.153852	-0.644413	0.922672	-0.381512	-0.843520	0.962596	-0.243438	-0.828180	0.975271	-0.331500	-0.649190	0.720624	-0.099600	-0.603313	0.757329	-0.123307	-0.622360	0.677508	-0.101746	-0.573814	0.713464	-0.122137	-0.536796	0.501420	-0.138826	-0.528718	0.511623	-0.260074	-0.591554	0.369417	-0.135068	-0.532460	0.372711	-0.150212	-0.593978	0.302353	-0.150810	-0.537586	0.306500	-0.162445	-0.589639	0.120968	-0.196527	-0.576788	0.128313	-0.279559	-0.486275	0.047225	-0.160345	-0.458525	0.046850	-0.273529	-0.401822	0.081145	-0.210445	-0.656253	0.073482	-0.266103	-0.765764	0.718086	-0.461079	-0.709143	0.713287	-0.450522	-0.775949	0.667637	-0.457770	-0.716643	0.667404	-0.449907	-0.834068	0.438799	-0.437738	-0.831575	0.432699	-0.319696	-0.954520	0.390136	-0.447526	-0.921620	0.356966	-0.438035	-0.991562	0.359199	-0.436530	-0.959264	0.326417	-0.427918	-1.124980	0.224480	-0.402917	-1.108437	0.226069	-0.323851	-1.160161	0.090387	-0.407463	-1.135654	0.084452	-0.296439	-1.094274	0.039664	-0.352434	-1.194788	0.267599	-0.353792	-0.643882	1.418682	-0.135585	-0.561822	1.391079	-0.442478	
49	0.2400	-0.650274	0.930084	-0.153272	-0.626804	0.923694	-0.380877	-0.826200	0.962677	-0.243430	-0.810649	0.975348	-0.331382	-0.634864	0.718262	-0.099005	-0.588160	0.754376	-0.121959	-0.608670	0.674706	-0.101220	-0.559385	0.710026	-0.120675	-0.525291	0.497706	-0.138716	-0.516081	0.508296	-0.259770	-0.580944	0.366361	-0.135731	-0.521813	0.369244	-0.150515	-0.583719	0.299534	-0.151841	-0.527303	0.303308	-0.163152	-0.580319	0.118807	-0.198487	-0.566916	0.126308	-0.281441	-0.477742	0.045457	-0.161816	-0.449414	0.044551	-0.274976	-0.392931	0.078488	-0.211475	-0.646734	0.071827	-0.268623	-0.744521	0.717916	-0.461304	-0.688060	0.713893	-0.450372	-0.753900	0.667320	-0.458201	-0.694740	0.667962	-0.449916	-0.808271	0.438453	-0.438739	-0.806424	0.432226	-0.320826	-0.929420	0.392236	-0.449085	-0.897447	0.358543	-0.439148	-0.967155	0.362199	-0.438020	-0.935762	0.328839	-0.428896	-1.104208	0.231545	-0.404642	-1.087981	0.232740	-0.325569	-1.143677	0.097790	-0.409181	-1.119994	0.091058	-0.298125	-1.079689	0.042926	-0.353944	-1.172360	0.278023	-0.356058	-0.626339	1.417720	-0.133767	-0.545207	1.391585	-0.441332	
50	0.2450	-0.633358	0.929994	-0.152634	-0.609131	0.924497	-0.380255	-0.808800	0.962539	-0.243453	-0.793048	0.975132	-0.331298	-0.620617	0.715688	-0.098400	-0.573075	0.751172	-0.120567	-0.595089	0.671694	-0.100697	-0.545064	0.706338	-0.119180	-0.514045	0.493766	-0.138609	-0.503703	0.504712	-0.259462	-0.570870	0.363278	-0.136381	-0.511712	0.365572	-0.150803	-0.574192	0.296728	-0.152839	-0.517770	0.299961	-0.163844	-0.572284	0.116740	-0.200398	-0.558362	0.124350	-0.283284	-0.470682	0.043681	-0.163216	-0.441859	0.042082	-0.276363	-0.385476	0.075561	-0.212476	-0.638674	0.070398	-0.271035	-0.722849	0.717490	-0.461516	-0.666560	0.714362	-0.450188	-0.731325	0.666760	-0.458617	-0.672319	0.668401	-0.449910	-0.781471	0.437889	-0.439663	-0.780306	0.431545	-0.321883	-0.903224	0.393999	-0.450598	-0.872134	0.359826	-0.440197	-0.941610	0.364822	-0.439469	-0.911087	0.330937	-0.429800	-1.082148	0.238207	-0.406280	-1.066262	0.239011	-0.327187	-1.125306	0.105018	-0.411078	-1.102494	0.097411	-0.299985	-1.063099	0.046293	-0.355653	-1.148766	0.287682	-0.358194	-0.608524	1.416454	-0.131907	-0.528555	1.391798	-0.440261	
51	0.2500	-0.616344	0.929656	-0.151932	-0.591369	0.925082	-0.379639	-0.791302	0.962200	-0.243513	-0.775355	0.974641	-0.331255	-0.606433	0.712945	-0.097792	-0.558049	0.747759	-0.119141	-0.581607	0.668518	-0.100181	-0.530843	0.702443	-0.117662	-0.503053	0.489650	-0.138501	-0.491583	0.500910	-0.259143	-0.561300	0.360191	-0.137010	-0.502125	0.361736	-0.151070	-0.565349	0.293953	-0.153794	-0.508938	0.296491	-0.164516	-0.565443	0.114771	-0.202252	-0.551039	0.122448	-0.285081	-0.464976	0.041914	-0.164546	-0.435739	0.039479	-0.277690	-0.379341	0.072423	-0.213451	-0.631977	0.069173	-0.273325	-0.700757	0.716836	-0.461709	-0.644654	0.714715	-0.449960	-0.708239	0.665990	-0.459006	-0.649402	0.668747	-0.449880	-0.753728	0.437159	-0.440489	-0.753276	0.430707	-0.322845	-0.875986	0.395447	-0.452044	-0.845723	0.360840	-0.441167	-0.914971	0.367076	-0.440861	-0.885269	0.332721	-0.430622	-1.058794	0.244399	-0.407827	-1.043270	0.244814	-0.328702	-1.104998	0.111972	-0.413144	-1.083103	0.103410	-0.302013	-1.044428	0.049707	-0.357559	-1.124030	0.296475	-0.360186	-0.590434	1.414914	-0.130015	-0.511852	1.391737	-0.439263	
52	0.2550	-0.599221	0.929088	-0.151166	-0.573496	0.925453	-0.379024	-0.773693	0.961682	-0.243614	-0.757550	0.973893	-0.331258	-0.592302	0.710077	-0.097186	-0.543075	0.744177	-0.117691	-0.568211	0.665223	-0.099677	-0.516715	0.698384	-0.116131	-0.492313	0.485405	-0.138387	-0.479721	0.496932	-0.258805	-0.552202	0.357124	-0.137609	-0.493023	0.357777	-0.151312	-0.557142	0.291229	-0.154698	-0.500758	0.292933	-0.165162	-0.559697	0.112909	-0.204039	-0.544851	0.120613	-0.286822	-0.460496	0.040176	-0.165804	-0.430926	0.036783	-0.278958	-0.374409	0.069134	-0.214401	-0.626533	0.068135	-0.275484	-0.678263	0.715989	-0.461874	-0.622361	0.714977	-0.449683	-0.684671	0.665050	-0.459358	-0.626016	0.669027	-0.449813	-0.725111	0.436319	-0.441198	-0.725397	0.429762	-0.323691	-0.847769	0.396602	-0.453403	-0.818262	0.361614	-0.442046	-0.887295	0.368970	-0.442179	-0.858351	0.334208	-0.431356	-1.034149	0.250059	-0.409279	-1.019009	0.250085	-0.330112	-1.082729	0.118557	-0.415368	-1.061790	0.108957	-0.304201	-1.023625	0.053111	-0.359657	-1.098186	0.304311	-0.362024	-0.572072	1.413132	-0.128100	-0.495090	1.391426	-0.438332	
53	0.2600	-0.581980	0.928310	-0.150336	-0.555496	0.925617	-0.378402	-0.755962	0.961008	-0.243757	-0.739619	0.972916	-0.331310	-0.578215	0.707129	-0.096586	-0.528148	0.740468	-0.116227	-0.554896	0.661857	-0.099185	-0.502679	0.694205	-0.114597	-0.481826	0.481080	-0.138262	-0.468117	0.492817	-0.258441	-0.543547	0.354103	-0.138169	-0.484376	0.353739	-0.151521	-0.549518	0.288574	-0.155543	-0.493180	0.289324	-0.165774	-0.554943	0.111164	-0.205750	-0.539694	0.118860	-0.288499	-0.457113	0.038488	-0.166989	-0.427283	0.034036	-0.280164	-0.370556	0.065757	-0.215323	-0.622226	0.067270	-0.277503	-0.655396	0.714988	-0.462004	-0.599710	0.715175	-0.449351	-0.660655	0.663983	-0.459663	-0.602199	0.669273	-0.449701	-0.695703	0.435425	-0.441771	-0.696744	0.428767	-0.324402	-0.818651	0.397492	-0.454654	-0.789816	0.362178	-0.442821	-0.858650	0.370520	-0.443408	-0.830389	0.335416	-0.431994	-1.008234	0.255130	-0.410635	-0.993494	0.254768	-0.331415	-1.058498	0.124686	-0.417732	-1.038549	0.113963	-0.306535	-1.000670	0.056444	-0.361938	-1.071280	0.311114	-0.363698	-0.553447	1.411147	-0.126175	-0.478264	1.390891	-0.437465	
54	0.2650	-0.564620	0.927343	-0.149442	-0.537360	0.925587	-0.377769	-0.738107	0.960205	-0.243941	-0.721558	0.971739	-0.331411	-0.564168	0.704141	-0.095998	-0.513268	0.736672	-0.114757	-0.541659	0.658463	-0.098707	-0.488733	0.689947	-0.113067	-0.471593	0.476721	-0.138118	-0.456773	0.488606	-0.258043	-0.535304	0.351152	-0.138682	-0.476155	0.349665	-0.151693	-0.542429	0.286012	-0.156321	-0.486153	0.285703	-0.166345	-0.551073	0.109547	-0.207374	-0.535462	0.117205	-0.290101	-0.454694	0.036868	-0.168099	-0.424673	0.031281	-0.281307	-0.367659	0.062355	-0.216217	-0.618932	0.066567	-0.279374	-0.632192	0.713874	-0.462091	-0.576739	0.715340	-0.448960	-0.636239	0.662833	-0.459911	-0.577999	0.669517	-0.449537	-0.665596	0.434535	-0.442194	-0.667402	0.427776	-0.324960	-0.788718	0.398146	-0.455778	-0.760461	0.362568	-0.443481	-0.829119	0.371745	-0.444533	-0.801453	0.336369	-0.432533	-0.981087	0.259562	-0.411894	-0.966763	0.258813	-0.332611	-1.032334	0.130276	-0.420217	-1.013403	0.118349	-0.308999	-0.975573	0.059645	-0.364385	-1.043371	0.316821	-0.365202	-0.534575	1.408997	-0.124250	-0.461376	1.390161	-0.436659	
55	0.2700	-0.547147	0.926211	-0.148487	-0.519087	0.925378	-0.377121	-0.720131	0.959301	-0.244163	-0.703367	0.970396	-0.331558	-0.550161	0.701157	-0.095425	-0.498439	0.732830	-0.113290	-0.528500	0.655084	-0.098245	-0.474882	0.685654	-0.111550	-0.461619	0.472374	-0.137951	-0.445693	0.484339	-0.257603	-0.527447	0.348296	-0.139141	-0.468334	0.345600	-0.151820	-0.535824	0.283562	-0.157025	-0.479630	0.282110	-0.166868	-0.547980	0.108071	-0.208902	-0.532045	0.115666	-0.291619	-0.453108	0.035334	-0.169132	-0.422957	0.028564	-0.282385	-0.365595	0.058988	-0.217077	-0.616526	0.066018	-0.281092	-0.608699	0.712690	-0.462128	-0.553496	0.715501	-0.448508	-0.611479	0.661646	-0.460092	-0.553477	0.669790	-0.449313	-0.634894	0.433706	-0.442454	-0.637471	0.426844	-0.325351	-0.758071	0.398594	-0.456758	-0.730289	0.362817	-0.444015	-0.798796	0.372668	-0.445540	-0.771629	0.337089	-0.432966	-0.952766	0.263315	-0.413052	-0.938870	0.262181	-0.333700	-1.004299	0.135258	-0.422798	-0.986402	0.122049	-0.311571	-0.948380	0.062656	-0.366980	-1.014531	0.321386	-0.366532	-0.515480	1.406728	-0.122339	-0.444437	1.389267	-0.435908	
56	0.2750	-0.529573	0.924939	-0.147474	-0.500688	0.925006	-0.376453	-0.702047	0.958324	-0.244419	-0.685059	0.968923	-0.331745	-0.536201	0.698214	-0.094869	-0.483669	0.728981	-0.111834	-0.515427	0.651760	-0.097796	-0.461134	0.681363	-0.110052	-0.451909	0.468083	-0.137754	-0.434881	0.480056	-0.257117	-0.519948	0.345560	-0.139539	-0.460889	0.341588	-0.151898	-0.529656	0.281246	-0.157650	-0.473562	0.278582	-0.167336	-0.545557	0.106749	-0.210325	-0.529333	0.114259	-0.293043	-0.452225	0.033905	-0.170087	-0.422000	0.025925	-0.283393	-0.364244	0.055711	-0.217897	-0.614881	0.065619	-0.282653	-0.584977	0.711478	-0.462111	-0.530041	0.715688	-0.447995	-0.586445	0.660467	-0.460200	-0.528700	0.670124	-0.449026	-0.603714	0.432989	-0.442540	-0.607061	0.426021	-0.325564	-0.726826	0.398869	-0.457578	-0.699408	0.362960	-0.444416	-0.767793	0.373311	-0.446417	-0.741018	0.337604	-0.433291	-0.923349	0.266359	-0.414111	-0.909891	0.264842	-0.334679	-0.974485	0.139571	-0.425448	-0.957629	0.125008	-0.314227	-0.919172	0.065424	-0.369697	-0.984850	0.324781	-0.367685	-0.496194	1.404381	-0.120455	-0.427465	1.388242	-0.435209	
57	0.2800	-0.511922	0.923553	-0.146409	-0.482183	0.924492	-0.375764	-0.683877	0.957303	-0.244701	-0.666656	0.967357	-0.331965	-0.522301	0.695348	-0.094334	-0.468974	0.725162	-0.110397	-0.502449	0.648529	-0.097361	-0.447503	0.677115	-0.108580	-0.442470	0.463890	-0.137524	-0.424344	0.475795	-0.256578	-0.512784	0.342968	-0.139872	-0.453796	0.337670	-0.151921	-0.523879	0.279085	-0.158191	-0.467905	0.275158	-0.167743	-0.543698	0.105596	-0.211635	-0.527219	0.113002	-0.294364	-0.451923	0.032593	-0.170961	-0.421668	0.023404	-0.284329	-0.363491	0.052577	-0.218673	-0.613872	0.065369	-0.284054	-0.561096	0.710281	-0.462033	-0.506443	0.715930	-0.447422	-0.561216	0.659338	-0.460226	-0.503752	0.670547	-0.448671	-0.572185	0.432432	-0.442446	-0.576295	0.425355	-0.325590	-0.695109	0.399000	-0.458227	-0.667939	0.363030	-0.444676	-0.736234	0.373701	-0.447154	-0.709741	0.337940	-0.433505	-0.892939	0.268675	-0.415068	-0.879925	0.266780	-0.335551	-0.943019	0.143170	-0.428140	-0.927201	0.127193	-0.316942	-0.888070	0.067901	-0.372509	-0.954434	0.326998	-0.368665	-0.476761	1.402002	-0.118610	-0.410487	1.387120	-0.434559	
58	0.2850	-0.494226	0.922078	-0.145298	-0.463605	0.923857	-0.375051	-0.665654	0.956265	-0.245003	-0.648191	0.965737	-0.332210	-0.508479	0.692593	-0.093820	-0.454376	0.721406	-0.108984	-0.489585	0.645424	-0.096939	-0.434007	0.672943	-0.107139	-0.433310	0.459832	-0.137255	-0.414089	0.471591	-0.255984	-0.505935	0.340540	-0.140136	-0.447037	0.333885	-0.151886	-0.518453	0.277096	-0.158646	-0.462618	0.271872	-0.168082	-0.542305	0.104622	-0.212824	-0.525600	0.111911	-0.295574	-0.452085	0.031409	-0.171754	-0.421839	0.021034	-0.285190	-0.363226	0.049627	-0.219399	-0.613381	0.065267	-0.285296	-0.537137	0.709136	-0.461891	-0.482784	0.716252	-0.446792	-0.535883	0.658297	-0.460167	-0.478724	0.671083	-0.448249	-0.540446	0.432075	-0.442169	-0.545310	0.424886	-0.325427	-0.663061	0.399018	-0.458695	-0.636021	0.363057	-0.444792	-0.704259	0.373864	-0.447744	-0.677934	0.338122	-0.433607	-0.861660	0.270255	-0.415923	-0.849095	0.267989	-0.336316	-0.910062	0.146026	-0.430843	-0.895265	0.128582	-0.319685	-0.855232	0.070046	-0.375382	-0.923405	0.328046	-0.369473	-0.457233	1.399633	-0.116817	-0.393539	1.385934	-0.433955	
59	0.2900	-0.476527	0.920541	-0.144149	-0.444998	0.923124	-0.374316	-0.647421	0.955237	-0.245315	-0.629711	0.964099	-0.332470	-0.494762	0.689975	-0.093330	-0.439903	0.717747	-0.107602	-0.476858	0.642473	-0.096529	-0.420671	0.668882	-0.105733	-0.424440	0.455945	-0.136946	-0.404125	0.467480	-0.255335	-0.499384	0.338297	-0.140329	-0.440595	0.330271	-0.151791	-0.513340	0.275297	-0.159012	-0.457665	0.268757	-0.168350	-0.541284	0.103837	-0.213887	-0.524379	0.110999	-0.296666	-0.452603	0.030362	-0.172464	-0.422395	0.018845	-0.285973	-0.363350	0.046900	-0.220068	-0.613294	0.065312	-0.286378	-0.513194	0.708081	-0.461682	-0.459156	0.716675	-0.446109	-0.510551	0.657381	-0.460018	-0.453720	0.671752	-0.447758	-0.508648	0.431952	-0.441709	-0.514251	0.424647	-0.325073	-0.630836	0.398949	-0.458976	-0.603807	0.363070	-0.444761	-0.672022	0.373828	-0.448180	-0.645748	0.338178	-0.433596	-0.829660	0.271104	-0.416677	-0.817547	0.268476	-0.336973	-0.875806	0.148123	-0.433524	-0.862003	0.129175	-0.322426	-0.820856	0.071830	-0.378283	-0.891904	0.327953	-0.370116	-0.437673	1.397316	-0.115090	-0.376667	1.384716	-0.433394	
60	0.2950	-0.458878	0.918965	-0.142969	-0.426418	0.922316	-0.373559	-0.629233	0.954243	-0.245629	-0.611271	0.962480	-0.332733	-0.481183	0.687520	-0.092863	-0.425590	0.714212	-0.106256	-0.464295	0.639703	-0.096128	-0.407525	0.664960	-0.104368	-0.415869	0.452259	-0.136595	-0.394466	0.463494	-0.254630	-0.493116	0.336253	-0.140452	-0.434457	0.326860	-0.151635	-0.508507	0.273700	-0.159290	-0.453011	0.265842	-0.168543	-0.540550	0.103249	-0.214819	-0.523466	0.110277	-0.297634	-0.453379	0.029457	-0.173090	-0.423232	0.016860	-0.286676	-0.363769	0.044423	-0.220677	-0.613507	0.065506	-0.287305	-0.489370	0.707146	-0.461406	-0.435659	0.717217	-0.445378	-0.485332	0.656617	-0.459779	-0.428850	0.672569	-0.447203	-0.476952	0.432086	-0.441069	-0.483278	0.424664	-0.324533	-0.598599	0.398818	-0.459069	-0.571466	0.363093	-0.444583	-0.639689	0.373617	-0.448460	-0.613354	0.338131	-0.433474	-0.797112	0.271241	-0.417330	-0.785449	0.268262	-0.337526	-0.840477	0.149463	-0.436154	-0.827629	0.128988	-0.325135	-0.785173	0.073229	-0.381175	-0.860089	0.326770	-0.370603	-0.418152	1.395089	-0.113439	-0.359925	1.383497	-0.432874	
61	0.3000	-0.441342	0.917377	-0.141769	-0.407934	0.921458	-0.372783	-0.611154	0.953305	-0.245935	-0.592939	0.960911	-0.332991	-0.467781	0.685248	-0.092419	-0.411480	0.710827	-0.104951	-0.451932	0.637132	-0.095736	-0.394605	0.661206	-0.103047	-0.407611	0.448801	-0.136204	-0.385124	0.459661	-0.253873	-0.487122	0.334423	-0.140504	-0.428611	0.323679	-0.151418	-0.503927	0.272316	-0.159482	-0.448630	0.263151	-0.168661	-0.540025	0.102862	-0.215618	-0.522781	0.109751	-0.298475	-0.454326	0.028692	-0.173635	-0.424254	0.015096	-0.287299	-0.364401	0.042216	-0.221221	-0.613927	0.065847	-0.288080	-0.465777	0.706356	-0.461063	-0.412402	0.717890	-0.444608	-0.460348	0.656028	-0.459451	-0.404237	0.673543	-0.446586	-0.445527	0.432492	-0.440259	-0.452556	0.424952	-0.323813	-0.566525	0.398648	-0.458976	-0.539176	0.363145	-0.444263	-0.607440	0.373260	-0.448585	-0.580933	0.338004	-0.433244	-0.764206	0.270694	-0.417884	-0.752991	0.267382	-0.337976	-0.804326	0.150063	-0.438702	-0.792385	0.128054	-0.327780	-0.748449	0.074234	-0.384022	-0.828133	0.324561	-0.370944	-0.398755	1.392987	-0.111875	-0.343374	1.382307	-0.432393	
62	0.3050	-0.423991	0.915798	-0.140558	-0.389624	0.920570	-0.371992	-0.593260	0.952440	-0.246226	-0.574793	0.959423	-0.333233	-0.454603	0.683172	-0.092000	-0.397620	0.707615	-0.103692	-0.439808	0.634778	-0.095353	-0.381951	0.657641	-0.101775	-0.399678	0.445591	-0.135773	-0.376116	0.456008	-0.253069	-0.481394	0.332815	-0.140489	-0.423050	0.320751	-0.151144	-0.499579	0.271151	-0.159591	-0.444495	0.260704	-0.168703	-0.539643	0.102676	-0.216284	-0.522252	0.109425	-0.299186	-0.455370	0.028068	-0.174098	-0.425380	0.013563	-0.287840	-0.365173	0.040290	-0.221697	-0.614471	0.066334	-0.288710	-0.442534	0.705730	-0.460655	-0.389504	0.718701	-0.443805	-0.435727	0.655632	-0.459035	-0.380006	0.674678	-0.445913	-0.414547	0.433176	-0.439290	-0.422258	0.425519	-0.322926	-0.534797	0.398457	-0.458702	-0.507129	0.363244	-0.443806	-0.575462	0.372780	-0.448558	-0.548680	0.337819	-0.432910	-0.731153	0.269507	-0.418339	-0.720381	0.265879	-0.338325	-0.767631	0.149953	-0.441139	-0.756538	0.126421	-0.330332	-0.710978	0.074843	-0.386788	-0.796224	0.321410	-0.371150	-0.379571	1.391040	-0.110407	-0.327083	1.381171	-0.431949	
63	0.3100	-0.406905	0.914250	-0.139346	-0.371574	0.919676	-0.371191	-0.575633	0.951663	-0.246493	-0.556920	0.958040	-0.333450	-0.441698	0.681303	-0.091605	-0.384064	0.704594	-0.102484	-0.427966	0.632649	-0.094976	-0.369609	0.654285	-0.100555	-0.392084	0.442645	-0.135307	-0.367459	0.452557	-0.252225	-0.475929	0.331435	-0.140411	-0.417770	0.318092	-0.150815	-0.495443	0.270207	-0.159621	-0.440590	0.258514	-0.168671	-0.539346	0.102688	-0.216818	-0.521820	0.109296	-0.299768	-0.456444	0.027577	-0.174483	-0.426539	0.012266	-0.288302	-0.366024	0.038648	-0.222105	-0.615067	0.066963	-0.289203	-0.419764	0.705283	-0.460186	-0.367083	0.719651	-0.442979	-0.411604	0.655436	-0.458538	-0.356287	0.675969	-0.445192	-0.384191	0.434133	-0.438175	-0.392560	0.426362	-0.321886	-0.503604	0.398261	-0.458257	-0.475523	0.363399	-0.443219	-0.543949	0.372201	-0.448386	-0.516799	0.337594	-0.432481	-0.698179	0.267733	-0.418699	-0.687842	0.263811	-0.338578	-0.730689	0.149182	-0.443442	-0.720377	0.124154	-0.332763	-0.673077	0.075068	-0.389440	-0.764560	0.317415	-0.371236	-0.360698	1.389273	-0.109043	-0.311128	1.380111	-0.431542	
64	0.3150	-0.390170	0.912753	-0.138143	-0.353879	0.918794	-0.370384	-0.558363	0.950985	-0.246730	-0.539411	0.956784	-0.333634	-0.429124	0.679646	-0.091232	-0.370868	0.701778	-0.101330	-0.416455	0.630751	-0.094606	-0.357626	0.651154	-0.099390	-0.384845	0.439975	-0.134810	-0.359172	0.449326	-0.251349	-0.470726	0.330283	-0.140276	-0.412767	0.315715	-0.150438	-0.491509	0.269483	-0.159580	-0.436899	0.256590	-0.168569	-0.539087	0.102889	-0.217224	-0.521432	0.109359	-0.300224	-0.457498	0.027212	-0.174792	-0.427675	0.011202	-0.288686	-0.366902	0.037287	-0.222445	-0.615658	0.067726	-0.289566	-0.397594	0.705020	-0.459662	-0.345264	0.720736	-0.442138	-0.388114	0.655443	-0.457965	-0.333215	0.677408	-0.444431	-0.354637	0.435350	-0.436935	-0.363641	0.427470	-0.320712	-0.473135	0.398073	-0.457655	-0.444559	0.363617	-0.442515	-0.513100	0.371547	-0.448077	-0.485497	0.337345	-0.431963	-0.665521	0.265436	-0.418968	-0.655609	0.261243	-0.338739	-0.693810	0.147808	-0.445586	-0.684207	0.121327	-0.335050	-0.635082	0.074928	-0.391946	-0.733349	0.312688	-0.371215	-0.342239	1.387704	-0.107789	-0.295588	1.379146	-0.431169	
65	0.3200	-0.373876	0.911323	-0.136960	-0.336638	0.917942	-0.369579	-0.541544	0.950413	-0.246931	-0.522365	0.955669	-0.333780	-0.416937	0.678202	-0.090883	-0.358095	0.699177	-0.100233	-0.405324	0.629086	-0.094244	-0.346054	0.648258	-0.098284	-0.377974	0.437586	-0.134288	-0.351274	0.446330	-0.250451	-0.465788	0.329355	-0.140090	-0.408041	0.313624	-0.150020	-0.487769	0.268973	-0.159473	-0.433412	0.254934	-0.168403	-0.538831	0.103268	-0.217509	-0.521052	0.109604	-0.300557	-0.458491	0.026963	-0.175032	-0.428744	0.010363	-0.288995	-0.367766	0.036194	-0.222719	-0.616198	0.068614	-0.289812	-0.376150	0.704941	-0.459090	-0.324169	0.721944	-0.441292	-0.365393	0.655647	-0.457327	-0.310918	0.678980	-0.443640	-0.326062	0.436805	-0.435588	-0.335673	0.428823	-0.319424	-0.443581	0.397902	-0.456911	-0.414438	0.363902	-0.441708	-0.483112	0.370837	-0.447644	-0.454984	0.337087	-0.431367	-0.633422	0.262685	-0.419150	-0.623923	0.258250	-0.338815	-0.657314	0.145900	-0.447556	-0.648343	0.118027	-0.337172	-0.597339	0.074452	-0.394280	-0.702803	0.307349	-0.371103	-0.324298	1.386345	-0.106648	-0.280543	1.378289	-0.430829	
66	0.3250	-0.358118	0.909975	-0.135806	-0.319952	0.917136	-0.368782	-0.525275	0.949950	-0.247094	-0.505881	0.954705	-0.333883	-0.405198	0.676968	-0.090555	-0.345804	0.696799	-0.099198	-0.394623	0.627649	-0.093890	-0.334944	0.645606	-0.097240	-0.371485	0.435478	-0.133748	-0.343787	0.443580	-0.249541	-0.461118	0.328644	-0.139861	-0.403593	0.311819	-0.149567	-0.484219	0.268665	-0.159310	-0.430123	0.253544	-0.168179	-0.538549	0.103809	-0.217679	-0.520649	0.110016	-0.300775	-0.459392	0.026816	-0.175206	-0.429711	0.009736	-0.289236	-0.368582	0.035353	-0.222929	-0.616653	0.069614	-0.289951	-0.355557	0.705039	-0.458478	-0.303917	0.723263	-0.440452	-0.343572	0.656038	-0.456633	-0.289526	0.680664	-0.442829	-0.298633	0.438469	-0.434159	-0.308825	0.430393	-0.318046	-0.415124	0.397755	-0.456047	-0.385359	0.364252	-0.440811	-0.454178	0.370091	-0.447102	-0.425467	0.336830	-0.430704	-0.602126	0.259561	-0.419252	-0.593026	0.254911	-0.338811	-0.621521	0.143537	-0.449337	-0.613100	0.114345	-0.339111	-0.560195	0.073675	-0.396421	-0.673132	0.301527	-0.370914	-0.306982	1.385204	-0.105623	-0.266076	1.377550	-0.430523	
67	0.3300	-0.342986	0.908721	-0.134692	-0.303923	0.916387	-0.368000	-0.509650	0.949595	-0.247215	-0.490057	0.953896	-0.333942	-0.393967	0.675935	-0.090250	-0.334057	0.694647	-0.098227	-0.384405	0.626433	-0.093546	-0.324347	0.643199	-0.096260	-0.365392	0.433646	-0.133199	-0.336728	0.441080	-0.248632	-0.456721	0.328138	-0.139597	-0.399426	0.310293	-0.149088	-0.480859	0.268545	-0.159100	-0.427028	0.252410	-0.167905	-0.538223	0.104493	-0.217747	-0.520204	0.110576	-0.300887	-0.460180	0.026760	-0.175322	-0.430555	0.009305	-0.289412	-0.369327	0.034743	-0.223081	-0.616999	0.070710	-0.289995	-0.335930	0.705303	-0.457835	-0.284623	0.724671	-0.439625	-0.322777	0.656598	-0.455896	-0.269157	0.682436	-0.442008	-0.272510	0.440307	-0.432671	-0.283254	0.432148	-0.316603	-0.387938	0.397634	-0.455083	-0.357510	0.364661	-0.439844	-0.426481	0.369328	-0.446467	-0.397144	0.336583	-0.429988	-0.571872	0.256145	-0.419279	-0.563154	0.251310	-0.338736	-0.586743	0.140803	-0.450920	-0.578792	0.110378	-0.340856	-0.523993	0.072641	-0.398352	-0.644542	0.295355	-0.370665	-0.290393	1.384279	-0.104713	-0.252264	1.376935	-0.430247	
68	0.3350	-0.328571	0.907568	-0.133626	-0.288646	0.915705	-0.367240	-0.494763	0.949345	-0.247295	-0.474988	0.953243	-0.333955	-0.383300	0.675093	-0.089966	-0.322913	0.692719	-0.097322	-0.374718	0.625427	-0.093212	-0.314313	0.641039	-0.095346	-0.359707	0.432081	-0.132647	-0.330117	0.438834	-0.247734	-0.452605	0.327822	-0.139306	-0.395543	0.309034	-0.148594	-0.477691	0.268596	-0.158851	-0.424126	0.251519	-0.167590	-0.537845	0.105297	-0.217721	-0.519706	0.111264	-0.300903	-0.460844	0.026779	-0.175385	-0.431262	0.009048	-0.289530	-0.369986	0.034339	-0.223180	-0.617225	0.071884	-0.289957	-0.317376	0.705716	-0.457172	-0.266390	0.726147	-0.438821	-0.303121	0.657306	-0.455127	-0.249921	0.684270	-0.441189	-0.247837	0.442280	-0.431150	-0.259103	0.434048	-0.315120	-0.362183	0.397542	-0.454043	-0.331065	0.365121	-0.438825	-0.400191	0.368561	-0.445757	-0.370200	0.336353	-0.429232	-0.542888	0.252523	-0.419241	-0.534534	0.247533	-0.338598	-0.553277	0.137787	-0.452302	-0.545717	0.106225	-0.342400	-0.489060	0.071396	-0.400062	-0.617230	0.288965	-0.370369	-0.274629	1.383566	-0.103916	-0.239182	1.376444	-0.430001	
69	0.3400	-0.314954	0.906524	-0.132616	-0.274213	0.915097	-0.366508	-0.480700	0.949193	-0.247334	-0.460762	0.952741	-0.333925	-0.373252	0.674428	-0.089703	-0.312425	0.691011	-0.096485	-0.365606	0.624615	-0.092890	-0.304886	0.639120	-0.094502	-0.354438	0.430769	-0.132102	-0.323969	0.436837	-0.246859	-0.448775	0.327676	-0.138997	-0.391947	0.308027	-0.148092	-0.474721	0.268795	-0.158574	-0.421418	0.250854	-0.167245	-0.537410	0.106197	-0.217617	-0.519154	0.112055	-0.300836	-0.461381	0.026859	-0.175403	-0.431829	0.008944	-0.289597	-0.370550	0.034114	-0.223231	-0.617328	0.073115	-0.289850	-0.299990	0.706256	-0.456499	-0.249310	0.727666	-0.438049	-0.284704	0.658136	-0.454342	-0.231914	0.686134	-0.440382	-0.224738	0.444343	-0.429621	-0.236495	0.436051	-0.313624	-0.338001	0.397479	-0.452952	-0.306181	0.365623	-0.437773	-0.375462	0.367805	-0.444992	-0.344802	0.336145	-0.428450	-0.515383	0.248778	-0.419145	-0.507373	0.243663	-0.338408	-0.521400	0.134576	-0.453485	-0.514153	0.101982	-0.343742	-0.455703	0.069990	-0.401547	-0.591376	0.282489	-0.370042	-0.259779	1.383052	-0.103230	-0.226896	1.376073	-0.429785	
70	0.3450	-0.302211	0.905592	-0.131668	-0.260705	0.914565	-0.365811	-0.467539	0.949129	-0.247335	-0.447456	0.952379	-0.333855	-0.363870	0.673923	-0.089461	-0.302643	0.689516	-0.095717	-0.357110	0.623981	-0.092584	-0.296106	0.637436	-0.093727	-0.349594	0.429693	-0.131571	-0.318297	0.435085	-0.246018	-0.445238	0.327678	-0.138679	-0.388640	0.307252	-0.147593	-0.471954	0.269121	-0.158278	-0.418907	0.250394	-0.166878	-0.536924	0.107167	-0.217446	-0.518549	0.112924	-0.300697	-0.461792	0.026987	-0.175384	-0.432260	0.008967	-0.289621	-0.371017	0.034039	-0.223243	-0.617310	0.074380	-0.289689	-0.283852	0.706900	-0.455827	-0.233459	0.729201	-0.437316	-0.267612	0.659060	-0.453553	-0.215214	0.687999	-0.439598	-0.203317	0.446454	-0.428109	-0.215533	0.438114	-0.312140	-0.315512	0.397442	-0.451833	-0.282992	0.366155	-0.436708	-0.352423	0.367073	-0.444191	-0.321092	0.335962	-0.427658	-0.489545	0.244994	-0.419001	-0.481857	0.239782	-0.338174	-0.491357	0.131260	-0.454474	-0.484353	0.097740	-0.344884	-0.424194	0.068472	-0.402810	-0.567140	0.276051	-0.369695	-0.245921	1.382722	-0.102647	-0.215464	1.375817	-0.429595	
71	0.3500	-0.290402	0.904771	-0.130789	-0.248187	0.914112	-0.365156	-0.455345	0.949142	-0.247302	-0.435135	0.952145	-0.333749	-0.355193	0.673560	-0.089240	-0.293605	0.688224	-0.095019	-0.349263	0.623505	-0.092294	-0.288006	0.635975	-0.093023	-0.345177	0.428834	-0.131062	-0.313110	0.433566	-0.245221	-0.441997	0.327807	-0.138359	-0.385623	0.306684	-0.147105	-0.469396	0.269547	-0.157972	-0.416594	0.250113	-0.166500	-0.536393	0.108180	-0.217224	-0.517902	0.113844	-0.300502	-0.462086	0.027150	-0.175335	-0.432561	0.009095	-0.289608	-0.371389	0.034085	-0.223221	-0.617184	0.075657	-0.289486	-0.269023	0.707623	-0.455167	-0.218895	0.730726	-0.436629	-0.251907	0.660048	-0.452775	-0.199882	0.689835	-0.438847	-0.183653	0.448569	-0.426637	-0.196295	0.440191	-0.310692	-0.294809	0.397429	-0.450711	-0.261605	0.366704	-0.435650	-0.331177	0.366374	-0.443374	-0.299190	0.335804	-0.426870	-0.465532	0.241248	-0.418819	-0.458143	0.235966	-0.337907	-0.463360	0.127920	-0.455279	-0.456532	0.093584	-0.345835	-0.394770	0.066892	-0.403857	-0.544655	0.269766	-0.369342	-0.233118	1.382555	-0.102162	-0.204933	1.375666	-0.429432	
72	0.3550	-0.279579	0.904060	-0.129983	-0.236715	0.913734	-0.364546	-0.444168	0.949219	-0.247239	-0.423851	0.952024	-0.333615	-0.347251	0.673319	-0.089039	-0.285342	0.687122	-0.094392	-0.342089	0.623167	-0.092022	-0.280609	0.634725	-0.092390	-0.341187	0.428167	-0.130581	-0.308413	0.432269	-0.244475	-0.439054	0.328038	-0.138045	-0.382894	0.306298	-0.146636	-0.467052	0.270050	-0.157665	-0.414483	0.249985	-0.166121	-0.535830	0.109210	-0.216963	-0.517226	0.114789	-0.300264	-0.462274	0.027334	-0.175262	-0.432747	0.009301	-0.289567	-0.371671	0.034225	-0.223174	-0.616963	0.076923	-0.289253	-0.255543	0.708397	-0.454528	-0.205659	0.732213	-0.435992	-0.237635	0.661072	-0.452018	-0.185958	0.691612	-0.438137	-0.165799	0.450645	-0.425228	-0.178832	0.442242	-0.309303	-0.275958	0.397436	-0.449609	-0.242097	0.367258	-0.434616	-0.311800	0.365717	-0.442560	-0.279181	0.335672	-0.426100	-0.443471	0.237612	-0.418608	-0.436356	0.232284	-0.337618	-0.437576	0.124634	-0.455914	-0.430866	0.089591	-0.346605	-0.367622	0.065296	-0.404700	-0.524026	0.263738	-0.368991	-0.221419	1.382530	-0.101766	-0.195335	1.375606	-0.429292	
73	0.3600	-0.269773	0.903454	-0.129253	-0.226323	0.913428	-0.363985	-0.434043	0.949347	-0.247153	-0.413637	0.951998	-0.333458	-0.340066	0.673182	-0.088858	-0.277872	0.686195	-0.093833	-0.335605	0.622947	-0.091771	-0.273930	0.633669	-0.091826	-0.337621	0.427670	-0.130133	-0.304203	0.431178	-0.243789	-0.436410	0.328346	-0.137743	-0.380452	0.306068	-0.146193	-0.464925	0.270603	-0.157365	-0.412574	0.249985	-0.165748	-0.535248	0.110233	-0.216678	-0.516534	0.115735	-0.299996	-0.462370	0.027529	-0.175173	-0.432834	0.009564	-0.289505	-0.371873	0.034433	-0.223108	-0.616668	0.078154	-0.289002	-0.243432	0.709196	-0.453921	-0.193770	0.733640	-0.435410	-0.224814	0.662101	-0.451297	-0.173459	0.693303	-0.437476	-0.149776	0.452644	-0.423900	-0.163165	0.444225	-0.307991	-0.258996	0.397459	-0.448547	-0.224515	0.367802	-0.433626	-0.294336	0.365109	-0.441765	-0.261120	0.335565	-0.425360	-0.423448	0.234148	-0.418378	-0.416582	0.228796	-0.337317	-0.414128	0.121469	-0.456396	-0.407486	0.085825	-0.347210	-0.342893	0.063727	-0.405356	-0.505326	0.258055	-0.368653	-0.210853	1.382621	-0.101450	-0.186688	1.375624	-0.429174	
74	0.3650	-0.261000	0.902946	-0.128600	-0.217028	0.913189	-0.363478	-0.424987	0.949513	-0.247049	-0.404509	0.952050	-0.333286	-0.333643	0.673128	-0.088697	-0.271203	0.685429	-0.093341	-0.329814	0.622823	-0.091542	-0.267971	0.632792	-0.091331	-0.334468	0.427317	-0.129723	-0.300475	0.430275	-0.243166	-0.434061	0.328707	-0.137459	-0.378290	0.305964	-0.145782	-0.463017	0.271183	-0.157078	-0.410866	0.250084	-0.165391	-0.534662	0.111224	-0.216381	-0.515844	0.116658	-0.299712	-0.462392	0.027726	-0.175075	-0.432839	0.009862	-0.289428	-0.372006	0.034685	-0.223029	-0.616317	0.079330	-0.288745	-0.232689	0.709996	-0.453352	-0.183223	0.734985	-0.434886	-0.213444	0.663110	-0.450620	-0.162381	0.694886	-0.436869	-0.135578	0.454533	-0.422669	-0.149288	0.446107	-0.306773	-0.243926	0.397494	-0.447543	-0.208870	0.368327	-0.432692	-0.278796	0.364554	-0.441006	-0.245025	0.335480	-0.424663	-0.405514	0.230909	-0.418138	-0.398872	0.225552	-0.337013	-0.393090	0.118484	-0.456744	-0.386474	0.082339	-0.347667	-0.320672	0.062221	-0.405846	-0.488592	0.252792	-0.368334	-0.201430	1.382804	-0.101205	-0.178996	1.375704	-0.429077	
75	0.3700	-0.253260	0.902530	-0.128024	-0.208830	0.913009	-0.363025	-0.416998	0.949703	-0.246933	-0.396462	0.952160	-0.333105	-0.327981	0.673138	-0.088554	-0.265327	0.684805	-0.092914	-0.324713	0.622776	-0.091335	-0.262727	0.632075	-0.090901	-0.331717	0.427084	-0.129355	-0.297216	0.429541	-0.242611	-0.432001	0.329099	-0.137197	-0.376400	0.305961	-0.145407	-0.461327	0.271768	-0.156810	-0.409358	0.250257	-0.165056	-0.534089	0.112165	-0.216084	-0.515172	0.117538	-0.299424	-0.462354	0.027917	-0.174972	-0.432781	0.010175	-0.289343	-0.372081	0.034960	-0.222944	-0.615932	0.080432	-0.288490	-0.223289	0.710775	-0.452829	-0.173996	0.736229	-0.434420	-0.203497	0.664074	-0.449996	-0.152695	0.696341	-0.436320	-0.123169	0.456282	-0.421547	-0.137165	0.447857	-0.305661	-0.230720	0.397537	-0.446613	-0.195143	0.368822	-0.431828	-0.265158	0.364056	-0.440295	-0.230883	0.335416	-0.424017	-0.389678	0.227938	-0.417897	-0.383234	0.222589	-0.336715	-0.374485	0.115727	-0.456977	-0.367862	0.079171	-0.347997	-0.300995	0.060811	-0.406190	-0.473826	0.248003	-0.368041	-0.193144	1.383052	-0.101020	-0.172247	1.375832	-0.428998	
76	0.3750	-0.246532	0.902195	-0.127524	-0.201708	0.912879	-0.362626	-0.410057	0.949906	-0.246811	-0.389476	0.952310	-0.332924	-0.323061	0.673196	-0.088430	-0.260227	0.684307	-0.092548	-0.320284	0.622787	-0.091152	-0.258179	0.631499	-0.090533	-0.329350	0.426948	-0.129030	-0.294406	0.428956	-0.242124	-0.430218	0.329502	-0.136961	-0.374770	0.306032	-0.145072	-0.459852	0.272337	-0.156565	-0.408044	0.250479	-0.164749	-0.533540	0.113037	-0.215796	-0.514532	0.118357	-0.299142	-0.462273	0.028096	-0.174870	-0.432677	0.010488	-0.289254	-0.372110	0.035240	-0.222857	-0.615532	0.081446	-0.288246	-0.215187	0.711511	-0.452357	-0.166042	0.737358	-0.434014	-0.194926	0.664974	-0.449431	-0.144354	0.697655	-0.435834	-0.112486	0.457870	-0.420543	-0.126732	0.449452	-0.304666	-0.219322	0.397584	-0.445767	-0.183278	0.369277	-0.431044	-0.253369	0.363617	-0.439644	-0.218643	0.335368	-0.423430	-0.375908	0.225265	-0.417663	-0.369636	0.219935	-0.336432	-0.358288	0.113231	-0.457115	-0.351633	0.076348	-0.348219	-0.283843	0.059520	-0.406414	-0.460993	0.243726	-0.367776	-0.185965	1.383343	-0.100887	-0.166414	1.375992	-0.428934	
77	0.3800	-0.240781	0.901932	-0.127097	-0.195621	0.912793	-0.362282	-0.404124	0.950110	-0.246690	-0.383511	0.952486	-0.332749	-0.318856	0.673284	-0.088324	-0.255873	0.683918	-0.092240	-0.316501	0.622838	-0.090993	-0.254298	0.631046	-0.090224	-0.327344	0.426886	-0.128748	-0.292023	0.428500	-0.241705	-0.428700	0.329898	-0.136753	-0.373386	0.306155	-0.144779	-0.458584	0.272874	-0.156346	-0.406917	0.250727	-0.164473	-0.533029	0.113827	-0.215526	-0.513939	0.119103	-0.298875	-0.462165	0.028258	-0.174773	-0.432545	0.010788	-0.289167	-0.372105	0.035512	-0.222773	-0.615136	0.082359	-0.288020	-0.208318	0.712190	-0.451939	-0.159299	0.738362	-0.433664	-0.187660	0.665794	-0.448930	-0.137287	0.698817	-0.435409	-0.103440	0.459283	-0.419662	-0.117901	0.450876	-0.303791	-0.209644	0.397632	-0.445014	-0.173193	0.369688	-0.430346	-0.243346	0.363236	-0.439060	-0.208226	0.335336	-0.422907	-0.364136	0.222907	-0.417442	-0.358012	0.217605	-0.336168	-0.344427	0.111020	-0.457180	-0.337723	0.073884	-0.348353	-0.269149	0.058366	-0.406539	-0.450025	0.239981	-0.367543	-0.179849	1.383654	-0.100795	-0.161454	1.376170	-0.428884	
78	0.3850	-0.235955	0.901731	-0.126739	-0.190516	0.912740	-0.361990	-0.399147	0.950306	-0.246573	-0.378509	0.952670	-0.332584	-0.315327	0.673391	-0.088234	-0.252221	0.683621	-0.091985	-0.313327	0.622915	-0.090856	-0.251045	0.630697	-0.089968	-0.325673	0.426878	-0.128509	-0.290036	0.428153	-0.241351	-0.427430	0.330272	-0.136573	-0.372231	0.306307	-0.144527	-0.457514	0.273366	-0.156155	-0.405967	0.250984	-0.164230	-0.532566	0.114527	-0.215281	-0.513403	0.119764	-0.298630	-0.462042	0.028400	-0.174684	-0.432398	0.011065	-0.289086	-0.372076	0.035763	-0.222694	-0.614759	0.083164	-0.287815	-0.202600	0.712800	-0.451576	-0.153686	0.739236	-0.433370	-0.181613	0.666523	-0.448496	-0.131408	0.699824	-0.435046	-0.095917	0.460511	-0.418904	-0.110562	0.452118	-0.303038	-0.201578	0.397678	-0.444359	-0.164777	0.370050	-0.429738	-0.234980	0.362911	-0.438548	-0.199522	0.335315	-0.422451	-0.354257	0.220874	-0.417240	-0.348258	0.215603	-0.335930	-0.332786	0.109105	-0.457190	-0.326023	0.071778	-0.348421	-0.256795	0.057358	-0.406590	-0.440823	0.236769	-0.367342	-0.174732	1.383966	-0.100736	-0.157313	1.376354	-0.428846	
79	0.3900	-0.231985	0.901581	-0.126445	-0.186319	0.912714	-0.361748	-0.395055	0.950487	-0.246465	-0.374402	0.952853	-0.332434	-0.312425	0.673503	-0.088160	-0.249220	0.683399	-0.091779	-0.310718	0.623004	-0.090742	-0.248374	0.630435	-0.089761	-0.324308	0.426906	-0.128311	-0.288413	0.427896	-0.241060	-0.426389	0.330613	-0.136421	-0.371286	0.306472	-0.144316	-0.456628	0.273804	-0.155993	-0.405182	0.251233	-0.164023	-0.532157	0.115132	-0.215064	-0.512931	0.120337	-0.298412	-0.461916	0.028522	-0.174604	-0.432250	0.011310	-0.289012	-0.372034	0.035988	-0.222623	-0.614413	0.083856	-0.287635	-0.197935	0.713333	-0.451269	-0.149106	0.739979	-0.433128	-0.176682	0.667154	-0.448126	-0.126616	0.700676	-0.434743	-0.089788	0.461555	-0.418267	-0.104585	0.453176	-0.302404	-0.194989	0.397720	-0.443802	-0.157897	0.370360	-0.429220	-0.228138	0.362641	-0.438110	-0.192397	0.335302	-0.422063	-0.346137	0.219159	-0.417060	-0.340242	0.213921	-0.335720	-0.323212	0.107486	-0.457161	-0.316386	0.070021	-0.348438	-0.246626	0.056501	-0.406587	-0.433260	0.234077	-0.367174	-0.170538	1.384264	-0.100701	-0.153926	1.376533	-0.428818	
80	0.3950	-0.228796	0.901474	-0.126210	-0.182950	0.912706	-0.361552	-0.391769	0.950648	-0.246368	-0.371105	0.953023	-0.332302	-0.310092	0.673612	-0.088100	-0.246811	0.683238	-0.091615	-0.308622	0.623096	-0.090649	-0.246229	0.630244	-0.089597	-0.323219	0.426956	-0.128150	-0.287117	0.427712	-0.240826	-0.425553	0.330912	-0.136297	-0.370530	0.306635	-0.144144	-0.455913	0.274180	-0.155859	-0.404549	0.251463	-0.163851	-0.531807	0.115640	-0.214878	-0.512528	0.120819	-0.298224	-0.461796	0.028623	-0.174535	-0.432109	0.011521	-0.288947	-0.371985	0.036180	-0.222562	-0.614108	0.084437	-0.287482	-0.194217	0.713785	-0.451014	-0.145456	0.740595	-0.432932	-0.172752	0.667684	-0.447821	-0.122798	0.701379	-0.434495	-0.084908	0.462418	-0.417744	-0.099829	0.454054	-0.301885	-0.189731	0.397757	-0.443341	-0.152400	0.370619	-0.428790	-0.222670	0.362421	-0.437745	-0.186698	0.335296	-0.421741	-0.339618	0.217751	-0.416905	-0.333806	0.212545	-0.335541	-0.315520	0.106153	-0.457110	-0.308632	0.068591	-0.348423	-0.238449	0.055791	-0.406549	-0.427186	0.231877	-0.367036	-0.167180	1.384535	-0.100685	-0.151218	1.376698	-0.428797	
