PathFileType	4	(X/Y/Z)	 P9 130r2 07.trc
DataRate	CameraRate	NumFrames	NumMarkers	Units	OrigDataRate	OrigDataStartFrame	OrigNumFrames
200	200	58	38	m	200	1	58
Frame#	Time	RASIS			LASIS			RPSIS			LPSIS			RThighRear1			RThighFront1			RThighRear2			RThighFront2			RKneeLat			RKneeMed			RShankRear1			RShankFront1			RShankRear2			RShankFront2			RAnkleLat			RAnkleMed			RM5			RM1			RMid			RHeel			LThighRear1			LThighFront1			LThighRear2			LThighFront2			LKneeLat			LKneeMed			LShankRear1			LShankFront1			LShankRear2			LShankFront2			LAnkleLat			LAnkleMed			LM5			LM1			LMid			LHeel			RShoulder			LShoulder			
		X1	Y1	Z1	X2	Y2	Z2	X3	Y3	Z3	X4	Y4	Z4	X5	Y5	Z5	X6	Y6	Z6	X7	Y7	Z7	X8	Y8	Z8	X9	Y9	Z9	X10	Y10	Z10	X11	Y11	Z11	X12	Y12	Z12	X13	Y13	Z13	X14	Y14	Z14	X15	Y15	Z15	X16	Y16	Z16	X17	Y17	Z17	X18	Y18	Z18	X19	Y19	Z19	X20	Y20	Z20	X21	Y21	Z21	X22	Y22	Z22	X23	Y23	Z23	X24	Y24	Z24	X25	Y25	Z25	X26	Y26	Z26	X27	Y27	Z27	X28	Y28	Z28	X29	Y29	Z29	X30	Y30	Z30	X31	Y31	Z31	X32	Y32	Z32	X33	Y33	Z33	X34	Y34	Z34	X35	Y35	Z35	X36	Y36	Z36	X37	Y37	Z37	X38	Y38	Z38	
1	0.0000	-1.265665	0.997018	-0.214195	-1.267780	0.989641	-0.471810	-1.437552	1.033875	-0.302478	-1.444629	1.027741	-0.402313	-1.335049	0.763326	-0.173081	-1.283614	0.765010	-0.180159	-1.316386	0.713426	-0.175846	-1.267347	0.716305	-0.181831	-1.283694	0.514222	-0.207342	-1.278948	0.499041	-0.327384	-1.436094	0.481158	-0.188820	-1.409513	0.436242	-0.191118	-1.469277	0.460272	-0.192504	-1.441549	0.417910	-0.196256	-1.700789	0.315765	-0.234591	-1.679543	0.290154	-0.320240	-1.711556	0.175654	-0.197287	-1.684622	0.149124	-0.302438	-1.654398	0.134557	-0.236742	-1.753224	0.360468	-0.301980	-1.282337	0.745314	-0.523274	-1.229139	0.753513	-0.519232	-1.268546	0.701519	-0.517353	-1.214181	0.717267	-0.514010	-1.198076	0.553186	-0.472300	-1.194407	0.551128	-0.368093	-1.233119	0.414781	-0.506236	-1.190515	0.414058	-0.490031	-1.236749	0.369085	-0.506640	-1.193845	0.375253	-0.492618	-1.232538	0.090707	-0.468306	-1.221283	0.101302	-0.372275	-1.108503	0.036099	-0.486104	-1.100821	0.032575	-0.371829	-1.056688	0.061817	-0.420959	-1.308416	0.068290	-0.414632	-1.184372	1.497912	-0.208993	-1.230412	1.478938	-0.575796	
2	0.0050	-1.251357	0.995068	-0.214351	-1.252094	0.987628	-0.472294	-1.423351	1.031422	-0.303524	-1.429801	1.025730	-0.403463	-1.317038	0.762019	-0.173032	-1.265608	0.764812	-0.179466	-1.297269	0.712709	-0.175291	-1.248291	0.716604	-0.180792	-1.260214	0.514852	-0.206234	-1.254046	0.499788	-0.325982	-1.411959	0.480523	-0.188754	-1.384948	0.435815	-0.190555	-1.444959	0.459314	-0.192610	-1.416856	0.417188	-0.195815	-1.674921	0.312649	-0.235363	-1.652630	0.286334	-0.320742	-1.682933	0.173624	-0.195975	-1.654972	0.145835	-0.300492	-1.624742	0.133065	-0.234669	-1.727947	0.355305	-0.303751	-1.268489	0.742944	-0.523162	-1.215165	0.750629	-0.519102	-1.255120	0.699086	-0.517057	-1.200712	0.714323	-0.513791	-1.186207	0.550107	-0.471685	-1.182566	0.548425	-0.367396	-1.223243	0.413041	-0.505269	-1.181088	0.411288	-0.488782	-1.228048	0.367552	-0.505586	-1.185269	0.372724	-0.491274	-1.231735	0.090824	-0.467057	-1.220589	0.100699	-0.370738	-1.108230	0.036281	-0.485996	-1.100256	0.031854	-0.371647	-1.055952	0.060223	-0.420576	-1.308198	0.068417	-0.413499	-1.171348	1.495922	-0.208689	-1.213989	1.474464	-0.576897	
3	0.0100	-1.236856	0.993156	-0.214507	-1.236181	0.985612	-0.472769	-1.408939	1.028992	-0.304592	-1.414746	1.023739	-0.404634	-1.298786	0.760770	-0.172988	-1.247371	0.764690	-0.178762	-1.277899	0.712064	-0.174736	-1.228991	0.716995	-0.179744	-1.236405	0.515596	-0.205118	-1.228797	0.500669	-0.324566	-1.387478	0.479925	-0.188697	-1.360016	0.435436	-0.189989	-1.420290	0.458375	-0.192721	-1.391791	0.416495	-0.195369	-1.648641	0.309416	-0.236138	-1.625283	0.282415	-0.321244	-1.653824	0.171497	-0.194649	-1.624802	0.142464	-0.298531	-1.594573	0.131513	-0.232585	-1.702274	0.349988	-0.305524	-1.254478	0.740572	-0.523045	-1.201032	0.747720	-0.518971	-1.241548	0.696647	-0.516756	-1.187095	0.711354	-0.513570	-1.174266	0.547009	-0.471077	-1.170646	0.545694	-0.366703	-1.213323	0.411297	-0.504315	-1.171627	0.408501	-0.487538	-1.219315	0.366021	-0.504540	-1.176666	0.370181	-0.489940	-1.230948	0.090947	-0.465822	-1.219901	0.100113	-0.369216	-1.107955	0.036429	-0.485894	-1.099675	0.031100	-0.371465	-1.055202	0.058640	-0.420208	-1.308014	0.068554	-0.412370	-1.158133	1.493968	-0.208388	-1.197317	1.470000	-0.577991	
4	0.0150	-1.222180	0.991316	-0.214661	-1.220059	0.983616	-0.473230	-1.394324	1.026620	-0.305679	-1.399473	1.021797	-0.405822	-1.280326	0.759615	-0.172951	-1.228939	0.764680	-0.178049	-1.258314	0.711525	-0.174184	-1.209485	0.717510	-0.178693	-1.212319	0.516492	-0.204003	-1.203259	0.501728	-0.323144	-1.362686	0.479375	-0.188651	-1.334748	0.435125	-0.189426	-1.395296	0.457460	-0.192832	-1.366376	0.415846	-0.194921	-1.621928	0.306034	-0.236905	-1.597485	0.278388	-0.321741	-1.624190	0.169255	-0.193318	-1.594074	0.139021	-0.296573	-1.563858	0.129906	-0.230512	-1.676181	0.344479	-0.307275	-1.240329	0.738220	-0.522920	-1.186770	0.744807	-0.518837	-1.227859	0.694229	-0.516449	-1.173359	0.708381	-0.513347	-1.162297	0.543917	-0.470483	-1.158689	0.542957	-0.366015	-1.203400	0.409574	-0.503387	-1.162175	0.405723	-0.486312	-1.210590	0.364515	-0.503514	-1.168076	0.367651	-0.488634	-1.230179	0.091098	-0.464622	-1.219217	0.099573	-0.367736	-1.107690	0.036535	-0.485800	-1.099098	0.030313	-0.371285	-1.054457	0.057083	-0.419862	-1.307864	0.068735	-0.411265	-1.144733	1.492084	-0.208093	-1.180403	1.465597	-0.579063	
5	0.0200	-1.207339	0.989586	-0.214812	-1.203735	0.981661	-0.473668	-1.379508	1.024342	-0.306782	-1.383983	1.019934	-0.407021	-1.261683	0.758590	-0.172925	-1.210340	0.764814	-0.177330	-1.238543	0.711130	-0.173642	-1.189806	0.718183	-0.177644	-1.187997	0.517577	-0.202900	-1.177487	0.503008	-0.321726	-1.337609	0.478882	-0.188616	-1.309161	0.434903	-0.188871	-1.369995	0.456571	-0.192942	-1.340624	0.415254	-0.194474	-1.594740	0.302469	-0.237655	-1.569202	0.274239	-0.322225	-1.593971	0.166880	-0.191994	-1.562736	0.135519	-0.294637	-1.532548	0.128251	-0.228469	-1.649625	0.338740	-0.308982	-1.226062	0.735916	-0.522786	-1.172402	0.741909	-0.518698	-1.214076	0.691854	-0.516135	-1.159526	0.705427	-0.513120	-1.150336	0.540855	-0.469907	-1.146735	0.540234	-0.365337	-1.193513	0.407895	-0.502499	-1.152768	0.402982	-0.485117	-1.201906	0.363062	-0.502523	-1.159535	0.365162	-0.487373	-1.229425	0.091299	-0.463480	-1.218533	0.099109	-0.366322	-1.107450	0.036590	-0.485718	-1.098546	0.029495	-0.371108	-1.053737	0.055566	-0.419544	-1.307738	0.068997	-0.410205	-1.131151	1.490303	-0.207807	-1.163251	1.461307	-0.580097	
6	0.0250	-1.192339	0.987999	-0.214957	-1.187215	0.979771	-0.474076	-1.364489	1.022191	-0.307901	-1.368271	1.018182	-0.408229	-1.242874	0.757731	-0.172911	-1.191594	0.765124	-0.176607	-1.218612	0.710910	-0.173115	-1.169980	0.719045	-0.176605	-1.163481	0.518887	-0.201819	-1.151529	0.504549	-0.320319	-1.312264	0.478452	-0.188592	-1.283271	0.434786	-0.188329	-1.344397	0.455711	-0.193047	-1.314540	0.414732	-0.194028	-1.567026	0.298688	-0.238378	-1.540387	0.269959	-0.322689	-1.563096	0.164355	-0.190688	-1.530720	0.131971	-0.292741	-1.500578	0.126555	-0.226478	-1.622553	0.332729	-0.310623	-1.211688	0.733682	-0.522638	-1.157945	0.739047	-0.518552	-1.200213	0.689550	-0.515813	-1.145611	0.702513	-0.512888	-1.138414	0.537850	-0.469357	-1.134814	0.537544	-0.364670	-1.183692	0.406286	-0.501662	-1.143437	0.400306	-0.483970	-1.193291	0.361689	-0.501578	-1.151071	0.362742	-0.486172	-1.228681	0.091575	-0.462415	-1.217844	0.098753	-0.364999	-1.107254	0.036586	-0.485650	-1.098042	0.028652	-0.370936	-1.053065	0.054100	-0.419258	-1.307628	0.069386	-0.409208	-1.117382	1.488659	-0.207531	-1.145854	1.457182	-0.581077	
7	0.0300	-1.177179	0.986591	-0.215097	-1.170497	0.977966	-0.474447	-1.349258	1.020201	-0.309030	-1.352331	1.016568	-0.409439	-1.223917	0.757070	-0.172913	-1.172721	0.765641	-0.175885	-1.198541	0.710898	-0.172609	-1.150031	0.720125	-0.175580	-1.138805	0.520454	-0.200772	-1.125432	0.506387	-0.318932	-1.286666	0.478086	-0.188579	-1.257085	0.434791	-0.187805	-1.318507	0.454877	-0.193142	-1.288125	0.414290	-0.193587	-1.538725	0.294658	-0.239064	-1.510989	0.265535	-0.323125	-1.531485	0.161665	-0.189412	-1.497955	0.128395	-0.290906	-1.467882	0.124832	-0.224561	-1.594902	0.326406	-0.312175	-1.197217	0.731544	-0.522473	-1.143409	0.736243	-0.518395	-1.186284	0.687340	-0.515480	-1.131626	0.699661	-0.512649	-1.126553	0.534926	-0.468838	-1.122952	0.534910	-0.364016	-1.173962	0.404773	-0.500890	-1.134207	0.397722	-0.482881	-1.184767	0.360423	-0.500693	-1.142707	0.360421	-0.485046	-1.227941	0.091953	-0.461451	-1.217139	0.098538	-0.363793	-1.107117	0.036518	-0.485600	-1.097612	0.027787	-0.370769	-1.052464	0.052696	-0.419009	-1.307518	0.069948	-0.408296	-1.103420	1.487183	-0.207268	-1.128207	1.453271	-0.581987	
8	0.0350	-1.161859	0.985391	-0.215230	-1.153581	0.976268	-0.474774	-1.333809	1.018401	-0.310169	-1.336153	1.015119	-0.410647	-1.204824	0.756637	-0.172931	-1.153734	0.766388	-0.175165	-1.178352	0.711120	-0.172129	-1.129978	0.721446	-0.174576	-1.114008	0.522303	-0.199768	-1.099245	0.508551	-0.317574	-1.260828	0.477785	-0.188576	-1.230615	0.434929	-0.187304	-1.292330	0.454066	-0.193224	-1.261379	0.413938	-0.193153	-1.509774	0.290350	-0.239701	-1.480953	0.260961	-0.323528	-1.499056	0.158800	-0.188180	-1.464368	0.124812	-0.289150	-1.434390	0.123098	-0.222739	-1.566606	0.319733	-0.313615	-1.182654	0.729525	-0.522289	-1.128804	0.733516	-0.518226	-1.172293	0.685247	-0.515135	-1.117576	0.696891	-0.512399	-1.114770	0.532107	-0.468354	-1.111166	0.532351	-0.363377	-1.164341	0.403381	-0.500191	-1.125093	0.395260	-0.481864	-1.176348	0.359293	-0.499877	-1.134459	0.358229	-0.484011	-1.227191	0.092462	-0.460605	-1.216409	0.098498	-0.362725	-1.107057	0.036384	-0.485571	-1.097281	0.026907	-0.370609	-1.051960	0.051363	-0.418798	-1.307389	0.070734	-0.407488	-1.089255	1.485904	-0.207019	-1.110300	1.449624	-0.582812	
9	0.0400	-1.146375	0.984427	-0.215354	-1.136464	0.974696	-0.475051	-1.318132	1.016820	-0.311311	-1.319731	1.013860	-0.411848	-1.185608	0.756455	-0.172967	-1.134649	0.767386	-0.174451	-1.158061	0.711596	-0.171682	-1.109840	0.723025	-0.173598	-1.089126	0.524454	-0.198820	-1.073017	0.511061	-0.316253	-1.234765	0.477545	-0.188580	-1.203870	0.435209	-0.186831	-1.265871	0.453271	-0.193287	-1.234304	0.413679	-0.192728	-1.480112	0.285738	-0.240281	-1.450226	0.256230	-0.323889	-1.465731	0.155754	-0.187005	-1.429892	0.121244	-0.287495	-1.400038	0.121370	-0.221033	-1.537600	0.312677	-0.314923	-1.168000	0.727646	-0.522082	-1.114132	0.730887	-0.518041	-1.158243	0.683295	-0.514777	-1.103464	0.694226	-0.512138	-1.103073	0.529416	-0.467910	-1.099469	0.529888	-0.362751	-1.154840	0.402134	-0.499576	-1.116105	0.392948	-0.480931	-1.168041	0.358327	-0.499142	-1.126334	0.356195	-0.483079	-1.226417	0.093132	-0.459895	-1.215637	0.098665	-0.361816	-1.107090	0.036182	-0.485564	-1.097076	0.026022	-0.370457	-1.051575	0.050107	-0.418627	-1.307216	0.071796	-0.406802	-1.074879	1.484848	-0.206786	-1.092126	1.446287	-0.583539	
10	0.0450	-1.130724	0.983724	-0.215469	-1.119144	0.973269	-0.475273	-1.302219	1.015481	-0.312454	-1.303056	1.012811	-0.413034	-1.166281	0.756545	-0.173024	-1.115478	0.768649	-0.173746	-1.137689	0.712344	-0.171270	-1.089638	0.724873	-0.172653	-1.064201	0.526917	-0.197938	-1.046802	0.513930	-0.314978	-1.208493	0.477356	-0.188587	-1.176868	0.435635	-0.186391	-1.239139	0.452482	-0.193327	-1.206908	0.413517	-0.192316	-1.449683	0.280802	-0.240793	-1.418765	0.251341	-0.324203	-1.431441	0.152525	-0.185900	-1.394471	0.117719	-0.285958	-1.364773	0.119670	-0.219465	-1.507824	0.305213	-0.316077	-1.153253	0.725928	-0.521850	-1.099395	0.728377	-0.517838	-1.144135	0.681503	-0.514404	-1.089291	0.691685	-0.511862	-1.091465	0.526877	-0.467509	-1.087866	0.527542	-0.362139	-1.145461	0.401058	-0.499051	-1.107244	0.390811	-0.480091	-1.159846	0.357550	-0.498495	-1.118333	0.354348	-0.482261	-1.225600	0.093992	-0.459339	-1.214807	0.099070	-0.361085	-1.107231	0.035915	-0.485583	-1.097020	0.025142	-0.370313	-1.051333	0.048934	-0.418495	-1.306968	0.073185	-0.406256	-1.060283	1.484035	-0.206569	-1.073677	1.443301	-0.584154	
11	0.0500	-1.114902	0.983300	-0.215573	-1.101623	0.972004	-0.475435	-1.286065	1.014404	-0.313591	-1.286124	1.011990	-0.414202	-1.146859	0.756918	-0.173100	-1.096236	0.770184	-0.173055	-1.117255	0.713370	-0.170900	-1.069390	0.726994	-0.171745	-1.039275	0.529695	-0.197132	-1.020656	0.517157	-0.313758	-1.182036	0.477207	-0.188596	-1.149629	0.436206	-0.185988	-1.212147	0.451688	-0.193340	-1.179202	0.413450	-0.191917	-1.418440	0.275529	-0.241230	-1.386532	0.246297	-0.324464	-1.396130	0.149118	-0.184879	-1.358063	0.114265	-0.284561	-1.328554	0.118021	-0.218053	-1.477227	0.297322	-0.317060	-1.138413	0.724388	-0.521590	-1.084591	0.726005	-0.517613	-1.129964	0.679890	-0.514016	-1.075053	0.689286	-0.511569	-1.079941	0.524507	-0.467154	-1.076355	0.525330	-0.361540	-1.136200	0.400175	-0.498623	-1.098501	0.388877	-0.479354	-1.151755	0.356989	-0.497943	-1.110448	0.352713	-0.481565	-1.224713	0.095073	-0.458948	-1.213896	0.099744	-0.360548	-1.107491	0.035592	-0.485627	-1.097134	0.024282	-0.370177	-1.051252	0.047845	-0.418399	-1.306611	0.074954	-0.405866	-1.045459	1.483483	-0.206369	-1.054953	1.440703	-0.584645	
12	0.0550	-1.098906	0.983166	-0.215665	-1.083902	0.970914	-0.475533	-1.269666	1.013602	-0.314717	-1.268935	1.011410	-0.415342	-1.127357	0.757581	-0.173198	-1.076937	0.771990	-0.172381	-1.096782	0.714677	-0.170574	-1.049119	0.729382	-0.170880	-1.014397	0.532781	-0.196414	-0.994639	0.520732	-0.312599	-1.155420	0.477083	-0.188601	-1.122182	0.436918	-0.185625	-1.184915	0.450874	-0.193321	-1.151208	0.413475	-0.191537	-1.386349	0.269912	-0.241583	-1.353507	0.241103	-0.324667	-1.359758	0.145541	-0.183955	-1.320646	0.110913	-0.283321	-1.291359	0.116447	-0.216817	-1.445771	0.288995	-0.317857	-1.123473	0.723041	-0.521300	-1.069717	0.723787	-0.517365	-1.115725	0.678471	-0.513611	-1.060743	0.687048	-0.511258	-1.068487	0.522327	-0.466846	-1.064925	0.523269	-0.360953	-1.127043	0.399504	-0.498294	-1.089861	0.387169	-0.478727	-1.143752	0.356666	-0.497493	-1.102661	0.351318	-0.480998	-1.223730	0.096404	-0.458733	-1.212878	0.100714	-0.360215	-1.107876	0.035221	-0.485699	-1.097437	0.023459	-0.370050	-1.051349	0.046844	-0.418336	-1.306102	0.077153	-0.405646	-1.030403	1.483203	-0.206184	-1.035956	1.438524	-0.585003	
13	0.0600	-1.082735	0.983332	-0.215743	-1.065987	0.970010	-0.475565	-1.253021	1.013086	-0.315824	-1.251491	1.011080	-0.416447	-1.107793	0.758533	-0.173315	-1.057598	0.774060	-0.171727	-1.076295	0.716258	-0.170297	-1.028845	0.732025	-0.170062	-0.989618	0.536156	-0.195791	-0.968815	0.524635	-0.311512	-1.128677	0.476965	-0.188600	-1.094562	0.437760	-0.185308	-1.157469	0.450024	-0.193265	-1.122954	0.413582	-0.191176	-1.353392	0.263954	-0.241845	-1.319681	0.235771	-0.324809	-1.322308	0.141810	-0.183141	-1.282218	0.107695	-0.282255	-1.253187	0.114975	-0.215773	-1.413429	0.280233	-0.318453	-1.108429	0.721900	-0.520980	-1.054767	0.721742	-0.517091	-1.101407	0.677261	-0.513189	-1.046355	0.684985	-0.510926	-1.057084	0.520351	-0.466587	-1.053559	0.521376	-0.360376	-1.117969	0.399065	-0.498067	-1.081301	0.385707	-0.478216	-1.135811	0.356602	-0.497146	-1.094950	0.350184	-0.480564	-1.222614	0.098012	-0.458701	-1.211723	0.102005	-0.360096	-1.108387	0.034817	-0.485797	-1.097938	0.022692	-0.369931	-1.051632	0.045929	-0.418300	-1.305395	0.079829	-0.405606	-1.015112	1.483200	-0.206015	-1.016693	1.436788	-0.585221	
14	0.0650	-1.066388	0.983795	-0.215808	-1.047885	0.969302	-0.475530	-1.236133	1.012858	-0.316905	-1.233796	1.011004	-0.417510	-1.088186	0.759765	-0.173452	-1.038234	0.776376	-0.171097	-1.055817	0.718099	-0.170070	-1.008592	0.734902	-0.169296	-0.964992	0.539794	-0.195274	-0.943249	0.528831	-0.310503	-1.101847	0.476830	-0.188588	-1.066812	0.438716	-0.185040	-1.129843	0.449120	-0.193170	-1.094478	0.413761	-0.190839	-1.319565	0.257664	-0.242012	-1.285066	0.230315	-0.324885	-1.283783	0.137942	-0.182450	-1.242800	0.104641	-0.281380	-1.214058	0.113629	-0.214936	-1.380196	0.271049	-0.318838	-1.093273	0.720974	-0.520629	-1.039732	0.719883	-0.516790	-1.087000	0.676266	-0.512751	-1.031875	0.683113	-0.510571	-1.045703	0.518591	-0.466377	-1.042233	0.519662	-0.359807	-1.108948	0.398872	-0.497941	-1.072785	0.384510	-0.477825	-1.127900	0.356812	-0.496904	-1.087278	0.349333	-0.480265	-1.221326	0.099923	-0.458857	-1.210395	0.103640	-0.360196	-1.109019	0.034398	-0.485921	-1.098643	0.022004	-0.369822	-1.052104	0.045103	-0.418285	-1.304436	0.083024	-0.405754	-0.999587	1.483475	-0.205860	-0.997179	1.435513	-0.585292	
15	0.0700	-1.049866	0.984550	-0.215858	-1.029606	0.968793	-0.475426	-1.219006	1.012917	-0.317952	-1.215859	1.011180	-0.418523	-1.068557	0.761260	-0.173607	-1.018863	0.778915	-0.170495	-1.035376	0.720176	-0.169895	-0.988382	0.737982	-0.168585	-0.940572	0.543659	-0.194870	-0.918009	0.533279	-0.309580	-1.074973	0.476655	-0.188562	-1.038981	0.439768	-0.184824	-1.102076	0.448144	-0.193034	-1.065823	0.413998	-0.190529	-1.284886	0.251060	-0.242080	-1.249690	0.224756	-0.324896	-1.244211	0.133963	-0.181894	-1.202439	0.101781	-0.280707	-1.174015	0.112432	-0.214320	-1.346082	0.261465	-0.319007	-1.077995	0.720267	-0.520246	-1.024602	0.718223	-0.516461	-1.072488	0.675495	-0.512296	-1.017290	0.681441	-0.510193	-1.034309	0.517057	-0.466215	-1.030913	0.518138	-0.359245	-1.099941	0.398937	-0.497914	-1.064274	0.383593	-0.477556	-1.119978	0.357310	-0.496767	-1.079604	0.348779	-0.480100	-1.219822	0.102160	-0.459200	-1.208854	0.105635	-0.360514	-1.109758	0.033988	-0.486070	-1.099545	0.021422	-0.369722	-1.052758	0.044364	-0.418284	-1.303167	0.086774	-0.406096	-0.983831	1.484022	-0.205716	-0.977431	1.434706	-0.585213	
16	0.0750	-1.033168	0.985584	-0.215890	-1.011162	0.968486	-0.475254	-1.201646	1.013255	-0.318956	-1.197691	1.011604	-0.419477	-1.048926	0.762995	-0.173777	-0.999502	0.781646	-0.169924	-1.014997	0.722462	-0.169773	-0.968239	0.741228	-0.167934	-0.916415	0.547706	-0.194586	-0.893159	0.537925	-0.308749	-1.048103	0.476413	-0.188519	-1.011123	0.440892	-0.184663	-1.074215	0.447075	-0.192854	-1.037043	0.414274	-0.190249	-1.249388	0.244167	-0.242048	-1.213599	0.219115	-0.324840	-1.203643	0.129897	-0.181482	-1.161203	0.099143	-0.280250	-1.133123	0.111403	-0.213934	-1.311116	0.251514	-0.318956	-1.062582	0.719780	-0.519833	-1.009362	0.716772	-0.516102	-1.057853	0.674948	-0.511828	-1.002582	0.679980	-0.509791	-1.022856	0.515755	-0.466101	-1.019559	0.516810	-0.358686	-1.090901	0.399268	-0.497981	-1.055717	0.382965	-0.477410	-1.111994	0.358104	-0.496733	-1.071878	0.348535	-0.480065	-1.218051	0.104743	-0.459727	-1.207055	0.108006	-0.361048	-1.110581	0.033611	-0.486240	-1.100630	0.020973	-0.369631	-1.053579	0.043711	-0.418290	-1.301527	0.091111	-0.406633	-0.967847	1.484827	-0.205581	-0.957472	1.434370	-0.584982	
17	0.0800	-1.016294	0.986876	-0.215905	-0.992563	0.968379	-0.475017	-1.184060	1.013859	-0.319908	-1.179304	1.012264	-0.420364	-1.029313	0.764941	-0.173962	-0.980166	0.784531	-0.169387	-0.994704	0.724921	-0.169703	-0.948182	0.744598	-0.167344	-0.892572	0.551884	-0.194427	-0.868762	0.542709	-0.308018	-1.021287	0.476078	-0.188457	-0.983298	0.442059	-0.184560	-1.046309	0.445895	-0.192633	-1.008196	0.414570	-0.190002	-1.213126	0.237016	-0.241916	-1.176856	0.213417	-0.324721	-1.162157	0.125774	-0.181225	-1.119186	0.096748	-0.280017	-1.091472	0.110560	-0.213786	-1.275347	0.241240	-0.318686	-1.047021	0.719511	-0.519391	-0.993996	0.715537	-0.515714	-1.043072	0.674623	-0.511346	-0.987731	0.678734	-0.509365	-1.011295	0.514686	-0.466032	-1.008120	0.515681	-0.358130	-1.081773	0.399869	-0.498137	-1.047057	0.382632	-0.477386	-1.103891	0.359199	-0.496796	-1.064039	0.348610	-0.480156	-1.215958	0.107686	-0.460432	-1.204947	0.110762	-0.361789	-1.111453	0.033296	-0.486429	-1.101869	0.020688	-0.369549	-1.054537	0.043147	-0.418292	-1.299447	0.096056	-0.407363	-0.951641	1.485874	-0.205452	-0.937331	1.434494	-0.584603	
18	0.0850	-0.999243	0.988402	-0.215901	-0.973823	0.968466	-0.474717	-1.166256	1.014710	-0.320800	-1.160710	1.013145	-0.421175	-1.009737	0.767061	-0.174157	-0.960868	0.787528	-0.168886	-0.974521	0.727510	-0.169684	-0.928231	0.748041	-0.166817	-0.869093	0.556134	-0.194398	-0.844874	0.547561	-0.307391	-0.994578	0.475623	-0.188374	-0.955565	0.443239	-0.184518	-1.018412	0.444584	-0.192371	-0.979342	0.414864	-0.189794	-1.176171	0.229648	-0.241686	-1.139544	0.207689	-0.324539	-1.119853	0.121624	-0.181129	-1.076504	0.094615	-0.280014	-1.049172	0.109912	-0.213881	-1.238845	0.230696	-0.318202	-1.031293	0.719453	-0.518922	-0.978481	0.714520	-0.515299	-1.028119	0.674514	-0.510855	-0.972710	0.677705	-0.508916	-0.999568	0.513847	-0.466007	-0.996541	0.514751	-0.357574	-1.072495	0.400739	-0.498375	-1.038231	0.382596	-0.477482	-1.095606	0.360593	-0.496950	-1.056023	0.349006	-0.480365	-1.213484	0.111002	-0.461303	-1.202474	0.113909	-0.362727	-1.112332	0.033076	-0.486633	-1.103222	0.020599	-0.369477	-1.055593	0.042672	-0.418285	-1.296857	0.101622	-0.408281	-0.935219	1.487139	-0.205325	-0.917035	1.435064	-0.584077	
19	0.0900	-0.982013	0.990129	-0.215875	-0.954952	0.968738	-0.474357	-1.148241	1.015784	-0.321623	-1.141923	1.014226	-0.421903	-0.990214	0.769315	-0.174360	-0.941619	0.790587	-0.168422	-0.954467	0.730183	-0.169714	-0.908400	0.751505	-0.166355	-0.846022	0.560394	-0.194501	-0.821544	0.552409	-0.306873	-0.968028	0.475021	-0.188273	-0.927987	0.444400	-0.184538	-0.990582	0.443125	-0.192072	-0.950548	0.415132	-0.189626	-1.138615	0.222104	-0.241364	-1.101760	0.201958	-0.324302	-1.076855	0.117477	-0.181200	-1.033293	0.092753	-0.280243	-1.006351	0.109464	-0.214220	-1.201695	0.219941	-0.317513	-1.015377	0.719595	-0.518431	-0.962795	0.713724	-0.514857	-1.012965	0.674611	-0.510357	-0.957491	0.676893	-0.508445	-0.987611	0.513233	-0.466023	-0.984758	0.514014	-0.357020	-1.062997	0.401873	-0.498687	-1.029167	0.382853	-0.477693	-1.087068	0.362282	-0.497189	-1.047757	0.349722	-0.480682	-1.210564	0.114698	-0.462327	-1.199576	0.117446	-0.363846	-1.113161	0.032983	-0.486846	-1.104635	0.020739	-0.369414	-1.056694	0.042289	-0.418259	-1.293685	0.107813	-0.409377	-0.918587	1.488596	-0.205196	-0.896619	1.436055	-0.583410	
20	0.0950	-0.964599	0.992022	-0.215826	-0.935959	0.969181	-0.473941	-1.130021	1.017054	-0.322368	-1.122952	1.015484	-0.422542	-0.970758	0.771656	-0.174569	-0.922427	0.793656	-0.167997	-0.934557	0.732891	-0.169790	-0.888700	0.754933	-0.165958	-0.823396	0.564597	-0.194737	-0.798815	0.557179	-0.306467	-0.941686	0.474249	-0.188153	-0.900625	0.445508	-0.184623	-0.962873	0.441503	-0.191741	-0.921880	0.415350	-0.189504	-1.100563	0.214433	-0.240956	-1.063616	0.196251	-0.324014	-1.033306	0.113362	-0.181442	-0.989707	0.091167	-0.280705	-0.963155	0.109213	-0.214801	-1.164004	0.209045	-0.316634	-0.999247	0.719924	-0.517920	-0.946908	0.713143	-0.514391	-0.997577	0.674900	-0.509855	-0.942042	0.676293	-0.507954	-0.975356	0.512832	-0.466079	-0.972702	0.513461	-0.356465	-1.053207	0.403263	-0.499063	-1.019792	0.383393	-0.478014	-1.078202	0.364254	-0.497502	-1.039164	0.350752	-0.481096	-1.207132	0.118774	-0.463488	-1.196190	0.121369	-0.365128	-1.113871	0.033053	-0.487065	-1.106038	0.021140	-0.369362	-1.057772	0.042003	-0.418208	-1.289856	0.114623	-0.410638	-0.901752	1.490211	-0.205061	-0.876114	1.437434	-0.582612	
21	0.1000	-0.946996	0.994042	-0.215752	-0.916851	0.969780	-0.473475	-1.111600	1.018487	-0.323028	-1.103809	1.016890	-0.423084	-0.951378	0.774037	-0.174778	-0.903296	0.796683	-0.167611	-0.914802	0.735582	-0.169906	-0.869137	0.758266	-0.165626	-0.801243	0.568677	-0.195107	-0.776715	0.561793	-0.306177	-0.915603	0.473282	-0.188019	-0.873537	0.446528	-0.184774	-0.935343	0.439703	-0.191385	-0.893404	0.415492	-0.189432	-1.062137	0.206686	-0.240471	-1.025238	0.190596	-0.323686	-0.989369	0.109306	-0.181855	-0.945915	0.089852	-0.281397	-0.919747	0.109148	-0.215621	-1.125891	0.198079	-0.315580	-0.982877	0.720420	-0.517395	-0.930790	0.712772	-0.513905	-0.981917	0.675361	-0.509356	-0.926326	0.675897	-0.507447	-0.962731	0.512630	-0.466172	-0.960300	0.513078	-0.355912	-1.043044	0.404895	-0.499494	-1.010026	0.384202	-0.478438	-1.068929	0.366494	-0.497881	-1.030162	0.352083	-0.481595	-1.203117	0.123227	-0.464765	-1.192246	0.125670	-0.366552	-1.114385	0.033319	-0.487283	-1.107348	0.021832	-0.369321	-1.058746	0.041821	-0.418125	-1.285295	0.122033	-0.412049	-0.884716	1.491951	-0.204916	-0.855553	1.439162	-0.581691	
22	0.1050	-0.929194	0.996144	-0.215650	-0.897632	0.970514	-0.472962	-1.092982	1.020048	-0.323596	-1.084500	1.018413	-0.423526	-0.932078	0.776407	-0.174985	-0.884225	0.799611	-0.167263	-0.895207	0.738202	-0.170060	-0.849713	0.761445	-0.165357	-0.779583	0.572568	-0.195607	-0.755265	0.566176	-0.306003	-0.889821	0.472104	-0.187874	-0.846777	0.447426	-0.184993	-0.908047	0.437715	-0.191012	-0.865184	0.415534	-0.189413	-1.023473	0.198915	-0.239922	-0.986761	0.185017	-0.323326	-0.945223	0.105332	-0.182439	-0.902100	0.088793	-0.282312	-0.876298	0.109251	-0.216671	-1.087494	0.187121	-0.314373	-0.966236	0.721062	-0.516860	-0.914404	0.712600	-0.513402	-0.965948	0.675975	-0.508863	-0.910306	0.675692	-0.506927	-0.949660	0.512609	-0.466301	-0.947473	0.512849	-0.355362	-1.032429	0.406752	-0.499969	-0.999790	0.385264	-0.478958	-1.059168	0.368983	-0.498313	-1.020668	0.353700	-0.482165	-1.198448	0.128047	-0.466137	-1.187674	0.130332	-0.368093	-1.114612	0.033815	-0.487495	-1.108468	0.022845	-0.369292	-1.059523	0.041750	-0.418006	-1.279929	0.130016	-0.413587	-0.867483	1.493778	-0.204756	-0.834969	1.441195	-0.580659	
23	0.1100	-0.911183	0.998285	-0.215519	-0.878304	0.971362	-0.472408	-1.074167	1.021699	-0.324066	-1.065030	1.020019	-0.423864	-0.912858	0.778715	-0.175186	-0.865210	0.802387	-0.166951	-0.875773	0.740698	-0.170245	-0.830424	0.764415	-0.165150	-0.758426	0.576205	-0.196234	-0.734470	0.570256	-0.305946	-0.864382	0.470697	-0.187724	-0.820395	0.448169	-0.185280	-0.881035	0.435533	-0.190631	-0.837282	0.415452	-0.189452	-0.984717	0.191173	-0.239320	-0.948333	0.179539	-0.322946	-0.901062	0.101462	-0.183189	-0.858454	0.087971	-0.283440	-0.832993	0.109496	-0.217940	-1.048962	0.176249	-0.313036	-0.949289	0.721827	-0.516323	-0.897715	0.712613	-0.512887	-0.949626	0.676716	-0.508382	-0.893940	0.675665	-0.506398	-0.936070	0.512748	-0.466464	-0.934142	0.512752	-0.354818	-1.021278	0.408813	-0.500478	-0.989002	0.386555	-0.479566	-1.048838	0.371696	-0.498789	-1.010599	0.355581	-0.482794	-1.193055	0.133220	-0.467581	-1.182401	0.135338	-0.369725	-1.114452	0.034573	-0.487696	-1.109288	0.024204	-0.369274	-1.059996	0.041802	-0.417848	-1.273687	0.138532	-0.415232	-0.850054	1.495654	-0.204577	-0.814391	1.443483	-0.579530	
24	0.1150	-0.892951	1.000419	-0.215355	-0.858864	0.972299	-0.471817	-1.055154	1.023402	-0.324433	-1.045404	1.021673	-0.424096	-0.893714	0.780912	-0.175378	-0.846243	0.804958	-0.166674	-0.856493	0.743019	-0.170455	-0.811261	0.767119	-0.165000	-0.737772	0.579529	-0.196983	-0.714324	0.573968	-0.306006	-0.839319	0.469053	-0.187577	-0.794435	0.448727	-0.185637	-0.854358	0.433153	-0.190254	-0.809756	0.415225	-0.189553	-0.946026	0.183513	-0.238681	-0.910104	0.174182	-0.322559	-0.857087	0.097711	-0.184100	-0.815175	0.087354	-0.284770	-0.790018	0.109847	-0.219418	-1.010454	0.165544	-0.311595	-0.932004	0.722687	-0.515788	-0.880684	0.712795	-0.512366	-0.932910	0.677559	-0.507918	-0.877187	0.675798	-0.505867	-0.921888	0.513023	-0.466660	-0.920229	0.512763	-0.354283	-1.009511	0.411052	-0.501011	-0.977585	0.388049	-0.480253	-1.037857	0.374607	-0.499296	-0.999871	0.357700	-0.483466	-1.186865	0.138724	-0.469070	-1.176355	0.140662	-0.371421	-1.113796	0.035623	-0.487880	-1.109686	0.025930	-0.369270	-1.060048	0.041987	-0.417650	-1.266502	0.147533	-0.416955	-0.832428	1.497541	-0.204374	-0.793848	1.445972	-0.578318	
25	0.1200	-0.874484	1.002500	-0.215155	-0.839309	0.973297	-0.471194	-1.035940	1.025116	-0.324696	-1.025621	1.023337	-0.424222	-0.874638	0.782948	-0.175558	-0.827310	0.807273	-0.166428	-0.837357	0.745117	-0.170686	-0.792210	0.769509	-0.164906	-0.717610	0.582485	-0.197848	-0.694811	0.577252	-0.306179	-0.814662	0.467165	-0.187439	-0.768936	0.449071	-0.186064	-0.828059	0.430577	-0.189891	-0.782658	0.414832	-0.189720	-0.907565	0.175986	-0.238020	-0.872233	0.168963	-0.322180	-0.813509	0.094091	-0.185164	-0.772464	0.086904	-0.286286	-0.747567	0.110264	-0.221087	-0.972139	0.155083	-0.310081	-0.914344	0.723616	-0.515263	-0.863272	0.713126	-0.511843	-0.915759	0.678474	-0.507478	-0.860006	0.676071	-0.505338	-0.907043	0.513408	-0.466888	-0.905658	0.512858	-0.353762	-0.997051	0.413445	-0.501559	-0.965461	0.389717	-0.481009	-1.026148	0.377683	-0.499823	-0.988406	0.360030	-0.484168	-1.179812	0.144533	-0.470580	-1.169464	0.146275	-0.373152	-1.112530	0.036987	-0.488044	-1.109531	0.028037	-0.369279	-1.059553	0.042318	-0.417412	-1.258313	0.156958	-0.418731	-0.814602	1.499398	-0.204144	-0.773364	1.448605	-0.577039	
26	0.1250	-0.855770	1.004487	-0.214917	-0.819634	0.974330	-0.470543	-1.016523	1.026802	-0.324850	-1.005682	1.024975	-0.424241	-0.855617	0.784781	-0.175721	-0.808397	0.809289	-0.166210	-0.818350	0.746948	-0.170930	-0.773255	0.771539	-0.164862	-0.697921	0.585026	-0.198820	-0.675900	0.580058	-0.306464	-0.790436	0.465032	-0.187320	-0.743927	0.449178	-0.186560	-0.802180	0.427808	-0.189556	-0.756036	0.414255	-0.189956	-0.869500	0.168640	-0.237356	-0.834880	0.163896	-0.321823	-0.770540	0.090610	-0.186370	-0.730522	0.086579	-0.287971	-0.705831	0.110700	-0.222931	-0.934193	0.144942	-0.308522	-0.896277	0.724584	-0.514754	-0.845441	0.713584	-0.511325	-0.898132	0.679433	-0.507068	-0.842357	0.676461	-0.504818	-0.891472	0.513875	-0.467149	-0.890355	0.513008	-0.353260	-0.983824	0.415960	-0.502113	-0.952562	0.391528	-0.481824	-1.013641	0.380892	-0.500359	-0.976131	0.362538	-0.484886	-1.171832	0.150616	-0.472084	-1.161658	0.152143	-0.374889	-1.110534	0.038686	-0.488182	-1.108686	0.030534	-0.369302	-1.058379	0.042808	-0.417138	-1.249067	0.166740	-0.420527	-0.796574	1.501191	-0.203884	-0.752962	1.451326	-0.575708	
27	0.1300	-0.836796	1.006337	-0.214638	-0.799832	0.975369	-0.469869	-0.996899	1.028420	-0.324897	-0.985588	1.026548	-0.424158	-0.836637	0.786369	-0.175866	-0.789488	0.810965	-0.166016	-0.799454	0.748474	-0.171183	-0.754376	0.773171	-0.164865	-0.678679	0.587113	-0.199891	-0.657554	0.582346	-0.306854	-0.766660	0.462660	-0.187228	-0.719436	0.449029	-0.187128	-0.776757	0.424858	-0.189260	-0.729934	0.413481	-0.190265	-0.832005	0.161519	-0.236705	-0.798205	0.158993	-0.321503	-0.728397	0.087269	-0.187706	-0.689547	0.086328	-0.289807	-0.665000	0.111104	-0.224930	-0.896795	0.135191	-0.306951	-0.877771	0.725562	-0.514268	-0.827157	0.714145	-0.510818	-0.879994	0.680406	-0.506693	-0.824205	0.676946	-0.504314	-0.875117	0.514397	-0.467442	-0.874256	0.513186	-0.352783	-0.969766	0.418568	-0.502664	-0.938826	0.393450	-0.482689	-1.000271	0.384200	-0.500892	-0.962980	0.365191	-0.485608	-1.162867	0.156935	-0.473555	-1.152875	0.158229	-0.376605	-1.107688	0.040733	-0.488291	-1.107009	0.033421	-0.369340	-1.056391	0.043471	-0.416833	-1.238718	0.176802	-0.422314	-0.778340	1.502883	-0.203589	-0.732662	1.454076	-0.574343	
28	0.1350	-0.817551	1.008014	-0.214314	-0.779898	0.976385	-0.469174	-0.977066	1.029935	-0.324836	-0.965337	1.028020	-0.423976	-0.817680	0.787677	-0.175991	-0.770564	0.812269	-0.165841	-0.780647	0.749663	-0.171438	-0.735551	0.774375	-0.164908	-0.659849	0.588715	-0.201052	-0.639725	0.584085	-0.307347	-0.743347	0.460059	-0.187172	-0.695480	0.448607	-0.187764	-0.751823	0.421737	-0.189015	-0.704389	0.412498	-0.190651	-0.795250	0.154665	-0.236086	-0.762368	0.154261	-0.321237	-0.687288	0.084068	-0.189156	-0.649730	0.086099	-0.291772	-0.625256	0.111422	-0.227065	-0.860124	0.125898	-0.305397	-0.858800	0.726522	-0.513811	-0.808390	0.714786	-0.510327	-0.861314	0.681364	-0.506359	-0.805519	0.677502	-0.503831	-0.857934	0.514946	-0.467767	-0.857307	0.513364	-0.352337	-0.954823	0.421237	-0.503206	-0.924199	0.395449	-0.483595	-0.985984	0.387571	-0.501415	-0.948898	0.367951	-0.486322	-1.152868	0.163450	-0.474969	-1.143055	0.164491	-0.378272	-1.103874	0.043133	-0.488371	-1.104359	0.036692	-0.369393	-1.053454	0.044319	-0.416503	-1.227233	0.187062	-0.424060	-0.759898	1.504443	-0.203259	-0.712481	1.456802	-0.572959	
29	0.1400	-0.798029	1.009484	-0.213944	-0.759827	0.977351	-0.468463	-0.957026	1.031311	-0.324671	-0.944934	1.029358	-0.423701	-0.798730	0.788677	-0.176093	-0.751610	0.813176	-0.165682	-0.761909	0.750490	-0.171692	-0.716761	0.775128	-0.164987	-0.641394	0.589812	-0.202290	-0.622360	0.585260	-0.307934	-0.720510	0.457244	-0.187161	-0.672075	0.447905	-0.188470	-0.727407	0.418465	-0.188833	-0.679435	0.411301	-0.191115	-0.759403	0.148113	-0.235517	-0.727522	0.149704	-0.321039	-0.647419	0.081002	-0.190705	-0.611253	0.085837	-0.293845	-0.586777	0.111599	-0.229314	-0.824358	0.117119	-0.303892	-0.839344	0.727437	-0.513390	-0.789117	0.715480	-0.509860	-0.842069	0.682279	-0.506072	-0.786276	0.678104	-0.503377	-0.839886	0.515497	-0.468125	-0.839461	0.513517	-0.351929	-0.938950	0.423936	-0.503731	-0.908641	0.397492	-0.484532	-0.970738	0.390969	-0.501917	-0.933842	0.370784	-0.487017	-1.141794	0.170116	-0.476303	-1.132151	0.170884	-0.379863	-1.098981	0.045886	-0.488418	-1.100602	0.040330	-0.369463	-1.049438	0.045363	-0.416157	-1.214590	0.197432	-0.425734	-0.741248	1.505843	-0.202890	-0.692435	1.459448	-0.571573	
30	0.1450	-0.778228	1.010721	-0.213526	-0.739619	0.978241	-0.467739	-0.936784	1.032519	-0.324404	-0.924385	1.030529	-0.423339	-0.779772	0.789349	-0.176170	-0.732610	0.813668	-0.165533	-0.743219	0.750937	-0.171940	-0.697985	0.775418	-0.165097	-0.623273	0.590394	-0.203597	-0.605404	0.585864	-0.308608	-0.698157	0.454238	-0.187203	-0.649232	0.446918	-0.189244	-0.703538	0.415063	-0.188725	-0.655099	0.409886	-0.191660	-0.724628	0.141894	-0.235014	-0.693816	0.145325	-0.320924	-0.608982	0.078063	-0.192336	-0.574285	0.085488	-0.296003	-0.549725	0.111582	-0.231656	-0.789670	0.108905	-0.302465	-0.819390	0.728281	-0.513011	-0.769322	0.716204	-0.509420	-0.822245	0.683125	-0.505836	-0.766462	0.678731	-0.502957	-0.820955	0.516025	-0.468517	-0.820691	0.513621	-0.351566	-0.922120	0.426633	-0.504236	-0.892126	0.399546	-0.485491	-0.954504	0.394359	-0.502391	-0.917782	0.373653	-0.487685	-1.129618	0.176885	-0.477534	-1.120125	0.177361	-0.381355	-1.092904	0.048984	-0.488434	-1.095610	0.044311	-0.369549	-1.044220	0.046611	-0.415807	-1.200782	0.207820	-0.427304	-0.722392	1.507059	-0.202481	-0.672538	1.461967	-0.570200	
31	0.1500	-0.758153	1.011702	-0.213059	-0.719279	0.979031	-0.467003	-0.916349	1.033532	-0.324040	-0.903700	1.031506	-0.422897	-0.760793	0.789677	-0.176224	-0.713554	0.813738	-0.165392	-0.724559	0.750997	-0.172179	-0.679207	0.775239	-0.165231	-0.605447	0.590460	-0.204959	-0.588800	0.585903	-0.309363	-0.676296	0.451063	-0.187304	-0.626957	0.445647	-0.190083	-0.680238	0.411554	-0.188699	-0.631408	0.408256	-0.192286	-0.691081	0.136033	-0.234593	-0.661389	0.141122	-0.320906	-0.572159	0.075242	-0.194031	-0.538979	0.084999	-0.298222	-0.514253	0.111320	-0.234068	-0.756224	0.101298	-0.301142	-0.798936	0.729032	-0.512677	-0.749002	0.716934	-0.509013	-0.801840	0.683880	-0.505655	-0.746075	0.679361	-0.502578	-0.801135	0.516508	-0.468943	-0.800983	0.513655	-0.351253	-0.904320	0.429300	-0.504716	-0.874643	0.401583	-0.486463	-0.937270	0.397708	-0.502831	-0.900707	0.376521	-0.488318	-1.116325	0.183706	-0.478643	-1.106953	0.183872	-0.382727	-1.085554	0.052409	-0.488420	-1.089270	0.048602	-0.369653	-1.037691	0.048070	-0.415464	-1.185815	0.218136	-0.428742	-0.703339	1.508072	-0.202032	-0.652806	1.464315	-0.568855	
32	0.1550	-0.737817	1.012414	-0.212542	-0.698816	0.979700	-0.466260	-0.895740	1.034330	-0.323585	-0.882899	1.032264	-0.422383	-0.741785	0.789657	-0.176252	-0.694437	0.813385	-0.165253	-0.705917	0.750668	-0.172406	-0.660418	0.774598	-0.165385	-0.587876	0.590022	-0.206366	-0.572491	0.585397	-0.310189	-0.654932	0.447751	-0.187470	-0.605257	0.444101	-0.190985	-0.657532	0.407966	-0.188764	-0.608384	0.406416	-0.192995	-0.658905	0.130550	-0.234269	-0.630371	0.137094	-0.320996	-0.537112	0.072527	-0.195769	-0.505475	0.084323	-0.300481	-0.480496	0.110769	-0.236527	-0.724175	0.094329	-0.299947	-0.777992	0.729670	-0.512394	-0.728164	0.717646	-0.508643	-0.780865	0.684524	-0.505533	-0.725123	0.679973	-0.502245	-0.780440	0.516926	-0.469403	-0.780340	0.513601	-0.350996	-0.885555	0.431909	-0.505169	-0.856197	0.403573	-0.487439	-0.919041	0.400982	-0.503233	-0.882621	0.379354	-0.488910	-1.101916	0.190527	-0.479615	-1.092626	0.190367	-0.383961	-1.076858	0.056137	-0.488379	-1.081485	0.053161	-0.369774	-1.029759	0.049743	-0.415141	-1.169716	0.228286	-0.430023	-0.684100	1.508869	-0.201542	-0.633254	1.466452	-0.567553	
33	0.1600	-0.717241	1.012846	-0.211976	-0.678250	0.980229	-0.465512	-0.874980	1.034895	-0.323046	-0.862005	1.032784	-0.421806	-0.722749	0.789291	-0.176256	-0.675261	0.812618	-0.165114	-0.687285	0.749959	-0.172620	-0.641613	0.773509	-0.165554	-0.570526	0.589100	-0.207806	-0.556428	0.584373	-0.311077	-0.634074	0.444333	-0.187706	-0.584138	0.442292	-0.191948	-0.635442	0.404328	-0.188924	-0.586049	0.404378	-0.193784	-0.628235	0.125458	-0.234053	-0.600877	0.133238	-0.321204	-0.503987	0.069908	-0.197534	-0.473888	0.083419	-0.302756	-0.448573	0.109890	-0.239013	-0.693664	0.088020	-0.298901	-0.756580	0.730180	-0.512165	-0.706830	0.718322	-0.508313	-0.759343	0.685041	-0.505472	-0.703633	0.680550	-0.501963	-0.758902	0.517265	-0.469898	-0.758789	0.513447	-0.350801	-0.865849	0.434434	-0.505592	-0.836815	0.405493	-0.488413	-0.899842	0.404154	-0.503592	-0.863550	0.382122	-0.489457	-1.086410	0.197296	-0.480435	-1.077154	0.196796	-0.385041	-1.066764	0.060136	-0.488314	-1.072183	0.057943	-0.369913	-1.020355	0.051625	-0.414850	-1.152524	0.238180	-0.431121	-0.664696	1.509439	-0.201012	-0.613900	1.468347	-0.566304	
34	0.1650	-0.696460	1.012997	-0.211361	-0.657608	0.980605	-0.464761	-0.854105	1.035218	-0.322429	-0.841054	1.033052	-0.421175	-0.703690	0.788588	-0.176236	-0.656036	0.811455	-0.164973	-0.668665	0.748886	-0.172820	-0.622796	0.771995	-0.165734	-0.553369	0.587722	-0.209267	-0.540567	0.582871	-0.312018	-0.613732	0.440844	-0.188014	-0.563606	0.440238	-0.192966	-0.613991	0.400671	-0.189183	-0.564422	0.402155	-0.194652	-0.599186	0.120767	-0.233955	-0.573010	0.129548	-0.321538	-0.472905	0.067374	-0.199305	-0.444316	0.082252	-0.305026	-0.418581	0.108655	-0.241503	-0.664815	0.082384	-0.298021	-0.734738	0.730551	-0.511991	-0.685035	0.718942	-0.508027	-0.737314	0.685419	-0.505472	-0.681642	0.681078	-0.501735	-0.736573	0.517514	-0.470425	-0.736373	0.513184	-0.350670	-0.845247	0.436853	-0.505986	-0.816539	0.407320	-0.489377	-0.879716	0.407196	-0.503908	-0.843537	0.384793	-0.489957	-1.069843	0.203961	-0.481094	-1.060563	0.203106	-0.385957	-1.055243	0.064369	-0.488231	-1.061317	0.062892	-0.370071	-1.009431	0.053713	-0.414607	-1.134299	0.247735	-0.432019	-0.645157	1.509781	-0.200443	-0.594765	1.469975	-0.565121	
35	0.1700	-0.675515	1.012873	-0.210702	-0.636927	0.980818	-0.464012	-0.833159	1.035295	-0.321743	-0.820088	1.033060	-0.420499	-0.684624	0.787567	-0.176194	-0.636781	0.809922	-0.164827	-0.650066	0.747472	-0.173007	-0.603983	0.770088	-0.165920	-0.536388	0.585927	-0.210740	-0.524874	0.580938	-0.313002	-0.593918	0.437321	-0.188395	-0.543669	0.437964	-0.194037	-0.593203	0.397028	-0.189542	-0.543521	0.399768	-0.195595	-0.571858	0.116480	-0.233981	-0.546853	0.126022	-0.322003	-0.443965	0.064916	-0.201064	-0.416833	0.080798	-0.307270	-0.390599	0.107045	-0.243978	-0.637735	0.077423	-0.297318	-0.712518	0.730775	-0.511875	-0.662833	0.719493	-0.507786	-0.714837	0.685651	-0.505534	-0.659208	0.681546	-0.501565	-0.713523	0.517665	-0.470985	-0.713160	0.512808	-0.350608	-0.823816	0.439146	-0.506350	-0.795435	0.409037	-0.490324	-0.858728	0.410086	-0.504178	-0.822649	0.387342	-0.490407	-1.052269	0.210469	-0.481587	-1.042902	0.209251	-0.386700	-1.042294	0.068790	-0.488134	-1.048871	0.067951	-0.370248	-0.996973	0.055992	-0.414422	-1.115121	0.256870	-0.432700	-0.625519	1.509895	-0.199837	-0.575872	1.471318	-0.564012	
36	0.1750	-0.654464	1.012483	-0.210001	-0.616256	0.980862	-0.463267	-0.812195	1.035128	-0.320995	-0.799161	1.032805	-0.419786	-0.665578	0.786252	-0.176133	-0.617528	0.808052	-0.164676	-0.631509	0.745749	-0.173181	-0.585197	0.767826	-0.166110	-0.519572	0.583759	-0.212212	-0.509325	0.578628	-0.314020	-0.574648	0.433801	-0.188846	-0.524338	0.435496	-0.195153	-0.573102	0.393430	-0.190000	-0.523368	0.397237	-0.196608	-0.546334	0.112597	-0.234135	-0.522474	0.122655	-0.322599	-0.417239	0.062526	-0.202793	-0.391489	0.079043	-0.309469	-0.364684	0.105051	-0.246418	-0.612509	0.073128	-0.296801	-0.689989	0.730849	-0.511816	-0.640292	0.719963	-0.507591	-0.691984	0.685734	-0.505656	-0.636403	0.681945	-0.501454	-0.689846	0.517714	-0.471574	-0.689239	0.512319	-0.350615	-0.801642	0.441298	-0.506685	-0.773588	0.410630	-0.491249	-0.836966	0.412804	-0.504404	-0.800974	0.389747	-0.490807	-1.033766	0.216773	-0.481910	-1.024241	0.215183	-0.387268	-1.027943	0.073352	-0.488030	-1.034860	0.073059	-0.370445	-0.982994	0.058449	-0.414308	-1.095086	0.265514	-0.433153	-0.605830	1.509787	-0.199198	-0.557251	1.472367	-0.562985	
37	0.1800	-0.633373	1.011846	-0.209264	-0.595653	0.980736	-0.462529	-0.791280	1.034725	-0.320195	-0.778336	1.032290	-0.419045	-0.646588	0.784674	-0.176054	-0.598319	0.805885	-0.164520	-0.613025	0.743752	-0.173345	-0.566474	0.765255	-0.166299	-0.502924	0.581268	-0.213674	-0.493910	0.576002	-0.315062	-0.555943	0.430321	-0.189365	-0.505627	0.432865	-0.196308	-0.553713	0.389908	-0.190552	-0.503981	0.394589	-0.197686	-0.522672	0.109110	-0.234418	-0.499922	0.119443	-0.323326	-0.392772	0.060201	-0.204477	-0.368311	0.076983	-0.311606	-0.340869	0.102678	-0.248805	-0.589201	0.069483	-0.296472	-0.667235	0.730775	-0.511812	-0.617497	0.720345	-0.507441	-0.668845	0.685669	-0.505838	-0.613317	0.682271	-0.501403	-0.665653	0.517664	-0.472190	-0.664720	0.511723	-0.350693	-0.778832	0.443296	-0.506994	-0.751103	0.412089	-0.492145	-0.814535	0.415336	-0.504588	-0.778618	0.391990	-0.491160	-1.014427	0.222828	-0.482065	-1.004672	0.220859	-0.387660	-1.012249	0.078003	-0.487925	-1.019333	0.078152	-0.370663	-0.967544	0.061061	-0.414276	-1.074309	0.273604	-0.433374	-0.586148	1.509470	-0.198527	-0.538938	1.473118	-0.562046	
38	0.1850	-0.612322	1.010982	-0.208497	-0.575188	0.980443	-0.461804	-0.770487	1.034098	-0.319351	-0.757688	1.031526	-0.418283	-0.627705	0.782868	-0.175960	-0.579205	0.803463	-0.164358	-0.594658	0.741523	-0.173500	-0.547862	0.762424	-0.166487	-0.486458	0.578510	-0.215117	-0.478632	0.573124	-0.316118	-0.537827	0.426917	-0.189948	-0.487555	0.430106	-0.197495	-0.535065	0.386494	-0.191193	-0.485381	0.391851	-0.198819	-0.500913	0.106012	-0.234827	-0.479225	0.116386	-0.324178	-0.370581	0.057936	-0.206099	-0.347300	0.074628	-0.313663	-0.319165	0.099941	-0.251122	-0.567850	0.066462	-0.296329	-0.644354	0.730559	-0.511862	-0.594549	0.720633	-0.507336	-0.645525	0.685463	-0.506074	-0.590054	0.682523	-0.501411	-0.641075	0.517517	-0.472829	-0.639732	0.511030	-0.350838	-0.755513	0.445131	-0.507277	-0.728105	0.413409	-0.493008	-0.791562	0.417669	-0.504731	-0.755709	0.394055	-0.491468	-0.994369	0.228591	-0.482057	-0.984308	0.226239	-0.387880	-0.995300	0.082688	-0.487827	-1.002378	0.083169	-0.370900	-0.950704	0.063802	-0.414333	-1.052922	0.281091	-0.433362	-0.566541	1.508958	-0.197830	-0.520971	1.473576	-0.561197	
39	0.1900	-0.591400	1.009918	-0.207706	-0.554939	0.979991	-0.461095	-0.749901	1.033265	-0.318472	-0.737297	1.030526	-0.417509	-0.608986	0.780874	-0.175855	-0.560250	0.800837	-0.164194	-0.576461	0.739108	-0.173648	-0.529418	0.759389	-0.166672	-0.470200	0.575542	-0.216531	-0.463509	0.570059	-0.317179	-0.520329	0.423622	-0.190586	-0.470144	0.427255	-0.198705	-0.517185	0.383214	-0.191913	-0.467592	0.389054	-0.200000	-0.481073	0.103287	-0.235356	-0.460390	0.113483	-0.325146	-0.350657	0.055734	-0.207647	-0.328433	0.071994	-0.315628	-0.299559	0.096868	-0.253354	-0.548474	0.064032	-0.296366	-0.621460	0.730209	-0.511963	-0.571563	0.720827	-0.507274	-0.622146	0.685124	-0.506360	-0.566735	0.682702	-0.501477	-0.616257	0.517282	-0.473487	-0.614425	0.510251	-0.351050	-0.731831	0.446798	-0.507538	-0.704735	0.414586	-0.493834	-0.768190	0.419797	-0.504836	-0.732393	0.395933	-0.491732	-0.973726	0.234028	-0.481894	-0.963283	0.231290	-0.387936	-0.977216	0.087353	-0.487741	-0.984115	0.088050	-0.371158	-0.932591	0.066645	-0.414485	-1.031073	0.287933	-0.433121	-0.547086	1.508270	-0.197111	-0.503397	1.473752	-0.560441	
40	0.1950	-0.570706	1.008685	-0.206900	-0.534996	0.979391	-0.460406	-0.729615	1.032251	-0.317569	-0.717253	1.029311	-0.416730	-0.590502	0.778735	-0.175741	-0.541530	0.798058	-0.164027	-0.558499	0.736553	-0.173793	-0.511212	0.756203	-0.166851	-0.454190	0.572424	-0.217908	-0.448571	0.566873	-0.318235	-0.503483	0.420469	-0.191272	-0.453419	0.424350	-0.199929	-0.500104	0.380096	-0.192703	-0.450634	0.386229	-0.201217	-0.463148	0.100920	-0.235995	-0.443404	0.110732	-0.326221	-0.332961	0.053595	-0.209109	-0.311666	0.069110	-0.317489	-0.282018	0.093495	-0.255487	-0.531064	0.062153	-0.296573	-0.598678	0.729740	-0.512111	-0.548666	0.720930	-0.507252	-0.598840	0.684665	-0.506692	-0.543491	0.682812	-0.501597	-0.591360	0.516970	-0.474158	-0.588963	0.509403	-0.351323	-0.707944	0.448296	-0.507779	-0.681152	0.415622	-0.494618	-0.744581	0.421716	-0.504909	-0.708831	0.397618	-0.491957	-0.952648	0.239106	-0.481587	-0.941751	0.235984	-0.387837	-0.958144	0.091945	-0.487673	-0.964698	0.092740	-0.371436	-0.913355	0.069556	-0.414736	-1.008924	0.294102	-0.432661	-0.527868	1.507429	-0.196376	-0.486266	1.473664	-0.559778	
41	0.2000	-0.550349	1.007314	-0.206087	-0.515453	0.978659	-0.459742	-0.709728	1.031080	-0.316649	-0.697651	1.027906	-0.415953	-0.572332	0.776494	-0.175623	-0.523126	0.795176	-0.163861	-0.540846	0.733907	-0.173935	-0.493321	0.752926	-0.167025	-0.438477	0.569216	-0.219242	-0.433862	0.563630	-0.319278	-0.487324	0.417484	-0.191996	-0.437410	0.421427	-0.201158	-0.483850	0.377161	-0.193551	-0.434531	0.383407	-0.202459	-0.447109	0.098891	-0.236733	-0.428236	0.108136	-0.327386	-0.317432	0.051527	-0.210476	-0.296931	0.066014	-0.319235	-0.266484	0.089869	-0.257510	-0.515587	0.060780	-0.296935	-0.576143	0.729165	-0.512299	-0.525997	0.720946	-0.507267	-0.575750	0.684103	-0.507062	-0.520464	0.682860	-0.501768	-0.566558	0.516594	-0.474837	-0.563526	0.508503	-0.351651	-0.684028	0.449625	-0.508002	-0.657524	0.416520	-0.495359	-0.720907	0.423426	-0.504951	-0.685198	0.399108	-0.492147	-0.931300	0.243803	-0.481150	-0.919881	0.240298	-0.387598	-0.938260	0.096414	-0.487628	-0.944312	0.097187	-0.371733	-0.893176	0.072501	-0.415086	-0.986647	0.299585	-0.431997	-0.508983	1.506458	-0.195629	-0.469633	1.473332	-0.559207	
42	0.2050	-0.530440	1.005839	-0.205275	-0.496410	0.977812	-0.459108	-0.690344	1.029783	-0.315723	-0.678592	1.026340	-0.415183	-0.554563	0.774195	-0.175502	-0.505128	0.792246	-0.163699	-0.523585	0.731219	-0.174076	-0.475830	0.749611	-0.167192	-0.423120	0.565974	-0.220524	-0.419437	0.560390	-0.320300	-0.471890	0.414691	-0.192747	-0.422147	0.418524	-0.202380	-0.468453	0.374429	-0.194442	-0.419306	0.380619	-0.203713	-0.432909	0.097178	-0.237556	-0.414832	0.105697	-0.328627	-0.303981	0.049536	-0.211740	-0.284139	0.062750	-0.320860	-0.252884	0.086045	-0.259412	-0.501990	0.059864	-0.297435	-0.553996	0.728503	-0.512523	-0.503700	0.720884	-0.507315	-0.553026	0.683455	-0.507464	-0.497805	0.682853	-0.501984	-0.542029	0.516166	-0.475517	-0.538301	0.507571	-0.352029	-0.660263	0.450790	-0.508210	-0.634032	0.417288	-0.496052	-0.697351	0.424931	-0.504969	-0.661678	0.400405	-0.492305	-0.909860	0.248100	-0.480600	-0.897859	0.244216	-0.387233	-0.917762	0.100713	-0.487610	-0.923171	0.101348	-0.372048	-0.872260	0.075446	-0.415532	-0.964424	0.304379	-0.431149	-0.490527	1.505383	-0.194878	-0.453559	1.472785	-0.558725	
43	0.2100	-0.511094	1.004296	-0.204474	-0.477970	0.976870	-0.458506	-0.671568	1.028390	-0.314800	-0.660175	1.024645	-0.414427	-0.537287	0.771882	-0.175382	-0.487631	0.789316	-0.163541	-0.506802	0.728534	-0.174220	-0.458829	0.746314	-0.167353	-0.408186	0.562754	-0.221749	-0.405362	0.557211	-0.321292	-0.457220	0.412110	-0.193515	-0.407663	0.415676	-0.203586	-0.453940	0.371912	-0.195362	-0.404978	0.377895	-0.204967	-0.420479	0.095757	-0.238447	-0.403123	0.103418	-0.329923	-0.292500	0.047629	-0.212896	-0.273185	0.059369	-0.322358	-0.241121	0.082081	-0.261186	-0.490196	0.059352	-0.298052	-0.532383	0.727772	-0.512777	-0.481925	0.720752	-0.507393	-0.530822	0.682740	-0.507891	-0.475666	0.682801	-0.502240	-0.517959	0.515703	-0.476191	-0.513481	0.506626	-0.352448	-0.636838	0.451798	-0.508405	-0.610860	0.417934	-0.496696	-0.674101	0.426238	-0.504966	-0.638459	0.401514	-0.492436	-0.888514	0.251987	-0.479954	-0.875877	0.247732	-0.386759	-0.896869	0.104798	-0.487622	-0.901509	0.105188	-0.372380	-0.850835	0.078354	-0.416068	-0.942439	0.308493	-0.430138	-0.472602	1.504231	-0.194128	-0.438103	1.472053	-0.558326	
44	0.2150	-0.492428	1.002718	-0.203693	-0.460234	0.975856	-0.457941	-0.653506	1.026933	-0.313889	-0.642500	1.022855	-0.413690	-0.520598	0.769594	-0.175265	-0.470733	0.786435	-0.163393	-0.490590	0.725897	-0.174365	-0.442412	0.743085	-0.167508	-0.393749	0.559606	-0.222911	-0.391709	0.554143	-0.322247	-0.443352	0.409753	-0.194288	-0.393991	0.412917	-0.204765	-0.440336	0.369623	-0.196298	-0.391568	0.375265	-0.206208	-0.409734	0.094604	-0.239390	-0.393022	0.101301	-0.331255	-0.282861	0.045817	-0.213941	-0.263946	0.055923	-0.323725	-0.231086	0.078042	-0.262825	-0.480111	0.059188	-0.298764	-0.511450	0.726994	-0.513053	-0.460821	0.720562	-0.507494	-0.509292	0.681978	-0.508333	-0.454201	0.682715	-0.502530	-0.494529	0.515219	-0.476853	-0.489260	0.505687	-0.352899	-0.613941	0.452657	-0.508589	-0.588195	0.418468	-0.497290	-0.651349	0.427356	-0.504947	-0.615734	0.402445	-0.492545	-0.867450	0.255461	-0.479231	-0.854136	0.250843	-0.386197	-0.875810	0.108636	-0.487666	-0.879577	0.108681	-0.372726	-0.829148	0.081192	-0.416686	-0.920879	0.311950	-0.428993	-0.455311	1.503029	-0.193387	-0.423328	1.471166	-0.558005	
45	0.2200	-0.474553	1.001137	-0.202940	-0.443302	0.974791	-0.457417	-0.636257	1.025443	-0.312998	-0.625661	1.021004	-0.412978	-0.504591	0.767370	-0.175154	-0.454529	0.783644	-0.163254	-0.475038	0.723346	-0.174514	-0.426672	0.739969	-0.167656	-0.379883	0.556574	-0.224006	-0.378552	0.551227	-0.323159	-0.430323	0.407629	-0.195054	-0.381162	0.410276	-0.205905	-0.427663	0.367566	-0.197233	-0.379090	0.372752	-0.207421	-0.400571	0.093691	-0.240364	-0.384427	0.099348	-0.332603	-0.274920	0.044109	-0.214875	-0.256287	0.052468	-0.324962	-0.222654	0.073991	-0.264326	-0.471621	0.059320	-0.299548	-0.491337	0.726187	-0.513346	-0.440534	0.720326	-0.507616	-0.488586	0.681189	-0.508785	-0.433558	0.682603	-0.502845	-0.471919	0.514729	-0.477497	-0.465829	0.504773	-0.353374	-0.591757	0.453378	-0.508764	-0.566221	0.418900	-0.497833	-0.629279	0.428297	-0.504915	-0.593689	0.403207	-0.492633	-0.846858	0.258526	-0.478451	-0.832837	0.253556	-0.385564	-0.854824	0.112197	-0.487741	-0.857637	0.111808	-0.373082	-0.807453	0.083927	-0.417375	-0.899927	0.314782	-0.427740	-0.438755	1.501802	-0.192661	-0.409294	1.470161	-0.557757	
46	0.2250	-0.457576	0.999583	-0.202222	-0.427268	0.973700	-0.456935	-0.619919	1.023951	-0.312135	-0.609749	1.019128	-0.412295	-0.489358	0.765242	-0.175050	-0.439114	0.780983	-0.163128	-0.460235	0.720917	-0.174665	-0.411697	0.737006	-0.167797	-0.366665	0.553699	-0.225030	-0.365971	0.548501	-0.324022	-0.418165	0.405742	-0.195803	-0.369202	0.407780	-0.206998	-0.415935	0.365743	-0.198154	-0.367556	0.370380	-0.208595	-0.392875	0.092994	-0.241353	-0.377226	0.097562	-0.333945	-0.268521	0.042512	-0.215699	-0.250065	0.049057	-0.326068	-0.215691	0.069990	-0.265687	-0.464602	0.059692	-0.300381	-0.472179	0.725371	-0.513648	-0.421199	0.720057	-0.507752	-0.468844	0.680392	-0.509237	-0.413878	0.682476	-0.503178	-0.450298	0.514246	-0.478116	-0.443369	0.503899	-0.353863	-0.570464	0.453972	-0.508930	-0.545112	0.419244	-0.498325	-0.608072	0.429075	-0.504874	-0.572503	0.403815	-0.492706	-0.826923	0.261191	-0.477633	-0.812175	0.255882	-0.384881	-0.834151	0.115458	-0.487847	-0.835951	0.114562	-0.373447	-0.786007	0.086531	-0.418121	-0.879757	0.317031	-0.426409	-0.423027	1.500575	-0.191957	-0.396058	1.469070	-0.557573	
47	0.2300	-0.441593	0.998083	-0.201547	-0.412214	0.972605	-0.456497	-0.604574	1.022486	-0.311309	-0.594840	1.017260	-0.411645	-0.474985	0.763238	-0.174956	-0.424573	0.778483	-0.163016	-0.446264	0.718639	-0.174818	-0.397571	0.734229	-0.167932	-0.354167	0.551011	-0.225980	-0.354039	0.545990	-0.324831	-0.406905	0.404091	-0.196524	-0.358134	0.405449	-0.208034	-0.405163	0.364149	-0.199048	-0.356971	0.368167	-0.209718	-0.386520	0.092484	-0.242337	-0.371297	0.095943	-0.335261	-0.263502	0.041036	-0.216416	-0.245128	0.045742	-0.327047	-0.210054	0.066100	-0.266907	-0.458918	0.060251	-0.301241	-0.454097	0.724563	-0.513953	-0.402943	0.719766	-0.507898	-0.450196	0.679605	-0.509683	-0.395290	0.682343	-0.503523	-0.429818	0.513783	-0.478705	-0.422046	0.503081	-0.354357	-0.550223	0.454453	-0.509088	-0.525031	0.419511	-0.498766	-0.587892	0.429704	-0.504828	-0.552344	0.404284	-0.492766	-0.807819	0.263473	-0.476797	-0.792339	0.257841	-0.384167	-0.814025	0.118407	-0.487981	-0.814777	0.116944	-0.373815	-0.765064	0.088977	-0.418911	-0.860531	0.318747	-0.425032	-0.408216	1.499371	-0.191281	-0.383671	1.467927	-0.557445	
48	0.2350	-0.426688	0.996660	-0.200919	-0.398212	0.971526	-0.456105	-0.590298	1.021072	-0.310526	-0.581001	1.015433	-0.411033	-0.461547	0.761381	-0.174871	-0.410984	0.776170	-0.162919	-0.433200	0.716534	-0.174972	-0.384370	0.731665	-0.168061	-0.342455	0.548535	-0.226854	-0.342828	0.543715	-0.325582	-0.396563	0.402669	-0.197209	-0.347974	0.403301	-0.209006	-0.395349	0.362779	-0.199902	-0.347334	0.366128	-0.210779	-0.381373	0.092135	-0.243301	-0.366510	0.094490	-0.336533	-0.259695	0.039684	-0.217031	-0.241323	0.042570	-0.327902	-0.205597	0.062374	-0.267991	-0.454426	0.060950	-0.302105	-0.437198	0.723781	-0.514255	-0.385876	0.719465	-0.508051	-0.432755	0.678843	-0.510116	-0.377906	0.682212	-0.503871	-0.410617	0.513350	-0.479258	-0.402010	0.502329	-0.354846	-0.531181	0.454834	-0.509238	-0.506125	0.419713	-0.499157	-0.568889	0.430201	-0.504779	-0.533360	0.404629	-0.492815	-0.789706	0.265394	-0.475962	-0.773500	0.259455	-0.383440	-0.794668	0.121037	-0.488140	-0.794361	0.118964	-0.374183	-0.744865	0.091247	-0.419726	-0.842397	0.319986	-0.423638	-0.394396	1.498211	-0.190638	-0.372178	1.466763	-0.557366	
49	0.2400	-0.412928	0.995334	-0.200343	-0.385319	0.970483	-0.455758	-0.577148	1.019732	-0.309793	-0.568284	1.013675	-0.410461	-0.449110	0.759687	-0.174797	-0.398410	0.774062	-0.162837	-0.421105	0.714619	-0.175126	-0.372154	0.729332	-0.168182	-0.331588	0.546289	-0.227651	-0.332399	0.541687	-0.326272	-0.387149	0.401466	-0.197850	-0.338732	0.401347	-0.209906	-0.386486	0.361620	-0.200705	-0.338637	0.364273	-0.211769	-0.377298	0.091921	-0.244227	-0.362734	0.093200	-0.337743	-0.256930	0.038462	-0.217549	-0.238494	0.039582	-0.328641	-0.202170	0.058861	-0.268940	-0.450980	0.061740	-0.302953	-0.421569	0.723038	-0.514548	-0.370087	0.719166	-0.508205	-0.416615	0.678122	-0.510529	-0.361818	0.682089	-0.504216	-0.392808	0.512953	-0.479771	-0.383387	0.501651	-0.355322	-0.513461	0.455128	-0.509382	-0.488518	0.419861	-0.499501	-0.551189	0.430582	-0.504730	-0.515677	0.404868	-0.492857	-0.772724	0.266980	-0.475143	-0.755811	0.260754	-0.382718	-0.776282	0.123348	-0.488318	-0.774927	0.120639	-0.374546	-0.725632	0.093324	-0.420552	-0.825478	0.320807	-0.422256	-0.381631	1.497111	-0.190034	-0.361613	1.465608	-0.557328	
50	0.2450	-0.400365	0.994118	-0.199823	-0.373576	0.969492	-0.455457	-0.565165	1.018485	-0.309113	-0.556723	1.012012	-0.409933	-0.437721	0.758166	-0.174733	-0.386901	0.772171	-0.162771	-0.410028	0.712905	-0.175277	-0.360973	0.727242	-0.168296	-0.321613	0.544282	-0.228370	-0.322803	0.539907	-0.326899	-0.378664	0.400467	-0.198441	-0.330405	0.399594	-0.210730	-0.378562	0.360658	-0.201450	-0.330864	0.362608	-0.212680	-0.374155	0.091819	-0.245102	-0.359836	0.092070	-0.338877	-0.255043	0.037371	-0.217979	-0.236493	0.036811	-0.329270	-0.199627	0.055598	-0.269762	-0.448432	0.062583	-0.303769	-0.407276	0.722345	-0.514828	-0.355644	0.718876	-0.508357	-0.401845	0.677450	-0.510918	-0.347099	0.681978	-0.504551	-0.376478	0.512600	-0.480241	-0.366276	0.501053	-0.355778	-0.497163	0.455347	-0.509517	-0.472310	0.419965	-0.499798	-0.534894	0.430863	-0.504683	-0.499399	0.405018	-0.492892	-0.756992	0.268261	-0.474356	-0.739401	0.261769	-0.382016	-0.759045	0.125349	-0.488511	-0.756675	0.121993	-0.374900	-0.707560	0.095197	-0.421372	-0.809878	0.321274	-0.420912	-0.369967	1.496086	-0.189474	-0.352000	1.464487	-0.557323	
51	0.2500	-0.389028	0.993022	-0.199359	-0.363005	0.968568	-0.455198	-0.554373	1.017343	-0.308491	-0.546335	1.010465	-0.409450	-0.427415	0.756824	-0.174680	-0.376491	0.770502	-0.162718	-0.400000	0.711395	-0.175423	-0.350858	0.725399	-0.168403	-0.312561	0.542517	-0.229012	-0.314077	0.538374	-0.327462	-0.371101	0.399656	-0.198976	-0.322984	0.398044	-0.211474	-0.371551	0.359877	-0.202129	-0.323989	0.361134	-0.213508	-0.371808	0.091804	-0.245915	-0.357686	0.091093	-0.339923	-0.253876	0.036410	-0.218329	-0.235174	0.034282	-0.329799	-0.197826	0.052617	-0.270463	-0.446640	0.063440	-0.304538	-0.394363	0.721712	-0.515090	-0.342593	0.718603	-0.508503	-0.388492	0.676838	-0.511278	-0.333792	0.681884	-0.504870	-0.361687	0.512293	-0.480666	-0.350748	0.500537	-0.356206	-0.482357	0.455505	-0.509644	-0.457573	0.420035	-0.500053	-0.520078	0.431060	-0.504639	-0.484599	0.405094	-0.492922	-0.742601	0.269271	-0.473613	-0.724371	0.262534	-0.381347	-0.743106	0.127052	-0.488713	-0.739769	0.123056	-0.375238	-0.690814	0.096863	-0.422169	-0.795671	0.321448	-0.419629	-0.359433	1.495146	-0.188960	-0.343349	1.463422	-0.557343	
52	0.2550	-0.378928	0.992052	-0.198952	-0.353610	0.967721	-0.454981	-0.544776	1.016316	-0.307931	-0.537118	1.009050	-0.409014	-0.418206	0.755661	-0.174637	-0.367192	0.769053	-0.162680	-0.391038	0.710087	-0.175563	-0.341822	0.723801	-0.168501	-0.304451	0.540991	-0.229578	-0.306245	0.537077	-0.327961	-0.364439	0.399013	-0.199455	-0.316448	0.396694	-0.212136	-0.365420	0.359257	-0.202739	-0.317978	0.359849	-0.214249	-0.370127	0.091855	-0.246658	-0.356159	0.090260	-0.340872	-0.253280	0.035576	-0.218607	-0.234403	0.032014	-0.330235	-0.196631	0.049937	-0.271053	-0.445467	0.064282	-0.305247	-0.382846	0.721143	-0.515332	-0.330952	0.718353	-0.508642	-0.376578	0.676291	-0.511606	-0.321919	0.681808	-0.505169	-0.348466	0.512032	-0.481044	-0.336841	0.500101	-0.356602	-0.469085	0.455612	-0.509762	-0.444352	0.420079	-0.500268	-0.506785	0.431189	-0.504599	-0.471321	0.405112	-0.492948	-0.729614	0.270042	-0.472925	-0.710792	0.263085	-0.380722	-0.728577	0.128478	-0.488918	-0.724339	0.123862	-0.375559	-0.675523	0.098321	-0.422931	-0.782905	0.321393	-0.418428	-0.350040	1.494300	-0.188495	-0.335659	1.462431	-0.557382	
53	0.2600	-0.370054	0.991208	-0.198601	-0.345373	0.966959	-0.454801	-0.536357	1.015410	-0.307432	-0.529052	1.007778	-0.408625	-0.410091	0.754670	-0.174602	-0.359000	0.767818	-0.162653	-0.383138	0.708974	-0.175695	-0.333862	0.722440	-0.168591	-0.297285	0.539694	-0.230071	-0.299312	0.536001	-0.328398	-0.358646	0.398517	-0.199875	-0.310766	0.395537	-0.212716	-0.360129	0.358778	-0.203276	-0.312789	0.358746	-0.214901	-0.368987	0.091953	-0.247324	-0.355137	0.089562	-0.341719	-0.253120	0.034865	-0.218823	-0.234055	0.030014	-0.330589	-0.195918	0.047570	-0.271541	-0.444785	0.065083	-0.305888	-0.372718	0.720643	-0.515550	-0.320715	0.718130	-0.508769	-0.366095	0.675811	-0.511899	-0.311474	0.681750	-0.505443	-0.336816	0.511818	-0.481375	-0.324563	0.499743	-0.356961	-0.457355	0.455681	-0.509870	-0.432658	0.420105	-0.500446	-0.495029	0.431263	-0.504563	-0.459578	0.405088	-0.492971	-0.718063	0.270611	-0.472300	-0.698702	0.263456	-0.380150	-0.715537	0.129648	-0.489121	-0.710474	0.124445	-0.375857	-0.661776	0.099576	-0.423643	-0.771596	0.321166	-0.417325	-0.341779	1.493551	-0.188081	-0.328913	1.461527	-0.557433	
54	0.2650	-0.362375	0.990489	-0.198304	-0.338261	0.966287	-0.454655	-0.529083	1.014626	-0.306995	-0.522099	1.006656	-0.408284	-0.403047	0.753843	-0.174576	-0.351892	0.766785	-0.162637	-0.376279	0.708047	-0.175816	-0.326954	0.721301	-0.168672	-0.291048	0.538613	-0.230494	-0.293269	0.535128	-0.328774	-0.353682	0.398147	-0.200236	-0.305897	0.394563	-0.213217	-0.355625	0.358420	-0.203742	-0.308374	0.357816	-0.215466	-0.368275	0.092081	-0.247910	-0.354512	0.088987	-0.342460	-0.253274	0.034267	-0.218987	-0.234019	0.028283	-0.330871	-0.195574	0.045516	-0.271938	-0.444478	0.065825	-0.306456	-0.363947	0.720212	-0.515743	-0.311849	0.717936	-0.508885	-0.357013	0.675398	-0.512157	-0.302425	0.681710	-0.505690	-0.326706	0.511647	-0.481661	-0.313890	0.499456	-0.357282	-0.447150	0.455719	-0.509968	-0.422474	0.420117	-0.500592	-0.484793	0.431297	-0.504533	-0.449355	0.405034	-0.492992	-0.707951	0.271012	-0.471743	-0.688108	0.263683	-0.379636	-0.704024	0.130589	-0.489316	-0.698222	0.124842	-0.376129	-0.649622	0.100638	-0.424297	-0.761733	0.320821	-0.416332	-0.334622	1.492900	-0.187718	-0.323081	1.460721	-0.557490	
55	0.2700	-0.355838	0.989889	-0.198056	-0.332220	0.965705	-0.454540	-0.522900	1.013961	-0.306619	-0.516203	1.005686	-0.407989	-0.397033	0.753167	-0.174556	-0.345826	0.765939	-0.162629	-0.370422	0.707289	-0.175925	-0.321059	0.720368	-0.168744	-0.285709	0.537729	-0.230852	-0.288089	0.534434	-0.329092	-0.349496	0.397882	-0.200542	-0.301789	0.393758	-0.213641	-0.351852	0.358163	-0.204138	-0.304674	0.357045	-0.215947	-0.367888	0.092225	-0.248415	-0.354188	0.088522	-0.343098	-0.253637	0.033776	-0.219106	-0.234199	0.026815	-0.331092	-0.195497	0.043768	-0.272254	-0.444442	0.066492	-0.306949	-0.356478	0.719848	-0.515911	-0.304299	0.717772	-0.508987	-0.349274	0.675052	-0.512380	-0.294715	0.681686	-0.505908	-0.318081	0.511516	-0.481903	-0.304769	0.499234	-0.357561	-0.438421	0.455735	-0.510056	-0.413756	0.420120	-0.500708	-0.476030	0.431300	-0.504508	-0.440603	0.404961	-0.493010	-0.699248	0.271276	-0.471256	-0.678984	0.263797	-0.379185	-0.694040	0.131329	-0.489499	-0.687588	0.125090	-0.376374	-0.639067	0.101519	-0.424884	-0.753277	0.320406	-0.415455	-0.328523	1.492346	-0.187405	-0.318120	1.460016	-0.557550	
56	0.2750	-0.350376	0.989398	-0.197854	-0.327183	0.965213	-0.454452	-0.517741	1.013409	-0.306302	-0.511294	1.004863	-0.407739	-0.391993	0.752628	-0.174543	-0.340744	0.765261	-0.162627	-0.365512	0.706683	-0.176022	-0.316119	0.719620	-0.168807	-0.281222	0.537023	-0.231150	-0.283732	0.533898	-0.329358	-0.346027	0.397702	-0.200795	-0.298386	0.393106	-0.213993	-0.348746	0.357987	-0.204468	-0.301628	0.356419	-0.216348	-0.367737	0.092372	-0.248842	-0.354079	0.088155	-0.343634	-0.254121	0.033379	-0.219189	-0.234513	0.025595	-0.331259	-0.195603	0.042312	-0.272500	-0.444590	0.067078	-0.307367	-0.350234	0.719548	-0.516055	-0.297987	0.717637	-0.509076	-0.342803	0.674767	-0.512569	-0.288268	0.681675	-0.506096	-0.310857	0.511419	-0.482105	-0.297118	0.499068	-0.357800	-0.431092	0.455736	-0.510132	-0.406430	0.420119	-0.500799	-0.468668	0.431284	-0.504487	-0.433252	0.404879	-0.493025	-0.691898	0.271436	-0.470840	-0.671272	0.263829	-0.378797	-0.685549	0.131897	-0.489666	-0.678538	0.125222	-0.376589	-0.630080	0.102235	-0.425400	-0.746160	0.319960	-0.414697	-0.323420	1.491884	-0.187140	-0.313976	1.459413	-0.557609	
57	0.2800	-0.345904	0.989007	-0.197693	-0.323068	0.964805	-0.454386	-0.513522	1.012961	-0.306039	-0.507290	1.004182	-0.407531	-0.387854	0.752207	-0.174534	-0.336572	0.764730	-0.162630	-0.361479	0.706211	-0.176106	-0.312064	0.719034	-0.168861	-0.277529	0.536471	-0.231392	-0.280141	0.533495	-0.329574	-0.343210	0.397587	-0.201000	-0.295621	0.392590	-0.214280	-0.346239	0.357874	-0.204736	-0.299168	0.355922	-0.216675	-0.367745	0.092514	-0.249194	-0.354115	0.087872	-0.344075	-0.254655	0.033067	-0.219245	-0.234895	0.024605	-0.331383	-0.195818	0.041126	-0.272688	-0.444846	0.067577	-0.307713	-0.345121	0.719307	-0.516174	-0.292819	0.717529	-0.509151	-0.337502	0.674540	-0.512724	-0.282987	0.681674	-0.506254	-0.304932	0.511351	-0.482268	-0.290832	0.498949	-0.358000	-0.425065	0.455728	-0.510198	-0.400401	0.420115	-0.500869	-0.462611	0.431256	-0.504471	-0.427203	0.404796	-0.493039	-0.685821	0.271517	-0.470492	-0.664892	0.263804	-0.378471	-0.678481	0.132319	-0.489814	-0.671002	0.125269	-0.376773	-0.622591	0.102804	-0.425842	-0.740295	0.319519	-0.414058	-0.319238	1.491507	-0.186921	-0.310582	1.458911	-0.557663	
58	0.2850	-0.342327	0.988704	-0.197569	-0.319783	0.964477	-0.454338	-0.510151	1.012607	-0.305827	-0.504097	1.003632	-0.407362	-0.384534	0.751889	-0.174528	-0.333227	0.764327	-0.162636	-0.358243	0.705853	-0.176176	-0.308812	0.718588	-0.168906	-0.274558	0.536052	-0.231584	-0.277251	0.533201	-0.329746	-0.340973	0.397522	-0.201162	-0.293426	0.392191	-0.214507	-0.344261	0.357808	-0.204948	-0.297227	0.355538	-0.216935	-0.367850	0.092643	-0.249477	-0.354237	0.087659	-0.344429	-0.255184	0.032827	-0.219280	-0.235293	0.023822	-0.331473	-0.196088	0.040185	-0.272827	-0.445153	0.067991	-0.307992	-0.341031	0.719118	-0.516270	-0.288685	0.717445	-0.509213	-0.333258	0.674363	-0.512850	-0.278761	0.681681	-0.506385	-0.300184	0.511307	-0.482398	-0.285788	0.498868	-0.358162	-0.420224	0.455715	-0.510252	-0.395554	0.420110	-0.500922	-0.457742	0.431222	-0.504459	-0.422341	0.404718	-0.493051	-0.680913	0.271544	-0.470209	-0.659736	0.263745	-0.378205	-0.672739	0.132624	-0.489942	-0.664877	0.125260	-0.376928	-0.616501	0.103245	-0.426211	-0.735573	0.319106	-0.413533	-0.315888	1.491208	-0.186744	-0.307867	1.458503	-0.557711	
