PathFileType	4	(X/Y/Z)	 P9 pr2 04.trc
DataRate	CameraRate	NumFrames	NumMarkers	Units	OrigDataRate	OrigDataStartFrame	OrigNumFrames
200	200	82	38	m	200	2	83
Frame#	Time	RASIS			LASIS			RPSIS			LPSIS			RThighRear1			RThighFront1			RThighRear2			RThighFront2			RKneeLat			RKneeMed			RShankRear1			RShankFront1			RShankRear2			RShankFront2			RAnkleLat			RAnkleMed			RM5			RM1			RMid			RHeel			LThighRear1			LThighFront1			LThighRear2			LThighFront2			LKneeLat			LKneeMed			LShankRear1			LShankFront1			LShankRear2			LShankFront2			LAnkleLat			LAnkleMed			LM5			LM1			LMid			LHeel			RShoulder			LShoulder			
		X1	Y1	Z1	X2	Y2	Z2	X3	Y3	Z3	X4	Y4	Z4	X5	Y5	Z5	X6	Y6	Z6	X7	Y7	Z7	X8	Y8	Z8	X9	Y9	Z9	X10	Y10	Z10	X11	Y11	Z11	X12	Y12	Z12	X13	Y13	Z13	X14	Y14	Z14	X15	Y15	Z15	X16	Y16	Z16	X17	Y17	Z17	X18	Y18	Z18	X19	Y19	Z19	X20	Y20	Z20	X21	Y21	Z21	X22	Y22	Z22	X23	Y23	Z23	X24	Y24	Z24	X25	Y25	Z25	X26	Y26	Z26	X27	Y27	Z27	X28	Y28	Z28	X29	Y29	Z29	X30	Y30	Z30	X31	Y31	Z31	X32	Y32	Z32	X33	Y33	Z33	X34	Y34	Z34	X35	Y35	Z35	X36	Y36	Z36	X37	Y37	Z37	X38	Y38	Z38	
1	0.0000	-1.390264	0.985452	-0.092900	-1.397231	0.987480	-0.348468	-1.557532	1.034985	-0.177434	-1.567857	1.030171	-0.275997	-1.494707	0.761953	-0.056238	-1.447049	0.753488	-0.069211	-1.492584	0.716638	-0.061263	-1.443460	0.704429	-0.073807	-1.514022	0.506336	-0.094487	-1.510250	0.489357	-0.210831	-1.671915	0.506076	-0.078264	-1.653720	0.458211	-0.076181	-1.708163	0.490849	-0.081555	-1.688537	0.443744	-0.080800	-1.957843	0.389406	-0.117054	-1.942610	0.355094	-0.201474	-2.016806	0.253264	-0.083369	-1.988718	0.222947	-0.187440	-1.970744	0.200556	-0.124999	-1.996715	0.441453	-0.187348	-1.403817	0.753289	-0.404217	-1.353033	0.771375	-0.401671	-1.385875	0.707725	-0.396771	-1.334614	0.726935	-0.397958	-1.289225	0.573651	-0.340822	-1.291333	0.564779	-0.240502	-1.321924	0.417958	-0.369273	-1.277540	0.425300	-0.359272	-1.318864	0.372501	-0.367870	-1.275798	0.384533	-0.360307	-1.268044	0.099216	-0.318823	-1.248352	0.119206	-0.227641	-1.136299	0.064154	-0.347318	-1.117658	0.087256	-0.241295	-1.091067	0.108679	-0.290791	-1.329248	0.063373	-0.256668	-1.279638	1.472517	-0.069616	-1.330807	1.470290	-0.439878	
2	0.0050	-1.375165	0.982873	-0.093260	-1.382147	0.985324	-0.349049	-1.543000	1.032099	-0.177548	-1.553200	1.027791	-0.276225	-1.475981	0.758969	-0.055935	-1.428080	0.751385	-0.068553	-1.472886	0.713744	-0.060704	-1.423388	0.702491	-0.072710	-1.489929	0.503571	-0.093413	-1.485360	0.486396	-0.210106	-1.647167	0.504327	-0.078275	-1.629382	0.456318	-0.075655	-1.683433	0.489408	-0.081795	-1.664206	0.442082	-0.080621	-1.933559	0.390181	-0.118162	-1.918115	0.355144	-0.202152	-1.991571	0.254745	-0.082639	-1.963511	0.223087	-0.186177	-1.945322	0.201583	-0.123457	-1.972882	0.441611	-0.189070	-1.389183	0.750987	-0.404389	-1.338478	0.769028	-0.401920	-1.371288	0.705430	-0.397040	-1.320044	0.724606	-0.398116	-1.274500	0.571072	-0.341531	-1.276141	0.562568	-0.241287	-1.309592	0.416170	-0.369386	-1.265233	0.422602	-0.359217	-1.307539	0.370828	-0.367770	-1.264424	0.381895	-0.359983	-1.264599	0.098469	-0.317640	-1.244469	0.117091	-0.226185	-1.134492	0.061414	-0.347329	-1.115009	0.082400	-0.240884	-1.087579	0.102505	-0.290443	-1.326761	0.064231	-0.255605	-1.265848	1.469968	-0.069838	-1.315649	1.465781	-0.441300	
3	0.0100	-1.359893	0.980292	-0.093643	-1.366895	0.983178	-0.349665	-1.528291	1.029223	-0.177670	-1.538364	1.025421	-0.276460	-1.457013	0.756007	-0.055642	-1.408869	0.749330	-0.067902	-1.452924	0.710886	-0.060151	-1.403057	0.700612	-0.071623	-1.465463	0.500871	-0.092365	-1.460092	0.483527	-0.209409	-1.622040	0.502575	-0.078278	-1.604649	0.454420	-0.075150	-1.658330	0.487956	-0.082025	-1.639482	0.440410	-0.080459	-1.908904	0.390871	-0.119250	-1.893255	0.355121	-0.202826	-1.965886	0.256106	-0.081894	-1.937876	0.223117	-0.184911	-1.919433	0.202508	-0.121930	-1.948730	0.441678	-0.190760	-1.374426	0.748670	-0.404579	-1.323796	0.766654	-0.402208	-1.356587	0.703116	-0.397325	-1.305357	0.722243	-0.398314	-1.259676	0.568438	-0.342265	-1.260824	0.560298	-0.242095	-1.297218	0.414359	-0.369504	-1.252890	0.419863	-0.359176	-1.296189	0.369141	-0.367673	-1.253029	0.379225	-0.359668	-1.261218	0.097749	-0.316444	-1.240645	0.115024	-0.224716	-1.132723	0.058749	-0.347337	-1.112408	0.077658	-0.240487	-1.084152	0.096439	-0.290112	-1.324334	0.065074	-0.254517	-1.251879	1.467435	-0.070051	-1.300266	1.461260	-0.442712	
4	0.0150	-1.344459	0.977729	-0.094051	-1.351483	0.981060	-0.350319	-1.513413	1.026381	-0.177807	-1.523354	1.023084	-0.276706	-1.437816	0.753103	-0.055367	-1.389429	0.747359	-0.067266	-1.432709	0.708102	-0.059612	-1.382479	0.698834	-0.070559	-1.440626	0.498289	-0.091361	-1.434451	0.480810	-0.208757	-1.596536	0.500836	-0.078276	-1.579510	0.452535	-0.074680	-1.632855	0.486497	-0.082241	-1.614355	0.438739	-0.080322	-1.883869	0.391428	-0.120311	-1.868019	0.354988	-0.203495	-1.939711	0.257287	-0.081139	-1.911776	0.222992	-0.183653	-1.893030	0.203284	-0.120437	-1.924262	0.441600	-0.192398	-1.359573	0.746352	-0.404789	-1.309013	0.764260	-0.402540	-1.341805	0.700794	-0.397627	-1.290586	0.719851	-0.398562	-1.244804	0.565750	-0.343026	-1.245431	0.557971	-0.242928	-1.284855	0.412533	-0.369627	-1.240565	0.417094	-0.359155	-1.284866	0.367451	-0.367581	-1.241667	0.376535	-0.359367	-1.257934	0.097074	-0.315240	-1.236914	0.113036	-0.223245	-1.131014	0.056191	-0.347343	-1.109882	0.073080	-0.240109	-1.080823	0.090544	-0.289802	-1.321994	0.065904	-0.253410	-1.237738	1.464946	-0.070249	-1.284651	1.456759	-0.444099	
5	0.0200	-1.328871	0.975208	-0.094488	-1.335911	0.978988	-0.351013	-1.498365	1.023599	-0.177964	-1.508167	1.020802	-0.276969	-1.418394	0.750291	-0.055117	-1.369768	0.745510	-0.066652	-1.412245	0.705431	-0.059094	-1.361662	0.697199	-0.069529	-1.415413	0.495875	-0.090419	-1.408438	0.478306	-0.208164	-1.570650	0.499125	-0.078268	-1.553949	0.450681	-0.074258	-1.607002	0.485039	-0.082442	-1.588806	0.437081	-0.080220	-1.858432	0.391799	-0.121334	-1.842387	0.354704	-0.204157	-1.912996	0.258228	-0.080381	-1.885161	0.222667	-0.182418	-1.866056	0.203868	-0.118997	-1.899470	0.441319	-0.193963	-1.344643	0.744046	-0.405023	-1.294147	0.761854	-0.402923	-1.326968	0.698475	-0.397949	-1.275756	0.717435	-0.398864	-1.229931	0.563011	-0.343813	-1.230010	0.555583	-0.243782	-1.272554	0.410703	-0.369757	-1.228311	0.414303	-0.359155	-1.273622	0.365769	-0.367495	-1.230389	0.373837	-0.359086	-1.254777	0.096461	-0.314038	-1.233308	0.111155	-0.221782	-1.129384	0.053767	-0.347346	-1.107456	0.068716	-0.239754	-1.077626	0.084879	-0.289517	-1.319766	0.066723	-0.252286	-1.223428	1.462529	-0.070425	-1.268793	1.452315	-0.445446	
6	0.0250	-1.313135	0.972754	-0.094952	-1.320175	0.976977	-0.351746	-1.483146	1.020902	-0.178149	-1.492797	1.018599	-0.277256	-1.398749	0.747608	-0.054899	-1.349890	0.743823	-0.066070	-1.391533	0.702913	-0.058605	-1.340610	0.695749	-0.068544	-1.389816	0.493683	-0.089554	-1.382050	0.476076	-0.207644	-1.544374	0.497455	-0.078257	-1.527946	0.448875	-0.073894	-1.580761	0.483587	-0.082626	-1.562816	0.435446	-0.080159	-1.832568	0.391933	-0.122310	-1.816333	0.354228	-0.204811	-1.885683	0.258868	-0.079626	-1.857975	0.222097	-0.181220	-1.838448	0.204213	-0.117633	-1.874342	0.440777	-0.195438	-1.329655	0.741765	-0.405281	-1.279214	0.759442	-0.403360	-1.312100	0.696171	-0.398290	-1.260889	0.714999	-0.399225	-1.215100	0.560221	-0.344627	-1.214606	0.553135	-0.244656	-1.260361	0.408879	-0.369895	-1.216177	0.411502	-0.359181	-1.262503	0.364108	-0.367418	-1.219245	0.371143	-0.358828	-1.251776	0.095927	-0.312846	-1.229856	0.109407	-0.220337	-1.127853	0.051502	-0.347346	-1.105154	0.064608	-0.239425	-1.074591	0.079497	-0.289262	-1.317673	0.067537	-0.251153	-1.208948	1.460211	-0.070575	-1.252676	1.447962	-0.446739	
7	0.0300	-1.297250	0.970390	-0.095444	-1.304266	0.975045	-0.352517	-1.467749	1.018315	-0.178369	-1.477232	1.016496	-0.277572	-1.378881	0.745088	-0.054722	-1.329798	0.742335	-0.065526	-1.370572	0.700588	-0.058153	-1.319327	0.694526	-0.067616	-1.363830	0.491764	-0.088784	-1.355285	0.474180	-0.207210	-1.517700	0.495842	-0.078244	-1.501480	0.447138	-0.073603	-1.554123	0.482148	-0.082792	-1.536362	0.433848	-0.080149	-1.806247	0.391777	-0.123233	-1.789829	0.353520	-0.205454	-1.857716	0.259148	-0.078883	-1.830161	0.221238	-0.180075	-1.810140	0.204280	-0.116366	-1.848861	0.439912	-0.196807	-1.314620	0.739522	-0.405565	-1.264225	0.757030	-0.403853	-1.297218	0.693895	-0.398651	-1.246001	0.712548	-0.399648	-1.200354	0.557385	-0.345465	-1.199267	0.550627	-0.245546	-1.248322	0.407071	-0.370042	-1.204208	0.408701	-0.359235	-1.251552	0.362480	-0.367351	-1.208279	0.368468	-0.358600	-1.248952	0.095487	-0.311674	-1.226581	0.107820	-0.218925	-1.126433	0.049414	-0.347345	-1.102996	0.060792	-0.239125	-1.071746	0.074446	-0.289041	-1.315732	0.068354	-0.250018	-1.194297	1.458021	-0.070691	-1.236285	1.443740	-0.447964	
8	0.0350	-1.281218	0.968142	-0.095961	-1.288170	0.973207	-0.353322	-1.452168	1.015861	-0.178633	-1.461461	1.014515	-0.277927	-1.358789	0.742768	-0.054591	-1.309493	0.741084	-0.065027	-1.349362	0.698495	-0.057745	-1.297816	0.693571	-0.066755	-1.337452	0.490169	-0.088124	-1.328146	0.472676	-0.206875	-1.490621	0.494301	-0.078233	-1.474536	0.445489	-0.073395	-1.527079	0.480729	-0.082942	-1.509428	0.432300	-0.080196	-1.779442	0.391280	-0.124098	-1.762845	0.352540	-0.206088	-1.829036	0.259014	-0.078162	-1.801658	0.220051	-0.178999	-1.781071	0.204029	-0.115216	-1.823007	0.438665	-0.198055	-1.299548	0.737331	-0.405876	-1.249187	0.754626	-0.404402	-1.282341	0.691659	-0.399030	-1.231107	0.710087	-0.400134	-1.185734	0.554508	-0.346325	-1.184038	0.548059	-0.246449	-1.236479	0.405291	-0.370198	-1.192449	0.405912	-0.359320	-1.240810	0.360899	-0.367297	-1.197533	0.365824	-0.358404	-1.246323	0.095156	-0.310533	-1.223503	0.106414	-0.217556	-1.125140	0.047516	-0.347342	-1.101000	0.057296	-0.238854	-1.069113	0.069764	-0.288856	-1.313957	0.069183	-0.248890	-1.179471	1.455986	-0.070769	-1.219602	1.439686	-0.449105	
9	0.0400	-1.265040	0.966036	-0.096502	-1.271875	0.971476	-0.354155	-1.436395	1.013565	-0.178948	-1.445470	1.012679	-0.278327	-1.338474	0.740682	-0.054515	-1.288980	0.740104	-0.064581	-1.327907	0.696670	-0.057389	-1.276082	0.692921	-0.065972	-1.310684	0.488944	-0.087586	-1.300641	0.471616	-0.206649	-1.463138	0.492845	-0.078228	-1.447105	0.443948	-0.073280	-1.499629	0.479334	-0.083075	-1.482000	0.430814	-0.080308	-1.752127	0.390393	-0.124899	-1.735355	0.351250	-0.206713	-1.799595	0.258415	-0.077473	-1.772414	0.218501	-0.178008	-1.751185	0.203427	-0.114205	-1.796763	0.436977	-0.199169	-1.284448	0.735205	-0.406212	-1.234107	0.752238	-0.405003	-1.267481	0.689475	-0.399428	-1.216221	0.707623	-0.400679	-1.171281	0.551597	-0.347203	-1.168965	0.545437	-0.247358	-1.224868	0.403551	-0.370364	-1.180937	0.403150	-0.359436	-1.230312	0.359377	-0.367257	-1.187042	0.363229	-0.358244	-1.243901	0.094949	-0.309435	-1.220633	0.105210	-0.216245	-1.123981	0.045817	-0.347340	-1.099177	0.054137	-0.238614	-1.066710	0.065482	-0.288708	-1.312354	0.070039	-0.247779	-1.164469	1.454134	-0.070804	-1.202613	1.435840	-0.450149	
10	0.0450	-1.248715	0.964098	-0.097060	-1.255368	0.969867	-0.355008	-1.420424	1.011449	-0.179321	-1.429247	1.011008	-0.278779	-1.317943	0.738862	-0.054499	-1.268267	0.739430	-0.064194	-1.306214	0.695148	-0.057092	-1.254136	0.692611	-0.065276	-1.283541	0.488133	-0.087184	-1.272788	0.471046	-0.206541	-1.435261	0.491490	-0.078232	-1.419185	0.442534	-0.073268	-1.471777	0.477970	-0.083194	-1.454077	0.429402	-0.080490	-1.724282	0.389071	-0.125635	-1.707336	0.349615	-0.207330	-1.769348	0.257308	-0.076830	-1.742380	0.216560	-0.177120	-1.720434	0.202448	-0.113352	-1.770113	0.434792	-0.200141	-1.269327	0.733159	-0.406573	-1.218991	0.749873	-0.405653	-1.252651	0.687359	-0.399840	-1.201353	0.705164	-0.401280	-1.157030	0.548661	-0.348095	-1.154095	0.542765	-0.248268	-1.213524	0.401865	-0.370542	-1.169708	0.400430	-0.359585	-1.220090	0.357929	-0.367234	-1.176841	0.360698	-0.358125	-1.241689	0.094878	-0.308392	-1.217980	0.104225	-0.215006	-1.122964	0.044317	-0.347340	-1.097537	0.051327	-0.238404	-1.064550	0.061621	-0.288599	-1.310927	0.070937	-0.246697	-1.149292	1.452490	-0.070792	-1.185306	1.432240	-0.451083	
11	0.0500	-1.232246	0.962353	-0.097632	-1.238635	0.968391	-0.355872	-1.404251	1.009534	-0.179761	-1.412782	1.009520	-0.279292	-1.297204	0.737339	-0.054548	-1.247366	0.739089	-0.063871	-1.284293	0.693962	-0.056860	-1.231991	0.692673	-0.064675	-1.256043	0.487775	-0.086926	-1.244616	0.471009	-0.206557	-1.407008	0.490246	-0.078251	-1.390786	0.441267	-0.073368	-1.443537	0.476642	-0.083302	-1.425665	0.428078	-0.080746	-1.695894	0.387271	-0.126305	-1.678773	0.347603	-0.207941	-1.738262	0.255657	-0.076243	-1.711517	0.214204	-0.176351	-1.688782	0.201072	-0.112674	-1.743044	0.432057	-0.200963	-1.254188	0.731208	-0.406953	-1.203841	0.747542	-0.406343	-1.237863	0.685325	-0.400264	-1.186513	0.702718	-0.401930	-1.143017	0.545713	-0.348993	-1.139471	0.540054	-0.249171	-1.202476	0.400249	-0.370733	-1.158792	0.397770	-0.359768	-1.210169	0.356572	-0.367229	-1.166955	0.358249	-0.358048	-1.239688	0.094954	-0.307419	-1.215542	0.103472	-0.213855	-1.122091	0.043014	-0.347344	-1.096084	0.048867	-0.238222	-1.062639	0.058194	-0.288528	-1.309670	0.071894	-0.245659	-1.133943	1.451079	-0.070727	-1.167675	1.428925	-0.451896	
12	0.0550	-1.215639	0.960826	-0.098209	-1.221668	0.967060	-0.356736	-1.387872	1.007841	-0.180272	-1.396068	1.008235	-0.279870	-1.276270	0.736140	-0.054667	-1.226291	0.739109	-0.063617	-1.262163	0.693139	-0.056699	-1.209668	0.693130	-0.064177	-1.228224	0.487901	-0.086821	-1.216162	0.471537	-0.206702	-1.378407	0.489124	-0.078289	-1.361931	0.440163	-0.073583	-1.414934	0.475355	-0.083402	-1.396782	0.426853	-0.081081	-1.666954	0.384958	-0.126911	-1.649657	0.345187	-0.208548	-1.706317	0.253435	-0.075727	-1.679797	0.211420	-0.175717	-1.656207	0.199285	-0.112187	-1.715546	0.428726	-0.201634	-1.239038	0.729366	-0.407351	-1.188663	0.745257	-0.407066	-1.223124	0.683388	-0.400695	-1.171709	0.700298	-0.402619	-1.129273	0.542768	-0.349892	-1.125137	0.537316	-0.250059	-1.191748	0.398719	-0.370937	-1.148212	0.395189	-0.359984	-1.200571	0.355320	-0.367246	-1.157405	0.355904	-0.358017	-1.237889	0.095187	-0.306529	-1.213315	0.102963	-0.212806	-1.121363	0.041898	-0.347352	-1.094821	0.046752	-0.238068	-1.060981	0.055201	-0.288492	-1.308572	0.072932	-0.244679	-1.118428	1.449922	-0.070608	-1.149718	1.425931	-0.452576	
13	0.0600	-1.198899	0.959539	-0.098786	-1.204458	0.965884	-0.357586	-1.371289	1.006387	-0.180861	-1.379098	1.007169	-0.280518	-1.255160	0.735290	-0.054860	-1.205064	0.739509	-0.063437	-1.239847	0.692703	-0.056614	-1.187189	0.694005	-0.063787	-1.200128	0.488537	-0.086875	-1.187476	0.472653	-0.206978	-1.349496	0.488134	-0.078353	-1.332653	0.439239	-0.073920	-1.386000	0.474112	-0.083499	-1.367457	0.425738	-0.081497	-1.637464	0.382102	-0.127455	-1.619984	0.342345	-0.209154	-1.673501	0.250624	-0.075293	-1.647201	0.208201	-0.175233	-1.622698	0.197086	-0.111906	-1.687614	0.424757	-0.202153	-1.223879	0.727651	-0.407761	-1.173460	0.743030	-0.407809	-1.208444	0.681565	-0.401128	-1.156949	0.697916	-0.403336	-1.115827	0.539844	-0.350784	-1.111132	0.534566	-0.250923	-1.181359	0.397294	-0.371155	-1.137988	0.392710	-0.360232	-1.191309	0.354192	-0.367287	-1.148207	0.353683	-0.358035	-1.236276	0.095587	-0.305739	-1.211285	0.102704	-0.211877	-1.120776	0.040956	-0.347368	-1.093742	0.044967	-0.237937	-1.059573	0.052637	-0.288490	-1.307618	0.074074	-0.243775	-1.102756	1.449038	-0.070431	-1.131439	1.423294	-0.453114	
14	0.0650	-1.182034	0.958514	-0.099352	-1.187002	0.964871	-0.358409	-1.354504	1.005189	-0.181530	-1.361872	1.006336	-0.281241	-1.233895	0.734809	-0.055129	-1.183709	0.740305	-0.063332	-1.217373	0.692674	-0.056608	-1.164586	0.695310	-0.063509	-1.171810	0.489700	-0.087089	-1.158618	0.474372	-0.207383	-1.320324	0.487280	-0.078448	-1.302995	0.438508	-0.074379	-1.356778	0.472916	-0.083598	-1.337731	0.424741	-0.081995	-1.607429	0.378680	-0.127942	-1.589759	0.339061	-0.209762	-1.639817	0.247215	-0.074956	-1.613723	0.204552	-0.174911	-1.588259	0.194478	-0.111840	-1.659245	0.420116	-0.202525	-1.208714	0.726077	-0.408178	-1.158234	0.740875	-0.408562	-1.193826	0.679873	-0.401559	-1.142236	0.695589	-0.404069	-1.102700	0.536963	-0.351661	-1.097491	0.531826	-0.251753	-1.171320	0.395992	-0.371391	-1.128130	0.390354	-0.360512	-1.182392	0.353206	-0.367354	-1.139368	0.351608	-0.358103	-1.234829	0.096161	-0.305062	-1.209433	0.102701	-0.211082	-1.120325	0.040169	-0.347393	-1.092843	0.043492	-0.237827	-1.058407	0.050487	-0.288516	-1.306782	0.075344	-0.242966	-1.086939	1.448442	-0.070195	-1.112846	1.421045	-0.453502	
15	0.0700	-1.165054	0.957769	-0.099901	-1.169298	0.964029	-0.359191	-1.337521	1.004260	-0.182281	-1.344391	1.005749	-0.282039	-1.212503	0.734713	-0.055474	-1.162254	0.741508	-0.063305	-1.194774	0.693064	-0.056685	-1.141892	0.697055	-0.063347	-1.143334	0.491400	-0.087465	-1.129657	0.476698	-0.207915	-1.290948	0.486567	-0.078581	-1.273015	0.437981	-0.074962	-1.327319	0.471766	-0.083705	-1.307654	0.423870	-0.082574	-1.576864	0.374676	-0.128379	-1.558992	0.335323	-0.210376	-1.605276	0.243213	-0.074727	-1.579367	0.200484	-0.174763	-1.552906	0.191477	-0.111997	-1.630440	0.414775	-0.202755	-1.193547	0.724661	-0.408596	-1.142988	0.738809	-0.409309	-1.179276	0.678331	-0.401981	-1.127576	0.693333	-0.404804	-1.089910	0.534150	-0.352515	-1.084243	0.529118	-0.252542	-1.161636	0.394836	-0.371645	-1.118643	0.388148	-0.360824	-1.173819	0.352381	-0.367451	-1.130887	0.349703	-0.358224	-1.233519	0.096916	-0.304515	-1.207735	0.102957	-0.210437	-1.119999	0.039517	-0.347430	-1.092113	0.042300	-0.237733	-1.057472	0.048728	-0.288568	-1.306036	0.076769	-0.242269	-1.070991	1.448146	-0.069899	-1.093955	1.419211	-0.453735	
16	0.0750	-1.147969	0.957322	-0.100423	-1.151349	0.963363	-0.359916	-1.320349	1.003613	-0.183113	-1.326660	1.005418	-0.282913	-1.191013	0.735014	-0.055895	-1.140729	0.743121	-0.063358	-1.172087	0.693881	-0.056847	-1.119143	0.699238	-0.063301	-1.114773	0.493636	-0.088000	-1.100670	0.479625	-0.208569	-1.261432	0.485994	-0.078756	-1.242777	0.437666	-0.075665	-1.297680	0.470663	-0.083827	-1.277284	0.423131	-0.083232	-1.545787	0.370080	-0.128774	-1.527697	0.331128	-0.211000	-1.569901	0.238630	-0.074617	-1.544146	0.196018	-0.174798	-1.516668	0.188105	-0.112381	-1.601199	0.408715	-0.202856	-1.178377	0.723420	-0.409007	-1.127724	0.736849	-0.410038	-1.164794	0.676957	-0.402389	-1.112971	0.691168	-0.405526	-1.077465	0.531430	-0.353339	-1.071409	0.526468	-0.253281	-1.152305	0.393846	-0.371921	-1.109524	0.386116	-0.361166	-1.165583	0.351738	-0.367582	-1.122757	0.347993	-0.358400	-1.232312	0.097858	-0.304112	-1.206159	0.103473	-0.209958	-1.119787	0.038976	-0.347479	-1.091539	0.041361	-0.237653	-1.056753	0.047329	-0.288639	-1.305343	0.078377	-0.241705	-1.054928	1.448158	-0.069543	-1.074783	1.417816	-0.453808	
17	0.0800	-1.130790	0.957186	-0.100909	-1.133160	0.962878	-0.360573	-1.302995	1.003255	-0.184025	-1.308685	1.005352	-0.283859	-1.169457	0.735717	-0.056390	-1.119167	0.745143	-0.063489	-1.149352	0.695128	-0.057095	-1.096378	0.701855	-0.063372	-1.086204	0.496399	-0.088691	-1.071739	0.483138	-0.209336	-1.231847	0.485557	-0.078980	-1.212353	0.437567	-0.076486	-1.267923	0.469601	-0.083970	-1.246689	0.422526	-0.083968	-1.514218	0.364893	-0.129136	-1.495893	0.326478	-0.211639	-1.533722	0.233489	-0.074637	-1.508084	0.191185	-0.175023	-1.479583	0.184394	-0.112992	-1.571527	0.401927	-0.202841	-1.163204	0.722370	-0.409405	-1.112443	0.735013	-0.410735	-1.150378	0.675768	-0.402777	-1.098418	0.689116	-0.406221	-1.065370	0.528833	-0.354126	-1.059003	0.523906	-0.253961	-1.143316	0.393045	-0.372221	-1.100760	0.384286	-0.361539	-1.157671	0.351295	-0.367749	-1.114962	0.346502	-0.358634	-1.231172	0.098993	-0.303869	-1.204669	0.104246	-0.209659	-1.119677	0.038521	-0.347545	-1.091106	0.040643	-0.237583	-1.056233	0.046256	-0.288722	-1.304664	0.080197	-0.241293	-1.038766	1.448482	-0.069127	-1.055355	1.416877	-0.453719	
18	0.0850	-1.113527	0.957369	-0.101352	-1.114741	0.962578	-0.361146	-1.285470	1.003193	-0.185011	-1.290477	1.005556	-0.284873	-1.147869	0.736823	-0.056956	-1.097601	0.747566	-0.063697	-1.126610	0.696799	-0.057429	-1.073639	0.704893	-0.063558	-1.057713	0.499673	-0.089529	-1.042950	0.487207	-0.210207	-1.202267	0.485250	-0.079257	-1.181820	0.437685	-0.077417	-1.238116	0.468578	-0.084141	-1.215939	0.422055	-0.084775	-1.482184	0.359120	-0.129475	-1.463602	0.321380	-0.212295	-1.496777	0.227824	-0.074795	-1.471211	0.186022	-0.175441	-1.441699	0.180382	-0.113828	-1.541426	0.394407	-0.202725	-1.148027	0.721525	-0.409783	-1.097145	0.733321	-0.411385	-1.136025	0.674783	-0.403139	-1.083917	0.687198	-0.406875	-1.053618	0.526388	-0.354870	-1.047031	0.521461	-0.254577	-1.134652	0.392456	-0.372549	-1.092333	0.382683	-0.361941	-1.150058	0.351074	-0.367956	-1.107478	0.345253	-0.358928	-1.230054	0.100326	-0.303798	-1.203227	0.105275	-0.209552	-1.119651	0.038130	-0.347628	-1.090796	0.040111	-0.237518	-1.055890	0.045467	-0.288813	-1.303954	0.082257	-0.241052	-1.022524	1.449115	-0.068652	-1.035695	1.416409	-0.453468	
19	0.0900	-1.096192	0.957878	-0.101745	-1.096102	0.962465	-0.361625	-1.267782	1.003429	-0.186065	-1.272046	1.006032	-0.285948	-1.126282	0.738327	-0.057588	-1.076065	0.750375	-0.063981	-1.103904	0.698883	-0.057847	-1.050966	0.708329	-0.063854	-1.029382	0.503430	-0.090507	-1.014393	0.491798	-0.211169	-1.172767	0.485061	-0.079592	-1.151261	0.438014	-0.078452	-1.208325	0.467584	-0.084346	-1.185109	0.421716	-0.085650	-1.449709	0.352777	-0.129803	-1.430846	0.315850	-0.212975	-1.459109	0.221676	-0.075099	-1.433564	0.180575	-0.176054	-1.403069	0.176116	-0.114881	-1.510897	0.386163	-0.202530	-1.132842	0.720902	-0.410135	-1.081827	0.731792	-0.411976	-1.121727	0.674020	-0.403471	-1.069462	0.685436	-0.407474	-1.042195	0.524125	-0.355565	-1.035486	0.519166	-0.255122	-1.126285	0.392101	-0.372907	-1.084214	0.381335	-0.362374	-1.142716	0.351094	-0.368208	-1.100275	0.344271	-0.359284	-1.228912	0.101861	-0.303912	-1.201788	0.106556	-0.209650	-1.119692	0.037778	-0.347730	-1.090589	0.039730	-0.237457	-1.055702	0.044921	-0.288904	-1.303163	0.084588	-0.241002	-1.006219	1.450054	-0.068120	-1.015832	1.416415	-0.453055	
20	0.0950	-1.078791	0.958715	-0.102081	-1.077258	0.962539	-0.361999	-1.249943	1.003965	-0.187179	-1.253406	1.006780	-0.287075	-1.104730	0.740218	-0.058281	-1.054592	0.753550	-0.064336	-1.081275	0.701364	-0.058346	-1.028398	0.712139	-0.064257	-1.001300	0.507634	-0.091613	-0.986153	0.496863	-0.212210	-1.143421	0.484975	-0.079988	-1.120758	0.438548	-0.079580	-1.178619	0.466609	-0.084592	-1.154275	0.421502	-0.086586	-1.416819	0.345884	-0.130132	-1.397650	0.309909	-0.213682	-1.420765	0.215095	-0.075552	-1.395186	0.174896	-0.176859	-1.363755	0.171647	-0.116140	-1.479941	0.377210	-0.202275	-1.117643	0.720512	-0.410454	-1.066488	0.730446	-0.412496	-1.107473	0.673493	-0.403767	-1.055045	0.683855	-0.408006	-1.031080	0.522072	-0.356208	-1.024352	0.517051	-0.255593	-1.118182	0.392002	-0.373302	-1.076369	0.380264	-0.362839	-1.135608	0.351374	-0.368509	-1.093314	0.343577	-0.359705	-1.227699	0.103603	-0.304222	-1.200307	0.108085	-0.209961	-1.119784	0.037446	-0.347853	-1.090467	0.039470	-0.237398	-1.055645	0.044573	-0.288990	-1.302242	0.087216	-0.241160	-0.989866	1.451288	-0.067535	-0.995795	1.416898	-0.452485	
21	0.1000	-1.061335	0.959876	-0.102356	-1.058225	0.962799	-0.362260	-1.231963	1.004795	-0.188343	-1.234572	1.007798	-0.288244	-1.083246	0.742479	-0.059027	-1.033211	0.757065	-0.064758	-1.058764	0.704218	-0.058922	-1.005973	0.716289	-0.064759	-0.973548	0.512244	-0.092834	-0.958315	0.502348	-0.213315	-1.114304	0.484973	-0.080449	-1.090393	0.439272	-0.080792	-1.149061	0.465642	-0.084885	-1.123512	0.421405	-0.087575	-1.383541	0.338472	-0.130474	-1.364037	0.303582	-0.214420	-1.381796	0.208139	-0.076158	-1.356124	0.169041	-0.177852	-1.323820	0.167032	-0.117593	-1.448558	0.367575	-0.201983	-1.102423	0.720366	-0.410734	-1.051123	0.729301	-0.412935	-1.093252	0.673217	-0.404023	-1.040655	0.682474	-0.408461	-1.020244	0.520258	-0.356798	-1.013605	0.515148	-0.255988	-1.110304	0.392177	-0.373736	-1.068755	0.379493	-0.363338	-1.128691	0.351930	-0.368863	-1.086550	0.343190	-0.360193	-1.226364	0.105556	-0.304736	-1.198737	0.109858	-0.210494	-1.119906	0.037117	-0.347998	-1.090407	0.039301	-0.237340	-1.055695	0.044379	-0.289065	-1.301136	0.090170	-0.241541	-0.973482	1.452803	-0.066900	-0.975615	1.417851	-0.451762	
22	0.1050	-1.043827	0.961353	-0.102565	-1.039021	0.963243	-0.362404	-1.213852	1.005915	-0.189543	-1.215558	1.009079	-0.289442	-1.061860	0.745089	-0.059818	-1.011951	0.760886	-0.065243	-1.036408	0.707414	-0.059571	-0.983727	0.720738	-0.065355	-0.946207	0.517207	-0.094158	-0.930959	0.508190	-0.214468	-1.085483	0.485032	-0.080977	-1.060245	0.440171	-0.082076	-1.119715	0.464667	-0.085231	-1.092894	0.421412	-0.088612	-1.349897	0.330575	-0.130840	-1.330028	0.296902	-0.215194	-1.342252	0.200869	-0.076918	-1.316429	0.163071	-0.179025	-1.283330	0.162330	-0.119223	-1.416744	0.357289	-0.201680	-1.087175	0.720475	-0.410971	-1.035727	0.728373	-0.413286	-1.079046	0.673203	-0.404238	-1.026281	0.681314	-0.408831	-1.009647	0.518708	-0.357336	-1.003209	0.513484	-0.256307	-1.102603	0.392644	-0.374215	-1.061326	0.379041	-0.363872	-1.121916	0.352778	-0.369275	-1.079934	0.343127	-0.360751	-1.224856	0.107725	-0.305462	-1.197029	0.111870	-0.211252	-1.120040	0.036778	-0.348168	-1.090388	0.039198	-0.237283	-1.055827	0.044297	-0.289125	-1.299791	0.093473	-0.242158	-0.957080	1.454583	-0.066219	-0.955322	1.419260	-0.450892	
23	0.1100	-1.026272	0.963136	-0.102707	-1.019663	0.963869	-0.362426	-1.195617	1.007314	-0.190769	-1.196381	1.010616	-0.290655	-1.040601	0.748020	-0.060645	-0.990838	0.764979	-0.065782	-1.014242	0.710919	-0.060285	-0.961690	0.725444	-0.066034	-0.919352	0.522466	-0.095569	-0.904158	0.514321	-0.215653	-1.057023	0.485128	-0.081573	-1.030391	0.441222	-0.083418	-1.090636	0.463668	-0.085634	-1.062489	0.421508	-0.089686	-1.315911	0.322233	-0.131244	-1.295647	0.289905	-0.216006	-1.302187	0.193351	-0.077831	-1.276153	0.157050	-0.180370	-1.242355	0.157602	-0.121012	-1.384496	0.346396	-0.201388	-1.071888	0.720842	-0.411160	-1.020293	0.727677	-0.413542	-1.064839	0.673459	-0.404408	-1.011907	0.680393	-0.409108	-0.999247	0.517443	-0.357822	-0.993119	0.512083	-0.256551	-1.095029	0.393417	-0.374742	-1.054028	0.378925	-0.364445	-1.115230	0.353930	-0.369749	-1.073411	0.343401	-0.361382	-1.223127	0.110114	-0.306403	-1.195136	0.114119	-0.212240	-1.120164	0.036424	-0.348362	-1.090388	0.039142	-0.237230	-1.056015	0.044287	-0.289165	-1.298156	0.097150	-0.243021	-0.940672	1.456607	-0.065497	-0.934945	1.421108	-0.449884	
24	0.1150	-1.008671	0.965208	-0.102782	-1.000173	0.964669	-0.362327	-1.177267	1.008980	-0.192005	-1.177055	1.012395	-0.291869	-1.019494	0.751238	-0.061499	-0.969893	0.769299	-0.066370	-0.992299	0.714692	-0.061058	-0.939891	0.730357	-0.066788	-0.893050	0.527960	-0.097052	-0.877977	0.520665	-0.216854	-1.028979	0.485231	-0.082237	-1.000898	0.442400	-0.084807	-1.061876	0.462626	-0.086098	-1.032360	0.421677	-0.090791	-1.281605	0.313495	-0.131695	-1.260914	0.282631	-0.216861	-1.261654	0.185654	-0.078896	-1.235353	0.151040	-0.181874	-1.200964	0.152908	-0.122939	-1.351810	0.334944	-0.201134	-1.056551	0.721471	-0.411300	-1.004812	0.727225	-0.413700	-1.050610	0.673989	-0.404534	-0.997516	0.679725	-0.409290	-0.988994	0.516480	-0.358261	-0.983281	0.510967	-0.256725	-1.087524	0.394508	-0.375323	-1.046804	0.379156	-0.365061	-1.108576	0.355394	-0.370287	-1.066924	0.344022	-0.362086	-1.221129	0.112728	-0.307560	-1.193012	0.116601	-0.213456	-1.120261	0.036053	-0.348583	-1.090386	0.039121	-0.237183	-1.056236	0.044315	-0.289185	-1.296177	0.101220	-0.244138	-0.924266	1.458850	-0.064740	-0.914512	1.423369	-0.448746	
25	0.1200	-0.991026	0.967547	-0.102790	-0.980571	0.965639	-0.362109	-1.158810	1.010895	-0.193237	-1.157597	1.014404	-0.293069	-0.998561	0.754707	-0.062370	-0.949136	0.773801	-0.066999	-0.970605	0.718687	-0.061881	-0.918354	0.735422	-0.067606	-0.867358	0.533621	-0.098591	-0.852472	0.527146	-0.218055	-1.001400	0.485311	-0.082968	-0.971831	0.443678	-0.086230	-1.033478	0.461523	-0.086628	-1.002566	0.421897	-0.091919	-1.246997	0.304409	-0.132206	-1.225849	0.275125	-0.217761	-1.220709	0.177848	-0.080107	-1.194086	0.145107	-0.183524	-1.159225	0.148307	-0.124984	-1.318681	0.322991	-0.200942	-1.041152	0.722361	-0.411388	-0.989276	0.727024	-0.413758	-1.036338	0.674796	-0.404615	-0.983091	0.679321	-0.409375	-0.978833	0.515832	-0.358659	-0.973636	0.510151	-0.256833	-1.080030	0.395922	-0.375962	-1.039595	0.379740	-0.365723	-1.101897	0.357176	-0.370894	-1.060413	0.344995	-0.362867	-1.218816	0.115574	-0.308933	-1.190614	0.119313	-0.214898	-1.120309	0.035674	-0.348831	-1.090360	0.039130	-0.237147	-1.056465	0.044350	-0.289184	-1.293806	0.105699	-0.245511	-0.907869	1.461286	-0.063953	-0.894050	1.426015	-0.447488	
26	0.1250	-0.973334	0.970128	-0.102734	-0.960876	0.966768	-0.361776	-1.140252	1.013040	-0.194451	-1.138023	1.016623	-0.294241	-0.977822	0.758384	-0.063247	-0.928581	0.778436	-0.067660	-0.949183	0.722856	-0.062746	-0.897097	0.740585	-0.068478	-0.842328	0.539379	-0.100170	-0.827687	0.533683	-0.219241	-0.974325	0.485336	-0.083766	-0.943242	0.445023	-0.087673	-1.005479	0.460336	-0.087225	-0.973156	0.422147	-0.093062	-1.212110	0.295031	-0.132786	-1.190474	0.267432	-0.218710	-1.179406	0.170000	-0.081461	-1.152413	0.139310	-0.185306	-1.117209	0.143856	-0.127124	-1.285109	0.310601	-0.200836	-1.025678	0.723506	-0.411424	-0.973675	0.727078	-0.413719	-1.022000	0.675874	-0.404652	-0.968611	0.679187	-0.409364	-0.968705	0.515503	-0.359024	-0.964118	0.509642	-0.256884	-1.072488	0.397663	-0.376662	-1.032340	0.380680	-0.366435	-1.095132	0.359278	-0.371573	-1.053817	0.346319	-0.363724	-1.216147	0.118655	-0.310515	-1.187900	0.122255	-0.216557	-1.120290	0.035298	-0.349108	-1.090289	0.039170	-0.237129	-1.056680	0.044370	-0.289163	-1.290996	0.110603	-0.247140	-0.891487	1.463887	-0.063143	-0.873583	1.429010	-0.446121	
27	0.1300	-0.955593	0.972923	-0.102616	-0.941109	0.968048	-0.361337	-1.121598	1.015393	-0.195633	-1.118348	1.019034	-0.295368	-0.957293	0.762224	-0.064120	-0.908239	0.783150	-0.068345	-0.928053	0.727147	-0.063642	-0.876136	0.745784	-0.069392	-0.817998	0.545163	-0.101774	-0.803658	0.540195	-0.220398	-0.947787	0.485272	-0.084629	-0.915177	0.446402	-0.089125	-0.977907	0.459046	-0.087891	-0.944173	0.422403	-0.094213	-1.176962	0.285417	-0.133444	-1.154812	0.259602	-0.219709	-1.137802	0.162177	-0.082952	-1.110397	0.133706	-0.187206	-1.074987	0.139604	-0.129339	-1.251094	0.297842	-0.200837	-1.010116	0.724896	-0.411409	-0.957998	0.727386	-0.413586	-1.007573	0.677215	-0.404648	-0.954058	0.679324	-0.409261	-0.958552	0.515494	-0.359365	-0.954656	0.509445	-0.256887	-1.064834	0.399726	-0.377426	-1.024977	0.381972	-0.367202	-1.088220	0.361698	-0.372324	-1.047077	0.347990	-0.364659	-1.213086	0.121979	-0.312300	-1.184833	0.125425	-0.218426	-1.120184	0.034947	-0.349414	-1.090153	0.039251	-0.237137	-1.056858	0.044360	-0.289125	-1.287705	0.115940	-0.249020	-0.875121	1.466622	-0.062316	-0.853133	1.432315	-0.444656	
28	0.1350	-0.937798	0.975897	-0.102444	-0.921291	0.969465	-0.360800	-1.102854	1.017927	-0.196769	-1.098589	1.021611	-0.296438	-0.936985	0.766176	-0.064979	-0.888119	0.787888	-0.069044	-0.907229	0.731504	-0.064559	-0.855481	0.750961	-0.070337	-0.794397	0.550901	-0.103389	-0.780406	0.546602	-0.221512	-0.921807	0.485086	-0.085552	-0.887674	0.447778	-0.090576	-0.950786	0.457630	-0.088626	-0.915652	0.422641	-0.095365	-1.141578	0.275625	-0.134188	-1.118887	0.251683	-0.220763	-1.095957	0.154443	-0.084574	-1.068107	0.128347	-0.189210	-1.032627	0.135597	-0.131610	-1.216644	0.284789	-0.200966	-0.994451	0.726518	-0.411345	-0.942234	0.727943	-0.413364	-0.993034	0.678806	-0.404608	-0.939408	0.679728	-0.409073	-0.948310	0.515798	-0.359692	-0.945178	0.509553	-0.256850	-1.057008	0.402106	-0.378257	-1.017446	0.383607	-0.368028	-1.081104	0.364427	-0.373150	-1.040134	0.349999	-0.365670	-1.209601	0.125552	-0.314277	-1.181381	0.128824	-0.220491	-1.119971	0.034650	-0.349752	-1.089929	0.039389	-0.237179	-1.056977	0.044311	-0.289076	-1.283897	0.121716	-0.251142	-0.858772	1.469459	-0.061478	-0.832722	1.435887	-0.443104	
29	0.1400	-0.919946	0.979015	-0.102221	-0.901440	0.971008	-0.360177	-1.084025	1.020613	-0.197846	-1.078761	1.024331	-0.297437	-0.916909	0.770189	-0.065816	-0.868226	0.792594	-0.069749	-0.886721	0.735870	-0.065486	-0.835138	0.756054	-0.071302	-0.771543	0.556520	-0.105002	-0.757946	0.552826	-0.222572	-0.896400	0.484746	-0.086534	-0.860761	0.449117	-0.092015	-0.924129	0.456069	-0.089431	-0.887622	0.422834	-0.096515	-1.105983	0.265716	-0.135025	-1.082729	0.243724	-0.221872	-1.053933	0.146855	-0.086320	-1.025613	0.123279	-0.191304	-0.990203	0.131872	-0.133919	-1.181772	0.271520	-0.201241	-0.978671	0.728353	-0.411237	-0.926372	0.728738	-0.413062	-0.978360	0.680627	-0.404534	-0.924643	0.680389	-0.408806	-0.937919	0.516400	-0.360016	-0.935610	0.509955	-0.256786	-1.048952	0.404789	-0.379154	-1.009689	0.385569	-0.368917	-1.073726	0.367455	-0.374050	-1.032932	0.352330	-0.366758	-1.205663	0.129380	-0.316431	-1.177516	0.132454	-0.222737	-1.119632	0.034440	-0.350123	-1.089596	0.039608	-0.237266	-1.057016	0.044226	-0.289023	-1.279541	0.127934	-0.253492	-0.842439	1.472367	-0.060637	-0.812369	1.439682	-0.441478	
30	0.1450	-0.902030	0.982237	-0.101955	-0.881576	0.972659	-0.359482	-1.065116	1.023420	-0.198853	-1.058879	1.027165	-0.298353	-0.897072	0.774210	-0.066619	-0.848561	0.797210	-0.070451	-0.866536	0.740188	-0.066413	-0.815109	0.761000	-0.072275	-0.749445	0.561951	-0.106600	-0.736276	0.558791	-0.223570	-0.871570	0.484221	-0.087570	-0.834455	0.450381	-0.093435	-0.897945	0.454344	-0.090305	-0.860102	0.422959	-0.097658	-1.070207	0.255749	-0.135961	-1.046373	0.235775	-0.223040	-1.011798	0.139466	-0.088184	-0.982993	0.118537	-0.193475	-0.947789	0.128457	-0.136250	-1.146502	0.258115	-0.201678	-0.962762	0.730378	-0.411090	-0.910399	0.729756	-0.412689	-0.963530	0.682656	-0.404434	-0.909740	0.681293	-0.408472	-0.927318	0.517280	-0.360350	-0.925878	0.510631	-0.256706	-1.040607	0.407757	-0.380119	-1.001651	0.387838	-0.369873	-1.066033	0.370765	-0.375023	-1.025419	0.354963	-0.367919	-1.201252	0.133471	-0.318747	-1.173215	0.136316	-0.225147	-1.119147	0.034358	-0.350529	-1.089134	0.039939	-0.237408	-1.056952	0.044113	-0.288976	-1.274609	0.134590	-0.256052	-0.826119	1.475311	-0.059797	-0.792089	1.443651	-0.439788	
31	0.1500	-0.884047	0.985521	-0.101653	-0.861715	0.974402	-0.358727	-1.046135	1.026313	-0.199778	-1.038959	1.030081	-0.299176	-0.877476	0.778182	-0.067382	-0.829125	0.801680	-0.071139	-0.846675	0.744400	-0.067329	-0.795394	0.765740	-0.073245	-0.728100	0.567129	-0.108174	-0.715388	0.564428	-0.224497	-0.847316	0.483482	-0.088657	-0.808768	0.451534	-0.094829	-0.872237	0.452436	-0.091247	-0.833107	0.422990	-0.098791	-1.034287	0.245782	-0.137001	-1.009860	0.227881	-0.224268	-0.969622	0.132321	-0.090161	-0.940328	0.114151	-0.195714	-0.905460	0.125372	-0.138592	-1.110866	0.244659	-0.202291	-0.946712	0.732566	-0.410908	-0.894305	0.730975	-0.412256	-0.948521	0.684865	-0.404312	-0.894680	0.682417	-0.408081	-0.916451	0.518411	-0.360705	-0.915910	0.511555	-0.256621	-1.031921	0.410989	-0.381150	-0.993279	0.390390	-0.370897	-1.057973	0.374339	-0.376068	-1.017545	0.357875	-0.369151	-1.196352	0.137832	-0.321204	-1.168458	0.140414	-0.227700	-1.118495	0.034451	-0.350974	-1.088518	0.040416	-0.237618	-1.056762	0.043990	-0.288946	-1.269084	0.141679	-0.258801	-0.809808	1.478261	-0.058965	-0.771897	1.447747	-0.438046	
32	0.1550	-0.865991	0.988825	-0.101323	-0.841875	0.976218	-0.357928	-1.027085	1.029256	-0.200613	-1.019016	1.033049	-0.299898	-0.858123	0.782052	-0.068098	-0.809913	0.805947	-0.071806	-0.827139	0.748448	-0.068224	-0.775988	0.770216	-0.074201	-0.707496	0.571990	-0.109715	-0.695262	0.569674	-0.225348	-0.823628	0.482504	-0.089791	-0.783704	0.452543	-0.096195	-0.847004	0.450331	-0.092255	-0.806645	0.422903	-0.099914	-0.998266	0.235872	-0.138147	-0.973240	0.220086	-0.225560	-0.927486	0.125458	-0.092246	-0.897706	0.110138	-0.198011	-0.863297	0.122626	-0.140936	-1.074910	0.231234	-0.203088	-0.930508	0.734886	-0.410699	-0.878078	0.732372	-0.411776	-0.933314	0.687222	-0.404177	-0.879442	0.683737	-0.407645	-0.905263	0.519758	-0.361094	-0.905637	0.512694	-0.256545	-1.022844	0.414458	-0.382245	-0.984525	0.393194	-0.371993	-1.049501	0.378153	-0.377181	-1.009268	0.361037	-0.370449	-1.190950	0.142470	-0.323781	-1.163230	0.144751	-0.230374	-1.117653	0.034767	-0.351460	-1.087725	0.041078	-0.237908	-1.056423	0.043882	-0.288947	-1.262949	0.149191	-0.261712	-0.793501	1.481182	-0.058145	-0.751809	1.451919	-0.436264	
33	0.1600	-0.847859	0.992105	-0.100971	-0.822069	0.978086	-0.357100	-1.007976	1.032210	-0.201350	-0.999065	1.036033	-0.300513	-0.839011	0.785764	-0.068760	-0.790922	0.809957	-0.072441	-0.807921	0.752276	-0.069088	-0.756884	0.774373	-0.075133	-0.687611	0.576479	-0.111217	-0.675871	0.574471	-0.226122	-0.800493	0.481264	-0.090968	-0.759256	0.453373	-0.097530	-0.822238	0.448017	-0.093328	-0.780719	0.422676	-0.101028	-0.962197	0.226074	-0.139403	-0.936571	0.212431	-0.226919	-0.885472	0.118906	-0.094434	-0.855225	0.106507	-0.200360	-0.821384	0.120218	-0.143278	-1.038690	0.217922	-0.204076	-0.914139	0.737304	-0.410471	-0.861705	0.733916	-0.411260	-0.917891	0.689689	-0.404036	-0.864008	0.685223	-0.407179	-0.893702	0.521285	-0.361527	-0.894995	0.514008	-0.256488	-1.013329	0.418134	-0.383401	-0.975348	0.396215	-0.373161	-1.040575	0.382179	-0.378358	-1.000548	0.364417	-0.371809	-1.185040	0.147393	-0.326456	-1.157522	0.149329	-0.233145	-1.116597	0.035361	-0.351993	-1.086728	0.041968	-0.238290	-1.055909	0.043823	-0.288994	-1.256196	0.157112	-0.264757	-0.777192	1.484042	-0.057342	-0.731834	1.456118	-0.434452	
34	0.1650	-0.829646	0.995314	-0.100605	-0.802312	0.979985	-0.356257	-0.988814	1.035138	-0.201983	-0.979122	1.038998	-0.301014	-0.820137	0.789264	-0.069363	-0.772144	0.813657	-0.073038	-0.789015	0.755833	-0.069912	-0.738071	0.778157	-0.076030	-0.668416	0.580545	-0.112676	-0.657177	0.578772	-0.226819	-0.777891	0.479747	-0.092185	-0.735417	0.453997	-0.098834	-0.797933	0.445485	-0.094463	-0.755326	0.422288	-0.102136	-0.926141	0.216438	-0.140770	-0.899922	0.204953	-0.228348	-0.843676	0.112689	-0.096723	-0.812986	0.103257	-0.202757	-0.779807	0.118138	-0.145616	-1.002280	0.204805	-0.205260	-0.897594	0.739784	-0.410232	-0.845176	0.735576	-0.410722	-0.902233	0.692230	-0.403898	-0.848359	0.686841	-0.406696	-0.881722	0.522947	-0.362017	-0.883923	0.515455	-0.256462	-1.003335	0.421982	-0.384613	-0.965708	0.399417	-0.374401	-1.031156	0.386389	-0.379594	-0.991350	0.367982	-0.373225	-1.178619	0.152606	-0.329203	-1.151326	0.154152	-0.235989	-1.115301	0.036285	-0.352577	-1.085498	0.043130	-0.238777	-1.055191	0.043851	-0.289103	-1.248821	0.165424	-0.267904	-0.760875	1.486812	-0.056559	-0.711986	1.460296	-0.432622	
35	0.1700	-0.811351	0.998410	-0.100230	-0.782615	0.981891	-0.355414	-0.969607	1.037998	-0.202508	-0.959199	1.041908	-0.301400	-0.801495	0.792504	-0.069904	-0.753571	0.817001	-0.073587	-0.770410	0.759067	-0.070689	-0.719537	0.781524	-0.076883	-0.649873	0.584144	-0.114090	-0.639137	0.582535	-0.227440	-0.755799	0.477939	-0.093440	-0.712169	0.454387	-0.100111	-0.774076	0.442729	-0.095658	-0.730463	0.421722	-0.103240	-0.890169	0.207013	-0.142249	-0.863372	0.197683	-0.229851	-0.802196	0.106820	-0.099109	-0.771101	0.100374	-0.205200	-0.738662	0.116365	-0.147955	-0.965765	0.191960	-0.206639	-0.880862	0.742287	-0.409991	-0.828479	0.737316	-0.410175	-0.886324	0.694801	-0.403769	-0.832478	0.688553	-0.406210	-0.869280	0.524701	-0.362573	-0.872365	0.516986	-0.256477	-0.992826	0.425968	-0.385876	-0.955571	0.402760	-0.375713	-1.021211	0.390751	-0.380884	-0.981645	0.371695	-0.374692	-1.171685	0.158116	-0.331996	-1.144636	0.159223	-0.238880	-1.113735	0.037594	-0.353218	-1.084002	0.044605	-0.239379	-1.054238	0.044011	-0.289292	-1.240823	0.174106	-0.271119	-0.744542	1.489461	-0.055796	-0.692272	1.464405	-0.430782	
36	0.1750	-0.792972	1.001350	-0.099854	-0.762987	0.983782	-0.354583	-0.950365	1.040751	-0.202921	-0.939312	1.044726	-0.301670	-0.783077	0.795435	-0.070381	-0.735192	0.819944	-0.074083	-0.752093	0.761935	-0.071410	-0.701267	0.784430	-0.077684	-0.631940	0.587241	-0.115460	-0.621703	0.585731	-0.227991	-0.734192	0.475834	-0.094729	-0.689494	0.454521	-0.101364	-0.750657	0.439748	-0.096912	-0.706123	0.420961	-0.104348	-0.854362	0.197841	-0.143840	-0.827009	0.190649	-0.231431	-0.761141	0.101305	-0.101591	-0.729686	0.097837	-0.207690	-0.698045	0.114868	-0.150299	-0.929246	0.179462	-0.208211	-0.863933	0.744772	-0.409756	-0.811601	0.739100	-0.409632	-0.870150	0.697361	-0.403659	-0.816346	0.690320	-0.405734	-0.856339	0.526496	-0.363204	-0.860273	0.518552	-0.256543	-0.981767	0.430053	-0.387184	-0.944907	0.406202	-0.377093	-1.010711	0.395231	-0.382222	-0.971406	0.375517	-0.376201	-1.164239	0.163927	-0.334810	-1.137447	0.164543	-0.241793	-1.111865	0.039339	-0.353921	-1.082204	0.046437	-0.240108	-1.053013	0.044350	-0.289578	-1.232205	0.183135	-0.274365	-0.728185	1.491960	-0.055056	-0.672702	1.468400	-0.428943	
37	0.1800	-0.774509	1.004093	-0.099480	-0.743436	0.985632	-0.353776	-0.931096	1.043358	-0.203222	-0.919473	1.047416	-0.301823	-0.764873	0.798014	-0.070792	-0.716998	0.822448	-0.074518	-0.734050	0.764396	-0.072072	-0.683245	0.786839	-0.078426	-0.614568	0.589808	-0.116788	-0.604820	0.588338	-0.228479	-0.713042	0.473430	-0.096052	-0.667369	0.454380	-0.102602	-0.727663	0.436545	-0.098223	-0.682295	0.419995	-0.105467	-0.818811	0.188962	-0.145541	-0.790935	0.183872	-0.233093	-0.720626	0.096143	-0.104167	-0.688865	0.095616	-0.210228	-0.658061	0.113612	-0.152660	-0.892836	0.167379	-0.209971	-0.846796	0.747200	-0.409536	-0.794530	0.740890	-0.409106	-0.853696	0.699866	-0.403577	-0.799948	0.692103	-0.405283	-0.842864	0.528285	-0.363916	-0.847601	0.520101	-0.256669	-0.970130	0.434198	-0.388530	-0.933689	0.409700	-0.378540	-0.999629	0.399796	-0.383601	-0.960611	0.379411	-0.377745	-1.156283	0.170043	-0.337618	-1.129755	0.170111	-0.244703	-1.109654	0.041569	-0.354695	-1.080064	0.048664	-0.240975	-1.051476	0.044918	-0.289982	-1.222971	0.192484	-0.277605	-0.711796	1.494284	-0.054337	-0.653283	1.472239	-0.427113	
38	0.1850	-0.755960	1.006600	-0.099112	-0.723967	0.987418	-0.353004	-0.911810	1.045782	-0.203410	-0.899694	1.049941	-0.301862	-0.746872	0.800203	-0.071140	-0.698974	0.824480	-0.074887	-0.716262	0.766415	-0.072670	-0.665452	0.788724	-0.079100	-0.597701	0.591826	-0.118078	-0.588432	0.590346	-0.228914	-0.692321	0.470733	-0.097408	-0.645767	0.453952	-0.103833	-0.705084	0.433128	-0.099590	-0.658971	0.418813	-0.106605	-0.783616	0.180408	-0.147352	-0.755256	0.177369	-0.234842	-0.680774	0.091329	-0.106837	-0.648767	0.093670	-0.212820	-0.618816	0.112550	-0.155050	-0.856662	0.155774	-0.211910	-0.829441	0.749531	-0.409340	-0.777253	0.742648	-0.408608	-0.836948	0.702274	-0.403529	-0.783266	0.693862	-0.404868	-0.828825	0.530020	-0.364716	-0.834310	0.521583	-0.256861	-0.957888	0.438364	-0.389908	-0.921894	0.413213	-0.380047	-0.987941	0.404410	-0.385012	-0.949240	0.383339	-0.379319	-1.147815	0.176463	-0.340394	-1.121554	0.175926	-0.247585	-1.107059	0.044328	-0.355545	-1.077536	0.051318	-0.241986	-1.049580	0.045767	-0.290520	-1.213125	0.202122	-0.280803	-0.695364	1.496407	-0.053636	-0.634021	1.475883	-0.425300	
39	0.1900	-0.737328	1.008838	-0.098753	-0.704582	0.989116	-0.352273	-0.892516	1.047986	-0.203486	-0.879984	1.052269	-0.301792	-0.729061	0.801971	-0.071426	-0.681108	0.826014	-0.075185	-0.698711	0.767967	-0.073201	-0.647869	0.790061	-0.079702	-0.581285	0.593285	-0.119335	-0.572478	0.591753	-0.229306	-0.672002	0.467753	-0.098795	-0.624664	0.453228	-0.105066	-0.682909	0.429508	-0.101011	-0.636140	0.417410	-0.107771	-0.748885	0.172210	-0.149271	-0.720092	0.171150	-0.236682	-0.641711	0.086849	-0.109598	-0.609526	0.091953	-0.215470	-0.580421	0.111633	-0.157482	-0.820862	0.144704	-0.214017	-0.811856	0.751727	-0.409176	-0.759756	0.744337	-0.408149	-0.819894	0.704545	-0.403523	-0.766285	0.695558	-0.404501	-0.814195	0.531655	-0.365607	-0.820366	0.522948	-0.257125	-0.945018	0.442514	-0.391309	-0.909501	0.416700	-0.381611	-0.975627	0.409040	-0.386451	-0.937275	0.387263	-0.380913	-1.138834	0.183186	-0.343114	-1.112836	0.181983	-0.250415	-1.104031	0.047651	-0.356479	-1.074568	0.054427	-0.243151	-1.047274	0.046945	-0.291211	-1.202673	0.212017	-0.283922	-0.678881	1.498308	-0.052951	-0.614919	1.479295	-0.423513	
40	0.1950	-0.718613	1.010776	-0.098403	-0.685280	0.990701	-0.351590	-0.873222	1.049940	-0.203452	-0.860353	1.054365	-0.301616	-0.711423	0.803291	-0.071653	-0.663385	0.827030	-0.075409	-0.681374	0.769030	-0.073667	-0.630476	0.790837	-0.080226	-0.565260	0.594181	-0.120569	-0.556898	0.592566	-0.229667	-0.652058	0.464507	-0.100214	-0.604032	0.452203	-0.106312	-0.661131	0.425702	-0.102486	-0.613793	0.415784	-0.108976	-0.714735	0.164392	-0.151293	-0.685565	0.165222	-0.238617	-0.603571	0.082685	-0.112450	-0.571277	0.090416	-0.218184	-0.542991	0.110806	-0.159972	-0.785582	0.134217	-0.216279	-0.794031	0.753753	-0.409050	-0.742025	0.745925	-0.407737	-0.802520	0.706641	-0.403567	-0.748987	0.697153	-0.404192	-0.798952	0.533146	-0.366592	-0.805739	0.524150	-0.257466	-0.931497	0.446611	-0.392727	-0.896490	0.420122	-0.383224	-0.962665	0.413654	-0.387907	-0.924699	0.391150	-0.382521	-1.129332	0.190207	-0.345754	-1.103589	0.188276	-0.253174	-1.100518	0.051568	-0.357505	-1.071104	0.058011	-0.244474	-1.044499	0.048499	-0.292072	-1.191615	0.222133	-0.286925	-0.662334	1.499966	-0.052276	-0.595981	1.482445	-0.421758	
41	0.2000	-0.699817	1.012388	-0.098062	-0.666058	0.992154	-0.350959	-0.853934	1.051614	-0.203312	-0.840805	1.056202	-0.301340	-0.693942	0.804146	-0.071827	-0.645789	0.827518	-0.075556	-0.664230	0.769591	-0.074068	-0.613248	0.791046	-0.080670	-0.549565	0.594522	-0.121786	-0.541631	0.592803	-0.230012	-0.632465	0.461015	-0.101666	-0.583844	0.450878	-0.107582	-0.639743	0.421729	-0.104013	-0.591920	0.413936	-0.110230	-0.681286	0.156973	-0.153416	-0.651804	0.159586	-0.240652	-0.566485	0.078819	-0.115388	-0.534156	0.089002	-0.220967	-0.506640	0.110013	-0.162535	-0.750974	0.124355	-0.218682	-0.775952	0.755576	-0.408971	-0.724044	0.747380	-0.407382	-0.784812	0.708526	-0.403665	-0.731357	0.698617	-0.403950	-0.783075	0.534455	-0.367671	-0.790402	0.525149	-0.257886	-0.917305	0.450620	-0.394154	-0.882842	0.423442	-0.384878	-0.949037	0.418219	-0.389376	-0.911495	0.394966	-0.384136	-1.119298	0.197518	-0.348293	-1.093796	0.194793	-0.255840	-1.096458	0.056097	-0.358629	-1.067080	0.062082	-0.245958	-1.041190	0.050470	-0.293117	-1.179951	0.232432	-0.289780	-0.645712	1.501366	-0.051605	-0.577206	1.485305	-0.420042	
42	0.2050	-0.680940	1.013656	-0.097727	-0.646910	0.993453	-0.350380	-0.834659	1.052985	-0.203070	-0.821344	1.057752	-0.300972	-0.676600	0.804524	-0.071952	-0.628303	0.827474	-0.075624	-0.647255	0.769646	-0.074406	-0.596165	0.790689	-0.081030	-0.534140	0.594321	-0.122995	-0.526617	0.592489	-0.230353	-0.613199	0.457305	-0.103151	-0.564075	0.449261	-0.108887	-0.618741	0.417613	-0.105592	-0.570516	0.411872	-0.111543	-0.648662	0.149968	-0.155635	-0.618941	0.154238	-0.242789	-0.530589	0.075227	-0.118409	-0.498299	0.087656	-0.223823	-0.471483	0.109199	-0.165186	-0.717195	0.115152	-0.221207	-0.757607	0.757170	-0.408943	-0.705797	0.748676	-0.407089	-0.766757	0.710173	-0.403825	-0.713376	0.699919	-0.403782	-0.766543	0.535550	-0.368842	-0.774333	0.525910	-0.258388	-0.902422	0.454510	-0.395583	-0.868537	0.426630	-0.386567	-0.934724	0.422708	-0.390849	-0.897646	0.398682	-0.385751	-1.108716	0.205106	-0.350711	-1.083436	0.201521	-0.258395	-1.091785	0.061248	-0.359859	-1.062429	0.066640	-0.247606	-1.037276	0.052894	-0.294360	-1.167677	0.242875	-0.292455	-0.629000	1.502492	-0.050931	-0.558593	1.487852	-0.418371	
43	0.2100	-0.661983	1.014565	-0.097397	-0.627826	0.994582	-0.349854	-0.815400	1.054035	-0.202731	-0.801971	1.058995	-0.300519	-0.659376	0.804424	-0.072036	-0.610909	0.826902	-0.075614	-0.630422	0.769199	-0.074688	-0.579201	0.789777	-0.081305	-0.518925	0.593600	-0.124205	-0.511796	0.591656	-0.230706	-0.594241	0.453409	-0.104669	-0.544700	0.447362	-0.110238	-0.598124	0.413382	-0.107221	-0.549574	0.409599	-0.112923	-0.616989	0.143388	-0.157945	-0.587107	0.149172	-0.245030	-0.496013	0.071884	-0.121506	-0.463837	0.086322	-0.226757	-0.437632	0.108308	-0.167935	-0.684401	0.106634	-0.223837	-0.738980	0.758512	-0.408970	-0.687265	0.749791	-0.406863	-0.748340	0.711556	-0.404049	-0.695027	0.701038	-0.403694	-0.749341	0.536404	-0.370101	-0.757510	0.526403	-0.258970	-0.886828	0.458253	-0.397007	-0.853556	0.429656	-0.388280	-0.919705	0.427093	-0.392319	-0.883132	0.402273	-0.387360	-1.097561	0.212954	-0.352991	-1.072480	0.208441	-0.260825	-1.086428	0.067018	-0.361199	-1.057075	0.071679	-0.249417	-1.032677	0.055799	-0.295811	-1.154783	0.253417	-0.294922	-0.612184	1.503337	-0.050245	-0.540137	1.490069	-0.416751	
44	0.2150	-0.642947	1.015107	-0.097065	-0.608796	0.995525	-0.349378	-0.796159	1.054750	-0.202300	-0.782684	1.059912	-0.299989	-0.642248	0.803850	-0.072086	-0.593588	0.825815	-0.075526	-0.613705	0.768260	-0.074918	-0.562332	0.788328	-0.081496	-0.503862	0.592388	-0.125424	-0.497114	0.590344	-0.231082	-0.575575	0.449361	-0.106220	-0.525698	0.445195	-0.111645	-0.577893	0.409067	-0.108899	-0.529089	0.407129	-0.114380	-0.586388	0.137240	-0.160339	-0.556429	0.144380	-0.247377	-0.462885	0.068768	-0.124672	-0.430893	0.084945	-0.229768	-0.405197	0.107290	-0.170794	-0.652746	0.098817	-0.226553	-0.720056	0.759586	-0.409056	-0.668430	0.750711	-0.406706	-0.729545	0.712658	-0.404340	-0.676292	0.701956	-0.403689	-0.731452	0.537000	-0.371445	-0.739917	0.526609	-0.259631	-0.870503	0.461824	-0.398421	-0.837877	0.432499	-0.390009	-0.903961	0.431351	-0.393781	-0.867932	0.405716	-0.388956	-1.085804	0.221038	-0.355119	-1.060894	0.215532	-0.263117	-1.080307	0.073394	-0.362654	-1.050941	0.077181	-0.251388	-1.027310	0.059201	-0.297478	-1.141253	0.264015	-0.297157	-0.595248	1.503892	-0.049541	-0.521831	1.491944	-0.415186	
45	0.2200	-0.623831	1.015283	-0.096728	-0.589804	0.996272	-0.348947	-0.776934	1.055124	-0.201783	-0.763476	1.060493	-0.299390	-0.625195	0.802816	-0.072110	-0.576322	0.824232	-0.075363	-0.597079	0.766850	-0.075105	-0.545534	0.786367	-0.081603	-0.488898	0.590718	-0.126659	-0.482517	0.588597	-0.231494	-0.557186	0.445199	-0.107803	-0.507050	0.442781	-0.113114	-0.558052	0.404699	-0.110624	-0.509059	0.404479	-0.115919	-0.556981	0.131528	-0.162808	-0.527030	0.139851	-0.249828	-0.431323	0.065855	-0.127896	-0.399583	0.083475	-0.232855	-0.374280	0.106098	-0.173768	-0.622375	0.091713	-0.229335	-0.700818	0.760381	-0.409203	-0.649275	0.751425	-0.406621	-0.710356	0.713469	-0.404700	-0.657153	0.702663	-0.403770	-0.712860	0.537328	-0.372865	-0.721536	0.526518	-0.260368	-0.853428	0.465206	-0.399818	-0.821479	0.435139	-0.391743	-0.887468	0.435463	-0.395229	-0.852025	0.408996	-0.390533	-1.073408	0.229334	-0.357083	-1.048637	0.222767	-0.265260	-1.073340	0.080348	-0.364226	-1.043942	0.083118	-0.253515	-1.021086	0.063111	-0.299366	-1.127067	0.274620	-0.299139	-0.578175	1.504157	-0.048807	-0.503666	1.493469	-0.413680	
46	0.2250	-0.604633	1.015098	-0.096378	-0.570835	0.996816	-0.348555	-0.757721	1.055158	-0.201188	-0.744340	1.060732	-0.298731	-0.608193	0.801344	-0.072116	-0.559090	0.822181	-0.075128	-0.580516	0.764995	-0.075256	-0.528781	0.783929	-0.081629	-0.473980	0.588632	-0.127918	-0.467958	0.586464	-0.231953	-0.539064	0.440964	-0.109417	-0.488738	0.440142	-0.114651	-0.538606	0.400314	-0.112391	-0.489484	0.401664	-0.117544	-0.528877	0.126254	-0.165345	-0.499024	0.135573	-0.252381	-0.401438	0.063123	-0.131165	-0.370011	0.081868	-0.236013	-0.344974	0.104693	-0.176859	-0.593427	0.085324	-0.232161	-0.681250	0.760894	-0.409410	-0.629778	0.751932	-0.406607	-0.690759	0.713985	-0.405130	-0.637592	0.703157	-0.403935	-0.693553	0.537385	-0.374353	-0.702354	0.526126	-0.261175	-0.835581	0.468382	-0.401192	-0.804338	0.437565	-0.393472	-0.870206	0.439411	-0.396655	-0.835386	0.412099	-0.392087	-1.060329	0.237806	-0.358875	-1.035665	0.230115	-0.267246	-1.065441	0.087844	-0.365918	-1.035992	0.089453	-0.255791	-1.013912	0.067524	-0.301474	-1.112200	0.285183	-0.300853	-0.560949	1.504133	-0.048037	-0.485629	1.494645	-0.412238	
47	0.2300	-0.585352	1.014563	-0.096010	-0.551870	0.997153	-0.348195	-0.738515	1.054858	-0.200520	-0.725264	1.060629	-0.298019	-0.591219	0.799462	-0.072112	-0.541873	0.819699	-0.074825	-0.563989	0.762730	-0.075380	-0.512051	0.781053	-0.081577	-0.459062	0.586172	-0.129202	-0.453393	0.583998	-0.232467	-0.521202	0.436699	-0.111059	-0.470750	0.437305	-0.116259	-0.519562	0.395949	-0.114196	-0.470365	0.398707	-0.119256	-0.502181	0.121415	-0.167938	-0.472514	0.131535	-0.255028	-0.373325	0.060552	-0.134465	-0.342265	0.080088	-0.239235	-0.317364	0.103045	-0.180062	-0.566025	0.079648	-0.235011	-0.661334	0.761130	-0.409678	-0.609922	0.752236	-0.406661	-0.670736	0.714211	-0.405628	-0.617592	0.703443	-0.404183	-0.673515	0.537180	-0.375899	-0.682357	0.525444	-0.262047	-0.816942	0.471342	-0.402540	-0.786429	0.439771	-0.395184	-0.852151	0.443183	-0.398056	-0.817987	0.415016	-0.393612	-1.046518	0.246418	-0.360487	-1.021925	0.237542	-0.269069	-1.056519	0.095832	-0.367728	-1.027003	0.096138	-0.258207	-1.005692	0.072426	-0.303799	-1.096622	0.295652	-0.302289	-0.543550	1.503826	-0.047220	-0.467704	1.495474	-0.410863	
48	0.2350	-0.565986	1.013699	-0.095615	-0.532890	0.997284	-0.347859	-0.719307	1.054240	-0.199787	-0.706234	1.060191	-0.297263	-0.574250	0.797207	-0.072105	-0.524650	0.816826	-0.074460	-0.547473	0.760095	-0.075486	-0.495319	0.777786	-0.081452	-0.444105	0.583387	-0.130516	-0.438785	0.581254	-0.233041	-0.503598	0.432446	-0.112723	-0.453075	0.434300	-0.117938	-0.500929	0.391639	-0.116034	-0.451703	0.395631	-0.121054	-0.476982	0.117008	-0.170575	-0.447588	0.127726	-0.257763	-0.347067	0.058127	-0.137776	-0.316420	0.078107	-0.242509	-0.291520	0.101131	-0.183371	-0.540276	0.074674	-0.237864	-0.641055	0.761099	-0.410002	-0.589690	0.752349	-0.406780	-0.650272	0.714157	-0.406191	-0.597137	0.703532	-0.404511	-0.652737	0.536729	-0.377492	-0.661537	0.524487	-0.262974	-0.797491	0.474083	-0.403857	-0.767729	0.441754	-0.396870	-0.833281	0.446768	-0.399425	-0.799803	0.417744	-0.395103	-1.031921	0.255127	-0.361918	-1.007365	0.245009	-0.270727	-1.046486	0.104253	-0.369654	-1.016887	0.103119	-0.260753	-0.996329	0.077791	-0.306335	-1.080300	0.305974	-0.303440	-0.525962	1.503248	-0.046351	-0.449876	1.495967	-0.409556	
49	0.2400	-0.546530	1.012530	-0.095187	-0.513876	0.997216	-0.347539	-0.700087	1.053323	-0.198996	-0.687235	1.059432	-0.296471	-0.557263	0.794621	-0.072101	-0.507405	0.813609	-0.074039	-0.530943	0.757138	-0.075582	-0.478563	0.774179	-0.081260	-0.429075	0.580326	-0.131857	-0.424101	0.578286	-0.233680	-0.486252	0.428248	-0.114405	-0.435708	0.431157	-0.119684	-0.482717	0.387422	-0.117896	-0.433502	0.392460	-0.122932	-0.453357	0.113029	-0.173243	-0.424318	0.124138	-0.260575	-0.322728	0.055835	-0.141080	-0.292531	0.075906	-0.245819	-0.267499	0.098940	-0.186770	-0.516269	0.070389	-0.240699	-0.620397	0.760820	-0.410381	-0.569065	0.752290	-0.406958	-0.629355	0.713844	-0.406816	-0.576212	0.703444	-0.404911	-0.631209	0.536056	-0.379119	-0.639886	0.523283	-0.263947	-0.777212	0.476603	-0.405138	-0.748212	0.443520	-0.398517	-0.813574	0.450162	-0.400757	-0.780806	0.420284	-0.396555	-1.016485	0.263885	-0.363166	-0.991928	0.252475	-0.272217	-1.035253	0.113038	-0.371689	-1.005558	0.110335	-0.263415	-0.985729	0.083582	-0.309070	-1.063197	0.316096	-0.304305	-0.508169	1.502414	-0.045422	-0.432124	1.496138	-0.408320	
50	0.2450	-0.526983	1.011087	-0.094720	-0.494809	0.996958	-0.347225	-0.680844	1.052134	-0.198154	-0.668251	1.058371	-0.295649	-0.540237	0.791753	-0.072107	-0.490118	0.810101	-0.073567	-0.514377	0.753911	-0.075678	-0.461766	0.770289	-0.081005	-0.413944	0.577043	-0.133223	-0.409317	0.575149	-0.234383	-0.469166	0.424147	-0.116095	-0.418644	0.427910	-0.121490	-0.464937	0.383334	-0.119773	-0.415768	0.389222	-0.124883	-0.431364	0.109471	-0.175926	-0.402759	0.120766	-0.263448	-0.300354	0.053663	-0.144354	-0.270635	0.073477	-0.249149	-0.245341	0.096468	-0.190240	-0.494071	0.066773	-0.243495	-0.599348	0.760315	-0.410807	-0.548034	0.752083	-0.407189	-0.607972	0.713296	-0.407496	-0.554808	0.703205	-0.405377	-0.608926	0.535193	-0.380766	-0.617403	0.521868	-0.264956	-0.756087	0.478906	-0.406379	-0.727859	0.445079	-0.400115	-0.793012	0.453362	-0.402049	-0.760972	0.422639	-0.397962	-1.000153	0.272641	-0.364234	-0.975560	0.259894	-0.273541	-1.022735	0.122109	-0.373828	-0.992935	0.117716	-0.266179	-0.973802	0.089752	-0.311988	-1.045277	0.325961	-0.304889	-0.490155	1.501343	-0.044428	-0.414429	1.496006	-0.407157	
51	0.2500	-0.507342	1.009404	-0.094208	-0.475672	0.996526	-0.346909	-0.661565	1.050706	-0.197269	-0.649264	1.057034	-0.294805	-0.523154	0.788655	-0.072126	-0.472776	0.806359	-0.073054	-0.497756	0.750467	-0.075779	-0.444909	0.766174	-0.080695	-0.398695	0.573587	-0.134607	-0.394415	0.571897	-0.235147	-0.452348	0.420182	-0.117784	-0.401883	0.424593	-0.123346	-0.447599	0.379408	-0.121654	-0.398504	0.385945	-0.126894	-0.411046	0.106326	-0.178606	-0.382944	0.117604	-0.266365	-0.279972	0.051607	-0.147575	-0.250746	0.070822	-0.252476	-0.225072	0.093725	-0.193759	-0.473728	0.063804	-0.246231	-0.577899	0.759617	-0.411276	-0.526590	0.751760	-0.407465	-0.586116	0.712547	-0.408226	-0.532918	0.702848	-0.405900	-0.585885	0.534181	-0.382418	-0.594088	0.520285	-0.265987	-0.734108	0.481001	-0.407576	-0.706650	0.446445	-0.401653	-0.771580	0.456368	-0.403294	-0.740277	0.424818	-0.399318	-0.982871	0.281338	-0.365126	-0.958208	0.267221	-0.274701	-1.008855	0.131382	-0.376059	-0.978944	0.125191	-0.269029	-0.960464	0.096243	-0.315072	-1.026507	0.335514	-0.305199	-0.471907	1.500060	-0.043365	-0.396771	1.495597	-0.406066	
52	0.2550	-0.487607	1.007522	-0.093644	-0.456451	0.995938	-0.346582	-0.642240	1.049076	-0.196347	-0.630259	1.055453	-0.293945	-0.505998	0.785383	-0.072163	-0.455366	0.802441	-0.072505	-0.481064	0.746867	-0.075891	-0.427981	0.761896	-0.080337	-0.383316	0.570012	-0.136000	-0.379384	0.568581	-0.235964	-0.435806	0.416392	-0.119460	-0.385430	0.421241	-0.125237	-0.430716	0.375679	-0.123525	-0.381719	0.382658	-0.128950	-0.392425	0.103588	-0.181267	-0.364888	0.114654	-0.269308	-0.261586	0.049661	-0.150719	-0.232858	0.067953	-0.255777	-0.206694	0.090729	-0.197298	-0.455259	0.061457	-0.248888	-0.556045	0.758760	-0.411779	-0.504728	0.751354	-0.407776	-0.563785	0.711634	-0.408997	-0.510541	0.702410	-0.406469	-0.562090	0.533062	-0.384061	-0.569952	0.518583	-0.267028	-0.711268	0.482901	-0.408725	-0.684573	0.447636	-0.403120	-0.749269	0.459184	-0.404488	-0.718706	0.426831	-0.400619	-0.964591	0.289919	-0.365847	-0.939826	0.274406	-0.275701	-0.993545	0.140767	-0.378371	-0.963520	0.132685	-0.271948	-0.945642	0.102991	-0.318297	-1.006856	0.344700	-0.305248	-0.453418	1.498593	-0.042232	-0.379130	1.494938	-0.405048	
53	0.2600	-0.467779	1.005483	-0.093026	-0.437135	0.995218	-0.346239	-0.622858	1.047287	-0.195395	-0.611222	1.053664	-0.293074	-0.488759	0.781996	-0.072217	-0.437881	0.798408	-0.071929	-0.464290	0.743169	-0.076020	-0.410973	0.757516	-0.079937	-0.367807	0.566368	-0.137391	-0.364222	0.565248	-0.236826	-0.419554	0.412811	-0.121109	-0.369291	0.417889	-0.127148	-0.414300	0.372176	-0.125373	-0.365417	0.379390	-0.131033	-0.375504	0.101247	-0.183888	-0.348584	0.111917	-0.272252	-0.245179	0.047823	-0.153762	-0.216944	0.064892	-0.259026	-0.190197	0.087505	-0.200826	-0.438662	0.059703	-0.251447	-0.533788	0.757784	-0.412308	-0.482452	0.750906	-0.408114	-0.540983	0.710600	-0.409800	-0.487682	0.701931	-0.407073	-0.537553	0.531888	-0.385678	-0.545012	0.516819	-0.268064	-0.687571	0.484622	-0.409822	-0.661624	0.448676	-0.404506	-0.726078	0.461818	-0.405625	-0.696249	0.428693	-0.401857	-0.945272	0.298324	-0.366407	-0.920376	0.281401	-0.276547	-0.976748	0.150171	-0.380749	-0.946612	0.140121	-0.274915	-0.929274	0.109923	-0.321639	-0.986301	0.353465	-0.305054	-0.434684	1.496972	-0.041029	-0.361488	1.494062	-0.404102	
54	0.2650	-0.447863	1.003331	-0.092350	-0.417719	0.994392	-0.345871	-0.603414	1.045382	-0.194420	-0.592141	1.051708	-0.292196	-0.471431	0.778552	-0.072288	-0.420316	0.794319	-0.071332	-0.447428	0.739433	-0.076166	-0.393881	0.753097	-0.079503	-0.352175	0.562703	-0.138766	-0.348934	0.561943	-0.237719	-0.403604	0.409468	-0.122718	-0.353476	0.414570	-0.129059	-0.398361	0.368925	-0.127182	-0.349607	0.376172	-0.133121	-0.360266	0.099294	-0.186449	-0.334003	0.109400	-0.275174	-0.230712	0.046094	-0.156681	-0.202957	0.061670	-0.262199	-0.175546	0.084089	-0.204308	-0.423908	0.058514	-0.253891	-0.511138	0.756732	-0.412855	-0.459773	0.750457	-0.408467	-0.517720	0.709489	-0.410625	-0.464356	0.701456	-0.407699	-0.512294	0.530710	-0.387253	-0.519293	0.515051	-0.269080	-0.663030	0.486182	-0.410863	-0.637807	0.449588	-0.405801	-0.702016	0.464277	-0.406700	-0.672905	0.430420	-0.403028	-0.924886	0.306493	-0.366815	-0.899831	0.288157	-0.277244	-0.958426	0.159501	-0.383178	-0.928185	0.147424	-0.277912	-0.911319	0.116963	-0.325069	-0.964829	0.361758	-0.304635	-0.415705	1.495232	-0.039758	-0.343832	1.493004	-0.403227	
55	0.2700	-0.427868	1.001112	-0.091616	-0.398202	0.993488	-0.345474	-0.583906	1.043407	-0.193428	-0.573010	1.049630	-0.291317	-0.454012	0.775109	-0.072375	-0.402674	0.790236	-0.070722	-0.430478	0.735718	-0.076330	-0.376709	0.748698	-0.079042	-0.336437	0.559062	-0.140107	-0.333535	0.558704	-0.238629	-0.387976	0.406391	-0.124269	-0.337998	0.411319	-0.130948	-0.382910	0.365952	-0.128934	-0.334295	0.373032	-0.135192	-0.346675	0.097719	-0.188929	-0.321097	0.107111	-0.278047	-0.218127	0.044475	-0.159451	-0.190829	0.058323	-0.265267	-0.162693	0.080521	-0.207712	-0.410949	0.057859	-0.256201	-0.488112	0.755649	-0.413409	-0.436710	0.750049	-0.408824	-0.494017	0.708351	-0.411461	-0.440585	0.701029	-0.408335	-0.486342	0.529582	-0.388771	-0.492835	0.513338	-0.270062	-0.637669	0.487602	-0.411842	-0.613137	0.450400	-0.406997	-0.677104	0.466572	-0.407708	-0.648686	0.432029	-0.404123	-0.903417	0.314366	-0.367081	-0.878180	0.294629	-0.277801	-0.938558	0.168662	-0.385640	-0.908221	0.154520	-0.280916	-0.891750	0.124033	-0.328556	-0.942438	0.369530	-0.304015	-0.396492	1.493408	-0.038424	-0.326152	1.491800	-0.402421	
56	0.2750	-0.407808	0.998873	-0.090825	-0.378593	0.992537	-0.345045	-0.564335	1.041410	-0.192424	-0.553830	1.047475	-0.290439	-0.436511	0.771725	-0.072474	-0.384964	0.786215	-0.070105	-0.413449	0.732080	-0.076511	-0.359466	0.744378	-0.078558	-0.320618	0.555487	-0.141399	-0.318046	0.555566	-0.239538	-0.372687	0.403600	-0.125747	-0.322873	0.408165	-0.132792	-0.367959	0.363273	-0.130612	-0.319489	0.369998	-0.137221	-0.334676	0.096510	-0.191306	-0.309799	0.105059	-0.280844	-0.207345	0.042970	-0.162052	-0.180472	0.054896	-0.268204	-0.151569	0.076849	-0.211000	-0.399710	0.057707	-0.258364	-0.464738	0.754580	-0.413961	-0.413294	0.749726	-0.409176	-0.469905	0.707231	-0.412298	-0.416403	0.700697	-0.408966	-0.459740	0.528558	-0.390216	-0.465687	0.511742	-0.270995	-0.611527	0.488905	-0.412755	-0.587646	0.451139	-0.408086	-0.651375	0.468716	-0.408643	-0.623619	0.433538	-0.405138	-0.880867	0.321886	-0.367218	-0.855428	0.300771	-0.278225	-0.917145	0.177565	-0.388115	-0.886726	0.161340	-0.283908	-0.870566	0.131050	-0.332068	-0.919141	0.376735	-0.303219	-0.377059	1.491538	-0.037033	-0.308442	1.490491	-0.401681	
57	0.2800	-0.387703	0.996658	-0.089977	-0.358907	0.991570	-0.344582	-0.544712	1.039437	-0.191415	-0.534606	1.045289	-0.289564	-0.418941	0.768453	-0.072580	-0.367200	0.782311	-0.069485	-0.396354	0.728572	-0.076704	-0.342169	0.740190	-0.078059	-0.304755	0.552016	-0.142622	-0.302497	0.552557	-0.240427	-0.357760	0.401113	-0.127134	-0.308118	0.405138	-0.134567	-0.353518	0.360905	-0.132200	-0.305197	0.367096	-0.139183	-0.324198	0.095655	-0.193561	-0.300024	0.103256	-0.283536	-0.198271	0.041580	-0.164466	-0.171786	0.051435	-0.270988	-0.142091	0.073122	-0.214140	-0.390101	0.058024	-0.260364	-0.441055	0.753570	-0.414501	-0.389566	0.749528	-0.409512	-0.445427	0.706179	-0.413123	-0.391855	0.700501	-0.409580	-0.432544	0.527688	-0.391574	-0.437914	0.510320	-0.271863	-0.584655	0.490114	-0.413597	-0.561378	0.451835	-0.409060	-0.624881	0.470722	-0.409501	-0.597743	0.434966	-0.406065	-0.857258	0.328999	-0.367237	-0.831600	0.306543	-0.278525	-0.894214	0.186123	-0.390584	-0.863729	0.167820	-0.286864	-0.847792	0.137938	-0.335571	-0.894968	0.383336	-0.302273	-0.357433	1.489661	-0.035594	-0.290705	1.489114	-0.401005	
58	0.2850	-0.367580	0.994509	-0.089079	-0.339170	0.990620	-0.344083	-0.525055	1.037531	-0.190405	-0.515355	1.043120	-0.288695	-0.401324	0.765342	-0.072686	-0.349407	0.778574	-0.068869	-0.379218	0.725242	-0.076905	-0.324843	0.736182	-0.077549	-0.288890	0.548681	-0.143759	-0.286927	0.549701	-0.241278	-0.343216	0.398939	-0.128416	-0.293755	0.402265	-0.136249	-0.339596	0.358858	-0.133679	-0.291427	0.364350	-0.141052	-0.315153	0.095141	-0.195674	-0.291674	0.101714	-0.286097	-0.190792	0.040309	-0.166678	-0.164652	0.047989	-0.273595	-0.134160	0.069390	-0.217099	-0.382014	0.058779	-0.262191	-0.417113	0.752662	-0.415020	-0.365579	0.749494	-0.409822	-0.420636	0.705239	-0.413927	-0.366999	0.700482	-0.410165	-0.404823	0.527020	-0.392832	-0.409596	0.509126	-0.272654	-0.557124	0.491251	-0.414362	-0.534397	0.452513	-0.409914	-0.597687	0.472604	-0.410276	-0.571120	0.436332	-0.406900	-0.832632	0.335654	-0.367153	-0.806743	0.311908	-0.278711	-0.869817	0.194256	-0.393027	-0.839285	0.173902	-0.289765	-0.823479	0.144619	-0.339033	-0.869967	0.389299	-0.301205	-0.337648	1.487813	-0.034117	-0.272953	1.487708	-0.400390	
59	0.2900	-0.347474	0.992466	-0.088134	-0.319415	0.989716	-0.343551	-0.505391	1.035733	-0.189398	-0.496098	1.041012	-0.287834	-0.383693	0.762436	-0.072786	-0.331616	0.775046	-0.068261	-0.362071	0.722132	-0.077108	-0.307521	0.732397	-0.077032	-0.273076	0.545512	-0.144789	-0.271382	0.547015	-0.242071	-0.329080	0.397085	-0.129577	-0.279806	0.399567	-0.137816	-0.326204	0.357136	-0.135034	-0.278186	0.361780	-0.142805	-0.307442	0.094953	-0.197626	-0.284639	0.100442	-0.288501	-0.184785	0.039159	-0.168674	-0.158944	0.044607	-0.276006	-0.127666	0.065704	-0.219850	-0.375326	0.059938	-0.263835	-0.392975	0.751895	-0.415508	-0.341398	0.749657	-0.410096	-0.395601	0.704451	-0.414698	-0.341905	0.700675	-0.410708	-0.376662	0.526596	-0.393978	-0.380827	0.508208	-0.273355	-0.529020	0.492339	-0.415047	-0.506784	0.453201	-0.410644	-0.569878	0.474375	-0.410964	-0.543827	0.437652	-0.407636	-0.807056	0.341809	-0.366977	-0.780927	0.316835	-0.278791	-0.844037	0.201895	-0.395422	-0.813476	0.179538	-0.292587	-0.797707	0.151023	-0.342421	-0.844208	0.394597	-0.300043	-0.317749	1.486030	-0.032613	-0.255204	1.486312	-0.399831	
60	0.2950	-0.327427	0.990563	-0.087150	-0.299686	0.988889	-0.342987	-0.485756	1.034079	-0.188399	-0.476872	1.039006	-0.286981	-0.366087	0.759772	-0.072871	-0.313867	0.771767	-0.067662	-0.344955	0.719279	-0.077304	-0.290244	0.728873	-0.076512	-0.257369	0.542531	-0.145698	-0.255914	0.544513	-0.242788	-0.315378	0.395552	-0.130603	-0.266295	0.397064	-0.139248	-0.313350	0.355739	-0.136251	-0.265484	0.359406	-0.144418	-0.300956	0.095072	-0.199402	-0.278797	0.099450	-0.290724	-0.180114	0.038130	-0.170446	-0.154524	0.041337	-0.278205	-0.122489	0.062113	-0.222369	-0.369904	0.061468	-0.265288	-0.368718	0.751303	-0.415958	-0.317103	0.750045	-0.410329	-0.370403	0.703852	-0.415426	-0.316657	0.701109	-0.411200	-0.348163	0.526452	-0.395001	-0.351717	0.507608	-0.273956	-0.500448	0.493400	-0.415645	-0.478639	0.453921	-0.411248	-0.541559	0.476049	-0.411560	-0.515961	0.438942	-0.408269	-0.780623	0.347426	-0.366723	-0.754246	0.321300	-0.278776	-0.816983	0.208976	-0.397751	-0.786414	0.184686	-0.295312	-0.770589	0.157087	-0.345703	-0.817782	0.399213	-0.298814	-0.297791	1.484346	-0.031095	-0.237488	1.484961	-0.399325	
61	0.3000	-0.307492	0.988830	-0.086135	-0.280039	0.988163	-0.342396	-0.466197	1.032601	-0.187412	-0.457718	1.037142	-0.286139	-0.348556	0.757382	-0.072935	-0.296209	0.768767	-0.067077	-0.327918	0.716710	-0.077486	-0.273063	0.725637	-0.075992	-0.241835	0.539757	-0.146470	-0.240582	0.542202	-0.243412	-0.302137	0.394335	-0.131483	-0.253247	0.394773	-0.140524	-0.301044	0.354664	-0.137318	-0.253328	0.357243	-0.145872	-0.295578	0.095481	-0.200989	-0.274022	0.098744	-0.292745	-0.176639	0.037222	-0.171991	-0.151251	0.038222	-0.280182	-0.118501	0.058663	-0.224637	-0.365610	0.063333	-0.266545	-0.344429	0.750914	-0.416362	-0.292782	0.750679	-0.410512	-0.345135	0.703473	-0.416102	-0.291351	0.701807	-0.411630	-0.319442	0.526616	-0.395895	-0.322394	0.507358	-0.274449	-0.471531	0.494451	-0.416154	-0.450081	0.454693	-0.411724	-0.512850	0.477638	-0.412062	-0.487640	0.440216	-0.408797	-0.753448	0.352477	-0.366403	-0.726820	0.325285	-0.278675	-0.788796	0.215451	-0.399995	-0.758240	0.189316	-0.297921	-0.742265	0.162755	-0.348849	-0.790799	0.403137	-0.297544	-0.277840	1.482793	-0.029578	-0.219842	1.483687	-0.398868	
62	0.3050	-0.287728	0.987293	-0.085098	-0.260537	0.987562	-0.341781	-0.446771	1.031324	-0.186440	-0.438693	1.035451	-0.285306	-0.331157	0.755286	-0.072970	-0.278700	0.766068	-0.066506	-0.311018	0.714447	-0.077645	-0.256036	0.722713	-0.075473	-0.226543	0.537202	-0.147092	-0.225451	0.540086	-0.243929	-0.289383	0.393424	-0.132210	-0.240688	0.392703	-0.141631	-0.289294	0.353900	-0.138225	-0.241726	0.355300	-0.147151	-0.291187	0.096157	-0.202378	-0.270187	0.098326	-0.294548	-0.174215	0.036433	-0.173308	-0.148981	0.035301	-0.281930	-0.115570	0.055394	-0.226640	-0.362301	0.065498	-0.267605	-0.320208	0.750752	-0.416715	-0.268538	0.751574	-0.410640	-0.319905	0.703335	-0.416718	-0.266096	0.702783	-0.411993	-0.290631	0.527105	-0.396652	-0.292998	0.507478	-0.274826	-0.442408	0.495510	-0.416570	-0.421248	0.455533	-0.412073	-0.483891	0.479154	-0.412466	-0.459001	0.441485	-0.409217	-0.725671	0.356942	-0.366030	-0.698791	0.328778	-0.278498	-0.759646	0.221280	-0.402135	-0.729120	0.193409	-0.300396	-0.712908	0.167980	-0.351835	-0.763393	0.406371	-0.296259	-0.257969	1.481395	-0.028074	-0.202317	1.482519	-0.398455	
63	0.3100	-0.268204	0.985968	-0.084051	-0.241252	0.987103	-0.341149	-0.427543	1.030265	-0.185486	-0.419860	1.033959	-0.284485	-0.313956	0.753501	-0.072969	-0.261404	0.763687	-0.065951	-0.294320	0.712502	-0.077774	-0.239227	0.720114	-0.074958	-0.211564	0.534875	-0.147557	-0.210588	0.538164	-0.244327	-0.277142	0.392805	-0.132778	-0.228645	0.390864	-0.142557	-0.278110	0.353432	-0.138967	-0.230688	0.353586	-0.148241	-0.287660	0.097077	-0.203561	-0.267161	0.098195	-0.296120	-0.172695	0.035760	-0.174400	-0.147569	0.032607	-0.283445	-0.113563	0.052341	-0.228373	-0.359834	0.067926	-0.268469	-0.296167	0.750830	-0.417011	-0.244484	0.752734	-0.410712	-0.294832	0.703453	-0.417267	-0.241012	0.704042	-0.412281	-0.261877	0.527930	-0.397272	-0.263683	0.507982	-0.275085	-0.413234	0.496589	-0.416891	-0.392294	0.456454	-0.412298	-0.454839	0.480607	-0.412773	-0.430198	0.442759	-0.409529	-0.697456	0.360810	-0.365616	-0.670325	0.331778	-0.278255	-0.729730	0.226439	-0.404156	-0.699250	0.196953	-0.302721	-0.682718	0.172728	-0.354635	-0.735714	0.408924	-0.294983	-0.238265	1.480176	-0.026599	-0.184971	1.481482	-0.398082	
64	0.3150	-0.248996	0.984868	-0.083002	-0.222266	0.986801	-0.340506	-0.408591	1.029437	-0.184553	-0.401292	1.032688	-0.283677	-0.297025	0.752033	-0.072928	-0.244393	0.761632	-0.065412	-0.277894	0.710883	-0.077865	-0.222707	0.717847	-0.074447	-0.196973	0.532780	-0.147858	-0.196064	0.536433	-0.244598	-0.265443	0.392460	-0.133184	-0.217143	0.389257	-0.143295	-0.267499	0.353244	-0.139540	-0.220222	0.352103	-0.149135	-0.284876	0.098216	-0.204537	-0.264820	0.098343	-0.297453	-0.171937	0.035196	-0.175277	-0.146877	0.030166	-0.284730	-0.112347	0.049531	-0.229833	-0.358069	0.070580	-0.269140	-0.272424	0.751156	-0.417248	-0.220740	0.754158	-0.410725	-0.270041	0.703836	-0.417746	-0.216227	0.705581	-0.412493	-0.233336	0.529088	-0.397753	-0.234614	0.508868	-0.275225	-0.384179	0.497698	-0.417116	-0.363388	0.457463	-0.412404	-0.425863	0.482006	-0.412983	-0.401401	0.444043	-0.409735	-0.668985	0.364082	-0.365171	-0.641607	0.334288	-0.277956	-0.699267	0.230915	-0.406045	-0.668848	0.199950	-0.304885	-0.651920	0.176973	-0.357231	-0.707933	0.410817	-0.293735	-0.218817	1.479151	-0.025166	-0.167870	1.480594	-0.397746	
65	0.3200	-0.230186	0.983998	-0.081962	-0.203666	0.986663	-0.339859	-0.389995	1.028845	-0.183645	-0.383069	1.031650	-0.282883	-0.280443	0.750881	-0.072841	-0.227743	0.759903	-0.064891	-0.261817	0.709585	-0.077913	-0.206553	0.715912	-0.073942	-0.182843	0.530916	-0.147994	-0.181951	0.534886	-0.244737	-0.254309	0.392366	-0.133432	-0.206207	0.387883	-0.143842	-0.257470	0.353312	-0.139946	-0.210334	0.350850	-0.149829	-0.282718	0.099546	-0.205307	-0.263045	0.098760	-0.298545	-0.171802	0.034736	-0.175948	-0.146770	0.027994	-0.285792	-0.111792	0.046985	-0.231026	-0.356876	0.073421	-0.269626	-0.249106	0.751729	-0.417424	-0.197433	0.755834	-0.410679	-0.245670	0.704480	-0.418150	-0.191876	0.707387	-0.412627	-0.205175	0.530568	-0.398097	-0.205963	0.510126	-0.275249	-0.355421	0.498842	-0.417246	-0.334712	0.458562	-0.412397	-0.397145	0.483356	-0.413098	-0.372793	0.445339	-0.409838	-0.640461	0.366766	-0.364706	-0.612840	0.336322	-0.277611	-0.668499	0.234709	-0.407790	-0.638152	0.202410	-0.306877	-0.620760	0.180702	-0.359608	-0.680234	0.412078	-0.292534	-0.199726	1.478332	-0.023787	-0.151090	1.479870	-0.397443	
66	0.3250	-0.211862	0.983356	-0.080943	-0.185543	0.986692	-0.339215	-0.371847	1.028485	-0.182764	-0.365280	1.030850	-0.282104	-0.264292	0.750037	-0.072706	-0.211536	0.758492	-0.064387	-0.246170	0.708600	-0.077913	-0.190844	0.714301	-0.073445	-0.169248	0.529278	-0.147968	-0.168322	0.533513	-0.244744	-0.243766	0.392500	-0.133525	-0.195860	0.386735	-0.144202	-0.248029	0.353610	-0.140190	-0.201032	0.349823	-0.150325	-0.281077	0.101038	-0.205877	-0.261723	0.099427	-0.299399	-0.172160	0.034371	-0.176429	-0.147122	0.026104	-0.286640	-0.111775	0.044717	-0.231963	-0.356131	0.076409	-0.269938	-0.226345	0.752539	-0.417538	-0.174695	0.757743	-0.410577	-0.221858	0.705377	-0.418478	-0.168100	0.709442	-0.412684	-0.177568	0.532351	-0.398310	-0.177909	0.511735	-0.275160	-0.327148	0.500024	-0.417282	-0.306457	0.459750	-0.412286	-0.368875	0.484662	-0.413120	-0.344568	0.446647	-0.409843	-0.612096	0.368882	-0.364231	-0.584239	0.337899	-0.277229	-0.637684	0.237835	-0.409383	-0.607416	0.204353	-0.308690	-0.589504	0.183913	-0.361754	-0.652810	0.412748	-0.291395	-0.181092	1.477723	-0.022475	-0.134711	1.479319	-0.397168	
67	0.3300	-0.194113	0.982937	-0.079954	-0.167992	0.986886	-0.338581	-0.354238	1.028348	-0.181913	-0.348016	1.030289	-0.281343	-0.248655	0.749485	-0.072524	-0.195855	0.757387	-0.063901	-0.231032	0.707911	-0.077864	-0.175660	0.713000	-0.072955	-0.156254	0.527858	-0.147788	-0.155244	0.532306	-0.244622	-0.233835	0.392833	-0.133474	-0.186124	0.385805	-0.144380	-0.239182	0.354112	-0.140279	-0.192322	0.349012	-0.150630	-0.279848	0.102660	-0.206257	-0.260753	0.100324	-0.300021	-0.172890	0.034093	-0.176737	-0.147819	0.024496	-0.287289	-0.112181	0.042733	-0.232658	-0.355722	0.079503	-0.270086	-0.204272	0.753571	-0.417593	-0.152659	0.759860	-0.410422	-0.198746	0.706508	-0.418731	-0.145039	0.711715	-0.412667	-0.150690	0.534406	-0.398398	-0.150631	0.513662	-0.274967	-0.299550	0.501242	-0.417230	-0.278816	0.461018	-0.412080	-0.341246	0.485927	-0.413057	-0.316922	0.447965	-0.409757	-0.584113	0.370459	-0.363753	-0.556027	0.339047	-0.276819	-0.607089	0.240317	-0.410819	-0.576904	0.205808	-0.310319	-0.558425	0.186613	-0.363665	-0.625863	0.412873	-0.290331	-0.163020	1.477323	-0.021239	-0.118817	1.478943	-0.396919	
68	0.3350	-0.177030	0.982726	-0.079005	-0.151106	0.987235	-0.337963	-0.337264	1.028420	-0.181094	-0.331368	1.029957	-0.280601	-0.233617	0.749203	-0.072295	-0.180781	0.756569	-0.063434	-0.216487	0.707497	-0.077765	-0.161082	0.711990	-0.072475	-0.143927	0.526644	-0.147464	-0.142784	0.531251	-0.244378	-0.224535	0.393337	-0.133290	-0.177015	0.385082	-0.144389	-0.230934	0.354786	-0.140225	-0.184208	0.348406	-0.150753	-0.278942	0.104380	-0.206458	-0.260047	0.101422	-0.300425	-0.173884	0.033891	-0.176890	-0.148757	0.023167	-0.287756	-0.112903	0.041030	-0.233131	-0.355550	0.082662	-0.270087	-0.183020	0.754802	-0.417591	-0.131454	0.762150	-0.410220	-0.176475	0.707850	-0.418911	-0.122832	0.714172	-0.412581	-0.124715	0.536697	-0.398373	-0.124303	0.515868	-0.274679	-0.272814	0.502490	-0.417094	-0.251986	0.462358	-0.411791	-0.314451	0.487150	-0.412914	-0.290053	0.449286	-0.409588	-0.556736	0.371532	-0.363281	-0.528430	0.339798	-0.276392	-0.576985	0.242193	-0.412096	-0.546884	0.206812	-0.311763	-0.527805	0.188823	-0.365338	-0.599595	0.412509	-0.289350	-0.145614	1.477125	-0.020089	-0.103495	1.478739	-0.396693	
69	0.3400	-0.160704	0.982708	-0.078103	-0.134978	0.987728	-0.337368	-0.321018	1.028681	-0.180311	-0.315429	1.029840	-0.279883	-0.219260	0.749166	-0.072022	-0.166396	0.756013	-0.062985	-0.202611	0.707330	-0.077616	-0.147186	0.711247	-0.072007	-0.132321	0.525624	-0.147011	-0.131002	0.530336	-0.244024	-0.215881	0.393981	-0.132987	-0.168549	0.384549	-0.144242	-0.223288	0.355601	-0.140043	-0.176692	0.347987	-0.150710	-0.278277	0.106168	-0.206499	-0.259526	0.102692	-0.300627	-0.175044	0.033756	-0.176910	-0.149845	0.022104	-0.288059	-0.113846	0.039602	-0.233406	-0.355531	0.085844	-0.269958	-0.162713	0.756204	-0.417537	-0.111206	0.764577	-0.409975	-0.155179	0.709371	-0.419022	-0.101613	0.716772	-0.412434	-0.099812	0.539179	-0.398246	-0.099096	0.518304	-0.274309	-0.247125	0.503760	-0.416883	-0.226155	0.463752	-0.411432	-0.288676	0.488330	-0.412700	-0.264157	0.450603	-0.409346	-0.530188	0.372147	-0.362821	-0.501671	0.340191	-0.275954	-0.547643	0.243509	-0.413214	-0.517623	0.207407	-0.313024	-0.497921	0.190568	-0.366778	-0.574206	0.411717	-0.288461	-0.128974	1.477118	-0.019031	-0.088830	1.478700	-0.396487	
70	0.3450	-0.145218	0.982860	-0.077256	-0.119693	0.988348	-0.336802	-0.305588	1.029107	-0.179567	-0.300286	1.029920	-0.279190	-0.205660	0.749342	-0.071711	-0.152775	0.755691	-0.062556	-0.189478	0.707382	-0.077423	-0.134045	0.710745	-0.071552	-0.121486	0.524782	-0.146447	-0.119951	0.529550	-0.243572	-0.207883	0.394735	-0.132584	-0.160734	0.384190	-0.143960	-0.216243	0.356526	-0.139750	-0.169774	0.347739	-0.150520	-0.277784	0.107989	-0.206398	-0.259128	0.104099	-0.300648	-0.176290	0.033677	-0.176818	-0.151006	0.021291	-0.288221	-0.114927	0.038434	-0.233508	-0.355594	0.089008	-0.269716	-0.143469	0.757744	-0.417436	-0.092029	0.767098	-0.409697	-0.134983	0.711036	-0.419069	-0.081504	0.719471	-0.412234	-0.076137	0.541803	-0.398030	-0.075166	0.520917	-0.273869	-0.222655	0.505041	-0.416605	-0.201502	0.465186	-0.411015	-0.264098	0.489465	-0.412424	-0.239416	0.451905	-0.409042	-0.504682	0.372353	-0.362379	-0.475964	0.340268	-0.275514	-0.519321	0.244319	-0.414177	-0.489378	0.207640	-0.314108	-0.469042	0.191883	-0.367992	-0.549887	0.410564	-0.287665	-0.113194	1.477283	-0.018069	-0.074902	1.478812	-0.396299	
71	0.3500	-0.130651	0.983158	-0.076470	-0.105330	0.989073	-0.336268	-0.291058	1.029671	-0.178863	-0.286021	1.030171	-0.278527	-0.192885	0.749699	-0.071367	-0.139985	0.755574	-0.062148	-0.177153	0.707618	-0.077189	-0.121722	0.710453	-0.071112	-0.111459	0.524101	-0.145791	-0.109675	0.528878	-0.243040	-0.200548	0.395569	-0.132098	-0.153576	0.383984	-0.143562	-0.209797	0.357529	-0.139363	-0.163450	0.347642	-0.150203	-0.277406	0.109814	-0.206174	-0.258799	0.105607	-0.300511	-0.177552	0.033644	-0.176635	-0.152177	0.020705	-0.288262	-0.116074	0.037509	-0.233465	-0.355685	0.092116	-0.269383	-0.125391	0.759385	-0.417296	-0.074027	0.769668	-0.409392	-0.116001	0.712806	-0.419059	-0.062616	0.722221	-0.411989	-0.053834	0.544519	-0.397741	-0.052652	0.523652	-0.273376	-0.199559	0.506320	-0.416270	-0.178193	0.466637	-0.410555	-0.240879	0.490551	-0.412097	-0.215999	0.453181	-0.408689	-0.480417	0.372205	-0.361960	-0.451509	0.340074	-0.275079	-0.492264	0.244684	-0.414990	-0.462390	0.207563	-0.315022	-0.441421	0.192811	-0.368992	-0.526812	0.409116	-0.286964	-0.098358	1.477601	-0.017206	-0.061788	1.479061	-0.396127	
72	0.3550	-0.117070	0.983576	-0.075749	-0.091956	0.989882	-0.335772	-0.277499	1.030343	-0.178204	-0.272705	1.030568	-0.277897	-0.180997	0.750201	-0.070999	-0.128086	0.755628	-0.061763	-0.165694	0.708005	-0.076922	-0.110273	0.710340	-0.070690	-0.102266	0.523563	-0.145067	-0.100207	0.528310	-0.242444	-0.193875	0.396455	-0.131550	-0.147073	0.383911	-0.143071	-0.203943	0.358578	-0.138904	-0.157713	0.347673	-0.149783	-0.277098	0.111612	-0.205852	-0.258503	0.107179	-0.300242	-0.178775	0.033647	-0.176382	-0.153306	0.020320	-0.288205	-0.117229	0.036803	-0.233303	-0.355761	0.095128	-0.268977	-0.108571	0.761089	-0.417122	-0.057286	0.772243	-0.409070	-0.098328	0.714641	-0.419000	-0.045043	0.724974	-0.411710	-0.033025	0.547273	-0.397393	-0.031676	0.526448	-0.272845	-0.177974	0.507582	-0.415891	-0.156372	0.468087	-0.410065	-0.219160	0.491582	-0.411731	-0.194057	0.454420	-0.408299	-0.457571	0.371762	-0.361568	-0.428485	0.339656	-0.274657	-0.466692	0.244667	-0.415664	-0.436876	0.207229	-0.315776	-0.415288	0.193396	-0.369793	-0.505139	0.407446	-0.286357	-0.084540	1.478048	-0.016442	-0.049553	1.479426	-0.395971	
73	0.3600	-0.104533	0.984087	-0.075095	-0.079626	0.990749	-0.335315	-0.264971	1.031094	-0.177590	-0.260398	1.031080	-0.277304	-0.170041	0.750814	-0.070614	-0.117124	0.755822	-0.061401	-0.155143	0.708508	-0.076629	-0.099740	0.710374	-0.070288	-0.093924	0.523151	-0.144295	-0.091571	0.527833	-0.241806	-0.187860	0.397364	-0.130960	-0.141218	0.383949	-0.142511	-0.198671	0.359645	-0.138392	-0.152553	0.347810	-0.149283	-0.276827	0.113355	-0.205453	-0.258210	0.108778	-0.299868	-0.179918	0.033677	-0.176080	-0.154357	0.020109	-0.288070	-0.118345	0.036292	-0.233050	-0.355796	0.098012	-0.268519	-0.093077	0.762818	-0.416924	-0.041877	0.774779	-0.408738	-0.082041	0.716501	-0.418899	-0.028860	0.727683	-0.411407	-0.013811	0.550012	-0.397002	-0.012334	0.529249	-0.272290	-0.158012	0.508812	-0.415480	-0.136159	0.469511	-0.409559	-0.199056	0.492554	-0.411338	-0.173713	0.455609	-0.407885	-0.436297	0.371081	-0.361205	-0.407044	0.339063	-0.274253	-0.442795	0.244337	-0.416208	-0.413028	0.206691	-0.316383	-0.390842	0.193689	-0.370414	-0.485002	0.405622	-0.285840	-0.071799	1.478597	-0.015775	-0.038252	1.479884	-0.395828	
74	0.3650	-0.093080	0.984663	-0.074510	-0.068378	0.991648	-0.334901	-0.253520	1.031893	-0.177024	-0.249144	1.031678	-0.276750	-0.160054	0.751503	-0.070222	-0.107133	0.756122	-0.061064	-0.145534	0.709093	-0.076319	-0.090153	0.710523	-0.069909	-0.086436	0.522846	-0.143500	-0.083777	0.527437	-0.241142	-0.182490	0.398272	-0.130347	-0.135998	0.384075	-0.141905	-0.193967	0.360704	-0.137848	-0.147954	0.348030	-0.148728	-0.276568	0.115019	-0.205000	-0.257905	0.110368	-0.299415	-0.180952	0.033727	-0.175747	-0.155303	0.020043	-0.287879	-0.119387	0.035950	-0.232731	-0.355771	0.100735	-0.268029	-0.078962	0.764535	-0.416709	-0.027848	0.777233	-0.408405	-0.067197	0.718344	-0.418766	-0.014119	0.730304	-0.411090	0.003734	0.552686	-0.396584	0.005305	0.531999	-0.271727	-0.139758	0.509995	-0.415048	-0.117646	0.470891	-0.409051	-0.180657	0.493462	-0.410929	-0.155065	0.456737	-0.407459	-0.416716	0.370223	-0.360874	-0.387309	0.338340	-0.273872	-0.420730	0.243759	-0.416634	-0.391001	0.206001	-0.316857	-0.368248	0.193738	-0.370873	-0.466504	0.403710	-0.285407	-0.060178	1.479221	-0.015201	-0.027924	1.480413	-0.395698	
75	0.3700	-0.082737	0.985277	-0.073994	-0.058237	0.992557	-0.334530	-0.243173	1.032714	-0.176507	-0.238973	1.032332	-0.276239	-0.151054	0.752235	-0.069832	-0.098131	0.756497	-0.060753	-0.136883	0.709728	-0.076001	-0.081528	0.710759	-0.069556	-0.079791	0.522632	-0.142703	-0.076825	0.527110	-0.240473	-0.177747	0.399158	-0.129730	-0.131394	0.384269	-0.141276	-0.189812	0.361731	-0.137289	-0.143897	0.348312	-0.148141	-0.276307	0.116583	-0.204514	-0.257580	0.111917	-0.298909	-0.181859	0.033789	-0.175399	-0.156128	0.020091	-0.287650	-0.120330	0.035747	-0.232371	-0.355682	0.103271	-0.267524	-0.066254	0.766205	-0.416484	-0.015224	0.779568	-0.408078	-0.053825	0.720134	-0.418610	-0.000849	0.732797	-0.410770	0.019565	0.555250	-0.396154	0.021200	0.534648	-0.271171	-0.123265	0.511116	-0.414608	-0.100895	0.472207	-0.408551	-0.164020	0.494300	-0.410515	-0.138177	0.457792	-0.407032	-0.398918	0.369243	-0.360575	-0.369369	0.337531	-0.273518	-0.400615	0.242999	-0.416957	-0.370912	0.205209	-0.317215	-0.347631	0.193594	-0.371194	-0.449720	0.401772	-0.285052	-0.049700	1.479893	-0.014716	-0.018597	1.480990	-0.395580	
76	0.3750	-0.073512	0.985905	-0.073546	-0.049207	0.993450	-0.334202	-0.233942	1.033529	-0.176041	-0.229894	1.033012	-0.275773	-0.143044	0.752981	-0.069451	-0.090122	0.756920	-0.060470	-0.129191	0.710385	-0.075683	-0.073864	0.711053	-0.069231	-0.073969	0.522491	-0.141923	-0.070701	0.526844	-0.239816	-0.173607	0.400001	-0.129126	-0.127381	0.384511	-0.140645	-0.186184	0.362705	-0.136735	-0.140358	0.348634	-0.147545	-0.276037	0.118028	-0.204015	-0.257232	0.113393	-0.298376	-0.182631	0.033857	-0.175051	-0.156826	0.020227	-0.287400	-0.121161	0.035658	-0.231992	-0.355529	0.105599	-0.267021	-0.054956	0.767796	-0.416257	-0.004009	0.781751	-0.407765	-0.041934	0.721839	-0.418439	0.010944	0.735128	-0.410454	0.033665	0.557664	-0.395726	0.035340	0.537150	-0.270634	-0.108557	0.512163	-0.414172	-0.085935	0.473440	-0.408072	-0.149173	0.495064	-0.410108	-0.123084	0.458766	-0.406616	-0.382956	0.368195	-0.360310	-0.353277	0.336678	-0.273195	-0.382524	0.242119	-0.417190	-0.352838	0.204360	-0.317471	-0.329072	0.193304	-0.371396	-0.434691	0.399866	-0.284767	-0.040373	1.480586	-0.014314	-0.010279	1.481590	-0.395474	
77	0.3800	-0.065395	0.986526	-0.073161	-0.041276	0.994308	-0.333916	-0.225818	1.034315	-0.175626	-0.221902	1.033694	-0.275353	-0.136014	0.753714	-0.069088	-0.083093	0.757364	-0.060215	-0.122446	0.711036	-0.075373	-0.067149	0.711380	-0.068935	-0.068938	0.522409	-0.141179	-0.065379	0.526630	-0.239187	-0.170039	0.400787	-0.128549	-0.123927	0.384780	-0.140032	-0.183053	0.363610	-0.136200	-0.137309	0.348978	-0.146958	-0.275757	0.119342	-0.203522	-0.256868	0.114774	-0.297837	-0.183267	0.033926	-0.174716	-0.157398	0.020423	-0.287143	-0.121872	0.035656	-0.231611	-0.355320	0.107703	-0.266535	-0.045050	0.769281	-0.416035	0.005818	0.783757	-0.407471	-0.031504	0.723429	-0.418262	0.021282	0.737267	-0.410151	0.046050	0.559894	-0.395310	0.047745	0.539470	-0.270127	-0.095623	0.513125	-0.413750	-0.072761	0.474576	-0.407622	-0.136107	0.495752	-0.409718	-0.109784	0.459651	-0.406220	-0.368844	0.367125	-0.360078	-0.339050	0.335818	-0.272904	-0.366490	0.241175	-0.417348	-0.336811	0.203494	-0.317642	-0.312610	0.192915	-0.371504	-0.421423	0.398039	-0.284544	-0.032184	1.481278	-0.013985	-0.002962	1.482192	-0.395380	
78	0.3850	-0.058359	0.987119	-0.072838	-0.034413	0.995111	-0.333671	-0.218775	1.035054	-0.175262	-0.214971	1.034355	-0.274982	-0.129934	0.754412	-0.068750	-0.077016	0.757808	-0.059988	-0.116619	0.711662	-0.075079	-0.061350	0.711720	-0.068670	-0.064654	0.522371	-0.140487	-0.060822	0.526459	-0.238599	-0.167007	0.401504	-0.128012	-0.120996	0.385062	-0.139451	-0.180390	0.364432	-0.135698	-0.134718	0.349325	-0.146399	-0.275470	0.120515	-0.203050	-0.256495	0.116037	-0.297313	-0.183775	0.033993	-0.174403	-0.157851	0.020656	-0.286892	-0.122463	0.035718	-0.231244	-0.355069	0.109574	-0.266078	-0.036496	0.770639	-0.415824	0.014299	0.785564	-0.407201	-0.022495	0.724882	-0.418085	0.030206	0.739194	-0.409868	0.056764	0.561915	-0.394919	0.058464	0.541577	-0.269659	-0.084423	0.513994	-0.413352	-0.061338	0.475604	-0.407208	-0.124785	0.496363	-0.409351	-0.098243	0.460442	-0.405851	-0.356561	0.366077	-0.359878	-0.326665	0.334981	-0.272647	-0.352502	0.240215	-0.417445	-0.322822	0.202647	-0.317746	-0.298235	0.192466	-0.371538	-0.409891	0.396332	-0.284374	-0.025101	1.481945	-0.013723	0.003377	1.482777	-0.395297	
79	0.3900	-0.052359	0.987670	-0.072570	-0.028572	0.995846	-0.333464	-0.212769	1.035731	-0.174946	-0.209058	1.034975	-0.274657	-0.124763	0.755057	-0.068441	-0.071847	0.758234	-0.059790	-0.111666	0.712243	-0.074807	-0.056426	0.712053	-0.068436	-0.061066	0.522365	-0.139856	-0.056983	0.526325	-0.238062	-0.164470	0.402143	-0.127525	-0.118548	0.385341	-0.138916	-0.178158	0.365165	-0.135238	-0.132550	0.349663	-0.145880	-0.275183	0.121543	-0.202611	-0.256124	0.117168	-0.296820	-0.184166	0.034054	-0.174118	-0.158197	0.020904	-0.286656	-0.122942	0.035822	-0.230903	-0.354791	0.111208	-0.265659	-0.029229	0.771854	-0.415628	0.021500	0.787160	-0.406959	-0.014839	0.726181	-0.417916	0.037785	0.740897	-0.409610	0.065879	0.563709	-0.394559	0.067572	0.543451	-0.269237	-0.074884	0.514763	-0.412986	-0.051598	0.476516	-0.406836	-0.115137	0.496895	-0.409016	-0.088396	0.461137	-0.405516	-0.346052	0.365084	-0.359708	-0.316066	0.334195	-0.272424	-0.340507	0.239283	-0.417495	-0.310819	0.201847	-0.317796	-0.285899	0.191992	-0.371517	-0.400035	0.394777	-0.284248	-0.019075	1.482571	-0.013519	0.008779	1.483329	-0.395225	
80	0.3950	-0.047335	0.988167	-0.072353	-0.023690	0.996502	-0.333294	-0.207741	1.036334	-0.174678	-0.204107	1.035539	-0.274380	-0.120443	0.755636	-0.068167	-0.067531	0.758627	-0.059620	-0.107534	0.712767	-0.074562	-0.052319	0.712366	-0.068235	-0.058114	0.522382	-0.139297	-0.053808	0.526222	-0.237585	-0.162385	0.402700	-0.127093	-0.116539	0.385606	-0.138437	-0.176320	0.365802	-0.134828	-0.130767	0.349978	-0.145413	-0.274904	0.122425	-0.202214	-0.255765	0.118159	-0.296369	-0.184455	0.034108	-0.173867	-0.158449	0.021152	-0.286442	-0.123317	0.035949	-0.230596	-0.354501	0.112607	-0.265286	-0.023169	0.772918	-0.415451	0.027501	0.788541	-0.406746	-0.008453	0.727318	-0.417758	0.044104	0.742369	-0.409380	0.073492	0.565267	-0.394238	0.075172	0.545083	-0.268866	-0.066910	0.515431	-0.412656	-0.043446	0.477308	-0.406510	-0.107066	0.497350	-0.408716	-0.080150	0.461735	-0.405219	-0.337227	0.364174	-0.359567	-0.307165	0.333478	-0.272234	-0.330413	0.238412	-0.417509	-0.300714	0.201116	-0.317806	-0.275510	0.191524	-0.371458	-0.391767	0.393395	-0.284159	-0.014041	1.483141	-0.013364	0.013298	1.483833	-0.395164	
81	0.4000	-0.043213	0.988603	-0.072180	-0.019691	0.997071	-0.333155	-0.203617	1.036856	-0.174455	-0.200043	1.036037	-0.274147	-0.116908	0.756142	-0.067929	-0.063998	0.758977	-0.059478	-0.104155	0.713226	-0.074347	-0.048964	0.712650	-0.068064	-0.055735	0.522411	-0.138813	-0.051234	0.526144	-0.237171	-0.160705	0.403174	-0.126720	-0.114921	0.385848	-0.138020	-0.174835	0.366344	-0.134472	-0.129328	0.350262	-0.145004	-0.274640	0.123166	-0.201866	-0.255431	0.119006	-0.295970	-0.184658	0.034154	-0.173652	-0.158624	0.021386	-0.286255	-0.123601	0.036085	-0.230329	-0.354214	0.113779	-0.264961	-0.018217	0.773826	-0.415296	0.032402	0.789708	-0.406564	-0.003234	0.728288	-0.417617	0.049265	0.743613	-0.409182	0.079720	0.566590	-0.393958	0.081383	0.546469	-0.268547	-0.060380	0.515998	-0.412368	-0.036763	0.477981	-0.406230	-0.100453	0.497732	-0.408456	-0.073385	0.462239	-0.404963	-0.329970	0.363366	-0.359452	-0.299843	0.332844	-0.272076	-0.322097	0.237626	-0.417500	-0.292384	0.200468	-0.317790	-0.266944	0.191083	-0.371379	-0.384975	0.392199	-0.284098	-0.009921	1.483644	-0.013250	0.017003	1.484282	-0.395112	
82	0.4050	-0.039908	0.988974	-0.072047	-0.016491	0.997553	-0.333046	-0.200310	1.037297	-0.174274	-0.196785	1.036464	-0.273956	-0.114081	0.756570	-0.067728	-0.061174	0.759278	-0.059360	-0.101455	0.713616	-0.074163	-0.046284	0.712896	-0.067923	-0.053861	0.522446	-0.138406	-0.049194	0.526086	-0.236822	-0.159380	0.403566	-0.126408	-0.113648	0.386061	-0.137666	-0.173661	0.366791	-0.134172	-0.128193	0.350510	-0.144656	-0.274400	0.123773	-0.201570	-0.255129	0.119711	-0.295628	-0.184793	0.034192	-0.173473	-0.158738	0.021596	-0.286096	-0.123808	0.036217	-0.230103	-0.353944	0.114739	-0.264688	-0.014263	0.774582	-0.415164	0.036313	0.790669	-0.406413	0.000933	0.729094	-0.417494	0.053385	0.744638	-0.409015	0.084699	0.567684	-0.393721	0.086344	0.547617	-0.268281	-0.055156	0.516467	-0.412123	-0.031410	0.478538	-0.405996	-0.095159	0.498044	-0.408235	-0.067964	0.462652	-0.404747	-0.324141	0.362670	-0.359360	-0.293961	0.332301	-0.271947	-0.315404	0.236942	-0.417475	-0.285676	0.199914	-0.317758	-0.260045	0.190687	-0.371290	-0.379523	0.391193	-0.284060	-0.006626	1.484077	-0.013168	0.019970	1.484667	-0.395069	
