PathFileType	4	(X/Y/Z)	 P7 -130r2 02.trc
DataRate	CameraRate	NumFrames	NumMarkers	Units	OrigDataRate	OrigDataStartFrame	OrigNumFrames
200	200	76	38	m	200	1	76
Frame#	Time	RASIS			LASIS			RPSIS			LPSIS			RThighRear1			RThighFront1			RThighRear2			RThighFront2			RKneeLat			RKneeMed			RShankRear1			RShankFront1			RShankRear2			RShankFront2			RAnkleLat			RAnkleMed			RM5			RM1			RMid			RHeel			LThighRear1			LThighFront1			LThighRear2			LThighFront2			LKneeLat			LKneeMed			LShankRear1			LShankFront1			LShankRear2			LShankFront2			LAnkleLat			LAnkleMed			LM5			LM1			LMid			LHeel			RShoulder			LShoulder			
		X1	Y1	Z1	X2	Y2	Z2	X3	Y3	Z3	X4	Y4	Z4	X5	Y5	Z5	X6	Y6	Z6	X7	Y7	Z7	X8	Y8	Z8	X9	Y9	Z9	X10	Y10	Z10	X11	Y11	Z11	X12	Y12	Z12	X13	Y13	Z13	X14	Y14	Z14	X15	Y15	Z15	X16	Y16	Z16	X17	Y17	Z17	X18	Y18	Z18	X19	Y19	Z19	X20	Y20	Z20	X21	Y21	Z21	X22	Y22	Z22	X23	Y23	Z23	X24	Y24	Z24	X25	Y25	Z25	X26	Y26	Z26	X27	Y27	Z27	X28	Y28	Z28	X29	Y29	Z29	X30	Y30	Z30	X31	Y31	Z31	X32	Y32	Z32	X33	Y33	Z33	X34	Y34	Z34	X35	Y35	Z35	X36	Y36	Z36	X37	Y37	Z37	X38	Y38	Z38	
1	0.0000	-1.400168	0.908015	-0.250655	-1.422062	0.912947	-0.514610	-1.566373	0.950846	-0.345408	-1.569650	0.957858	-0.433657	-1.486675	0.717793	-0.208368	-1.438386	0.714927	-0.227118	-1.491339	0.689136	-0.209643	-1.446932	0.680566	-0.229133	-1.541736	0.420271	-0.249849	-1.536372	0.414466	-0.359156	-1.681541	0.398083	-0.224845	-1.668085	0.359576	-0.245842	-1.721631	0.390115	-0.225803	-1.717655	0.349863	-0.244857	-1.946873	0.333876	-0.263695	-1.929847	0.317314	-0.354214	-2.001976	0.198536	-0.250787	-1.984886	0.194870	-0.363252	-1.971357	0.143851	-0.302070	-1.978495	0.399201	-0.324170	-1.417482	0.732547	-0.568478	-1.368719	0.753883	-0.553970	-1.398552	0.698398	-0.566828	-1.355616	0.722167	-0.557068	-1.265290	0.505840	-0.511523	-1.274528	0.505144	-0.404873	-1.317654	0.353290	-0.541694	-1.277224	0.350125	-0.522135	-1.327411	0.309533	-0.538239	-1.287615	0.306778	-0.522986	-1.344345	0.095176	-0.496975	-1.336399	0.116207	-0.408922	-1.231399	0.046057	-0.509578	-1.222585	0.054474	-0.396916	-1.172847	0.080888	-0.454442	-1.422970	0.063617	-0.442177	-1.308606	1.376738	-0.221853	-1.355345	1.371320	-0.582481	
2	0.0050	-1.384230	0.906657	-0.250644	-1.407028	0.912598	-0.514823	-1.551278	0.949064	-0.344388	-1.554585	0.957102	-0.432571	-1.466035	0.715969	-0.208879	-1.417791	0.714618	-0.227754	-1.469744	0.687304	-0.210000	-1.425170	0.680287	-0.229582	-1.511557	0.418958	-0.251297	-1.506339	0.413904	-0.360894	-1.650820	0.396579	-0.225426	-1.637618	0.358281	-0.247022	-1.691000	0.388908	-0.226111	-1.687365	0.348892	-0.245715	-1.917119	0.335271	-0.263056	-1.900555	0.318340	-0.353588	-1.970460	0.199630	-0.249178	-1.954309	0.195282	-0.361516	-1.939639	0.144825	-0.300221	-1.950035	0.400272	-0.323549	-1.404317	0.731301	-0.568259	-1.355342	0.751859	-0.553688	-1.385913	0.696834	-0.566627	-1.342712	0.719962	-0.556847	-1.255493	0.502161	-0.511935	-1.264291	0.501504	-0.405348	-1.310902	0.350766	-0.541439	-1.270528	0.346743	-0.522382	-1.321578	0.307400	-0.537912	-1.281877	0.303775	-0.523044	-1.343370	0.094709	-0.496573	-1.334685	0.115424	-0.408324	-1.230899	0.044892	-0.509790	-1.221758	0.052685	-0.396860	-1.172133	0.077919	-0.454070	-1.422265	0.063814	-0.441531	-1.294786	1.375877	-0.221851	-1.340623	1.368955	-0.583244	
3	0.0100	-1.368082	0.905284	-0.250625	-1.391798	0.912218	-0.515038	-1.535981	0.947259	-0.343348	-1.539320	0.956326	-0.431465	-1.445104	0.714176	-0.209388	-1.396918	0.714378	-0.228394	-1.447839	0.685517	-0.210367	-1.403104	0.680085	-0.230035	-1.480867	0.417778	-0.252812	-1.475820	0.413504	-0.362697	-1.619583	0.395119	-0.226062	-1.606620	0.357027	-0.248264	-1.659861	0.387723	-0.226459	-1.656552	0.347937	-0.246620	-1.886911	0.336546	-0.262397	-1.870821	0.319262	-0.352950	-1.938369	0.200555	-0.247567	-1.923188	0.195536	-0.359778	-1.907309	0.145649	-0.298394	-1.921202	0.401204	-0.322880	-1.391015	0.730012	-0.568033	-1.341824	0.749778	-0.553414	-1.373153	0.695222	-0.566420	-1.329678	0.717694	-0.556636	-1.245643	0.498390	-0.512360	-1.253967	0.497759	-0.405847	-1.304123	0.348176	-0.541182	-1.263811	0.343287	-0.522635	-1.315726	0.305210	-0.537581	-1.276129	0.300706	-0.523104	-1.342418	0.094221	-0.496154	-1.332992	0.114626	-0.407712	-1.230397	0.043745	-0.510006	-1.220924	0.050916	-0.396812	-1.171416	0.074978	-0.453704	-1.421589	0.063967	-0.440864	-1.280769	1.375001	-0.221843	-1.325670	1.366563	-0.584012	
4	0.0150	-1.351737	0.903910	-0.250596	-1.376382	0.911800	-0.515254	-1.520490	0.945444	-0.342290	-1.523865	0.955534	-0.430341	-1.423905	0.712454	-0.209890	-1.375796	0.714248	-0.229033	-1.425649	0.683818	-0.210744	-1.380765	0.680003	-0.230491	-1.449695	0.416806	-0.254406	-1.444853	0.413342	-0.364570	-1.587839	0.393738	-0.226770	-1.575090	0.355852	-0.249581	-1.628219	0.386580	-0.226859	-1.625207	0.347017	-0.247583	-1.856228	0.337619	-0.261729	-1.840622	0.320015	-0.352311	-1.905635	0.201240	-0.245982	-1.891458	0.195572	-0.358068	-1.874289	0.146272	-0.296629	-1.891990	0.401895	-0.322161	-1.377603	0.728682	-0.567795	-1.328189	0.747640	-0.553149	-1.360300	0.693565	-0.566205	-1.316543	0.715366	-0.556435	-1.235792	0.494540	-0.512795	-1.243603	0.493920	-0.406367	-1.297355	0.345533	-0.540924	-1.257114	0.339774	-0.522892	-1.309889	0.302977	-0.537248	-1.270405	0.297588	-0.523166	-1.341502	0.093717	-0.495721	-1.331334	0.113821	-0.407091	-1.229900	0.042624	-0.510225	-1.220093	0.049184	-0.396773	-1.170702	0.072094	-0.453346	-1.420951	0.064076	-0.440180	-1.266563	1.374121	-0.221826	-1.310480	1.364164	-0.584775	
5	0.0200	-1.335198	0.902549	-0.250555	-1.360782	0.911340	-0.515469	-1.504803	0.943634	-0.341214	-1.508219	0.954733	-0.429200	-1.402452	0.710840	-0.210380	-1.354445	0.714267	-0.229664	-1.403189	0.682253	-0.211131	-1.358175	0.680086	-0.230945	-1.418055	0.416119	-0.256086	-1.413464	0.413492	-0.366517	-1.555587	0.392469	-0.227563	-1.543016	0.354793	-0.250985	-1.596066	0.385499	-0.227327	-1.593311	0.346151	-0.248617	-1.825027	0.338410	-0.261061	-1.809920	0.320531	-0.351683	-1.872169	0.201613	-0.244453	-1.859035	0.195330	-0.356417	-1.840481	0.146647	-0.294966	-1.862372	0.402241	-0.321393	-1.364098	0.727316	-0.567541	-1.314456	0.745449	-0.552893	-1.347375	0.691870	-0.565977	-1.303329	0.712980	-0.556244	-1.225988	0.490625	-0.513236	-1.233248	0.489997	-0.406908	-1.290634	0.342851	-0.540667	-1.250475	0.336222	-0.523153	-1.304101	0.300713	-0.536916	-1.264740	0.294438	-0.523228	-1.340631	0.093200	-0.495275	-1.329726	0.113019	-0.406467	-1.229415	0.041537	-0.510446	-1.219273	0.047503	-0.396745	-1.170000	0.069292	-0.452998	-1.420363	0.064143	-0.439483	-1.252172	1.373248	-0.221794	-1.295036	1.361777	-0.585522	
6	0.0250	-1.318463	0.901218	-0.250499	-1.344990	0.910833	-0.515680	-1.488912	0.941841	-0.340122	-1.492374	0.953927	-0.428044	-1.380753	0.709375	-0.210854	-1.332877	0.714477	-0.230280	-1.380467	0.680867	-0.211529	-1.335350	0.680377	-0.231397	-1.385962	0.415792	-0.257859	-1.381677	0.414032	-0.368541	-1.522819	0.391348	-0.228456	-1.510380	0.353891	-0.252488	-1.563387	0.384498	-0.227874	-1.560833	0.345362	-0.249732	-1.793253	0.338835	-0.260407	-1.778657	0.320742	-0.351081	-1.837868	0.201607	-0.243012	-1.825817	0.194756	-0.354860	-1.805772	0.146732	-0.293447	-1.832306	0.402134	-0.320579	-1.350510	0.725917	-0.567267	-1.300637	0.743206	-0.552647	-1.334393	0.690145	-0.565733	-1.290052	0.710541	-0.556061	-1.216277	0.486664	-0.513679	-1.222947	0.486006	-0.407464	-1.283996	0.340147	-0.540411	-1.243930	0.332652	-0.523415	-1.298393	0.298434	-0.536585	-1.259165	0.291276	-0.523292	-1.339812	0.092677	-0.494819	-1.328180	0.112228	-0.405845	-1.228948	0.040487	-0.510667	-1.218475	0.045887	-0.396728	-1.169317	0.066593	-0.452662	-1.419833	0.064172	-0.438779	-1.237593	1.372396	-0.221743	-1.279316	1.359426	-0.586241	
7	0.0300	-1.301523	0.899934	-0.250426	-1.328994	0.910276	-0.515885	-1.472804	0.940083	-0.339014	-1.476318	0.953125	-0.426875	-1.358810	0.708097	-0.211306	-1.311103	0.714917	-0.230876	-1.357489	0.679703	-0.211936	-1.312299	0.680919	-0.231841	-1.353426	0.415900	-0.259732	-1.349514	0.415031	-0.370641	-1.489523	0.390408	-0.229461	-1.477158	0.353184	-0.254099	-1.530162	0.383596	-0.228514	-1.527743	0.344669	-0.250940	-1.760839	0.338815	-0.259781	-1.746770	0.320582	-0.350520	-1.802619	0.201161	-0.241693	-1.791695	0.193802	-0.353432	-1.770043	0.146492	-0.292114	-1.801734	0.401469	-0.319725	-1.336843	0.724495	-0.566968	-1.286738	0.740916	-0.552409	-1.321363	0.688401	-0.565467	-1.276723	0.708055	-0.555885	-1.206702	0.482675	-0.514117	-1.212743	0.481963	-0.408032	-1.277472	0.337442	-0.540160	-1.237512	0.329088	-0.523676	-1.292793	0.296160	-0.536259	-1.253711	0.288124	-0.523355	-1.339050	0.092154	-0.494359	-1.326704	0.111459	-0.405231	-1.228505	0.039476	-0.510887	-1.217708	0.044344	-0.396722	-1.168660	0.064016	-0.452338	-1.419367	0.064170	-0.438077	-1.222820	1.371578	-0.221665	-1.263291	1.357135	-0.586919	
8	0.0350	-1.284365	0.898716	-0.250336	-1.312778	0.909668	-0.516081	-1.456461	0.938375	-0.337892	-1.460033	0.952334	-0.425695	-1.336625	0.707042	-0.211732	-1.289126	0.715625	-0.231444	-1.334258	0.678804	-0.212352	-1.289033	0.681751	-0.232276	-1.320465	0.416508	-0.261706	-1.317002	0.416552	-0.372814	-1.455690	0.389680	-0.230588	-1.443334	0.352709	-0.255826	-1.496375	0.382809	-0.229257	-1.494008	0.344094	-0.252249	-1.727714	0.338273	-0.259200	-1.714188	0.319988	-0.350018	-1.766312	0.200224	-0.240530	-1.756556	0.192427	-0.352169	-1.733177	0.145903	-0.291008	-1.770593	0.400142	-0.318842	-1.323098	0.723057	-0.566639	-1.272761	0.738585	-0.552176	-1.308290	0.686648	-0.565176	-1.263347	0.705529	-0.555711	-1.197299	0.478681	-0.514546	-1.202677	0.477892	-0.408603	-1.271091	0.334757	-0.539912	-1.231250	0.325555	-0.523934	-1.287325	0.293911	-0.535938	-1.248401	0.285008	-0.523419	-1.338350	0.091640	-0.493898	-1.325307	0.110723	-0.404633	-1.228094	0.038503	-0.511105	-1.216981	0.042883	-0.396726	-1.168036	0.061577	-0.452026	-1.418968	0.064151	-0.437385	-1.207844	1.370811	-0.221555	-1.246932	1.354929	-0.587544	
9	0.0400	-1.266977	0.897581	-0.250227	-1.296322	0.909008	-0.516265	-1.439864	0.936734	-0.336759	-1.443502	0.951564	-0.424506	-1.314200	0.706246	-0.212127	-1.266955	0.716634	-0.231978	-1.310779	0.678208	-0.212775	-1.265563	0.682910	-0.232698	-1.287101	0.417676	-0.263781	-1.284171	0.418649	-0.375056	-1.421320	0.389190	-0.231843	-1.408896	0.352500	-0.257673	-1.462013	0.382151	-0.230112	-1.459605	0.343656	-0.253664	-1.693808	0.337142	-0.258682	-1.680840	0.318906	-0.349591	-1.728840	0.198756	-0.239558	-1.720293	0.190602	-0.351107	-1.695064	0.144951	-0.290170	-1.738814	0.398058	-0.317943	-1.309270	0.721615	-0.566276	-1.258703	0.736222	-0.551943	-1.295172	0.684901	-0.564854	-1.249924	0.702974	-0.555535	-1.188103	0.474709	-0.514958	-1.192787	0.473819	-0.409170	-1.264878	0.332120	-0.539670	-1.225169	0.322085	-0.524187	-1.282010	0.291712	-0.535625	-1.243257	0.281955	-0.523482	-1.337711	0.091146	-0.493444	-1.323991	0.110033	-0.404057	-1.227719	0.037568	-0.511319	-1.216304	0.041508	-0.396740	-1.167453	0.059285	-0.451726	-1.418637	0.064132	-0.436712	-1.192657	1.370110	-0.221408	-1.230211	1.352834	-0.588103	
10	0.0450	-1.249343	0.896551	-0.250099	-1.279608	0.908300	-0.516434	-1.422994	0.935178	-0.335618	-1.426705	0.950824	-0.423314	-1.291538	0.705740	-0.212488	-1.244595	0.717972	-0.232471	-1.287059	0.677951	-0.213204	-1.241900	0.684425	-0.233104	-1.253370	0.419453	-0.265950	-1.251063	0.421364	-0.377358	-1.386419	0.388964	-0.233231	-1.373844	0.352589	-0.259640	-1.427074	0.381635	-0.231085	-1.424521	0.343372	-0.255191	-1.659056	0.335361	-0.258246	-1.646661	0.317285	-0.349258	-1.690107	0.196727	-0.238810	-1.682807	0.188308	-0.350280	-1.655609	0.143633	-0.289637	-1.706326	0.395130	-0.317044	-1.295351	0.720184	-0.565874	-1.244560	0.733837	-0.551708	-1.282005	0.683178	-0.564498	-1.236455	0.700402	-0.555350	-1.179139	0.470790	-0.515346	-1.183110	0.469773	-0.409723	-1.258851	0.329560	-0.539434	-1.219290	0.318709	-0.524432	-1.276867	0.289592	-0.535320	-1.238296	0.278997	-0.523544	-1.337130	0.090684	-0.493001	-1.322755	0.109403	-0.403512	-1.227388	0.036665	-0.511525	-1.215685	0.040220	-0.396761	-1.166916	0.057146	-0.451438	-1.418371	0.064133	-0.436068	-1.177252	1.369494	-0.221218	-1.213099	1.350877	-0.588582	
11	0.0500	-1.231452	0.895644	-0.249951	-1.262616	0.907548	-0.516585	-1.405831	0.933724	-0.334471	-1.409624	0.950125	-0.422122	-1.268648	0.705550	-0.212810	-1.222056	0.719660	-0.232916	-1.263110	0.678059	-0.213637	-1.218061	0.686318	-0.233489	-1.219317	0.421874	-0.268206	-1.217731	0.424726	-0.379705	-1.351008	0.389019	-0.234750	-1.338192	0.353002	-0.261724	-1.391567	0.381269	-0.232180	-1.388753	0.343256	-0.256830	-1.623398	0.332882	-0.257911	-1.611591	0.315086	-0.349039	-1.650035	0.194125	-0.238318	-1.644015	0.185542	-0.349723	-1.614733	0.141961	-0.289441	-1.673062	0.391284	-0.316166	-1.281332	0.718778	-0.565431	-1.230324	0.731444	-0.551463	-1.268783	0.681497	-0.564102	-1.222934	0.697830	-0.555150	-1.170431	0.466956	-0.515703	-1.173675	0.465791	-0.410251	-1.253028	0.327110	-0.539204	-1.213626	0.315464	-0.524666	-1.271906	0.287579	-0.535026	-1.233530	0.276167	-0.523605	-1.336601	0.090269	-0.492578	-1.321596	0.108847	-0.403005	-1.227104	0.035790	-0.511723	-1.215135	0.039021	-0.396788	-1.166431	0.055163	-0.451159	-1.418162	0.064182	-0.435464	-1.161624	1.368980	-0.220979	-1.195574	1.349085	-0.588968	
12	0.0550	-1.213293	0.894879	-0.249784	-1.245332	0.906760	-0.516716	-1.388362	0.932390	-0.333324	-1.392243	0.949480	-0.420934	-1.245542	0.705697	-0.213092	-1.199352	0.721713	-0.233306	-1.238949	0.678556	-0.214069	-1.194066	0.688605	-0.233850	-1.185004	0.424963	-0.270534	-1.184236	0.428745	-0.382083	-1.315123	0.389367	-0.236397	-1.301970	0.353758	-0.263918	-1.355516	0.381058	-0.233397	-1.352320	0.343323	-0.258577	-1.586788	0.329668	-0.257699	-1.575583	0.312280	-0.348951	-1.608568	0.190952	-0.238111	-1.603853	0.182310	-0.349466	-1.572385	0.139957	-0.289611	-1.638963	0.386461	-0.315332	-1.267202	0.717416	-0.564943	-1.215989	0.729060	-0.551203	-1.255496	0.679880	-0.563664	-1.209356	0.695276	-0.554927	-1.161992	0.463244	-0.516019	-1.164511	0.461911	-0.410743	-1.247417	0.324806	-0.538982	-1.208188	0.312386	-0.524886	-1.267135	0.285707	-0.534743	-1.228963	0.273500	-0.523662	-1.336112	0.089920	-0.492183	-1.320504	0.108382	-0.402546	-1.226874	0.034936	-0.511909	-1.214659	0.037907	-0.396818	-1.166004	0.053332	-0.450887	-1.417999	0.064309	-0.434912	-1.145769	1.368586	-0.220688	-1.177619	1.347485	-0.589248	
13	0.0600	-1.194860	0.894273	-0.249600	-1.227741	0.905946	-0.516823	-1.370573	0.931193	-0.332181	-1.374551	0.948901	-0.419756	-1.222237	0.706196	-0.213329	-1.176500	0.724138	-0.233637	-1.214600	0.679455	-0.214497	-1.169940	0.691291	-0.234185	-1.150505	0.428726	-0.272919	-1.150654	0.433418	-0.384470	-1.278813	0.390013	-0.238162	-1.265226	0.354871	-0.266210	-1.318958	0.381003	-0.234732	-1.315252	0.343579	-0.260428	-1.549195	0.325697	-0.257628	-1.538602	0.308850	-0.349013	-1.565671	0.187225	-0.238217	-1.562278	0.178636	-0.349537	-1.528538	0.137658	-0.290170	-1.603975	0.380619	-0.314566	-1.252949	0.716118	-0.564409	-1.201546	0.726702	-0.550923	-1.242134	0.678349	-0.563181	-1.195713	0.692761	-0.554674	-1.153831	0.459694	-0.516289	-1.155635	0.458176	-0.411186	-1.242022	0.322684	-0.538767	-1.202976	0.309517	-0.525090	-1.262553	0.284011	-0.534472	-1.224595	0.271034	-0.523717	-1.335649	0.089655	-0.491823	-1.319466	0.108027	-0.402142	-1.226700	0.034099	-0.512082	-1.214264	0.036877	-0.396848	-1.165641	0.051649	-0.450620	-1.417864	0.064552	-0.434423	-1.129688	1.368328	-0.220339	-1.159223	1.346102	-0.589409	
14	0.0650	-1.176148	0.893843	-0.249401	-1.209833	0.905117	-0.516903	-1.352456	0.930151	-0.331047	-1.356539	0.948402	-0.418594	-1.198758	0.707055	-0.213521	-1.153520	0.726933	-0.233903	-1.190093	0.680764	-0.214918	-1.145714	0.694373	-0.234488	-1.115907	0.433154	-0.275338	-1.117070	0.438725	-0.386846	-1.242142	0.390955	-0.240033	-1.228023	0.356347	-0.268585	-1.281947	0.381100	-0.236180	-1.277600	0.344030	-0.262373	-1.510600	0.320961	-0.257719	-1.500629	0.304790	-0.349241	-1.521336	0.182974	-0.238656	-1.519274	0.174555	-0.349957	-1.483195	0.135111	-0.291133	-1.568057	0.373732	-0.313895	-1.238561	0.714905	-0.563826	-1.186985	0.724393	-0.550615	-1.228684	0.676929	-0.562650	-1.181997	0.690310	-0.554384	-1.145945	0.456347	-0.516502	-1.147062	0.454632	-0.411567	-1.236838	0.320785	-0.538559	-1.197986	0.306898	-0.525275	-1.258156	0.282528	-0.534213	-1.220418	0.268809	-0.523766	-1.335194	0.089497	-0.491505	-1.318464	0.107800	-0.401800	-1.226587	0.033274	-0.512238	-1.213957	0.035925	-0.396875	-1.165345	0.050102	-0.450357	-1.417736	0.064950	-0.434008	-1.113386	1.368225	-0.219929	-1.140382	1.344961	-0.589440	
15	0.0700	-1.157160	0.893603	-0.249188	-1.191604	0.904288	-0.516955	-1.334009	0.929278	-0.329929	-1.338201	0.947996	-0.417454	-1.175133	0.708276	-0.213667	-1.130438	0.730086	-0.234100	-1.165461	0.682480	-0.215326	-1.121421	0.697838	-0.234758	-1.081309	0.438223	-0.277768	-1.083578	0.444628	-0.389183	-1.205191	0.392182	-0.241992	-1.190441	0.358185	-0.271023	-1.244551	0.381339	-0.237730	-1.239431	0.344675	-0.264399	-1.471004	0.315466	-0.257990	-1.461661	0.300107	-0.349649	-1.475584	0.178247	-0.239446	-1.474849	0.170115	-0.350744	-1.436388	0.132373	-0.292511	-1.531179	0.365794	-0.313347	-1.224025	0.713801	-0.563196	-1.172298	0.722155	-0.550275	-1.215132	0.675646	-0.562070	-1.168198	0.687948	-0.554048	-1.138326	0.453245	-0.516654	-1.138796	0.451324	-0.411874	-1.231855	0.319149	-0.538357	-1.193206	0.304569	-0.525437	-1.253930	0.281295	-0.533968	-1.216418	0.266862	-0.523810	-1.334725	0.089473	-0.491239	-1.317476	0.107724	-0.401528	-1.226537	0.032458	-0.512374	-1.213739	0.035049	-0.396894	-1.165120	0.048682	-0.450094	-1.417588	0.065549	-0.433676	-1.096872	1.368290	-0.219455	-1.121101	1.344085	-0.589330	
16	0.0750	-1.137901	0.893565	-0.248965	-1.173052	0.903475	-0.516976	-1.315230	0.928591	-0.328832	-1.319538	0.947696	-0.416341	-1.151396	0.709852	-0.213764	-1.107280	0.733579	-0.234225	-1.140746	0.684591	-0.215716	-1.097098	0.701663	-0.234991	-1.046819	0.443890	-0.280183	-1.050278	0.451072	-0.391456	-1.168050	0.393678	-0.244020	-1.152577	0.360375	-0.273503	-1.206851	0.381708	-0.239369	-1.200828	0.345512	-0.266491	-1.430425	0.309233	-0.258455	-1.421715	0.294821	-0.350251	-1.428460	0.173102	-0.240597	-1.429038	0.165375	-0.351909	-1.388179	0.129511	-0.294304	-1.493328	0.356820	-0.312949	-1.209329	0.712827	-0.562520	-1.157476	0.720012	-0.549896	-1.201464	0.674525	-0.561442	-1.154305	0.685702	-0.553662	-1.130955	0.450428	-0.516737	-1.130833	0.448299	-0.412096	-1.227054	0.317816	-0.538162	-1.188615	0.302572	-0.525573	-1.249855	0.280350	-0.533735	-1.212573	0.265234	-0.523846	-1.334215	0.089610	-0.491029	-1.316475	0.107819	-0.401331	-1.226551	0.031650	-0.512488	-1.213614	0.034246	-0.396904	-1.164970	0.047374	-0.449829	-1.417389	0.066397	-0.433437	-1.080155	1.368537	-0.218916	-1.101392	1.343493	-0.589071	
17	0.0800	-1.118380	0.893738	-0.248735	-1.154180	0.902694	-0.516964	-1.296127	0.928099	-0.327762	-1.300553	0.947516	-0.415261	-1.127583	0.711770	-0.213814	-1.084078	0.737383	-0.234277	-1.115991	0.687080	-0.216084	-1.072786	0.705817	-0.235183	-1.012554	0.450098	-0.282554	-1.017276	0.457987	-0.393635	-1.130822	0.395416	-0.246093	-1.114537	0.362897	-0.276000	-1.168939	0.382188	-0.241080	-1.161888	0.346529	-0.268631	-1.388898	0.302299	-0.259128	-1.380822	0.288962	-0.351056	-1.380039	0.167610	-0.242115	-1.381905	0.160403	-0.353457	-1.338659	0.126598	-0.296505	-1.454504	0.346843	-0.312729	-1.194461	0.712008	-0.561799	-1.142510	0.717991	-0.549476	-1.187665	0.673591	-0.560766	-1.140306	0.683598	-0.553218	-1.123804	0.447936	-0.516748	-1.123157	0.445602	-0.412222	-1.222407	0.316823	-0.537973	-1.184184	0.300946	-0.525682	-1.245903	0.279729	-0.533514	-1.208852	0.263961	-0.523874	-1.333635	0.089940	-0.490884	-1.315431	0.108111	-0.401215	-1.226628	0.030853	-0.512578	-1.213578	0.033516	-0.396900	-1.164895	0.046165	-0.449562	-1.417102	0.067544	-0.433296	-1.063250	1.368978	-0.218311	-1.081274	1.343203	-0.588653	
18	0.0850	-1.098610	0.894128	-0.248502	-1.134997	0.901964	-0.516920	-1.276708	0.927815	-0.326725	-1.281253	0.947467	-0.414219	-1.103736	0.714008	-0.213817	-1.060863	0.741461	-0.234255	-1.091245	0.689917	-0.216424	-1.048525	0.710259	-0.235333	-0.978631	0.456777	-0.284852	-0.984678	0.465292	-0.395693	-1.093616	0.397363	-0.248186	-1.076438	0.365727	-0.278486	-1.130919	0.382757	-0.242846	-1.122721	0.347715	-0.270800	-1.346476	0.294711	-0.260019	-1.339033	0.282573	-0.352071	-1.330422	0.161849	-0.243996	-1.333537	0.155275	-0.355385	-1.287946	0.123711	-0.299099	-1.414722	0.335913	-0.312710	-1.179412	0.711364	-0.561039	-1.127392	0.716114	-0.549011	-1.173720	0.672867	-0.560044	-1.126191	0.681663	-0.552714	-1.116836	0.445806	-0.516681	-1.115744	0.443275	-0.412244	-1.217879	0.316209	-0.537787	-1.179878	0.299725	-0.525761	-1.242039	0.279468	-0.533304	-1.205219	0.263077	-0.523891	-1.332952	0.090493	-0.490806	-1.314309	0.108624	-0.401182	-1.226768	0.030076	-0.512640	-1.213630	0.032859	-0.396881	-1.164896	0.045041	-0.449292	-1.416686	0.069045	-0.433258	-1.046174	1.369620	-0.217639	-1.060774	1.343227	-0.588071	
19	0.0900	-1.078607	0.894735	-0.248270	-1.115513	0.901304	-0.516842	-1.256986	0.927746	-0.325727	-1.261651	0.947560	-0.413222	-1.079896	0.716538	-0.213773	-1.037667	0.745769	-0.234159	-1.066555	0.693065	-0.216729	-1.024356	0.714940	-0.235439	-0.945170	0.463842	-0.287049	-0.952587	0.472892	-0.397602	-1.056547	0.399480	-0.250270	-1.038406	0.368831	-0.280935	-1.092898	0.383388	-0.244646	-1.083445	0.349049	-0.272975	-1.303230	0.286531	-0.261135	-1.296415	0.275706	-0.353299	-1.279732	0.155905	-0.246231	-1.284048	0.150071	-0.357683	-1.236184	0.120926	-0.302063	-1.374017	0.324101	-0.312916	-1.164170	0.710915	-0.560244	-1.112113	0.714408	-0.548499	-1.159611	0.672375	-0.559281	-1.111944	0.679924	-0.552147	-1.110005	0.444069	-0.516537	-1.108558	0.441355	-0.412156	-1.213429	0.316004	-0.537605	-1.175653	0.298942	-0.525809	-1.238221	0.279599	-0.533103	-1.201632	0.262615	-0.523897	-1.332131	0.091306	-0.490798	-1.313070	0.109383	-0.401235	-1.226966	0.029330	-0.512673	-1.213762	0.032283	-0.396843	-1.164972	0.043990	-0.449018	-1.416095	0.070952	-0.433325	-1.028943	1.370470	-0.216902	-1.039924	1.343573	-0.587321	
20	0.0950	-1.058393	0.895559	-0.248042	-1.095743	0.900731	-0.516730	-1.236979	0.927895	-0.324774	-1.241761	0.947805	-0.412273	-1.056106	0.719326	-0.213683	-1.014522	0.750258	-0.233991	-1.041970	0.696483	-0.216995	-1.000319	0.719804	-0.235498	-0.912287	0.471199	-0.289116	-0.921102	0.480682	-0.399336	-1.019733	0.401722	-0.252319	-1.000567	0.372166	-0.283317	-1.054989	0.384051	-0.246458	-1.044183	0.350509	-0.275133	-1.259246	0.277831	-0.262477	-1.253051	0.268422	-0.354739	-1.228118	0.149865	-0.248803	-1.233575	0.144873	-0.360334	-1.183538	0.118320	-0.305367	-1.332438	0.311493	-0.313365	-1.148726	0.710680	-0.559420	-1.096665	0.712894	-0.547942	-1.145323	0.672131	-0.558480	-1.097554	0.678402	-0.551516	-1.103256	0.442751	-0.516316	-1.101551	0.439872	-0.411954	-1.209006	0.316238	-0.537424	-1.171459	0.298622	-0.525825	-1.234401	0.280150	-0.532910	-1.198040	0.262600	-0.523890	-1.331132	0.092413	-0.490862	-1.311673	0.110415	-0.401372	-1.227215	0.028634	-0.512675	-1.213963	0.031794	-0.396788	-1.165119	0.043002	-0.448743	-1.415281	0.073318	-0.433495	-1.011577	1.371529	-0.216101	-1.018762	1.344247	-0.586399	
21	0.1000	-1.037988	0.896593	-0.247822	-1.075707	0.900262	-0.516584	-1.216707	0.928264	-0.323870	-1.221600	0.948209	-0.411375	-1.032408	0.722330	-0.213550	-0.991458	0.754870	-0.233755	-1.017540	0.700118	-0.217216	-0.976453	0.724790	-0.235509	-0.880090	0.478745	-0.291027	-0.890316	0.488553	-0.400870	-0.983288	0.404038	-0.254305	-0.963050	0.375686	-0.285605	-1.017307	0.384713	-0.248259	-1.005064	0.352068	-0.277253	-1.214627	0.268690	-0.264045	-1.209041	0.260788	-0.356385	-1.175746	0.143820	-0.251689	-1.182273	0.139761	-0.363312	-1.130195	0.115963	-0.308973	-1.290053	0.298191	-0.314071	-1.133070	0.710671	-0.558575	-1.081041	0.711592	-0.547341	-1.130840	0.672149	-0.557649	-1.083006	0.677119	-0.550822	-1.096527	0.441871	-0.516021	-1.094664	0.438848	-0.411638	-1.204554	0.316932	-0.537243	-1.167240	0.298786	-0.525808	-1.230523	0.281145	-0.532722	-1.194388	0.263054	-0.523868	-1.329916	0.093851	-0.490997	-1.310075	0.111746	-0.401592	-1.227508	0.028010	-0.512646	-1.214219	0.031406	-0.396714	-1.165331	0.042070	-0.448469	-1.414191	0.076195	-0.433762	-0.994095	1.372796	-0.215239	-0.997330	1.345247	-0.585305	
22	0.1050	-1.017415	0.897827	-0.247613	-1.055424	0.899914	-0.516407	-1.196193	0.928850	-0.323021	-1.201190	0.948775	-0.410533	-1.008844	0.725505	-0.213373	-0.968505	0.759547	-0.233453	-0.993308	0.703917	-0.217387	-0.952790	0.729832	-0.235471	-0.848681	0.486370	-0.292758	-0.860308	0.496392	-0.402184	-0.947327	0.406375	-0.256200	-0.925982	0.379338	-0.287773	-0.979966	0.385340	-0.250026	-0.966216	0.353694	-0.279310	-1.169491	0.259196	-0.265830	-1.164498	0.252878	-0.358231	-1.122801	0.137856	-0.254858	-1.130320	0.134813	-0.366586	-1.076357	0.113920	-0.312835	-1.246948	0.284306	-0.315044	-1.117196	0.710899	-0.557717	-1.065232	0.710518	-0.546700	-1.116145	0.672438	-0.556793	-1.068285	0.676090	-0.550070	-1.089746	0.441437	-0.515658	-1.087830	0.438296	-0.411212	-1.200009	0.318104	-0.537060	-1.162932	0.299445	-0.525761	-1.226528	0.282602	-0.532536	-1.190617	0.263990	-0.523832	-1.328441	0.095655	-0.491198	-1.308229	0.113401	-0.401890	-1.227830	0.027488	-0.512584	-1.214512	0.031136	-0.396622	-1.165600	0.041193	-0.448201	-1.412770	0.079630	-0.434119	-0.976515	1.374264	-0.214319	-0.975674	1.346568	-0.584041	
23	0.1100	-0.996701	0.899247	-0.247418	-1.034918	0.899700	-0.516198	-1.175461	0.929646	-0.322228	-1.180551	0.949505	-0.409748	-0.985451	0.728801	-0.213156	-0.945688	0.764223	-0.233091	-0.969317	0.707819	-0.217503	-0.929363	0.734861	-0.235383	-0.818146	0.493964	-0.294289	-0.831148	0.504083	-0.403261	-0.911955	0.408678	-0.257979	-0.889481	0.383065	-0.289796	-0.943076	0.385896	-0.251737	-0.927766	0.355356	-0.281284	-1.123966	0.249440	-0.267823	-1.119549	0.244768	-0.360262	-1.069483	0.132055	-0.258274	-1.077905	0.130100	-0.370118	-1.022236	0.112244	-0.316903	-1.203224	0.269962	-0.316288	-1.101096	0.711368	-0.556855	-1.049231	0.709684	-0.546024	-1.101224	0.673000	-0.555922	-1.053377	0.675325	-0.549264	-1.082839	0.441451	-0.515234	-1.080970	0.438218	-0.410681	-1.195304	0.319760	-0.536874	-1.158471	0.300604	-0.525684	-1.222349	0.284531	-0.532350	-1.186661	0.265417	-0.523780	-1.326664	0.097861	-0.491461	-1.306089	0.115404	-0.402259	-1.228167	0.027105	-0.512490	-1.214818	0.031007	-0.396517	-1.165912	0.040372	-0.447945	-1.410962	0.083668	-0.434553	-0.958854	1.375924	-0.213344	-0.953841	1.348198	-0.582610	
24	0.1150	-0.975871	0.900836	-0.247237	-1.014214	0.899631	-0.515960	-1.154538	0.930643	-0.321497	-1.159707	0.950398	-0.409022	-0.962265	0.732167	-0.212900	-0.923030	0.768836	-0.232673	-0.945606	0.711761	-0.217558	-0.906195	0.739808	-0.235244	-0.788558	0.501413	-0.295603	-0.802889	0.511517	-0.404087	-0.877271	0.410891	-0.259620	-0.853662	0.386808	-0.291652	-0.906743	0.386345	-0.253372	-0.889837	0.357016	-0.283154	-1.078197	0.239516	-0.270008	-1.074332	0.236535	-0.362463	-1.016004	0.126490	-0.261893	-1.025234	0.125684	-0.373863	-0.968058	0.110976	-0.321124	-1.159001	0.255290	-0.317802	-1.084763	0.712078	-0.555998	-1.033030	0.709098	-0.545320	-1.086059	0.673831	-0.555044	-1.038264	0.674831	-0.548413	-1.075725	0.441903	-0.514759	-1.073999	0.438604	-0.410056	-1.190367	0.321901	-0.536683	-1.153784	0.302258	-0.525582	-1.217919	0.286938	-0.532162	-1.182456	0.267334	-0.523713	-1.324540	0.100502	-0.491777	-1.303605	0.117777	-0.402691	-1.228496	0.026899	-0.512365	-1.215108	0.031042	-0.396401	-1.166251	0.039615	-0.447708	-1.408709	0.088346	-0.435048	-0.941129	1.377763	-0.212319	-0.931881	1.350122	-0.581018	
25	0.1200	-0.954950	0.902571	-0.247073	-0.993336	0.899715	-0.515696	-1.133452	0.931826	-0.320828	-1.138684	0.951448	-0.408355	-0.939315	0.735546	-0.212604	-0.900552	0.773320	-0.232206	-0.922205	0.715681	-0.217550	-0.883308	0.744603	-0.235054	-0.759975	0.508609	-0.296687	-0.775570	0.518586	-0.404655	-0.843365	0.412959	-0.261103	-0.818625	0.390506	-0.293324	-0.871065	0.386653	-0.254910	-0.852543	0.358637	-0.284900	-1.032336	0.229517	-0.272366	-1.028997	0.228256	-0.364814	-0.962586	0.121228	-0.265671	-0.972521	0.121614	-0.377773	-0.914054	0.110143	-0.325438	-1.114414	0.240424	-0.319581	-1.068192	0.713022	-0.555155	-1.016620	0.708760	-0.544598	-1.070637	0.674923	-0.554168	-1.022931	0.674606	-0.547526	-1.068321	0.442773	-0.514248	-1.066824	0.439433	-0.409350	-1.185122	0.324519	-0.536487	-1.148801	0.304395	-0.525457	-1.213167	0.289820	-0.531967	-1.177931	0.269733	-0.523630	-1.322026	0.103608	-0.492137	-1.300729	0.120542	-0.403176	-1.228791	0.026918	-0.512212	-1.215349	0.031273	-0.396281	-1.166594	0.038936	-0.447501	-1.405951	0.093697	-0.435587	-0.923354	1.379761	-0.211249	-0.909841	1.352317	-0.579271	
26	0.1250	-0.933963	0.904430	-0.246925	-0.972311	0.899955	-0.515406	-1.112230	0.933176	-0.320223	-1.117507	0.952645	-0.407748	-0.916627	0.738885	-0.212272	-0.878268	0.777613	-0.231696	-0.899141	0.719513	-0.217474	-0.860716	0.749178	-0.234813	-0.732437	0.515447	-0.297536	-0.749213	0.525192	-0.404961	-0.810312	0.414828	-0.262413	-0.784462	0.394096	-0.294795	-0.836132	0.386786	-0.256336	-0.815991	0.360182	-0.286508	-0.986546	0.219537	-0.274875	-0.983702	0.220004	-0.367293	-0.909455	0.116319	-0.269556	-0.919990	0.117930	-0.381796	-0.860455	0.109758	-0.329787	-1.069615	0.225501	-0.321611	-1.051375	0.714187	-0.554337	-0.999994	0.708668	-0.543865	-1.054944	0.676258	-0.553306	-1.007362	0.674644	-0.546614	-1.060540	0.444031	-0.513714	-1.059348	0.440672	-0.408581	-1.179492	0.327597	-0.536284	-1.143447	0.306990	-0.525316	-1.208018	0.293165	-0.531765	-1.173017	0.272596	-0.523534	-1.319075	0.107208	-0.492529	-1.297411	0.123714	-0.403701	-1.229022	0.027211	-0.512035	-1.215500	0.031731	-0.396163	-1.166913	0.038352	-0.447334	-1.402629	0.099742	-0.436147	-0.905543	1.381897	-0.210137	-0.887769	1.354760	-0.577381	
27	0.1300	-0.912936	0.906385	-0.246792	-0.951165	0.900351	-0.515094	-1.090902	0.934672	-0.319684	-1.096201	0.953976	-0.407199	-0.894221	0.742128	-0.211903	-0.856189	0.781654	-0.231148	-0.876433	0.723195	-0.217327	-0.838429	0.753470	-0.234521	-0.705965	0.521830	-0.298145	-0.723824	0.531248	-0.405007	-0.778180	0.416450	-0.263538	-0.751250	0.397518	-0.296057	-0.802026	0.386714	-0.257635	-0.780280	0.361613	-0.287964	-0.940998	0.209662	-0.277509	-0.938611	0.211850	-0.369874	-0.856843	0.111803	-0.273496	-0.867865	0.114655	-0.385877	-0.807495	0.109814	-0.334109	-1.024767	0.210657	-0.323878	-1.034310	0.715554	-0.553553	-0.983143	0.708810	-0.543133	-1.038964	0.677813	-0.552466	-0.991541	0.674931	-0.545690	-1.052297	0.445635	-0.513175	-1.051469	0.442274	-0.407768	-1.173400	0.331109	-0.536075	-1.137647	0.310014	-0.525165	-1.202398	0.296955	-0.531553	-1.167643	0.275900	-0.523427	-1.315644	0.111324	-0.492939	-1.293601	0.127308	-0.404254	-1.229149	0.027829	-0.511838	-1.215517	0.032451	-0.396058	-1.167175	0.037889	-0.447220	-1.398686	0.106496	-0.436706	-0.887704	1.384147	-0.208988	-0.865711	1.357419	-0.575356	
28	0.1350	-0.891891	0.908408	-0.246671	-0.929922	0.900900	-0.514762	-1.069494	0.936287	-0.319208	-1.074792	0.955424	-0.406706	-0.872113	0.745225	-0.211499	-0.834325	0.785388	-0.230567	-0.854096	0.726668	-0.217107	-0.816450	0.757420	-0.234179	-0.680563	0.527672	-0.298518	-0.699393	0.536678	-0.404800	-0.747019	0.417781	-0.264471	-0.719051	0.400715	-0.297102	-0.768817	0.386411	-0.258797	-0.745495	0.362892	-0.289257	-0.895867	0.199975	-0.280240	-0.893895	0.203858	-0.372532	-0.804982	0.107704	-0.277438	-0.816377	0.111798	-0.389961	-0.755404	0.110290	-0.338345	-0.980047	0.196023	-0.326359	-1.016990	0.717100	-0.552811	-0.966059	0.709170	-0.542413	-1.022685	0.679557	-0.551660	-0.975449	0.675448	-0.544767	-1.043505	0.447537	-0.512649	-1.043085	0.444186	-0.406934	-1.166766	0.335022	-0.535861	-1.131327	0.313426	-0.525011	-1.196234	0.301162	-0.531329	-1.161740	0.279612	-0.523311	-1.311685	0.115974	-0.493354	-1.289249	0.131332	-0.404821	-1.229127	0.028826	-0.511627	-1.215346	0.033470	-0.395973	-1.167338	0.037575	-0.447173	-1.394063	0.113963	-0.437237	-0.869847	1.386482	-0.207807	-0.843708	1.360261	-0.573209	
29	0.1400	-0.870850	0.910468	-0.246559	-0.908605	0.901592	-0.514412	-1.048034	0.937994	-0.318796	-1.053305	0.956969	-0.406269	-0.850311	0.748124	-0.211058	-0.812678	0.788765	-0.229960	-0.832134	0.729876	-0.216813	-0.794777	0.760976	-0.233785	-0.656217	0.532898	-0.298660	-0.675894	0.541421	-0.404349	-0.716871	0.418780	-0.265209	-0.687916	0.403630	-0.297929	-0.736566	0.385852	-0.259815	-0.711710	0.363983	-0.290382	-0.851335	0.190549	-0.283039	-0.849730	0.196085	-0.375238	-0.754100	0.104034	-0.281328	-0.765751	0.109353	-0.393993	-0.704403	0.111148	-0.342438	-0.935642	0.181724	-0.329030	-0.999411	0.718792	-0.552121	-0.948732	0.709728	-0.541716	-1.006094	0.681455	-0.550897	-0.959070	0.676167	-0.543861	-1.034081	0.449677	-0.512156	-1.034093	0.446340	-0.406103	-1.159513	0.339294	-0.535643	-1.124413	0.317179	-0.524863	-1.189451	0.305754	-0.531094	-1.155239	0.283692	-0.523190	-1.307153	0.121171	-0.493759	-1.284306	0.135790	-0.405388	-1.228904	0.030256	-0.511409	-1.214930	0.034823	-0.395922	-1.167353	0.037444	-0.447207	-1.388705	0.122137	-0.437716	-0.851978	1.388871	-0.206598	-0.821799	1.363249	-0.570955	
30	0.1450	-0.849831	0.912534	-0.246451	-0.887237	0.902416	-0.514045	-1.026548	0.939760	-0.318446	-1.031763	0.958586	-0.405884	-0.828818	0.750781	-0.210582	-0.791249	0.791740	-0.229330	-0.810547	0.732768	-0.216443	-0.773404	0.764093	-0.233342	-0.632899	0.537445	-0.298584	-0.653290	0.545430	-0.403671	-0.687761	0.419416	-0.265755	-0.657878	0.406215	-0.298540	-0.705322	0.385021	-0.260685	-0.678989	0.364854	-0.291334	-0.807582	0.181452	-0.285875	-0.806289	0.188578	-0.377967	-0.704423	0.100787	-0.285117	-0.716209	0.107297	-0.397920	-0.654707	0.112335	-0.346334	-0.891746	0.167878	-0.331864	-0.981567	0.720597	-0.551489	-0.931152	0.710456	-0.541053	-0.989178	0.683466	-0.550187	-0.942387	0.677058	-0.542985	-1.023945	0.451992	-0.511717	-1.024394	0.448664	-0.405300	-1.151566	0.343876	-0.535424	-1.116835	0.321219	-0.524730	-1.181977	0.310688	-0.530849	-1.148072	0.288095	-0.523070	-1.302000	0.126918	-0.494140	-1.278722	0.140681	-0.405941	-1.228418	0.032168	-0.511193	-1.214202	0.036546	-0.395916	-1.167163	0.037531	-0.447339	-1.382555	0.131001	-0.438117	-0.834100	1.391280	-0.205363	-0.800019	1.366344	-0.568607	
31	0.1500	-0.828851	0.914576	-0.246340	-0.865836	0.903353	-0.513663	-1.005060	0.941553	-0.318155	-1.010189	0.960248	-0.405549	-0.807632	0.753156	-0.210070	-0.770035	0.794278	-0.228681	-0.789327	0.735302	-0.215997	-0.752319	0.766735	-0.232849	-0.610563	0.541266	-0.298304	-0.631529	0.548675	-0.402785	-0.659705	0.419665	-0.266114	-0.628959	0.408424	-0.298940	-0.675126	0.383903	-0.261408	-0.647383	0.365474	-0.292114	-0.764792	0.172738	-0.288719	-0.763749	0.181379	-0.380690	-0.656164	0.097945	-0.288754	-0.667967	0.105596	-0.401690	-0.606519	0.113782	-0.349984	-0.848560	0.154590	-0.334831	-0.963452	0.722474	-0.550921	-0.913309	0.711322	-0.540433	-0.971926	0.685545	-0.549539	-0.925381	0.678086	-0.542154	-1.013020	0.454411	-0.511350	-1.013890	0.451079	-0.404552	-1.142849	0.348715	-0.535208	-1.108522	0.325486	-0.524622	-1.173741	0.315919	-0.530595	-1.140176	0.292768	-0.522957	-1.296179	0.133215	-0.494484	-1.272447	0.145999	-0.406467	-1.227601	0.034611	-0.510990	-1.213091	0.038670	-0.395969	-1.166702	0.037876	-0.447584	-1.375561	0.140526	-0.438417	-0.816215	1.393677	-0.204107	-0.778395	1.369505	-0.566180	
32	0.1550	-0.807924	0.916564	-0.246220	-0.844420	0.904385	-0.513267	-0.983591	0.943338	-0.317920	-0.988603	0.961926	-0.405261	-0.786746	0.755214	-0.209521	-0.749028	0.796352	-0.228017	-0.768461	0.737441	-0.215475	-0.731508	0.768873	-0.232307	-0.589152	0.544327	-0.297839	-0.610549	0.551140	-0.401712	-0.632707	0.419508	-0.266298	-0.601166	0.410220	-0.299142	-0.646007	0.382491	-0.261987	-0.616928	0.365814	-0.292726	-0.723141	0.164453	-0.291541	-0.722280	0.174517	-0.383382	-0.609531	0.095478	-0.292197	-0.621230	0.104201	-0.405258	-0.560026	0.115412	-0.353346	-0.806284	0.141954	-0.337900	-0.945061	0.724381	-0.550422	-0.895191	0.712292	-0.539867	-0.954324	0.687643	-0.548960	-0.908035	0.679209	-0.541382	-1.001235	0.456861	-0.511076	-1.002492	0.453503	-0.403885	-1.133293	0.353750	-0.534999	-1.099408	0.329918	-0.524549	-1.164676	0.321394	-0.530336	-1.131486	0.297657	-0.522856	-1.289640	0.140050	-0.494776	-1.265429	0.151730	-0.406955	-1.226374	0.037626	-0.510809	-1.211517	0.041222	-0.396093	-1.165895	0.038518	-0.447957	-1.367671	0.150673	-0.438592	-0.798324	1.396025	-0.202831	-0.756952	1.372690	-0.563690	
33	0.1600	-0.787060	0.918467	-0.246082	-0.823002	0.905487	-0.512855	-0.962162	0.945082	-0.317737	-0.967024	0.963586	-0.405015	-0.766145	0.756928	-0.208936	-0.728219	0.797941	-0.227338	-0.747930	0.739155	-0.214880	-0.710951	0.770491	-0.231716	-0.568598	0.546609	-0.297209	-0.590281	0.552827	-0.400477	-0.606760	0.418936	-0.266319	-0.574494	0.411569	-0.299157	-0.617983	0.380780	-0.262429	-0.587653	0.365852	-0.293175	-0.682803	0.156634	-0.294315	-0.682049	0.168014	-0.386020	-0.564712	0.093344	-0.295406	-0.576189	0.103054	-0.408584	-0.515400	0.117136	-0.356383	-0.765119	0.130050	-0.341039	-0.926384	0.726272	-0.549995	-0.876786	0.713329	-0.539362	-0.936360	0.689710	-0.548458	-0.890329	0.680388	-0.540682	-0.988523	0.459267	-0.510913	-0.990114	0.455852	-0.403323	-1.122829	0.358921	-0.534804	-1.089428	0.334448	-0.524521	-1.154714	0.327058	-0.530076	-1.121942	0.302702	-0.522777	-1.282332	0.147408	-0.495008	-1.257619	0.157856	-0.407394	-1.224652	0.041245	-0.510664	-1.209396	0.044225	-0.396303	-1.164659	0.039493	-0.448473	-1.358835	0.161391	-0.438624	-0.780424	1.398289	-0.201537	-0.735706	1.375858	-0.561153	
34	0.1650	-0.766266	0.920260	-0.245918	-0.801590	0.906634	-0.512429	-0.940788	0.946748	-0.317602	-0.945467	0.965198	-0.404809	-0.745813	0.758276	-0.208312	-0.707596	0.799035	-0.226645	-0.727711	0.740427	-0.214213	-0.690626	0.771580	-0.231078	-0.548825	0.548109	-0.296438	-0.570651	0.553749	-0.399105	-0.581849	0.417945	-0.266195	-0.548927	0.412448	-0.299003	-0.591066	0.378773	-0.262744	-0.559574	0.365567	-0.293472	-0.643942	0.149303	-0.297015	-0.643213	0.161881	-0.388582	-0.521883	0.091491	-0.298349	-0.533020	0.102087	-0.411632	-0.472795	0.118858	-0.359070	-0.725259	0.118945	-0.344218	-0.907412	0.728103	-0.549642	-0.858080	0.714392	-0.538924	-0.918019	0.691696	-0.548038	-0.872244	0.681578	-0.540064	-0.974824	0.461556	-0.510878	-0.976678	0.458046	-0.402889	-1.111392	0.364161	-0.534629	-1.078520	0.339010	-0.524548	-1.143792	0.332851	-0.529821	-1.111484	0.307843	-0.522726	-1.274201	0.155260	-0.495171	-1.248962	0.164350	-0.407777	-1.222341	0.045493	-0.510565	-1.206636	0.047696	-0.396611	-1.162900	0.040837	-0.449146	-1.349004	0.172622	-0.438497	-0.762511	1.400434	-0.200225	-0.714670	1.378968	-0.558584	
35	0.1700	-0.745547	0.921918	-0.245718	-0.780193	0.907797	-0.511985	-0.919482	0.948303	-0.317510	-0.923945	0.966727	-0.404639	-0.725728	0.759245	-0.207650	-0.687144	0.799633	-0.225939	-0.707774	0.741244	-0.213478	-0.670510	0.772141	-0.230393	-0.529750	0.548835	-0.295549	-0.551579	0.553936	-0.397623	-0.557949	0.416542	-0.265945	-0.524441	0.412839	-0.298698	-0.565257	0.376476	-0.262945	-0.532695	0.364945	-0.293629	-0.606710	0.142476	-0.299619	-0.605919	0.156123	-0.391050	-0.481200	0.089863	-0.301000	-0.491883	0.101227	-0.414376	-0.432345	0.120482	-0.361385	-0.686891	0.108688	-0.347408	-0.888135	0.729827	-0.549362	-0.839058	0.715444	-0.538558	-0.899288	0.693552	-0.547702	-0.853759	0.682738	-0.539538	-0.960084	0.463659	-0.510985	-0.962118	0.460007	-0.402604	-1.098921	0.369407	-0.534481	-1.066626	0.343537	-0.524639	-1.131850	0.338714	-0.529580	-1.100056	0.313019	-0.522713	-1.265192	0.163572	-0.495260	-1.239407	0.171183	-0.408098	-1.219337	0.050383	-0.510527	-1.203139	0.051640	-0.397030	-1.160517	0.042582	-0.449988	-1.338132	0.184294	-0.438202	-0.744580	1.402429	-0.198898	-0.693847	1.381981	-0.555997	
36	0.1750	-0.724902	0.923418	-0.245472	-0.758811	0.908949	-0.511523	-0.898253	0.949718	-0.317455	-0.902466	0.968141	-0.404500	-0.705865	0.759829	-0.206950	-0.666846	0.799741	-0.225219	-0.688088	0.741603	-0.212677	-0.650577	0.772184	-0.229662	-0.511288	0.548810	-0.294567	-0.532986	0.553426	-0.396058	-0.535031	0.414738	-0.265591	-0.501003	0.412733	-0.298262	-0.540551	0.373901	-0.263046	-0.507014	0.363974	-0.293661	-0.571248	0.136158	-0.302110	-0.570303	0.150736	-0.393409	-0.442798	0.088396	-0.303341	-0.452915	0.100398	-0.416795	-0.394162	0.121911	-0.363318	-0.650188	0.099314	-0.350581	-0.868540	0.731401	-0.549153	-0.819703	0.716446	-0.538266	-0.880150	0.695229	-0.547454	-0.834854	0.683825	-0.539112	-0.944255	0.465511	-0.511246	-0.946374	0.461664	-0.402482	-1.085359	0.374595	-0.534370	-1.053690	0.347967	-0.524804	-1.118830	0.344586	-0.529360	-1.087602	0.318170	-0.522745	-1.255245	0.172301	-0.495271	-1.228897	0.178315	-0.408356	-1.215531	0.055915	-0.510563	-1.198802	0.056056	-0.397571	-1.157399	0.044752	-0.451007	-1.326173	0.196331	-0.437732	-0.726624	1.404242	-0.197553	-0.673238	1.384859	-0.553409	
37	0.1800	-0.704327	0.924742	-0.245171	-0.737442	0.910060	-0.511038	-0.877107	0.950962	-0.317432	-0.881037	0.969408	-0.404390	-0.686195	0.760030	-0.206211	-0.646684	0.799375	-0.224482	-0.668620	0.741513	-0.211814	-0.630801	0.771728	-0.228886	-0.493355	0.548069	-0.293517	-0.514794	0.552271	-0.394435	-0.513060	0.412551	-0.265154	-0.478573	0.412129	-0.297718	-0.516934	0.371062	-0.263064	-0.482518	0.362650	-0.293583	-0.537678	0.130343	-0.304472	-0.536483	0.145707	-0.395649	-0.406786	0.087029	-0.305360	-0.416232	0.099524	-0.418879	-0.358336	0.123049	-0.364868	-0.615310	0.090845	-0.353711	-0.848612	0.732786	-0.549012	-0.799997	0.717363	-0.538047	-0.860590	0.696687	-0.547292	-0.815506	0.684804	-0.538788	-0.927295	0.467057	-0.511666	-0.929395	0.462958	-0.402537	-1.070651	0.379663	-0.534303	-1.039658	0.352239	-0.525048	-1.104677	0.350408	-0.529170	-1.074070	0.323238	-0.522832	-1.244301	0.181396	-0.495207	-1.217376	0.185704	-0.408550	-1.210807	0.062078	-0.510685	-1.193519	0.060934	-0.398245	-1.153429	0.047365	-0.452212	-1.313083	0.208646	-0.437089	-0.708634	1.405845	-0.196189	-0.652835	1.387571	-0.550831	
38	0.1850	-0.683817	0.925877	-0.244804	-0.716082	0.911103	-0.510526	-0.856045	0.952012	-0.317435	-0.859659	0.970500	-0.404303	-0.666690	0.759856	-0.205432	-0.626638	0.798557	-0.223727	-0.649333	0.740986	-0.210895	-0.611154	0.770799	-0.228066	-0.475865	0.546654	-0.292421	-0.496929	0.550529	-0.392781	-0.491996	0.410004	-0.264657	-0.457106	0.411031	-0.297087	-0.494386	0.367980	-0.263016	-0.459187	0.360972	-0.293412	-0.506105	0.125022	-0.306696	-0.504561	0.141023	-0.397762	-0.373252	0.085698	-0.307055	-0.381928	0.098532	-0.420623	-0.324933	0.123812	-0.366041	-0.582396	0.083286	-0.356776	-0.828334	0.733946	-0.548933	-0.779920	0.718164	-0.537899	-0.840587	0.697888	-0.547216	-0.795693	0.685640	-0.538569	-0.909168	0.468248	-0.512251	-0.911142	0.463838	-0.402776	-1.054747	0.384555	-0.534289	-1.024478	0.356300	-0.525378	-1.089339	0.356122	-0.529022	-1.059406	0.328171	-0.522982	-1.232295	0.190798	-0.495072	-1.204786	0.193302	-0.408684	-1.205044	0.068844	-0.510906	-1.187179	0.066252	-0.399059	-1.148482	0.050430	-0.453606	-1.298819	0.221150	-0.436278	-0.690599	1.407214	-0.194806	-0.632626	1.390086	-0.548276	
39	0.1900	-0.663361	0.926811	-0.244361	-0.694720	0.912051	-0.509984	-0.835065	0.952847	-0.317456	-0.838331	0.971392	-0.404236	-0.647318	0.759323	-0.204616	-0.606689	0.797317	-0.222950	-0.630194	0.740046	-0.209924	-0.591609	0.769431	-0.227204	-0.458741	0.544617	-0.291302	-0.479322	0.548263	-0.391117	-0.471798	0.407125	-0.264123	-0.436556	0.409452	-0.296392	-0.472885	0.364676	-0.262919	-0.436997	0.358944	-0.293166	-0.476613	0.120175	-0.308774	-0.474621	0.136662	-0.399743	-0.342257	0.084345	-0.308430	-0.350070	0.097354	-0.422031	-0.293995	0.124122	-0.366851	-0.551562	0.076630	-0.359758	-0.807689	0.734850	-0.548908	-0.759452	0.718821	-0.537816	-0.820123	0.698801	-0.547220	-0.775392	0.686305	-0.538453	-0.889846	0.469050	-0.512998	-0.891585	0.464268	-0.403201	-1.037603	0.389220	-0.534337	-1.008104	0.360103	-0.525797	-1.072769	0.361676	-0.528924	-1.043564	0.332918	-0.523201	-1.219163	0.200442	-0.494874	-1.191070	0.201056	-0.408766	-1.198118	0.076174	-0.511237	-1.179669	0.071979	-0.400020	-1.142431	0.053947	-0.455190	-1.283342	0.233745	-0.435313	-0.672508	1.408330	-0.193401	-0.612595	1.392381	-0.545756	
40	0.1950	-0.642946	0.927539	-0.243834	-0.673345	0.912880	-0.509405	-0.814160	0.953453	-0.317489	-0.817048	0.972060	-0.404185	-0.628049	0.758452	-0.203761	-0.586817	0.795690	-0.222149	-0.611165	0.738721	-0.208905	-0.572143	0.767663	-0.226300	-0.441908	0.542019	-0.290178	-0.461911	0.545541	-0.389465	-0.452424	0.403948	-0.263572	-0.416873	0.407411	-0.295653	-0.452402	0.361176	-0.262791	-0.415915	0.356574	-0.292865	-0.449263	0.115780	-0.310704	-0.446724	0.132601	-0.401593	-0.313835	0.082917	-0.309496	-0.320700	0.095931	-0.423114	-0.265541	0.123915	-0.367321	-0.522903	0.070856	-0.362640	-0.786656	0.735476	-0.548929	-0.738572	0.719315	-0.537791	-0.799178	0.699404	-0.547299	-0.754579	0.686780	-0.538436	-0.869305	0.469439	-0.513903	-0.870703	0.464227	-0.403808	-1.019176	0.393611	-0.534454	-0.990490	0.363607	-0.526306	-1.054922	0.367019	-0.528887	-1.026494	0.337437	-0.523494	-1.204840	0.210257	-0.494624	-1.176169	0.208909	-0.408803	-1.189903	0.084012	-0.511688	-1.170876	0.078074	-0.401130	-1.135143	0.057904	-0.456960	-1.266613	0.246333	-0.434212	-0.654348	1.409178	-0.191970	-0.592718	1.394437	-0.543280	
41	0.2000	-0.622558	0.928059	-0.243213	-0.651939	0.913570	-0.508783	-0.793321	0.953820	-0.317526	-0.795802	0.972489	-0.404144	-0.608852	0.757270	-0.202868	-0.567002	0.793716	-0.221319	-0.592215	0.737048	-0.207845	-0.552730	0.765537	-0.225357	-0.425303	0.538920	-0.289068	-0.444643	0.542433	-0.387842	-0.433829	0.400508	-0.263024	-0.398008	0.404933	-0.294892	-0.432902	0.357507	-0.262648	-0.395907	0.353878	-0.292525	-0.424094	0.111811	-0.312488	-0.420911	0.128816	-0.403315	-0.287990	0.081368	-0.310271	-0.293835	0.094215	-0.423891	-0.239566	0.123143	-0.367479	-0.496486	0.065933	-0.365411	-0.765216	0.735809	-0.548985	-0.717258	0.719631	-0.537814	-0.777730	0.699683	-0.547444	-0.733231	0.687051	-0.538509	-0.847529	0.469405	-0.514954	-0.848488	0.463708	-0.404587	-0.999431	0.397691	-0.534647	-0.971595	0.366782	-0.526904	-1.035759	0.372109	-0.528921	-1.008154	0.341691	-0.523867	-1.189261	0.220165	-0.494336	-1.160025	0.216803	-0.408808	-1.180274	0.092291	-0.512269	-1.160690	0.084485	-0.402391	-1.126487	0.062280	-0.458909	-1.248599	0.258815	-0.432999	-0.636105	1.409746	-0.190512	-0.572972	1.396239	-0.540856	
42	0.2050	-0.602180	0.928372	-0.242492	-0.630487	0.914104	-0.508113	-0.772534	0.953945	-0.317562	-0.774583	0.972668	-0.404110	-0.589699	0.755809	-0.201940	-0.547225	0.791438	-0.220457	-0.573314	0.735067	-0.206749	-0.533350	0.763100	-0.224375	-0.408870	0.535390	-0.287987	-0.427476	0.539009	-0.386265	-0.415972	0.396842	-0.262497	-0.379913	0.402048	-0.294126	-0.414353	0.353699	-0.262506	-0.376932	0.350874	-0.292163	-0.401121	0.108239	-0.314129	-0.397203	0.125284	-0.404912	-0.264705	0.079663	-0.310778	-0.269465	0.092169	-0.424384	-0.216040	0.121774	-0.367359	-0.472351	0.061821	-0.368060	-0.743348	0.735842	-0.549064	-0.695490	0.719763	-0.537871	-0.755759	0.699633	-0.547646	-0.711328	0.687114	-0.538662	-0.824507	0.468950	-0.516136	-0.824939	0.462720	-0.405523	-0.978338	0.401431	-0.534920	-0.951384	0.369606	-0.527586	-1.015247	0.376908	-0.529034	-0.988503	0.345649	-0.524321	-1.172362	0.230087	-0.494028	-1.142584	0.224676	-0.408795	-1.169110	0.100932	-0.512985	-1.149003	0.091154	-0.403800	-1.116333	0.067043	-0.461027	-1.229268	0.271090	-0.431703	-0.617766	1.410032	-0.189024	-0.553329	1.397781	-0.538491	
43	0.2100	-0.581795	0.928486	-0.241663	-0.608970	0.914472	-0.507386	-0.751785	0.953830	-0.317588	-0.753376	0.972590	-0.404079	-0.570564	0.754104	-0.200976	-0.527471	0.788903	-0.219560	-0.554434	0.732822	-0.205621	-0.513984	0.760402	-0.223356	-0.392566	0.531494	-0.286945	-0.410377	0.535337	-0.384744	-0.398813	0.392992	-0.262006	-0.362541	0.398793	-0.293372	-0.396716	0.349783	-0.262378	-0.358951	0.347586	-0.291796	-0.380333	0.105033	-0.315635	-0.375595	0.121980	-0.406393	-0.243932	0.077777	-0.311044	-0.247556	0.089771	-0.424622	-0.194912	0.119794	-0.366999	-0.450509	0.058471	-0.370581	-0.721032	0.735576	-0.549155	-0.673248	0.719712	-0.537949	-0.733244	0.699259	-0.547893	-0.688850	0.686972	-0.538881	-0.800236	0.468092	-0.517430	-0.800066	0.461287	-0.406596	-0.955873	0.404808	-0.535277	-0.929826	0.372067	-0.528347	-0.993358	0.381386	-0.529232	-0.967507	0.349290	-0.524856	-1.154084	0.239939	-0.493718	-1.123796	0.232466	-0.408778	-1.156294	0.109844	-0.513841	-1.135714	0.098014	-0.405353	-1.104554	0.072149	-0.463299	-1.208597	0.283060	-0.430358	-0.599316	1.410037	-0.187502	-0.533760	1.399062	-0.536190	
44	0.2150	-0.561385	0.928411	-0.240721	-0.587368	0.914664	-0.506598	-0.731057	0.953486	-0.317598	-0.732168	0.972257	-0.404044	-0.551427	0.752195	-0.199979	-0.507725	0.786158	-0.218625	-0.535554	0.730360	-0.204468	-0.494620	0.757491	-0.222301	-0.376357	0.527301	-0.285952	-0.393328	0.531481	-0.383290	-0.382315	0.388998	-0.261563	-0.345850	0.395208	-0.292644	-0.379955	0.345791	-0.262275	-0.341921	0.344040	-0.291436	-0.361699	0.102165	-0.317015	-0.356062	0.118885	-0.407767	-0.225599	0.075694	-0.311102	-0.228049	0.087012	-0.424638	-0.176111	0.117207	-0.366439	-0.430945	0.055828	-0.372970	-0.698251	0.735021	-0.549243	-0.650515	0.719488	-0.538031	-0.710170	0.698576	-0.548171	-0.665781	0.686638	-0.539149	-0.774723	0.466861	-0.518811	-0.773891	0.459448	-0.407780	-0.932023	0.407812	-0.535719	-0.906898	0.374162	-0.529176	-0.970072	0.385520	-0.529521	-0.945138	0.352599	-0.525469	-1.134374	0.249639	-0.493425	-1.103616	0.240111	-0.408774	-1.141721	0.118930	-0.514838	-1.120730	0.104993	-0.407042	-1.091034	0.077546	-0.465707	-1.186567	0.294631	-0.429000	-0.580740	1.409766	-0.185943	-0.514236	1.400086	-0.533956	
45	0.2200	-0.540935	0.928162	-0.239663	-0.565664	0.914681	-0.505741	-0.710333	0.952926	-0.317585	-0.710945	0.971676	-0.404003	-0.532268	0.750122	-0.198950	-0.487977	0.783250	-0.217649	-0.516658	0.727731	-0.203292	-0.475246	0.754417	-0.221214	-0.360225	0.522879	-0.285015	-0.376320	0.527503	-0.381909	-0.366442	0.384901	-0.261179	-0.329801	0.391334	-0.291954	-0.364029	0.341755	-0.262207	-0.325800	0.340268	-0.291098	-0.345161	0.099605	-0.318280	-0.338560	0.115981	-0.409044	-0.209613	0.073413	-0.310982	-0.210864	0.083898	-0.424465	-0.159546	0.114035	-0.365723	-0.413615	0.053834	-0.375226	-0.674990	0.734198	-0.549315	-0.627280	0.719108	-0.538099	-0.686522	0.697607	-0.548466	-0.642109	0.686133	-0.539448	-0.747979	0.465301	-0.520250	-0.746444	0.457257	-0.409044	-0.906783	0.410439	-0.536244	-0.882587	0.375897	-0.530061	-0.945381	0.389294	-0.529904	-0.921376	0.355570	-0.526155	-1.113189	0.259103	-0.493171	-1.082008	0.247552	-0.408799	-1.125298	0.128084	-0.515975	-1.103969	0.112014	-0.408856	-1.075668	0.083173	-0.468229	-1.163169	0.305713	-0.427668	-0.562027	1.409234	-0.184346	-0.494730	1.400863	-0.531793	
46	0.2250	-0.520431	0.927755	-0.238485	-0.543844	0.914526	-0.504809	-0.689596	0.952171	-0.317543	-0.689692	0.970860	-0.403951	-0.513078	0.747928	-0.197893	-0.468221	0.780226	-0.216630	-0.497736	0.724985	-0.202099	-0.455858	0.751227	-0.220094	-0.344161	0.518289	-0.284135	-0.359356	0.523458	-0.380604	-0.351166	0.380741	-0.260859	-0.314361	0.387219	-0.291311	-0.348902	0.337708	-0.262181	-0.310544	0.336305	-0.290789	-0.330643	0.097327	-0.319441	-0.323022	0.113252	-0.410234	-0.195859	0.070941	-0.310721	-0.195900	0.080450	-0.424141	-0.145108	0.110317	-0.364894	-0.398452	0.052426	-0.377347	-0.651239	0.733132	-0.549356	-0.603533	0.718597	-0.538134	-0.662290	0.696385	-0.548763	-0.617829	0.685485	-0.539756	-0.720028	0.463463	-0.521717	-0.717770	0.454777	-0.410354	-0.880157	0.412693	-0.536849	-0.856887	0.377288	-0.530988	-0.919286	0.392699	-0.530381	-0.896212	0.358202	-0.526906	-1.090494	0.268249	-0.492977	-1.058946	0.254730	-0.408869	-1.106948	0.137198	-0.517250	-1.085368	0.118998	-0.410781	-1.058364	0.088962	-0.470842	-1.138404	0.316223	-0.426403	-0.543165	1.408457	-0.182707	-0.475217	1.401410	-0.529700	
47	0.2300	-0.499863	0.927211	-0.237187	-0.521897	0.914207	-0.503796	-0.668834	0.951248	-0.317466	-0.668399	0.969829	-0.403882	-0.493852	0.745653	-0.196807	-0.448456	0.777133	-0.215567	-0.478786	0.722170	-0.200894	-0.436459	0.747969	-0.218946	-0.328170	0.513594	-0.283313	-0.342453	0.519394	-0.379376	-0.336460	0.376559	-0.260607	-0.299500	0.382911	-0.290720	-0.334537	0.333681	-0.262200	-0.296114	0.332187	-0.290518	-0.318049	0.095306	-0.320510	-0.309365	0.110689	-0.411347	-0.184204	0.068295	-0.310353	-0.183038	0.076701	-0.423700	-0.132675	0.106109	-0.363992	-0.385364	0.051541	-0.379337	-0.626996	0.731858	-0.549353	-0.579274	0.717986	-0.538118	-0.637475	0.694950	-0.549045	-0.592942	0.684730	-0.540052	-0.690905	0.461412	-0.523176	-0.687923	0.452083	-0.411673	-0.852167	0.414588	-0.537527	-0.829808	0.378358	-0.531939	-0.891803	0.395736	-0.530950	-0.869650	0.360505	-0.527712	-1.066271	0.277000	-0.492861	-1.034420	0.261592	-0.409000	-1.086614	0.146162	-0.518655	-1.064877	0.125865	-0.412803	-1.039051	0.094840	-0.473517	-1.112287	0.326086	-0.425244	-0.524147	1.407458	-0.181027	-0.455674	1.401748	-0.527678	
48	0.2350	-0.479225	0.926551	-0.235771	-0.499816	0.913738	-0.502699	-0.648034	0.950186	-0.317351	-0.647057	0.968608	-0.403794	-0.474591	0.743339	-0.195698	-0.428685	0.774012	-0.214460	-0.459813	0.719334	-0.199679	-0.417055	0.744684	-0.217770	-0.312267	0.508850	-0.282549	-0.325635	0.515355	-0.378224	-0.322303	0.372393	-0.260423	-0.285196	0.378457	-0.290186	-0.320899	0.329705	-0.262266	-0.282469	0.327954	-0.290290	-0.307267	0.093521	-0.321498	-0.297490	0.108285	-0.412392	-0.174499	0.065504	-0.309909	-0.172143	0.072695	-0.423178	-0.122113	0.101478	-0.363057	-0.374237	0.051116	-0.381195	-0.602264	0.730417	-0.549293	-0.554511	0.717310	-0.538031	-0.612081	0.693349	-0.549295	-0.567459	0.683910	-0.540312	-0.660655	0.459218	-0.524593	-0.656971	0.449258	-0.412962	-0.822845	0.416144	-0.538268	-0.801374	0.379137	-0.532895	-0.862960	0.398410	-0.531605	-0.841708	0.362491	-0.528560	-1.040518	0.285284	-0.492843	-1.008434	0.268087	-0.409205	-1.064260	0.154867	-0.520182	-1.042469	0.132537	-0.414903	-1.017681	0.100731	-0.476228	-1.084845	0.335235	-0.424230	-0.504968	1.406264	-0.179304	-0.436085	1.401901	-0.525725	
49	0.2400	-0.458518	0.925801	-0.234239	-0.477601	0.913138	-0.501513	-0.627192	0.949018	-0.317191	-0.625663	0.967226	-0.403682	-0.455305	0.741027	-0.194566	-0.408921	0.770903	-0.213310	-0.440830	0.716523	-0.198459	-0.397662	0.741412	-0.216569	-0.296481	0.504108	-0.281838	-0.308938	0.511378	-0.377145	-0.308678	0.368279	-0.260304	-0.271431	0.373908	-0.289709	-0.307955	0.325811	-0.262377	-0.269574	0.323645	-0.290107	-0.298170	0.091952	-0.322418	-0.287284	0.106037	-0.413379	-0.166585	0.062601	-0.309423	-0.163069	0.068486	-0.422608	-0.113276	0.096504	-0.362126	-0.364942	0.051088	-0.382927	-0.577058	0.728856	-0.549163	-0.529261	0.716611	-0.537856	-0.586125	0.691634	-0.549498	-0.541402	0.683069	-0.540514	-0.629339	0.456956	-0.525931	-0.624995	0.446388	-0.414180	-0.792242	0.417389	-0.539061	-0.771625	0.379661	-0.533836	-0.832805	0.400733	-0.532338	-0.812421	0.364180	-0.529435	-1.013253	0.293034	-0.492939	-0.981010	0.274172	-0.409497	-1.039880	0.163211	-0.521819	-1.018143	0.138939	-0.417061	-0.994232	0.106558	-0.478943	-1.056123	0.343615	-0.423397	-0.485630	1.404906	-0.177539	-0.416442	1.401899	-0.523839	
50	0.2450	-0.437748	0.924984	-0.232596	-0.455263	0.912429	-0.500236	-0.606307	0.947781	-0.316985	-0.604221	0.965719	-0.403543	-0.436013	0.738753	-0.193416	-0.389180	0.767842	-0.212117	-0.421859	0.713777	-0.197237	-0.378301	0.738189	-0.215346	-0.280846	0.499416	-0.281176	-0.292409	0.507493	-0.376133	-0.295575	0.364252	-0.260247	-0.258194	0.369311	-0.289288	-0.295676	0.322027	-0.262531	-0.257394	0.319303	-0.289971	-0.290621	0.090584	-0.323278	-0.278624	0.103945	-0.414314	-0.160294	0.059626	-0.308922	-0.155661	0.064136	-0.422021	-0.106014	0.091274	-0.361231	-0.357334	0.051399	-0.384534	-0.551404	0.727223	-0.548951	-0.503552	0.715934	-0.537574	-0.559636	0.689859	-0.549637	-0.514804	0.682256	-0.540635	-0.597031	0.454705	-0.527154	-0.592091	0.443562	-0.415289	-0.760429	0.418355	-0.539891	-0.740620	0.379969	-0.534741	-0.801405	0.402724	-0.533139	-0.781843	0.365597	-0.530320	-0.984515	0.300193	-0.493163	-0.952192	0.279810	-0.409884	-1.013494	0.171097	-0.523552	-0.991923	0.145003	-0.419257	-0.968711	0.112245	-0.481633	-1.026184	0.351180	-0.422777	-0.466139	1.403419	-0.175733	-0.396742	1.401773	-0.522019	
51	0.2500	-0.416931	0.924126	-0.230849	-0.432819	0.911636	-0.498868	-0.585387	0.946511	-0.316730	-0.582740	0.964122	-0.403375	-0.416742	0.736551	-0.192250	-0.369489	0.764862	-0.210885	-0.402930	0.711136	-0.196017	-0.359001	0.735045	-0.214104	-0.265409	0.494814	-0.280555	-0.276098	0.503725	-0.375185	-0.282986	0.360342	-0.260243	-0.245476	0.364715	-0.288919	-0.284035	0.318378	-0.262721	-0.245899	0.314968	-0.289878	-0.284474	0.089403	-0.324087	-0.271379	0.102012	-0.415202	-0.155451	0.056624	-0.308430	-0.149755	0.059711	-0.421443	-0.100173	0.085881	-0.360399	-0.351257	0.051991	-0.386021	-0.525339	0.725571	-0.548649	-0.477427	0.715322	-0.537171	-0.532656	0.688084	-0.549698	-0.487712	0.681522	-0.540653	-0.563824	0.452544	-0.528227	-0.558369	0.440867	-0.416251	-0.727494	0.419079	-0.540743	-0.708439	0.380106	-0.535589	-0.768845	0.404406	-0.533995	-0.750049	0.366771	-0.531198	-0.954369	0.306712	-0.493523	-0.922047	0.284968	-0.410374	-0.985155	0.178437	-0.525365	-0.963862	0.150665	-0.421469	-0.941158	0.117718	-0.484268	-0.995110	0.357897	-0.422398	-0.446510	1.401837	-0.173889	-0.376994	1.401555	-0.520260	
52	0.2550	-0.396092	0.923252	-0.229005	-0.410298	0.910788	-0.497411	-0.564450	0.945247	-0.316426	-0.561240	0.962476	-0.403173	-0.397526	0.734453	-0.191073	-0.349880	0.761990	-0.209617	-0.384080	0.708631	-0.194802	-0.339800	0.732009	-0.212848	-0.250220	0.490338	-0.279970	-0.260065	0.500092	-0.374292	-0.270908	0.356577	-0.260284	-0.233278	0.360164	-0.288598	-0.273008	0.314888	-0.262942	-0.235061	0.310680	-0.289827	-0.279581	0.088398	-0.324850	-0.265411	0.100243	-0.416049	-0.151883	0.053640	-0.307970	-0.145188	0.055279	-0.420896	-0.095595	0.080418	-0.359651	-0.346549	0.052813	-0.387390	-0.498915	0.723952	-0.548248	-0.450939	0.714822	-0.536633	-0.505242	0.686364	-0.549668	-0.460188	0.680915	-0.540549	-0.529825	0.450548	-0.529118	-0.523956	0.438389	-0.417031	-0.693547	0.419599	-0.541598	-0.675183	0.380116	-0.536358	-0.735233	0.405805	-0.534891	-0.717139	0.367732	-0.532050	-0.922906	0.312552	-0.494028	-0.890668	0.289625	-0.410969	-0.954951	0.185156	-0.527241	-0.934047	0.155872	-0.423675	-0.911650	0.122912	-0.486820	-0.963006	0.363744	-0.422280	-0.426766	1.400198	-0.172011	-0.357213	1.401280	-0.518560	
53	0.2600	-0.375264	0.922387	-0.227076	-0.387739	0.909912	-0.495866	-0.543521	0.944024	-0.316071	-0.539750	0.960820	-0.402938	-0.378411	0.732485	-0.189889	-0.330394	0.759249	-0.208318	-0.365356	0.706291	-0.193595	-0.320740	0.729102	-0.211580	-0.235336	0.486020	-0.279413	-0.244371	0.496608	-0.373448	-0.259342	0.352983	-0.260361	-0.221600	0.355700	-0.288317	-0.262576	0.311579	-0.263183	-0.224855	0.306478	-0.289810	-0.275790	0.087559	-0.325575	-0.260583	0.098644	-0.416855	-0.149415	0.050719	-0.307557	-0.141794	0.050909	-0.420400	-0.092125	0.074978	-0.359006	-0.343044	0.053816	-0.388644	-0.472199	0.722417	-0.547742	-0.424160	0.714474	-0.535951	-0.477464	0.684755	-0.549535	-0.432309	0.680481	-0.540306	-0.495163	0.448788	-0.529799	-0.488994	0.436205	-0.417598	-0.658719	0.419957	-0.542438	-0.640978	0.380045	-0.537028	-0.700699	0.406952	-0.535810	-0.683232	0.368513	-0.532857	-0.890241	0.317686	-0.494679	-0.858171	0.293765	-0.411669	-0.923004	0.191193	-0.529160	-0.902595	0.160580	-0.425853	-0.880297	0.127766	-0.489260	-0.929997	0.368713	-0.422438	-0.406937	1.398539	-0.170105	-0.337429	1.400981	-0.516916	
54	0.2650	-0.354491	0.921552	-0.225073	-0.365194	0.909038	-0.494241	-0.522637	0.942878	-0.315669	-0.518310	0.959193	-0.402668	-0.359446	0.730669	-0.188702	-0.311081	0.756658	-0.206993	-0.346811	0.704139	-0.192399	-0.301874	0.726343	-0.210305	-0.220818	0.481885	-0.278877	-0.229082	0.493284	-0.372647	-0.248294	0.349580	-0.260462	-0.210449	0.351364	-0.288069	-0.252722	0.308467	-0.263438	-0.215261	0.302398	-0.289823	-0.272951	0.086878	-0.326262	-0.256755	0.097222	-0.417622	-0.147880	0.047904	-0.307205	-0.139413	0.046666	-0.419968	-0.089614	0.069651	-0.358474	-0.340578	0.054959	-0.389788	-0.445272	0.721014	-0.547129	-0.397172	0.714320	-0.535117	-0.449412	0.683308	-0.549292	-0.404168	0.680262	-0.539912	-0.459980	0.447330	-0.530247	-0.453638	0.434384	-0.417926	-0.623166	0.420195	-0.543245	-0.605970	0.379936	-0.537583	-0.665396	0.407879	-0.536734	-0.648476	0.369148	-0.533602	-0.856522	0.322100	-0.495475	-0.824699	0.297381	-0.412472	-0.889471	0.196500	-0.531104	-0.869657	0.164754	-0.427982	-0.847250	0.132228	-0.491565	-0.896229	0.372807	-0.422881	-0.387064	1.396896	-0.168176	-0.317680	1.400688	-0.515326	
55	0.2700	-0.333828	0.920767	-0.223011	-0.342724	0.908194	-0.492541	-0.501846	0.941838	-0.315221	-0.496969	0.957633	-0.402363	-0.340692	0.729023	-0.187517	-0.291995	0.754231	-0.205651	-0.328505	0.702192	-0.191220	-0.283258	0.723745	-0.209029	-0.206728	0.477953	-0.278354	-0.214263	0.490124	-0.371882	-0.237771	0.346385	-0.260577	-0.199835	0.347190	-0.287846	-0.243431	0.305569	-0.263695	-0.206260	0.298472	-0.289858	-0.270921	0.086348	-0.326915	-0.253792	0.095981	-0.418350	-0.147117	0.045236	-0.306921	-0.137887	0.042611	-0.419609	-0.087916	0.064518	-0.358062	-0.338989	0.056201	-0.390823	-0.418231	0.719787	-0.546407	-0.370077	0.714392	-0.534128	-0.421190	0.682071	-0.548932	-0.375873	0.680296	-0.539357	-0.424441	0.446228	-0.530442	-0.418061	0.432985	-0.417995	-0.587062	0.420352	-0.544001	-0.570331	0.379829	-0.538005	-0.629498	0.408619	-0.537647	-0.613040	0.369670	-0.534268	-0.821921	0.325788	-0.496410	-0.790422	0.300474	-0.413372	-0.854544	0.201046	-0.533051	-0.835417	0.168373	-0.430042	-0.812694	0.136258	-0.493713	-0.861872	0.376044	-0.423609	-0.367200	1.395304	-0.166232	-0.298015	1.400433	-0.513787	
56	0.2750	-0.313338	0.920052	-0.220902	-0.320405	0.907408	-0.490777	-0.481207	0.940933	-0.314732	-0.475788	0.956175	-0.402024	-0.322215	0.727560	-0.186340	-0.273201	0.751979	-0.204297	-0.310503	0.700462	-0.190060	-0.264957	0.721317	-0.207756	-0.193127	0.474242	-0.277840	-0.199979	0.487134	-0.371146	-0.227780	0.343414	-0.260695	-0.189766	0.343210	-0.287640	-0.234694	0.302894	-0.263946	-0.197838	0.294730	-0.289906	-0.269560	0.085961	-0.327532	-0.251563	0.094926	-0.419036	-0.146975	0.042748	-0.306710	-0.137069	0.038796	-0.419330	-0.086894	0.059650	-0.357769	-0.338122	0.057511	-0.391753	-0.391186	0.718773	-0.545580	-0.342986	0.714719	-0.532986	-0.392917	0.681082	-0.548452	-0.347548	0.680610	-0.538634	-0.388726	0.445525	-0.530373	-0.382449	0.432051	-0.417793	-0.550601	0.420467	-0.544687	-0.534253	0.379762	-0.538284	-0.593202	0.409205	-0.538529	-0.577116	0.370110	-0.534840	-0.786635	0.328759	-0.497475	-0.755533	0.303053	-0.414359	-0.818450	0.204817	-0.534983	-0.800092	0.171426	-0.432014	-0.776854	0.139825	-0.495686	-0.827114	0.378449	-0.424615	-0.347406	1.393794	-0.164283	-0.278496	1.400240	-0.512297	
57	0.2800	-0.293094	0.919419	-0.218765	-0.298321	0.906703	-0.488959	-0.460788	0.940183	-0.314204	-0.454839	0.954850	-0.401652	-0.304086	0.726287	-0.185175	-0.254767	0.749908	-0.202941	-0.292876	0.698955	-0.188925	-0.247037	0.719068	-0.206494	-0.180075	0.470762	-0.277329	-0.186293	0.484312	-0.370436	-0.218333	0.340675	-0.260805	-0.180255	0.339449	-0.287442	-0.226500	0.300451	-0.264182	-0.189979	0.291198	-0.289961	-0.268739	0.085711	-0.328115	-0.249945	0.094060	-0.419679	-0.147315	0.040470	-0.306573	-0.136820	0.035268	-0.419130	-0.086421	0.055111	-0.357594	-0.337831	0.058858	-0.392580	-0.364263	0.718004	-0.544652	-0.316028	0.715319	-0.531695	-0.364728	0.680373	-0.547852	-0.319328	0.681225	-0.537744	-0.353029	0.445253	-0.530034	-0.346997	0.431615	-0.417314	-0.513999	0.420573	-0.545288	-0.497948	0.379767	-0.538410	-0.556722	0.409669	-0.539365	-0.540917	0.370498	-0.535307	-0.750888	0.331033	-0.498657	-0.720248	0.305134	-0.415422	-0.781445	0.207814	-0.536878	-0.763927	0.173914	-0.433883	-0.739985	0.142910	-0.497469	-0.792163	0.380064	-0.425885	-0.327752	1.392396	-0.162337	-0.259192	1.400132	-0.510856	
58	0.2850	-0.273177	0.918882	-0.216616	-0.276566	0.906100	-0.487101	-0.440668	0.939607	-0.313645	-0.434202	0.953683	-0.401249	-0.286381	0.725208	-0.184030	-0.236765	0.748019	-0.201591	-0.275697	0.697672	-0.187817	-0.229571	0.716998	-0.205248	-0.167629	0.467523	-0.276816	-0.173261	0.481659	-0.369746	-0.209440	0.338175	-0.260900	-0.171313	0.335929	-0.287246	-0.218843	0.298243	-0.264395	-0.182673	0.287896	-0.290014	-0.268342	0.085589	-0.328660	-0.248824	0.093382	-0.420274	-0.148010	0.038422	-0.306507	-0.137014	0.032062	-0.419008	-0.086380	0.050949	-0.357529	-0.337984	0.060219	-0.393309	-0.337597	0.717501	-0.543630	-0.289338	0.716203	-0.530265	-0.336770	0.679965	-0.547135	-0.291364	0.682152	-0.536691	-0.317558	0.445431	-0.529427	-0.311912	0.431692	-0.416560	-0.477484	0.420702	-0.545792	-0.461646	0.379869	-0.538379	-0.520289	0.410041	-0.540138	-0.504675	0.370860	-0.535657	-0.714923	0.332641	-0.499940	-0.684803	0.306741	-0.416547	-0.743813	0.210055	-0.538720	-0.727191	0.175849	-0.435634	-0.702373	0.145508	-0.499052	-0.757239	0.380938	-0.427397	-0.308320	1.391132	-0.160407	-0.240183	1.400125	-0.509464	
59	0.2900	-0.253676	0.918447	-0.214472	-0.255242	0.905616	-0.485218	-0.420933	0.939214	-0.313060	-0.413966	0.952695	-0.400820	-0.269178	0.724321	-0.182910	-0.219273	0.746313	-0.200257	-0.259041	0.696610	-0.186743	-0.212632	0.715109	-0.204025	-0.155839	0.464527	-0.276300	-0.160936	0.479172	-0.369075	-0.201109	0.335916	-0.260970	-0.162949	0.332667	-0.287045	-0.211716	0.296271	-0.264578	-0.175909	0.284841	-0.290059	-0.268260	0.085587	-0.329165	-0.248095	0.092888	-0.420821	-0.148950	0.036620	-0.306508	-0.137538	0.029203	-0.418958	-0.086666	0.047201	-0.357564	-0.338459	0.061573	-0.393942	-0.311334	0.717279	-0.542524	-0.263065	0.717373	-0.528708	-0.309199	0.679871	-0.546309	-0.263812	0.683392	-0.535483	-0.282532	0.446061	-0.528561	-0.277406	0.432281	-0.415539	-0.441295	0.420877	-0.546188	-0.425591	0.380089	-0.538190	-0.484144	0.410349	-0.540836	-0.468634	0.371219	-0.535887	-0.678998	0.333624	-0.501305	-0.649449	0.307903	-0.417718	-0.705860	0.211573	-0.540491	-0.690177	0.177255	-0.437256	-0.664328	0.147621	-0.500431	-0.722577	0.381130	-0.429126	-0.289198	1.390022	-0.158503	-0.221555	1.400234	-0.508121	
60	0.2950	-0.234684	0.918119	-0.212352	-0.234454	0.905262	-0.483325	-0.401677	0.939009	-0.312456	-0.394226	0.951900	-0.400368	-0.252557	0.723621	-0.181821	-0.202367	0.744787	-0.198948	-0.242983	0.695760	-0.185707	-0.196295	0.713397	-0.202832	-0.144751	0.461777	-0.275778	-0.149362	0.476849	-0.368420	-0.193350	0.333897	-0.261010	-0.155173	0.329673	-0.286834	-0.205113	0.294532	-0.264726	-0.169674	0.282043	-0.290090	-0.268402	0.085695	-0.329630	-0.247666	0.092573	-0.421316	-0.150038	0.035071	-0.306568	-0.138290	0.026707	-0.418975	-0.087187	0.043889	-0.357687	-0.339150	0.062903	-0.394483	-0.285625	0.717341	-0.541347	-0.237360	0.718823	-0.527042	-0.282178	0.680092	-0.545382	-0.236837	0.684935	-0.534134	-0.248174	0.447135	-0.527451	-0.243694	0.433367	-0.414269	-0.405682	0.421119	-0.546468	-0.390032	0.380440	-0.537847	-0.448539	0.410618	-0.541447	-0.433051	0.371593	-0.535992	-0.643385	0.334031	-0.502732	-0.614447	0.308655	-0.418919	-0.667909	0.212415	-0.542175	-0.653193	0.178163	-0.438741	-0.626180	0.149265	-0.501604	-0.688418	0.380706	-0.431040	-0.270480	1.389080	-0.156638	-0.203400	1.400463	-0.506828	
61	0.3000	-0.216296	0.917899	-0.210273	-0.214314	0.905045	-0.481440	-0.382996	0.938991	-0.311841	-0.375082	0.951304	-0.399897	-0.236594	0.723099	-0.180769	-0.186127	0.743433	-0.197674	-0.227596	0.695110	-0.184712	-0.180633	0.711858	-0.201676	-0.134400	0.459270	-0.275251	-0.138574	0.474686	-0.367782	-0.186166	0.332113	-0.261016	-0.147988	0.326954	-0.286608	-0.199029	0.293020	-0.264836	-0.163959	0.279511	-0.290103	-0.268687	0.085901	-0.330051	-0.247456	0.092427	-0.421756	-0.151193	0.033775	-0.306678	-0.139183	0.024577	-0.419048	-0.087863	0.041023	-0.357883	-0.339967	0.064195	-0.394937	-0.260627	0.717683	-0.540114	-0.212379	0.720534	-0.525287	-0.255876	0.680622	-0.544368	-0.210605	0.686763	-0.532661	-0.214710	0.448628	-0.526120	-0.210988	0.434921	-0.412774	-0.370894	0.421442	-0.546629	-0.355228	0.380926	-0.537359	-0.413727	0.410868	-0.541964	-0.398184	0.371996	-0.535975	-0.608362	0.333921	-0.504198	-0.580064	0.309038	-0.420132	-0.630292	0.212637	-0.543761	-0.616556	0.178615	-0.440082	-0.588271	0.150464	-0.502575	-0.655006	0.379741	-0.433101	-0.252266	1.388313	-0.154822	-0.185813	1.400816	-0.505588	
62	0.3050	-0.198608	0.917785	-0.208252	-0.194932	0.904968	-0.479579	-0.364990	0.939151	-0.311222	-0.356633	0.950910	-0.399414	-0.221366	0.722742	-0.179761	-0.170626	0.742244	-0.196444	-0.212950	0.694645	-0.183765	-0.165715	0.710485	-0.200563	-0.124815	0.457001	-0.274721	-0.128599	0.472679	-0.367159	-0.179561	0.330558	-0.260984	-0.141396	0.324512	-0.286367	-0.193455	0.291725	-0.264904	-0.158751	0.277245	-0.290094	-0.269050	0.086194	-0.330427	-0.247396	0.092437	-0.422142	-0.152350	0.032724	-0.306830	-0.140147	0.022809	-0.419167	-0.088626	0.038602	-0.358139	-0.340833	0.065438	-0.395310	-0.236492	0.718291	-0.538840	-0.188276	0.722481	-0.523465	-0.230458	0.681441	-0.543281	-0.185281	0.688846	-0.531085	-0.182362	0.450505	-0.524595	-0.179495	0.436900	-0.411082	-0.337179	0.421852	-0.546672	-0.321430	0.381548	-0.536736	-0.379959	0.411116	-0.542381	-0.364292	0.372439	-0.535839	-0.574204	0.333358	-0.505681	-0.546566	0.309094	-0.421340	-0.593342	0.212308	-0.545236	-0.580586	0.178656	-0.441278	-0.550946	0.151253	-0.503350	-0.622583	0.378312	-0.435272	-0.234657	1.387725	-0.153069	-0.168887	1.401289	-0.504404	
63	0.3100	-0.181715	0.917770	-0.206306	-0.176413	0.905026	-0.477760	-0.347756	0.939476	-0.310607	-0.338980	0.950711	-0.398923	-0.206943	0.722535	-0.178801	-0.155935	0.741211	-0.195266	-0.199108	0.694348	-0.182869	-0.151607	0.709270	-0.199501	-0.116014	0.454965	-0.274190	-0.119453	0.470827	-0.366555	-0.173532	0.329220	-0.260916	-0.135394	0.322344	-0.286108	-0.188383	0.290637	-0.264930	-0.154037	0.275242	-0.290060	-0.269436	0.086561	-0.330757	-0.247428	0.092587	-0.422472	-0.153455	0.031907	-0.307013	-0.141121	0.021388	-0.419323	-0.089422	0.036611	-0.358438	-0.341689	0.066624	-0.395607	-0.213371	0.719143	-0.537543	-0.165198	0.724631	-0.521602	-0.206087	0.682525	-0.542139	-0.161025	0.691149	-0.529432	-0.151342	0.452719	-0.522909	-0.149409	0.439249	-0.409229	-0.304773	0.422351	-0.546600	-0.288885	0.382298	-0.535996	-0.347475	0.411374	-0.542697	-0.331625	0.372924	-0.535594	-0.541181	0.332408	-0.507159	-0.514212	0.308868	-0.422526	-0.557389	0.211502	-0.546594	-0.545598	0.178341	-0.442329	-0.514546	0.151670	-0.503942	-0.591382	0.376500	-0.437512	-0.217754	1.387312	-0.151389	-0.152717	1.401873	-0.503278	
64	0.3150	-0.165704	0.917846	-0.204450	-0.158859	0.905213	-0.475999	-0.331388	0.939950	-0.310002	-0.322217	0.950696	-0.398431	-0.193386	0.722461	-0.177895	-0.142118	0.740321	-0.194149	-0.186127	0.694198	-0.182028	-0.138367	0.708203	-0.198496	-0.108004	0.453153	-0.273660	-0.111141	0.469124	-0.365970	-0.168073	0.328088	-0.260811	-0.129974	0.320442	-0.285832	-0.183801	0.289741	-0.264917	-0.149801	0.273496	-0.290001	-0.269806	0.086988	-0.331041	-0.247507	0.092859	-0.422747	-0.154472	0.031306	-0.307217	-0.142060	0.020293	-0.419505	-0.090207	0.035027	-0.358767	-0.342488	0.067745	-0.395833	-0.191405	0.720211	-0.536240	-0.143287	0.726945	-0.519723	-0.182914	0.683838	-0.540960	-0.137985	0.693628	-0.527727	-0.121850	0.455214	-0.521098	-0.120912	0.441905	-0.407253	-0.273899	0.422936	-0.546422	-0.257825	0.383163	-0.535156	-0.316504	0.411652	-0.542914	-0.300420	0.373454	-0.535250	-0.509548	0.331144	-0.508609	-0.483248	0.308408	-0.423674	-0.522746	0.210300	-0.547828	-0.511893	0.177725	-0.443238	-0.479400	0.151761	-0.504363	-0.561620	0.374389	-0.439779	-0.201654	1.387067	-0.149794	-0.137389	1.402556	-0.502213	
65	0.3200	-0.150656	0.918003	-0.202697	-0.142362	0.905516	-0.474313	-0.315973	0.940550	-0.309416	-0.306433	0.950848	-0.397944	-0.180751	0.722501	-0.177048	-0.129230	0.739564	-0.193099	-0.174055	0.694175	-0.181246	-0.126042	0.707274	-0.197552	-0.100785	0.451553	-0.273138	-0.103660	0.467567	-0.365409	-0.163173	0.327146	-0.260673	-0.125124	0.318795	-0.285543	-0.179695	0.289020	-0.264866	-0.146026	0.271995	-0.289919	-0.270130	0.087461	-0.331280	-0.247599	0.093234	-0.422969	-0.155374	0.030900	-0.307434	-0.142929	0.019496	-0.419702	-0.090948	0.033818	-0.359112	-0.343198	0.068797	-0.395997	-0.170719	0.721460	-0.534950	-0.122666	0.729378	-0.517855	-0.161078	0.685341	-0.539763	-0.116296	0.696235	-0.525999	-0.094066	0.457928	-0.519201	-0.094160	0.444797	-0.405195	-0.244759	0.423598	-0.546146	-0.228459	0.384125	-0.534238	-0.287250	0.411953	-0.543036	-0.270893	0.374024	-0.534821	-0.479541	0.329634	-0.510012	-0.453896	0.307761	-0.424771	-0.489705	0.208783	-0.548936	-0.479751	0.176865	-0.444011	-0.445815	0.151576	-0.504632	-0.533497	0.372059	-0.442034	-0.186447	1.386977	-0.148292	-0.122984	1.403322	-0.501214	
66	0.3250	-0.136641	0.918228	-0.201059	-0.126999	0.905920	-0.472716	-0.301585	0.941253	-0.308854	-0.291704	0.951147	-0.397468	-0.169080	0.722635	-0.176263	-0.117316	0.738928	-0.192123	-0.162928	0.694256	-0.180524	-0.114673	0.706473	-0.196674	-0.094343	0.450154	-0.272627	-0.096992	0.466154	-0.364873	-0.158816	0.326378	-0.260506	-0.120825	0.317390	-0.285242	-0.176048	0.288457	-0.264781	-0.142691	0.270726	-0.289814	-0.270390	0.087965	-0.331475	-0.247677	0.093691	-0.423141	-0.156146	0.030665	-0.307655	-0.143705	0.018964	-0.419906	-0.091621	0.032947	-0.359459	-0.343798	0.069776	-0.396106	-0.151426	0.722850	-0.533689	-0.103446	0.731882	-0.516024	-0.140699	0.686990	-0.538568	-0.096075	0.698918	-0.524275	-0.068143	0.460793	-0.517258	-0.069289	0.447850	-0.403097	-0.217528	0.424324	-0.545788	-0.200972	0.385164	-0.533266	-0.259893	0.412278	-0.543070	-0.243234	0.374628	-0.534324	-0.451367	0.327951	-0.511349	-0.426357	0.306971	-0.425803	-0.458530	0.207033	-0.549918	-0.449424	0.175821	-0.444655	-0.414068	0.151165	-0.504767	-0.507185	0.369589	-0.444239	-0.172214	1.387026	-0.146892	-0.109569	1.404151	-0.500283	
67	0.3300	-0.123715	0.918507	-0.199545	-0.112836	0.906407	-0.471221	-0.288289	0.942032	-0.308322	-0.278094	0.951568	-0.397008	-0.158404	0.722844	-0.175542	-0.106408	0.738399	-0.191225	-0.152771	0.694421	-0.179865	-0.104285	0.705790	-0.195866	-0.088657	0.448944	-0.272132	-0.091115	0.464880	-0.364367	-0.154982	0.325767	-0.260315	-0.117054	0.316209	-0.284934	-0.172840	0.288035	-0.264669	-0.139773	0.269671	-0.289690	-0.270576	0.088487	-0.331629	-0.247727	0.094209	-0.423268	-0.156783	0.030573	-0.307871	-0.144376	0.018660	-0.420108	-0.092213	0.032371	-0.359800	-0.344278	0.070678	-0.396166	-0.133615	0.724339	-0.532475	-0.085714	0.734408	-0.514256	-0.121875	0.688737	-0.537395	-0.077417	0.701623	-0.522583	-0.044208	0.463741	-0.515309	-0.046403	0.450988	-0.401000	-0.192347	0.425098	-0.545362	-0.175517	0.386254	-0.532262	-0.234580	0.412626	-0.543026	-0.217601	0.375257	-0.533775	-0.425201	0.326159	-0.512605	-0.400797	0.306084	-0.426762	-0.429444	0.205130	-0.550776	-0.421129	0.174647	-0.445181	-0.384398	0.150578	-0.504788	-0.482827	0.367054	-0.446360	-0.159024	1.387195	-0.145601	-0.097201	1.405024	-0.499423	
68	0.3350	-0.111921	0.918827	-0.198162	-0.099917	0.906955	-0.469839	-0.276131	0.942860	-0.307826	-0.265652	0.952085	-0.396571	-0.148739	0.723109	-0.174889	-0.096526	0.737965	-0.190408	-0.143596	0.694649	-0.179270	-0.094893	0.705212	-0.195131	-0.083696	0.447907	-0.271660	-0.085993	0.463740	-0.363893	-0.151645	0.325294	-0.260106	-0.113784	0.315234	-0.284624	-0.170048	0.287733	-0.264534	-0.137248	0.268811	-0.289551	-0.270685	0.089012	-0.331745	-0.247738	0.094765	-0.423353	-0.157285	0.030600	-0.308078	-0.144934	0.018548	-0.420303	-0.092715	0.032046	-0.360124	-0.344637	0.071503	-0.396186	-0.117353	0.725886	-0.531322	-0.069534	0.736907	-0.512572	-0.104679	0.690534	-0.536261	-0.060389	0.704298	-0.520950	-0.022354	0.466702	-0.513392	-0.025574	0.454138	-0.398945	-0.169326	0.425903	-0.544885	-0.152210	0.387369	-0.531250	-0.211422	0.412991	-0.542917	-0.194114	0.375899	-0.533192	-0.401179	0.324322	-0.513768	-0.377344	0.305139	-0.427638	-0.402629	0.203148	-0.551515	-0.395042	0.173397	-0.445599	-0.357002	0.149866	-0.504717	-0.460532	0.364523	-0.448366	-0.146930	1.387461	-0.144423	-0.085919	1.405919	-0.498636	
69	0.3400	-0.101281	0.919172	-0.196915	-0.088269	0.907545	-0.468576	-0.265143	0.943710	-0.307368	-0.254408	0.952670	-0.396161	-0.140089	0.723410	-0.174302	-0.087673	0.737614	-0.189675	-0.135401	0.694919	-0.178739	-0.086496	0.704728	-0.194470	-0.079421	0.447031	-0.271215	-0.081584	0.462731	-0.363454	-0.148775	0.324940	-0.259887	-0.110982	0.314443	-0.284318	-0.167646	0.287534	-0.264382	-0.135087	0.268126	-0.289401	-0.270721	0.089529	-0.331828	-0.247709	0.095341	-0.423401	-0.157663	0.030718	-0.308271	-0.145383	0.018589	-0.420484	-0.093127	0.031925	-0.360425	-0.344881	0.072250	-0.396174	-0.102679	0.727446	-0.530244	-0.054945	0.739334	-0.510993	-0.089156	0.692336	-0.535183	-0.045033	0.706894	-0.519399	-0.002636	0.469613	-0.511542	-0.006841	0.457228	-0.396968	-0.148531	0.426720	-0.544375	-0.131128	0.388485	-0.530252	-0.190491	0.413368	-0.542754	-0.172856	0.376541	-0.532593	-0.379396	0.322495	-0.514828	-0.356088	0.304174	-0.428428	-0.378220	0.201155	-0.552141	-0.371291	0.172120	-0.445921	-0.332026	0.149073	-0.504574	-0.440371	0.362056	-0.450234	-0.135969	1.387802	-0.143362	-0.075749	1.406814	-0.497924	
70	0.3450	-0.091802	0.919529	-0.195805	-0.077900	0.908155	-0.467439	-0.255335	0.944558	-0.306953	-0.244373	0.953296	-0.395782	-0.132443	0.723731	-0.173783	-0.079841	0.737335	-0.189025	-0.128171	0.695214	-0.178270	-0.079081	0.704329	-0.193882	-0.075786	0.446298	-0.270801	-0.077839	0.461847	-0.363054	-0.146339	0.324688	-0.259663	-0.108614	0.313815	-0.284021	-0.165606	0.287418	-0.264221	-0.133262	0.267593	-0.289246	-0.270693	0.090025	-0.331881	-0.247641	0.095916	-0.423420	-0.157927	0.030902	-0.308445	-0.145727	0.018746	-0.420649	-0.093452	0.031965	-0.360698	-0.345022	0.072919	-0.396136	-0.089608	0.728982	-0.529251	-0.041957	0.741645	-0.509536	-0.075323	0.694098	-0.534175	-0.031363	0.709365	-0.517951	0.014926	0.472413	-0.509791	0.009792	0.460196	-0.395101	-0.129992	0.427528	-0.543850	-0.112307	0.389576	-0.529290	-0.171819	0.413747	-0.542551	-0.153866	0.377172	-0.531996	-0.359905	0.320727	-0.515779	-0.337077	0.303222	-0.429127	-0.356300	0.199210	-0.552662	-0.349958	0.170859	-0.446161	-0.309565	0.148244	-0.504378	-0.422375	0.359706	-0.451942	-0.126159	1.388197	-0.142417	-0.066694	1.407688	-0.497287	
71	0.3500	-0.083472	0.919885	-0.194831	-0.068794	0.908765	-0.466431	-0.246700	0.945380	-0.306581	-0.235539	0.953938	-0.395436	-0.125774	0.724057	-0.173330	-0.073003	0.737116	-0.188457	-0.121877	0.695518	-0.177863	-0.072621	0.704003	-0.193368	-0.072741	0.445695	-0.270422	-0.074704	0.461081	-0.362692	-0.144301	0.324519	-0.259442	-0.106641	0.313328	-0.283738	-0.163898	0.287368	-0.264056	-0.131743	0.267191	-0.289089	-0.270612	0.090492	-0.331909	-0.247540	0.096475	-0.423415	-0.158095	0.031129	-0.308599	-0.145978	0.018985	-0.420793	-0.093698	0.032124	-0.360940	-0.345074	0.073512	-0.396080	-0.078125	0.730456	-0.528350	-0.030555	0.743804	-0.508213	-0.063167	0.695782	-0.533250	-0.019361	0.711672	-0.516621	0.030351	0.475050	-0.508166	0.024358	0.462985	-0.393372	-0.113694	0.428309	-0.543326	-0.095741	0.390618	-0.528382	-0.155396	0.414121	-0.542322	-0.137142	0.377778	-0.531416	-0.342711	0.319059	-0.516617	-0.320314	0.302308	-0.429738	-0.336898	0.197363	-0.553089	-0.331072	0.169649	-0.446332	-0.289660	0.147413	-0.504149	-0.406537	0.357517	-0.453478	-0.117498	1.388621	-0.141589	-0.058743	1.408524	-0.496724	
72	0.3550	-0.076260	0.920229	-0.193989	-0.060917	0.909357	-0.465550	-0.239211	0.946157	-0.306255	-0.227878	0.954571	-0.395127	-0.120041	0.724376	-0.172940	-0.067121	0.736949	-0.187968	-0.116478	0.695818	-0.177514	-0.067073	0.703741	-0.192924	-0.070228	0.445206	-0.270081	-0.072121	0.460426	-0.362372	-0.142621	0.324417	-0.259229	-0.105023	0.312961	-0.283474	-0.162488	0.287369	-0.263893	-0.130496	0.266899	-0.288936	-0.270491	0.090922	-0.331918	-0.247413	0.097004	-0.423391	-0.158182	0.031380	-0.308731	-0.146149	0.019275	-0.420918	-0.093875	0.032362	-0.361149	-0.345056	0.074030	-0.396013	-0.068189	0.731838	-0.527548	-0.020696	0.745781	-0.507033	-0.052645	0.697352	-0.532416	-0.008983	0.713784	-0.515424	0.043693	0.477481	-0.506685	0.036921	0.465552	-0.391801	-0.099585	0.429048	-0.542819	-0.081383	0.391593	-0.527542	-0.141170	0.414480	-0.542079	-0.122637	0.378347	-0.530867	-0.327778	0.317523	-0.517344	-0.305760	0.301457	-0.430261	-0.319995	0.195654	-0.553430	-0.314612	0.168521	-0.446445	-0.272295	0.146612	-0.503903	-0.392810	0.355520	-0.454834	-0.109966	1.389056	-0.140872	-0.051865	1.409304	-0.496235	
73	0.3600	-0.070117	0.920552	-0.193274	-0.054215	0.909914	-0.464794	-0.232822	0.946872	-0.305972	-0.221342	0.955175	-0.394856	-0.115194	0.724676	-0.172609	-0.062142	0.736823	-0.187554	-0.111920	0.696102	-0.177220	-0.062387	0.703534	-0.192548	-0.068191	0.444816	-0.269780	-0.070028	0.459876	-0.362092	-0.141262	0.324366	-0.259029	-0.103719	0.312693	-0.283232	-0.161344	0.287404	-0.263738	-0.129491	0.266697	-0.288791	-0.270343	0.091309	-0.331912	-0.247270	0.097489	-0.423355	-0.158208	0.031636	-0.308842	-0.146253	0.019589	-0.421021	-0.093992	0.032647	-0.361326	-0.344984	0.074476	-0.395941	-0.059734	0.733102	-0.526847	-0.012311	0.747555	-0.506000	-0.043690	0.698784	-0.531678	-0.000158	0.715678	-0.514366	0.055043	0.479673	-0.505366	0.047579	0.467861	-0.390403	-0.087574	0.429729	-0.542341	-0.069145	0.392483	-0.526783	-0.129053	0.414818	-0.541835	-0.110269	0.378872	-0.530360	-0.315026	0.316143	-0.517962	-0.293336	0.300683	-0.430700	-0.305518	0.194112	-0.553698	-0.300512	0.167496	-0.446514	-0.257407	0.145866	-0.503655	-0.381110	0.353740	-0.456008	-0.103523	1.389482	-0.140264	-0.046012	1.410016	-0.495816	
74	0.3650	-0.064980	0.920846	-0.192678	-0.048615	0.910425	-0.464158	-0.227469	0.947514	-0.305733	-0.215867	0.955733	-0.394622	-0.111168	0.724949	-0.172335	-0.058004	0.736730	-0.187211	-0.108142	0.696362	-0.176977	-0.058498	0.703373	-0.192234	-0.066571	0.444511	-0.269519	-0.068365	0.459420	-0.361853	-0.140181	0.324352	-0.258847	-0.102688	0.312506	-0.283016	-0.160434	0.287462	-0.263594	-0.128696	0.266564	-0.288656	-0.270181	0.091649	-0.331895	-0.247121	0.097925	-0.423311	-0.158188	0.031883	-0.308933	-0.146306	0.019904	-0.421105	-0.094063	0.032949	-0.361471	-0.344878	0.074854	-0.395867	-0.052670	0.734231	-0.526247	-0.005311	0.749111	-0.505114	-0.036207	0.700058	-0.531039	0.007209	0.717338	-0.513451	0.064522	0.481606	-0.504215	0.056456	0.469892	-0.389186	-0.077537	0.430343	-0.541905	-0.058907	0.393278	-0.526113	-0.118923	0.415127	-0.541599	-0.099916	0.379342	-0.529904	-0.304338	0.314933	-0.518477	-0.282926	0.299999	-0.431061	-0.293352	0.192757	-0.553903	-0.288657	0.166590	-0.446548	-0.244880	0.145192	-0.503417	-0.371321	0.352189	-0.457004	-0.098111	1.389884	-0.139756	-0.041123	1.410650	-0.495464	
75	0.3700	-0.060769	0.921105	-0.192192	-0.044030	0.910879	-0.463633	-0.223076	0.948074	-0.305534	-0.211373	0.956233	-0.394425	-0.107891	0.725191	-0.172112	-0.054632	0.736664	-0.186932	-0.105071	0.696593	-0.176780	-0.055336	0.703250	-0.191978	-0.065310	0.444277	-0.269297	-0.067070	0.459050	-0.361652	-0.139341	0.324363	-0.258686	-0.101891	0.312380	-0.282828	-0.159724	0.287532	-0.263465	-0.128080	0.266485	-0.288536	-0.270018	0.091940	-0.331872	-0.246972	0.098304	-0.423264	-0.158139	0.032110	-0.309005	-0.146320	0.020202	-0.421171	-0.094098	0.033247	-0.361588	-0.344752	0.075168	-0.395796	-0.046889	0.735212	-0.525743	0.000415	0.750444	-0.504370	-0.030081	0.701163	-0.530498	0.013235	0.718758	-0.512677	0.072277	0.483267	-0.503234	0.063700	0.471635	-0.388152	-0.069320	0.430881	-0.541516	-0.050517	0.393968	-0.525535	-0.110626	0.415403	-0.541380	-0.091428	0.379754	-0.529505	-0.295564	0.313898	-0.518896	-0.274383	0.299410	-0.431352	-0.283338	0.191596	-0.554055	-0.278897	0.165810	-0.446558	-0.234560	0.144602	-0.503197	-0.363297	0.350869	-0.457828	-0.093658	1.390251	-0.139341	-0.037121	1.411201	-0.495173	
76	0.3750	-0.057397	0.921328	-0.191804	-0.040363	0.911271	-0.463211	-0.219552	0.948549	-0.305373	-0.207769	0.956667	-0.394263	-0.105283	0.725398	-0.171934	-0.051947	0.736617	-0.186710	-0.102632	0.696791	-0.176623	-0.052821	0.703159	-0.191774	-0.064350	0.444102	-0.269115	-0.066087	0.458757	-0.361488	-0.138702	0.324389	-0.258548	-0.101289	0.312302	-0.282668	-0.159183	0.287605	-0.263352	-0.127614	0.266445	-0.288431	-0.269862	0.092184	-0.331847	-0.246833	0.098625	-0.423218	-0.158074	0.032312	-0.309061	-0.146309	0.020471	-0.421221	-0.094107	0.033522	-0.361678	-0.344621	0.075423	-0.395732	-0.042265	0.736042	-0.525331	0.004991	0.751556	-0.503761	-0.025181	0.702094	-0.530051	0.018050	0.719943	-0.512039	0.078476	0.484658	-0.502420	0.069476	0.473090	-0.387294	-0.062749	0.431340	-0.541181	-0.043800	0.394553	-0.525051	-0.103987	0.415641	-0.541185	-0.084630	0.380105	-0.529166	-0.288529	0.313038	-0.519229	-0.267534	0.298917	-0.431581	-0.275289	0.190631	-0.554164	-0.271049	0.165158	-0.446551	-0.226256	0.144103	-0.503003	-0.356873	0.349777	-0.458495	-0.090077	1.390574	-0.139010	-0.033919	1.411666	-0.494940	
