PathFileType	4	(X/Y/Z)	 P7 250r2 03.trc
DataRate	CameraRate	NumFrames	NumMarkers	Units	OrigDataRate	OrigDataStartFrame	OrigNumFrames
200	200	77	38	m	200	1	77
Frame#	Time	RASIS			LASIS			RPSIS			LPSIS			RThighRear1			RThighFront1			RThighRear2			RThighFront2			RKneeLat			RKneeMed			RShankRear1			RShankFront1			RShankRear2			RShankFront2			RAnkleLat			RAnkleMed			RM5			RM1			RMid			RHeel			LThighRear1			LThighFront1			LThighRear2			LThighFront2			LKneeLat			LKneeMed			LShankRear1			LShankFront1			LShankRear2			LShankFront2			LAnkleLat			LAnkleMed			LM5			LM1			LMid			LHeel			RShoulder			LShoulder			
		X1	Y1	Z1	X2	Y2	Z2	X3	Y3	Z3	X4	Y4	Z4	X5	Y5	Z5	X6	Y6	Z6	X7	Y7	Z7	X8	Y8	Z8	X9	Y9	Z9	X10	Y10	Z10	X11	Y11	Z11	X12	Y12	Z12	X13	Y13	Z13	X14	Y14	Z14	X15	Y15	Z15	X16	Y16	Z16	X17	Y17	Z17	X18	Y18	Z18	X19	Y19	Z19	X20	Y20	Z20	X21	Y21	Z21	X22	Y22	Z22	X23	Y23	Z23	X24	Y24	Z24	X25	Y25	Z25	X26	Y26	Z26	X27	Y27	Z27	X28	Y28	Z28	X29	Y29	Z29	X30	Y30	Z30	X31	Y31	Z31	X32	Y32	Z32	X33	Y33	Z33	X34	Y34	Z34	X35	Y35	Z35	X36	Y36	Z36	X37	Y37	Z37	X38	Y38	Z38	
1	0.0000	-1.323223	0.929729	-0.178716	-1.328699	0.939866	-0.447378	-1.479863	0.972225	-0.274423	-1.483463	0.978415	-0.363260	-1.399520	0.731563	-0.145051	-1.348547	0.733879	-0.159093	-1.400798	0.703160	-0.146227	-1.354191	0.700230	-0.161566	-1.419807	0.431589	-0.196907	-1.405445	0.430700	-0.307370	-1.561515	0.410336	-0.188848	-1.546433	0.372074	-0.208252	-1.600819	0.403464	-0.194210	-1.596036	0.363858	-0.213241	-1.822510	0.358849	-0.255991	-1.796494	0.343572	-0.343565	-1.885826	0.226125	-0.251473	-1.857540	0.223579	-0.362279	-1.849767	0.161839	-0.301720	-1.844687	0.426704	-0.317938	-1.335398	0.757112	-0.511780	-1.285494	0.773296	-0.496245	-1.320671	0.721865	-0.513003	-1.275983	0.740682	-0.501720	-1.210580	0.514583	-0.476261	-1.220173	0.502726	-0.374234	-1.267082	0.364703	-0.525170	-1.225694	0.359967	-0.508446	-1.275619	0.320420	-0.525764	-1.235551	0.316536	-0.513363	-1.288293	0.098466	-0.508681	-1.281849	0.115297	-0.419311	-1.172386	0.033341	-0.511531	-1.172364	0.042678	-0.397116	-1.116537	0.063157	-0.451363	-1.369747	0.067486	-0.460786	-1.247695	1.401221	-0.154624	-1.289654	1.386702	-0.516376	
2	0.0050	-1.308335	0.927957	-0.178118	-1.313890	0.938178	-0.447042	-1.465670	0.969676	-0.273777	-1.469081	0.976617	-0.362589	-1.380928	0.729806	-0.144054	-1.330107	0.733382	-0.157908	-1.381398	0.701403	-0.145070	-1.334650	0.699845	-0.160048	-1.391940	0.431085	-0.195037	-1.377294	0.430594	-0.305592	-1.533086	0.410059	-0.186396	-1.518154	0.371638	-0.206168	-1.572551	0.403397	-0.191670	-1.567897	0.363686	-0.210982	-1.794636	0.360262	-0.253061	-1.769017	0.344436	-0.340632	-1.856470	0.227211	-0.247078	-1.829204	0.223786	-0.357913	-1.820208	0.162681	-0.296972	-1.818041	0.427589	-0.315345	-1.321832	0.755004	-0.510748	-1.271952	0.770534	-0.494775	-1.307621	0.719570	-0.511967	-1.262869	0.737824	-0.500280	-1.200997	0.510522	-0.475275	-1.211015	0.498725	-0.373405	-1.259780	0.361920	-0.524089	-1.218804	0.356357	-0.507362	-1.269368	0.318015	-0.524772	-1.229608	0.313254	-0.512268	-1.287598	0.097781	-0.507852	-1.281232	0.114326	-0.418274	-1.172240	0.033413	-0.511529	-1.171950	0.041949	-0.396976	-1.116402	0.061735	-0.450531	-1.369676	0.067149	-0.460094	-1.234756	1.399801	-0.154323	-1.274523	1.383911	-0.516751	
3	0.0100	-1.293254	0.926180	-0.177497	-1.298871	0.936452	-0.446696	-1.451281	0.967109	-0.273128	-1.454496	0.974800	-0.361915	-1.362089	0.728079	-0.143029	-1.311430	0.732952	-0.156688	-1.361732	0.699689	-0.143884	-1.314850	0.699533	-0.158497	-1.363629	0.430714	-0.193135	-1.348706	0.430633	-0.303790	-1.504213	0.409849	-0.183915	-1.489411	0.371261	-0.204044	-1.543847	0.403378	-0.189092	-1.539306	0.363547	-0.208673	-1.766382	0.361579	-0.250060	-1.741159	0.345221	-0.337633	-1.826628	0.228157	-0.242608	-1.800394	0.223865	-0.353474	-1.790112	0.163404	-0.292164	-1.791086	0.428362	-0.312673	-1.308129	0.752845	-0.509701	-1.258267	0.767708	-0.493305	-1.294451	0.717221	-0.510916	-1.249624	0.734898	-0.498840	-1.191370	0.506384	-0.474281	-1.201806	0.494648	-0.372575	-1.252459	0.359088	-0.523005	-1.211901	0.352692	-0.506273	-1.263107	0.315570	-0.523774	-1.223663	0.309924	-0.511168	-1.286938	0.097087	-0.507025	-1.280648	0.113353	-0.417236	-1.172099	0.033484	-0.511527	-1.171542	0.041231	-0.396840	-1.116270	0.060333	-0.449700	-1.369645	0.066797	-0.459404	-1.221643	1.398372	-0.153996	-1.259146	1.381104	-0.517112	
4	0.0150	-1.277989	0.924418	-0.176849	-1.283650	0.934695	-0.446334	-1.436700	0.964547	-0.272475	-1.439712	0.972979	-0.361238	-1.343025	0.726422	-0.141971	-1.292540	0.732629	-0.155426	-1.341824	0.698063	-0.142664	-1.294819	0.699336	-0.156909	-1.334904	0.430544	-0.191201	-1.319716	0.430882	-0.301959	-1.474917	0.409735	-0.181404	-1.460215	0.370972	-0.201878	-1.514724	0.403422	-0.186473	-1.510270	0.363454	-0.206309	-1.737750	0.362731	-0.246977	-1.712921	0.345868	-0.334558	-1.796261	0.228895	-0.238063	-1.771067	0.223757	-0.348961	-1.759425	0.163960	-0.287299	-1.763843	0.428936	-0.309901	-1.294318	0.750647	-0.508637	-1.244464	0.764825	-0.491844	-1.281194	0.714831	-0.509852	-1.236279	0.731911	-0.497408	-1.181748	0.502193	-0.473287	-1.192590	0.490518	-0.371748	-1.245159	0.356231	-0.521925	-1.205028	0.348999	-0.505187	-1.256873	0.313108	-0.522779	-1.217754	0.306573	-0.510070	-1.286317	0.096397	-0.506208	-1.280099	0.112393	-0.416209	-1.171967	0.033547	-0.511527	-1.171148	0.040531	-0.396709	-1.116145	0.058963	-0.448880	-1.369653	0.066446	-0.458725	-1.208371	1.396950	-0.153632	-1.243514	1.378312	-0.517439	
5	0.0200	-1.262543	0.922694	-0.176169	-1.268223	0.932913	-0.445953	-1.421923	0.962014	-0.271819	-1.424723	0.971170	-0.360557	-1.323749	0.724873	-0.140872	-1.273455	0.732456	-0.154116	-1.321687	0.696570	-0.141407	-1.274575	0.699299	-0.155283	-1.305788	0.430644	-0.189230	-1.290356	0.431409	-0.300098	-1.445209	0.409743	-0.178861	-1.430566	0.370806	-0.199661	-1.485188	0.403542	-0.183808	-1.480782	0.363424	-0.203879	-1.708728	0.363642	-0.243795	-1.684287	0.346317	-0.331393	-1.765310	0.229352	-0.233438	-1.741158	0.223404	-0.344370	-1.728071	0.164300	-0.282380	-1.736311	0.429220	-0.307008	-1.280421	0.748421	-0.507559	-1.230564	0.761894	-0.490400	-1.267875	0.712412	-0.508775	-1.222860	0.728875	-0.495991	-1.172176	0.497976	-0.472298	-1.183410	0.486364	-0.370930	-1.237920	0.353375	-0.520859	-1.198223	0.345309	-0.504112	-1.250698	0.310655	-0.521793	-1.211912	0.303228	-0.508984	-1.285739	0.095726	-0.505413	-1.279586	0.111464	-0.415204	-1.171847	0.033595	-0.511528	-1.170774	0.039850	-0.396586	-1.116031	0.057634	-0.448079	-1.369698	0.066116	-0.458066	-1.194950	1.395554	-0.153219	-1.227612	1.375566	-0.517713	
6	0.0250	-1.246914	0.921032	-0.175451	-1.252581	0.931115	-0.445546	-1.406937	0.959535	-0.271157	-1.409519	0.969391	-0.359873	-1.304268	0.723473	-0.139728	-1.254184	0.732475	-0.152750	-1.301328	0.695253	-0.140107	-1.254129	0.699466	-0.153613	-1.276299	0.431081	-0.187219	-1.260649	0.432277	-0.298199	-1.415092	0.409899	-0.176284	-1.400457	0.370794	-0.197387	-1.455237	0.403750	-0.181091	-1.450830	0.363470	-0.201375	-1.679288	0.364237	-0.240500	-1.655225	0.346505	-0.328124	-1.733704	0.229461	-0.228727	-1.710593	0.222749	-0.339693	-1.695963	0.164381	-0.277408	-1.708477	0.429117	-0.303975	-1.266452	0.746181	-0.506464	-1.216582	0.758927	-0.488981	-1.254512	0.709981	-0.507687	-1.209383	0.725800	-0.494598	-1.162696	0.493761	-0.471320	-1.174304	0.482215	-0.370126	-1.230777	0.350550	-0.519815	-1.191519	0.341655	-0.503056	-1.244614	0.308237	-0.520825	-1.206167	0.299923	-0.507918	-1.285202	0.095089	-0.504649	-1.279104	0.110584	-0.414234	-1.171745	0.033619	-0.511534	-1.170429	0.039190	-0.396472	-1.115932	0.056353	-0.447306	-1.369775	0.065830	-0.457437	-1.181384	1.394204	-0.152744	-1.211417	1.372898	-0.517912	
7	0.0300	-1.231091	0.919456	-0.174690	-1.236710	0.929310	-0.445108	-1.391729	0.957133	-0.270488	-1.394084	0.967659	-0.359184	-1.284581	0.722260	-0.138531	-1.234729	0.732729	-0.151321	-1.280749	0.694159	-0.138761	-1.233489	0.699881	-0.151898	-1.246453	0.431920	-0.185163	-1.230618	0.433549	-0.296258	-1.384566	0.410227	-0.173666	-1.369877	0.370967	-0.195047	-1.424864	0.404056	-0.178315	-1.420394	0.363607	-0.198786	-1.649394	0.364442	-0.237076	-1.625696	0.346368	-0.324738	-1.701363	0.229158	-0.223923	-1.679286	0.221738	-0.334927	-1.663007	0.164163	-0.272383	-1.680315	0.428534	-0.300779	-1.252420	0.743944	-0.505354	-1.202525	0.755935	-0.487592	-1.241119	0.707557	-0.506586	-1.195862	0.722701	-0.493232	-1.153345	0.489581	-0.470359	-1.165308	0.478104	-0.369338	-1.223760	0.347785	-0.518802	-1.184947	0.338071	-0.502025	-1.238645	0.305885	-0.519883	-1.200543	0.296691	-0.506881	-1.284702	0.094506	-0.503927	-1.278649	0.109772	-0.413309	-1.171662	0.033610	-0.511544	-1.170119	0.038553	-0.396370	-1.115852	0.055126	-0.446567	-1.369873	0.065616	-0.456849	-1.167676	1.392920	-0.152195	-1.194903	1.370341	-0.518015	
8	0.0350	-1.215060	0.917988	-0.173883	-1.220592	0.927508	-0.444633	-1.376277	0.954835	-0.269809	-1.378396	0.965993	-0.358487	-1.264687	0.721273	-0.137276	-1.215093	0.733258	-0.149824	-1.259949	0.693328	-0.137363	-1.212658	0.700584	-0.150135	-1.216267	0.433219	-0.183057	-1.200290	0.435278	-0.294268	-1.353631	0.410746	-0.171003	-1.338817	0.371354	-0.192632	-1.394061	0.404467	-0.175472	-1.389458	0.363848	-0.196103	-1.619003	0.364185	-0.233508	-1.595654	0.345849	-0.321219	-1.668205	0.228386	-0.219021	-1.647147	0.220325	-0.330063	-1.629106	0.163613	-0.267301	-1.651788	0.427377	-0.297403	-1.238329	0.741728	-0.504226	-1.188398	0.752935	-0.486238	-1.227702	0.705161	-0.505473	-1.182304	0.719595	-0.491899	-1.144154	0.485470	-0.469421	-1.156452	0.474067	-0.368571	-1.216896	0.345116	-0.517827	-1.178530	0.334594	-0.501027	-1.232813	0.303631	-0.518973	-1.195060	0.293568	-0.505882	-1.284233	0.093994	-0.503256	-1.278210	0.109048	-0.412442	-1.171604	0.033562	-0.511561	-1.169851	0.037938	-0.396281	-1.115795	0.053956	-0.445869	-1.369981	0.065502	-0.456310	-1.153826	1.391724	-0.151562	-1.178043	1.367927	-0.517999	
9	0.0400	-1.198808	0.916655	-0.173024	-1.204209	0.925723	-0.444114	-1.360561	0.952665	-0.269118	-1.362436	0.964410	-0.357779	-1.244583	0.720548	-0.135957	-1.195273	0.734097	-0.148253	-1.238927	0.692801	-0.135910	-1.191639	0.701611	-0.148320	-1.185766	0.435030	-0.180896	-1.169695	0.437511	-0.292221	-1.322293	0.411472	-0.168288	-1.307272	0.371980	-0.190135	-1.362826	0.404987	-0.172554	-1.358008	0.364201	-0.193317	-1.588069	0.363401	-0.229784	-1.565051	0.344890	-0.317556	-1.634148	0.227098	-0.214015	-1.614091	0.218468	-0.325098	-1.594172	0.162707	-0.262162	-1.622854	0.425559	-0.293829	-1.224179	0.739556	-0.503080	-1.174201	0.749944	-0.484921	-1.214266	0.702816	-0.504347	-1.168713	0.716501	-0.490600	-1.135150	0.481468	-0.468512	-1.147762	0.470142	-0.367826	-1.210207	0.342579	-0.516900	-1.172290	0.331264	-0.500069	-1.227134	0.301508	-0.518103	-1.189733	0.290593	-0.504928	-1.283782	0.093573	-0.502644	-1.277773	0.108432	-0.411641	-1.171572	0.033464	-0.511585	-1.169632	0.037343	-0.396206	-1.115764	0.052843	-0.445217	-1.370081	0.065521	-0.455829	-1.139832	1.390638	-0.150835	-1.160810	1.365691	-0.517843	
10	0.0450	-1.182319	0.915479	-0.172112	-1.187543	0.923968	-0.443548	-1.344561	0.950650	-0.268410	-1.346183	0.962931	-0.357059	-1.224266	0.720116	-0.134571	-1.175270	0.735278	-0.146604	-1.217685	0.692613	-0.134400	-1.170437	0.702994	-0.146454	-1.154982	0.437393	-0.178677	-1.138869	0.440284	-0.290111	-1.290562	0.412417	-0.165516	-1.275249	0.372866	-0.187548	-1.331159	0.405616	-0.169553	-1.326036	0.364677	-0.190420	-1.556548	0.362032	-0.225891	-1.533838	0.343441	-0.313737	-1.599119	0.225256	-0.208900	-1.580036	0.216139	-0.320027	-1.558122	0.161430	-0.256963	-1.593468	0.423000	-0.290045	-1.209965	0.737449	-0.501916	-1.159933	0.746982	-0.483642	-1.200808	0.700548	-0.503208	-1.155091	0.713441	-0.489336	-1.126355	0.477613	-0.467637	-1.139260	0.466371	-0.367106	-1.203709	0.340210	-0.516026	-1.166240	0.328122	-0.499156	-1.221620	0.299552	-0.517280	-1.184570	0.287803	-0.504028	-1.283334	0.093266	-0.502100	-1.277322	0.107945	-0.410918	-1.171569	0.033312	-0.511618	-1.169466	0.036765	-0.396146	-1.115762	0.051786	-0.444617	-1.370154	0.065707	-0.455414	-1.125695	1.389681	-0.150003	-1.143183	1.363666	-0.517525	
11	0.0500	-1.165578	0.914482	-0.171145	-1.170579	0.922259	-0.442927	-1.328256	0.948812	-0.267682	-1.329619	0.961575	-0.356322	-1.203737	0.720007	-0.133113	-1.155085	0.736826	-0.144875	-1.196225	0.692792	-0.132832	-1.149058	0.704757	-0.144536	-1.123956	0.440339	-0.176394	-1.107861	0.443619	-0.287932	-1.258458	0.413583	-0.162679	-1.242760	0.374026	-0.184864	-1.299073	0.406350	-0.166463	-1.293546	0.365279	-0.187406	-1.524398	0.360026	-0.221822	-1.501973	0.341459	-0.309754	-1.563053	0.222835	-0.203674	-1.544912	0.213316	-0.314847	-1.520892	0.159778	-0.251703	-1.563580	0.419629	-0.286040	-1.195682	0.735434	-0.500733	-1.145588	0.744071	-0.482401	-1.187324	0.698386	-0.502056	-1.141435	0.710441	-0.488108	-1.117781	0.473950	-0.466800	-1.130960	0.462796	-0.366411	-1.197410	0.338049	-0.515211	-1.160386	0.325208	-0.498294	-1.216274	0.297800	-0.516509	-1.179574	0.285241	-0.503188	-1.282869	0.093093	-0.501631	-1.276834	0.107607	-0.410280	-1.171595	0.033099	-0.511660	-1.169358	0.036200	-0.396100	-1.115792	0.050780	-0.444072	-1.370176	0.066097	-0.455072	-1.111416	1.388877	-0.149060	-1.125144	1.361884	-0.517025	
12	0.0550	-1.148574	0.913686	-0.170123	-1.153303	0.920613	-0.442248	-1.311632	0.947176	-0.266932	-1.312729	0.960360	-0.355565	-1.182997	0.720244	-0.131584	-1.134720	0.738758	-0.143066	-1.174556	0.693362	-0.131204	-1.127511	0.706917	-0.142568	-1.092741	0.443882	-0.174046	-1.076727	0.447527	-0.285678	-1.226014	0.414971	-0.159773	-1.209834	0.375472	-0.182077	-1.266587	0.407181	-0.163278	-1.260553	0.366009	-0.184271	-1.491584	0.357345	-0.217570	-1.469417	0.338908	-0.305602	-1.525901	0.219821	-0.198338	-1.508664	0.209992	-0.309559	-1.482433	0.157757	-0.246382	-1.533146	0.415387	-0.281810	-1.181321	0.733536	-0.499530	-1.131163	0.741237	-0.481197	-1.173806	0.696358	-0.500889	-1.127741	0.707527	-0.486912	-1.109435	0.470520	-0.466006	-1.122873	0.459461	-0.365741	-1.191314	0.336137	-0.514461	-1.154730	0.322564	-0.497486	-1.211096	0.296287	-0.515794	-1.174741	0.282945	-0.502414	-1.282365	0.093079	-0.501241	-1.276286	0.107439	-0.409733	-1.171651	0.032821	-0.511712	-1.169310	0.035646	-0.396068	-1.115854	0.049821	-0.443585	-1.370116	0.066729	-0.454809	-1.096998	1.388243	-0.148000	-1.106679	1.360374	-0.516326	
13	0.0600	-1.131298	0.913109	-0.169046	-1.135707	0.919048	-0.441506	-1.294675	0.945764	-0.266154	-1.295501	0.959306	-0.354784	-1.162056	0.720843	-0.129981	-1.114182	0.741086	-0.141179	-1.152689	0.694340	-0.129519	-1.105809	0.709484	-0.140552	-1.061401	0.448026	-0.171630	-1.045534	0.452003	-0.283341	-1.193270	0.416572	-0.156790	-1.176511	0.377206	-0.179185	-1.233734	0.408096	-0.159993	-1.227084	0.366868	-0.181012	-1.458078	0.353958	-0.213135	-1.436142	0.335764	-0.301276	-1.487628	0.216217	-0.192894	-1.471251	0.206171	-0.304165	-1.442717	0.155383	-0.241000	-1.502120	0.410228	-0.277353	-1.166872	0.731784	-0.498308	-1.116649	0.738507	-0.480025	-1.160244	0.694494	-0.499708	-1.114003	0.704729	-0.485746	-1.101317	0.467369	-0.465255	-1.114999	0.456411	-0.365093	-1.185416	0.334511	-0.513777	-1.149263	0.320233	-0.496734	-1.206076	0.295052	-0.515138	-1.170058	0.280957	-0.501708	-1.281794	0.093246	-0.500933	-1.275649	0.107460	-0.409283	-1.171736	0.032479	-0.511775	-1.169322	0.035098	-0.396051	-1.115950	0.048899	-0.443158	-1.369944	0.067640	-0.454627	-1.082445	1.387800	-0.146821	-1.087787	1.359165	-0.515411	
14	0.0650	-1.113743	0.912768	-0.167917	-1.117788	0.917583	-0.440699	-1.277377	0.944594	-0.265346	-1.277927	0.958429	-0.353977	-1.140924	0.721816	-0.128308	-1.093481	0.743810	-0.139217	-1.130642	0.695735	-0.127778	-1.083971	0.712456	-0.138492	-1.030012	0.452759	-0.169145	-1.014359	0.457026	-0.280919	-1.160282	0.418370	-0.153728	-1.142847	0.379224	-0.176184	-1.200558	0.409079	-0.156604	-1.193181	0.367849	-0.177629	-1.423859	0.349849	-0.208516	-1.402127	0.332011	-0.296777	-1.448218	0.212034	-0.187345	-1.432652	0.201867	-0.298669	-1.401737	0.152684	-0.235558	-1.470462	0.404120	-0.272672	-1.152325	0.730205	-0.497067	-1.102041	0.735907	-0.478881	-1.146626	0.692826	-0.498513	-1.100212	0.702077	-0.484605	-1.093418	0.464537	-0.464550	-1.107333	0.453688	-0.364465	-1.179704	0.333212	-0.513161	-1.143971	0.318254	-0.496041	-1.201199	0.294128	-0.514543	-1.165510	0.279313	-0.501075	-1.281127	0.093618	-0.500710	-1.274892	0.107690	-0.408932	-1.171845	0.032073	-0.511848	-1.169393	0.034555	-0.396047	-1.116078	0.048008	-0.442791	-1.369625	0.068870	-0.454526	-1.067764	1.387562	-0.145520	-1.068469	1.358281	-0.514265	
15	0.0700	-1.095908	0.912676	-0.166738	-1.099545	0.916236	-0.439824	-1.259734	0.943686	-0.264505	-1.260006	0.957746	-0.353140	-1.119617	0.723167	-0.126566	-1.072631	0.746925	-0.137187	-1.108439	0.697546	-0.125985	-1.062016	0.715825	-0.136394	-0.998656	0.458052	-0.166591	-0.983287	0.462564	-0.278408	-1.127113	0.420345	-0.150580	-1.108907	0.381517	-0.173072	-1.167112	0.410109	-0.153108	-1.158897	0.368945	-0.174123	-1.388919	0.345014	-0.203718	-1.367362	0.327643	-0.292108	-1.407674	0.207302	-0.181699	-1.392863	0.197109	-0.293079	-1.359509	0.149697	-0.230061	-1.438139	0.397049	-0.267773	-1.137668	0.728827	-0.495807	-1.087330	0.733467	-0.477760	-1.132936	0.691381	-0.497303	-1.086360	0.699602	-0.483483	-1.085719	0.462068	-0.463890	-1.099861	0.451335	-0.363852	-1.174159	0.332274	-0.512613	-1.138833	0.316663	-0.495404	-1.196444	0.293551	-0.514008	-1.161069	0.278050	-0.500513	-1.280328	0.094220	-0.500571	-1.273982	0.108148	-0.408680	-1.171976	0.031611	-0.511932	-1.169519	0.034016	-0.396055	-1.116235	0.047137	-0.442486	-1.369119	0.070457	-0.454507	-1.052964	1.387544	-0.144098	-1.048738	1.357745	-0.512879	
16	0.0750	-1.077797	0.912841	-0.165516	-1.080985	0.915026	-0.438881	-1.241747	0.943053	-0.263628	-1.241741	0.957272	-0.352270	-1.098157	0.724895	-0.124760	-1.051648	0.750414	-0.135095	-1.086106	0.699768	-0.124144	-1.039971	0.719572	-0.134264	-0.967429	0.463865	-0.163969	-0.952411	0.468566	-0.275803	-1.093838	0.422468	-0.147344	-1.074772	0.384067	-0.169852	-1.133460	0.411162	-0.149504	-1.124298	0.370144	-0.170497	-1.353258	0.339461	-0.198748	-1.331848	0.322667	-0.287273	-1.366015	0.202059	-0.175965	-1.351903	0.191936	-0.287402	-1.316073	0.146467	-0.224512	-1.405122	0.389014	-0.262669	-1.122887	0.727675	-0.494529	-1.072508	0.731214	-0.476655	-1.119157	0.690189	-0.496078	-1.072435	0.697333	-0.482372	-1.078194	0.459996	-0.463272	-1.092560	0.449389	-0.363249	-1.168753	0.331731	-0.512129	-1.133818	0.315494	-0.494821	-1.191781	0.293349	-0.513531	-1.156706	0.277200	-0.500021	-1.279364	0.095075	-0.500511	-1.272881	0.108851	-0.408525	-1.172122	0.031100	-0.512025	-1.169694	0.033482	-0.396075	-1.116418	0.046277	-0.442243	-1.368386	0.072436	-0.454563	-1.038055	1.387757	-0.142558	-1.028614	1.357574	-0.511243	
17	0.0800	-1.059414	0.913272	-0.164254	-1.062117	0.913971	-0.437868	-1.223424	0.942707	-0.262713	-1.223137	0.957020	-0.351366	-1.076569	0.726989	-0.122895	-1.030552	0.754252	-0.132951	-1.063676	0.702383	-0.122259	-1.017864	0.723671	-0.132108	-0.936428	0.470141	-0.161282	-0.921826	0.474971	-0.273104	-1.060538	0.424708	-0.144017	-1.040529	0.386850	-0.166525	-1.099675	0.412211	-0.145794	-1.089460	0.371431	-0.166757	-1.316887	0.333210	-0.193617	-1.295598	0.317099	-0.282282	-1.323282	0.196356	-0.170156	-1.309807	0.186397	-0.281651	-1.271488	0.143049	-0.218917	-1.371392	0.380033	-0.257373	-1.107970	0.726773	-0.493235	-1.057566	0.729175	-0.475557	-1.105272	0.689274	-0.494839	-1.058424	0.695298	-0.481265	-1.070809	0.458355	-0.462693	-1.085401	0.447883	-0.362648	-1.163451	0.331611	-0.511704	-1.128889	0.314775	-0.494288	-1.187175	0.293550	-0.513106	-1.152381	0.276791	-0.499595	-1.278196	0.096207	-0.500526	-1.271553	0.109817	-0.408462	-1.172274	0.030556	-0.512126	-1.169907	0.032957	-0.396103	-1.116622	0.045421	-0.442061	-1.367386	0.074844	-0.454688	-1.023049	1.388206	-0.140906	-1.008122	1.357780	-0.509352	
18	0.0850	-1.040772	0.913968	-0.162960	-1.042957	0.913087	-0.436787	-1.204773	0.942656	-0.261759	-1.204208	0.956999	-0.350425	-1.054880	0.729432	-0.120977	-1.009365	0.758407	-0.130766	-1.041185	0.705369	-0.120338	-0.995725	0.728084	-0.129936	-0.905756	0.476813	-0.158532	-0.891631	0.481704	-0.270310	-1.027303	0.427025	-0.140598	-1.006276	0.389838	-0.163095	-1.065837	0.413226	-0.141978	-1.054469	0.372788	-0.162909	-1.279827	0.326295	-0.188337	-1.258633	0.310966	-0.277145	-1.279533	0.190251	-0.164283	-1.266631	0.180551	-0.275839	-1.225834	0.139500	-0.213283	-1.336936	0.370138	-0.251904	-1.092902	0.726141	-0.491925	-1.042494	0.727375	-0.474460	-1.091259	0.688658	-0.493584	-1.044313	0.693524	-0.480153	-1.063519	0.457171	-0.462146	-1.078342	0.446843	-0.362041	-1.158212	0.331939	-0.511330	-1.124002	0.314531	-0.493799	-1.182582	0.294177	-0.512728	-1.148052	0.276845	-0.499228	-1.276788	0.097638	-0.500608	-1.269960	0.111062	-0.408484	-1.172423	0.029998	-0.512233	-1.170147	0.032450	-0.396140	-1.116838	0.044562	-0.441938	-1.366073	0.077712	-0.454871	-1.007957	1.388897	-0.139146	-0.987297	1.358373	-0.507204	
19	0.0900	-1.021883	0.914928	-0.161639	-1.023523	0.912389	-0.435639	-1.185810	0.942905	-0.260767	-1.184968	0.957217	-0.349447	-1.033123	0.732202	-0.119014	-0.988113	0.762837	-0.128551	-1.018671	0.708694	-0.118385	-0.973588	0.732769	-0.127755	-0.875516	0.483801	-0.155723	-0.861923	0.488681	-0.267422	-0.994223	0.429378	-0.137088	-0.972115	0.392994	-0.159566	-1.032031	0.414177	-0.138060	-1.019417	0.374194	-0.158961	-1.242110	0.318758	-0.182923	-1.220990	0.304306	-0.271874	-1.234841	0.183813	-0.158362	-1.222450	0.174461	-0.269980	-1.179213	0.135883	-0.207618	-1.301753	0.359378	-0.246280	-1.077670	0.725796	-0.490600	-1.027284	0.725834	-0.473354	-1.077099	0.688357	-0.492315	-1.030087	0.692033	-0.479027	-1.056274	0.456462	-0.461623	-1.071336	0.446290	-0.361417	-1.152987	0.332731	-0.510998	-1.119107	0.314776	-0.493344	-1.177955	0.295246	-0.512387	-1.143669	0.277379	-0.498911	-1.275099	0.099391	-0.500745	-1.268064	0.112599	-0.408580	-1.172556	0.029448	-0.512344	-1.170398	0.031970	-0.396182	-1.117057	0.043695	-0.441873	-1.364407	0.081070	-0.455099	-0.992793	1.389827	-0.137288	-0.966177	1.359354	-0.504801	
20	0.0950	-1.002766	0.916147	-0.160298	-1.003836	0.911889	-0.434426	-1.166554	0.943454	-0.259736	-1.165437	0.957678	-0.348432	-1.011330	0.735268	-0.117013	-0.966821	0.767496	-0.126319	-0.996176	0.712319	-0.116407	-0.951486	0.737674	-0.125574	-0.845808	0.491017	-0.152861	-0.832797	0.495810	-0.264441	-0.961391	0.431722	-0.133487	-0.938149	0.396279	-0.155946	-0.998344	0.415032	-0.134046	-0.984400	0.375628	-0.154922	-1.203778	0.310654	-0.177392	-1.182711	0.297164	-0.266484	-1.189297	0.177115	-0.152409	-1.177354	0.168200	-0.264091	-1.131741	0.132262	-0.201931	-1.265851	0.347816	-0.240524	-1.062259	0.725749	-0.489262	-1.011924	0.724570	-0.472231	-1.062769	0.688384	-0.491029	-1.015729	0.690842	-0.477877	-1.049014	0.456238	-0.461115	-1.064328	0.446234	-0.360765	-1.147720	0.333999	-0.510695	-1.114148	0.315520	-0.492914	-1.173243	0.296768	-0.512070	-1.139179	0.278402	-0.498633	-1.273092	0.101487	-0.500924	-1.265828	0.114444	-0.408737	-1.172659	0.028938	-0.512456	-1.170643	0.031534	-0.396228	-1.117267	0.042820	-0.441865	-1.362344	0.084942	-0.455355	-0.977567	1.390991	-0.135339	-0.944806	1.360721	-0.502146	
21	0.1000	-0.983439	0.917612	-0.158945	-0.983919	0.911596	-0.433153	-1.147025	0.944298	-0.258668	-1.145636	0.958382	-0.347381	-0.989536	0.738594	-0.114982	-0.945516	0.772329	-0.124082	-0.973739	0.716201	-0.114409	-0.929452	0.742744	-0.123401	-0.816730	0.498366	-0.149951	-0.804342	0.502993	-0.261370	-0.928901	0.434012	-0.129799	-0.904486	0.399650	-0.152242	-0.964864	0.415759	-0.129941	-0.949518	0.377064	-0.150802	-1.164884	0.302046	-0.171763	-1.143853	0.289593	-0.260993	-1.143006	0.170231	-0.146442	-1.131451	0.161839	-0.258188	-1.083550	0.128701	-0.196234	-1.229251	0.335530	-0.234660	-1.046655	0.726005	-0.487911	-0.996402	0.723596	-0.471080	-1.048245	0.688741	-0.489727	-1.001220	0.689963	-0.476693	-1.041674	0.456500	-0.460608	-1.057254	0.446676	-0.360074	-1.142353	0.335746	-0.510407	-1.109065	0.316764	-0.492496	-1.168386	0.298748	-0.511764	-1.134527	0.279916	-0.498379	-1.270731	0.103945	-0.501130	-1.263216	0.116607	-0.408938	-1.172715	0.028500	-0.512563	-1.170859	0.031161	-0.396276	-1.117453	0.041939	-0.441910	-1.359843	0.089351	-0.455620	-0.962291	1.392380	-0.133311	-0.923230	1.362466	-0.499246	
22	0.1050	-0.963926	0.919309	-0.157584	-0.963799	0.911514	-0.431822	-1.127248	0.945428	-0.257567	-1.125589	0.959327	-0.346295	-0.967776	0.742141	-0.112930	-0.924224	0.777279	-0.121853	-0.951401	0.720289	-0.112398	-0.907519	0.747916	-0.121243	-0.788370	0.505748	-0.146999	-0.776635	0.510128	-0.258213	-0.896842	0.436202	-0.126027	-0.871226	0.403059	-0.148463	-0.931681	0.416329	-0.125754	-0.914870	0.378478	-0.146611	-1.125489	0.293002	-0.166056	-1.104482	0.281655	-0.255416	-1.096087	0.163241	-0.140479	-1.084862	0.155454	-0.252290	-1.034785	0.125261	-0.190537	-1.191984	0.322606	-0.228713	-1.030843	0.726563	-0.486547	-0.980709	0.722918	-0.469894	-1.033507	0.689429	-0.488407	-0.986542	0.689404	-0.475466	-1.034184	0.457238	-0.460090	-1.050047	0.447608	-0.359330	-1.136820	0.337967	-0.510117	-1.103796	0.318499	-0.492076	-1.163326	0.301183	-0.511454	-1.129654	0.281915	-0.498134	-1.267980	0.106784	-0.501345	-1.260193	0.119100	-0.409166	-1.172703	0.028173	-0.512661	-1.171023	0.030877	-0.396322	-1.117600	0.041060	-0.442004	-1.356865	0.094311	-0.455873	-0.946975	1.393979	-0.131214	-0.901498	1.364575	-0.496113	
23	0.1100	-0.944250	0.921220	-0.156223	-0.943502	0.911647	-0.430437	-1.107249	0.946832	-0.256435	-1.105321	0.960506	-0.345178	-0.946085	0.745862	-0.110864	-0.902972	0.782282	-0.119643	-0.929203	0.724528	-0.110379	-0.885718	0.753127	-0.119107	-0.760807	0.513061	-0.144012	-0.749747	0.517114	-0.254977	-0.865299	0.438244	-0.122178	-0.838468	0.406460	-0.144619	-0.898878	0.416712	-0.121494	-0.880552	0.379844	-0.142362	-1.085665	0.283599	-0.160290	-1.064673	0.273414	-0.249775	-1.048670	0.156220	-0.134538	-1.037720	0.149119	-0.246415	-0.985601	0.121997	-0.184854	-1.154096	0.309144	-0.222707	-1.014808	0.727417	-0.485170	-0.964830	0.722538	-0.468664	-1.018529	0.690437	-0.487067	-0.971674	0.689161	-0.474185	-1.026470	0.458432	-0.459545	-1.042632	0.449008	-0.358520	-1.131055	0.340649	-0.509807	-1.098273	0.320709	-0.491640	-1.158001	0.304063	-0.511122	-1.124500	0.284386	-0.497881	-1.264806	0.110020	-0.501549	-1.256730	0.121932	-0.409401	-1.172601	0.028002	-0.512744	-1.171107	0.030709	-0.396363	-1.117687	0.040196	-0.442145	-1.353374	0.099836	-0.456089	-0.931627	1.395770	-0.129058	-0.879660	1.367029	-0.492757	
24	0.1150	-0.924436	0.923322	-0.154866	-0.923055	0.911991	-0.429002	-1.087056	0.948492	-0.255278	-1.084860	0.961906	-0.344033	-0.924496	0.749709	-0.108792	-0.881786	0.787275	-0.117464	-0.907182	0.728862	-0.108355	-0.864077	0.758311	-0.117000	-0.734107	0.520205	-0.140997	-0.723735	0.523852	-0.251668	-0.834351	0.440098	-0.118261	-0.806305	0.409802	-0.140720	-0.866538	0.416884	-0.117174	-0.846661	0.381135	-0.138066	-1.045496	0.273917	-0.154488	-1.024514	0.264940	-0.244088	-1.000896	0.149243	-0.128638	-0.990174	0.142902	-0.240581	-0.936165	0.118959	-0.179197	-1.115645	0.295250	-0.216670	-0.998538	0.728551	-0.483780	-0.948755	0.722450	-0.467381	-1.003291	0.691748	-0.485706	-0.956596	0.689229	-0.472841	-1.018455	0.460050	-0.458959	-1.034934	0.450848	-0.357632	-1.124990	0.343771	-0.509457	-1.092431	0.323368	-0.491171	-1.152347	0.307373	-0.510748	-1.119005	0.287306	-0.497599	-1.261179	0.113666	-0.501722	-1.252797	0.125110	-0.409619	-1.172385	0.028034	-0.512805	-1.171081	0.030694	-0.396396	-1.117694	0.039366	-0.442325	-1.349337	0.105930	-0.456244	-0.916254	1.397727	-0.126854	-0.857764	1.369805	-0.489194	
25	0.1200	-0.904511	0.925591	-0.153516	-0.902485	0.912538	-0.427521	-1.066698	0.950385	-0.254101	-1.064233	0.963513	-0.342865	-0.903040	0.753630	-0.106719	-0.860688	0.792194	-0.115325	-0.885372	0.733230	-0.106331	-0.842624	0.763400	-0.114925	-0.708326	0.527081	-0.137961	-0.698641	0.530246	-0.248294	-0.804067	0.441721	-0.114283	-0.774819	0.413039	-0.136779	-0.834736	0.416820	-0.112805	-0.813283	0.382325	-0.133736	-1.005073	0.264037	-0.148673	-0.984098	0.256305	-0.238376	-0.952917	0.142377	-0.122800	-0.942378	0.136868	-0.234808	-0.886647	0.116189	-0.173581	-1.076705	0.281037	-0.210627	-0.982020	0.729946	-0.482376	-0.932471	0.722641	-0.466038	-0.987771	0.693339	-0.484319	-0.941289	0.689591	-0.471427	-1.010061	0.462050	-0.458314	-1.026872	0.453084	-0.356651	-1.118554	0.347302	-0.509047	-1.086204	0.326442	-0.490653	-1.146300	0.311088	-0.510314	-1.113111	0.290647	-0.497270	-1.257073	0.117735	-0.501840	-1.248370	0.128643	-0.409799	-1.172026	0.028319	-0.512836	-1.170912	0.030867	-0.396416	-1.117595	0.038593	-0.442540	-1.344722	0.112596	-0.456309	-0.900862	1.399826	-0.124614	-0.835861	1.372873	-0.485441	
26	0.1250	-0.884502	0.927998	-0.152176	-0.881818	0.913279	-0.425998	-1.046205	0.952485	-0.252911	-1.043467	0.965307	-0.341680	-0.881747	0.757574	-0.104652	-0.839702	0.796973	-0.113234	-0.863803	0.737573	-0.104308	-0.821379	0.768330	-0.112887	-0.683500	0.533596	-0.134913	-0.674492	0.536208	-0.244864	-0.774510	0.443077	-0.110258	-0.744083	0.416121	-0.132809	-0.803541	0.416504	-0.108402	-0.780502	0.383391	-0.129386	-0.964499	0.254043	-0.142867	-0.943532	0.247580	-0.232663	-0.904893	0.135685	-0.117042	-0.894499	0.131075	-0.229115	-0.837225	0.113717	-0.168021	-1.037364	0.266622	-0.204606	-0.965242	0.731571	-0.480954	-0.915964	0.723093	-0.464627	-0.971950	0.695176	-0.482904	-0.925731	0.690226	-0.469933	-1.001209	0.464381	-0.457593	-1.018369	0.455665	-0.355565	-1.111677	0.351207	-0.508556	-1.079526	0.329891	-0.490069	-1.139798	0.315178	-0.509799	-1.106760	0.294372	-0.496873	-1.252461	0.122237	-0.501882	-1.243425	0.132534	-0.409914	-1.171494	0.028911	-0.512827	-1.170563	0.031270	-0.396417	-1.117362	0.037908	-0.442782	-1.339504	0.119828	-0.456258	-0.885454	1.402034	-0.122347	-0.813994	1.376199	-0.481516	
27	0.1300	-0.864434	0.930514	-0.150847	-0.861079	0.914196	-0.424437	-1.025605	0.954761	-0.251713	-1.022591	0.967263	-0.340482	-0.860642	0.761486	-0.102595	-0.818847	0.801552	-0.111196	-0.842501	0.741830	-0.102288	-0.800363	0.773038	-0.110886	-0.659655	0.539663	-0.131862	-0.651303	0.541660	-0.241389	-0.745729	0.444135	-0.106199	-0.714160	0.419005	-0.128822	-0.773016	0.415919	-0.103982	-0.748392	0.384309	-0.125030	-0.923884	0.244016	-0.137095	-0.902929	0.238836	-0.226970	-0.856989	0.129221	-0.111383	-0.846708	0.125572	-0.223520	-0.788079	0.111565	-0.162533	-0.997725	0.252122	-0.198632	-0.948193	0.733394	-0.479512	-0.899224	0.723779	-0.463142	-0.955809	0.697221	-0.481457	-0.909902	0.691103	-0.468354	-0.991825	0.466983	-0.456781	-1.009346	0.458530	-0.354362	-1.104293	0.355441	-0.507964	-1.072335	0.333664	-0.489402	-1.132780	0.319606	-0.509181	-1.099898	0.298438	-0.496386	-1.247323	0.127176	-0.501822	-1.237944	0.136787	-0.409941	-1.170753	0.029863	-0.512768	-1.169996	0.031947	-0.396393	-1.116966	0.037345	-0.443042	-1.333657	0.127618	-0.456063	-0.870033	1.404317	-0.120061	-0.792208	1.379746	-0.477438	
28	0.1350	-0.844334	0.933106	-0.149529	-0.840292	0.915271	-0.422839	-1.004929	0.957178	-0.250516	-1.001630	0.969354	-0.339279	-0.839748	0.765314	-0.100553	-0.798141	0.805872	-0.109216	-0.821488	0.745944	-0.100271	-0.779589	0.777464	-0.108924	-0.636797	0.545208	-0.128816	-0.629068	0.546534	-0.237881	-0.717767	0.444869	-0.102119	-0.685101	0.421648	-0.124833	-0.743214	0.415056	-0.099562	-0.717019	0.385057	-0.120682	-0.883348	0.234035	-0.131379	-0.862412	0.230141	-0.221322	-0.809379	0.123031	-0.105843	-0.799184	0.120395	-0.218043	-0.739394	0.109741	-0.157133	-0.957905	0.237656	-0.192733	-0.930864	0.735372	-0.478047	-0.882238	0.724670	-0.461578	-0.939332	0.699429	-0.479974	-0.893785	0.692188	-0.466683	-0.981835	0.469786	-0.455862	-0.999726	0.461609	-0.353031	-1.096335	0.359955	-0.507249	-1.064570	0.337706	-0.488636	-1.125187	0.324332	-0.508443	-1.092473	0.302798	-0.495790	-1.241638	0.132559	-0.501639	-1.231911	0.141404	-0.409855	-1.169767	0.031230	-0.512648	-1.169169	0.032944	-0.396336	-1.116372	0.036946	-0.443310	-1.327161	0.135952	-0.455697	-0.854599	1.406638	-0.117766	-0.770541	1.383473	-0.473230	
29	0.1400	-0.824227	0.935742	-0.148218	-0.819476	0.916479	-0.421207	-0.984205	0.959700	-0.249326	-0.980612	0.971547	-0.338076	-0.819083	0.769007	-0.098526	-0.777597	0.809878	-0.107294	-0.800780	0.749857	-0.098258	-0.759069	0.781555	-0.106998	-0.614917	0.550164	-0.125784	-0.607772	0.550774	-0.234353	-0.690653	0.445259	-0.098037	-0.656943	0.424013	-0.120858	-0.714180	0.413910	-0.095160	-0.686441	0.385614	-0.116358	-0.843021	0.224174	-0.125745	-0.822111	0.221559	-0.215742	-0.762240	0.117150	-0.100441	-0.752109	0.115574	-0.212700	-0.691351	0.108242	-0.151839	-0.918036	0.223338	-0.186934	-0.913246	0.737461	-0.476555	-0.864995	0.725727	-0.459930	-0.922506	0.701749	-0.478449	-0.877360	0.693438	-0.464915	-0.971171	0.472715	-0.454821	-0.989437	0.464827	-0.351564	-1.087741	0.364691	-0.506393	-1.056176	0.341957	-0.487756	-1.116964	0.329310	-0.507563	-1.084437	0.307398	-0.495065	-1.235390	0.138384	-0.501310	-1.225309	0.146385	-0.409631	-1.168494	0.033064	-0.512455	-1.168038	0.034308	-0.396238	-1.115542	0.036755	-0.443573	-1.319996	0.144810	-0.455134	-0.839153	1.408959	-0.115468	-0.749028	1.387337	-0.468910	
30	0.1450	-0.804136	0.938388	-0.146913	-0.798653	0.917793	-0.419542	-0.963459	0.962287	-0.248150	-0.959560	0.973809	-0.336882	-0.798661	0.772517	-0.096516	-0.757227	0.813522	-0.105429	-0.780387	0.753520	-0.096246	-0.738807	0.785262	-0.105107	-0.593992	0.554477	-0.122776	-0.587380	0.554338	-0.230816	-0.664406	0.445290	-0.093971	-0.629713	0.426065	-0.116912	-0.685953	0.412479	-0.090797	-0.656706	0.385964	-0.112073	-0.803039	0.214505	-0.120218	-0.782163	0.213150	-0.210257	-0.715750	0.111604	-0.095194	-0.705669	0.111124	-0.207510	-0.644132	0.107053	-0.146669	-0.878263	0.209279	-0.181263	-0.895334	0.739610	-0.475030	-0.847485	0.726909	-0.458195	-0.905320	0.704125	-0.476879	-0.860611	0.694808	-0.463048	-0.959768	0.475691	-0.453646	-0.978412	0.468101	-0.349954	-1.078452	0.369592	-0.505377	-1.047101	0.346354	-0.486747	-1.108058	0.334489	-0.506526	-1.075744	0.312182	-0.494195	-1.228560	0.144650	-0.500813	-1.218125	0.151729	-0.409246	-1.166889	0.035414	-0.512176	-1.166554	0.036083	-0.396088	-1.114436	0.036819	-0.443819	-1.312146	0.154169	-0.454352	-0.823693	1.411238	-0.113172	-0.727699	1.391292	-0.464501	
31	0.1500	-0.784083	0.941012	-0.145608	-0.777839	0.919184	-0.417845	-0.942719	0.964895	-0.246995	-0.938499	0.976100	-0.335701	-0.778491	0.775798	-0.094523	-0.737040	0.816764	-0.103620	-0.760312	0.756884	-0.094234	-0.718807	0.788545	-0.103246	-0.573983	0.558108	-0.119802	-0.567848	0.557198	-0.227287	-0.639036	0.444955	-0.089939	-0.603426	0.427775	-0.113010	-0.658562	0.410767	-0.086493	-0.627854	0.386089	-0.107844	-0.763543	0.205089	-0.114822	-0.742711	0.204966	-0.204891	-0.670093	0.106408	-0.090120	-0.660047	0.107049	-0.202491	-0.597916	0.106149	-0.141639	-0.838742	0.195583	-0.175744	-0.877123	0.741768	-0.473469	-0.829697	0.728172	-0.456369	-0.887763	0.706501	-0.475257	-0.843522	0.696248	-0.461079	-0.947568	0.478632	-0.452325	-0.966587	0.471349	-0.348194	-1.068413	0.374597	-0.504186	-1.037298	0.350829	-0.485599	-1.098420	0.339818	-0.505315	-1.066355	0.317093	-0.493162	-1.221132	0.151350	-0.500128	-1.210345	0.157430	-0.408679	-1.164903	0.038326	-0.511797	-1.164667	0.038313	-0.395875	-1.113006	0.037190	-0.444031	-1.303594	0.164001	-0.453328	-0.808217	1.413434	-0.110883	-0.706580	1.395290	-0.460025	
32	0.1550	-0.764089	0.943580	-0.144297	-0.757047	0.920618	-0.416115	-0.922007	0.967481	-0.245867	-0.917450	0.978381	-0.334540	-0.758578	0.778808	-0.092545	-0.717041	0.819569	-0.101860	-0.740555	0.759908	-0.092219	-0.699064	0.791370	-0.101411	-0.554839	0.561029	-0.116870	-0.549119	0.559341	-0.223778	-0.614541	0.444251	-0.085963	-0.578084	0.429118	-0.109171	-0.632025	0.408782	-0.082269	-0.599913	0.385976	-0.103688	-0.724682	0.195982	-0.109584	-0.703901	0.197052	-0.199671	-0.625449	0.101568	-0.085237	-0.615429	0.103341	-0.197658	-0.552879	0.105491	-0.136769	-0.799638	0.182345	-0.170404	-0.858608	0.743878	-0.471864	-0.811623	0.729469	-0.454453	-0.869830	0.708815	-0.473579	-0.826079	0.697707	-0.459008	-0.934522	0.481455	-0.450851	-0.953908	0.474485	-0.346281	-1.057574	0.379641	-0.502806	-1.026723	0.355315	-0.484300	-1.088006	0.345245	-0.503917	-1.056231	0.322071	-0.491955	-1.213089	0.158474	-0.499238	-1.201955	0.163485	-0.407911	-1.162485	0.041839	-0.511305	-1.162323	0.041039	-0.395586	-1.111205	0.037916	-0.444194	-1.294324	0.174274	-0.452043	-0.792722	1.415505	-0.108603	-0.685689	1.399285	-0.455501	
33	0.1600	-0.744169	0.946062	-0.142972	-0.736290	0.922062	-0.414351	-0.901345	0.970001	-0.244770	-0.896433	0.980610	-0.333403	-0.738922	0.781514	-0.090582	-0.697230	0.821910	-0.100142	-0.721109	0.762558	-0.090199	-0.679572	0.793712	-0.099595	-0.536498	0.563226	-0.113992	-0.531124	0.560765	-0.220306	-0.590912	0.443182	-0.082062	-0.553679	0.430077	-0.105410	-0.606358	0.406534	-0.078147	-0.572905	0.385614	-0.099624	-0.686606	0.187233	-0.104529	-0.665883	0.189448	-0.194623	-0.581995	0.097080	-0.080560	-0.571995	0.099984	-0.193027	-0.509187	0.105035	-0.132077	-0.761125	0.169651	-0.165269	-0.839787	0.745887	-0.470211	-0.793254	0.730751	-0.452445	-0.851516	0.711008	-0.471840	-0.808271	0.699130	-0.456836	-0.920583	0.484078	-0.449219	-0.940323	0.477426	-0.344215	-1.045889	0.384662	-0.501226	-1.015340	0.359747	-0.482842	-1.076772	0.350714	-0.502322	-1.045338	0.327059	-0.490561	-1.204410	0.166008	-0.498127	-1.192939	0.169882	-0.406924	-1.159575	0.045984	-0.510685	-1.159466	0.044295	-0.395208	-1.108976	0.039047	-0.444288	-1.284318	0.184953	-0.450484	-0.777205	1.417411	-0.106334	-0.665043	1.403229	-0.450950	
34	0.1650	-0.724339	0.948427	-0.141626	-0.715575	0.923481	-0.412552	-0.880753	0.972411	-0.243709	-0.875465	0.982745	-0.332296	-0.719516	0.783883	-0.088630	-0.677605	0.823770	-0.098459	-0.701961	0.764806	-0.088170	-0.660320	0.795554	-0.097791	-0.518885	0.564698	-0.111177	-0.513790	0.561485	-0.216885	-0.568131	0.441757	-0.078259	-0.530194	0.430636	-0.101744	-0.581564	0.404039	-0.074148	-0.546843	0.384994	-0.095669	-0.649465	0.178880	-0.099682	-0.628806	0.182181	-0.189774	-0.539906	0.092934	-0.076105	-0.529920	0.096950	-0.188614	-0.467001	0.104728	-0.127580	-0.723379	0.157578	-0.160364	-0.820660	0.747740	-0.468503	-0.774584	0.731970	-0.450346	-0.832818	0.713021	-0.470036	-0.790084	0.700467	-0.454566	-0.905714	0.486426	-0.447424	-0.925791	0.480092	-0.341997	-1.033317	0.389601	-0.499438	-1.003113	0.364061	-0.481220	-1.064681	0.356175	-0.500520	-1.033643	0.331999	-0.488972	-1.195075	0.173935	-0.496783	-1.183277	0.176612	-0.405704	-1.156114	0.050784	-0.509923	-1.156033	0.048112	-0.394725	-1.106262	0.040630	-0.444294	-1.273557	0.196000	-0.448638	-0.761661	1.419113	-0.104074	-0.644650	1.407076	-0.446390	
35	0.1700	-0.704609	0.950649	-0.140250	-0.694909	0.924841	-0.410714	-0.860247	0.974668	-0.242686	-0.854562	0.984744	-0.331221	-0.700353	0.785891	-0.086686	-0.658162	0.825139	-0.096799	-0.683094	0.766629	-0.086131	-0.641293	0.796889	-0.095993	-0.501921	0.565456	-0.108436	-0.497036	0.561525	-0.213529	-0.546172	0.439991	-0.074573	-0.507604	0.430788	-0.098191	-0.557643	0.401312	-0.070294	-0.521733	0.384108	-0.091841	-0.613410	0.170954	-0.095068	-0.592817	0.175275	-0.185151	-0.499347	0.089110	-0.071886	-0.489369	0.094201	-0.184431	-0.426472	0.104510	-0.123297	-0.686581	0.146187	-0.155711	-0.801225	0.749385	-0.466737	-0.755605	0.733080	-0.448160	-0.813736	0.714799	-0.468162	-0.771510	0.701668	-0.452203	-0.889886	0.488427	-0.445467	-0.910275	0.482409	-0.339629	-1.019819	0.394398	-0.497438	-0.990011	0.368198	-0.479429	-1.051697	0.361577	-0.498509	-1.021118	0.336839	-0.487185	-1.185056	0.182230	-0.495194	-1.172946	0.183660	-0.404240	-1.152035	0.056251	-0.509003	-1.151960	0.052510	-0.394121	-1.102996	0.042707	-0.444190	-1.262020	0.207371	-0.446498	-0.746086	1.420573	-0.101822	-0.624515	1.410782	-0.441841	
36	0.1750	-0.684987	0.952701	-0.138834	-0.674294	0.926108	-0.408835	-0.839839	0.976731	-0.241703	-0.833736	0.986566	-0.330180	-0.681417	0.787521	-0.084747	-0.638892	0.826016	-0.095153	-0.664484	0.768016	-0.084078	-0.622473	0.797715	-0.094195	-0.485520	0.565522	-0.105777	-0.480776	0.560922	-0.210252	-0.525004	0.437900	-0.071027	-0.485876	0.430528	-0.094767	-0.534587	0.398374	-0.066605	-0.497572	0.382953	-0.088160	-0.578586	0.163477	-0.090711	-0.558060	0.168743	-0.180778	-0.460475	0.085583	-0.067916	-0.450500	0.091697	-0.180491	-0.387737	0.104320	-0.119243	-0.650907	0.135530	-0.151335	-0.781483	0.750775	-0.464905	-0.736311	0.734037	-0.445888	-0.794269	0.716290	-0.466216	-0.752540	0.702685	-0.449751	-0.873072	0.490017	-0.443351	-0.893746	0.484311	-0.337118	-1.005363	0.399001	-0.495224	-0.976007	0.372103	-0.477469	-1.037788	0.366872	-0.496285	-1.007733	0.341530	-0.485196	-1.174325	0.190868	-0.493354	-1.161919	0.191007	-0.402524	-1.147268	0.062389	-0.507914	-1.147179	0.057502	-0.393379	-1.099110	0.045312	-0.443956	-1.249681	0.219023	-0.444061	-0.730473	1.421758	-0.099575	-0.604637	1.414305	-0.437319	
37	0.1800	-0.665477	0.954563	-0.137370	-0.653731	0.927250	-0.406912	-0.819539	0.978563	-0.240758	-0.812996	0.988170	-0.329175	-0.662690	0.788761	-0.082808	-0.619782	0.826407	-0.093509	-0.646107	0.768960	-0.082011	-0.603837	0.798041	-0.092388	-0.469593	0.564930	-0.103211	-0.464926	0.559721	-0.207068	-0.504591	0.435505	-0.067638	-0.464971	0.429857	-0.091487	-0.512383	0.395245	-0.063100	-0.474352	0.381524	-0.084643	-0.545134	0.156463	-0.086633	-0.524672	0.162590	-0.176680	-0.423435	0.082326	-0.064205	-0.413455	0.089389	-0.176806	-0.350921	0.104093	-0.115435	-0.616527	0.125646	-0.147256	-0.761434	0.751867	-0.463005	-0.716696	0.734802	-0.443535	-0.774419	0.717448	-0.464195	-0.733166	0.703478	-0.447219	-0.855256	0.491143	-0.441081	-0.876181	0.485740	-0.334471	-0.989917	0.403362	-0.492797	-0.961076	0.375728	-0.475341	-1.022921	0.372017	-0.493851	-0.993462	0.346027	-0.483007	-1.162846	0.199817	-0.491259	-1.150163	0.198633	-0.400552	-1.141739	0.069185	-0.506640	-1.141618	0.063091	-0.392483	-1.094527	0.048474	-0.443569	-1.236513	0.230907	-0.441329	-0.714814	1.422638	-0.097329	-0.585012	1.417607	-0.432838	
38	0.1850	-0.646080	0.956214	-0.135849	-0.633216	0.928238	-0.404942	-0.799353	0.980129	-0.239851	-0.792349	0.989522	-0.328203	-0.644151	0.789606	-0.080866	-0.600817	0.826327	-0.091858	-0.627932	0.769461	-0.079928	-0.585363	0.797883	-0.090567	-0.454051	0.563720	-0.100746	-0.449402	0.557973	-0.203989	-0.484893	0.432832	-0.064426	-0.444847	0.428780	-0.088366	-0.491014	0.391947	-0.059798	-0.452059	0.379822	-0.081308	-0.513183	0.149919	-0.082855	-0.492779	0.156815	-0.172879	-0.388355	0.079305	-0.060763	-0.378362	0.087227	-0.173384	-0.316134	0.103769	-0.111886	-0.583605	0.116560	-0.143492	-0.741078	0.752624	-0.461032	-0.696754	0.735341	-0.441107	-0.754187	0.718235	-0.462097	-0.713379	0.704012	-0.444613	-0.836424	0.491765	-0.438665	-0.857562	0.486653	-0.331695	-0.973456	0.407439	-0.490163	-0.945194	0.379033	-0.473047	-1.007069	0.376974	-0.491212	-0.978276	0.350294	-0.480622	-1.150579	0.209038	-0.488908	-1.137640	0.206510	-0.398321	-1.135369	0.076617	-0.505170	-1.135201	0.069269	-0.391415	-1.089169	0.052210	-0.443007	-1.222483	0.242974	-0.438307	-0.699102	1.423186	-0.095077	-0.565631	1.420655	-0.428413	
39	0.1900	-0.626791	0.957640	-0.134263	-0.612744	0.929045	-0.402920	-0.779283	0.981401	-0.238977	-0.771799	0.990587	-0.327263	-0.625774	0.790057	-0.078918	-0.581981	0.825797	-0.090188	-0.609927	0.769530	-0.077828	-0.567023	0.797262	-0.088727	-0.438806	0.561941	-0.098391	-0.434121	0.555738	-0.201027	-0.465869	0.429906	-0.061407	-0.425457	0.427307	-0.085418	-0.470457	0.388502	-0.056712	-0.430676	0.377849	-0.078170	-0.482852	0.143844	-0.079396	-0.462497	0.151413	-0.169396	-0.355349	0.076490	-0.057597	-0.345332	0.085160	-0.170233	-0.283467	0.103288	-0.108610	-0.552289	0.108287	-0.140061	-0.720416	0.753018	-0.458983	-0.676479	0.735628	-0.438610	-0.733574	0.718621	-0.459922	-0.693175	0.704258	-0.441945	-0.816569	0.491853	-0.436113	-0.837876	0.487017	-0.328802	-0.955954	0.411200	-0.487329	-0.928339	0.381988	-0.470594	-0.990204	0.381708	-0.488373	-0.962150	0.354297	-0.478047	-1.137479	0.218492	-0.486304	-1.124305	0.214611	-0.395834	-1.128076	0.084650	-0.503493	-1.127849	0.076018	-0.390159	-1.082950	0.056528	-0.442248	-1.207555	0.255168	-0.435003	-0.683326	1.423383	-0.092814	-0.546480	1.423419	-0.424057	
40	0.1950	-0.607605	0.958829	-0.132604	-0.592308	0.929650	-0.400845	-0.759328	0.982355	-0.238133	-0.751345	0.991340	-0.326352	-0.607532	0.790123	-0.076962	-0.563253	0.824844	-0.088490	-0.592058	0.769180	-0.075713	-0.548792	0.796207	-0.086863	-0.423774	0.559644	-0.096153	-0.419008	0.553075	-0.198191	-0.447476	0.426754	-0.058594	-0.406756	0.425453	-0.082655	-0.450689	0.384932	-0.053858	-0.410180	0.375608	-0.075246	-0.454244	0.138231	-0.076272	-0.433928	0.146369	-0.166249	-0.324510	0.073846	-0.054713	-0.314456	0.083140	-0.167359	-0.252994	0.102597	-0.105615	-0.522714	0.100827	-0.136977	-0.699445	0.753027	-0.456858	-0.655866	0.735641	-0.436050	-0.712580	0.718585	-0.457670	-0.672545	0.704198	-0.439223	-0.795687	0.491391	-0.433436	-0.817118	0.486813	-0.325801	-0.937389	0.414617	-0.484306	-0.910490	0.384569	-0.467987	-0.972300	0.386193	-0.485347	-0.945056	0.358014	-0.475290	-1.123495	0.228132	-0.483451	-1.110110	0.222901	-0.393096	-1.119777	0.093236	-0.501598	-1.119480	0.083307	-0.388697	-1.075780	0.061421	-0.441271	-1.191689	0.267436	-0.431433	-0.667474	1.423213	-0.090533	-0.527544	1.425876	-0.419780	
41	0.2000	-0.588508	0.959773	-0.130865	-0.571896	0.930036	-0.398713	-0.739482	0.982973	-0.237311	-0.730984	0.991758	-0.325465	-0.589395	0.789817	-0.074995	-0.544613	0.823500	-0.086757	-0.574290	0.768434	-0.073585	-0.530641	0.794751	-0.084973	-0.408879	0.556889	-0.094038	-0.403995	0.550049	-0.195489	-0.429671	0.423406	-0.055999	-0.388696	0.423233	-0.080087	-0.431683	0.381261	-0.051245	-0.390545	0.373107	-0.072547	-0.427447	0.133068	-0.073494	-0.407156	0.141668	-0.163451	-0.295909	0.071343	-0.052113	-0.285803	0.081118	-0.164765	-0.224767	0.101651	-0.102912	-0.494994	0.094172	-0.134247	-0.678167	0.752641	-0.454653	-0.634909	0.735371	-0.433435	-0.691207	0.718116	-0.455344	-0.651485	0.703821	-0.436459	-0.773780	0.490380	-0.430647	-0.795284	0.486037	-0.322703	-0.917743	0.417674	-0.481107	-0.891627	0.386764	-0.465235	-0.953333	0.390407	-0.482145	-0.926966	0.361426	-0.472362	-1.108575	0.237907	-0.480359	-1.095001	0.231343	-0.390116	-1.110385	0.102314	-0.499479	-1.110012	0.091095	-0.387016	-1.067566	0.066874	-0.440057	-1.174844	0.279718	-0.427614	-0.651532	1.422668	-0.088226	-0.508805	1.428008	-0.415592	
42	0.2050	-0.569489	0.960468	-0.129042	-0.551497	0.930190	-0.396524	-0.719737	0.983244	-0.236505	-0.710711	0.991824	-0.324596	-0.571335	0.789158	-0.073016	-0.526038	0.821802	-0.084982	-0.556589	0.767317	-0.071445	-0.512542	0.792932	-0.083055	-0.394050	0.553733	-0.092052	-0.389022	0.546721	-0.192929	-0.412413	0.419890	-0.053632	-0.371232	0.420668	-0.077722	-0.413410	0.377510	-0.048882	-0.371744	0.370354	-0.070084	-0.402529	0.128338	-0.071071	-0.382247	0.137291	-0.161013	-0.269596	0.068952	-0.049797	-0.259422	0.079056	-0.162451	-0.198818	0.100414	-0.100503	-0.469222	0.088301	-0.131879	-0.656578	0.751856	-0.452372	-0.613602	0.734815	-0.430772	-0.669454	0.717214	-0.452947	-0.629988	0.703126	-0.433663	-0.750852	0.488834	-0.427759	-0.772375	0.484701	-0.319520	-0.896998	0.420363	-0.477747	-0.871731	0.388570	-0.462347	-0.933280	0.394334	-0.478781	-0.907853	0.364525	-0.469277	-1.092660	0.247762	-0.477039	-1.078921	0.239894	-0.386903	-1.099812	0.111814	-0.497128	-1.099360	0.099328	-0.385103	-1.058214	0.072855	-0.438590	-1.156977	0.291954	-0.423564	-0.635483	1.421746	-0.085884	-0.490240	1.429805	-0.411501	
43	0.2100	-0.550530	0.960914	-0.127131	-0.531098	0.930106	-0.394275	-0.700081	0.983166	-0.235708	-0.690517	0.991530	-0.323740	-0.553321	0.788171	-0.071025	-0.507505	0.819790	-0.083162	-0.538921	0.765862	-0.069298	-0.494468	0.790789	-0.081108	-0.379229	0.550236	-0.090199	-0.374038	0.543153	-0.190516	-0.395663	0.416236	-0.051498	-0.354321	0.417782	-0.075567	-0.395841	0.373701	-0.046773	-0.353749	0.367361	-0.067866	-0.379538	0.124022	-0.069008	-0.359249	0.133216	-0.158940	-0.245596	0.066649	-0.047763	-0.235335	0.076918	-0.160415	-0.175157	0.098861	-0.098392	-0.445468	0.083189	-0.129874	-0.634676	0.750680	-0.450013	-0.591941	0.733978	-0.428071	-0.647319	0.715889	-0.450481	-0.608051	0.702124	-0.430846	-0.726910	0.486780	-0.424786	-0.748399	0.482829	-0.316263	-0.875142	0.422682	-0.474243	-0.850783	0.389992	-0.459333	-0.912122	0.397965	-0.475272	-0.887691	0.367308	-0.466047	-1.075694	0.257639	-0.473502	-1.061811	0.248509	-0.383473	-1.087974	0.121653	-0.494543	-1.087440	0.107943	-0.382946	-1.047626	0.079321	-0.436853	-1.138045	0.304082	-0.419309	-0.619310	1.420450	-0.083499	-0.471830	1.431260	-0.407514	
44	0.2150	-0.531613	0.961115	-0.125129	-0.510685	0.929782	-0.391967	-0.680499	0.982742	-0.234910	-0.670390	0.990876	-0.322888	-0.535325	0.786884	-0.069023	-0.488994	0.817504	-0.081293	-0.521255	0.764104	-0.067149	-0.476396	0.788366	-0.079135	-0.364365	0.546458	-0.088481	-0.359006	0.539402	-0.188252	-0.379387	0.412473	-0.049600	-0.337924	0.414600	-0.073624	-0.378947	0.369857	-0.044920	-0.336529	0.364144	-0.065897	-0.358502	0.120099	-0.067305	-0.338187	0.129423	-0.157235	-0.223911	0.064413	-0.046005	-0.213543	0.074678	-0.158654	-0.153773	0.096978	-0.096577	-0.423774	0.078798	-0.128229	-0.612460	0.749132	-0.447582	-0.569920	0.732877	-0.425338	-0.624801	0.714162	-0.447952	-0.585668	0.700833	-0.428019	-0.701966	0.484261	-0.421742	-0.723364	0.480463	-0.312941	-0.852165	0.424640	-0.470612	-0.828767	0.391048	-0.456203	-0.889843	0.401299	-0.471634	-0.866454	0.369780	-0.462687	-1.057617	0.267476	-0.469766	-1.043613	0.257140	-0.379840	-1.074786	0.131740	-0.491721	-1.074171	0.116868	-0.380538	-1.035709	0.086217	-0.434835	-1.118006	0.316037	-0.414874	-0.602993	1.418792	-0.081065	-0.453549	1.432377	-0.403636	
45	0.2200	-0.512718	0.961080	-0.123037	-0.490243	0.929226	-0.389602	-0.660975	0.981982	-0.234102	-0.650318	0.989866	-0.322033	-0.517320	0.785330	-0.067012	-0.470482	0.814990	-0.079378	-0.503565	0.762083	-0.065003	-0.458302	0.785707	-0.077138	-0.349425	0.542455	-0.086898	-0.343899	0.535522	-0.186140	-0.363552	0.408629	-0.047938	-0.322007	0.411153	-0.071895	-0.362701	0.365996	-0.043322	-0.320055	0.360719	-0.064180	-0.339425	0.116546	-0.065958	-0.319065	0.125889	-0.155892	-0.204516	0.062230	-0.044514	-0.194023	0.072319	-0.157159	-0.134631	0.094763	-0.095054	-0.404161	0.075088	-0.126937	-0.589926	0.747236	-0.445080	-0.547535	0.731535	-0.422581	-0.601900	0.712065	-0.445365	-0.562839	0.699282	-0.425192	-0.676036	0.481332	-0.418638	-0.697286	0.477655	-0.309564	-0.828061	0.426253	-0.466873	-0.805671	0.391759	-0.452969	-0.866429	0.404337	-0.467886	-0.844121	0.371951	-0.459211	-1.038376	0.277210	-0.465847	-1.024270	0.265734	-0.376022	-1.060170	0.141979	-0.488664	-1.059477	0.126021	-0.377873	-1.022369	0.093477	-0.432528	-1.096824	0.327756	-0.410286	-0.586511	1.416791	-0.078572	-0.435376	1.433164	-0.399873	
46	0.2250	-0.493824	0.960819	-0.120856	-0.469759	0.928447	-0.387181	-0.641493	0.980906	-0.233277	-0.630288	0.988515	-0.321168	-0.499284	0.783544	-0.064994	-0.451954	0.812289	-0.077416	-0.485826	0.759838	-0.062865	-0.440169	0.782854	-0.075122	-0.334383	0.538282	-0.085451	-0.328703	0.531561	-0.184180	-0.348133	0.404734	-0.046508	-0.306540	0.407470	-0.070378	-0.347075	0.362141	-0.041973	-0.304298	0.357106	-0.062714	-0.322289	0.113341	-0.064956	-0.301866	0.122596	-0.154905	-0.187366	0.060089	-0.043281	-0.176727	0.069832	-0.155921	-0.117676	0.092225	-0.093815	-0.386619	0.072013	-0.125984	-0.567076	0.745030	-0.442514	-0.524787	0.729985	-0.419809	-0.578613	0.709638	-0.442728	-0.539562	0.697509	-0.422374	-0.649139	0.478060	-0.415487	-0.670186	0.474471	-0.306140	-0.802830	0.427544	-0.463045	-0.781485	0.392158	-0.449641	-0.841874	0.407088	-0.464047	-0.820674	0.373839	-0.455635	-1.017920	0.286775	-0.461765	-1.003731	0.274238	-0.372039	-1.044055	0.152266	-0.485377	-1.043287	0.135316	-0.374949	-1.007521	0.101025	-0.429926	-1.074468	0.339171	-0.405574	-0.569841	1.414470	-0.076015	-0.417289	1.433636	-0.396228	
47	0.2300	-0.474911	0.960349	-0.118589	-0.449220	0.927463	-0.384708	-0.622033	0.979539	-0.232425	-0.610284	0.986845	-0.320284	-0.481197	0.781565	-0.062974	-0.433392	0.809446	-0.075415	-0.468021	0.757414	-0.060744	-0.421983	0.779853	-0.073093	-0.319232	0.533990	-0.084136	-0.313417	0.527562	-0.182369	-0.333109	0.400814	-0.045303	-0.291501	0.403585	-0.069068	-0.332046	0.358310	-0.040865	-0.289230	0.353331	-0.061494	-0.307057	0.110461	-0.064285	-0.286553	0.119526	-0.154258	-0.172390	0.057984	-0.042291	-0.161586	0.067218	-0.154928	-0.102833	0.089387	-0.092848	-0.371114	0.069523	-0.125354	-0.543909	0.742556	-0.439890	-0.501676	0.728268	-0.417029	-0.554944	0.706931	-0.440046	-0.515842	0.695558	-0.419574	-0.621299	0.474522	-0.412299	-0.642090	0.470987	-0.302676	-0.776481	0.428544	-0.459147	-0.756206	0.392283	-0.446229	-0.816180	0.409567	-0.460134	-0.796102	0.375465	-0.451974	-0.996209	0.296104	-0.457540	-0.981952	0.282597	-0.367911	-1.026378	0.162495	-0.481866	-1.025541	0.144659	-0.371767	-0.991086	0.108775	-0.427030	-1.050916	0.350218	-0.400769	-0.552963	1.411861	-0.073386	-0.399267	1.433814	-0.392703	
48	0.2350	-0.455961	0.959687	-0.116240	-0.428616	0.926295	-0.382188	-0.602580	0.977913	-0.231540	-0.590294	0.984884	-0.319375	-0.463046	0.779430	-0.060956	-0.414788	0.806502	-0.073379	-0.450138	0.754854	-0.058645	-0.403735	0.776744	-0.071058	-0.303974	0.529625	-0.082950	-0.298053	0.523562	-0.180706	-0.318466	0.396896	-0.044315	-0.276871	0.399533	-0.067958	-0.317591	0.354524	-0.039987	-0.274826	0.349417	-0.060511	-0.293670	0.107886	-0.063927	-0.273066	0.116665	-0.153933	-0.159496	0.055917	-0.041528	-0.148511	0.064487	-0.154163	-0.090009	0.086280	-0.092139	-0.357588	0.067569	-0.125025	-0.520430	0.739866	-0.437214	-0.478207	0.726429	-0.414247	-0.530895	0.704001	-0.437329	-0.491686	0.693483	-0.416798	-0.592548	0.470801	-0.409082	-0.613032	0.467289	-0.299179	-0.749029	0.429286	-0.455198	-0.729838	0.392178	-0.442743	-0.789356	0.411790	-0.456165	-0.770400	0.376856	-0.448241	-0.973210	0.305134	-0.453194	-0.958901	0.290755	-0.363659	-1.007090	0.172558	-0.478140	-1.006189	0.153955	-0.368334	-0.972999	0.116638	-0.423842	-1.026157	0.360831	-0.395900	-0.535856	1.409000	-0.070682	-0.381293	1.433723	-0.389301	
49	0.2400	-0.436959	0.958856	-0.113818	-0.407943	0.924972	-0.379627	-0.583118	0.976064	-0.230613	-0.570306	0.982668	-0.318435	-0.444824	0.777180	-0.058946	-0.396135	0.803497	-0.071318	-0.432174	0.752202	-0.056576	-0.385423	0.773569	-0.069024	-0.288627	0.525232	-0.081888	-0.282634	0.519594	-0.179184	-0.304194	0.393008	-0.043529	-0.262641	0.395349	-0.067038	-0.303691	0.350800	-0.039325	-0.261061	0.345395	-0.059755	-0.282048	0.105596	-0.063858	-0.261330	0.114000	-0.153908	-0.148575	0.053891	-0.040975	-0.137394	0.061656	-0.153610	-0.079094	0.082945	-0.091670	-0.345960	0.066098	-0.124973	-0.496646	0.737016	-0.434495	-0.454390	0.724522	-0.411470	-0.506474	0.700912	-0.434584	-0.467106	0.691341	-0.414053	-0.562924	0.466990	-0.405844	-0.583056	0.463468	-0.295652	-0.720501	0.429809	-0.451214	-0.702394	0.391888	-0.439192	-0.761421	0.413779	-0.452159	-0.743577	0.378042	-0.444452	-0.948907	0.313799	-0.448749	-0.934558	0.298658	-0.359306	-0.986157	0.182351	-0.474214	-0.985198	0.163107	-0.364659	-0.953208	0.124519	-0.420371	-1.000195	0.370948	-0.390997	-0.518501	1.405930	-0.067899	-0.363354	1.433397	-0.386025	
50	0.2450	-0.417894	0.957879	-0.111329	-0.387197	0.923523	-0.377033	-0.563637	0.974036	-0.229641	-0.550312	0.980240	-0.317457	-0.426531	0.774855	-0.056950	-0.377435	0.800468	-0.069241	-0.414131	0.749500	-0.054545	-0.367052	0.770366	-0.067000	-0.273220	0.520847	-0.080941	-0.267193	0.515683	-0.177799	-0.290291	0.389172	-0.042932	-0.248805	0.391071	-0.066298	-0.290332	0.347159	-0.038862	-0.247916	0.341296	-0.059212	-0.272098	0.103573	-0.064052	-0.251251	0.111524	-0.154154	-0.139498	0.051915	-0.040611	-0.128111	0.058751	-0.153249	-0.069963	0.079431	-0.091422	-0.336129	0.065061	-0.125169	-0.472572	0.734068	-0.431742	-0.430242	0.722601	-0.408705	-0.481696	0.697730	-0.431819	-0.442121	0.689193	-0.411343	-0.532473	0.463180	-0.402591	-0.552214	0.459620	-0.292100	-0.690935	0.430157	-0.447213	-0.673899	0.391466	-0.435586	-0.732410	0.415558	-0.448132	-0.715652	0.379054	-0.440617	-0.923299	0.322041	-0.444227	-0.908919	0.306251	-0.354875	-0.963561	0.191772	-0.470103	-0.962551	0.172021	-0.360755	-0.931680	0.132322	-0.416629	-0.973049	0.380508	-0.386090	-0.500884	1.402694	-0.065036	-0.345441	1.432869	-0.382874	
51	0.2500	-0.398761	0.956782	-0.108785	-0.366384	0.921983	-0.374413	-0.544129	0.971874	-0.228617	-0.530307	0.977644	-0.316437	-0.408175	0.772494	-0.054975	-0.358695	0.797450	-0.067159	-0.396021	0.746789	-0.052557	-0.348635	0.767170	-0.064996	-0.257794	0.516506	-0.080103	-0.251776	0.511851	-0.176544	-0.276760	0.385415	-0.042506	-0.235366	0.386737	-0.065721	-0.277500	0.343619	-0.038580	-0.235370	0.337153	-0.058864	-0.263710	0.101803	-0.064479	-0.242722	0.109232	-0.154641	-0.132126	0.049998	-0.040414	-0.120525	0.055801	-0.153061	-0.062479	0.075791	-0.091371	-0.327975	0.064407	-0.125581	-0.448227	0.731084	-0.428964	-0.405785	0.720725	-0.405956	-0.456580	0.694527	-0.429044	-0.416760	0.687104	-0.408674	-0.501254	0.459466	-0.399326	-0.520570	0.455841	-0.288525	-0.660383	0.430374	-0.443211	-0.644392	0.390961	-0.431934	-0.702369	0.417154	-0.444099	-0.686659	0.379926	-0.436752	-0.896403	0.329803	-0.439652	-0.882002	0.313484	-0.350387	-0.939307	0.200725	-0.465825	-0.938253	0.180604	-0.356639	-0.908402	0.139953	-0.412633	-0.944757	0.389457	-0.381206	-0.482996	1.399344	-0.062093	-0.327550	1.432178	-0.379850	
52	0.2550	-0.379559	0.955593	-0.106196	-0.345514	0.920388	-0.371779	-0.524592	0.969627	-0.227541	-0.510294	0.974932	-0.315372	-0.389770	0.770135	-0.053028	-0.339930	0.794475	-0.065084	-0.377865	0.744109	-0.050621	-0.330191	0.764013	-0.063020	-0.242400	0.512239	-0.079364	-0.236435	0.508115	-0.175410	-0.263609	0.381758	-0.042233	-0.222331	0.382384	-0.065294	-0.265186	0.340197	-0.038459	-0.223409	0.332999	-0.058692	-0.256762	0.100271	-0.065106	-0.235622	0.107121	-0.155336	-0.126308	0.048153	-0.040363	-0.114487	0.052842	-0.153022	-0.056499	0.072084	-0.091494	-0.321364	0.064091	-0.126176	-0.423639	0.728132	-0.426172	-0.381053	0.718953	-0.403229	-0.431156	0.691374	-0.426268	-0.391059	0.685136	-0.406047	-0.469334	0.455940	-0.396053	-0.488202	0.452228	-0.284930	-0.628913	0.430503	-0.439220	-0.613928	0.390426	-0.428243	-0.671363	0.418594	-0.440077	-0.656649	0.380693	-0.432866	-0.868259	0.337034	-0.435046	-0.853842	0.320310	-0.345867	-0.913424	0.209122	-0.461402	-0.912331	0.188770	-0.352334	-0.883388	0.147320	-0.408405	-0.915377	0.397744	-0.376374	-0.464833	1.395930	-0.059072	-0.309683	1.431366	-0.376954	
53	0.2600	-0.360297	0.954339	-0.103575	-0.324605	0.918777	-0.369140	-0.505034	0.967344	-0.226411	-0.490279	0.972156	-0.314259	-0.371344	0.767814	-0.051117	-0.321165	0.791570	-0.063029	-0.359691	0.741495	-0.048743	-0.311749	0.760924	-0.061081	-0.227098	0.508073	-0.078714	-0.221230	0.504487	-0.174390	-0.250851	0.378224	-0.042093	-0.209712	0.378050	-0.064999	-0.253386	0.336910	-0.038476	-0.212020	0.328871	-0.058675	-0.251123	0.098966	-0.065900	-0.229825	0.105191	-0.156203	-0.121884	0.046394	-0.040434	-0.109844	0.049911	-0.153110	-0.051870	0.068368	-0.091764	-0.316152	0.064068	-0.126921	-0.398846	0.725273	-0.423377	-0.356086	0.717340	-0.400530	-0.405461	0.688340	-0.423500	-0.365064	0.683351	-0.403465	-0.436797	0.452692	-0.392774	-0.455199	0.448873	-0.281318	-0.596609	0.430589	-0.435256	-0.582577	0.389908	-0.424523	-0.639474	0.419905	-0.436079	-0.625692	0.381386	-0.428972	-0.838930	0.343690	-0.430434	-0.824502	0.326687	-0.341336	-0.885964	0.216885	-0.456857	-0.884839	0.196440	-0.347862	-0.856677	0.154338	-0.403970	-0.884987	0.405324	-0.371617	-0.446401	1.392504	-0.055978	-0.291851	1.430473	-0.374186	
54	0.2650	-0.340993	0.953049	-0.100935	-0.303684	0.917187	-0.366508	-0.485467	0.965075	-0.225227	-0.470279	0.969370	-0.313100	-0.352927	0.765563	-0.049249	-0.302430	0.788761	-0.061005	-0.341537	0.738982	-0.046929	-0.293345	0.757930	-0.059190	-0.211955	0.504029	-0.078143	-0.206228	0.500978	-0.173474	-0.238505	0.374832	-0.042064	-0.197526	0.373772	-0.064817	-0.242097	0.333775	-0.038611	-0.201192	0.324804	-0.058790	-0.246658	0.097876	-0.066824	-0.225195	0.103444	-0.157205	-0.118693	0.044734	-0.040606	-0.106436	0.047046	-0.153303	-0.048439	0.064702	-0.092157	-0.312188	0.064298	-0.127780	-0.373894	0.722572	-0.420591	-0.330936	0.715942	-0.397862	-0.379546	0.685493	-0.420750	-0.338833	0.681808	-0.400929	-0.403739	0.449801	-0.389492	-0.421669	0.445861	-0.277691	-0.563574	0.430673	-0.431328	-0.550430	0.389456	-0.420781	-0.606802	0.421116	-0.432118	-0.593877	0.382039	-0.425080	-0.808503	0.349735	-0.425837	-0.794066	0.332578	-0.336816	-0.857008	0.223950	-0.452218	-0.855858	0.203544	-0.343254	-0.828338	0.160930	-0.399357	-0.853690	0.412160	-0.366961	-0.427715	1.389118	-0.052819	-0.274072	1.429540	-0.371546	
55	0.2700	-0.321673	0.951752	-0.098291	-0.282787	0.915656	-0.363895	-0.465915	0.962868	-0.223993	-0.450317	0.966628	-0.311895	-0.334565	0.763413	-0.047432	-0.283766	0.786068	-0.059024	-0.323450	0.736598	-0.045183	-0.275023	0.755052	-0.057353	-0.197042	0.500129	-0.077639	-0.191497	0.497595	-0.172653	-0.226592	0.371602	-0.042126	-0.185792	0.369586	-0.064732	-0.231321	0.330806	-0.038840	-0.190919	0.320833	-0.059015	-0.243227	0.096993	-0.067845	-0.221597	0.101883	-0.158307	-0.116571	0.043186	-0.040854	-0.104104	0.044283	-0.153579	-0.046052	0.061140	-0.092645	-0.309317	0.064745	-0.128720	-0.348841	0.720085	-0.417825	-0.305667	0.714809	-0.395232	-0.353470	0.682895	-0.418027	-0.312436	0.680559	-0.398442	-0.370270	0.447340	-0.386208	-0.387731	0.443270	-0.274054	-0.529928	0.430794	-0.427450	-0.517597	0.389109	-0.417028	-0.573467	0.422251	-0.428207	-0.561315	0.382680	-0.421201	-0.777091	0.355141	-0.421278	-0.762646	0.337953	-0.332330	-0.826668	0.230265	-0.447511	-0.825498	0.210023	-0.338538	-0.798471	0.167027	-0.394598	-0.821610	0.418226	-0.362424	-0.408799	1.385823	-0.049603	-0.256370	1.428609	-0.369036	
56	0.2750	-0.302374	0.950473	-0.095658	-0.261961	0.914219	-0.361314	-0.446410	0.960768	-0.222714	-0.430427	0.963981	-0.310648	-0.316306	0.761391	-0.045672	-0.265222	0.783509	-0.057099	-0.305483	0.734368	-0.043511	-0.256838	0.752310	-0.055580	-0.182435	0.496389	-0.077192	-0.177109	0.494345	-0.171917	-0.215135	0.368551	-0.042259	-0.174535	0.365524	-0.064723	-0.221059	0.328018	-0.039141	-0.181194	0.316990	-0.059326	-0.240690	0.096306	-0.068929	-0.218892	0.100511	-0.159472	-0.115358	0.041762	-0.041159	-0.102692	0.041659	-0.153915	-0.044557	0.057734	-0.093204	-0.307381	0.065373	-0.129707	-0.323757	0.717864	-0.415091	-0.280353	0.713982	-0.392644	-0.327308	0.680601	-0.415340	-0.285955	0.679649	-0.396004	-0.336517	0.445369	-0.382926	-0.353523	0.441165	-0.270411	-0.495810	0.430987	-0.423630	-0.484208	0.388905	-0.413271	-0.539609	0.423335	-0.424357	-0.528137	0.383337	-0.417347	-0.744832	0.359889	-0.416778	-0.730380	0.342790	-0.327899	-0.795081	0.235791	-0.442766	-0.793896	0.215831	-0.333748	-0.767210	0.172573	-0.389729	-0.788892	0.423503	-0.358027	-0.389692	1.382666	-0.046343	-0.238781	1.427717	-0.366654	
57	0.2800	-0.283143	0.949239	-0.093051	-0.241259	0.912907	-0.358776	-0.426995	0.958816	-0.221394	-0.410652	0.961476	-0.309362	-0.298211	0.759518	-0.043977	-0.246853	0.781099	-0.055239	-0.287698	0.732314	-0.041918	-0.238846	0.749718	-0.053877	-0.168209	0.492824	-0.076792	-0.163134	0.491231	-0.171257	-0.204159	0.365693	-0.042442	-0.163776	0.361618	-0.064773	-0.211317	0.325423	-0.039494	-0.172013	0.313309	-0.059700	-0.238912	0.095808	-0.070041	-0.216947	0.099330	-0.160666	-0.114899	0.040470	-0.041500	-0.102046	0.039203	-0.154292	-0.043808	0.054529	-0.093809	-0.306230	0.066154	-0.130711	-0.298722	0.715954	-0.412403	-0.255080	0.713496	-0.390104	-0.301146	0.678658	-0.412701	-0.259485	0.679116	-0.393618	-0.302622	0.443937	-0.379650	-0.319194	0.439598	-0.266768	-0.461380	0.431280	-0.419878	-0.450413	0.388874	-0.409523	-0.505386	0.424390	-0.420580	-0.494497	0.384031	-0.413528	-0.711888	0.363970	-0.412359	-0.697428	0.347073	-0.323543	-0.762417	0.240506	-0.438014	-0.761223	0.220935	-0.328919	-0.734719	0.177526	-0.384787	-0.755704	0.427982	-0.353787	-0.370442	1.379692	-0.043053	-0.221347	1.426897	-0.364402	
58	0.2850	-0.264035	0.948071	-0.090485	-0.220747	0.911750	-0.356294	-0.407722	0.957048	-0.220042	-0.391046	0.959158	-0.308044	-0.280345	0.757812	-0.042352	-0.228724	0.778849	-0.053454	-0.270163	0.730452	-0.040405	-0.221116	0.747290	-0.052250	-0.154440	0.489445	-0.076428	-0.149642	0.488258	-0.170664	-0.193692	0.363040	-0.042656	-0.153542	0.357896	-0.064865	-0.202100	0.323029	-0.039877	-0.163375	0.309817	-0.060115	-0.237760	0.095488	-0.071153	-0.215633	0.098342	-0.161858	-0.115047	0.039317	-0.041859	-0.102024	0.036943	-0.154691	-0.043666	0.051563	-0.094439	-0.305718	0.067061	-0.131704	-0.273828	0.714390	-0.409771	-0.229945	0.713379	-0.387618	-0.275082	0.677103	-0.410118	-0.233131	0.678985	-0.391284	-0.268742	0.443075	-0.376385	-0.284912	0.438607	-0.263134	-0.426810	0.431697	-0.416204	-0.416382	0.389038	-0.405794	-0.470975	0.425433	-0.416886	-0.460566	0.384782	-0.409757	-0.678446	0.367386	-0.408041	-0.663978	0.350798	-0.319281	-0.728872	0.244402	-0.433287	-0.727673	0.225313	-0.324086	-0.701194	0.181856	-0.379811	-0.722232	0.431668	-0.349718	-0.351111	1.376938	-0.039749	-0.204119	1.426182	-0.362279	
59	0.2900	-0.245118	0.946991	-0.087976	-0.200498	0.910769	-0.353882	-0.388655	0.955495	-0.218667	-0.371670	0.957063	-0.306702	-0.262781	0.756288	-0.040803	-0.210904	0.776767	-0.051752	-0.252950	0.728793	-0.038976	-0.203717	0.745035	-0.050704	-0.141200	0.486262	-0.076092	-0.136698	0.485429	-0.170130	-0.183756	0.360602	-0.042884	-0.143855	0.354383	-0.064982	-0.193416	0.320846	-0.040274	-0.155276	0.306539	-0.060551	-0.237112	0.095337	-0.072238	-0.214829	0.097547	-0.163017	-0.115665	0.038307	-0.042220	-0.102489	0.034900	-0.155095	-0.044002	0.048866	-0.095072	-0.305706	0.068071	-0.132661	-0.249178	0.713199	-0.407208	-0.205056	0.713644	-0.385192	-0.249227	0.675962	-0.407601	-0.207009	0.679272	-0.389006	-0.235046	0.442803	-0.373138	-0.250852	0.438216	-0.259519	-0.392292	0.432256	-0.412616	-0.382301	0.389414	-0.402097	-0.436568	0.426479	-0.413285	-0.426536	0.385602	-0.406045	-0.644713	0.370148	-0.403843	-0.630235	0.353965	-0.315134	-0.694669	0.247489	-0.428616	-0.693469	0.228961	-0.319286	-0.666859	0.185547	-0.374841	-0.688681	0.434574	-0.345831	-0.331775	1.374438	-0.036449	-0.187154	1.425594	-0.360286	
60	0.2950	-0.226467	0.946015	-0.085537	-0.180592	0.909984	-0.351550	-0.369864	0.954178	-0.217279	-0.352596	0.955221	-0.305343	-0.245594	0.754954	-0.039336	-0.193468	0.774857	-0.050140	-0.236135	0.727344	-0.037633	-0.186723	0.742957	-0.049244	-0.128556	0.483283	-0.075775	-0.124363	0.482747	-0.169645	-0.174378	0.358387	-0.043112	-0.134736	0.351099	-0.065111	-0.185271	0.318878	-0.040667	-0.147716	0.303497	-0.060988	-0.236854	0.095343	-0.073271	-0.214422	0.096943	-0.164121	-0.116628	0.037440	-0.042570	-0.103319	0.033088	-0.155489	-0.044698	0.046458	-0.095692	-0.306069	0.069161	-0.133561	-0.224884	0.712397	-0.404727	-0.180529	0.714298	-0.382833	-0.223701	0.675250	-0.405160	-0.181246	0.679980	-0.386787	-0.201715	0.443122	-0.369918	-0.217201	0.438428	-0.255935	-0.358027	0.432966	-0.409124	-0.348371	0.390007	-0.398446	-0.402372	0.427541	-0.409789	-0.392613	0.386500	-0.402405	-0.610914	0.372278	-0.399783	-0.596423	0.356585	-0.311117	-0.660052	0.249789	-0.424032	-0.658857	0.231888	-0.314556	-0.631966	0.188597	-0.369917	-0.655265	0.436726	-0.342138	-0.312519	1.372216	-0.033173	-0.170517	1.425155	-0.358421	
61	0.3000	-0.208164	0.945155	-0.083183	-0.161117	0.909405	-0.349310	-0.351428	0.953114	-0.215887	-0.333902	0.953655	-0.303978	-0.228864	0.753814	-0.037953	-0.176495	0.773121	-0.048624	-0.219797	0.726107	-0.036377	-0.170214	0.741062	-0.047873	-0.116568	0.480514	-0.075470	-0.112690	0.480215	-0.169204	-0.165576	0.356397	-0.043325	-0.126204	0.348061	-0.065239	-0.177669	0.317127	-0.041043	-0.140691	0.300707	-0.061412	-0.236884	0.095495	-0.074232	-0.214312	0.096524	-0.165146	-0.117825	0.036715	-0.042896	-0.104404	0.031517	-0.155862	-0.045647	0.044352	-0.096282	-0.306694	0.070312	-0.134387	-0.201063	0.711988	-0.402338	-0.156486	0.715334	-0.380549	-0.198633	0.674969	-0.402805	-0.155975	0.681103	-0.384632	-0.168937	0.444019	-0.366735	-0.184155	0.439234	-0.252397	-0.324228	0.433831	-0.405737	-0.314805	0.390819	-0.394857	-0.368601	0.428624	-0.406408	-0.359014	0.387481	-0.398851	-0.577285	0.373807	-0.395879	-0.562782	0.358678	-0.307250	-0.625287	0.251340	-0.419566	-0.624099	0.234114	-0.309929	-0.596788	0.191018	-0.365079	-0.622211	0.438160	-0.338646	-0.293440	1.370292	-0.029941	-0.154279	1.424877	-0.356686	
62	0.3050	-0.190297	0.944422	-0.080926	-0.142164	0.909038	-0.347173	-0.333434	0.952309	-0.214505	-0.315673	0.952378	-0.302617	-0.212672	0.752869	-0.036658	-0.160064	0.771560	-0.047208	-0.204014	0.725081	-0.035208	-0.154264	0.739348	-0.046593	-0.105288	0.477957	-0.075172	-0.101725	0.477835	-0.168800	-0.157369	0.354633	-0.043514	-0.118274	0.345281	-0.065354	-0.170614	0.315592	-0.041390	-0.134198	0.298181	-0.061807	-0.237111	0.095778	-0.075107	-0.214410	0.096282	-0.166078	-0.119159	0.036126	-0.043190	-0.105646	0.030187	-0.156204	-0.046758	0.042552	-0.096832	-0.307481	0.071508	-0.135126	-0.177841	0.711967	-0.400051	-0.133054	0.716735	-0.378347	-0.174157	0.675111	-0.400544	-0.131333	0.682619	-0.382545	-0.136905	0.445465	-0.363603	-0.151911	0.440607	-0.248920	-0.291111	0.434849	-0.402465	-0.281823	0.391840	-0.391345	-0.335477	0.429732	-0.403152	-0.325965	0.388543	-0.395398	-0.544075	0.374774	-0.392146	-0.529556	0.360270	-0.303546	-0.590651	0.252190	-0.415246	-0.589472	0.235675	-0.305441	-0.561615	0.192835	-0.360365	-0.589750	0.438923	-0.335361	-0.274644	1.368676	-0.026776	-0.138512	1.424768	-0.355079	
63	0.3100	-0.172959	0.943820	-0.078779	-0.123829	0.908882	-0.345146	-0.315971	0.951764	-0.213143	-0.297997	0.951396	-0.301271	-0.197099	0.752114	-0.035454	-0.144255	0.770170	-0.045893	-0.188863	0.724259	-0.034126	-0.138953	0.737815	-0.045405	-0.094761	0.475615	-0.074877	-0.091504	0.475611	-0.168427	-0.149768	0.353094	-0.043671	-0.110954	0.342765	-0.065450	-0.164107	0.314270	-0.041699	-0.128232	0.295925	-0.062164	-0.237457	0.096179	-0.075885	-0.214639	0.096206	-0.166904	-0.120548	0.035665	-0.043446	-0.106963	0.029095	-0.156509	-0.047951	0.041055	-0.097331	-0.308347	0.072733	-0.135769	-0.155342	0.712317	-0.397878	-0.110363	0.718475	-0.376235	-0.150409	0.675655	-0.398387	-0.107458	0.684499	-0.380533	-0.105816	0.447417	-0.360537	-0.120663	0.442506	-0.245522	-0.258894	0.436009	-0.399317	-0.249648	0.393056	-0.387929	-0.303221	0.430865	-0.400031	-0.293695	0.389681	-0.392059	-0.511533	0.375225	-0.388597	-0.496998	0.361395	-0.300022	-0.556429	0.252402	-0.411100	-0.555264	0.236616	-0.301123	-0.526747	0.194083	-0.355812	-0.558111	0.439071	-0.332287	-0.256242	1.367370	-0.023698	-0.123292	1.424829	-0.353598	
64	0.3150	-0.156241	0.943350	-0.076752	-0.106206	0.908929	-0.343239	-0.299130	0.951472	-0.211812	-0.280966	0.950705	-0.299951	-0.182221	0.751540	-0.034341	-0.129145	0.768946	-0.044682	-0.174418	0.723630	-0.033131	-0.124351	0.736457	-0.044309	-0.085019	0.473487	-0.074582	-0.082054	0.473545	-0.168080	-0.142782	0.351773	-0.043789	-0.104251	0.340518	-0.065520	-0.158146	0.313154	-0.041964	-0.122785	0.293941	-0.062474	-0.237859	0.096679	-0.076557	-0.214936	0.096283	-0.167618	-0.121924	0.035323	-0.043660	-0.108287	0.028232	-0.156770	-0.049160	0.039847	-0.097774	-0.309222	0.073971	-0.136312	-0.133691	0.713012	-0.395826	-0.088540	0.720517	-0.374220	-0.127528	0.676571	-0.396342	-0.084488	0.686702	-0.378602	-0.075859	0.449820	-0.357552	-0.090605	0.444875	-0.242222	-0.227790	0.437296	-0.396304	-0.218501	0.394445	-0.384624	-0.272053	0.432018	-0.397056	-0.262430	0.390885	-0.388849	-0.479908	0.375216	-0.385247	-0.465355	0.362092	-0.296688	-0.522910	0.252044	-0.407153	-0.521759	0.236993	-0.297004	-0.492488	0.194810	-0.351451	-0.527520	0.438669	-0.329427	-0.238351	1.366368	-0.020728	-0.108694	1.425053	-0.352243	
65	0.3200	-0.140236	0.943011	-0.074852	-0.089386	0.909167	-0.341459	-0.283003	0.951417	-0.210525	-0.264669	0.950295	-0.298668	-0.168110	0.751137	-0.033321	-0.114807	0.767880	-0.043575	-0.160746	0.723181	-0.032221	-0.110527	0.735269	-0.043304	-0.076083	0.471569	-0.074286	-0.073391	0.471638	-0.167757	-0.136412	0.350662	-0.043866	-0.098161	0.338536	-0.065559	-0.152724	0.312235	-0.042182	-0.117847	0.292226	-0.062732	-0.238266	0.097264	-0.077121	-0.215250	0.096496	-0.168214	-0.123234	0.035088	-0.043830	-0.109564	0.027582	-0.156986	-0.050332	0.038913	-0.098157	-0.310051	0.075209	-0.136753	-0.113011	0.714018	-0.393902	-0.067708	0.722816	-0.372311	-0.105646	0.677818	-0.394415	-0.062554	0.689180	-0.376759	-0.047217	0.452608	-0.354664	-0.061917	0.447649	-0.239039	-0.198003	0.438691	-0.393436	-0.188594	0.395980	-0.381450	-0.242179	0.433184	-0.394236	-0.232388	0.392142	-0.385784	-0.449437	0.374805	-0.382105	-0.434867	0.362406	-0.293557	-0.490375	0.251195	-0.403426	-0.489241	0.236869	-0.293108	-0.459138	0.195068	-0.347314	-0.498192	0.437787	-0.326782	-0.221085	1.365659	-0.017887	-0.094791	1.425432	-0.351010	
66	0.3250	-0.125032	0.942794	-0.073088	-0.073456	0.909578	-0.339809	-0.267676	0.951579	-0.209291	-0.249192	0.950145	-0.297432	-0.154833	0.750888	-0.032391	-0.101308	0.766965	-0.042569	-0.147907	0.722896	-0.031394	-0.097543	0.734241	-0.042390	-0.067964	0.469858	-0.073988	-0.065520	0.469891	-0.167454	-0.130653	0.349749	-0.043901	-0.092677	0.336813	-0.065567	-0.147833	0.311500	-0.042350	-0.113403	0.290770	-0.062936	-0.238638	0.097914	-0.077579	-0.215543	0.096828	-0.168696	-0.124438	0.034947	-0.043956	-0.110752	0.027128	-0.157157	-0.051429	0.038229	-0.098479	-0.310795	0.076434	-0.137094	-0.093414	0.715292	-0.392114	-0.047980	0.725321	-0.370514	-0.084887	0.679350	-0.392614	-0.041779	0.691876	-0.375012	-0.020061	0.455706	-0.351893	-0.034765	0.450751	-0.235992	-0.169722	0.440171	-0.390722	-0.160127	0.397629	-0.378424	-0.213795	0.434355	-0.391580	-0.203774	0.393435	-0.382877	-0.420346	0.374054	-0.379180	-0.405758	0.362385	-0.290637	-0.459096	0.249935	-0.399938	-0.457978	0.236314	-0.289459	-0.426987	0.194918	-0.343426	-0.470322	0.436501	-0.324350	-0.204559	1.365224	-0.015193	-0.081651	1.425949	-0.349897	
67	0.3300	-0.110709	0.942692	-0.071464	-0.058495	0.910138	-0.338293	-0.253232	0.951933	-0.208121	-0.234616	0.950232	-0.296253	-0.142444	0.750778	-0.031553	-0.088706	0.766190	-0.041663	-0.135953	0.722755	-0.030649	-0.085448	0.733364	-0.041563	-0.060659	0.468347	-0.073690	-0.058439	0.468304	-0.167169	-0.125494	0.349021	-0.043896	-0.087787	0.335340	-0.065544	-0.143458	0.310935	-0.042469	-0.109439	0.289561	-0.063086	-0.238948	0.098611	-0.077933	-0.215786	0.097257	-0.169067	-0.125510	0.034886	-0.044040	-0.111823	0.026847	-0.157284	-0.052420	0.037768	-0.098741	-0.311427	0.077632	-0.137342	-0.075002	0.716787	-0.390465	-0.029459	0.727976	-0.368837	-0.065363	0.681112	-0.390943	-0.022273	0.694731	-0.373366	0.005458	0.459035	-0.349254	-0.009297	0.454101	-0.233101	-0.143117	0.441707	-0.388172	-0.133280	0.399360	-0.375561	-0.187074	0.435519	-0.389097	-0.176773	0.394747	-0.380141	-0.392839	0.373028	-0.376479	-0.378233	0.362082	-0.287936	-0.429320	0.248348	-0.396703	-0.428219	0.235400	-0.286072	-0.396305	0.194425	-0.339809	-0.444088	0.434889	-0.322130	-0.188880	1.365036	-0.012662	-0.069336	1.426585	-0.348901	
68	0.3350	-0.097339	0.942691	-0.069983	-0.044569	0.910822	-0.336913	-0.239742	0.952449	-0.207021	-0.221010	0.950525	-0.295142	-0.130990	0.750786	-0.030802	-0.077045	0.765543	-0.040854	-0.124924	0.722740	-0.029981	-0.074285	0.732627	-0.040821	-0.054157	0.467026	-0.073393	-0.052131	0.466875	-0.166903	-0.120919	0.348460	-0.043854	-0.083468	0.334102	-0.065492	-0.139582	0.310524	-0.042543	-0.105934	0.288583	-0.063184	-0.239179	0.099338	-0.078192	-0.215963	0.097764	-0.169334	-0.126434	0.034892	-0.044087	-0.112758	0.026716	-0.157370	-0.053289	0.037501	-0.098946	-0.311931	0.078792	-0.137505	-0.057864	0.718451	-0.388958	-0.012233	0.730723	-0.367283	-0.047174	0.683046	-0.389407	-0.004129	0.697680	-0.371830	0.029211	0.462513	-0.346763	0.014364	0.457614	-0.230381	-0.118332	0.443272	-0.385795	-0.108210	0.401136	-0.372878	-0.162164	0.436663	-0.386793	-0.151546	0.396058	-0.377589	-0.367093	0.371789	-0.374005	-0.352469	0.361549	-0.285458	-0.401273	0.246518	-0.393733	-0.400189	0.234203	-0.282962	-0.367335	0.193655	-0.336477	-0.419639	0.433029	-0.320119	-0.174144	1.365067	-0.010309	-0.057897	1.427317	-0.348016	
69	0.3400	-0.084980	0.942778	-0.068647	-0.031735	0.911602	-0.335670	-0.227265	0.953094	-0.206000	-0.208433	0.950990	-0.294104	-0.120504	0.750894	-0.030136	-0.066363	0.765013	-0.040137	-0.114847	0.722828	-0.029389	-0.064082	0.732017	-0.040161	-0.048433	0.465887	-0.073100	-0.046572	0.465601	-0.166653	-0.116905	0.348050	-0.043779	-0.079697	0.333082	-0.065414	-0.136182	0.310248	-0.042576	-0.102865	0.287815	-0.063234	-0.239324	0.100077	-0.078363	-0.216065	0.098325	-0.169508	-0.127204	0.034950	-0.044099	-0.113550	0.026710	-0.157419	-0.054027	0.037398	-0.099099	-0.312303	0.079903	-0.137591	-0.042070	0.720230	-0.387594	0.003629	0.733503	-0.365858	-0.030397	0.685095	-0.388007	0.012578	0.700661	-0.370408	0.051093	0.466055	-0.344437	0.036122	0.461204	-0.227850	-0.095482	0.444836	-0.383597	-0.085043	0.402921	-0.370387	-0.139186	0.437773	-0.384675	-0.128224	0.397349	-0.375229	-0.343255	0.370403	-0.371760	-0.328613	0.360837	-0.283205	-0.375146	0.244526	-0.391034	-0.374076	0.232797	-0.280135	-0.340287	0.192674	-0.333442	-0.397094	0.431001	-0.318310	-0.160437	1.365283	-0.008144	-0.047376	1.428121	-0.347238	
70	0.3450	-0.073678	0.942938	-0.067453	-0.020031	0.912448	-0.334561	-0.215848	0.953834	-0.205064	-0.196931	0.951589	-0.293147	-0.111005	0.751080	-0.029551	-0.056679	0.764587	-0.039508	-0.105738	0.722999	-0.028868	-0.054854	0.731521	-0.039579	-0.043455	0.464916	-0.072815	-0.041730	0.464479	-0.166420	-0.113422	0.347771	-0.043676	-0.076443	0.332261	-0.065314	-0.133232	0.310088	-0.042571	-0.100207	0.287235	-0.063242	-0.239384	0.100811	-0.078459	-0.216091	0.098922	-0.169601	-0.127822	0.035048	-0.044084	-0.114198	0.026803	-0.157437	-0.054632	0.037426	-0.099206	-0.312546	0.080955	-0.137612	-0.027671	0.722072	-0.386373	0.018078	0.736258	-0.364564	-0.015091	0.687199	-0.386745	0.027796	0.703613	-0.369105	0.071033	0.469583	-0.342286	0.055910	0.464789	-0.225518	-0.074651	0.446372	-0.381585	-0.063875	0.404679	-0.368098	-0.118226	0.438837	-0.382745	-0.106907	0.398599	-0.373070	-0.321435	0.368927	-0.369743	-0.306777	0.359997	-0.281178	-0.351091	0.242449	-0.388608	-0.350036	0.231254	-0.277596	-0.315333	0.191546	-0.330710	-0.376540	0.428878	-0.316698	-0.147826	1.365649	-0.006175	-0.037801	1.428970	-0.346560	
71	0.3500	-0.063460	0.943153	-0.066399	-0.009479	0.913331	-0.333583	-0.205521	0.954637	-0.204214	-0.186530	0.952287	-0.292274	-0.102499	0.751324	-0.029043	-0.048000	0.764253	-0.038961	-0.097597	0.723232	-0.028413	-0.046603	0.731127	-0.039070	-0.039181	0.464102	-0.072540	-0.037563	0.463501	-0.166205	-0.110438	0.347603	-0.043553	-0.073669	0.331616	-0.065197	-0.130703	0.310026	-0.042537	-0.097932	0.286820	-0.063214	-0.239363	0.101525	-0.078491	-0.216047	0.099533	-0.169626	-0.128296	0.035173	-0.044045	-0.114709	0.026972	-0.157428	-0.055111	0.037555	-0.099273	-0.312670	0.081938	-0.137579	-0.014696	0.723925	-0.385292	0.031087	0.738935	-0.363402	-0.001289	0.689303	-0.385619	0.041496	0.706477	-0.367924	0.088987	0.473022	-0.340322	0.073695	0.468290	-0.223395	-0.055886	0.447852	-0.379762	-0.044766	0.406379	-0.366019	-0.099336	0.439842	-0.381007	-0.087656	0.399791	-0.371116	-0.301707	0.367417	-0.367950	-0.287034	0.359077	-0.279373	-0.329221	0.240356	-0.386454	-0.328177	0.229639	-0.275342	-0.292600	0.190332	-0.328281	-0.358027	0.426731	-0.315275	-0.136361	1.366129	-0.004405	-0.029187	1.429840	-0.345977	
72	0.3550	-0.054338	0.943408	-0.065481	-0.000085	0.914223	-0.332730	-0.196296	0.955469	-0.203455	-0.177244	0.953046	-0.291490	-0.094975	0.751608	-0.028606	-0.040319	0.763996	-0.038491	-0.090411	0.723506	-0.028022	-0.039317	0.730820	-0.038630	-0.035562	0.463428	-0.072280	-0.034025	0.462662	-0.166008	-0.107915	0.347526	-0.043416	-0.071338	0.331127	-0.065070	-0.128563	0.310041	-0.042479	-0.096008	0.286543	-0.063158	-0.239273	0.102205	-0.078472	-0.215942	0.100139	-0.169596	-0.128642	0.035315	-0.043989	-0.115094	0.027194	-0.157398	-0.055472	0.037758	-0.099307	-0.312692	0.082846	-0.137506	-0.003151	0.725740	-0.384346	0.042652	0.741484	-0.362371	0.011000	0.691354	-0.384627	0.053674	0.709202	-0.366867	0.104949	0.476305	-0.338550	0.089476	0.471640	-0.221487	-0.039200	0.449252	-0.378130	-0.027737	0.407991	-0.364154	-0.082530	0.440778	-0.379458	-0.070496	0.400909	-0.369370	-0.284104	0.365922	-0.366376	-0.269417	0.358119	-0.277785	-0.309601	0.238310	-0.384565	-0.308568	0.228014	-0.273367	-0.272168	0.189084	-0.326149	-0.341568	0.424620	-0.314031	-0.126071	1.366688	-0.002836	-0.021532	1.430704	-0.345482	
73	0.3600	-0.046305	0.943687	-0.064691	0.008166	0.915096	-0.331997	-0.188167	0.956301	-0.202785	-0.169064	0.953831	-0.290796	-0.088411	0.751913	-0.028236	-0.033611	0.763806	-0.038092	-0.084153	0.723803	-0.027688	-0.032968	0.730589	-0.038254	-0.032542	0.462882	-0.072038	-0.031064	0.461950	-0.165829	-0.105813	0.347521	-0.043271	-0.069408	0.330770	-0.064937	-0.126778	0.310115	-0.042404	-0.094405	0.286381	-0.063081	-0.239128	0.102839	-0.078414	-0.215788	0.100725	-0.169524	-0.128874	0.035463	-0.043921	-0.115368	0.027447	-0.157354	-0.055731	0.038008	-0.099314	-0.312629	0.083671	-0.137403	0.006983	0.727477	-0.383530	0.052793	0.743864	-0.361469	0.021791	0.693306	-0.383763	0.064350	0.711744	-0.365933	0.118944	0.479376	-0.336975	0.103286	0.474777	-0.219797	-0.024568	0.450552	-0.376687	-0.012776	0.409490	-0.362504	-0.067787	0.441635	-0.378096	-0.055415	0.401940	-0.367829	-0.268620	0.364485	-0.365010	-0.253920	0.357164	-0.276405	-0.292253	0.236363	-0.382931	-0.291228	0.226432	-0.271661	-0.254071	0.187852	-0.324305	-0.327140	0.422600	-0.312958	-0.116964	1.367292	-0.001465	-0.014823	1.431542	-0.345067	
74	0.3650	-0.039336	0.943975	-0.064022	0.015306	0.915930	-0.331376	-0.181110	0.957105	-0.202203	-0.161965	0.954611	-0.290190	-0.082767	0.752224	-0.027927	-0.027839	0.763671	-0.037757	-0.078784	0.724108	-0.027408	-0.027519	0.730419	-0.037937	-0.030064	0.462446	-0.071815	-0.028624	0.461358	-0.165669	-0.104090	0.347570	-0.043125	-0.067836	0.330522	-0.064803	-0.125312	0.310230	-0.042318	-0.093089	0.286309	-0.062991	-0.238943	0.103420	-0.078328	-0.215598	0.101276	-0.169424	-0.129013	0.035611	-0.043848	-0.115548	0.027713	-0.157300	-0.055902	0.038283	-0.099302	-0.312502	0.084411	-0.137282	0.015744	0.729098	-0.382836	0.061553	0.746043	-0.360690	0.031125	0.695123	-0.383024	0.073571	0.714067	-0.365119	0.131029	0.482189	-0.335595	0.115190	0.477655	-0.218321	-0.011933	0.451736	-0.375429	0.000170	0.410857	-0.361066	-0.055050	0.442406	-0.376915	-0.042362	0.402872	-0.366489	-0.255208	0.363140	-0.363843	-0.240496	0.356243	-0.275224	-0.277151	0.234557	-0.381539	-0.276133	0.224936	-0.270209	-0.238291	0.186676	-0.322734	-0.314684	0.420716	-0.312043	-0.109026	1.367910	-0.000284	-0.009030	1.432334	-0.344724	
75	0.3700	-0.033389	0.944259	-0.063465	0.021383	0.916704	-0.330858	-0.175085	0.957860	-0.201707	-0.155906	0.955358	-0.289670	-0.077993	0.752527	-0.027673	-0.022954	0.763579	-0.037480	-0.074250	0.724406	-0.027176	-0.022916	0.730300	-0.037672	-0.028065	0.462107	-0.071616	-0.026647	0.460872	-0.165528	-0.102701	0.347656	-0.042983	-0.066579	0.330362	-0.064674	-0.124127	0.310371	-0.042227	-0.092026	0.286305	-0.062893	-0.238733	0.103940	-0.078226	-0.215389	0.101781	-0.169307	-0.129078	0.035750	-0.043772	-0.115653	0.027977	-0.157241	-0.056002	0.038562	-0.099276	-0.312331	0.085062	-0.137152	0.023195	0.730575	-0.382255	0.068996	0.747994	-0.360029	0.039066	0.696773	-0.382399	0.081403	0.716147	-0.364423	0.141293	0.484710	-0.334406	0.125282	0.480238	-0.217055	-0.001202	0.452793	-0.374350	0.011186	0.412078	-0.359832	-0.044229	0.443088	-0.375907	-0.031253	0.403699	-0.365344	-0.243785	0.361913	-0.362861	-0.229064	0.355384	-0.274228	-0.264228	0.232923	-0.380373	-0.263214	0.223560	-0.268995	-0.224765	0.185586	-0.321418	-0.304110	0.419001	-0.311275	-0.102221	1.368516	0.000716	-0.004108	1.433062	-0.344445	
76	0.3750	-0.028406	0.944529	-0.063008	0.026464	0.917403	-0.330434	-0.170033	0.958548	-0.201291	-0.150827	0.956052	-0.289232	-0.074028	0.752810	-0.027466	-0.018893	0.763521	-0.037255	-0.070492	0.724686	-0.026987	-0.019097	0.730221	-0.037456	-0.026485	0.461849	-0.071440	-0.025076	0.460483	-0.165406	-0.101603	0.347764	-0.042850	-0.065592	0.330270	-0.064554	-0.123189	0.310524	-0.042137	-0.091184	0.286348	-0.062796	-0.238513	0.104395	-0.078118	-0.215172	0.102233	-0.169183	-0.129088	0.035878	-0.043699	-0.115700	0.028228	-0.157181	-0.056047	0.038831	-0.099241	-0.312136	0.085625	-0.137021	0.029417	0.731890	-0.381777	0.075205	0.749703	-0.359477	0.045699	0.698236	-0.381882	0.087935	0.717967	-0.363837	0.149852	0.486920	-0.333401	0.133682	0.482503	-0.215988	0.007745	0.453715	-0.373441	0.020388	0.413144	-0.358794	-0.035202	0.443678	-0.375062	-0.021972	0.404418	-0.364381	-0.234236	0.360824	-0.362048	-0.219506	0.354605	-0.273403	-0.253374	0.231483	-0.379413	-0.252363	0.222330	-0.267997	-0.213389	0.184606	-0.320336	-0.295298	0.417479	-0.310641	-0.096496	1.369087	0.001546	-0.000002	1.433717	-0.344223	
77	0.3800	-0.024315	0.944776	-0.062642	0.030625	0.918018	-0.330093	-0.165883	0.959157	-0.200949	-0.146656	0.956674	-0.288871	-0.070800	0.753067	-0.027303	-0.015584	0.763488	-0.037075	-0.067437	0.724940	-0.026836	-0.015993	0.730172	-0.037282	-0.025262	0.461658	-0.071289	-0.023853	0.460177	-0.165302	-0.100753	0.347882	-0.042729	-0.064836	0.330227	-0.064445	-0.122460	0.310677	-0.042052	-0.090531	0.286421	-0.062702	-0.238296	0.104784	-0.078010	-0.214961	0.102626	-0.169061	-0.129059	0.035990	-0.043631	-0.115704	0.028455	-0.157124	-0.056052	0.039079	-0.099204	-0.311932	0.086101	-0.136897	0.034507	0.733028	-0.381392	0.080281	0.751165	-0.359027	0.051128	0.699501	-0.381461	0.093273	0.719523	-0.363354	0.156845	0.488809	-0.332570	0.140532	0.484442	-0.215108	0.015053	0.454501	-0.372690	0.027917	0.414053	-0.357937	-0.027827	0.444177	-0.374367	-0.014377	0.405028	-0.363589	-0.226417	0.359883	-0.361390	-0.211680	0.353920	-0.272733	-0.244447	0.230246	-0.378639	-0.243437	0.221261	-0.267194	-0.204020	0.183750	-0.319465	-0.288103	0.416164	-0.310126	-0.091778	1.369606	0.002221	0.003354	1.434288	-0.344050	
