PathFileType	4	(X/Y/Z)	 P12 pr2 09.trc
DataRate	CameraRate	NumFrames	NumMarkers	Units	OrigDataRate	OrigDataStartFrame	OrigNumFrames
200	200	81	38	m	200	1	81
Frame#	Time	RASIS			LASIS			RPSIS			LPSIS			RThighRear1			RThighFront1			RThighRear2			RThighFront2			RKneeLat			RKneeMed			RShankRear1			RShankFront1			RShankRear2			RShankFront2			RAnkleLat			RAnkleMed			RM5			RM1			RMid			RHeel			LThighRear1			LThighFront1			LThighRear2			LThighFront2			LKneeLat			LKneeMed			LShankRear1			LShankFront1			LShankRear2			LShankFront2			LAnkleLat			LAnkleMed			LM5			LM1			LMid			LHeel			RShoulder			LShoulder			
		X1	Y1	Z1	X2	Y2	Z2	X3	Y3	Z3	X4	Y4	Z4	X5	Y5	Z5	X6	Y6	Z6	X7	Y7	Z7	X8	Y8	Z8	X9	Y9	Z9	X10	Y10	Z10	X11	Y11	Z11	X12	Y12	Z12	X13	Y13	Z13	X14	Y14	Z14	X15	Y15	Z15	X16	Y16	Z16	X17	Y17	Z17	X18	Y18	Z18	X19	Y19	Z19	X20	Y20	Z20	X21	Y21	Z21	X22	Y22	Z22	X23	Y23	Z23	X24	Y24	Z24	X25	Y25	Z25	X26	Y26	Z26	X27	Y27	Z27	X28	Y28	Z28	X29	Y29	Z29	X30	Y30	Z30	X31	Y31	Z31	X32	Y32	Z32	X33	Y33	Z33	X34	Y34	Z34	X35	Y35	Z35	X36	Y36	Z36	X37	Y37	Z37	X38	Y38	Z38	
1	0.0000	-1.583806	0.974159	-0.109043	-1.583873	0.959293	-0.386333	-1.759555	1.010027	-0.215216	-1.753102	0.999048	-0.309378	-1.706914	0.750473	-0.048038	-1.653453	0.746526	-0.055916	-1.708381	0.701644	-0.052417	-1.655939	0.698090	-0.059164	-1.741608	0.438972	-0.102016	-1.733548	0.432322	-0.219352	-1.888968	0.456556	-0.083004	-1.868914	0.405083	-0.092423	-1.934799	0.444047	-0.091358	-1.917991	0.395415	-0.094119	-2.154062	0.369014	-0.125591	-2.134795	0.350982	-0.219171	-2.201707	0.219632	-0.092682	-2.175117	0.213655	-0.203435	-2.153169	0.177302	-0.144919	-2.203614	0.420577	-0.189626	-1.573460	0.729728	-0.445436	-1.526497	0.755901	-0.436673	-1.563540	0.691371	-0.437165	-1.509734	0.717115	-0.434276	-1.390220	0.529297	-0.386883	-1.379364	0.531933	-0.277807	-1.449568	0.396932	-0.395432	-1.398703	0.401016	-0.390948	-1.452784	0.343523	-0.389895	-1.400378	0.350941	-0.385909	-1.414242	0.106280	-0.335164	-1.371206	0.130326	-0.252820	-1.287836	0.063667	-0.388918	-1.242441	0.093779	-0.288959	-1.219241	0.124858	-0.355360	-1.459730	0.065682	-0.273627	-1.427143	1.396635	-0.120453	-1.471624	1.406610	-0.434891	
2	0.0050	-1.569272	0.972492	-0.108390	-1.569503	0.957778	-0.385933	-1.745622	1.006586	-0.214686	-1.739266	0.996366	-0.309133	-1.688130	0.747633	-0.047613	-1.634714	0.744745	-0.055475	-1.688596	0.698876	-0.051863	-1.636129	0.696385	-0.058503	-1.716086	0.436488	-0.101220	-1.707518	0.429928	-0.218658	-1.862635	0.455472	-0.082110	-1.843068	0.403718	-0.091444	-1.908624	0.443766	-0.090013	-1.892147	0.394587	-0.093150	-2.128138	0.370586	-0.124443	-2.109322	0.352433	-0.218001	-2.174249	0.221491	-0.090957	-2.148871	0.215181	-0.201716	-2.125812	0.179374	-0.143491	-2.178810	0.422043	-0.188355	-1.558956	0.727968	-0.444685	-1.512165	0.754280	-0.436103	-1.549109	0.689675	-0.436431	-1.495546	0.715410	-0.433474	-1.377202	0.527320	-0.385932	-1.366649	0.530324	-0.277003	-1.438504	0.396446	-0.394207	-1.387541	0.399291	-0.390000	-1.442839	0.343282	-0.388939	-1.390377	0.349391	-0.384926	-1.410906	0.106285	-0.334161	-1.367763	0.128604	-0.251567	-1.286426	0.061178	-0.388580	-1.240436	0.088682	-0.288114	-1.216470	0.119156	-0.354179	-1.457702	0.066626	-0.272954	-1.412713	1.393929	-0.120202	-1.456375	1.403068	-0.436073	
3	0.0100	-1.554552	0.970742	-0.107714	-1.554963	0.956247	-0.385544	-1.731507	1.003078	-0.214134	-1.725253	0.993647	-0.308860	-1.669058	0.744741	-0.047183	-1.615686	0.742928	-0.055030	-1.668502	0.696062	-0.051302	-1.616008	0.694651	-0.057837	-1.690123	0.433984	-0.100443	-1.681068	0.427541	-0.217980	-1.835852	0.454368	-0.081212	-1.816782	0.402330	-0.090472	-1.882007	0.443465	-0.088661	-1.865870	0.393738	-0.092182	-2.101809	0.372129	-0.123257	-2.083458	0.353864	-0.216798	-2.146327	0.223300	-0.089208	-2.122191	0.216665	-0.199978	-2.097987	0.181412	-0.142058	-2.153647	0.423472	-0.187026	-1.544308	0.726178	-0.443936	-1.497686	0.752625	-0.435547	-1.534535	0.687945	-0.435696	-1.481211	0.713665	-0.432685	-1.364034	0.525270	-0.384987	-1.353752	0.528647	-0.276212	-1.427321	0.395908	-0.392991	-1.376266	0.397499	-0.389054	-1.432794	0.342998	-0.387983	-1.380281	0.347783	-0.383941	-1.407558	0.106301	-0.333145	-1.364309	0.126878	-0.250300	-1.285026	0.058722	-0.388250	-1.238447	0.083619	-0.287273	-1.213718	0.113470	-0.353006	-1.455666	0.067569	-0.272273	-1.398081	1.391152	-0.119942	-1.440906	1.399441	-0.437264	
4	0.0150	-1.539660	0.968898	-0.107016	-1.540274	0.954704	-0.385174	-1.717223	0.999512	-0.213558	-1.711077	0.990901	-0.308553	-1.649708	0.741811	-0.046753	-1.596380	0.741090	-0.054583	-1.648103	0.693220	-0.050737	-1.595583	0.692907	-0.057171	-1.663713	0.431501	-0.099700	-1.654204	0.425209	-0.217330	-1.808618	0.453258	-0.080317	-1.790051	0.400939	-0.089519	-1.854947	0.443145	-0.087315	-1.839154	0.392875	-0.091222	-2.075074	0.373601	-0.122030	-2.057204	0.355242	-0.215561	-2.117918	0.225014	-0.087439	-2.095051	0.218067	-0.198224	-2.069667	0.183378	-0.140627	-2.128132	0.424810	-0.185629	-1.529559	0.724357	-0.443194	-1.483098	0.750929	-0.435014	-1.519864	0.686183	-0.434965	-1.466769	0.711874	-0.431918	-1.350763	0.523131	-0.384058	-1.340710	0.526881	-0.275446	-1.416062	0.395299	-0.391793	-1.364928	0.395625	-0.388116	-1.422692	0.342654	-0.387034	-1.370137	0.346103	-0.382959	-1.404225	0.106327	-0.332121	-1.360869	0.125158	-0.249024	-1.283650	0.056327	-0.387934	-1.236494	0.078643	-0.286444	-1.211011	0.107852	-0.351854	-1.453643	0.068496	-0.271588	-1.383266	1.388314	-0.119666	-1.425224	1.395735	-0.438451	
5	0.0200	-1.524602	0.966948	-0.106298	-1.525450	0.953153	-0.384834	-1.702772	0.995894	-0.212955	-1.696742	0.988139	-0.308205	-1.630078	0.738857	-0.046325	-1.576793	0.739247	-0.054139	-1.627398	0.690370	-0.050174	-1.574854	0.691173	-0.056510	-1.636834	0.429084	-0.099009	-1.626920	0.422985	-0.216722	-1.780921	0.452158	-0.079434	-1.762852	0.399565	-0.088596	-1.827433	0.442812	-0.085984	-1.811978	0.392008	-0.090281	-2.047920	0.374960	-0.120758	-2.030545	0.356526	-0.214288	-2.088985	0.226589	-0.085653	-2.067411	0.219347	-0.196457	-2.040811	0.185237	-0.139203	-2.102260	0.425999	-0.184157	-1.514743	0.722507	-0.442465	-1.468432	0.749187	-0.434515	-1.505132	0.684387	-0.434244	-1.452257	0.710031	-0.431183	-1.337438	0.520881	-0.383153	-1.327557	0.525002	-0.274714	-1.404772	0.394595	-0.390626	-1.353574	0.393650	-0.387195	-1.412575	0.342232	-0.386100	-1.359989	0.344336	-0.381988	-1.400934	0.106365	-0.331092	-1.357471	0.123455	-0.247745	-1.282310	0.054018	-0.387638	-1.234595	0.073803	-0.285637	-1.208373	0.102355	-0.350736	-1.451653	0.069397	-0.270900	-1.368281	1.385426	-0.119369	-1.409331	1.391958	-0.439623	
6	0.0250	-1.509376	0.964883	-0.105560	-1.510498	0.951599	-0.384535	-1.688153	0.992232	-0.212323	-1.682248	0.985368	-0.307810	-1.610159	0.735898	-0.045904	-1.556922	0.737418	-0.053704	-1.606374	0.687533	-0.049615	-1.553812	0.689474	-0.055862	-1.609461	0.426782	-0.098383	-1.599202	0.420922	-0.216168	-1.752739	0.451087	-0.078571	-1.735159	0.398231	-0.087714	-1.799443	0.442469	-0.084679	-1.784316	0.391150	-0.089366	-2.020323	0.376160	-0.119441	-2.003456	0.357678	-0.212977	-2.059478	0.227979	-0.083852	-2.039216	0.220461	-0.194680	-2.011365	0.186954	-0.137792	-2.076013	0.426977	-0.182604	-1.499891	0.720627	-0.441756	-1.453714	0.747392	-0.434055	-1.490374	0.682556	-0.433537	-1.437702	0.708126	-0.430491	-1.324101	0.518501	-0.382281	-1.314327	0.522983	-0.274025	-1.393491	0.393777	-0.389500	-1.342250	0.391555	-0.386295	-1.402484	0.341711	-0.385185	-1.349882	0.342468	-0.381031	-1.397711	0.106412	-0.330060	-1.354140	0.121778	-0.246466	-1.281017	0.051819	-0.387369	-1.232766	0.069147	-0.284862	-1.205826	0.097026	-0.349665	-1.449716	0.070258	-0.270209	-1.353133	1.382500	-0.119042	-1.393221	1.388120	-0.440765	
7	0.0300	-1.493977	0.962698	-0.104808	-1.495418	0.950046	-0.384286	-1.673357	0.988537	-0.211661	-1.667587	0.982602	-0.307364	-1.589940	0.732953	-0.045494	-1.536755	0.735624	-0.053281	-1.585017	0.684735	-0.049067	-1.532445	0.687835	-0.055233	-1.581563	0.424648	-0.097837	-1.571032	0.419077	-0.215681	-1.724052	0.450066	-0.077737	-1.706939	0.396961	-0.086886	-1.770955	0.442124	-0.083410	-1.756134	0.390313	-0.088487	-1.992255	0.377157	-0.118075	-1.975906	0.358656	-0.211630	-2.029343	0.229142	-0.082039	-2.010408	0.221370	-0.192898	-1.981269	0.188495	-0.136396	-2.049369	0.427681	-0.180964	-1.485028	0.718718	-0.441070	-1.438966	0.745536	-0.433644	-1.475619	0.680688	-0.432848	-1.423131	0.706151	-0.429848	-1.310798	0.515968	-0.381447	-1.301056	0.520798	-0.273388	-1.382263	0.392820	-0.388423	-1.331002	0.389323	-0.385421	-1.392460	0.341073	-0.384296	-1.339859	0.340482	-0.380092	-1.394581	0.106469	-0.329030	-1.350899	0.120134	-0.245192	-1.279782	0.049749	-0.387132	-1.231022	0.064717	-0.284125	-1.203388	0.091909	-0.348652	-1.447851	0.071067	-0.269517	-1.337829	1.379554	-0.118677	-1.376884	1.384233	-0.441864	
8	0.0350	-1.478394	0.960388	-0.104044	-1.480209	0.948497	-0.384098	-1.658371	0.984821	-0.210967	-1.652750	0.979851	-0.306863	-1.569409	0.730043	-0.045100	-1.516281	0.733888	-0.052878	-1.563313	0.682001	-0.048534	-1.510742	0.686285	-0.054629	-1.553111	0.422737	-0.097385	-1.542392	0.417507	-0.215271	-1.694836	0.449117	-0.076941	-1.678160	0.395783	-0.086122	-1.741946	0.441785	-0.082186	-1.727399	0.389512	-0.087651	-1.963683	0.377908	-0.116664	-1.947859	0.359418	-0.210246	-1.998522	0.230037	-0.080215	-1.980923	0.222033	-0.191112	-1.950461	0.189828	-0.135019	-2.022299	0.428048	-0.179237	-1.470174	0.716779	-0.440414	-1.424206	0.743609	-0.433288	-1.460892	0.678781	-0.432181	-1.408566	0.704096	-0.429263	-1.297572	0.513261	-0.380657	-1.287780	0.518421	-0.272808	-1.371127	0.391705	-0.387404	-1.319873	0.386933	-0.384577	-1.382540	0.340299	-0.383436	-1.329961	0.338364	-0.379175	-1.391566	0.106530	-0.328002	-1.347771	0.118528	-0.243926	-1.278612	0.047824	-0.386932	-1.229376	0.060547	-0.283437	-1.201076	0.087046	-0.347706	-1.446076	0.071813	-0.268824	-1.322373	1.376607	-0.118268	-1.360310	1.380312	-0.442906	
9	0.0400	-1.462616	0.957958	-0.103275	-1.464865	0.946956	-0.383979	-1.643183	0.981098	-0.210243	-1.637723	0.977127	-0.306304	-1.548551	0.727192	-0.044726	-1.495492	0.732234	-0.052498	-1.541247	0.679360	-0.048022	-1.488692	0.684854	-0.054058	-1.524080	0.421104	-0.097038	-1.513268	0.416269	-0.214949	-1.665076	0.448262	-0.076191	-1.648793	0.394724	-0.085431	-1.712396	0.441461	-0.081016	-1.698084	0.388763	-0.086866	-1.934578	0.378368	-0.115207	-1.919281	0.359925	-0.208829	-1.966960	0.230629	-0.078384	-1.950699	0.222415	-0.189325	-1.918883	0.190926	-0.133664	-1.994773	0.428014	-0.177423	-1.455346	0.714810	-0.439790	-1.409447	0.741604	-0.432990	-1.446215	0.676835	-0.431538	-1.394025	0.701953	-0.428741	-1.284467	0.510361	-0.379918	-1.274537	0.515827	-0.272290	-1.360125	0.390411	-0.386448	-1.308908	0.384372	-0.383768	-1.372765	0.339371	-0.382608	-1.320229	0.336101	-0.378282	-1.388689	0.106594	-0.326979	-1.344776	0.116964	-0.242672	-1.277515	0.046054	-0.386772	-1.227837	0.056669	-0.282803	-1.198900	0.082470	-0.346837	-1.444410	0.072484	-0.268129	-1.306769	1.373683	-0.117805	-1.343487	1.376377	-0.443876	
10	0.0450	-1.446629	0.955413	-0.102506	-1.449379	0.945429	-0.383938	-1.627778	0.977386	-0.209490	-1.622494	0.974444	-0.305688	-1.527360	0.724425	-0.044377	-1.474380	0.730690	-0.052148	-1.518809	0.676842	-0.047536	-1.466288	0.683574	-0.053525	-1.494455	0.419805	-0.096806	-1.483652	0.415417	-0.214723	-1.634764	0.447526	-0.075496	-1.618819	0.393813	-0.084821	-1.682295	0.441164	-0.079909	-1.668165	0.388083	-0.086139	-1.904912	0.378497	-0.113711	-1.890140	0.360136	-0.207382	-1.934608	0.230883	-0.076548	-1.919679	0.222481	-0.187542	-1.886482	0.191765	-0.132333	-1.966764	0.427520	-0.175527	-1.440561	0.712811	-0.439201	-1.394701	0.739514	-0.432754	-1.431607	0.674848	-0.430921	-1.379524	0.699714	-0.428286	-1.271525	0.507251	-0.379231	-1.261370	0.512994	-0.271837	-1.349297	0.388922	-0.385560	-1.298149	0.381626	-0.382994	-1.363169	0.338276	-0.381813	-1.310702	0.333682	-0.377414	-1.385968	0.106655	-0.325965	-1.341933	0.115446	-0.241434	-1.276494	0.044448	-0.386655	-1.226412	0.053105	-0.282231	-1.196869	0.078208	-0.346052	-1.442868	0.073073	-0.267435	-1.291022	1.370809	-0.117281	-1.326404	1.372449	-0.444760	
11	0.0500	-1.430422	0.952767	-0.101745	-1.433743	0.943919	-0.383982	-1.612142	0.973704	-0.208709	-1.607049	0.971817	-0.305016	-1.505830	0.721772	-0.044057	-1.452944	0.729285	-0.051833	-1.495996	0.674479	-0.047080	-1.443531	0.682478	-0.053038	-1.464230	0.418897	-0.096697	-1.453545	0.415005	-0.214600	-1.603900	0.446931	-0.074863	-1.588228	0.393077	-0.084299	-1.651642	0.440903	-0.078872	-1.637629	0.387489	-0.085474	-1.874664	0.378258	-0.112182	-1.860408	0.360015	-0.205913	-1.901427	0.230774	-0.074712	-1.887813	0.222203	-0.185765	-1.853214	0.192326	-0.131026	-1.938245	0.426507	-0.173558	-1.425828	0.710786	-0.438650	-1.379977	0.737334	-0.432583	-1.417084	0.672822	-0.430332	-1.365079	0.697374	-0.427900	-1.258790	0.503919	-0.378599	-1.248322	0.509905	-0.271450	-1.338682	0.387227	-0.384744	-1.287636	0.378688	-0.382257	-1.353791	0.337002	-0.381053	-1.301418	0.331101	-0.376572	-1.383421	0.106711	-0.324962	-1.339258	0.113977	-0.240215	-1.275555	0.043007	-0.386582	-1.225106	0.049870	-0.281724	-1.194990	0.074283	-0.345355	-1.441463	0.073573	-0.266740	-1.275139	1.368015	-0.116689	-1.309055	1.368556	-0.445543	
12	0.0550	-1.413983	0.950037	-0.101001	-1.417948	0.942432	-0.384116	-1.596263	0.970074	-0.207906	-1.591376	0.969259	-0.304292	-1.483963	0.719259	-0.043770	-1.431190	0.728047	-0.051560	-1.472811	0.672303	-0.046662	-1.420428	0.681599	-0.052602	-1.433414	0.418433	-0.096714	-1.422959	0.415080	-0.214582	-1.572500	0.446502	-0.074301	-1.557022	0.392547	-0.083871	-1.620447	0.440690	-0.077912	-1.606476	0.386998	-0.084879	-1.843819	0.377615	-0.110629	-1.830066	0.359527	-0.204428	-1.867386	0.230281	-0.072882	-1.855062	0.221558	-0.184000	-1.819048	0.192594	-0.129745	-1.909195	0.424923	-0.171529	-1.411157	0.708738	-0.438138	-1.365283	0.735059	-0.432474	-1.402661	0.670760	-0.429771	-1.350700	0.694930	-0.427584	-1.246304	0.500358	-0.378024	-1.235438	0.506548	-0.271128	-1.328319	0.385319	-0.383999	-1.277410	0.375554	-0.381559	-1.344663	0.335543	-0.380328	-1.292412	0.328357	-0.375757	-1.381061	0.106758	-0.323974	-1.336762	0.112559	-0.239020	-1.274698	0.041728	-0.386555	-1.223920	0.046972	-0.281288	-1.193263	0.070710	-0.344752	-1.440207	0.073982	-0.266047	-1.259132	1.365334	-0.116023	-1.291435	1.364729	-0.446213	
13	0.0600	-1.397304	0.947247	-0.100283	-1.401986	0.940975	-0.384342	-1.580130	0.966518	-0.207084	-1.575464	0.966787	-0.303521	-1.461767	0.716919	-0.043520	-1.409128	0.727007	-0.051333	-1.449263	0.670348	-0.046285	-1.396993	0.680970	-0.052225	-1.402033	0.418462	-0.096860	-1.391919	0.415685	-0.214673	-1.540592	0.446258	-0.073815	-1.525217	0.392248	-0.083541	-1.588732	0.440537	-0.077034	-1.574717	0.386629	-0.084355	-1.812372	0.376539	-0.109063	-1.799100	0.358642	-0.202938	-1.832469	0.229388	-0.071062	-1.821397	0.220530	-0.182253	-1.783964	0.192560	-0.128491	-1.879597	0.422719	-0.169455	-1.396555	0.706673	-0.437665	-1.350624	0.732690	-0.432427	-1.388348	0.668667	-0.429238	-1.336399	0.692383	-0.427337	-1.234108	0.496568	-0.377503	-1.222764	0.502919	-0.270869	-1.318245	0.383199	-0.383326	-1.267507	0.372227	-0.380898	-1.335818	0.333900	-0.379638	-1.283715	0.325453	-0.374968	-1.378899	0.106794	-0.323004	-1.334456	0.111194	-0.237854	-1.273926	0.040606	-0.386572	-1.222855	0.044411	-0.280924	-1.191689	0.067496	-0.344243	-1.439109	0.074300	-0.265356	-1.243014	1.362802	-0.115278	-1.273545	1.360999	-0.446757	
14	0.0650	-1.380378	0.944425	-0.099600	-1.385850	0.939553	-0.384663	-1.563737	0.963061	-0.206249	-1.559304	0.964416	-0.302709	-1.439258	0.714781	-0.043312	-1.386778	0.726195	-0.051158	-1.425373	0.668646	-0.045955	-1.373248	0.680622	-0.051911	-1.370124	0.419031	-0.097134	-1.360462	0.416858	-0.214872	-1.508218	0.446219	-0.073410	-1.492841	0.392205	-0.083309	-1.556533	0.440452	-0.076245	-1.542377	0.386397	-0.083907	-1.780325	0.375003	-0.107498	-1.767505	0.357333	-0.201454	-1.796673	0.228086	-0.069262	-1.786802	0.219106	-0.180530	-1.747959	0.192222	-0.127266	-1.849441	0.419854	-0.167357	-1.382025	0.704600	-0.437231	-1.336002	0.730230	-0.432436	-1.374154	0.666551	-0.428733	-1.322183	0.689736	-0.427156	-1.222238	0.492556	-0.377035	-1.210347	0.499019	-0.270668	-1.308492	0.380872	-0.382725	-1.257959	0.368717	-0.380275	-1.327283	0.332077	-0.378981	-1.275357	0.322400	-0.374206	-1.376941	0.106817	-0.322058	-1.332345	0.109885	-0.236722	-1.273238	0.039629	-0.386633	-1.221909	0.042182	-0.280635	-1.190265	0.064642	-0.343829	-1.438174	0.074533	-0.264669	-1.226800	1.360455	-0.114449	-1.255390	1.357402	-0.447161	
15	0.0700	-1.363202	0.941605	-0.098962	-1.369531	0.938173	-0.385076	-1.547078	0.959730	-0.205408	-1.542891	0.962161	-0.301865	-1.416457	0.712877	-0.043147	-1.364164	0.725639	-0.051039	-1.401168	0.667228	-0.045676	-1.349226	0.680587	-0.051665	-1.337743	0.420179	-0.097532	-1.328638	0.418627	-0.215176	-1.475431	0.446402	-0.073092	-1.459940	0.392442	-0.083177	-1.523898	0.440445	-0.075547	-1.509491	0.386316	-0.083535	-1.747689	0.372989	-0.105948	-1.735284	0.355578	-0.199989	-1.760004	0.226375	-0.067491	-1.751273	0.217282	-0.178840	-1.711041	0.191582	-0.126072	-1.818719	0.416293	-0.165257	-1.367568	0.702528	-0.436835	-1.321419	0.727685	-0.432497	-1.360082	0.664424	-0.428256	-1.308058	0.686998	-0.427035	-1.210731	0.488336	-0.376617	-1.198231	0.494858	-0.270518	-1.299090	0.378354	-0.382191	-1.248794	0.365043	-0.379689	-1.319083	0.330089	-0.378358	-1.267360	0.319213	-0.373471	-1.375191	0.106829	-0.321139	-1.330433	0.108636	-0.235630	-1.272635	0.038785	-0.386735	-1.221078	0.040270	-0.280421	-1.188987	0.062143	-0.343509	-1.437404	0.074691	-0.263989	-1.210512	1.358330	-0.113535	-1.236980	1.353975	-0.447416	
16	0.0750	-1.345774	0.938825	-0.098378	-1.353024	0.936842	-0.385579	-1.530151	0.956549	-0.204569	-1.526220	0.960037	-0.300999	-1.393394	0.711234	-0.043029	-1.341318	0.725366	-0.050981	-1.376682	0.666123	-0.045452	-1.324964	0.680890	-0.051491	-1.304958	0.421938	-0.098047	-1.296506	0.421014	-0.215578	-1.442299	0.446817	-0.072862	-1.426569	0.392974	-0.083142	-1.490884	0.440520	-0.074943	-1.476110	0.386400	-0.083240	-1.714480	0.370478	-0.104431	-1.702445	0.353361	-0.198559	-1.722485	0.224259	-0.065757	-1.714818	0.215061	-0.177191	-1.673232	0.190647	-0.124912	-1.787430	0.412011	-0.163181	-1.353183	0.700471	-0.436475	-1.306874	0.725067	-0.432601	-1.346135	0.662301	-0.427805	-1.294026	0.684183	-0.426968	-1.199616	0.483930	-0.376245	-1.186458	0.490457	-0.270414	-1.290064	0.375666	-0.381721	-1.240036	0.361227	-0.379138	-1.311238	0.327955	-0.377768	-1.259745	0.315915	-0.372764	-1.373648	0.106836	-0.320256	-1.328718	0.107454	-0.234586	-1.272117	0.038056	-0.386876	-1.220359	0.038656	-0.280281	-1.187850	0.059987	-0.343281	-1.436796	0.074787	-0.263321	-1.194171	1.356466	-0.112533	-1.218329	1.350755	-0.447510	
17	0.0800	-1.328099	0.936123	-0.097857	-1.336322	0.935569	-0.386164	-1.512959	0.953544	-0.203739	-1.509290	0.958060	-0.300121	-1.370102	0.709880	-0.042960	-1.318279	0.725401	-0.050986	-1.351957	0.665358	-0.045286	-1.300507	0.681557	-0.051393	-1.271851	0.424333	-0.098668	-1.264138	0.424031	-0.216072	-1.408897	0.447471	-0.072722	-1.392794	0.393817	-0.083201	-1.457559	0.440682	-0.074435	-1.442292	0.386658	-0.083022	-1.680723	0.367463	-0.102964	-1.669004	0.350669	-0.197178	-1.684146	0.221747	-0.064075	-1.677457	0.212452	-0.175596	-1.634564	0.189430	-0.123790	-1.755575	0.406987	-0.161156	-1.338863	0.698446	-0.436148	-1.292364	0.722390	-0.432740	-1.332311	0.660198	-0.427381	-1.280088	0.681305	-0.426947	-1.188916	0.479368	-0.375914	-1.175065	0.485841	-0.270346	-1.281432	0.372839	-0.381312	-1.231702	0.357302	-0.378622	-1.303762	0.325702	-0.377210	-1.252523	0.312535	-0.372085	-1.372307	0.106843	-0.319415	-1.327195	0.106344	-0.233597	-1.271683	0.037425	-0.387051	-1.219746	0.037316	-0.280212	-1.186848	0.058156	-0.343140	-1.436344	0.074844	-0.262668	-1.177800	1.354896	-0.111444	-1.199455	1.347781	-0.447436	
18	0.0850	-1.310179	0.933543	-0.097407	-1.319420	0.934361	-0.386823	-1.495504	0.950738	-0.202925	-1.492101	0.956241	-0.299243	-1.346620	0.708840	-0.042939	-1.295087	0.725767	-0.051057	-1.327042	0.664956	-0.045180	-1.275905	0.682607	-0.051373	-1.238515	0.427377	-0.099384	-1.231613	0.427679	-0.216648	-1.375309	0.448366	-0.072672	-1.358695	0.394979	-0.083349	-1.423999	0.440928	-0.074022	-1.408106	0.387095	-0.082878	-1.646446	0.363936	-0.101567	-1.634983	0.347497	-0.195863	-1.645028	0.218855	-0.062456	-1.639218	0.209471	-0.174065	-1.595083	0.187950	-0.122711	-1.723159	0.401212	-0.159211	-1.324601	0.696470	-0.435852	-1.277882	0.719673	-0.432903	-1.318601	0.658136	-0.426982	-1.266241	0.678388	-0.426963	-1.178649	0.474687	-0.375618	-1.164084	0.481047	-0.270307	-1.273206	0.369911	-0.380959	-1.223802	0.353306	-0.378140	-1.296663	0.323366	-0.376684	-1.245701	0.309109	-0.371436	-1.371157	0.106861	-0.318623	-1.325856	0.105318	-0.232672	-1.271334	0.036873	-0.387256	-1.219236	0.036221	-0.280213	-1.185976	0.056630	-0.343081	-1.436037	0.074888	-0.262038	-1.161425	1.353653	-0.110272	-1.180378	1.345086	-0.447187	
19	0.0900	-1.292022	0.931126	-0.097034	-1.302311	0.933228	-0.387547	-1.477793	0.948153	-0.202135	-1.474655	0.954593	-0.298376	-1.322992	0.708134	-0.042968	-1.271788	0.726478	-0.051196	-1.301986	0.664934	-0.045135	-1.251211	0.684054	-0.051432	-1.205052	0.431074	-0.100181	-1.199017	0.431950	-0.217293	-1.341626	0.449498	-0.072709	-1.324355	0.396462	-0.083579	-1.390282	0.441254	-0.073705	-1.373629	0.387715	-0.082806	-1.611678	0.359899	-0.100258	-1.600407	0.343845	-0.194631	-1.605180	0.215605	-0.060916	-1.600140	0.206138	-0.172612	-1.554841	0.186227	-0.121682	-1.690189	0.394684	-0.157376	-1.310384	0.694563	-0.435582	-1.263419	0.716938	-0.433080	-1.304997	0.656138	-0.426607	-1.252476	0.675455	-0.427007	-1.168823	0.469933	-0.375352	-1.153537	0.476117	-0.270285	-1.265392	0.366926	-0.380656	-1.216337	0.349285	-0.377692	-1.289942	0.320987	-0.376191	-1.239277	0.305679	-0.370818	-1.370185	0.106907	-0.317890	-1.324686	0.104388	-0.231821	-1.271071	0.036382	-0.387486	-1.218823	0.035340	-0.280277	-1.185229	0.055380	-0.343098	-1.435859	0.074951	-0.261437	-1.145070	1.352767	-0.109019	-1.161122	1.342704	-0.446758	
20	0.0950	-1.273637	0.928917	-0.096743	-1.284990	0.932179	-0.388320	-1.459834	0.945808	-0.201377	-1.456956	0.953126	-0.297530	-1.299261	0.707779	-0.043045	-1.248429	0.727550	-0.051402	-1.276846	0.665305	-0.045153	-1.226483	0.685906	-0.051569	-1.171570	0.435417	-0.101041	-1.166441	0.436824	-0.217995	-1.307940	0.450854	-0.072831	-1.289863	0.398262	-0.083884	-1.356492	0.441651	-0.073481	-1.338939	0.388513	-0.082802	-1.576455	0.355355	-0.099057	-1.565302	0.339716	-0.193499	-1.564656	0.212020	-0.059471	-1.560268	0.202480	-0.171253	-1.513897	0.184287	-0.120712	-1.656673	0.387409	-0.155678	-1.296197	0.692749	-0.435336	-1.248963	0.714212	-0.433259	-1.291483	0.654230	-0.426256	-1.238784	0.672536	-0.427067	-1.159441	0.465153	-0.375108	-1.143442	0.471101	-0.270273	-1.257986	0.363935	-0.380400	-1.209301	0.345289	-0.377278	-1.283593	0.318612	-0.375731	-1.233244	0.302289	-0.370236	-1.369371	0.106998	-0.317225	-1.323668	0.103568	-0.231054	-1.270896	0.035934	-0.387737	-1.218504	0.034641	-0.280401	-1.184606	0.054379	-0.343184	-1.435789	0.075070	-0.260873	-1.128760	1.352261	-0.107690	-1.141713	1.340665	-0.446145	
21	0.1000	-1.255036	0.926954	-0.096535	-1.267453	0.931224	-0.389128	-1.441637	0.943721	-0.200657	-1.439008	0.951849	-0.296716	-1.275474	0.707787	-0.043170	-1.225057	0.728987	-0.051675	-1.251677	0.666076	-0.045231	-1.201776	0.688166	-0.051785	-1.138181	0.440386	-0.101947	-1.133978	0.442273	-0.218738	-1.274343	0.452416	-0.073033	-1.255315	0.400368	-0.084256	-1.322711	0.442105	-0.073348	-1.304120	0.389482	-0.082862	-1.540809	0.350315	-0.097981	-1.529699	0.335121	-0.192483	-1.523514	0.208129	-0.058139	-1.519655	0.198528	-0.170004	-1.472317	0.182158	-0.119811	-1.622620	0.379404	-0.154146	-1.282023	0.691050	-0.435108	-1.234501	0.711523	-0.433428	-1.278039	0.652438	-0.425928	-1.225151	0.669661	-0.427133	-1.150491	0.460404	-0.374881	-1.133802	0.466055	-0.270260	-1.250975	0.360994	-0.380187	-1.202680	0.341372	-0.376898	-1.277602	0.316293	-0.375308	-1.227584	0.298990	-0.369692	-1.368693	0.107158	-0.316637	-1.322783	0.102876	-0.230381	-1.270813	0.035515	-0.388002	-1.218276	0.034091	-0.280577	-1.184105	0.053593	-0.343331	-1.435801	0.075291	-0.260356	-1.112517	1.352154	-0.106294	-1.122176	1.338993	-0.445348	
22	0.1050	-1.236231	0.925275	-0.096413	-1.249693	0.930372	-0.389953	-1.423213	0.941903	-0.199982	-1.420818	0.950770	-0.295945	-1.251677	0.708162	-0.043338	-1.201719	0.730791	-0.052012	-1.226536	0.667247	-0.045369	-1.177148	0.690827	-0.052076	-1.104997	0.445950	-0.102882	-1.101720	0.448256	-0.219508	-1.240927	0.454159	-0.073309	-1.220802	0.402761	-0.084684	-1.289021	0.442596	-0.073303	-1.269256	0.390610	-0.082981	-1.504774	0.344792	-0.097049	-1.493630	0.330075	-0.191600	-1.481814	0.203962	-0.056937	-1.478357	0.194317	-0.168881	-1.430169	0.179867	-0.118991	-1.588041	0.370692	-0.152806	-1.267839	0.689489	-0.434896	-1.220016	0.708902	-0.433576	-1.264645	0.650791	-0.425621	-1.211558	0.666863	-0.427194	-1.141957	0.455741	-0.374665	-1.124612	0.461036	-0.270237	-1.244338	0.358162	-0.380012	-1.196451	0.337591	-0.376554	-1.271945	0.314086	-0.374922	-1.222274	0.295834	-0.369192	-1.368121	0.107413	-0.316137	-1.322005	0.102334	-0.229815	-1.270824	0.035113	-0.388275	-1.218137	0.033657	-0.280800	-1.183726	0.052990	-0.343531	-1.435865	0.075660	-0.259895	-1.096363	1.352458	-0.104838	-1.102539	1.337709	-0.444366	
23	0.1100	-1.217236	0.923915	-0.096373	-1.231707	0.929633	-0.390779	-1.404574	0.940365	-0.199355	-1.402392	0.949893	-0.295223	-1.227916	0.708904	-0.043546	-1.178462	0.732957	-0.052410	-1.201480	0.668811	-0.045563	-1.152652	0.693879	-0.052437	-1.072128	0.452066	-0.103825	-1.069760	0.454722	-0.220290	-1.207780	0.456050	-0.073651	-1.186417	0.405417	-0.085161	-1.255498	0.443100	-0.073340	-1.234428	0.391878	-0.083156	-1.468382	0.338804	-0.096276	-1.457126	0.324598	-0.190864	-1.439621	0.199550	-0.055885	-1.436435	0.189884	-0.167903	-1.387522	0.177446	-0.118267	-1.552946	0.361304	-0.151682	-1.253623	0.688091	-0.434694	-1.205488	0.706380	-0.433691	-1.251274	0.649315	-0.425337	-1.197986	0.664177	-0.427239	-1.133808	0.451223	-0.374454	-1.115858	0.456107	-0.270196	-1.238047	0.355500	-0.379873	-1.190582	0.334004	-0.376247	-1.266594	0.312047	-0.374578	-1.217281	0.292875	-0.368739	-1.367625	0.107794	-0.315735	-1.321305	0.101963	-0.229365	-1.270933	0.034721	-0.388551	-1.218088	0.033311	-0.281060	-1.183471	0.052536	-0.343776	-1.435944	0.076232	-0.259502	-1.080315	1.353177	-0.103331	-1.082827	1.336826	-0.443203	
24	0.1150	-1.198065	0.922900	-0.096411	-1.213490	0.929018	-0.391584	-1.385734	0.939113	-0.198781	-1.383739	0.949223	-0.294557	-1.204235	0.710007	-0.043790	-1.155327	0.735471	-0.052863	-1.176560	0.670754	-0.045809	-1.128340	0.697299	-0.052865	-1.039683	0.458678	-0.104761	-1.038186	0.461611	-0.221067	-1.174981	0.458051	-0.074053	-1.152248	0.408302	-0.085676	-1.222215	0.443590	-0.073456	-1.199718	0.393263	-0.083380	-1.431665	0.332371	-0.095678	-1.420219	0.318713	-0.190289	-1.396995	0.194926	-0.055002	-1.393956	0.185268	-0.167089	-1.344451	0.174923	-0.117655	-1.517347	0.351280	-0.150793	-1.239349	0.686879	-0.434499	-1.190898	0.703988	-0.433762	-1.237896	0.648038	-0.425073	-1.184410	0.661637	-0.427259	-1.126007	0.446906	-0.374245	-1.107513	0.451328	-0.270130	-1.232061	0.353069	-0.379769	-1.185032	0.330671	-0.375981	-1.261510	0.310234	-0.374279	-1.212565	0.290167	-0.368340	-1.367166	0.108335	-0.315442	-1.320651	0.101790	-0.229042	-1.271145	0.034334	-0.388822	-1.218127	0.033027	-0.281350	-1.183346	0.052198	-0.344057	-1.435996	0.077062	-0.259187	-1.064387	1.354310	-0.101784	-1.063065	1.336352	-0.441862	
25	0.1200	-1.178736	0.922253	-0.096521	-1.195038	0.928535	-0.392348	-1.366706	0.938149	-0.198262	-1.364866	0.948761	-0.293953	-1.180675	0.711455	-0.044064	-1.132353	0.738314	-0.053366	-1.151829	0.673055	-0.046102	-1.104260	0.701061	-0.053353	-1.007761	0.465720	-0.105671	-1.007079	0.468854	-0.221825	-1.142604	0.460116	-0.074505	-1.118381	0.411376	-0.086222	-1.189236	0.444032	-0.073646	-1.165199	0.394737	-0.083651	-1.394652	0.325519	-0.095266	-1.382944	0.312448	-0.189887	-1.354001	0.190121	-0.054308	-1.350985	0.180509	-0.166457	-1.301025	0.172327	-0.117173	-1.481256	0.340665	-0.150157	-1.224991	0.685874	-0.434307	-1.176224	0.701758	-0.433781	-1.224483	0.646986	-0.424830	-1.170804	0.659275	-0.427244	-1.118506	0.442846	-0.374033	-1.099538	0.446761	-0.270033	-1.226336	0.350929	-0.379699	-1.179754	0.327646	-0.375757	-1.256646	0.308705	-0.374031	-1.208080	0.287762	-0.368001	-1.366704	0.109072	-0.315267	-1.320008	0.101841	-0.228857	-1.271463	0.033957	-0.389083	-1.218257	0.032782	-0.281662	-1.183356	0.051945	-0.344365	-1.435977	0.078210	-0.258962	-1.048592	1.355846	-0.100207	-1.043276	1.336289	-0.440349	
26	0.1250	-1.159264	0.921988	-0.096693	-1.176351	0.928194	-0.393052	-1.347504	0.937471	-0.197800	-1.345783	0.948507	-0.293413	-1.157275	0.713229	-0.044364	-1.109577	0.741460	-0.053911	-1.127331	0.675684	-0.046435	-1.080452	0.705129	-0.053893	-0.976454	0.473117	-0.106539	-0.976517	0.476373	-0.222550	-1.110713	0.462194	-0.074999	-1.084891	0.414595	-0.086790	-1.156619	0.444390	-0.073903	-1.130942	0.396266	-0.083964	-1.357373	0.318275	-0.095052	-1.345334	0.305832	-0.189670	-1.310701	0.185168	-0.053824	-1.307594	0.175646	-0.166026	-1.257319	0.169685	-0.116840	-1.444690	0.329511	-0.149786	-1.210522	0.685096	-0.434114	-1.161444	0.699718	-0.433739	-1.211000	0.646180	-0.424606	-1.157141	0.657123	-0.427187	-1.111246	0.439094	-0.373816	-1.091885	0.442461	-0.269899	-1.220815	0.349136	-0.379663	-1.174691	0.324983	-0.375581	-1.251951	0.307511	-0.373837	-1.203772	0.285708	-0.367727	-1.366196	0.110044	-0.315218	-1.319337	0.102145	-0.228818	-1.271888	0.033597	-0.389327	-1.218476	0.032563	-0.281985	-1.183506	0.051749	-0.344692	-1.435835	0.079734	-0.258838	-1.032936	1.357769	-0.098610	-1.023483	1.336629	-0.438673	
27	0.1300	-1.139667	0.922113	-0.096917	-1.157426	0.928004	-0.393674	-1.328144	0.937073	-0.197394	-1.326500	0.948459	-0.292939	-1.134069	0.715300	-0.044681	-1.087027	0.744873	-0.054490	-1.103110	0.678606	-0.046803	-1.056953	0.709459	-0.054476	-0.945843	0.480781	-0.107353	-0.946566	0.484086	-0.223231	-1.079363	0.464231	-0.075526	-1.051849	0.417907	-0.087374	-1.124413	0.444624	-0.074224	-1.097011	0.397812	-0.084316	-1.319855	0.310669	-0.095042	-1.307427	0.298899	-0.189645	-1.267159	0.180096	-0.053568	-1.263858	0.170716	-0.165815	-1.213404	0.167020	-0.116676	-1.407670	0.317876	-0.149688	-1.195914	0.684559	-0.433918	-1.146535	0.697895	-0.433630	-1.197416	0.645640	-0.424402	-1.143391	0.655208	-0.427081	-1.104163	0.435694	-0.373592	-1.084497	0.438481	-0.269725	-1.215437	0.347740	-0.379663	-1.169782	0.322728	-0.375455	-1.247363	0.306704	-0.373705	-1.199580	0.284050	-0.367525	-1.365593	0.111290	-0.315305	-1.318597	0.102732	-0.228934	-1.272423	0.033268	-0.389547	-1.218787	0.032358	-0.282311	-1.183801	0.051584	-0.345027	-1.435518	0.081696	-0.258825	-1.017422	1.360053	-0.097005	-1.003704	1.337363	-0.436843	
28	0.1350	-1.119963	0.922626	-0.097178	-1.138265	0.927971	-0.394197	-1.308639	0.936947	-0.197043	-1.307025	0.948615	-0.292529	-1.111088	0.717635	-0.045010	-1.064730	0.748514	-0.055091	-1.079201	0.681779	-0.047198	-1.033794	0.714001	-0.055093	-0.915998	0.488622	-0.108102	-0.917286	0.491903	-0.223857	-1.048597	0.466170	-0.076078	-1.019316	0.421256	-0.087969	-1.092659	0.444694	-0.074603	-1.063462	0.399336	-0.084706	-1.282129	0.302733	-0.095242	-1.269261	0.291684	-0.189820	-1.223438	0.174931	-0.053559	-1.219853	0.165754	-0.165842	-1.169354	0.164352	-0.116703	-1.370219	0.305824	-0.149868	-1.181141	0.684277	-0.433716	-1.131474	0.696311	-0.433450	-1.183696	0.645380	-0.424217	-1.129524	0.653554	-0.426922	-1.097183	0.432682	-0.373363	-1.077308	0.434864	-0.269508	-1.210133	0.346787	-0.379703	-1.164957	0.320923	-0.375384	-1.242819	0.306326	-0.373638	-1.195440	0.282826	-0.367401	-1.364844	0.112849	-0.315535	-1.317744	0.103631	-0.229210	-1.273062	0.032991	-0.389735	-1.219186	0.032166	-0.282631	-1.184247	0.051429	-0.345364	-1.434966	0.084152	-0.258934	-1.002049	1.362666	-0.095402	-0.983956	1.338470	-0.434869	
29	0.1400	-1.100170	0.923518	-0.097462	-1.118872	0.928101	-0.394600	-1.289005	0.937081	-0.196745	-1.287371	0.948970	-0.292181	-1.088360	0.720193	-0.045343	-1.042705	0.752335	-0.055705	-1.055636	0.685153	-0.047611	-1.010997	0.718700	-0.055732	-0.886976	0.496538	-0.108776	-0.888727	0.499732	-0.224420	-1.018449	0.467950	-0.076648	-0.987345	0.424583	-0.088571	-1.061387	0.444559	-0.075036	-1.030347	0.400793	-0.085133	-1.244227	0.294502	-0.095656	-1.230881	0.284224	-0.190198	-1.179603	0.169700	-0.053813	-1.175662	0.160794	-0.166123	-1.125244	0.161696	-0.116942	-1.332371	0.293422	-0.150324	-1.166178	0.684256	-0.433505	-1.116240	0.694984	-0.433195	-1.169808	0.645411	-0.424051	-1.115508	0.652179	-0.426706	-1.090229	0.430088	-0.373128	-1.070242	0.431649	-0.269250	-1.204830	0.346312	-0.379785	-1.160145	0.319599	-0.375371	-1.238246	0.306412	-0.373642	-1.191283	0.282069	-0.367361	-1.363896	0.114759	-0.315911	-1.316730	0.104871	-0.229652	-1.273800	0.032791	-0.389886	-1.219670	0.031991	-0.282934	-1.184843	0.051267	-0.345692	-1.434121	0.087158	-0.259174	-0.986813	1.365572	-0.093810	-0.964255	1.339928	-0.432761	
30	0.1450	-1.080308	0.924773	-0.097754	-1.099250	0.928399	-0.394867	-1.269256	0.937459	-0.196496	-1.267549	0.949516	-0.291890	-1.065908	0.722929	-0.045673	-1.020967	0.756283	-0.056318	-1.032441	0.688674	-0.048036	-0.988579	0.723492	-0.056384	-0.858822	0.504429	-0.109372	-0.860929	0.507479	-0.224915	-0.988942	0.469512	-0.077228	-0.955980	0.427827	-0.089178	-1.030623	0.444175	-0.075518	-0.997708	0.402138	-0.085597	-1.206184	0.286011	-0.096283	-1.192334	0.276555	-0.190781	-1.135722	0.164425	-0.054345	-1.131370	0.155863	-0.166672	-1.081148	0.159065	-0.117413	-1.294165	0.280741	-0.151051	-1.151001	0.684502	-0.433286	-1.100813	0.693928	-0.432865	-1.155720	0.645737	-0.423902	-1.101316	0.651096	-0.426432	-1.083215	0.427931	-0.372892	-1.063221	0.428861	-0.268951	-1.199449	0.346341	-0.379916	-1.155267	0.318781	-0.375423	-1.233570	0.306992	-0.373724	-1.187035	0.281802	-0.367410	-1.362694	0.117058	-0.316437	-1.315508	0.106480	-0.230261	-1.274625	0.032699	-0.389994	-1.220231	0.031845	-0.283213	-1.185588	0.051085	-0.346004	-1.432918	0.090764	-0.259551	-0.971705	1.368727	-0.092238	-0.944613	1.341705	-0.430534	
31	0.1500	-1.060395	0.926365	-0.098036	-1.079409	0.928866	-0.394983	-1.249407	0.938063	-0.196291	-1.247572	0.950247	-0.291650	-1.043749	0.725792	-0.045995	-0.999525	0.760303	-0.056920	-1.009634	0.692286	-0.048464	-0.966550	0.728313	-0.057035	-0.831566	0.512188	-0.109887	-0.833922	0.515047	-0.225339	-0.960091	0.470797	-0.077814	-0.925256	0.430925	-0.089789	-1.000383	0.443505	-0.076047	-0.965584	0.403327	-0.086100	-1.168041	0.277298	-0.097121	-1.153676	0.268715	-0.191571	-1.091868	0.159125	-0.055168	-1.087071	0.150985	-0.167502	-1.037147	0.156464	-0.118136	-1.255653	0.267854	-0.152040	-1.135588	0.685011	-0.433056	-1.085174	0.693149	-0.432461	-1.141403	0.646357	-0.423772	-1.086916	0.650312	-0.426100	-1.076055	0.426219	-0.372658	-1.056158	0.426518	-0.268614	-1.193908	0.346890	-0.380100	-1.150244	0.318481	-0.375541	-1.228713	0.308081	-0.373888	-1.182620	0.282039	-0.367552	-1.361180	0.119778	-0.317115	-1.314027	0.108484	-0.231037	-1.275517	0.032751	-0.390052	-1.220857	0.031745	-0.283458	-1.186472	0.050878	-0.346290	-1.431294	0.095013	-0.260072	-0.956714	1.372084	-0.090693	-0.925039	1.343769	-0.428200	
32	0.1550	-1.040451	0.928261	-0.098292	-1.059359	0.929502	-0.394936	-1.229472	0.938873	-0.196125	-1.227452	0.951153	-0.291453	-1.021899	0.728729	-0.046300	-0.978384	0.764332	-0.057497	-0.987231	0.695925	-0.048888	-0.944915	0.733092	-0.057675	-0.805224	0.519711	-0.110323	-0.807725	0.522345	-0.225691	-0.931902	0.471751	-0.078402	-0.895200	0.433816	-0.090408	-0.970679	0.442510	-0.076620	-0.934006	0.404313	-0.086645	-1.129845	0.268402	-0.098166	-1.114969	0.260743	-0.192565	-1.048117	0.153816	-0.056290	-1.042862	0.146178	-0.168621	-0.993323	0.153896	-0.119128	-1.216896	0.254839	-0.153278	-1.119920	0.685776	-0.432818	-1.069305	0.692649	-0.431986	-1.126827	0.647261	-0.423659	-1.072280	0.649829	-0.425712	-1.068660	0.424949	-0.372433	-1.048964	0.424626	-0.268245	-1.188125	0.347964	-0.380343	-1.144995	0.318703	-0.375730	-1.223595	0.309690	-0.374138	-1.177962	0.282786	-0.367790	-1.359294	0.122947	-0.317943	-1.312234	0.110906	-0.231977	-1.276452	0.032985	-0.390054	-1.221529	0.031716	-0.283661	-1.187481	0.050644	-0.346544	-1.429185	0.099942	-0.260741	-0.941825	1.375592	-0.089181	-0.905543	1.346082	-0.425773	
33	0.1600	-1.020494	0.930423	-0.098504	-1.039111	0.930306	-0.394715	-1.209467	0.939867	-0.195992	-1.207204	0.952222	-0.291292	-1.000367	0.731684	-0.046584	-0.957544	0.768308	-0.058035	-0.965239	0.699529	-0.049300	-0.923671	0.737758	-0.058290	-0.779801	0.526896	-0.110685	-0.782347	0.529282	-0.225975	-0.904372	0.472322	-0.078988	-0.865831	0.436440	-0.091036	-0.941516	0.441158	-0.077234	-0.902999	0.405054	-0.087237	-1.091651	0.259364	-0.099410	-1.076282	0.252676	-0.193758	-1.004552	0.148513	-0.057718	-0.998848	0.141459	-0.170035	-0.949762	0.151358	-0.120404	-1.177968	0.241773	-0.154747	-1.103979	0.686785	-0.432570	-1.053191	0.692425	-0.431445	-1.111966	0.648437	-0.423563	-1.057383	0.649640	-0.425272	-1.060939	0.424111	-0.372223	-1.041549	0.423179	-0.267850	-1.182012	0.349557	-0.380651	-1.139436	0.319440	-0.375992	-1.218134	0.311814	-0.374479	-1.172982	0.284039	-0.368127	-1.356978	0.126590	-0.318918	-1.310075	0.113764	-0.233076	-1.277394	0.033443	-0.389997	-1.222220	0.031789	-0.283816	-1.188589	0.050388	-0.346757	-1.426524	0.105576	-0.261558	-0.927020	1.379198	-0.087705	-0.886130	1.348602	-0.423267	
34	0.1650	-1.000542	0.932805	-0.098657	-1.018680	0.931270	-0.394312	-1.189406	0.941020	-0.195885	-1.186842	0.953443	-0.291157	-0.979161	0.734597	-0.046840	-0.936999	0.772164	-0.058522	-0.943661	0.703033	-0.049694	-0.902809	0.742239	-0.058869	-0.755286	0.533644	-0.110982	-0.757790	0.535773	-0.226195	-0.877493	0.472466	-0.079572	-0.837161	0.438740	-0.091680	-0.912897	0.439422	-0.077891	-0.872587	0.405509	-0.087879	-1.053525	0.250226	-0.100846	-1.037696	0.244552	-0.195145	-0.961265	0.143225	-0.059453	-0.955142	0.136834	-0.171747	-0.906560	0.148841	-0.121976	-1.138955	0.228735	-0.156429	-1.087751	0.688019	-0.432315	-1.036818	0.692465	-0.430844	-1.096797	0.649864	-0.423484	-1.042200	0.649732	-0.424786	-1.052804	0.423681	-0.372035	-1.033820	0.422162	-0.267439	-1.175486	0.351652	-0.381030	-1.133485	0.320673	-0.376330	-1.212248	0.314443	-0.374913	-1.167601	0.285785	-0.368563	-1.354169	0.130724	-0.320034	-1.307494	0.117072	-0.234326	-1.278299	0.034165	-0.389877	-1.222896	0.031997	-0.283916	-1.189763	0.050119	-0.346922	-1.423247	0.111932	-0.262523	-0.912279	1.382848	-0.086268	-0.866805	1.351287	-0.420696	
35	0.1700	-0.980613	0.935358	-0.098734	-0.998084	0.932387	-0.393723	-1.169301	0.942306	-0.195797	-1.166381	0.954800	-0.291037	-0.958283	0.737412	-0.047065	-0.916742	0.775837	-0.058944	-0.922496	0.706373	-0.050064	-0.882317	0.746463	-0.059401	-0.731660	0.539866	-0.111223	-0.734045	0.541739	-0.226358	-0.851251	0.472144	-0.080155	-0.809197	0.440666	-0.092345	-0.884821	0.437281	-0.078589	-0.842787	0.405642	-0.088578	-1.015540	0.241030	-0.102463	-0.999299	0.236407	-0.196718	-0.918353	0.137964	-0.061493	-0.911862	0.132308	-0.173755	-0.863813	0.146334	-0.123851	-1.099958	0.215802	-0.158301	-1.071223	0.689457	-0.432054	-1.020173	0.692754	-0.430190	-1.081298	0.651517	-0.423422	-1.026706	0.650088	-0.424258	-1.044169	0.423628	-0.371880	-1.025687	0.421548	-0.267020	-1.168463	0.354219	-0.381486	-1.127060	0.322376	-0.376745	-1.205855	0.317551	-0.375441	-1.161742	0.288001	-0.369099	-1.350807	0.135358	-0.321283	-1.304435	0.120841	-0.235715	-1.279114	0.035195	-0.389690	-1.223513	0.032379	-0.283955	-1.190956	0.049852	-0.347034	-1.419291	0.119014	-0.263633	-0.897579	1.386490	-0.084871	-0.847570	1.354095	-0.418075	
36	0.1750	-0.960723	0.938027	-0.098723	-0.977341	0.933645	-0.392947	-1.149167	0.943700	-0.195721	-1.145835	0.956277	-0.290924	-0.937731	0.740070	-0.047253	-0.896758	0.779263	-0.059290	-0.901736	0.709487	-0.050406	-0.862176	0.750362	-0.059875	-0.708890	0.545477	-0.111422	-0.711093	0.547111	-0.226476	-0.825631	0.471330	-0.080740	-0.781939	0.442172	-0.093039	-0.857287	0.434722	-0.079329	-0.813616	0.405422	-0.089341	-0.977783	0.231821	-0.104249	-0.961189	0.228278	-0.198467	-0.875925	0.132734	-0.063830	-0.869134	0.127881	-0.176053	-0.821629	0.143821	-0.126034	-1.061090	0.203052	-0.160339	-1.054384	0.691071	-0.431791	-1.003248	0.693271	-0.429494	-1.065450	0.653364	-0.423378	-1.010880	0.650685	-0.423697	-1.034950	0.423914	-0.371766	-1.017060	0.421302	-0.266605	-1.160859	0.357222	-0.382023	-1.120082	0.324511	-0.377238	-1.198877	0.321108	-0.376066	-1.155328	0.290656	-0.369734	-1.346830	0.140496	-0.322653	-1.300839	0.125073	-0.237230	-1.279774	0.036571	-0.389436	-1.224016	0.032973	-0.283930	-1.192110	0.049605	-0.347086	-1.414594	0.126815	-0.264881	-0.882897	1.390070	-0.083512	-0.828427	1.356980	-0.415418	
37	0.1800	-0.940886	0.940758	-0.098610	-0.956469	0.935031	-0.391983	-1.129014	0.945173	-0.195649	-1.125220	0.957857	-0.290808	-0.917499	0.742517	-0.047403	-0.877031	0.782380	-0.059548	-0.881369	0.712317	-0.050717	-0.842365	0.753870	-0.060280	-0.686934	0.550405	-0.111594	-0.688911	0.551829	-0.226558	-0.800613	0.470003	-0.081329	-0.755383	0.443220	-0.093769	-0.830294	0.431739	-0.080115	-0.785087	0.404824	-0.090172	-0.940348	0.222642	-0.106189	-0.923475	0.220198	-0.200380	-0.834095	0.127543	-0.066452	-0.827092	0.123549	-0.178628	-0.780119	0.141284	-0.128521	-1.022478	0.190562	-0.162518	-1.037224	0.692829	-0.431527	-0.986030	0.693992	-0.428763	-1.049234	0.655369	-0.423352	-0.994703	0.651493	-0.423112	-1.025069	0.424491	-0.371703	-1.007852	0.421380	-0.266205	-1.152595	0.360614	-0.382646	-1.112473	0.327034	-0.377809	-1.191235	0.325073	-0.376786	-1.148285	0.293711	-0.370464	-1.342178	0.146132	-0.324132	-1.296645	0.129766	-0.238856	-1.280202	0.038330	-0.389116	-1.224340	0.033821	-0.283840	-1.193155	0.049402	-0.347075	-1.409098	0.135313	-0.266259	-0.868207	1.393539	-0.082189	-0.809375	1.359902	-0.412740	
38	0.1850	-0.921113	0.943494	-0.098386	-0.935487	0.936528	-0.390838	-1.108854	0.946697	-0.195574	-1.104549	0.959521	-0.290679	-0.897578	0.744701	-0.047512	-0.857543	0.785134	-0.059708	-0.861378	0.714808	-0.050993	-0.822856	0.756928	-0.060610	-0.665746	0.554590	-0.111757	-0.667466	0.555844	-0.226619	-0.776176	0.468155	-0.081930	-0.729523	0.443780	-0.094545	-0.803841	0.428336	-0.080947	-0.757213	0.403830	-0.091080	-0.903344	0.213540	-0.108271	-0.886272	0.212202	-0.202445	-0.792989	0.122394	-0.069343	-0.785873	0.119303	-0.181467	-0.739402	0.138703	-0.131306	-0.984260	0.178403	-0.164813	-1.019736	0.694698	-0.431267	-0.968512	0.694887	-0.428007	-1.032635	0.657493	-0.423343	-0.978155	0.652480	-0.422510	-1.014452	0.425309	-0.371700	-0.997980	0.421731	-0.265835	-1.143595	0.364340	-0.383357	-1.104159	0.329893	-0.378455	-1.182856	0.329397	-0.377600	-1.140541	0.297120	-0.371287	-1.336789	0.152250	-0.325704	-1.291795	0.134909	-0.240576	-1.280312	0.040502	-0.388730	-1.224406	0.034960	-0.283682	-1.194004	0.049268	-0.346998	-1.402744	0.144474	-0.267757	-0.853480	1.396851	-0.080895	-0.790414	1.362818	-0.410055	
39	0.1900	-0.901414	0.946177	-0.098040	-0.914416	0.938116	-0.389517	-1.088695	0.948246	-0.195490	-1.083837	0.961246	-0.290528	-0.877954	0.746577	-0.047579	-0.838270	0.787472	-0.059762	-0.841744	0.716911	-0.051235	-0.803622	0.759483	-0.060856	-0.645268	0.557985	-0.111928	-0.646721	0.559119	-0.226671	-0.752301	0.465790	-0.082548	-0.704350	0.443831	-0.095374	-0.777930	0.424526	-0.081830	-0.730007	0.402428	-0.092069	-0.866884	0.204560	-0.110477	-0.849703	0.204322	-0.204648	-0.752738	0.117293	-0.072480	-0.745619	0.115134	-0.184548	-0.699601	0.136056	-0.134374	-0.946582	0.166647	-0.167198	-1.001911	0.696641	-0.431011	-0.950685	0.695926	-0.427237	-1.015637	0.659695	-0.423352	-0.961220	0.653613	-0.421901	-1.003032	0.426315	-0.371767	-0.987365	0.422299	-0.265507	-1.133787	0.368340	-0.384158	-1.095069	0.333030	-0.379176	-1.173669	0.334026	-0.378505	-1.132028	0.300833	-0.372195	-1.330602	0.158828	-0.327355	-1.286224	0.140486	-0.242370	-1.280006	0.043113	-0.388285	-1.224125	0.036426	-0.283460	-1.194559	0.049231	-0.346854	-1.395482	0.154252	-0.269360	-0.838689	1.399963	-0.079627	-0.771540	1.365692	-0.407377	
40	0.1950	-0.881796	0.948754	-0.097568	-0.893274	0.939774	-0.388030	-1.068544	0.949790	-0.195390	-1.063095	0.963012	-0.290348	-0.858612	0.748103	-0.047604	-0.819189	0.789351	-0.059702	-0.822441	0.718587	-0.051441	-0.784631	0.761491	-0.061013	-0.625442	0.560554	-0.112124	-0.626633	0.561628	-0.226729	-0.728970	0.462920	-0.083190	-0.679854	0.443361	-0.096265	-0.752566	0.420329	-0.082766	-0.703481	0.400614	-0.093145	-0.831094	0.195748	-0.112792	-0.813896	0.196591	-0.206974	-0.713480	0.112244	-0.075836	-0.706473	0.111028	-0.187847	-0.660845	0.133322	-0.137708	-0.909601	0.155358	-0.169647	-0.983742	0.698621	-0.430765	-0.932539	0.697076	-0.426463	-0.998227	0.661931	-0.423380	-0.943882	0.654854	-0.421293	-0.990749	0.427453	-0.371914	-0.975934	0.423028	-0.265235	-1.123105	0.372551	-0.385048	-1.085138	0.336386	-0.379967	-1.163608	0.338901	-0.379496	-1.122679	0.304794	-0.373185	-1.323559	0.165834	-0.329066	-1.279871	0.146472	-0.244218	-1.279175	0.046179	-0.387785	-1.223397	0.038248	-0.283177	-1.194708	0.049321	-0.346645	-1.387260	0.164587	-0.271055	-0.823804	1.402841	-0.078375	-0.752750	1.368487	-0.404720	
41	0.2000	-0.862260	0.951171	-0.096965	-0.872079	0.941479	-0.386389	-1.048406	0.951305	-0.195267	-1.042334	0.964794	-0.290133	-0.839529	0.749246	-0.047588	-0.800273	0.790735	-0.059524	-0.803442	0.719802	-0.051613	-0.765849	0.762915	-0.061077	-0.606204	0.562281	-0.112365	-0.607156	0.563360	-0.226807	-0.706166	0.459569	-0.083865	-0.656022	0.442369	-0.097225	-0.727755	0.415778	-0.083758	-0.677649	0.398395	-0.094312	-0.796105	0.187149	-0.115199	-0.778986	0.189039	-0.209405	-0.675355	0.107251	-0.079379	-0.668582	0.106974	-0.191334	-0.623264	0.130481	-0.141282	-0.873478	0.144599	-0.172137	-0.965221	0.700600	-0.430529	-0.914066	0.698302	-0.425692	-0.980390	0.664157	-0.423426	-0.926124	0.656166	-0.420695	-0.977550	0.428669	-0.372147	-0.963619	0.423857	-0.265031	-1.111486	0.376906	-0.386025	-1.074303	0.339898	-0.380826	-1.152609	0.343959	-0.380567	-1.112433	0.308945	-0.374248	-1.315600	0.173226	-0.330819	-1.272671	0.152834	-0.246100	-1.277704	0.049708	-0.387239	-1.222110	0.040452	-0.282838	-1.194326	0.049567	-0.346373	-1.378032	0.175407	-0.272825	-0.808794	1.405452	-0.077133	-0.734040	1.371174	-0.402099	
42	0.2050	-0.842805	0.953381	-0.096229	-0.850844	0.943207	-0.384610	-1.028284	0.952764	-0.195116	-1.021562	0.966569	-0.289877	-0.820682	0.749981	-0.047533	-0.781494	0.791598	-0.059225	-0.784718	0.720532	-0.051754	-0.747242	0.763732	-0.061046	-0.587491	0.563158	-0.112667	-0.588241	0.564316	-0.226919	-0.683876	0.455772	-0.084580	-0.632845	0.440861	-0.098258	-0.703509	0.410909	-0.084809	-0.652523	0.395781	-0.095571	-0.762051	0.178808	-0.117681	-0.745105	0.181696	-0.211926	-0.638507	0.102321	-0.083075	-0.632086	0.102959	-0.194978	-0.586988	0.127515	-0.145066	-0.838374	0.134424	-0.174644	-0.946341	0.702540	-0.430307	-0.895255	0.699574	-0.424933	-0.962115	0.666332	-0.423490	-0.907931	0.657515	-0.420115	-0.963389	0.429909	-0.372473	-0.950358	0.424729	-0.264907	-1.098874	0.381340	-0.387086	-1.062506	0.343504	-0.381746	-1.140618	0.349137	-0.381713	-1.101230	0.313227	-0.375377	-1.306668	0.180957	-0.332595	-1.264561	0.159535	-0.247995	-1.275465	0.053699	-0.386659	-1.220143	0.043053	-0.282452	-1.193279	0.049995	-0.346046	-1.367755	0.186630	-0.274652	-0.793627	1.407773	-0.075892	-0.715404	1.373725	-0.399525	
43	0.2100	-0.823427	0.955343	-0.095361	-0.829585	0.944932	-0.382707	-1.008179	0.954144	-0.194932	-1.000788	0.968310	-0.289576	-0.802046	0.750292	-0.047440	-0.762824	0.791923	-0.058805	-0.766236	0.720762	-0.051866	-0.728777	0.763927	-0.060921	-0.569239	0.563198	-0.113045	-0.569836	0.564510	-0.227077	-0.662090	0.451574	-0.085344	-0.610312	0.438855	-0.099371	-0.679842	0.405770	-0.085923	-0.628118	0.392793	-0.096924	-0.729070	0.170767	-0.120219	-0.712388	0.174590	-0.214517	-0.603078	0.097462	-0.086885	-0.597123	0.098972	-0.198742	-0.552147	0.124409	-0.149026	-0.804453	0.124883	-0.177147	-0.927091	0.704407	-0.430099	-0.876096	0.700859	-0.424193	-0.943386	0.668413	-0.423571	-0.889289	0.658864	-0.419559	-0.948226	0.431127	-0.372896	-0.936096	0.425588	-0.264875	-1.085219	0.385787	-0.388225	-1.049695	0.347141	-0.382722	-1.127581	0.354372	-0.382925	-1.089018	0.317582	-0.376562	-1.296706	0.188971	-0.334377	-1.255476	0.166529	-0.249883	-1.272330	0.058139	-0.386055	-1.217366	0.046059	-0.282030	-1.191422	0.050633	-0.345672	-1.356392	0.198162	-0.276517	-0.778273	1.409787	-0.074642	-0.696834	1.376120	-0.397011	
44	0.2150	-0.804116	0.957019	-0.094362	-0.808309	0.946632	-0.380699	-0.988086	0.955424	-0.194711	-0.980015	0.969994	-0.289228	-0.783589	0.750169	-0.047312	-0.744231	0.791702	-0.058266	-0.747961	0.720488	-0.051953	-0.710417	0.763496	-0.060702	-0.551387	0.562422	-0.113512	-0.551892	0.563967	-0.227293	-0.640801	0.447025	-0.086163	-0.588414	0.436375	-0.100564	-0.656772	0.400411	-0.087099	-0.604450	0.389457	-0.098369	-0.697295	0.163069	-0.122796	-0.680963	0.167748	-0.217161	-0.569207	0.092682	-0.090767	-0.563823	0.095003	-0.202589	-0.518865	0.121153	-0.153122	-0.771870	0.116016	-0.179626	-0.907462	0.706169	-0.429908	-0.856577	0.702130	-0.423478	-0.924192	0.670365	-0.423668	-0.870183	0.660184	-0.419033	-0.932030	0.432279	-0.373421	-0.920785	0.426386	-0.264943	-1.070477	0.390186	-0.389434	-1.035822	0.350754	-0.383750	-1.113454	0.359602	-0.384195	-1.075745	0.321952	-0.377797	-1.285661	0.197204	-0.336146	-1.245351	0.173762	-0.251745	-1.268163	0.063006	-0.385444	-1.213643	0.049468	-0.281584	-1.188604	0.051502	-0.345262	-1.343906	0.209904	-0.278400	-0.762699	1.411482	-0.073374	-0.678325	1.378344	-0.394571	
45	0.2200	-0.784859	0.958382	-0.093237	-0.787027	0.948281	-0.378604	-0.968003	0.956584	-0.194449	-0.959245	0.971597	-0.288831	-0.765282	0.749616	-0.047152	-0.725689	0.790940	-0.057612	-0.729859	0.719717	-0.052019	-0.692131	0.762450	-0.060395	-0.533878	0.560867	-0.114081	-0.534358	0.562724	-0.227574	-0.620009	0.442184	-0.087044	-0.567143	0.433455	-0.101838	-0.634321	0.394891	-0.088338	-0.581535	0.385806	-0.099903	-0.666859	0.155752	-0.125395	-0.650952	0.161197	-0.219839	-0.537024	0.087991	-0.094679	-0.532305	0.091046	-0.206478	-0.487260	0.117740	-0.157311	-0.740777	0.107858	-0.182064	-0.887443	0.707796	-0.429732	-0.836684	0.703361	-0.422792	-0.904518	0.672155	-0.423780	-0.850598	0.661448	-0.418542	-0.914778	0.433332	-0.374047	-0.904384	0.427079	-0.265119	-1.054610	0.394481	-0.390706	-1.020846	0.354289	-0.384821	-1.098197	0.364769	-0.385512	-1.061368	0.326283	-0.379070	-1.273480	0.205589	-0.337885	-1.234125	0.181177	-0.253564	-1.262829	0.068268	-0.384842	-1.208835	0.053266	-0.281130	-1.184669	0.052619	-0.344832	-1.330268	0.221749	-0.280283	-0.746873	1.412857	-0.072081	-0.659868	1.380385	-0.392216	
46	0.2250	-0.765640	0.959411	-0.091990	-0.765741	0.949857	-0.376443	-0.947920	0.957608	-0.194143	-0.938479	0.973094	-0.288385	-0.747092	0.748643	-0.046965	-0.707167	0.789653	-0.056851	-0.711895	0.718463	-0.052068	-0.673886	0.760807	-0.060004	-0.516661	0.558582	-0.114758	-0.517187	0.560827	-0.227928	-0.599713	0.437115	-0.087991	-0.546495	0.430133	-0.103191	-0.612510	0.389269	-0.089640	-0.559388	0.381879	-0.101520	-0.637884	0.148853	-0.127997	-0.622471	0.154960	-0.222531	-0.506649	0.083404	-0.098576	-0.502675	0.087099	-0.210369	-0.457440	0.114170	-0.161549	-0.711309	0.100435	-0.184444	-0.867022	0.709267	-0.429571	-0.816406	0.704533	-0.422138	-0.884352	0.673755	-0.423904	-0.830521	0.662634	-0.418089	-0.896451	0.434257	-0.374774	-0.886859	0.427633	-0.265406	-1.037590	0.398620	-0.392029	-1.004729	0.357698	-0.385928	-1.081776	0.369817	-0.386866	-1.045845	0.330526	-0.380372	-1.260114	0.214054	-0.339580	-1.221735	0.188711	-0.255325	-1.256192	0.073879	-0.384267	-1.202801	0.057429	-0.280685	-1.179461	0.053998	-0.344398	-1.315451	0.233585	-0.282146	-0.730766	1.413914	-0.070753	-0.641456	1.382238	-0.389956	
47	0.2300	-0.746440	0.960094	-0.090630	-0.744454	0.951340	-0.374236	-0.927831	0.958485	-0.193791	-0.917714	0.974465	-0.287892	-0.728986	0.747271	-0.046752	-0.688639	0.787863	-0.055990	-0.694035	0.716753	-0.052105	-0.655655	0.758600	-0.059537	-0.499689	0.555624	-0.115549	-0.500335	0.558332	-0.228359	-0.579921	0.431884	-0.089007	-0.526465	0.426456	-0.104619	-0.591366	0.383607	-0.091001	-0.538027	0.377716	-0.103213	-0.610483	0.142402	-0.130585	-0.595618	0.149062	-0.225219	-0.478188	0.078932	-0.102415	-0.475023	0.083161	-0.214222	-0.429498	0.110450	-0.165790	-0.683590	0.093764	-0.186754	-0.846189	0.710564	-0.429424	-0.795727	0.705630	-0.421516	-0.863681	0.675146	-0.424038	-0.809939	0.663725	-0.417675	-0.877040	0.435036	-0.375598	-0.868186	0.428023	-0.265807	-1.019391	0.402562	-0.393393	-0.987442	0.360944	-0.387065	-1.064165	0.374700	-0.388247	-1.029144	0.334637	-0.381694	-1.245520	0.222524	-0.341217	-1.208124	0.196296	-0.257012	-1.248123	0.079789	-0.383738	-1.195402	0.061924	-0.280267	-1.172828	0.055643	-0.343980	-1.299432	0.245297	-0.283970	-0.714348	1.414665	-0.069384	-0.623079	1.383905	-0.387803	
48	0.2350	-0.727237	0.960427	-0.089164	-0.723165	0.952711	-0.372003	-0.907723	0.959205	-0.193393	-0.896947	0.975689	-0.287354	-0.710932	0.745528	-0.046519	-0.670081	0.785607	-0.055040	-0.676246	0.714622	-0.052133	-0.637410	0.755870	-0.059001	-0.482925	0.552060	-0.116456	-0.483764	0.555301	-0.228869	-0.560641	0.426560	-0.090093	-0.507052	0.422473	-0.106115	-0.570914	0.377969	-0.092418	-0.517466	0.373364	-0.104972	-0.584755	0.136428	-0.133141	-0.570481	0.143522	-0.227884	-0.451731	0.074592	-0.106155	-0.449420	0.079238	-0.217996	-0.403513	0.106590	-0.169986	-0.657723	0.087854	-0.188982	-0.824933	0.711673	-0.429288	-0.774637	0.706643	-0.420927	-0.842496	0.676313	-0.424179	-0.788842	0.664712	-0.417301	-0.856543	0.435661	-0.376512	-0.848348	0.428235	-0.266321	-1.000001	0.406271	-0.394785	-0.968962	0.363992	-0.388223	-1.045346	0.379374	-0.389644	-1.011238	0.338577	-0.383026	-1.229658	0.230920	-0.342783	-1.193240	0.203862	-0.258617	-1.238499	0.085936	-0.383274	-1.186504	0.066704	-0.279898	-1.164623	0.057555	-0.343600	-1.282196	0.256773	-0.285737	-0.697592	1.415126	-0.067969	-0.604730	1.385391	-0.385765	
49	0.2400	-0.708008	0.960416	-0.087602	-0.701874	0.953957	-0.369765	-0.887585	0.959764	-0.192946	-0.876174	0.976751	-0.286774	-0.692899	0.743451	-0.046266	-0.651471	0.782927	-0.054015	-0.658500	0.712112	-0.052155	-0.619132	0.752669	-0.058408	-0.466340	0.547964	-0.117476	-0.467438	0.551799	-0.229458	-0.541884	0.421210	-0.091246	-0.488256	0.418237	-0.107670	-0.551180	0.372415	-0.093884	-0.497720	0.368871	-0.106785	-0.560782	0.130953	-0.135649	-0.547127	0.138358	-0.230507	-0.427348	0.070400	-0.109754	-0.425918	0.075339	-0.221655	-0.379547	0.102610	-0.174093	-0.633791	0.082706	-0.191117	-0.803243	0.712591	-0.429160	-0.753124	0.707568	-0.420370	-0.820788	0.677250	-0.424322	-0.767222	0.665591	-0.416966	-0.834964	0.436131	-0.377509	-0.827339	0.428264	-0.266945	-0.979412	0.409721	-0.396191	-0.949275	0.366820	-0.389395	-1.025309	0.383804	-0.391044	-0.992106	0.342315	-0.384360	-1.212494	0.239166	-0.344271	-1.177036	0.211337	-0.260130	-1.227208	0.092251	-0.382897	-1.175982	0.071716	-0.279598	-1.154710	0.059725	-0.343283	-1.263731	0.267899	-0.287432	-0.680475	1.415319	-0.066501	-0.586403	1.386707	-0.383851	
50	0.2450	-0.688730	0.960075	-0.085954	-0.680576	0.955066	-0.367542	-0.867406	0.960162	-0.192452	-0.855390	0.977638	-0.286156	-0.674861	0.741084	-0.045997	-0.632791	0.779876	-0.052926	-0.640771	0.709274	-0.052174	-0.600803	0.749054	-0.057766	-0.449914	0.543414	-0.118604	-0.451333	0.547899	-0.230120	-0.523666	0.415898	-0.092464	-0.470081	0.413801	-0.109273	-0.532188	0.367002	-0.095391	-0.478803	0.364282	-0.108638	-0.538627	0.125993	-0.138093	-0.525608	0.133588	-0.233069	-0.405086	0.066373	-0.113177	-0.404546	0.071479	-0.225164	-0.357640	0.098532	-0.178066	-0.611853	0.078309	-0.193154	-0.781116	0.713319	-0.429037	-0.731179	0.708406	-0.419840	-0.798553	0.677958	-0.424463	-0.745072	0.666364	-0.416667	-0.812316	0.436456	-0.378578	-0.805161	0.428116	-0.267671	-0.957628	0.412895	-0.397598	-0.928374	0.369413	-0.390573	-1.004053	0.387962	-0.392437	-0.971738	0.345825	-0.385685	-1.194005	0.247185	-0.345672	-1.159471	0.218648	-0.261546	-1.214153	0.098662	-0.382626	-1.163726	0.076897	-0.279390	-1.142967	0.062137	-0.343052	-1.244034	0.278568	-0.289040	-0.662977	1.415273	-0.064979	-0.568093	1.387869	-0.382068	
51	0.2500	-0.669382	0.959426	-0.084231	-0.659271	0.956030	-0.365354	-0.847176	0.960401	-0.191909	-0.834589	0.978339	-0.285504	-0.656794	0.738478	-0.045715	-0.614029	0.776511	-0.051790	-0.623037	0.706164	-0.052192	-0.582415	0.745092	-0.057086	-0.433638	0.538489	-0.119831	-0.435430	0.543671	-0.230851	-0.506003	0.410686	-0.093738	-0.452529	0.409221	-0.110911	-0.513963	0.361783	-0.096930	-0.460725	0.359647	-0.110517	-0.518332	0.121561	-0.140456	-0.505952	0.129223	-0.235555	-0.384970	0.062528	-0.116391	-0.385309	0.067674	-0.228492	-0.337813	0.094387	-0.181867	-0.591945	0.074648	-0.195084	-0.758547	0.713863	-0.428913	-0.708800	0.709164	-0.419334	-0.775790	0.678446	-0.424598	-0.722394	0.667041	-0.416401	-0.788622	0.436652	-0.379707	-0.781830	0.427809	-0.268491	-0.934663	0.415782	-0.398993	-0.906264	0.371764	-0.391748	-0.981587	0.391828	-0.393811	-0.950134	0.349090	-0.386993	-1.174174	0.254903	-0.346982	-1.140519	0.225725	-0.262862	-1.199254	0.105091	-0.382481	-1.149639	0.082179	-0.279295	-1.129292	0.064770	-0.342934	-1.223110	0.288677	-0.290547	-0.645084	1.415020	-0.063402	-0.549795	1.388896	-0.380422	
52	0.2550	-0.649943	0.958498	-0.082443	-0.637955	0.956847	-0.363218	-0.826886	0.960491	-0.191321	-0.813770	0.978849	-0.284823	-0.638679	0.735685	-0.045420	-0.595179	0.772894	-0.050620	-0.605285	0.702842	-0.052207	-0.563962	0.740853	-0.056379	-0.417511	0.533272	-0.121146	-0.419717	0.539188	-0.231642	-0.488913	0.405629	-0.095061	-0.435608	0.404548	-0.112568	-0.496525	0.356806	-0.098489	-0.443495	0.355009	-0.112406	-0.499919	0.117659	-0.142725	-0.488167	0.125273	-0.237948	-0.366998	0.058882	-0.119367	-0.368190	0.063944	-0.231612	-0.320061	0.090206	-0.185458	-0.574075	0.071698	-0.196903	-0.735540	0.714239	-0.428785	-0.685987	0.709857	-0.418847	-0.752506	0.678728	-0.424722	-0.699193	0.667635	-0.416164	-0.763911	0.436743	-0.380883	-0.757373	0.427368	-0.269392	-0.910542	0.418383	-0.400361	-0.882960	0.373873	-0.392912	-0.957934	0.395388	-0.395155	-0.927305	0.352099	-0.388276	-1.152999	0.262251	-0.348198	-1.120163	0.232497	-0.264079	-1.182453	0.111460	-0.382478	-1.133648	0.087489	-0.279334	-1.113605	0.067594	-0.342952	-1.200972	0.298131	-0.291943	-0.626788	1.414594	-0.061770	-0.531510	1.389810	-0.378917	
53	0.2600	-0.630399	0.957328	-0.080603	-0.616632	0.957517	-0.361151	-0.806532	0.960443	-0.190687	-0.792932	0.979169	-0.284117	-0.620505	0.732764	-0.045113	-0.576241	0.769093	-0.049431	-0.587507	0.699373	-0.052221	-0.545448	0.736411	-0.055656	-0.401543	0.527843	-0.122532	-0.404192	0.534520	-0.232482	-0.472413	0.400774	-0.096421	-0.419322	0.399834	-0.114231	-0.479892	0.352109	-0.100055	-0.427119	0.350412	-0.114287	-0.483383	0.114287	-0.144885	-0.472239	0.121743	-0.240232	-0.351147	0.055452	-0.122085	-0.353147	0.060312	-0.234501	-0.304359	0.086028	-0.188808	-0.558226	0.069426	-0.198608	-0.712105	0.714465	-0.428647	-0.662747	0.710499	-0.418374	-0.728714	0.678827	-0.424830	-0.675483	0.668167	-0.415952	-0.738227	0.436761	-0.382089	-0.731829	0.426826	-0.270360	-0.885304	0.420704	-0.401689	-0.858491	0.375750	-0.394059	-0.933127	0.398636	-0.396459	-0.903274	0.354848	-0.389526	-1.130488	0.269162	-0.349320	-1.098399	0.238900	-0.265197	-1.163715	0.117690	-0.382635	-1.115701	0.092751	-0.279527	-1.095852	0.070574	-0.343132	-1.177644	0.306848	-0.293218	-0.608087	1.414035	-0.060085	-0.513242	1.390637	-0.377556	
54	0.2650	-0.610739	0.955957	-0.078722	-0.595304	0.958046	-0.359169	-0.786113	0.960273	-0.190011	-0.772078	0.979301	-0.283391	-0.602268	0.729774	-0.044795	-0.557223	0.765176	-0.048237	-0.569702	0.695821	-0.052230	-0.526884	0.731841	-0.054926	-0.385753	0.522280	-0.123974	-0.388863	0.529733	-0.233360	-0.456522	0.396163	-0.097805	-0.403679	0.395127	-0.115881	-0.464077	0.347724	-0.101615	-0.411598	0.345896	-0.116144	-0.468700	0.111436	-0.146926	-0.458131	0.118636	-0.242395	-0.337363	0.052249	-0.124526	-0.340118	0.056801	-0.237142	-0.290659	0.081891	-0.191894	-0.544355	0.067794	-0.200197	-0.688260	0.714565	-0.428495	-0.639099	0.711112	-0.417909	-0.704437	0.678770	-0.424918	-0.651284	0.668659	-0.415758	-0.711620	0.436741	-0.383312	-0.705252	0.426225	-0.271379	-0.859000	0.422758	-0.402964	-0.832898	0.377408	-0.395179	-0.907214	0.401574	-0.397713	-0.878080	0.357339	-0.390736	-1.106668	0.275580	-0.350348	-1.075245	0.244873	-0.266221	-1.143031	0.123705	-0.382963	-1.095774	0.097887	-0.279890	-1.076008	0.073671	-0.343493	-1.153164	0.314753	-0.294368	-0.588992	1.413382	-0.058353	-0.494997	1.391402	-0.376339	
55	0.2700	-0.590960	0.954431	-0.076812	-0.573984	0.958441	-0.357287	-0.765633	0.960001	-0.189294	-0.751217	0.979255	-0.282648	-0.583972	0.726773	-0.044465	-0.538140	0.761209	-0.047053	-0.551880	0.692250	-0.052233	-0.508290	0.727217	-0.054198	-0.370169	0.516656	-0.125450	-0.373745	0.524889	-0.234263	-0.441258	0.391826	-0.099197	-0.388687	0.390470	-0.117501	-0.449089	0.343675	-0.103153	-0.396932	0.341494	-0.117960	-0.455820	0.109092	-0.148835	-0.445789	0.115949	-0.244424	-0.325575	0.049288	-0.126681	-0.329016	0.053437	-0.239524	-0.278890	0.077835	-0.194694	-0.532394	0.066758	-0.201668	-0.664033	0.714568	-0.428324	-0.615067	0.711720	-0.417446	-0.679707	0.678588	-0.424979	-0.626631	0.669138	-0.415578	-0.684158	0.436720	-0.384533	-0.677713	0.425607	-0.272433	-0.831697	0.424564	-0.404176	-0.806240	0.378867	-0.396266	-0.880260	0.404206	-0.398908	-0.851778	0.359579	-0.391899	-1.081582	0.281454	-0.351285	-1.050733	0.250363	-0.267156	-1.120423	0.129433	-0.383474	-1.073875	0.102824	-0.280439	-1.054083	0.076840	-0.344055	-1.127582	0.321787	-0.295387	-0.569518	1.412675	-0.056579	-0.476790	1.392135	-0.375266	
56	0.2750	-0.571068	0.952799	-0.074885	-0.552686	0.958716	-0.355515	-0.745106	0.959649	-0.188540	-0.730365	0.979044	-0.281893	-0.565632	0.723818	-0.044123	-0.519017	0.757259	-0.045889	-0.534056	0.688724	-0.052226	-0.489693	0.722612	-0.053479	-0.354826	0.511038	-0.126942	-0.358862	0.520046	-0.235176	-0.426637	0.387786	-0.100582	-0.374353	0.385903	-0.119076	-0.434932	0.339977	-0.104654	-0.383116	0.337238	-0.119719	-0.444676	0.107233	-0.150604	-0.435135	0.113676	-0.246311	-0.315684	0.046577	-0.128545	-0.319738	0.050243	-0.241639	-0.268960	0.073899	-0.197196	-0.522255	0.066269	-0.203020	-0.639463	0.714505	-0.428130	-0.590689	0.712346	-0.416981	-0.654570	0.678317	-0.425012	-0.601565	0.669632	-0.415405	-0.655918	0.436738	-0.385736	-0.649295	0.425020	-0.273503	-0.803476	0.426146	-0.405313	-0.778592	0.380152	-0.397313	-0.852343	0.406545	-0.400036	-0.824441	0.361581	-0.393009	-1.055291	0.286742	-0.352137	-1.024917	0.255323	-0.268010	-1.095942	0.134809	-0.384174	-1.050043	0.107491	-0.281184	-1.030119	0.080036	-0.344832	-1.100965	0.327905	-0.296274	-0.549695	1.411953	-0.054772	-0.458638	1.392862	-0.374334	
57	0.2800	-0.551077	0.951110	-0.072954	-0.531434	0.958885	-0.353864	-0.724550	0.959240	-0.187752	-0.709542	0.978683	-0.281129	-0.547273	0.720965	-0.043767	-0.499888	0.753390	-0.044758	-0.516259	0.685300	-0.052204	-0.471130	0.718093	-0.052777	-0.339766	0.505489	-0.128427	-0.344245	0.515254	-0.236086	-0.412674	0.384056	-0.101942	-0.360685	0.381457	-0.120589	-0.421606	0.336634	-0.106104	-0.370141	0.333152	-0.121404	-0.435178	0.105834	-0.152226	-0.426078	0.111805	-0.248046	-0.307576	0.044122	-0.130120	-0.312162	0.047242	-0.243488	-0.260762	0.070123	-0.199395	-0.513827	0.066276	-0.204255	-0.614601	0.714408	-0.427908	-0.566014	0.713017	-0.416508	-0.629080	0.677993	-0.425010	-0.576144	0.670169	-0.415235	-0.626993	0.436833	-0.386907	-0.620100	0.424513	-0.274572	-0.774437	0.427531	-0.406366	-0.750046	0.381290	-0.398312	-0.823562	0.408606	-0.401089	-0.796158	0.363361	-0.394062	-1.027877	0.291412	-0.352907	-0.997876	0.259716	-0.268790	-1.069674	0.139774	-0.385065	-1.024351	0.111824	-0.282133	-1.004194	0.083211	-0.345834	-1.073397	0.333075	-0.297028	-0.529562	1.411254	-0.052942	-0.440566	1.393609	-0.373538	
58	0.2850	-0.531013	0.949414	-0.071030	-0.510261	0.958965	-0.352343	-0.703996	0.958801	-0.186933	-0.688778	0.978195	-0.280359	-0.528927	0.718263	-0.043396	-0.480797	0.749658	-0.043668	-0.498523	0.682032	-0.052163	-0.452644	0.713723	-0.052096	-0.325036	0.500061	-0.129884	-0.329931	0.510557	-0.236978	-0.399381	0.380643	-0.103261	-0.347687	0.377163	-0.122024	-0.409106	0.333646	-0.107487	-0.357995	0.329256	-0.123003	-0.427222	0.104864	-0.153696	-0.418509	0.110323	-0.249626	-0.301117	0.041926	-0.131414	-0.306152	0.044453	-0.245072	-0.254171	0.066541	-0.201290	-0.506984	0.066724	-0.205373	-0.589511	0.714310	-0.427657	-0.541104	0.713756	-0.416023	-0.603310	0.677655	-0.424973	-0.550436	0.670778	-0.415062	-0.597492	0.437044	-0.388029	-0.590247	0.424131	-0.275621	-0.744696	0.428746	-0.407329	-0.720711	0.382308	-0.399258	-0.794029	0.410409	-0.402062	-0.767039	0.364937	-0.395052	-0.999444	0.295442	-0.353602	-0.969710	0.263515	-0.269505	-1.041736	0.144281	-0.386148	-0.996907	0.115765	-0.283287	-0.976425	0.086320	-0.347066	-1.044979	0.337282	-0.297654	-0.509173	1.410615	-0.051098	-0.422607	1.394402	-0.372873	
59	0.2900	-0.510913	0.947759	-0.069125	-0.489207	0.958976	-0.350956	-0.683482	0.958358	-0.186088	-0.668112	0.977601	-0.279585	-0.510640	0.715755	-0.043009	-0.461794	0.746115	-0.042626	-0.480895	0.678969	-0.052098	-0.434288	0.709557	-0.051441	-0.310689	0.494803	-0.131291	-0.315964	0.505991	-0.237838	-0.386769	0.377544	-0.104521	-0.335366	0.373043	-0.123367	-0.397422	0.331003	-0.108790	-0.346662	0.325566	-0.124502	-0.420689	0.104286	-0.155010	-0.412309	0.109209	-0.251045	-0.296161	0.039989	-0.132437	-0.301563	0.041895	-0.246401	-0.249049	0.063184	-0.202887	-0.501587	0.067556	-0.206376	-0.564270	0.714244	-0.427375	-0.516034	0.714587	-0.415524	-0.577342	0.677338	-0.424897	-0.524524	0.671484	-0.414883	-0.567537	0.437402	-0.389090	-0.559869	0.423917	-0.276634	-0.714385	0.429821	-0.408194	-0.690719	0.383235	-0.400146	-0.763879	0.411976	-0.402950	-0.737213	0.366330	-0.395976	-0.970118	0.298821	-0.354228	-0.940542	0.266703	-0.270162	-1.012279	0.148289	-0.387416	-0.967857	0.119269	-0.284645	-0.946965	0.089316	-0.348526	-1.015831	0.340527	-0.298155	-0.488589	1.410065	-0.049254	-0.404799	1.395261	-0.372330	
60	0.2950	-0.490824	0.946190	-0.067251	-0.468322	0.958938	-0.349708	-0.663057	0.957935	-0.185221	-0.647592	0.976927	-0.278810	-0.492466	0.713479	-0.042605	-0.442940	0.742804	-0.041639	-0.463427	0.676150	-0.052005	-0.416123	0.705643	-0.050813	-0.296777	0.489751	-0.132630	-0.302392	0.501588	-0.238654	-0.374847	0.374749	-0.105706	-0.323726	0.369116	-0.124608	-0.386540	0.328690	-0.110000	-0.336125	0.322091	-0.125891	-0.415451	0.104063	-0.156166	-0.407348	0.108441	-0.252303	-0.292554	0.038307	-0.133208	-0.298242	0.039578	-0.247488	-0.245249	0.060078	-0.204198	-0.497486	0.068718	-0.207267	-0.538969	0.714238	-0.427060	-0.490894	0.715530	-0.415007	-0.551274	0.677077	-0.424781	-0.498505	0.672310	-0.414694	-0.537266	0.437938	-0.390076	-0.529118	0.423908	-0.277595	-0.683653	0.430784	-0.408958	-0.660216	0.384099	-0.400970	-0.733261	0.413330	-0.403748	-0.706829	0.367562	-0.396830	-0.940046	0.301548	-0.354791	-0.910523	0.269273	-0.270771	-0.981484	0.151771	-0.388860	-0.937378	0.122298	-0.286200	-0.916003	0.092160	-0.350208	-0.986092	0.342826	-0.298537	-0.467889	1.409633	-0.047422	-0.387188	1.396205	-0.371900	
61	0.3000	-0.470808	0.944747	-0.065418	-0.447665	0.958870	-0.348600	-0.642780	0.957557	-0.184336	-0.627274	0.976200	-0.278035	-0.474469	0.711464	-0.042183	-0.424304	0.739763	-0.040710	-0.446181	0.673607	-0.051880	-0.398214	0.702019	-0.050215	-0.283356	0.484938	-0.133881	-0.289264	0.497371	-0.239415	-0.363618	0.372244	-0.106803	-0.312768	0.365393	-0.125736	-0.376440	0.326685	-0.111106	-0.326361	0.318839	-0.127162	-0.411369	0.104154	-0.157167	-0.403493	0.107993	-0.253401	-0.290133	0.036871	-0.133746	-0.296030	0.037514	-0.248346	-0.242619	0.057244	-0.205238	-0.494526	0.070152	-0.208050	-0.513709	0.714320	-0.426712	-0.465785	0.716599	-0.414472	-0.525216	0.676903	-0.424626	-0.472487	0.673273	-0.414493	-0.506833	0.438671	-0.390978	-0.498158	0.424134	-0.278492	-0.652666	0.431664	-0.409619	-0.629366	0.384925	-0.401727	-0.702340	0.414494	-0.404456	-0.676051	0.368656	-0.397614	-0.909397	0.303633	-0.355298	-0.879825	0.271231	-0.271338	-0.949566	0.154712	-0.390467	-0.905682	0.124828	-0.287939	-0.883759	0.094814	-0.352100	-0.955919	0.344208	-0.298809	-0.447159	1.409340	-0.045616	-0.369827	1.397247	-0.371574	
62	0.3050	-0.450937	0.943466	-0.063638	-0.427304	0.958793	-0.347630	-0.622718	0.957245	-0.183438	-0.607224	0.975447	-0.277262	-0.456721	0.709733	-0.041743	-0.405960	0.737019	-0.039842	-0.429225	0.671365	-0.051718	-0.380634	0.698716	-0.049647	-0.270477	0.480387	-0.135030	-0.276632	0.493359	-0.240110	-0.353086	0.370008	-0.107800	-0.302493	0.361885	-0.126743	-0.367102	0.324963	-0.112101	-0.317347	0.315810	-0.128309	-0.408305	0.104516	-0.158015	-0.400606	0.107837	-0.254342	-0.288733	0.035671	-0.134075	-0.294770	0.035704	-0.248997	-0.241005	0.054696	-0.206029	-0.492550	0.071806	-0.208727	-0.488607	0.714512	-0.426334	-0.440821	0.717806	-0.413919	-0.499291	0.676842	-0.424432	-0.446594	0.674387	-0.414277	-0.476401	0.439619	-0.391789	-0.467168	0.424618	-0.279312	-0.621601	0.432484	-0.410176	-0.598351	0.385738	-0.402414	-0.671297	0.415493	-0.405071	-0.645064	0.369633	-0.398324	-0.878360	0.305096	-0.355756	-0.848641	0.272592	-0.271870	-0.916764	0.157107	-0.392219	-0.873009	0.126848	-0.289846	-0.850487	0.097248	-0.354182	-0.925486	0.344721	-0.298980	-0.426497	1.409204	-0.043848	-0.352774	1.398398	-0.371339	
63	0.3100	-0.431291	0.942375	-0.061920	-0.407315	0.958724	-0.346798	-0.602950	0.957019	-0.182534	-0.587515	0.974693	-0.276494	-0.439300	0.708298	-0.041285	-0.387990	0.734589	-0.039035	-0.412632	0.669438	-0.051519	-0.363458	0.695753	-0.049109	-0.258192	0.476115	-0.136065	-0.264544	0.489564	-0.240733	-0.343249	0.368020	-0.108685	-0.292898	0.358596	-0.127625	-0.358501	0.323496	-0.112978	-0.309056	0.313004	-0.129328	-0.406117	0.105105	-0.158715	-0.398550	0.107941	-0.255132	-0.288194	0.034692	-0.134220	-0.294307	0.034149	-0.249459	-0.240250	0.052443	-0.206593	-0.491402	0.073626	-0.209303	-0.463787	0.714831	-0.425927	-0.416124	0.719156	-0.413350	-0.473631	0.676916	-0.424200	-0.420957	0.675658	-0.414047	-0.446148	0.440787	-0.392501	-0.436337	0.425371	-0.280047	-0.590650	0.433267	-0.410630	-0.567365	0.386554	-0.403030	-0.640326	0.416351	-0.405594	-0.614063	0.370514	-0.398962	-0.847140	0.305969	-0.356169	-0.817183	0.273381	-0.272373	-0.883342	0.158963	-0.394094	-0.839629	0.128356	-0.291899	-0.816467	0.099437	-0.356432	-0.894981	0.344421	-0.299060	-0.406012	1.409236	-0.042133	-0.336094	1.399660	-0.371184	
64	0.3150	-0.411962	0.941493	-0.060274	-0.387781	0.958679	-0.346096	-0.583561	0.956894	-0.181629	-0.568229	0.973963	-0.275731	-0.422289	0.707163	-0.040810	-0.370476	0.732483	-0.038288	-0.396479	0.667832	-0.051281	-0.346766	0.693141	-0.048599	-0.246547	0.472132	-0.136974	-0.253049	0.485994	-0.241277	-0.334104	0.366254	-0.109453	-0.283980	0.355528	-0.128380	-0.350610	0.322256	-0.113733	-0.301461	0.310416	-0.130220	-0.404667	0.105880	-0.159275	-0.397193	0.108272	-0.255777	-0.288357	0.033919	-0.134208	-0.294493	0.032844	-0.249755	-0.240206	0.050486	-0.206955	-0.490933	0.075565	-0.209784	-0.439381	0.715288	-0.425495	-0.391828	0.720649	-0.412766	-0.448378	0.677138	-0.423935	-0.395717	0.677087	-0.413802	-0.416258	0.442175	-0.393114	-0.405862	0.426399	-0.280691	-0.560013	0.434030	-0.410984	-0.536612	0.387391	-0.403572	-0.609629	0.417089	-0.406028	-0.583258	0.371316	-0.399527	-0.815956	0.306289	-0.356543	-0.785681	0.273634	-0.272852	-0.849583	0.160298	-0.396070	-0.805828	0.129366	-0.294075	-0.781998	0.101364	-0.358821	-0.864608	0.343381	-0.299061	-0.385818	1.409439	-0.040484	-0.319854	1.401035	-0.371097	
65	0.3200	-0.393047	0.940836	-0.058708	-0.368789	0.958673	-0.345520	-0.564641	0.956879	-0.180727	-0.549451	0.973278	-0.274976	-0.405775	0.706326	-0.040321	-0.353506	0.730703	-0.037602	-0.380844	0.666545	-0.051005	-0.330635	0.690883	-0.048117	-0.235582	0.468442	-0.137754	-0.242189	0.482654	-0.241739	-0.325643	0.364686	-0.110099	-0.275731	0.352681	-0.129009	-0.343399	0.321212	-0.114365	-0.294533	0.308041	-0.130984	-0.403825	0.106798	-0.159702	-0.396409	0.108798	-0.256287	-0.289073	0.033333	-0.134066	-0.295186	0.031778	-0.249909	-0.240730	0.048819	-0.207144	-0.491000	0.077576	-0.210175	-0.415528	0.715890	-0.425041	-0.368069	0.722279	-0.412173	-0.423678	0.677516	-0.423639	-0.371019	0.678669	-0.413543	-0.386923	0.443773	-0.393624	-0.375945	0.427693	-0.281241	-0.529893	0.434788	-0.411243	-0.506303	0.388257	-0.404043	-0.579416	0.417728	-0.406376	-0.552863	0.372056	-0.400021	-0.785039	0.306105	-0.356882	-0.754375	0.273394	-0.273310	-0.815785	0.161141	-0.398120	-0.771911	0.129900	-0.296344	-0.747397	0.103020	-0.361318	-0.834576	0.341679	-0.298993	-0.366034	1.409814	-0.038911	-0.304126	1.402516	-0.371065	
66	0.3250	-0.374649	0.940407	-0.057230	-0.350430	0.958715	-0.345061	-0.546287	0.956982	-0.179837	-0.531272	0.972659	-0.274231	-0.389844	0.705775	-0.039819	-0.337164	0.729242	-0.036972	-0.365805	0.665567	-0.050691	-0.315144	0.688971	-0.047661	-0.225332	0.465047	-0.138400	-0.232003	0.479545	-0.242118	-0.317857	0.363291	-0.110622	-0.268141	0.350051	-0.129513	-0.336840	0.320335	-0.114875	-0.288241	0.305871	-0.131624	-0.403465	0.107820	-0.160008	-0.396078	0.109482	-0.256672	-0.290203	0.032914	-0.133820	-0.296258	0.030938	-0.249943	-0.241686	0.047434	-0.207186	-0.491473	0.079618	-0.210482	-0.392368	0.716634	-0.424572	-0.344988	0.724032	-0.411574	-0.399678	0.678053	-0.423317	-0.347013	0.680391	-0.413272	-0.358333	0.445566	-0.394036	-0.346787	0.429239	-0.281696	-0.500497	0.435551	-0.411414	-0.476655	0.389159	-0.404443	-0.549896	0.418285	-0.406641	-0.523098	0.372748	-0.400446	-0.754623	0.305471	-0.357190	-0.723510	0.272715	-0.273750	-0.782252	0.161527	-0.400217	-0.738192	0.129993	-0.298677	-0.712988	0.104401	-0.363888	-0.805101	0.339404	-0.298868	-0.346782	1.410352	-0.037425	-0.288982	1.404092	-0.371077	
67	0.3300	-0.356871	0.940205	-0.055847	-0.332795	0.958813	-0.344709	-0.528595	0.957203	-0.178963	-0.513781	0.972119	-0.273499	-0.374581	0.705492	-0.039309	-0.321535	0.728085	-0.036396	-0.351439	0.664882	-0.050343	-0.300368	0.687392	-0.047229	-0.215823	0.461941	-0.138915	-0.222520	0.476664	-0.242414	-0.310731	0.362047	-0.111025	-0.261199	0.347633	-0.129900	-0.330899	0.319599	-0.115268	-0.282555	0.303897	-0.132146	-0.403474	0.108909	-0.160204	-0.396092	0.110293	-0.256943	-0.291622	0.032640	-0.133496	-0.297592	0.030306	-0.249879	-0.242954	0.046315	-0.207109	-0.492234	0.081653	-0.210712	-0.370040	0.717515	-0.424092	-0.322724	0.725893	-0.410974	-0.376526	0.678743	-0.422975	-0.323845	0.682235	-0.412992	-0.330679	0.447528	-0.394351	-0.318586	0.431011	-0.282057	-0.472028	0.436323	-0.411503	-0.447878	0.390098	-0.404775	-0.521278	0.418776	-0.406829	-0.494179	0.373403	-0.400805	-0.724946	0.304446	-0.357471	-0.693336	0.271652	-0.274173	-0.749290	0.161503	-0.402331	-0.704987	0.129685	-0.301041	-0.679097	0.105512	-0.366495	-0.776399	0.336650	-0.298698	-0.328184	1.411042	-0.036035	-0.274493	1.405748	-0.371121	
68	0.3350	-0.339818	0.940220	-0.054562	-0.315973	0.958971	-0.344455	-0.511661	0.957539	-0.178113	-0.497068	0.971670	-0.272784	-0.360066	0.705454	-0.038795	-0.306696	0.727212	-0.035872	-0.337815	0.664465	-0.049966	-0.286376	0.686127	-0.046821	-0.207071	0.459119	-0.139302	-0.213765	0.474010	-0.242630	-0.304251	0.360931	-0.111311	-0.254888	0.345422	-0.130176	-0.325547	0.318978	-0.115551	-0.277443	0.302110	-0.132557	-0.403751	0.110031	-0.160302	-0.396357	0.111197	-0.257113	-0.293219	0.032491	-0.133118	-0.299085	0.029863	-0.249738	-0.244424	0.045441	-0.206939	-0.493177	0.083648	-0.210873	-0.348678	0.718520	-0.423608	-0.301413	0.727839	-0.410378	-0.354364	0.679574	-0.422617	-0.301659	0.684179	-0.412706	-0.304144	0.449630	-0.394577	-0.291532	0.432977	-0.282329	-0.444683	0.437107	-0.411519	-0.420178	0.391072	-0.405042	-0.493763	0.419215	-0.406948	-0.466318	0.374028	-0.401102	-0.696236	0.303093	-0.357727	-0.664095	0.270267	-0.274579	-0.717198	0.161117	-0.404435	-0.672603	0.129028	-0.303404	-0.646044	0.106364	-0.369101	-0.748683	0.333516	-0.298494	-0.310357	1.411866	-0.034749	-0.260727	1.407465	-0.371189	
69	0.3400	-0.323588	0.940435	-0.053380	-0.300048	0.959189	-0.344286	-0.495575	0.957981	-0.177291	-0.481219	0.971318	-0.272088	-0.346374	0.705633	-0.038281	-0.292718	0.726599	-0.035395	-0.324997	0.664290	-0.049564	-0.273230	0.685150	-0.046435	-0.199087	0.456569	-0.139570	-0.205751	0.471576	-0.242773	-0.298396	0.359926	-0.111490	-0.249189	0.343412	-0.130351	-0.320749	0.318450	-0.115732	-0.272872	0.300500	-0.132867	-0.404208	0.111156	-0.160316	-0.396789	0.112163	-0.257194	-0.294897	0.032445	-0.132707	-0.300649	0.029587	-0.249541	-0.246002	0.044791	-0.206700	-0.494216	0.085575	-0.210972	-0.328409	0.719631	-0.423125	-0.281180	0.729844	-0.409794	-0.333325	0.680529	-0.422251	-0.280587	0.686196	-0.412418	-0.278898	0.451838	-0.394720	-0.265802	0.435100	-0.282519	-0.418643	0.437902	-0.411472	-0.393749	0.392073	-0.405249	-0.467539	0.419612	-0.407004	-0.439713	0.374629	-0.401343	-0.668716	0.301478	-0.357960	-0.636020	0.268625	-0.274968	-0.686262	0.160426	-0.406500	-0.641340	0.128074	-0.305735	-0.614135	0.106974	-0.371671	-0.722153	0.330101	-0.298266	-0.293411	1.412804	-0.033572	-0.247747	1.409222	-0.371269	
70	0.3450	-0.308274	0.940828	-0.052303	-0.285096	0.959464	-0.344191	-0.480424	0.958519	-0.176504	-0.466312	0.971066	-0.271416	-0.333570	0.705995	-0.037774	-0.279665	0.726217	-0.034963	-0.313042	0.664325	-0.049145	-0.260983	0.684432	-0.046070	-0.191868	0.454282	-0.139727	-0.198483	0.469358	-0.242846	-0.293144	0.359017	-0.111569	-0.244082	0.341594	-0.130435	-0.316475	0.317996	-0.115821	-0.268812	0.299057	-0.133084	-0.404770	0.112259	-0.160259	-0.397316	0.113162	-0.257201	-0.296578	0.032482	-0.132282	-0.302210	0.029454	-0.249306	-0.247608	0.044338	-0.206414	-0.495278	0.087411	-0.211017	-0.309345	0.720826	-0.422651	-0.262141	0.731878	-0.409227	-0.313528	0.681587	-0.421882	-0.260752	0.688254	-0.412130	-0.255096	0.454113	-0.394790	-0.241555	0.437335	-0.282633	-0.394074	0.438702	-0.411372	-0.368767	0.393091	-0.405401	-0.442775	0.419975	-0.407005	-0.414545	0.375209	-0.401530	-0.642587	0.299667	-0.358172	-0.609326	0.266791	-0.275339	-0.656746	0.159486	-0.408500	-0.611472	0.126882	-0.308002	-0.583653	0.107364	-0.374169	-0.696995	0.326501	-0.298025	-0.277447	1.413832	-0.032506	-0.235608	1.410995	-0.371356	
71	0.3500	-0.293956	0.941374	-0.051331	-0.271184	0.959791	-0.344158	-0.466280	0.959135	-0.175758	-0.452416	0.970911	-0.270772	-0.321707	0.706508	-0.037277	-0.267585	0.726033	-0.034572	-0.301993	0.664535	-0.048715	-0.249677	0.683941	-0.045727	-0.185405	0.452244	-0.139787	-0.191956	0.467349	-0.242859	-0.288469	0.358191	-0.111563	-0.239540	0.339961	-0.130442	-0.312691	0.317601	-0.115830	-0.265228	0.297771	-0.133222	-0.405376	0.113316	-0.160144	-0.397883	0.114167	-0.257147	-0.298197	0.032583	-0.131860	-0.303712	0.029440	-0.249049	-0.249178	0.044055	-0.206101	-0.496304	0.089135	-0.211016	-0.291584	0.722082	-0.422192	-0.244394	0.733913	-0.408682	-0.295077	0.682724	-0.421515	-0.242258	0.690322	-0.411848	-0.232872	0.456414	-0.394796	-0.218927	0.439637	-0.282682	-0.371120	0.439500	-0.411228	-0.345387	0.394116	-0.405504	-0.419621	0.420311	-0.406960	-0.390974	0.375768	-0.401671	-0.618030	0.297724	-0.358365	-0.584205	0.264829	-0.275690	-0.628890	0.158354	-0.410412	-0.583248	0.125511	-0.310177	-0.554852	0.107559	-0.376565	-0.673376	0.322812	-0.297778	-0.262552	1.414923	-0.031553	-0.224358	1.412758	-0.371442	
72	0.3550	-0.280704	0.942042	-0.050464	-0.258364	0.960161	-0.344176	-0.453207	0.959814	-0.175057	-0.439587	0.970847	-0.270160	-0.310826	0.707136	-0.036797	-0.256518	0.726015	-0.034220	-0.291882	0.664887	-0.048282	-0.239342	0.683644	-0.045406	-0.179678	0.450441	-0.139763	-0.186157	0.465541	-0.242821	-0.284343	0.357438	-0.111483	-0.235537	0.338504	-0.130384	-0.309365	0.317253	-0.115771	-0.262090	0.296633	-0.133290	-0.405977	0.114312	-0.159985	-0.398444	0.115155	-0.257044	-0.299707	0.032730	-0.131453	-0.305110	0.029523	-0.248782	-0.250661	0.043916	-0.205779	-0.497252	0.090732	-0.210978	-0.275205	0.723371	-0.421752	-0.228019	0.735915	-0.408165	-0.278056	0.683911	-0.421158	-0.225190	0.692366	-0.411574	-0.212337	0.458702	-0.394749	-0.198030	0.441958	-0.282674	-0.349898	0.440288	-0.411051	-0.323735	0.395132	-0.405565	-0.398199	0.420623	-0.406878	-0.369131	0.376306	-0.401771	-0.595200	0.295711	-0.358538	-0.560822	0.262800	-0.276021	-0.602895	0.157089	-0.412214	-0.556881	0.124020	-0.312235	-0.527952	0.107588	-0.378830	-0.651434	0.319121	-0.297533	-0.248797	1.416050	-0.030712	-0.214033	1.414485	-0.371522	
73	0.3600	-0.268571	0.942801	-0.049700	-0.246676	0.960564	-0.344232	-0.441252	0.960533	-0.174406	-0.427868	0.970866	-0.269584	-0.300953	0.707844	-0.036339	-0.246485	0.726130	-0.033905	-0.282729	0.665345	-0.047854	-0.229995	0.683509	-0.045106	-0.174659	0.448858	-0.139670	-0.181061	0.463927	-0.242740	-0.280737	0.356752	-0.111343	-0.232042	0.337215	-0.130275	-0.306464	0.316942	-0.115658	-0.259363	0.295632	-0.133301	-0.406539	0.115232	-0.159795	-0.398967	0.116106	-0.256905	-0.301073	0.032907	-0.131072	-0.306374	0.029679	-0.248518	-0.252020	0.043891	-0.205460	-0.498093	0.092194	-0.210910	-0.260265	0.724666	-0.421336	-0.213075	0.737857	-0.407681	-0.262524	0.685120	-0.420815	-0.209610	0.694355	-0.411312	-0.193571	0.460936	-0.394660	-0.178945	0.444254	-0.282622	-0.330496	0.441056	-0.410851	-0.303910	0.396125	-0.405590	-0.378602	0.420914	-0.406767	-0.349118	0.376821	-0.401836	-0.574216	0.293686	-0.358693	-0.539307	0.260762	-0.276328	-0.578927	0.155745	-0.413889	-0.532546	0.122464	-0.314155	-0.503130	0.107480	-0.380940	-0.631281	0.315509	-0.297297	-0.236234	1.417188	-0.029980	-0.204655	1.416153	-0.371593	
74	0.3650	-0.257590	0.943618	-0.049034	-0.236141	0.960989	-0.344317	-0.430443	0.961274	-0.173808	-0.417283	0.970956	-0.269047	-0.292098	0.708600	-0.035908	-0.237495	0.726347	-0.033623	-0.274537	0.665875	-0.047438	-0.221636	0.683501	-0.044829	-0.170314	0.447480	-0.139523	-0.176638	0.462498	-0.242626	-0.277615	0.356127	-0.111158	-0.229022	0.336085	-0.130126	-0.303957	0.316661	-0.115505	-0.257016	0.294760	-0.133267	-0.407037	0.116067	-0.159585	-0.399429	0.117002	-0.256742	-0.302274	0.033100	-0.130725	-0.307486	0.029888	-0.248265	-0.253232	0.043956	-0.205157	-0.498811	0.093512	-0.210820	-0.246797	0.725941	-0.420950	-0.199598	0.739709	-0.407234	-0.248520	0.686324	-0.420491	-0.195556	0.696257	-0.411066	-0.176626	0.463080	-0.394540	-0.161723	0.446479	-0.282535	-0.312970	0.441794	-0.410638	-0.285975	0.397081	-0.405586	-0.360887	0.421186	-0.406636	-0.331003	0.377308	-0.401871	-0.555166	0.291700	-0.358831	-0.519756	0.258766	-0.276612	-0.557106	0.154370	-0.415424	-0.510371	0.120894	-0.315920	-0.480516	0.107265	-0.382876	-0.612994	0.312047	-0.297074	-0.224895	1.418309	-0.029352	-0.196234	1.417738	-0.371653	
75	0.3700	-0.247778	0.944462	-0.048463	-0.226762	0.961423	-0.344421	-0.420794	0.962016	-0.173266	-0.407842	0.971103	-0.268554	-0.284256	0.709371	-0.035508	-0.229539	0.726634	-0.033373	-0.267298	0.666447	-0.047041	-0.214254	0.683590	-0.044575	-0.166600	0.446292	-0.139337	-0.172849	0.461245	-0.242489	-0.274943	0.355562	-0.110942	-0.226443	0.335103	-0.129951	-0.301811	0.316405	-0.115323	-0.255016	0.294007	-0.133199	-0.407459	0.116811	-0.159366	-0.399819	0.117831	-0.256564	-0.303303	0.033298	-0.130415	-0.308436	0.030128	-0.248031	-0.254284	0.044086	-0.204877	-0.499399	0.094684	-0.210715	-0.234811	0.727170	-0.420597	-0.187598	0.741446	-0.406826	-0.236053	0.687495	-0.420190	-0.183039	0.698047	-0.410838	-0.161521	0.465101	-0.394398	-0.146381	0.448595	-0.282423	-0.297342	0.442492	-0.410419	-0.269962	0.397986	-0.405559	-0.345082	0.421437	-0.406492	-0.314819	0.377764	-0.401883	-0.538098	0.289798	-0.358953	-0.502223	0.256857	-0.276869	-0.537508	0.153012	-0.416808	-0.490438	0.119358	-0.317518	-0.460196	0.106973	-0.384627	-0.596616	0.308793	-0.296870	-0.214792	1.419390	-0.028821	-0.188765	1.419220	-0.371700	
76	0.3750	-0.239130	0.945304	-0.047978	-0.218526	0.961855	-0.344535	-0.412296	0.962740	-0.172781	-0.399535	0.971292	-0.268106	-0.277405	0.710132	-0.035143	-0.222594	0.726965	-0.033152	-0.260987	0.667033	-0.046670	-0.207823	0.683748	-0.044344	-0.163470	0.445279	-0.139126	-0.169648	0.460158	-0.242338	-0.272685	0.355053	-0.110708	-0.224266	0.334260	-0.129760	-0.299994	0.316174	-0.115124	-0.253331	0.293363	-0.133107	-0.407797	0.117463	-0.159147	-0.400131	0.118582	-0.256382	-0.304158	0.033491	-0.130147	-0.309228	0.030385	-0.247820	-0.255173	0.044259	-0.204626	-0.499860	0.095711	-0.210602	-0.224290	0.728331	-0.420278	-0.177059	0.743048	-0.406461	-0.225107	0.688610	-0.419916	-0.172047	0.699701	-0.410630	-0.148244	0.466971	-0.394244	-0.132904	0.450568	-0.282295	-0.283601	0.443140	-0.410204	-0.255863	0.398828	-0.405516	-0.331178	0.421669	-0.406343	-0.300564	0.378187	-0.401877	-0.523023	0.288018	-0.359059	-0.486724	0.255072	-0.277100	-0.520161	0.151707	-0.418038	-0.472782	0.117894	-0.318942	-0.442201	0.106631	-0.386183	-0.582153	0.305796	-0.296686	-0.205916	1.420411	-0.028381	-0.182231	1.420583	-0.371736	
77	0.3800	-0.231622	0.946119	-0.047575	-0.211400	0.962272	-0.344652	-0.404924	0.963428	-0.172354	-0.392333	0.971510	-0.267706	-0.271511	0.710858	-0.034815	-0.216621	0.727316	-0.032960	-0.255566	0.667608	-0.046329	-0.202302	0.683948	-0.044137	-0.160871	0.444425	-0.138905	-0.166986	0.459228	-0.242181	-0.270801	0.354599	-0.110468	-0.222455	0.333545	-0.129565	-0.298474	0.315964	-0.114920	-0.251930	0.292820	-0.133001	-0.408055	0.118023	-0.158936	-0.400367	0.119251	-0.256204	-0.304848	0.033672	-0.129919	-0.309867	0.030643	-0.247634	-0.255903	0.044456	-0.204407	-0.500203	0.096597	-0.210487	-0.215194	0.729404	-0.419996	-0.167944	0.744498	-0.406138	-0.215641	0.689648	-0.419669	-0.162537	0.701201	-0.410444	-0.136749	0.468670	-0.394087	-0.121243	0.452371	-0.282161	-0.271701	0.443732	-0.409997	-0.243639	0.399597	-0.405461	-0.319130	0.421879	-0.406195	-0.288198	0.378571	-0.401858	-0.509912	0.286388	-0.359149	-0.473234	0.253440	-0.277303	-0.505046	0.150487	-0.419111	-0.457387	0.116535	-0.320188	-0.426516	0.106263	-0.387542	-0.569577	0.303091	-0.296523	-0.198233	1.421354	-0.028022	-0.176599	1.421814	-0.371759	
78	0.3850	-0.225211	0.946883	-0.047244	-0.205334	0.962665	-0.344767	-0.398633	0.964066	-0.171984	-0.386191	0.971742	-0.267354	-0.266521	0.711531	-0.034525	-0.211567	0.727665	-0.032795	-0.250985	0.668152	-0.046022	-0.197639	0.684171	-0.043955	-0.158750	0.443715	-0.138683	-0.164808	0.458442	-0.242026	-0.269254	0.354200	-0.110233	-0.220972	0.332947	-0.129375	-0.297221	0.315776	-0.114720	-0.250780	0.292368	-0.132888	-0.408238	0.118495	-0.158739	-0.400533	0.119833	-0.256035	-0.305388	0.033837	-0.129731	-0.310368	0.030890	-0.247474	-0.256487	0.044661	-0.204222	-0.500441	0.097348	-0.210375	-0.207460	0.730375	-0.419751	-0.160190	0.745785	-0.405858	-0.207591	0.690593	-0.419452	-0.154446	0.702535	-0.410281	-0.126961	0.470181	-0.393933	-0.111321	0.453985	-0.282028	-0.261567	0.444262	-0.409806	-0.233217	0.400285	-0.405402	-0.308866	0.422067	-0.406053	-0.277651	0.378915	-0.401831	-0.498700	0.284930	-0.359226	-0.461691	0.251981	-0.277480	-0.492100	0.149377	-0.420031	-0.444193	0.115304	-0.321259	-0.413077	0.105892	-0.388708	-0.558823	0.300699	-0.296383	-0.191695	1.422207	-0.027735	-0.171822	1.422904	-0.371772	
79	0.3900	-0.219837	0.947580	-0.046978	-0.200265	0.963025	-0.344873	-0.393361	0.964643	-0.171669	-0.381047	0.971975	-0.267051	-0.262373	0.712137	-0.034274	-0.207368	0.727998	-0.032655	-0.247184	0.668650	-0.045751	-0.193770	0.684397	-0.043797	-0.157050	0.443132	-0.138471	-0.163061	0.457789	-0.241878	-0.268005	0.353855	-0.110012	-0.219776	0.332456	-0.129195	-0.296204	0.315609	-0.114531	-0.249851	0.291997	-0.132777	-0.408356	0.118885	-0.158561	-0.400640	0.120330	-0.255880	-0.305795	0.033981	-0.129579	-0.310747	0.031119	-0.247342	-0.256939	0.044861	-0.204068	-0.500591	0.097973	-0.210269	-0.201002	0.731234	-0.419541	-0.153714	0.746904	-0.405621	-0.200868	0.691432	-0.419265	-0.147687	0.703696	-0.410140	-0.118780	0.471497	-0.393789	-0.103033	0.455397	-0.281901	-0.253095	0.444727	-0.409633	-0.224495	0.400888	-0.405341	-0.300280	0.422233	-0.405922	-0.268820	0.379216	-0.401799	-0.489290	0.283656	-0.359290	-0.451997	0.250708	-0.277630	-0.481219	0.148392	-0.420804	-0.433098	0.114218	-0.322162	-0.401780	0.105536	-0.389688	-0.549797	0.298630	-0.296266	-0.186232	1.422959	-0.027511	-0.167843	1.423850	-0.371777	
80	0.3950	-0.215422	0.948197	-0.046769	-0.196113	0.963347	-0.344969	-0.389032	0.965150	-0.171406	-0.376825	0.972199	-0.266794	-0.258995	0.712668	-0.034063	-0.203949	0.728300	-0.032537	-0.244094	0.669092	-0.045519	-0.190626	0.684613	-0.043663	-0.155715	0.442664	-0.138277	-0.161687	0.457256	-0.241743	-0.267015	0.353561	-0.109811	-0.218832	0.332059	-0.129032	-0.295393	0.315465	-0.114359	-0.249116	0.291699	-0.132672	-0.408421	0.119199	-0.158405	-0.400698	0.120744	-0.255743	-0.306090	0.034103	-0.129461	-0.311022	0.031322	-0.247234	-0.257276	0.045046	-0.203945	-0.500673	0.098483	-0.210174	-0.195721	0.731975	-0.419367	-0.148414	0.747855	-0.405423	-0.195368	0.692159	-0.419108	-0.142156	0.704684	-0.410022	-0.112081	0.472617	-0.393658	-0.096251	0.456603	-0.281784	-0.246157	0.445125	-0.409481	-0.217344	0.401405	-0.405282	-0.293246	0.422376	-0.405804	-0.261577	0.379475	-0.401766	-0.481554	0.282570	-0.359342	-0.444023	0.249623	-0.277755	-0.472264	0.147543	-0.421439	-0.423961	0.113284	-0.322905	-0.392481	0.105207	-0.390493	-0.542376	0.296883	-0.296169	-0.181760	1.423606	-0.027341	-0.164596	1.424652	-0.371775	
81	0.4000	-0.211879	0.948726	-0.046609	-0.192790	0.963625	-0.345051	-0.385559	0.965584	-0.171193	-0.373440	0.972403	-0.266583	-0.256306	0.713118	-0.033888	-0.201228	0.728566	-0.032441	-0.241637	0.669470	-0.045325	-0.188128	0.684808	-0.043552	-0.154691	0.442294	-0.138104	-0.160632	0.456830	-0.241624	-0.266247	0.353317	-0.109634	-0.218102	0.331746	-0.128890	-0.294759	0.315341	-0.114208	-0.248544	0.291463	-0.132577	-0.408447	0.119446	-0.158272	-0.400719	0.121080	-0.255625	-0.306293	0.034204	-0.129371	-0.311213	0.031496	-0.247149	-0.257519	0.045210	-0.203850	-0.500702	0.098889	-0.210090	-0.191499	0.732597	-0.419225	-0.144177	0.748642	-0.405263	-0.190972	0.692772	-0.418979	-0.137733	0.705504	-0.409925	-0.106721	0.473545	-0.393544	-0.090827	0.457607	-0.281682	-0.240604	0.445457	-0.409352	-0.211616	0.401836	-0.405229	-0.287614	0.422496	-0.405702	-0.255774	0.379691	-0.401733	-0.475341	0.281668	-0.359383	-0.437616	0.248724	-0.277857	-0.465065	0.146831	-0.421948	-0.416613	0.112504	-0.323503	-0.385003	0.104916	-0.391139	-0.536416	0.295446	-0.296092	-0.178183	1.424149	-0.027214	-0.162006	1.425315	-0.371769	
