PathFileType	4	(X/Y/Z)	 P12 pr2 07.trc
DataRate	CameraRate	NumFrames	NumMarkers	Units	OrigDataRate	OrigDataStartFrame	OrigNumFrames
200	200	85	38	m	200	1	85
Frame#	Time	RASIS			LASIS			RPSIS			LPSIS			RThighRear1			RThighFront1			RThighRear2			RThighFront2			RKneeLat			RKneeMed			RShankRear1			RShankFront1			RShankRear2			RShankFront2			RAnkleLat			RAnkleMed			RM5			RM1			RMid			RHeel			LThighRear1			LThighFront1			LThighRear2			LThighFront2			LKneeLat			LKneeMed			LShankRear1			LShankFront1			LShankRear2			LShankFront2			LAnkleLat			LAnkleMed			LM5			LM1			LMid			LHeel			RShoulder			LShoulder			
		X1	Y1	Z1	X2	Y2	Z2	X3	Y3	Z3	X4	Y4	Z4	X5	Y5	Z5	X6	Y6	Z6	X7	Y7	Z7	X8	Y8	Z8	X9	Y9	Z9	X10	Y10	Z10	X11	Y11	Z11	X12	Y12	Z12	X13	Y13	Z13	X14	Y14	Z14	X15	Y15	Z15	X16	Y16	Z16	X17	Y17	Z17	X18	Y18	Z18	X19	Y19	Z19	X20	Y20	Z20	X21	Y21	Z21	X22	Y22	Z22	X23	Y23	Z23	X24	Y24	Z24	X25	Y25	Z25	X26	Y26	Z26	X27	Y27	Z27	X28	Y28	Z28	X29	Y29	Z29	X30	Y30	Z30	X31	Y31	Z31	X32	Y32	Z32	X33	Y33	Z33	X34	Y34	Z34	X35	Y35	Z35	X36	Y36	Z36	X37	Y37	Z37	X38	Y38	Z38	
1	0.0000	-1.590536	0.950351	-0.155740	-1.616091	0.946675	-0.436018	-1.776490	0.985422	-0.251769	-1.780574	0.980605	-0.347192	-1.710990	0.720336	-0.100005	-1.658698	0.717396	-0.111248	-1.713712	0.671502	-0.106320	-1.662129	0.668742	-0.116007	-1.755638	0.413522	-0.161156	-1.749676	0.409114	-0.279801	-1.897195	0.452053	-0.137727	-1.885926	0.398126	-0.149819	-1.945224	0.449403	-0.142697	-1.936195	0.396839	-0.149542	-2.173542	0.410999	-0.176271	-2.159744	0.392798	-0.270849	-2.247344	0.271156	-0.147444	-2.227121	0.264672	-0.259483	-2.210119	0.222904	-0.204369	-2.213097	0.473046	-0.237867	-1.606656	0.718353	-0.491917	-1.559386	0.745741	-0.485326	-1.594109	0.679113	-0.482225	-1.541587	0.706981	-0.481845	-1.420193	0.518768	-0.436288	-1.413164	0.522327	-0.326339	-1.486374	0.392608	-0.449755	-1.435211	0.391493	-0.443225	-1.493608	0.339679	-0.446758	-1.441476	0.342285	-0.438925	-1.485869	0.102146	-0.398567	-1.446685	0.115833	-0.312194	-1.365811	0.046732	-0.446430	-1.323988	0.064862	-0.341979	-1.291599	0.094617	-0.406221	-1.542576	0.070522	-0.344007	-1.429508	1.365531	-0.190037	-1.507850	1.366046	-0.511957	
2	0.0050	-1.576073	0.947506	-0.155628	-1.602318	0.945059	-0.436512	-1.762693	0.981739	-0.251283	-1.766925	0.977929	-0.346806	-1.691912	0.717319	-0.100320	-1.639652	0.715368	-0.111580	-1.693690	0.668635	-0.106427	-1.642031	0.666831	-0.116025	-1.729813	0.410980	-0.161199	-1.723591	0.406759	-0.279890	-1.870288	0.450679	-0.137502	-1.859502	0.396541	-0.149436	-1.918330	0.448428	-0.142318	-1.909680	0.395667	-0.149160	-2.146902	0.411280	-0.175157	-2.133562	0.393420	-0.269715	-2.218251	0.271007	-0.146256	-2.199324	0.264892	-0.258264	-2.180978	0.223358	-0.203458	-2.188043	0.473371	-0.236244	-1.593478	0.716488	-0.491823	-1.546182	0.743854	-0.485549	-1.580980	0.677324	-0.482098	-1.528506	0.705050	-0.481917	-1.408009	0.516467	-0.435884	-1.400592	0.520205	-0.326296	-1.476108	0.391936	-0.449056	-1.425025	0.389505	-0.442799	-1.484708	0.339411	-0.446264	-1.432582	0.340542	-0.438490	-1.483719	0.102863	-0.397736	-1.444612	0.115276	-0.311179	-1.365275	0.045870	-0.446692	-1.323198	0.062395	-0.341558	-1.290512	0.091448	-0.405591	-1.541417	0.071199	-0.343474	-1.415697	1.363273	-0.189971	-1.492637	1.362483	-0.513057	
3	0.0100	-1.561401	0.944605	-0.155537	-1.588389	0.943433	-0.437043	-1.748695	0.978041	-0.250778	-1.753086	0.975245	-0.346394	-1.672545	0.714284	-0.100641	-1.620313	0.713336	-0.111922	-1.673353	0.665753	-0.106536	-1.621616	0.664923	-0.116053	-1.703530	0.408446	-0.161281	-1.697092	0.404440	-0.280011	-1.842931	0.449299	-0.137288	-1.832632	0.394949	-0.149077	-1.890995	0.447446	-0.141939	-1.882726	0.394482	-0.148793	-2.119856	0.411514	-0.174020	-2.106991	0.394004	-0.268562	-2.188671	0.270784	-0.145054	-2.171075	0.265040	-0.257030	-2.151344	0.223754	-0.202550	-2.162643	0.473630	-0.234580	-1.580167	0.714580	-0.491727	-1.532839	0.741902	-0.485784	-1.567727	0.675482	-0.481962	-1.515293	0.703047	-0.481997	-1.395711	0.514036	-0.435480	-1.387893	0.517952	-0.326252	-1.465752	0.391151	-0.448360	-1.414760	0.387399	-0.442362	-1.475731	0.339043	-0.445763	-1.423621	0.338696	-0.438036	-1.481567	0.103563	-0.396887	-1.442535	0.114694	-0.310143	-1.364731	0.045030	-0.446954	-1.322405	0.059958	-0.341142	-1.289416	0.088290	-0.404965	-1.540264	0.071853	-0.342921	-1.401714	1.361025	-0.189892	-1.477206	1.358903	-0.514160	
4	0.0150	-1.546525	0.941664	-0.155477	-1.574317	0.941807	-0.437620	-1.734500	0.974355	-0.250252	-1.739061	0.972578	-0.345954	-1.652900	0.711264	-0.100965	-1.600693	0.711335	-0.112275	-1.652706	0.662893	-0.106650	-1.600893	0.663056	-0.116095	-1.676779	0.405974	-0.161414	-1.670188	0.402220	-0.280174	-1.815131	0.447933	-0.137091	-1.805313	0.393376	-0.148754	-1.863227	0.446468	-0.141565	-1.855330	0.393298	-0.148452	-2.092413	0.411664	-0.172866	-2.080039	0.394511	-0.267397	-2.158591	0.270451	-0.143842	-2.142353	0.265071	-0.255788	-2.121193	0.224059	-0.201653	-2.136910	0.473765	-0.232881	-1.566752	0.712630	-0.491629	-1.519385	0.739877	-0.486035	-1.554383	0.673587	-0.481817	-1.501979	0.700963	-0.482088	-1.383360	0.511450	-0.435078	-1.375125	0.515539	-0.326207	-1.455360	0.390225	-0.447675	-1.404473	0.385154	-0.441915	-1.466724	0.338548	-0.445255	-1.414643	0.336728	-0.437561	-1.479432	0.104235	-0.396022	-1.440470	0.114087	-0.309088	-1.364186	0.044222	-0.447214	-1.321619	0.057576	-0.340737	-1.288319	0.085172	-0.404350	-1.539130	0.072475	-0.342348	-1.387587	1.358824	-0.189793	-1.461567	1.355337	-0.515254	
5	0.0200	-1.531446	0.938701	-0.155456	-1.560106	0.940193	-0.438252	-1.720103	0.970709	-0.249709	-1.724844	0.969947	-0.345487	-1.632979	0.708294	-0.101294	-1.580795	0.709401	-0.112643	-1.631748	0.660093	-0.106770	-1.579861	0.661271	-0.116158	-1.649542	0.403624	-0.161610	-1.642876	0.400160	-0.280391	-1.786882	0.446608	-0.136918	-1.777530	0.391850	-0.148480	-1.835023	0.445507	-0.141202	-1.827481	0.392132	-0.148146	-2.064567	0.411690	-0.171699	-2.052697	0.394899	-0.266227	-2.127979	0.269968	-0.142623	-2.113122	0.264941	-0.254540	-2.090487	0.224243	-0.200771	-2.110846	0.473714	-0.231154	-1.553255	0.710643	-0.491530	-1.505841	0.737775	-0.486301	-1.540977	0.671641	-0.481664	-1.488592	0.698790	-0.482189	-1.371010	0.508683	-0.434682	-1.362341	0.512939	-0.326161	-1.444983	0.389130	-0.447007	-1.394217	0.382749	-0.441457	-1.457732	0.337901	-0.444743	-1.405698	0.334622	-0.437063	-1.477333	0.104873	-0.395142	-1.438436	0.113452	-0.308015	-1.363644	0.043454	-0.447470	-1.320846	0.055275	-0.340348	-1.287229	0.082123	-0.403754	-1.538032	0.073061	-0.341753	-1.373336	1.356705	-0.189664	-1.445722	1.351821	-0.516323	
6	0.0250	-1.516155	0.935736	-0.155482	-1.545754	0.938603	-0.438947	-1.705495	0.967130	-0.249151	-1.710426	0.967373	-0.344995	-1.612776	0.705411	-0.101628	-1.560614	0.707571	-0.113026	-1.610470	0.657393	-0.106897	-1.558517	0.659612	-0.116244	-1.621792	0.401460	-0.161880	-1.615144	0.398329	-0.280669	-1.758174	0.445348	-0.136778	-1.749259	0.390401	-0.148265	-1.806372	0.444579	-0.140856	-1.799154	0.391001	-0.147882	-2.036301	0.411549	-0.170526	-2.024946	0.395125	-0.265060	-2.096792	0.269300	-0.141402	-2.083334	0.264607	-0.253291	-2.059179	0.224274	-0.199910	-2.084441	0.473411	-0.229407	-1.539692	0.708623	-0.491432	-1.492218	0.735589	-0.486585	-1.527532	0.669645	-0.481503	-1.475151	0.696522	-0.482303	-1.358717	0.505714	-0.434294	-1.349594	0.510127	-0.326115	-1.434671	0.387842	-0.446361	-1.384045	0.380167	-0.440988	-1.448798	0.337080	-0.444226	-1.396831	0.332363	-0.436541	-1.475289	0.105470	-0.394250	-1.436447	0.112792	-0.306930	-1.363112	0.042733	-0.447722	-1.320094	0.053074	-0.339982	-1.286154	0.079168	-0.403183	-1.536982	0.073604	-0.341133	-1.358977	1.354708	-0.189499	-1.429665	1.348392	-0.517354	
7	0.0300	-1.500642	0.932792	-0.155565	-1.531250	0.937047	-0.439712	-1.690661	0.963645	-0.248584	-1.695790	0.964879	-0.344480	-1.592283	0.702654	-0.101966	-1.540146	0.705887	-0.113427	-1.588859	0.654835	-0.107032	-1.536850	0.658122	-0.116359	-1.593500	0.399546	-0.162233	-1.586976	0.396791	-0.281018	-1.728993	0.444181	-0.136677	-1.720474	0.389064	-0.148120	-1.777260	0.443698	-0.140531	-1.770325	0.389923	-0.147671	-2.007593	0.411199	-0.169356	-1.996759	0.395145	-0.263903	-2.064982	0.268409	-0.140181	-2.052932	0.264023	-0.252044	-2.027211	0.224121	-0.199074	-2.057678	0.472790	-0.227649	-1.526072	0.706577	-0.491336	-1.478526	0.733317	-0.486886	-1.514064	0.667604	-0.481336	-1.461671	0.694154	-0.482429	-1.346530	0.502526	-0.433916	-1.336936	0.507079	-0.326068	-1.424470	0.386342	-0.445742	-1.374008	0.377394	-0.440509	-1.439965	0.336068	-0.443707	-1.388088	0.329941	-0.435995	-1.473318	0.106022	-0.393348	-1.434520	0.112106	-0.305834	-1.362595	0.042063	-0.447968	-1.319372	0.050995	-0.339644	-1.285100	0.076334	-0.402643	-1.535996	0.074103	-0.340488	-1.344521	1.352870	-0.189287	-1.413388	1.345086	-0.518329	
8	0.0350	-1.484894	0.929894	-0.155710	-1.516579	0.935536	-0.440554	-1.675585	0.960280	-0.248012	-1.680919	0.962483	-0.343948	-1.571489	0.700060	-0.102309	-1.519383	0.704389	-0.113848	-1.566903	0.652461	-0.107177	-1.514852	0.656849	-0.116507	-1.564639	0.397951	-0.162677	-1.558355	0.395615	-0.281443	-1.699327	0.443136	-0.136623	-1.691148	0.387869	-0.148052	-1.747674	0.442879	-0.140234	-1.740966	0.388919	-0.147519	-1.978420	0.410598	-0.168197	-1.968107	0.394915	-0.262766	-2.032500	0.267264	-0.138964	-2.021859	0.263148	-0.250804	-1.994526	0.223759	-0.198266	-2.030534	0.471784	-0.225893	-1.512400	0.704511	-0.491244	-1.464767	0.730956	-0.487204	-1.500585	0.665522	-0.481164	-1.448162	0.691682	-0.482569	-1.334500	0.499104	-0.433549	-1.324415	0.503778	-0.326022	-1.414426	0.384617	-0.445155	-1.364153	0.374420	-0.440022	-1.431272	0.334851	-0.443186	-1.379511	0.327350	-0.435423	-1.471437	0.106524	-0.392439	-1.432668	0.111399	-0.304734	-1.362100	0.041447	-0.448208	-1.318685	0.049051	-0.339336	-1.284076	0.073641	-0.402140	-1.535084	0.074556	-0.339819	-1.329978	1.351230	-0.189020	-1.396879	1.341939	-0.519234	
9	0.0400	-1.468895	0.927071	-0.155922	-1.501722	0.934082	-0.441475	-1.660248	0.957061	-0.247444	-1.665792	0.960205	-0.343406	-1.550387	0.697668	-0.102656	-1.498318	0.703118	-0.114289	-1.544590	0.650315	-0.107334	-1.492516	0.655837	-0.116691	-1.535190	0.396740	-0.163216	-1.529269	0.394863	-0.281949	-1.669167	0.442241	-0.136620	-1.661260	0.386852	-0.148069	-1.717605	0.442138	-0.139969	-1.711055	0.388009	-0.147432	-1.948757	0.409705	-0.167058	-1.938960	0.394391	-0.261658	-1.999296	0.265836	-0.137756	-1.990056	0.261946	-0.249575	-1.961072	0.223164	-0.197488	-2.002986	0.470328	-0.224153	-1.498676	0.702435	-0.491156	-1.450940	0.728510	-0.487538	-1.487102	0.663410	-0.480991	-1.434631	0.689108	-0.482720	-1.322673	0.495444	-0.433196	-1.312080	0.500215	-0.325974	-1.404582	0.382661	-0.444603	-1.354524	0.371245	-0.439526	-1.422758	0.333425	-0.442666	-1.371141	0.324590	-0.434828	-1.469661	0.106978	-0.391528	-1.430904	0.110675	-0.303633	-1.361633	0.040886	-0.448439	-1.318042	0.047256	-0.339064	-1.283087	0.071110	-0.401678	-1.534259	0.074968	-0.339125	-1.315357	1.349824	-0.188691	-1.380128	1.338990	-0.520053	
10	0.0450	-1.452634	0.924354	-0.156206	-1.486656	0.932696	-0.442477	-1.644635	0.954012	-0.246888	-1.650388	0.958062	-0.342863	-1.528971	0.695517	-0.103007	-1.476951	0.702114	-0.114751	-1.521916	0.648439	-0.107503	-1.469841	0.655132	-0.116915	-1.505142	0.395979	-0.163852	-1.499710	0.394597	-0.282537	-1.638515	0.441524	-0.136675	-1.630796	0.386045	-0.148175	-1.687051	0.441489	-0.139744	-1.680577	0.387213	-0.147415	-1.918584	0.408483	-0.165950	-1.909289	0.393532	-0.260592	-1.965332	0.264099	-0.136560	-1.957472	0.260384	-0.248359	-1.926800	0.222317	-0.196742	-1.975009	0.468362	-0.222445	-1.484898	0.700360	-0.491076	-1.437043	0.725982	-0.487885	-1.473619	0.661277	-0.480818	-1.421080	0.686436	-0.482882	-1.311091	0.491547	-0.432856	-1.299977	0.496386	-0.325926	-1.394978	0.380476	-0.444088	-1.345163	0.367873	-0.439023	-1.414458	0.331793	-0.442147	-1.363014	0.321668	-0.434211	-1.468001	0.107384	-0.390619	-1.429239	0.109941	-0.302539	-1.361201	0.040378	-0.448663	-1.317447	0.045615	-0.338830	-1.282141	0.068756	-0.401262	-1.533528	0.075343	-0.338410	-1.300666	1.348688	-0.188291	-1.363123	1.336274	-0.520770	
11	0.0500	-1.436100	0.921776	-0.156562	-1.471360	0.931389	-0.443558	-1.628732	0.951157	-0.246354	-1.634691	0.956071	-0.342329	-1.507240	0.693644	-0.103361	-1.455283	0.701416	-0.115235	-1.498878	0.646873	-0.107685	-1.446831	0.654777	-0.117179	-1.474496	0.395731	-0.164585	-1.469680	0.394871	-0.283206	-1.607380	0.441011	-0.136792	-1.599751	0.385481	-0.148373	-1.656019	0.440948	-0.139562	-1.649525	0.386551	-0.147473	-1.887885	0.406897	-0.164886	-1.879071	0.392302	-0.259578	-1.930574	0.262037	-0.135381	-1.924061	0.258436	-0.247163	-1.891674	0.221207	-0.196028	-1.946581	0.465827	-0.220788	-1.471060	0.698300	-0.491004	-1.423068	0.723381	-0.488244	-1.460137	0.659137	-0.480649	-1.407511	0.683675	-0.483053	-1.299794	0.487423	-0.432531	-1.288150	0.492297	-0.325877	-1.385651	0.378074	-0.443614	-1.336107	0.364318	-0.438517	-1.406405	0.329965	-0.441633	-1.355163	0.318596	-0.433575	-1.466468	0.107749	-0.389719	-1.427681	0.109207	-0.301460	-1.360810	0.039919	-0.448878	-1.316907	0.044133	-0.338636	-1.281245	0.066589	-0.400894	-1.532898	0.075693	-0.337678	-1.285913	1.347854	-0.187815	-1.345857	1.333826	-0.521369	
12	0.0550	-1.419286	0.919371	-0.156991	-1.455808	0.930170	-0.444714	-1.612526	0.948516	-0.245853	-1.618683	0.954248	-0.341816	-1.485198	0.692085	-0.103718	-1.433323	0.701062	-0.115741	-1.475484	0.645656	-0.107882	-1.423496	0.654812	-0.117485	-1.443270	0.396052	-0.165410	-1.439189	0.395735	-0.283954	-1.575786	0.440728	-0.136973	-1.568136	0.385190	-0.148663	-1.624528	0.440527	-0.139429	-1.617905	0.386043	-0.147605	-1.856652	0.404917	-0.163877	-1.848289	0.390666	-0.258627	-1.895003	0.259637	-0.134224	-1.889789	0.256082	-0.245990	-1.855670	0.219824	-0.195345	-1.917681	0.462674	-0.219200	-1.457156	0.696271	-0.490943	-1.409009	0.720721	-0.488609	-1.446655	0.657010	-0.480489	-1.393923	0.680839	-0.483230	-1.288819	0.483092	-0.432221	-1.276639	0.487963	-0.325827	-1.376634	0.375476	-0.443181	-1.327388	0.360602	-0.438011	-1.398626	0.327959	-0.441124	-1.347615	0.315397	-0.432925	-1.465068	0.108078	-0.388834	-1.426235	0.108484	-0.300404	-1.360467	0.039504	-0.449085	-1.316427	0.042807	-0.338483	-1.280404	0.064618	-0.400576	-1.532371	0.076030	-0.336933	-1.271107	1.347352	-0.187257	-1.328324	1.331679	-0.521837	
13	0.0600	-1.402189	0.917175	-0.157489	-1.439979	0.929052	-0.445937	-1.596011	0.946108	-0.245397	-1.602351	0.952606	-0.341339	-1.462857	0.690873	-0.104078	-1.411088	0.701084	-0.116268	-1.451750	0.644825	-0.108095	-1.399856	0.655272	-0.117833	-1.411494	0.396993	-0.166320	-1.408262	0.397230	-0.284773	-1.543766	0.440696	-0.137222	-1.535971	0.385199	-0.149042	-1.592606	0.440237	-0.139348	-1.585735	0.385706	-0.147812	-1.824885	0.402516	-0.162937	-1.816932	0.388596	-0.257753	-1.858612	0.256893	-0.133095	-1.854635	0.253312	-0.244846	-1.818778	0.218169	-0.194694	-1.888297	0.458858	-0.217704	-1.443176	0.694290	-0.490895	-1.394858	0.718019	-0.488976	-1.433167	0.654914	-0.480340	-1.380313	0.677947	-0.483411	-1.278196	0.478583	-0.431926	-1.265481	0.483411	-0.325776	-1.367954	0.372710	-0.442790	-1.319034	0.356754	-0.437507	-1.391146	0.325805	-0.440626	-1.340396	0.312100	-0.432267	-1.463803	0.108385	-0.387975	-1.424904	0.107786	-0.299383	-1.360177	0.039125	-0.449282	-1.316010	0.041633	-0.338372	-1.279624	0.062844	-0.400310	-1.531946	0.076372	-0.336183	-1.256257	1.347208	-0.186614	-1.310523	1.329864	-0.522160	
14	0.0650	-1.384811	0.915223	-0.158052	-1.423849	0.928044	-0.447216	-1.579182	0.943950	-0.244998	-1.585685	0.951155	-0.340909	-1.440236	0.690037	-0.104440	-1.388598	0.701513	-0.116815	-1.427698	0.644410	-0.108323	-1.375938	0.656190	-0.118224	-1.379218	0.398599	-0.167305	-1.376933	0.399388	-0.285654	-1.511370	0.440933	-0.137538	-1.503292	0.385532	-0.149506	-1.560297	0.440086	-0.139324	-1.553045	0.385556	-0.148093	-1.792590	0.399672	-0.162081	-1.784998	0.386068	-0.256967	-1.821406	0.253806	-0.131999	-1.818589	0.250123	-0.243737	-1.781003	0.216246	-0.194073	-1.858416	0.454343	-0.216322	-1.429113	0.692380	-0.490861	-1.380607	0.715296	-0.489341	-1.419669	0.652874	-0.480208	-1.366676	0.675022	-0.483593	-1.267951	0.473932	-0.431646	-1.254708	0.478674	-0.325723	-1.359635	0.369817	-0.442443	-1.311064	0.352815	-0.437012	-1.383985	0.323537	-0.440140	-1.333520	0.308739	-0.431609	-1.462672	0.108681	-0.387149	-1.423684	0.107127	-0.298407	-1.359948	0.038773	-0.449471	-1.315660	0.040599	-0.338303	-1.278913	0.061265	-0.400096	-1.531616	0.076741	-0.335436	-1.241374	1.347442	-0.185883	-1.292457	1.328408	-0.522326	
15	0.0700	-1.367156	0.913550	-0.158672	-1.407398	0.927157	-0.448537	-1.562041	0.942055	-0.244668	-1.568681	0.949907	-0.340541	-1.417358	0.689602	-0.104804	-1.365884	0.702373	-0.117379	-1.403359	0.644439	-0.108567	-1.351778	0.657593	-0.118654	-1.346504	0.400903	-0.168350	-1.345247	0.402232	-0.286585	-1.478655	0.441453	-0.137921	-1.470150	0.386209	-0.150047	-1.527651	0.440082	-0.139358	-1.519878	0.385606	-0.148443	-1.759782	0.396372	-0.161320	-1.752491	0.383065	-0.256281	-1.783406	0.250385	-0.130944	-1.781655	0.246520	-0.242670	-1.742366	0.214066	-0.193482	-1.828032	0.449102	-0.215075	-1.414955	0.690562	-0.490843	-1.366246	0.712578	-0.489699	-1.406152	0.650917	-0.480097	-1.353008	0.672091	-0.483771	-1.258102	0.469187	-0.431382	-1.244345	0.473798	-0.325669	-1.351693	0.366842	-0.442139	-1.303493	0.348830	-0.436531	-1.377155	0.321200	-0.439672	-1.327001	0.305359	-0.430960	-1.461668	0.108985	-0.386368	-1.422571	0.106526	-0.297489	-1.359784	0.038437	-0.449651	-1.315380	0.039694	-0.338274	-1.278276	0.059876	-0.399934	-1.531371	0.077164	-0.334702	-1.226469	1.348071	-0.185064	-1.274133	1.327335	-0.522325	
16	0.0750	-1.349237	0.912191	-0.159338	-1.390607	0.926401	-0.449885	-1.544592	0.940434	-0.244417	-1.551334	0.948869	-0.340249	-1.394255	0.689591	-0.105168	-1.342979	0.703685	-0.117959	-1.378773	0.644935	-0.108827	-1.327416	0.659498	-0.119121	-1.313429	0.403929	-0.169441	-1.313262	0.405773	-0.287553	-1.445692	0.442263	-0.138369	-1.436604	0.387244	-0.150656	-1.494732	0.440225	-0.139454	-1.486290	0.385866	-0.148856	-1.726483	0.392603	-0.160670	-1.719423	0.379576	-0.255707	-1.744644	0.246643	-0.129937	-1.743850	0.242518	-0.241653	-1.702899	0.211647	-0.192920	-1.797142	0.443117	-0.213986	-1.400692	0.688861	-0.490841	-1.351767	0.709892	-0.490042	-1.392607	0.649070	-0.480010	-1.339302	0.669185	-0.483942	-1.248661	0.464402	-0.431133	-1.234410	0.468834	-0.325613	-1.344136	0.363842	-0.441879	-1.296327	0.344852	-0.436070	-1.370663	0.318843	-0.439227	-1.320841	0.302007	-0.430330	-1.460779	0.109317	-0.385645	-1.421553	0.106002	-0.296644	-1.359691	0.038107	-0.449822	-1.315170	0.038900	-0.338284	-1.277718	0.058665	-0.399822	-1.531194	0.077670	-0.333993	-1.211554	1.349106	-0.184157	-1.255564	1.326664	-0.522149	
17	0.0800	-1.331066	0.911175	-0.160040	-1.373459	0.925786	-0.451241	-1.526844	0.939095	-0.244256	-1.533648	0.948048	-0.340045	-1.370962	0.690018	-0.105531	-1.319922	0.705463	-0.118551	-1.353983	0.645912	-0.109103	-1.302900	0.661920	-0.119622	-1.280084	0.407690	-0.170559	-1.281044	0.410012	-0.288542	-1.412561	0.443368	-0.138877	-1.402729	0.388644	-0.151322	-1.461608	0.440514	-0.139611	-1.452345	0.386343	-0.149327	-1.692720	0.388361	-0.160142	-1.685810	0.375597	-0.255255	-1.705161	0.242601	-0.128986	-1.705201	0.238139	-0.240692	-1.662649	0.209011	-0.192389	-1.765748	0.436380	-0.213077	-1.386314	0.687303	-0.490857	-1.337161	0.707270	-0.490366	-1.379023	0.647365	-0.479951	-1.325551	0.666341	-0.484102	-1.239631	0.459635	-0.430900	-1.224914	0.463843	-0.325556	-1.336967	0.360876	-0.441665	-1.289565	0.340940	-0.435638	-1.364509	0.316524	-0.438810	-1.315036	0.298737	-0.429729	-1.459989	0.109698	-0.384990	-1.420616	0.105575	-0.295886	-1.359672	0.037774	-0.449986	-1.315031	0.038200	-0.338331	-1.277244	0.057616	-0.399760	-1.531065	0.078293	-0.333323	-1.196641	1.350554	-0.183165	-1.236763	1.326408	-0.521790	
18	0.0850	-1.312661	0.910530	-0.160763	-1.355942	0.925322	-0.452584	-1.508808	0.938043	-0.244195	-1.515627	0.947446	-0.339940	-1.347518	0.690894	-0.105894	-1.296756	0.707713	-0.119153	-1.329040	0.647381	-0.109395	-1.278282	0.664864	-0.120151	-1.246569	0.412187	-0.171685	-1.248666	0.414939	-0.289533	-1.379345	0.444761	-0.139443	-1.368603	0.390411	-0.152034	-1.428357	0.440944	-0.139831	-1.418115	0.387037	-0.149847	-1.658524	0.383647	-0.159750	-1.651677	0.371129	-0.254935	-1.665011	0.238283	-0.128101	-1.665747	0.233414	-0.239799	-1.621674	0.206186	-0.191888	-1.733852	0.428891	-0.212366	-1.371809	0.685915	-0.490889	-1.322421	0.704746	-0.490665	-1.365387	0.645834	-0.479924	-1.311745	0.663594	-0.484248	-1.231009	0.454952	-0.430684	-1.215859	0.458890	-0.325499	-1.330177	0.358010	-0.441496	-1.283194	0.337158	-0.435241	-1.358683	0.314301	-0.438428	-1.309574	0.295606	-0.429170	-1.459274	0.110154	-0.384419	-1.419739	0.105269	-0.295229	-1.359731	0.037427	-0.450141	-1.314962	0.037573	-0.338411	-1.276858	0.056713	-0.399744	-1.530956	0.079069	-0.332705	-1.181740	1.352415	-0.182092	-1.217749	1.326579	-0.521245	
19	0.0900	-1.294043	0.910278	-0.161493	-1.338044	0.925018	-0.453892	-1.490498	0.937281	-0.244240	-1.497277	0.947069	-0.339943	-1.323967	0.692222	-0.106256	-1.273527	0.710437	-0.119761	-1.303998	0.649342	-0.109702	-1.253617	0.668326	-0.120705	-1.212992	0.417406	-0.172799	-1.216211	0.420532	-0.290509	-1.346133	0.446433	-0.140059	-1.334316	0.392539	-0.152777	-1.395057	0.441504	-0.140112	-1.383681	0.387946	-0.150407	-1.623929	0.378467	-0.159504	-1.617049	0.366183	-0.254755	-1.624253	0.233719	-0.127290	-1.625537	0.228380	-0.238982	-1.580040	0.203205	-0.191422	-1.701458	0.420661	-0.211871	-1.357167	0.684724	-0.490939	-1.307537	0.702356	-0.490933	-1.351687	0.644509	-0.479931	-1.297875	0.660985	-0.484376	-1.222778	0.450420	-0.430485	-1.207234	0.454044	-0.325442	-1.323751	0.355311	-0.441374	-1.277196	0.333570	-0.434890	-1.353169	0.312239	-0.438088	-1.304435	0.292674	-0.428666	-1.458609	0.110712	-0.383944	-1.418898	0.105106	-0.294689	-1.359870	0.037059	-0.450289	-1.314961	0.037000	-0.338522	-1.276566	0.055932	-0.399771	-1.530835	0.080040	-0.332154	-1.166862	1.354684	-0.180943	-1.198542	1.327179	-0.520511	
20	0.0950	-1.275234	0.910439	-0.162213	-1.319757	0.924883	-0.455141	-1.471930	0.936807	-0.244396	-1.478610	0.946915	-0.340063	-1.300354	0.693999	-0.106616	-1.250281	0.713627	-0.120370	-1.278912	0.651792	-0.110022	-1.228961	0.672295	-0.121277	-1.179466	0.423323	-0.173880	-1.183761	0.426758	-0.291451	-1.313018	0.448366	-0.140720	-1.299960	0.395017	-0.153538	-1.361789	0.442181	-0.140453	-1.349124	0.389063	-0.150997	-1.588972	0.372832	-0.159413	-1.581955	0.360773	-0.254723	-1.582953	0.228942	-0.126566	-1.584625	0.223081	-0.238251	-1.537820	0.200102	-0.190993	-1.668574	0.411709	-0.211607	-1.342377	0.683755	-0.491005	-1.292501	0.700133	-0.491165	-1.337905	0.643422	-0.479975	-1.283931	0.658552	-0.484483	-1.214914	0.446108	-0.430306	-1.199023	0.449378	-0.325385	-1.317664	0.352849	-0.441300	-1.271541	0.330243	-0.434591	-1.347941	0.310400	-0.437796	-1.299589	0.289998	-0.428229	-1.457958	0.111401	-0.383579	-1.418063	0.105110	-0.294282	-1.360087	0.036665	-0.450429	-1.315023	0.036461	-0.338660	-1.276368	0.055250	-0.399840	-1.530662	0.081245	-0.331686	-1.152014	1.357350	-0.179726	-1.179163	1.328209	-0.519589	
21	0.1000	-1.256257	0.911023	-0.162906	-1.301076	0.924925	-0.456308	-1.453124	0.936619	-0.244667	-1.459637	0.946987	-0.340302	-1.276724	0.696216	-0.106974	-1.227063	0.717269	-0.120976	-1.253840	0.654716	-0.110356	-1.204370	0.676753	-0.121861	-1.146107	0.429899	-0.174908	-1.151405	0.433572	-0.292339	-1.280087	0.450535	-0.141417	-1.265628	0.397823	-0.154303	-1.328635	0.442953	-0.140853	-1.314530	0.390375	-0.151608	-1.553686	0.366757	-0.159485	-1.546429	0.354921	-0.254844	-1.541176	0.223987	-0.125937	-1.543073	0.217566	-0.237619	-1.495094	0.196917	-0.190607	-1.635206	0.402065	-0.211587	-1.327427	0.683034	-0.491086	-1.277306	0.698115	-0.491357	-1.324028	0.642603	-0.480057	-1.269899	0.656335	-0.484567	-1.207383	0.442083	-0.430146	-1.191195	0.444962	-0.325329	-1.311880	0.350692	-0.441279	-1.266191	0.327241	-0.434355	-1.342965	0.308847	-0.437562	-1.294999	0.287639	-0.427871	-1.457285	0.112251	-0.383339	-1.417200	0.105306	-0.294022	-1.360381	0.036242	-0.450560	-1.315143	0.035939	-0.338821	-1.276266	0.054644	-0.399945	-1.530395	0.082730	-0.331317	-1.137205	1.360398	-0.178449	-1.159636	1.329662	-0.518481	
22	0.1050	-1.237138	0.912038	-0.163556	-1.282001	0.925153	-0.457370	-1.434096	0.936712	-0.245054	-1.440372	0.947282	-0.340663	-1.253121	0.698856	-0.107329	-1.203918	0.721341	-0.121575	-1.228837	0.658093	-0.110702	-1.179898	0.681670	-0.122450	-1.113028	0.437083	-0.175865	-1.119230	0.440921	-0.293157	-1.247428	0.452909	-0.142143	-1.231414	0.400932	-0.155059	-1.295669	0.443798	-0.141307	-1.279983	0.391863	-0.152230	-1.518108	0.360264	-0.159727	-1.510501	0.348652	-0.255121	-1.498995	0.218894	-0.125416	-1.500948	0.211889	-0.237097	-1.451941	0.193688	-0.190271	-1.601360	0.391764	-0.211818	-1.312307	0.682586	-0.491180	-1.261945	0.696333	-0.491505	-1.310036	0.642081	-0.480176	-1.255767	0.654372	-0.484625	-1.200142	0.438409	-0.430009	-1.183711	0.440867	-0.325276	-1.306355	0.348904	-0.441311	-1.261099	0.324627	-0.434190	-1.338199	0.307642	-0.437392	-1.290619	0.285651	-0.427605	-1.456546	0.113293	-0.383236	-1.416272	0.105719	-0.293923	-1.360747	0.035793	-0.450683	-1.315314	0.035420	-0.339001	-1.276261	0.054087	-0.400083	-1.529986	0.084539	-0.331063	-1.122438	1.363807	-0.177121	-1.139985	1.331527	-0.517193	
23	0.1100	-1.217900	0.913481	-0.164146	-1.262533	0.925574	-0.458304	-1.414866	0.937077	-0.245555	-1.420831	0.947800	-0.341145	-1.229590	0.701896	-0.107681	-1.180889	0.725815	-0.122162	-1.203960	0.661896	-0.111058	-1.155598	0.687010	-0.123036	-1.080341	0.444813	-0.176732	-1.087323	0.448740	-0.293887	-1.215121	0.455448	-0.142891	-1.197409	0.404308	-0.155793	-1.262965	0.444687	-0.141812	-1.245565	0.393506	-0.152853	-1.482268	0.353374	-0.160141	-1.474207	0.342001	-0.255558	-1.456476	0.213699	-0.125016	-1.458317	0.206103	-0.236697	-1.408445	0.190456	-0.189995	-1.567045	0.380852	-0.212306	-1.297007	0.682430	-0.491285	-1.246409	0.694821	-0.491607	-1.295914	0.641883	-0.480332	-1.241519	0.652698	-0.484657	-1.193135	0.435145	-0.429897	-1.176522	0.437157	-0.325225	-1.301037	0.347546	-0.441402	-1.256210	0.322458	-0.434106	-1.333592	0.306840	-0.437295	-1.286395	0.284085	-0.427443	-1.455694	0.114558	-0.383283	-1.415237	0.106374	-0.293997	-1.361177	0.035324	-0.450797	-1.315525	0.034894	-0.339196	-1.276348	0.053555	-0.400249	-1.529380	0.086715	-0.330939	-1.107717	1.367552	-0.175753	-1.120231	1.333788	-0.515731	
24	0.1150	-1.198567	0.915347	-0.164659	-1.242679	0.926193	-0.459089	-1.395453	0.937705	-0.246164	-1.401030	0.948536	-0.341744	-1.206172	0.705306	-0.108028	-1.158014	0.730652	-0.122731	-1.179259	0.666087	-0.111423	-1.131516	0.692728	-0.123614	-1.048152	0.453014	-0.177497	-1.055766	0.456958	-0.294514	-1.183238	0.458109	-0.143651	-1.163700	0.407913	-0.156494	-1.230586	0.445588	-0.142363	-1.211354	0.395276	-0.153469	-1.446198	0.346117	-0.160730	-1.437578	0.335001	-0.256153	-1.413687	0.208440	-0.124747	-1.415252	0.200268	-0.236432	-1.364686	0.187261	-0.189789	-1.532268	0.369378	-0.213051	-1.281517	0.682586	-0.491398	-1.230691	0.693605	-0.491659	-1.281642	0.642030	-0.480524	-1.227141	0.651344	-0.484660	-1.186301	0.432344	-0.429811	-1.169568	0.433890	-0.325178	-1.295866	0.346671	-0.441554	-1.251461	0.320784	-0.434109	-1.329084	0.306491	-0.437278	-1.282268	0.282989	-0.427395	-1.454679	0.116077	-0.383489	-1.414049	0.107295	-0.294256	-1.361659	0.034847	-0.450900	-1.315766	0.034356	-0.339402	-1.276523	0.053025	-0.400439	-1.528524	0.089302	-0.330959	-1.093042	1.371605	-0.174356	-1.100399	1.336425	-0.514103	
25	0.1200	-1.179162	0.917621	-0.165082	-1.222448	0.927016	-0.459706	-1.375876	0.938587	-0.246877	-1.380985	0.949489	-0.342451	-1.182906	0.709051	-0.108371	-1.135328	0.735811	-0.123278	-1.154784	0.670625	-0.111795	-1.107696	0.698774	-0.124174	-1.016556	0.461602	-0.178145	-1.024640	0.465495	-0.295028	-1.151846	0.460842	-0.144415	-1.130366	0.411699	-0.157154	-1.198590	0.446467	-0.142957	-1.177421	0.397141	-0.154072	-1.409924	0.338523	-0.161493	-1.400648	0.327695	-0.256907	-1.370693	0.203156	-0.124624	-1.371827	0.194439	-0.236316	-1.320745	0.184140	-0.189665	-1.497038	0.357399	-0.214050	-1.265826	0.683068	-0.491517	-1.214786	0.692710	-0.491663	-1.267201	0.642540	-0.480749	-1.212616	0.650338	-0.484635	-1.179568	0.430049	-0.429755	-1.162781	0.431117	-0.325135	-1.290771	0.346323	-0.441772	-1.246782	0.319649	-0.434207	-1.324612	0.306639	-0.437349	-1.278170	0.282399	-0.427468	-1.453447	0.117881	-0.383865	-1.412663	0.108506	-0.294706	-1.362178	0.034377	-0.450991	-1.316022	0.033808	-0.339614	-1.276779	0.052479	-0.400648	-1.527358	0.092342	-0.331136	-1.078411	1.375933	-0.172941	-1.080510	1.339414	-0.512322	
26	0.1250	-1.159706	0.920282	-0.165402	-1.201855	0.928047	-0.460137	-1.356152	0.939710	-0.247683	-1.360716	0.950654	-0.343258	-1.159827	0.713088	-0.108709	-1.112861	0.741242	-0.123796	-1.130577	0.675459	-0.112171	-1.084175	0.705089	-0.124710	-0.985642	0.470487	-0.178670	-0.994017	0.474266	-0.295418	-1.120996	0.463595	-0.145176	-1.097479	0.415616	-0.157765	-1.167026	0.447284	-0.143587	-1.143833	0.399066	-0.154655	-1.373470	0.330623	-0.162428	-1.363452	0.320123	-0.257815	-1.327555	0.197880	-0.124658	-1.328113	0.188672	-0.236361	-1.276697	0.181130	-0.189638	-1.461366	0.344978	-0.215296	-1.249926	0.683885	-0.491639	-1.198686	0.692155	-0.491617	-1.252574	0.643425	-0.481004	-1.197927	0.649700	-0.484583	-1.172859	0.428293	-0.429730	-1.156085	0.428877	-0.325099	-1.285679	0.346538	-0.442061	-1.242097	0.319086	-0.434406	-1.320104	0.307318	-0.437514	-1.274030	0.282348	-0.427672	-1.451942	0.119999	-0.384417	-1.411029	0.110029	-0.295355	-1.362716	0.033939	-0.451069	-1.316277	0.033258	-0.339829	-1.277104	0.051902	-0.400870	-1.525821	0.095873	-0.331482	-1.063821	1.380500	-0.171519	-1.060585	1.342728	-0.510397	
27	0.1300	-1.140220	0.923304	-0.165607	-1.180916	0.929288	-0.460369	-1.336299	0.941062	-0.248573	-1.340241	0.952028	-0.344152	-1.136967	0.717371	-0.109041	-1.090638	0.746889	-0.124279	-1.106677	0.680536	-0.112551	-1.060985	0.711608	-0.125213	-0.955485	0.479570	-0.179066	-0.963965	0.483182	-0.295678	-1.090734	0.466309	-0.145927	-1.065103	0.419609	-0.158323	-1.135930	0.448001	-0.144250	-1.110646	0.401014	-0.155214	-1.336860	0.322454	-0.163530	-1.326024	0.312332	-0.258874	-1.284330	0.192644	-0.124863	-1.284184	0.183019	-0.236580	-1.232618	0.178261	-0.189722	-1.425264	0.332179	-0.216779	-1.233810	0.685044	-0.491761	-1.182386	0.691955	-0.491523	-1.237743	0.644691	-0.481285	-1.183057	0.649446	-0.484503	-1.166091	0.427100	-0.429741	-1.149400	0.427201	-0.325068	-1.280510	0.347342	-0.442425	-1.237327	0.319118	-0.434710	-1.315484	0.308552	-0.437779	-1.269772	0.282855	-0.428010	-1.450107	0.122460	-0.385150	-1.409097	0.111888	-0.296205	-1.363250	0.033561	-0.451131	-1.316509	0.032722	-0.340041	-1.277482	0.051282	-0.401099	-1.523853	0.099931	-0.332006	-1.049266	1.385270	-0.170102	-1.040643	1.346336	-0.508344	
28	0.1350	-1.120722	0.926655	-0.165689	-1.159655	0.930740	-0.460392	-1.316333	0.942628	-0.249532	-1.319579	0.953606	-0.345117	-1.114355	0.721849	-0.109365	-1.068679	0.752693	-0.124722	-1.083118	0.685797	-0.112930	-1.038149	0.718263	-0.125678	-0.926148	0.488747	-0.179332	-0.934544	0.492150	-0.295807	-1.061092	0.468928	-0.146662	-1.033293	0.423620	-0.158826	-1.105334	0.448576	-0.144939	-1.077910	0.402943	-0.155748	-1.300114	0.314050	-0.164792	-1.288399	0.304367	-0.260077	-1.241074	0.187478	-0.125252	-1.240113	0.177529	-0.236986	-1.188577	0.175561	-0.189934	-1.388749	0.319073	-0.218483	-1.217468	0.686544	-0.491880	-1.165879	0.692116	-0.491382	-1.222688	0.646340	-0.481588	-1.167988	0.649585	-0.484397	-1.159176	0.426478	-0.429789	-1.142638	0.426104	-0.325045	-1.275180	0.348746	-0.442868	-1.232389	0.319758	-0.435123	-1.310673	0.310357	-0.438150	-1.265319	0.283934	-0.428486	-1.447887	0.125288	-0.386065	-1.406818	0.114103	-0.297256	-1.363750	0.033277	-0.451175	-1.316698	0.032223	-0.340248	-1.277896	0.050617	-0.401329	-1.521393	0.104546	-0.332715	-1.034739	1.390204	-0.168701	-1.020702	1.350207	-0.506177	
29	0.1400	-1.101228	0.930296	-0.165643	-1.138095	0.932402	-0.460198	-1.296270	0.944397	-0.250548	-1.298750	0.955382	-0.346139	-1.092012	0.726467	-0.109681	-1.047000	0.758590	-0.125117	-1.059927	0.691176	-0.113307	-1.015687	0.724980	-0.126096	-0.897682	0.497913	-0.179471	-0.905806	0.501077	-0.295805	-1.032092	0.471390	-0.147375	-1.002092	0.427590	-0.159275	-1.075256	0.448968	-0.145650	-1.045666	0.404812	-0.156257	-1.263252	0.305451	-0.166207	-1.250614	0.296275	-0.261418	-1.197836	0.182406	-0.125837	-1.195975	0.172245	-0.237592	-1.144641	0.173054	-0.190292	-1.351842	0.305730	-0.220393	-1.200895	0.688380	-0.491994	-1.149162	0.692642	-0.491196	-1.207394	0.648364	-0.481908	-1.152701	0.650119	-0.484267	-1.152025	0.426426	-0.429877	-1.135710	0.425590	-0.325031	-1.269602	0.350752	-0.443395	-1.227199	0.321005	-0.435646	-1.305590	0.312737	-0.438629	-1.260591	0.285586	-0.429099	-1.445224	0.128507	-0.387162	-1.404142	0.116694	-0.298505	-1.364185	0.033128	-0.451198	-1.316815	0.031792	-0.340444	-1.278320	0.049909	-0.401554	-1.518382	0.109744	-0.333612	-1.020232	1.395260	-0.167327	-1.000779	1.354307	-0.503909	
30	0.1450	-1.081753	0.934186	-0.165466	-1.116267	0.934270	-0.459784	-1.276126	0.946351	-0.251606	-1.277774	0.957351	-0.347199	-1.069961	0.731169	-0.109987	-1.025610	0.764515	-0.125458	-1.037126	0.696610	-0.113679	-0.993611	0.731683	-0.126460	-0.870122	0.506962	-0.179490	-0.877796	0.509868	-0.295678	-1.003743	0.473637	-0.148063	-0.971536	0.431459	-0.159675	-1.045707	0.449137	-0.146378	-1.013947	0.406578	-0.156743	-1.226297	0.296693	-0.167765	-1.212709	0.288102	-0.262889	-1.154669	0.177448	-0.126629	-1.151845	0.167204	-0.238407	-1.100875	0.170755	-0.190813	-1.314572	0.292223	-0.222487	-1.184085	0.690542	-0.492100	-1.132228	0.693528	-0.490969	-1.191844	0.650751	-0.482240	-1.137181	0.651041	-0.484114	-1.144546	0.426930	-0.430009	-1.128524	0.425649	-0.325027	-1.263690	0.353350	-0.444007	-1.221673	0.322850	-0.436279	-1.300154	0.315685	-0.439219	-1.255510	0.287803	-0.429849	-1.442064	0.132139	-0.388435	-1.401021	0.119679	-0.299944	-1.364517	0.033159	-0.451198	-1.316832	0.031469	-0.340626	-1.278727	0.049169	-0.401768	-1.514763	0.115547	-0.334698	-1.005735	1.400399	-0.165989	-0.980890	1.358600	-0.501558	
31	0.1500	-1.062308	0.938279	-0.165157	-1.094204	0.936340	-0.459150	-1.255915	0.948477	-0.252689	-1.256673	0.959506	-0.348279	-1.048215	0.735895	-0.110281	-1.004515	0.770399	-0.125739	-1.014734	0.702030	-0.114043	-0.971928	0.738297	-0.126764	-0.843490	0.515788	-0.179399	-0.850548	0.518433	-0.295434	-0.976048	0.475613	-0.148722	-0.941648	0.435167	-0.160032	-1.016691	0.449045	-0.147120	-0.982778	0.408199	-0.157212	-1.189271	0.287815	-0.169455	-1.174727	0.279892	-0.264481	-1.111619	0.172619	-0.127638	-1.107796	0.162436	-0.239443	-1.057340	0.168673	-0.191515	-1.276974	0.278626	-0.224745	-1.167033	0.693012	-0.492196	-1.115074	0.694762	-0.490705	-1.176024	0.653480	-0.482580	-1.121409	0.652340	-0.483941	-1.136650	0.427963	-0.430185	-1.120989	0.426259	-0.325035	-1.257357	0.356516	-0.444707	-1.215727	0.325270	-0.437019	-1.294281	0.319185	-0.439919	-1.249996	0.290567	-0.430731	-1.438354	0.136201	-0.389878	-1.397409	0.123073	-0.301563	-1.364705	0.033420	-0.451172	-1.316716	0.031297	-0.340789	-1.279083	0.048416	-0.401962	-1.510483	0.121967	-0.335972	-0.991239	1.405578	-0.164695	-0.961050	1.363051	-0.499139	
32	0.1550	-1.042906	0.942527	-0.164719	-1.071941	0.938602	-0.458301	-1.235650	0.950759	-0.253782	-1.235469	0.961839	-0.349361	-1.026789	0.740586	-0.110562	-0.983717	0.776174	-0.125951	-0.992760	0.707369	-0.114397	-0.950638	0.744744	-0.127002	-0.817796	0.524291	-0.179213	-0.824092	0.526682	-0.295087	-0.949000	0.477263	-0.149350	-0.912446	0.438658	-0.160354	-0.988203	0.448656	-0.147872	-0.952176	0.409635	-0.157669	-1.152201	0.278855	-0.171267	-1.136716	0.271689	-0.266186	-1.068736	0.167932	-0.128875	-1.063908	0.157962	-0.240708	-1.014098	0.166814	-0.192414	-1.239089	0.265011	-0.227144	-1.149734	0.695767	-0.492282	-1.097695	0.696327	-0.490407	-1.159919	0.656525	-0.482923	-1.105369	0.653994	-0.483751	-1.128249	0.429486	-0.430409	-1.113016	0.427384	-0.325056	-1.250517	0.360218	-0.445495	-1.209282	0.328232	-0.437863	-1.287895	0.323211	-0.440730	-1.243976	0.293850	-0.431737	-1.434045	0.140709	-0.391480	-1.393263	0.126893	-0.303348	-1.364701	0.033965	-0.451118	-1.316429	0.031330	-0.340931	-1.279350	0.047676	-0.402130	-1.505492	0.129014	-0.337428	-0.976733	1.410758	-0.163452	-0.941273	1.367625	-0.496666	
33	0.1600	-1.023555	0.946880	-0.164158	-1.049515	0.941047	-0.457246	-1.215347	0.953179	-0.254870	-1.214183	0.964340	-0.350425	-1.005688	0.745183	-0.110828	-0.963213	0.781771	-0.126089	-0.971210	0.712561	-0.114738	-0.929738	0.750948	-0.127168	-0.793036	0.532375	-0.178948	-0.798445	0.534533	-0.294651	-0.922582	0.478539	-0.149949	-0.883936	0.441876	-0.160654	-0.960235	0.447937	-0.148632	-0.922153	0.410847	-0.158123	-1.115118	0.269852	-0.173187	-1.098727	0.263534	-0.267993	-1.026072	0.163390	-0.130347	-1.020259	0.153795	-0.242209	-0.971209	0.165172	-0.193526	-1.200972	0.251452	-0.229658	-1.132185	0.698780	-0.492355	-1.080089	0.698199	-0.490080	-1.143517	0.659853	-0.483264	-1.089045	0.655977	-0.483545	-1.119261	0.431450	-0.430682	-1.104519	0.428975	-0.325093	-1.243091	0.364411	-0.446372	-1.202260	0.331691	-0.438804	-1.280917	0.327726	-0.441648	-1.237378	0.297618	-0.432860	-1.429093	0.145674	-0.393227	-1.388542	0.131149	-0.305282	-1.364454	0.034849	-0.451033	-1.315930	0.031624	-0.341047	-1.279485	0.046984	-0.402265	-1.499746	0.136688	-0.339056	-0.962209	1.415898	-0.162268	-0.921572	1.372286	-0.494157	
34	0.1650	-1.004263	0.951287	-0.163482	-1.026968	0.943662	-0.455995	-1.195018	0.955721	-0.255937	-1.192840	0.966996	-0.351455	-0.984920	0.749629	-0.111077	-0.942997	0.787126	-0.126146	-0.950088	0.717539	-0.115064	-0.909218	0.756837	-0.127258	-0.769194	0.539950	-0.178624	-0.773620	0.541909	-0.294144	-0.896774	0.479399	-0.150519	-0.856118	0.444773	-0.160944	-0.932772	0.446863	-0.149397	-0.892715	0.411800	-0.158585	-1.078059	0.260843	-0.175203	-1.060819	0.255464	-0.269893	-0.983680	0.158994	-0.132059	-0.976932	0.149941	-0.243950	-0.928732	0.163737	-0.194866	-1.162684	0.238019	-0.232264	-1.114382	0.702018	-0.492416	-1.062251	0.700351	-0.489727	-1.126805	0.663423	-0.483600	-1.072423	0.658256	-0.483326	-1.109607	0.433798	-0.431006	-1.095415	0.430976	-0.325147	-1.235001	0.369043	-0.447336	-1.194592	0.335597	-0.439835	-1.273277	0.332687	-0.442668	-1.230136	0.301826	-0.434087	-1.423454	0.151105	-0.395103	-1.383208	0.135853	-0.307345	-1.363910	0.036131	-0.450915	-1.315175	0.032240	-0.341134	-1.279438	0.046384	-0.402361	-1.493207	0.144985	-0.340845	-0.947655	1.420960	-0.161144	-0.901961	1.376998	-0.491625	
35	0.1700	-0.985037	0.955697	-0.162701	-1.004341	0.946432	-0.454564	-1.174677	0.958366	-0.256970	-1.171461	0.969796	-0.352435	-0.964485	0.753868	-0.111306	-0.923061	0.792175	-0.126117	-0.929389	0.722243	-0.115371	-0.889066	0.762342	-0.127267	-0.746245	0.546938	-0.178263	-0.749619	0.548738	-0.293589	-0.871550	0.479804	-0.151062	-0.828986	0.447303	-0.161240	-0.905799	0.445411	-0.150169	-0.863862	0.412462	-0.159066	-1.041068	0.251863	-0.177303	-1.023055	0.247513	-0.271878	-0.941618	0.154741	-0.134016	-0.934011	0.146393	-0.245934	-0.886732	0.162490	-0.196444	-1.124298	0.224780	-0.234937	-1.096323	0.705442	-0.492464	-1.044178	0.702748	-0.489352	-1.109774	0.667192	-0.483927	-1.055488	0.660793	-0.483097	-1.099218	0.436463	-0.431382	-1.085630	0.433319	-0.325222	-1.226176	0.374054	-0.448383	-1.186211	0.339889	-0.440947	-1.264907	0.338043	-0.443785	-1.222189	0.306424	-0.435407	-1.417092	0.157006	-0.397088	-1.377227	0.141011	-0.309514	-1.363009	0.037867	-0.450763	-1.314115	0.033240	-0.341189	-1.279157	0.045923	-0.402410	-1.485839	0.153893	-0.342780	-0.933062	1.425905	-0.160086	-0.882451	1.381729	-0.489084	
36	0.1750	-0.965880	0.960059	-0.161827	-0.981675	0.949338	-0.452971	-1.154337	0.961093	-0.257955	-1.150070	0.972721	-0.353349	-0.944382	0.757849	-0.111513	-0.903394	0.796859	-0.125995	-0.909106	0.726616	-0.115659	-0.869266	0.767399	-0.127192	-0.724151	0.553268	-0.177888	-0.726438	0.554960	-0.293006	-0.846880	0.479728	-0.151584	-0.802528	0.449428	-0.161558	-0.879297	0.443565	-0.150946	-0.835592	0.412806	-0.159578	-1.004197	0.242948	-0.179476	-0.985505	0.239711	-0.273937	-0.899951	0.150621	-0.136217	-0.891584	0.143141	-0.248159	-0.845271	0.161408	-0.198270	-1.085898	0.211801	-0.237655	-1.078006	0.709010	-0.492500	-1.025866	0.705350	-0.488961	-1.092414	0.671110	-0.484242	-1.038227	0.663543	-0.482860	-1.088029	0.439374	-0.431810	-1.075094	0.435929	-0.325321	-1.216551	0.379377	-0.449508	-1.177059	0.344502	-0.442129	-1.255748	0.343739	-0.444989	-1.213482	0.311357	-0.436805	-1.409974	0.163379	-0.399162	-1.370568	0.146629	-0.311765	-1.361691	0.040113	-0.450577	-1.312699	0.034687	-0.341211	-1.278582	0.045658	-0.402409	-1.477616	0.163392	-0.344843	-0.918422	1.430699	-0.159092	-0.863055	1.386444	-0.486549	
37	0.1800	-0.946797	0.964324	-0.160873	-0.959013	0.952362	-0.451236	-1.134012	0.963882	-0.258882	-1.128690	0.975753	-0.354185	-0.924606	0.761523	-0.111697	-0.883981	0.801125	-0.125776	-0.889229	0.730605	-0.115925	-0.849798	0.771952	-0.127031	-0.702869	0.558882	-0.177523	-0.704065	0.560523	-0.292420	-0.822732	0.479150	-0.152089	-0.776728	0.451115	-0.161913	-0.853248	0.441315	-0.151731	-0.807902	0.412810	-0.160135	-0.967506	0.234132	-0.181709	-0.948244	0.232085	-0.276061	-0.858746	0.146622	-0.138659	-0.849744	0.140161	-0.250623	-0.804418	0.160458	-0.200349	-1.047579	0.199144	-0.240396	-1.059428	0.712678	-0.492524	-1.007312	0.708118	-0.488555	-1.074716	0.675123	-0.484544	-1.020628	0.666459	-0.482616	-1.075987	0.442456	-0.432292	-1.063746	0.438727	-0.325446	-1.206070	0.384942	-0.450705	-1.167086	0.349365	-0.443372	-1.245744	0.349714	-0.446273	-1.203966	0.316566	-0.438267	-1.402071	0.170220	-0.401301	-1.363203	0.152709	-0.314072	-1.359890	0.042920	-0.450356	-1.310869	0.036642	-0.341196	-1.277651	0.045649	-0.402352	-1.468513	0.173460	-0.347014	-0.903726	1.435308	-0.158163	-0.843784	1.391111	-0.484031	
38	0.1850	-0.927789	0.968447	-0.159854	-0.936393	0.955479	-0.449381	-1.113712	0.966710	-0.259741	-1.107343	0.978871	-0.354933	-0.905148	0.764849	-0.111855	-0.864807	0.804925	-0.125457	-0.869741	0.734164	-0.116169	-0.830640	0.775950	-0.126783	-0.682347	0.563735	-0.177191	-0.682481	0.565385	-0.291855	-0.799076	0.478058	-0.152585	-0.751565	0.452340	-0.162322	-0.827634	0.438661	-0.152525	-0.780784	0.412457	-0.160749	-0.931064	0.225447	-0.183991	-0.911355	0.224657	-0.278244	-0.818083	0.142729	-0.141339	-0.808585	0.137426	-0.253318	-0.764242	0.159605	-0.202684	-1.009444	0.186867	-0.243138	-1.040586	0.716395	-0.492540	-0.988511	0.711005	-0.488139	-1.056672	0.679176	-0.484832	-1.002680	0.669493	-0.482369	-1.063046	0.445631	-0.432827	-1.051532	0.441630	-0.325602	-1.194681	0.390676	-0.451967	-1.156245	0.354406	-0.444663	-1.234849	0.355906	-0.447625	-1.193601	0.321990	-0.439777	-1.393358	0.177525	-0.403483	-1.355106	0.159247	-0.316409	-1.357539	0.046338	-0.450103	-1.308565	0.039162	-0.341146	-1.276297	0.045956	-0.402237	-1.458514	0.184065	-0.349271	-0.888967	1.439700	-0.157294	-0.824648	1.395701	-0.481542	
39	0.1900	-0.908858	0.972382	-0.158786	-0.913855	0.958666	-0.447429	-1.093452	0.969553	-0.260524	-1.086050	0.982048	-0.355585	-0.885998	0.767789	-0.111985	-0.845856	0.808219	-0.125036	-0.850625	0.737255	-0.116389	-0.811770	0.779351	-0.126450	-0.662529	0.567791	-0.176916	-0.661661	0.569514	-0.291333	-0.775879	0.476450	-0.153078	-0.727018	0.453085	-0.162801	-0.802442	0.435606	-0.153334	-0.754233	0.411737	-0.161434	-0.894948	0.216923	-0.186312	-0.874925	0.217444	-0.280476	-0.778042	0.138922	-0.144245	-0.768204	0.134899	-0.256234	-0.724819	0.158806	-0.205271	-0.971608	0.175024	-0.245866	-1.021476	0.720113	-0.492548	-0.969458	0.713965	-0.487716	-1.038273	0.683211	-0.485105	-0.984372	0.672591	-0.482119	-1.049168	0.448821	-0.433415	-1.038408	0.444555	-0.325792	-1.182341	0.396507	-0.453283	-1.144501	0.359553	-0.445990	-1.223020	0.362252	-0.449034	-1.182350	0.327567	-0.441319	-1.383812	0.185282	-0.405683	-1.346253	0.166239	-0.318749	-1.354570	0.050406	-0.449819	-1.305726	0.042298	-0.341060	-1.274449	0.046645	-0.402063	-1.447603	0.195172	-0.351589	-0.874135	1.443845	-0.156483	-0.805658	1.400182	-0.479093	
40	0.1950	-0.890002	0.976091	-0.157682	-0.891434	0.961896	-0.445405	-1.073240	0.972384	-0.261226	-1.064832	0.985257	-0.356135	-0.867142	0.770312	-0.112088	-0.827108	0.810974	-0.124513	-0.831859	0.739845	-0.116586	-0.793160	0.782124	-0.126032	-0.643353	0.571031	-0.176720	-0.641573	0.572889	-0.290878	-0.753114	0.474335	-0.153577	-0.703065	0.453341	-0.163366	-0.777660	0.432163	-0.154160	-0.728242	0.410645	-0.162201	-0.859244	0.208589	-0.188664	-0.839046	0.210460	-0.282750	-0.738716	0.135181	-0.147365	-0.728703	0.132539	-0.259357	-0.686226	0.158018	-0.208106	-0.934191	0.163664	-0.248563	-1.002094	0.723781	-0.492550	-0.950147	0.716952	-0.487287	-1.019512	0.687169	-0.485364	-0.965693	0.675701	-0.481868	-1.034325	0.451951	-0.434055	-1.024335	0.447420	-0.326020	-1.169016	0.402364	-0.454646	-1.131823	0.364732	-0.447341	-1.210225	0.368690	-0.450487	-1.170184	0.333236	-0.442877	-1.373414	0.193476	-0.407878	-1.336621	0.173676	-0.321066	-1.350912	0.055158	-0.449508	-1.302283	0.046094	-0.340941	-1.272032	0.047776	-0.401831	-1.435771	0.206739	-0.353946	-0.859226	1.447718	-0.155723	-0.786822	1.404527	-0.476693	
41	0.2000	-0.871218	0.979537	-0.156558	-0.869160	0.965141	-0.443334	-1.053088	0.975176	-0.261843	-1.043705	0.988467	-0.356583	-0.848563	0.772393	-0.112160	-0.808545	0.813166	-0.123889	-0.813419	0.741911	-0.116760	-0.774785	0.784245	-0.125534	-0.624757	0.573446	-0.176624	-0.622179	0.575500	-0.290511	-0.730755	0.471726	-0.154091	-0.679681	0.453106	-0.164028	-0.753279	0.428350	-0.155010	-0.702806	0.409181	-0.163062	-0.824046	0.200473	-0.191037	-0.803814	0.203715	-0.285061	-0.700201	0.131485	-0.150683	-0.690182	0.130300	-0.262669	-0.648544	0.157190	-0.211175	-0.897323	0.152830	-0.251217	-0.982435	0.727348	-0.492550	-0.930571	0.719920	-0.486856	-1.000381	0.690994	-0.485609	-0.946633	0.678774	-0.481618	-1.018498	0.454951	-0.434747	-1.009285	0.450147	-0.326289	-1.154677	0.408177	-0.456043	-1.118186	0.369876	-0.448705	-1.196434	0.375158	-0.451972	-1.157079	0.338938	-0.444438	-1.362148	0.202090	-0.410043	-1.326187	0.181541	-0.323336	-1.346496	0.060617	-0.449175	-1.298168	0.050584	-0.340790	-1.268970	0.049409	-0.401545	-1.423010	0.218720	-0.356314	-0.844229	1.451293	-0.155006	-0.768146	1.408710	-0.474351	
42	0.2050	-0.852504	0.982689	-0.155427	-0.847061	0.968372	-0.441241	-1.033002	0.977899	-0.262374	-1.022684	0.991644	-0.356927	-0.830240	0.774017	-0.112203	-0.790145	0.814777	-0.123169	-0.795276	0.743437	-0.116912	-0.756617	0.785700	-0.124962	-0.606675	0.575040	-0.176645	-0.603437	0.577349	-0.290250	-0.708778	0.468650	-0.154630	-0.656845	0.452384	-0.164799	-0.729298	0.424193	-0.155889	-0.677923	0.407353	-0.164026	-0.789453	0.192598	-0.193425	-0.769328	0.197214	-0.287401	-0.662599	0.127811	-0.154177	-0.652744	0.128134	-0.266151	-0.611858	0.156275	-0.214465	-0.861135	0.142562	-0.253817	-0.962492	0.730766	-0.492549	-0.910722	0.722822	-0.486424	-0.980870	0.694630	-0.485844	-0.927184	0.681759	-0.481370	-1.001673	0.457755	-0.435489	-0.993235	0.452666	-0.326602	-1.139301	0.413884	-0.457464	-1.103572	0.374920	-0.450071	-1.181624	0.381600	-0.453475	-1.143016	0.344616	-0.445988	-1.349995	0.211099	-0.412159	-1.314929	0.189815	-0.325538	-1.341251	0.066797	-0.448826	-1.293307	0.055789	-0.340615	-1.265182	0.051597	-0.401211	-1.409312	0.231065	-0.358669	-0.829138	1.454551	-0.154324	-0.749637	1.412704	-0.472074	
43	0.2100	-0.833852	0.985520	-0.154303	-0.825157	0.971560	-0.439149	-1.012991	0.980525	-0.262819	-1.001782	0.994752	-0.357171	-0.812150	0.775171	-0.112216	-0.771886	0.815801	-0.122356	-0.777401	0.744417	-0.117045	-0.738626	0.786486	-0.124323	-0.589045	0.575830	-0.176799	-0.585301	0.578447	-0.290111	-0.687167	0.465138	-0.155204	-0.634536	0.451189	-0.165688	-0.705717	0.419724	-0.156804	-0.653590	0.405171	-0.165100	-0.755570	0.184988	-0.195820	-0.735687	0.190961	-0.289765	-0.626017	0.124139	-0.157825	-0.616490	0.125989	-0.269778	-0.576253	0.155223	-0.217956	-0.825763	0.132892	-0.256355	-0.942257	0.733989	-0.492551	-0.890591	0.725617	-0.485993	-0.960971	0.698025	-0.486070	-0.907335	0.684611	-0.481126	-0.983845	0.460306	-0.436280	-0.976170	0.454913	-0.326963	-1.122871	0.419427	-0.458898	-1.087967	0.379805	-0.451430	-1.165779	0.387964	-0.454985	-1.127978	0.350218	-0.447515	-1.336940	0.220477	-0.414205	-1.302821	0.198474	-0.327651	-1.335105	0.073698	-0.448471	-1.287626	0.061720	-0.340420	-1.260587	0.054385	-0.400840	-1.394673	0.243720	-0.360987	-0.813945	1.457471	-0.153665	-0.731297	1.416487	-0.469870	
44	0.2150	-0.815255	0.988008	-0.153195	-0.803465	0.974674	-0.437081	-0.993058	0.983020	-0.263179	-0.981007	0.997752	-0.357319	-0.794268	0.775852	-0.112201	-0.753746	0.816238	-0.121460	-0.759761	0.744850	-0.117160	-0.720784	0.786610	-0.123625	-0.571801	0.575842	-0.177099	-0.567718	0.578814	-0.290107	-0.665909	0.461231	-0.155821	-0.612734	0.449539	-0.166700	-0.682542	0.414979	-0.157759	-0.629810	0.402654	-0.166289	-0.722505	0.177663	-0.198218	-0.702993	0.184956	-0.292148	-0.590563	0.120450	-0.161597	-0.581520	0.123816	-0.273524	-0.541817	0.153985	-0.221622	-0.791343	0.123847	-0.258828	-0.921720	0.736974	-0.492558	-0.870168	0.728265	-0.485563	-0.940674	0.701134	-0.486290	-0.887076	0.687287	-0.480887	-0.965014	0.462555	-0.437118	-0.958080	0.456834	-0.327374	-1.105378	0.424756	-0.460334	-1.071361	0.384480	-0.452772	-1.148882	0.394202	-0.456490	-1.111954	0.355699	-0.449008	-1.322964	0.230190	-0.416165	-1.289838	0.207486	-0.329659	-1.327989	0.081309	-0.448117	-1.281047	0.068371	-0.340215	-1.255102	0.057808	-0.400442	-1.379087	0.256626	-0.363245	-0.798640	1.460040	-0.153019	-0.713126	1.420036	-0.467743	
45	0.2200	-0.796704	0.990136	-0.152112	-0.781994	0.977682	-0.435058	-0.973204	0.985356	-0.263460	-0.960364	1.000606	-0.357379	-0.776565	0.776065	-0.112157	-0.735701	0.816097	-0.120490	-0.742323	0.744747	-0.117261	-0.703061	0.786088	-0.122880	-0.554884	0.575112	-0.177553	-0.550636	0.578480	-0.290248	-0.644995	0.456973	-0.156491	-0.591422	0.447459	-0.167840	-0.659786	0.410002	-0.158763	-0.606587	0.399821	-0.167596	-0.690368	0.170644	-0.200614	-0.671343	0.179196	-0.294546	-0.556347	0.116724	-0.165466	-0.547928	0.121565	-0.277360	-0.508636	0.152516	-0.225437	-0.758008	0.115449	-0.261230	-0.900871	0.739682	-0.492572	-0.849439	0.730733	-0.485136	-0.919967	0.703914	-0.486507	-0.866397	0.689751	-0.480654	-0.945183	0.464466	-0.438002	-0.938960	0.458387	-0.327838	-1.086812	0.429829	-0.461760	-1.053746	0.388902	-0.454093	-1.130926	0.400273	-0.457977	-1.094932	0.361018	-0.450460	-1.308051	0.240200	-0.418024	-1.275951	0.216816	-0.331549	-1.319832	0.089607	-0.447775	-1.273492	0.075722	-0.340010	-1.248642	0.061890	-0.400032	-1.362547	0.269721	-0.365423	-0.783212	1.462245	-0.152374	-0.695123	1.423332	-0.465699	
46	0.2250	-0.778187	0.991893	-0.151063	-0.760746	0.980556	-0.433099	-0.953429	0.987500	-0.263665	-0.939855	1.003273	-0.357360	-0.759011	0.775819	-0.112088	-0.717727	0.815397	-0.119458	-0.725051	0.744123	-0.117351	-0.685427	0.784945	-0.122100	-0.538236	0.573685	-0.178165	-0.533998	0.577484	-0.290538	-0.624423	0.452416	-0.157222	-0.570585	0.444977	-0.169106	-0.637464	0.404836	-0.159819	-0.583925	0.396699	-0.169021	-0.659268	0.163945	-0.203002	-0.640832	0.173679	-0.296953	-0.523477	0.112950	-0.169396	-0.515806	0.119192	-0.281254	-0.476793	0.150776	-0.229370	-0.725888	0.107711	-0.263562	-0.879696	0.742082	-0.492596	-0.828392	0.732990	-0.484712	-0.898840	0.706331	-0.486726	-0.845287	0.691973	-0.480429	-0.924361	0.466011	-0.438929	-0.918810	0.459542	-0.328355	-1.067171	0.434612	-0.463167	-1.035116	0.393037	-0.455385	-1.111902	0.406143	-0.459436	-1.076905	0.366142	-0.451865	-1.292179	0.250465	-0.419774	-1.261129	0.226419	-0.333312	-1.310565	0.098551	-0.447458	-1.264882	0.083740	-0.339819	-1.241122	0.066640	-0.399630	-1.345044	0.282940	-0.367500	-0.767651	1.464078	-0.151716	-0.677280	1.426357	-0.463742	
47	0.2300	-0.759690	0.993271	-0.150050	-0.739719	0.983266	-0.431221	-0.933729	0.989423	-0.263800	-0.919475	1.005715	-0.357271	-0.741572	0.775131	-0.111996	-0.699800	0.814164	-0.118377	-0.707907	0.743003	-0.117434	-0.667854	0.783213	-0.121296	-0.521804	0.571614	-0.178939	-0.517749	0.575871	-0.290981	-0.604193	0.447613	-0.158020	-0.550213	0.442128	-0.170495	-0.615595	0.399531	-0.160933	-0.561835	0.393316	-0.170561	-0.629311	0.157583	-0.205378	-0.611550	0.168400	-0.299364	-0.492057	0.109115	-0.173356	-0.485236	0.116657	-0.285174	-0.446369	0.148730	-0.233388	-0.695105	0.100645	-0.265824	-0.858183	0.744148	-0.492632	-0.807012	0.735013	-0.484292	-0.877281	0.708358	-0.486948	-0.823736	0.693930	-0.480212	-0.902558	0.467175	-0.439897	-0.897633	0.460284	-0.328926	-1.046454	0.439082	-0.464546	-1.015469	0.396861	-0.456646	-1.091805	0.411785	-0.460859	-1.057864	0.371043	-0.453219	-1.275327	0.260938	-0.421405	-1.245339	0.236249	-0.334944	-1.300123	0.108092	-0.447179	-1.255136	0.092375	-0.339654	-1.232458	0.072053	-0.399254	-1.326569	0.296217	-0.369462	-0.751944	1.465534	-0.151033	-0.659590	1.429097	-0.461875	
48	0.2350	-0.741200	0.994271	-0.149076	-0.718903	0.985784	-0.429437	-0.914098	0.991097	-0.263872	-0.899217	1.007894	-0.357123	-0.724216	0.774023	-0.111883	-0.681894	0.812428	-0.117261	-0.690856	0.741416	-0.117513	-0.650312	0.780936	-0.120485	-0.505539	0.568955	-0.179871	-0.501830	0.573691	-0.291572	-0.584312	0.442622	-0.158892	-0.530297	0.438948	-0.172001	-0.594201	0.394136	-0.162110	-0.540325	0.389702	-0.172211	-0.600599	0.151570	-0.207740	-0.583580	0.163353	-0.301775	-0.462184	0.105215	-0.177308	-0.456293	0.113925	-0.289089	-0.417440	0.146347	-0.237455	-0.665771	0.094252	-0.268018	-0.836317	0.745860	-0.492680	-0.785286	0.736786	-0.483876	-0.855275	0.709977	-0.487178	-0.801734	0.695606	-0.480006	-0.879788	0.467955	-0.440903	-0.875434	0.460608	-0.329550	-1.024662	0.443223	-0.465888	-0.994800	0.400358	-0.457874	-1.070631	0.417178	-0.462238	-1.037802	0.375702	-0.454519	-1.257471	0.271565	-0.422917	-1.228545	0.246251	-0.336444	-1.288438	0.118164	-0.446952	-1.244176	0.101561	-0.339532	-1.222566	0.078110	-0.398926	-1.307110	0.309481	-0.371297	-0.736076	1.466610	-0.150312	-0.642040	1.431539	-0.460101	
49	0.2400	-0.722699	0.994895	-0.148142	-0.698281	0.988084	-0.427761	-0.894525	0.992495	-0.263889	-0.879070	1.009773	-0.356929	-0.706908	0.772523	-0.111752	-0.663987	0.810229	-0.116127	-0.673859	0.739399	-0.117593	-0.632775	0.778159	-0.119680	-0.489399	0.565770	-0.180956	-0.486185	0.571001	-0.292307	-0.564790	0.437500	-0.159842	-0.510829	0.435477	-0.173615	-0.573309	0.388701	-0.163350	-0.519409	0.385891	-0.173961	-0.573225	0.145916	-0.210082	-0.556998	0.158535	-0.304181	-0.433947	0.101246	-0.181217	-0.429042	0.110970	-0.292964	-0.390073	0.143610	-0.241534	-0.637988	0.088530	-0.270145	-0.814082	0.747208	-0.492743	-0.763199	0.738299	-0.483465	-0.832813	0.711180	-0.487418	-0.779270	0.696992	-0.479812	-0.856064	0.468361	-0.441943	-0.852221	0.460525	-0.330225	-1.001799	0.447030	-0.467188	-0.973108	0.403522	-0.459069	-1.048381	0.422308	-0.463566	-1.016711	0.380105	-0.455767	-1.238586	0.282290	-0.424307	-1.210709	0.256366	-0.337814	-1.275449	0.128692	-0.446791	-1.231925	0.111223	-0.339469	-1.211363	0.084774	-0.398671	-1.286655	0.322659	-0.372994	-0.720033	1.467311	-0.149540	-0.624615	1.433674	-0.458421	
50	0.2450	-0.704170	0.995151	-0.147245	-0.677834	0.990143	-0.426199	-0.875000	0.993596	-0.263857	-0.859019	1.011321	-0.356699	-0.689612	0.770663	-0.111608	-0.646053	0.807611	-0.114991	-0.656882	0.736994	-0.117678	-0.615217	0.774937	-0.118895	-0.473347	0.562125	-0.182184	-0.470761	0.567858	-0.293176	-0.545639	0.432305	-0.160871	-0.491808	0.431754	-0.175324	-0.552943	0.383278	-0.164656	-0.499099	0.381915	-0.175802	-0.547275	0.140631	-0.212401	-0.531867	0.153941	-0.306576	-0.407424	0.097214	-0.185048	-0.403535	0.107775	-0.296768	-0.364327	0.140504	-0.245590	-0.611842	0.083470	-0.272209	-0.791466	0.748187	-0.492820	-0.740736	0.739549	-0.483057	-0.809881	0.711964	-0.487671	-0.756334	0.698089	-0.479631	-0.831402	0.468413	-0.443013	-0.828004	0.460059	-0.330950	-0.977870	0.450504	-0.468438	-0.950389	0.406356	-0.460231	-1.025053	0.427168	-0.464838	-0.994585	0.384247	-0.456965	-1.218645	0.293050	-0.425582	-1.191792	0.266530	-0.339061	-1.261095	0.139586	-0.446712	-1.218307	0.121269	-0.339483	-1.198770	0.091993	-0.398512	-1.265190	0.335678	-0.374550	-0.703799	1.467641	-0.148704	-0.607296	1.435497	-0.456837	
51	0.2500	-0.685595	0.995052	-0.146382	-0.657536	0.991941	-0.424760	-0.855507	0.994381	-0.263786	-0.839047	1.012508	-0.356444	-0.672298	0.768479	-0.111453	-0.628072	0.804623	-0.113869	-0.639890	0.734244	-0.117770	-0.597614	0.771327	-0.118146	-0.457355	0.558085	-0.183544	-0.455508	0.564326	-0.294167	-0.526875	0.427093	-0.161980	-0.473233	0.427822	-0.177114	-0.533131	0.377914	-0.166025	-0.479408	0.377808	-0.177721	-0.522820	0.135721	-0.214691	-0.508242	0.149568	-0.308955	-0.382680	0.093127	-0.188766	-0.379813	0.104330	-0.300470	-0.340251	0.137030	-0.249586	-0.587405	0.079061	-0.274212	-0.768453	0.748802	-0.492912	-0.717884	0.740541	-0.482655	-0.786469	0.712340	-0.487939	-0.732919	0.698905	-0.479465	-0.805820	0.468142	-0.444111	-0.802795	0.459246	-0.331718	-0.952885	0.453656	-0.469636	-0.926644	0.408873	-0.461362	-1.000651	0.431756	-0.466052	-0.971417	0.388126	-0.458115	-1.197623	0.303780	-0.426747	-1.171758	0.276674	-0.340195	-1.245321	0.150750	-0.446730	-1.203255	0.131600	-0.339593	-1.184712	0.099701	-0.398474	-1.242702	0.348463	-0.375963	-0.687357	1.467612	-0.147793	-0.590062	1.437005	-0.455349	
52	0.2550	-0.666956	0.994615	-0.145546	-0.637359	0.993460	-0.423445	-0.836031	0.994836	-0.263681	-0.819133	1.013312	-0.356176	-0.654932	0.766012	-0.111291	-0.610023	0.801316	-0.112776	-0.622852	0.731200	-0.117872	-0.579945	0.767389	-0.117446	-0.441399	0.553715	-0.185020	-0.440379	0.560464	-0.295265	-0.508514	0.421918	-0.163167	-0.455103	0.423721	-0.178968	-0.513899	0.372655	-0.167457	-0.460350	0.373606	-0.179701	-0.499921	0.131190	-0.216949	-0.486164	0.145414	-0.311310	-0.359762	0.088997	-0.192340	-0.357901	0.100636	-0.304042	-0.317882	0.133194	-0.253488	-0.564730	0.075282	-0.276158	-0.745034	0.749066	-0.493017	-0.694632	0.741285	-0.482256	-0.762569	0.712324	-0.488223	-0.709019	0.699456	-0.479314	-0.779334	0.467589	-0.445229	-0.776608	0.458133	-0.332527	-0.926853	0.456504	-0.470778	-0.901872	0.411092	-0.462464	-0.975180	0.436076	-0.467205	-0.947204	0.391749	-0.459224	-1.175497	0.314412	-0.427813	-1.150571	0.286729	-0.341230	-1.228076	0.162077	-0.446860	-1.186704	0.142106	-0.339816	-1.169120	0.107818	-0.398580	-1.219181	0.360939	-0.377235	-0.670690	1.467237	-0.146797	-0.572891	1.438202	-0.453957	
53	0.2600	-0.648236	0.993861	-0.144730	-0.617273	0.994687	-0.422255	-0.816555	0.994952	-0.263549	-0.799256	1.013717	-0.355904	-0.637487	0.763302	-0.111126	-0.591889	0.797745	-0.111729	-0.605741	0.727911	-0.117987	-0.562195	0.763187	-0.116806	-0.425465	0.549081	-0.186595	-0.425334	0.556335	-0.296452	-0.490574	0.416828	-0.164426	-0.437424	0.419491	-0.180867	-0.495273	0.367544	-0.168945	-0.441936	0.369339	-0.181728	-0.478622	0.127041	-0.219168	-0.465660	0.141479	-0.313635	-0.338705	0.084843	-0.195740	-0.337810	0.096705	-0.307458	-0.297243	0.129014	-0.257263	-0.543854	0.072111	-0.278046	-0.721200	0.748999	-0.493134	-0.670973	0.741801	-0.481861	-0.738177	0.711944	-0.488524	-0.684633	0.699764	-0.479180	-0.751966	0.466804	-0.446364	-0.749462	0.456776	-0.333369	-0.899790	0.459071	-0.471861	-0.876077	0.413037	-0.463542	-0.948651	0.440137	-0.468298	-0.921944	0.395124	-0.460296	-1.152245	0.324874	-0.428792	-1.128201	0.296621	-0.342179	-1.209318	0.173456	-0.447117	-1.168599	0.152673	-0.340169	-1.151932	0.116253	-0.398852	-1.194619	0.373029	-0.378372	-0.653784	1.466535	-0.145707	-0.555760	1.439093	-0.452660	
54	0.2650	-0.629419	0.992812	-0.143926	-0.597247	0.995612	-0.421189	-0.797062	0.994728	-0.263398	-0.779395	1.013711	-0.355637	-0.619939	0.760395	-0.110960	-0.573656	0.793964	-0.110740	-0.588534	0.724429	-0.118116	-0.544348	0.758783	-0.116237	-0.409544	0.544244	-0.188250	-0.410339	0.551998	-0.297709	-0.473075	0.411870	-0.165753	-0.420200	0.415170	-0.182794	-0.477275	0.362619	-0.170482	-0.424179	0.365041	-0.183782	-0.458953	0.123274	-0.221343	-0.446746	0.137763	-0.315922	-0.319522	0.080686	-0.198940	-0.319535	0.092556	-0.310695	-0.278343	0.124518	-0.260881	-0.524792	0.069520	-0.279880	-0.696947	0.748627	-0.493262	-0.646904	0.742113	-0.481470	-0.713293	0.711234	-0.488842	-0.659761	0.699859	-0.479064	-0.723738	0.465844	-0.447508	-0.721378	0.455239	-0.334236	-0.871715	0.461386	-0.472886	-0.849266	0.414742	-0.464598	-0.921078	0.443951	-0.469332	-0.895640	0.398266	-0.461336	-1.127853	0.335093	-0.429699	-1.104624	0.306276	-0.343060	-1.189009	0.184770	-0.447515	-1.148896	0.163183	-0.340669	-1.133094	0.124904	-0.399310	-1.169015	0.384660	-0.379386	-0.636623	1.465527	-0.144516	-0.538645	1.439688	-0.451457	
55	0.2700	-0.610492	0.991498	-0.143126	-0.577251	0.996232	-0.420244	-0.777537	0.994166	-0.263232	-0.759530	1.013293	-0.355381	-0.602270	0.757336	-0.110796	-0.555315	0.790030	-0.109821	-0.571215	0.720806	-0.118258	-0.526399	0.754241	-0.115747	-0.393637	0.539265	-0.189964	-0.395368	0.547510	-0.299016	-0.456034	0.407083	-0.167137	-0.403437	0.410794	-0.184727	-0.459926	0.357913	-0.172061	-0.407089	0.360741	-0.185846	-0.440925	0.119887	-0.223467	-0.429420	0.134269	-0.318163	-0.302210	0.076553	-0.201917	-0.303055	0.088220	-0.313735	-0.261177	0.119743	-0.264316	-0.507541	0.067478	-0.281658	-0.672278	0.747985	-0.493397	-0.622427	0.742250	-0.481082	-0.687923	0.710234	-0.489175	-0.634413	0.699776	-0.478965	-0.694680	0.464769	-0.448656	-0.692384	0.453594	-0.335120	-0.842654	0.463480	-0.473853	-0.821451	0.416240	-0.465634	-0.892483	0.447532	-0.470307	-0.868300	0.401192	-0.462352	-1.102313	0.344998	-0.430550	-1.079825	0.315622	-0.343891	-1.167127	0.195902	-0.448065	-1.127563	0.173516	-0.341329	-1.112566	0.133663	-0.399971	-1.142375	0.395758	-0.380287	-0.619198	1.464240	-0.143219	-0.521524	1.440002	-0.450344	
56	0.2750	-0.591445	0.989946	-0.142320	-0.557258	0.996547	-0.419413	-0.757966	0.993276	-0.263057	-0.739643	1.012466	-0.355143	-0.584466	0.754168	-0.110636	-0.536862	0.785997	-0.108982	-0.553773	0.717095	-0.118414	-0.508343	0.749621	-0.115343	-0.377752	0.534196	-0.191716	-0.380404	0.542926	-0.300352	-0.439469	0.402501	-0.168570	-0.387142	0.406398	-0.186648	-0.443241	0.353456	-0.173671	-0.390671	0.356467	-0.187901	-0.424535	0.116874	-0.225533	-0.413668	0.131001	-0.320349	-0.286745	0.072470	-0.204655	-0.288336	0.083731	-0.316562	-0.245725	0.114734	-0.267546	-0.492079	0.065951	-0.283379	-0.647201	0.747110	-0.493538	-0.597551	0.742247	-0.480696	-0.662079	0.708990	-0.489521	-0.608603	0.699556	-0.478884	-0.664826	0.463647	-0.449798	-0.662514	0.451914	-0.336012	-0.812640	0.465389	-0.474762	-0.792652	0.417571	-0.466654	-0.862895	0.450898	-0.471228	-0.839943	0.403922	-0.463349	-1.075628	0.354515	-0.431360	-1.053802	0.324587	-0.344688	-1.143657	0.206735	-0.448779	-1.104583	0.183555	-0.342161	-1.090322	0.142417	-0.400846	-1.114714	0.406254	-0.381093	-0.601499	1.462701	-0.141812	-0.504376	1.440055	-0.449320	
57	0.2800	-0.572275	0.988189	-0.141500	-0.537246	0.996560	-0.418689	-0.738339	0.992076	-0.262875	-0.719719	1.011245	-0.354926	-0.566524	0.750938	-0.110482	-0.518300	0.781919	-0.108229	-0.536206	0.713345	-0.118581	-0.490187	0.744980	-0.115027	-0.361904	0.529090	-0.193485	-0.365437	0.538295	-0.301697	-0.423396	0.398151	-0.170037	-0.371324	0.402012	-0.188536	-0.427235	0.349268	-0.175299	-0.374933	0.352245	-0.189929	-0.409761	0.114231	-0.227533	-0.399461	0.127964	-0.322472	-0.273086	0.068468	-0.207138	-0.275326	0.079135	-0.319164	-0.231951	0.109543	-0.270551	-0.478365	0.064903	-0.285042	-0.621735	0.746047	-0.493680	-0.572293	0.742141	-0.480311	-0.635783	0.707554	-0.489877	-0.582353	0.699241	-0.478821	-0.634215	0.462544	-0.450927	-0.631811	0.450276	-0.336902	-0.781717	0.467147	-0.475614	-0.762898	0.418774	-0.467658	-0.832355	0.454068	-0.472097	-0.810594	0.406477	-0.464331	-1.047814	0.363577	-0.432147	-1.026565	0.333105	-0.345470	-1.118604	0.217154	-0.449665	-1.079955	0.193188	-0.343173	-1.066351	0.151054	-0.401945	-1.086060	0.416083	-0.381821	-0.583524	1.460942	-0.140295	-0.487186	1.439867	-0.448381	
58	0.2850	-0.552981	0.986259	-0.140657	-0.517196	0.996281	-0.418063	-0.718651	0.990587	-0.262692	-0.699750	1.009648	-0.354734	-0.548447	0.747687	-0.110334	-0.499638	0.777844	-0.107568	-0.518520	0.709603	-0.118756	-0.471942	0.740373	-0.114800	-0.346115	0.523991	-0.195248	-0.350471	0.533661	-0.303030	-0.407829	0.394053	-0.171527	-0.355992	0.397664	-0.190374	-0.411915	0.345367	-0.176933	-0.359877	0.348096	-0.191911	-0.396565	0.111946	-0.229461	-0.386756	0.125162	-0.324522	-0.261173	0.064576	-0.209360	-0.263959	0.074479	-0.321536	-0.219805	0.104226	-0.273319	-0.466339	0.064293	-0.286642	-0.595905	0.744842	-0.493819	-0.546681	0.741972	-0.479928	-0.609066	0.705980	-0.490241	-0.555696	0.698877	-0.478774	-0.602901	0.461525	-0.452034	-0.600328	0.448753	-0.337778	-0.749938	0.468791	-0.476411	-0.732231	0.419889	-0.468647	-0.800915	0.457059	-0.472918	-0.780292	0.408878	-0.465303	-1.018900	0.372117	-0.432928	-0.998142	0.341112	-0.346253	-1.091987	0.227053	-0.450727	-1.053702	0.202309	-0.344372	-1.040663	0.159460	-0.403270	-1.056456	0.425184	-0.382490	-0.565276	1.458998	-0.138670	-0.469942	1.439465	-0.447523	
59	0.2900	-0.533570	0.984192	-0.139785	-0.497101	0.995726	-0.417526	-0.698902	0.988838	-0.262508	-0.679734	1.007706	-0.354566	-0.530247	0.744458	-0.110193	-0.480893	0.773821	-0.106998	-0.500730	0.705915	-0.118938	-0.453626	0.735850	-0.114659	-0.330415	0.518941	-0.196984	-0.335514	0.529065	-0.304333	-0.392782	0.390222	-0.173024	-0.341154	0.393378	-0.192146	-0.397287	0.341762	-0.178559	-0.345503	0.344042	-0.193832	-0.384894	0.110009	-0.231307	-0.375498	0.122600	-0.326490	-0.250930	0.060826	-0.211317	-0.254158	0.069816	-0.323674	-0.209223	0.098847	-0.275839	-0.455927	0.064081	-0.288178	-0.569750	0.743543	-0.493953	-0.520750	0.741781	-0.479544	-0.581971	0.704323	-0.490606	-0.528674	0.698510	-0.478742	-0.570944	0.460657	-0.453109	-0.568129	0.447418	-0.338629	-0.717371	0.470356	-0.477156	-0.700705	0.420955	-0.469620	-0.768640	0.459891	-0.473695	-0.749090	0.411147	-0.466266	-0.988934	0.380074	-0.433716	-0.968580	0.348552	-0.347052	-1.063846	0.236330	-0.451970	-1.025864	0.210823	-0.345758	-1.013290	0.167528	-0.404819	-1.025957	0.433505	-0.383120	-0.546767	1.456903	-0.136941	-0.452640	1.438879	-0.446741	
60	0.2950	-0.514060	0.982022	-0.138876	-0.476960	0.994912	-0.417068	-0.679100	0.986864	-0.262326	-0.659676	1.005451	-0.354422	-0.511947	0.741288	-0.110059	-0.462090	0.769892	-0.106521	-0.482861	0.702321	-0.119120	-0.435268	0.731454	-0.114601	-0.314840	0.513973	-0.198675	-0.320589	0.524540	-0.305589	-0.378265	0.386665	-0.174514	-0.326821	0.389176	-0.193836	-0.383350	0.338459	-0.180161	-0.331810	0.340100	-0.195677	-0.374680	0.108405	-0.233066	-0.365618	0.120284	-0.328367	-0.242266	0.057246	-0.213009	-0.245833	0.065200	-0.325579	-0.200129	0.093469	-0.278107	-0.447037	0.064227	-0.289643	-0.543319	0.742199	-0.494076	-0.494550	0.741609	-0.479160	-0.554552	0.702638	-0.490969	-0.501341	0.698186	-0.478724	-0.538419	0.459997	-0.454144	-0.535294	0.446339	-0.339445	-0.684098	0.471873	-0.477849	-0.668389	0.422010	-0.470575	-0.735611	0.462581	-0.474431	-0.717058	0.413305	-0.467222	-0.957980	0.387396	-0.434527	-0.937946	0.355377	-0.347881	-1.034243	0.244897	-0.453392	-0.996510	0.218646	-0.347329	-0.984289	0.175158	-0.406586	-0.994641	0.441000	-0.383732	-0.528014	1.454697	-0.135115	-0.435282	1.438139	-0.446030	
61	0.3000	-0.494473	0.979783	-0.137927	-0.456783	0.993862	-0.416678	-0.659262	0.984701	-0.262146	-0.639592	1.002926	-0.354302	-0.493579	0.738213	-0.109929	-0.443264	0.766093	-0.106131	-0.464947	0.698857	-0.119300	-0.416903	0.727225	-0.114617	-0.299431	0.509117	-0.200301	-0.305726	0.520116	-0.306782	-0.364290	0.383384	-0.175981	-0.313003	0.385075	-0.195432	-0.370102	0.335457	-0.181725	-0.318791	0.336285	-0.197433	-0.365842	0.107119	-0.234728	-0.357041	0.118217	-0.330146	-0.235076	0.053863	-0.214442	-0.238882	0.060685	-0.327256	-0.192434	0.088155	-0.280122	-0.439569	0.064687	-0.291033	-0.516674	0.740859	-0.494185	-0.468141	0.741494	-0.478774	-0.526877	0.700981	-0.491324	-0.473766	0.697947	-0.478718	-0.505413	0.459600	-0.455129	-0.501915	0.445573	-0.340215	-0.650215	0.473373	-0.478491	-0.635370	0.423086	-0.471508	-0.701926	0.465146	-0.475131	-0.684282	0.415371	-0.468171	-0.926126	0.394036	-0.435371	-0.906330	0.361545	-0.348749	-1.003263	0.252678	-0.454991	-0.965731	0.225707	-0.349078	-0.953742	0.182262	-0.408559	-0.962599	0.447631	-0.384344	-0.509046	1.452417	-0.133201	-0.417880	1.437277	-0.445386	
62	0.3050	-0.474843	0.977510	-0.136935	-0.436591	0.992603	-0.416346	-0.639412	0.982392	-0.261970	-0.619506	1.000177	-0.354202	-0.475186	0.735264	-0.109804	-0.424457	0.762459	-0.105824	-0.447031	0.695556	-0.119471	-0.398576	0.723193	-0.114700	-0.284236	0.504399	-0.201848	-0.290965	0.515817	-0.307899	-0.350864	0.380374	-0.177410	-0.299710	0.381093	-0.196923	-0.357536	0.332748	-0.183237	-0.306442	0.332608	-0.199089	-0.358292	0.106131	-0.236289	-0.349679	0.116400	-0.331818	-0.229246	0.050700	-0.215625	-0.233198	0.056322	-0.328712	-0.186041	0.082969	-0.281888	-0.433409	0.065421	-0.292344	-0.489889	0.739569	-0.494276	-0.441597	0.741473	-0.478386	-0.499024	0.699401	-0.491667	-0.446026	0.697833	-0.478720	-0.472031	0.459512	-0.456055	-0.468102	0.445174	-0.340928	-0.615837	0.474882	-0.479086	-0.601753	0.424212	-0.472415	-0.667700	0.467599	-0.475797	-0.650867	0.417364	-0.469111	-0.893479	0.399958	-0.436258	-0.873843	0.367027	-0.349665	-0.971018	0.259609	-0.456758	-0.933646	0.231951	-0.350995	-0.921762	0.188760	-0.410719	-0.929944	0.453375	-0.384975	-0.489903	1.450100	-0.131212	-0.400454	1.436328	-0.444802	
63	0.3100	-0.455213	0.975235	-0.135900	-0.416418	0.991163	-0.416061	-0.619586	0.979981	-0.261797	-0.599453	0.997252	-0.354118	-0.456820	0.732469	-0.109682	-0.405721	0.759014	-0.105591	-0.429166	0.692443	-0.119629	-0.380339	0.719385	-0.114838	-0.269305	0.499839	-0.203300	-0.276352	0.511662	-0.308930	-0.337995	0.377628	-0.178788	-0.286952	0.377240	-0.198302	-0.345644	0.330323	-0.184683	-0.294754	0.329080	-0.200635	-0.351928	0.105421	-0.237741	-0.343440	0.114835	-0.333378	-0.224653	0.047778	-0.216573	-0.228667	0.052160	-0.329957	-0.180844	0.077968	-0.283412	-0.428439	0.066388	-0.293571	-0.463052	0.738370	-0.494346	-0.415003	0.741578	-0.477996	-0.471088	0.697944	-0.491990	-0.418214	0.697879	-0.478729	-0.438391	0.459768	-0.456912	-0.433980	0.445179	-0.341574	-0.581095	0.476419	-0.479632	-0.567661	0.425414	-0.473291	-0.633065	0.469952	-0.476431	-0.616938	0.419296	-0.470038	-0.860170	0.405136	-0.437194	-0.840621	0.371802	-0.350633	-0.937645	0.265645	-0.458683	-0.900404	0.237341	-0.353065	-0.888488	0.194591	-0.413046	-0.896810	0.458215	-0.385640	-0.470632	1.447784	-0.129161	-0.383035	1.435325	-0.444274	
64	0.3150	-0.435635	0.972990	-0.134822	-0.396308	0.989576	-0.415814	-0.599831	0.977513	-0.261627	-0.579480	0.994206	-0.354047	-0.438543	0.729850	-0.109560	-0.387117	0.755782	-0.105423	-0.411416	0.689540	-0.119770	-0.362253	0.715821	-0.115019	-0.254695	0.495453	-0.204646	-0.261944	0.507666	-0.309866	-0.325690	0.375130	-0.180101	-0.274741	0.373528	-0.199564	-0.334414	0.328167	-0.186052	-0.283718	0.325707	-0.202067	-0.346647	0.104967	-0.239081	-0.338225	0.113518	-0.334819	-0.221168	0.045111	-0.217301	-0.225171	0.048243	-0.331005	-0.176733	0.073208	-0.284704	-0.424533	0.067547	-0.294708	-0.436263	0.737301	-0.494392	-0.388457	0.741837	-0.477602	-0.443175	0.696653	-0.492291	-0.390435	0.698115	-0.478741	-0.404627	0.460396	-0.457694	-0.399691	0.445619	-0.342146	-0.546138	0.478002	-0.480132	-0.533237	0.426709	-0.474128	-0.598172	0.472216	-0.477035	-0.582641	0.421182	-0.470949	-0.826349	0.409555	-0.438184	-0.806824	0.375862	-0.351655	-0.903309	0.270755	-0.460753	-0.866177	0.241853	-0.355271	-0.854090	0.199707	-0.415514	-0.863346	0.462150	-0.386354	-0.451296	1.445504	-0.127064	-0.365665	1.434301	-0.443794	
65	0.3200	-0.416173	0.970803	-0.133706	-0.376318	0.987873	-0.415595	-0.580201	0.975033	-0.261459	-0.559643	0.991090	-0.353985	-0.420426	0.727426	-0.109437	-0.368711	0.752777	-0.105310	-0.393849	0.686863	-0.119889	-0.344385	0.712514	-0.115233	-0.240461	0.491252	-0.205878	-0.247800	0.503839	-0.310704	-0.313954	0.372867	-0.181337	-0.263087	0.369964	-0.200707	-0.323832	0.326262	-0.187331	-0.273322	0.322497	-0.203380	-0.342338	0.104746	-0.240305	-0.333933	0.112444	-0.336139	-0.218659	0.042712	-0.217829	-0.222589	0.044607	-0.331871	-0.173592	0.068734	-0.285779	-0.421565	0.068861	-0.295754	-0.409633	0.736394	-0.494411	-0.362069	0.742269	-0.477206	-0.415404	0.695560	-0.492562	-0.362805	0.698561	-0.478755	-0.370888	0.461412	-0.458394	-0.365392	0.446508	-0.342637	-0.511128	0.479641	-0.480585	-0.498643	0.428110	-0.474922	-0.563187	0.474398	-0.477612	-0.548137	0.423029	-0.471838	-0.792190	0.413211	-0.439227	-0.772629	0.379207	-0.352730	-0.868201	0.274929	-0.462949	-0.831165	0.245484	-0.357590	-0.818768	0.204076	-0.418095	-0.829721	0.465189	-0.387127	-0.431965	1.443294	-0.124938	-0.348394	1.433287	-0.443359	
66	0.3250	-0.396899	0.968700	-0.132556	-0.356518	0.986089	-0.415397	-0.560763	0.972583	-0.261294	-0.540011	0.987959	-0.353927	-0.402547	0.725210	-0.109311	-0.350579	0.750010	-0.105241	-0.376541	0.684422	-0.119983	-0.326809	0.709472	-0.115465	-0.226661	0.487247	-0.206988	-0.233985	0.500188	-0.311440	-0.302793	0.370818	-0.182487	-0.252001	0.366556	-0.201729	-0.313886	0.324587	-0.188513	-0.263555	0.319451	-0.204572	-0.338891	0.104732	-0.241410	-0.330462	0.111606	-0.337334	-0.216995	0.040584	-0.218176	-0.220802	0.041282	-0.332570	-0.171307	0.064588	-0.286650	-0.419410	0.070294	-0.296705	-0.383284	0.735674	-0.494403	-0.335958	0.742891	-0.476807	-0.387902	0.694692	-0.492802	-0.335452	0.699234	-0.478767	-0.337338	0.462818	-0.459006	-0.331255	0.447851	-0.343041	-0.476247	0.481342	-0.480993	-0.464055	0.429624	-0.475664	-0.528294	0.476502	-0.478160	-0.513608	0.424845	-0.472699	-0.757883	0.416113	-0.440321	-0.738238	0.381851	-0.353854	-0.832535	0.278171	-0.465251	-0.795594	0.248246	-0.359999	-0.782747	0.207684	-0.420756	-0.796119	0.467356	-0.387965	-0.412719	1.441184	-0.122801	-0.331284	1.432311	-0.442962	
67	0.3300	-0.377891	0.966705	-0.131380	-0.336985	0.984258	-0.415214	-0.541593	0.970206	-0.261130	-0.520659	0.984863	-0.353869	-0.384989	0.723211	-0.109182	-0.332800	0.747487	-0.105207	-0.359574	0.682224	-0.120048	-0.309602	0.706697	-0.115705	-0.213353	0.483442	-0.207974	-0.220567	0.496719	-0.312075	-0.292212	0.368963	-0.183542	-0.241492	0.363308	-0.202633	-0.304560	0.323121	-0.189591	-0.254406	0.316573	-0.205645	-0.336196	0.104899	-0.242396	-0.327710	0.110993	-0.338403	-0.216048	0.038729	-0.218366	-0.219694	0.038289	-0.333121	-0.169760	0.060799	-0.287338	-0.417943	0.071811	-0.297559	-0.357344	0.735161	-0.494365	-0.310253	0.743710	-0.476407	-0.360807	0.694068	-0.493006	-0.308511	0.700138	-0.478774	-0.304149	0.464607	-0.459526	-0.297462	0.449637	-0.343356	-0.441684	0.483106	-0.481354	-0.429668	0.431251	-0.476350	-0.493686	0.478530	-0.478681	-0.479249	0.426632	-0.473526	-0.723636	0.418282	-0.441462	-0.703865	0.383819	-0.355020	-0.796548	0.280505	-0.467637	-0.759707	0.250168	-0.362471	-0.746277	0.210535	-0.423466	-0.762737	0.468686	-0.388871	-0.393651	1.439200	-0.120673	-0.314403	1.431398	-0.442599	
68	0.3350	-0.359238	0.964836	-0.130187	-0.317807	0.982412	-0.415038	-0.522773	0.967938	-0.260967	-0.501672	0.981851	-0.353807	-0.367840	0.721432	-0.109047	-0.315458	0.745208	-0.105195	-0.343033	0.680267	-0.120083	-0.292845	0.704188	-0.115942	-0.200593	0.479841	-0.208834	-0.207612	0.493433	-0.312610	-0.282215	0.367283	-0.184498	-0.231571	0.360224	-0.203423	-0.295841	0.321842	-0.190560	-0.245862	0.313863	-0.206600	-0.334146	0.105221	-0.243264	-0.325580	0.110591	-0.339348	-0.215692	0.037142	-0.218421	-0.219152	0.035643	-0.333539	-0.168841	0.057389	-0.287859	-0.417048	0.073381	-0.298317	-0.331950	0.734865	-0.494299	-0.285085	0.744725	-0.476006	-0.334263	0.693698	-0.493172	-0.282122	0.701274	-0.478775	-0.271508	0.466759	-0.459952	-0.264207	0.451844	-0.343580	-0.407640	0.484929	-0.481669	-0.395685	0.432986	-0.476973	-0.459569	0.480483	-0.479173	-0.445268	0.428391	-0.474312	-0.689670	0.419751	-0.442642	-0.669740	0.385145	-0.356219	-0.760498	0.281970	-0.470081	-0.723768	0.251292	-0.364979	-0.709628	0.212648	-0.426190	-0.729780	0.469228	-0.389846	-0.374857	1.437365	-0.118573	-0.297830	1.430571	-0.442264	
69	0.3400	-0.341032	0.963110	-0.128986	-0.299078	0.980584	-0.414866	-0.504394	0.965811	-0.260805	-0.483141	0.978965	-0.353738	-0.351190	0.719874	-0.108907	-0.298640	0.743170	-0.105197	-0.327002	0.678550	-0.120088	-0.276621	0.701938	-0.116165	-0.188433	0.476448	-0.209571	-0.195186	0.490332	-0.313050	-0.272809	0.365757	-0.185352	-0.222246	0.357307	-0.204105	-0.287715	0.320727	-0.191417	-0.237912	0.311322	-0.207443	-0.332638	0.105673	-0.244017	-0.323976	0.110383	-0.340172	-0.215811	0.035813	-0.218363	-0.219069	0.033348	-0.333844	-0.168441	0.054371	-0.288234	-0.416614	0.074975	-0.298980	-0.307241	0.734790	-0.494205	-0.260594	0.745931	-0.475606	-0.308417	0.693583	-0.493299	-0.256431	0.702630	-0.478768	-0.239601	0.469247	-0.460285	-0.231687	0.454437	-0.343715	-0.374322	0.486800	-0.481940	-0.362320	0.434819	-0.477529	-0.426154	0.482359	-0.479637	-0.411881	0.430119	-0.475052	-0.656213	0.420562	-0.443852	-0.636100	0.385872	-0.357441	-0.724652	0.282623	-0.472558	-0.688053	0.251678	-0.367494	-0.673087	0.214057	-0.428896	-0.697461	0.469039	-0.390885	-0.356442	1.435696	-0.116520	-0.281647	1.429845	-0.441955	
70	0.3450	-0.323367	0.961537	-0.127788	-0.280896	0.978802	-0.414694	-0.486549	0.963853	-0.260644	-0.465160	0.976243	-0.353659	-0.335129	0.718531	-0.108760	-0.282431	0.741364	-0.105204	-0.311567	0.677063	-0.120061	-0.261012	0.699936	-0.116367	-0.176923	0.473262	-0.210187	-0.183353	0.487415	-0.313401	-0.263995	0.364366	-0.186100	-0.213523	0.354558	-0.204685	-0.280166	0.319753	-0.192163	-0.230542	0.308949	-0.208178	-0.331578	0.106228	-0.244657	-0.322810	0.110352	-0.340877	-0.216295	0.034730	-0.218215	-0.219347	0.031400	-0.334051	-0.168460	0.051747	-0.288483	-0.416539	0.076568	-0.299549	-0.283355	0.734932	-0.494084	-0.236915	0.747313	-0.475210	-0.283415	0.693716	-0.493386	-0.231583	0.704190	-0.478752	-0.208621	0.472029	-0.460527	-0.200102	0.457371	-0.343763	-0.341939	0.488708	-0.482165	-0.329787	0.436733	-0.478014	-0.393652	0.484156	-0.480070	-0.379307	0.431812	-0.475740	-0.623499	0.420769	-0.445079	-0.603186	0.386053	-0.358674	-0.689291	0.282530	-0.475039	-0.652843	0.251393	-0.369987	-0.636951	0.214810	-0.431552	-0.665994	0.468192	-0.391981	-0.338514	1.434206	-0.114532	-0.265940	1.429234	-0.441666	
71	0.3500	-0.306339	0.960125	-0.126605	-0.263361	0.977091	-0.414520	-0.469333	0.962082	-0.260483	-0.447827	0.973716	-0.353569	-0.319745	0.717395	-0.108608	-0.266915	0.739781	-0.105209	-0.296811	0.675796	-0.120005	-0.246097	0.698170	-0.116541	-0.166104	0.470284	-0.210689	-0.172169	0.484680	-0.313672	-0.255778	0.363093	-0.186746	-0.205408	0.351980	-0.205171	-0.273182	0.318901	-0.192801	-0.223740	0.306741	-0.208812	-0.330877	0.106861	-0.245192	-0.322000	0.110475	-0.341471	-0.217047	0.033874	-0.217998	-0.219895	0.029789	-0.334177	-0.168802	0.049511	-0.288625	-0.416731	0.078135	-0.300028	-0.260427	0.735280	-0.493940	-0.214182	0.748851	-0.474819	-0.259401	0.694084	-0.493434	-0.207720	0.705931	-0.478725	-0.178756	0.475058	-0.460680	-0.169648	0.460592	-0.343729	-0.310693	0.490637	-0.482347	-0.298302	0.438710	-0.478427	-0.362272	0.485868	-0.480472	-0.347764	0.433462	-0.476372	-0.591760	0.420433	-0.446311	-0.571236	0.385748	-0.359903	-0.654696	0.281773	-0.477497	-0.618422	0.250517	-0.372432	-0.601518	0.214966	-0.434127	-0.635588	0.466763	-0.393122	-0.321180	1.432903	-0.112627	-0.250796	1.428744	-0.441396	
72	0.3550	-0.290043	0.958877	-0.125449	-0.246572	0.975475	-0.414343	-0.452841	0.960514	-0.260323	-0.431235	0.971409	-0.353467	-0.305118	0.716455	-0.108451	-0.252170	0.738408	-0.105206	-0.282808	0.674735	-0.119922	-0.231948	0.696626	-0.116682	-0.156012	0.467512	-0.211086	-0.161684	0.482127	-0.313869	-0.248159	0.361922	-0.187292	-0.197904	0.349574	-0.205573	-0.266750	0.318151	-0.193334	-0.217494	0.304698	-0.209354	-0.330455	0.107548	-0.245627	-0.321472	0.110731	-0.341960	-0.217979	0.033226	-0.217730	-0.220635	0.028498	-0.334238	-0.169384	0.047650	-0.288679	-0.417109	0.079656	-0.300423	-0.238586	0.735817	-0.493774	-0.192524	0.750521	-0.474436	-0.236512	0.694665	-0.493445	-0.184975	0.707821	-0.478688	-0.150187	0.478282	-0.460751	-0.140515	0.464040	-0.343621	-0.280783	0.492568	-0.482488	-0.268074	0.440725	-0.478767	-0.332216	0.487491	-0.480842	-0.317464	0.435063	-0.476943	-0.561219	0.419623	-0.447534	-0.540482	0.385020	-0.361116	-0.621144	0.280440	-0.479905	-0.585067	0.249136	-0.374801	-0.567085	0.214594	-0.436596	-0.606443	0.464839	-0.394297	-0.304548	1.431790	-0.110819	-0.236302	1.428380	-0.441143	
73	0.3600	-0.274568	0.957794	-0.124331	-0.230623	0.973970	-0.414163	-0.437165	0.959155	-0.260165	-0.415476	0.969338	-0.353353	-0.291325	0.715696	-0.108291	-0.238270	0.737229	-0.105191	-0.269629	0.673863	-0.119814	-0.218634	0.695286	-0.116789	-0.146675	0.464944	-0.211385	-0.151939	0.479754	-0.314003	-0.241137	0.360840	-0.187744	-0.191010	0.347339	-0.205899	-0.260856	0.317488	-0.193768	-0.211790	0.302816	-0.209812	-0.330244	0.108268	-0.245971	-0.321161	0.111097	-0.342352	-0.219016	0.032764	-0.217431	-0.221495	0.027502	-0.334248	-0.170129	0.046142	-0.288663	-0.417605	0.081115	-0.300739	-0.217950	0.736521	-0.493592	-0.172056	0.752292	-0.474064	-0.214873	0.695434	-0.493421	-0.163473	0.709827	-0.478640	-0.123083	0.481640	-0.460746	-0.112877	0.467647	-0.343447	-0.252391	0.494480	-0.482589	-0.239298	0.442753	-0.479036	-0.303671	0.489019	-0.481179	-0.288607	0.436605	-0.477452	-0.532089	0.418412	-0.448734	-0.511140	0.383939	-0.362299	-0.588901	0.278628	-0.482238	-0.553044	0.247339	-0.377071	-0.533937	0.213771	-0.438933	-0.578746	0.462509	-0.395489	-0.288718	1.430863	-0.109122	-0.222540	1.428138	-0.440904	
74	0.3650	-0.259997	0.956871	-0.123261	-0.215601	0.972591	-0.413981	-0.422388	0.958007	-0.260010	-0.400634	0.967511	-0.353228	-0.278431	0.715102	-0.108129	-0.225277	0.736229	-0.105162	-0.257333	0.673162	-0.119686	-0.206211	0.694134	-0.116860	-0.138111	0.462578	-0.211597	-0.142966	0.477559	-0.314082	-0.234709	0.359838	-0.188106	-0.184722	0.345276	-0.206158	-0.255487	0.316896	-0.194111	-0.206612	0.301093	-0.210194	-0.330183	0.109000	-0.246232	-0.321009	0.111550	-0.342656	-0.220094	0.032463	-0.217116	-0.222416	0.026775	-0.334219	-0.170974	0.044960	-0.288593	-0.418160	0.082497	-0.300983	-0.198623	0.737365	-0.493396	-0.152882	0.754132	-0.473706	-0.194594	0.696358	-0.493367	-0.143324	0.711910	-0.478584	-0.097596	0.485072	-0.460676	-0.086892	0.471345	-0.343216	-0.225681	0.496353	-0.482653	-0.212152	0.444769	-0.479237	-0.276804	0.490447	-0.481482	-0.261373	0.438077	-0.477897	-0.504562	0.416878	-0.449898	-0.483408	0.382575	-0.363438	-0.558216	0.276435	-0.484471	-0.522598	0.245219	-0.379220	-0.502340	0.212576	-0.441118	-0.552665	0.459868	-0.396683	-0.273783	1.430117	-0.107546	-0.209584	1.428014	-0.440679	
75	0.3700	-0.246400	0.956101	-0.122249	-0.201581	0.971348	-0.413798	-0.408586	0.957064	-0.259858	-0.386782	0.965932	-0.353094	-0.266489	0.714655	-0.107967	-0.213244	0.735390	-0.105118	-0.245966	0.672613	-0.119542	-0.194726	0.693152	-0.116897	-0.130330	0.460412	-0.211734	-0.134784	0.475540	-0.314117	-0.228870	0.358907	-0.188388	-0.179032	0.343385	-0.206360	-0.250628	0.316365	-0.194372	-0.201944	0.299525	-0.210509	-0.330223	0.109726	-0.246420	-0.320969	0.112066	-0.342882	-0.221161	0.032299	-0.216797	-0.223349	0.026284	-0.334162	-0.171862	0.044072	-0.288484	-0.418729	0.083790	-0.301163	-0.180690	0.738319	-0.493192	-0.135089	0.756007	-0.473363	-0.175769	0.697404	-0.493287	-0.124619	0.714032	-0.478518	-0.073856	0.488515	-0.460549	-0.062693	0.475065	-0.342941	-0.200795	0.498165	-0.482684	-0.186792	0.446745	-0.479374	-0.251760	0.491771	-0.481751	-0.235921	0.439472	-0.478280	-0.478806	0.415098	-0.451013	-0.457459	0.380997	-0.364522	-0.529312	0.273961	-0.486584	-0.493948	0.242869	-0.381230	-0.472534	0.211092	-0.443138	-0.528344	0.457006	-0.397862	-0.259826	1.429541	-0.106100	-0.197501	1.427997	-0.440466	
76	0.3750	-0.233838	0.955473	-0.121304	-0.188627	0.970244	-0.413616	-0.395819	0.956315	-0.259711	-0.373981	0.964593	-0.352952	-0.255539	0.714336	-0.107807	-0.202209	0.734696	-0.105058	-0.235565	0.672196	-0.119386	-0.184214	0.692322	-0.116901	-0.123330	0.458442	-0.211807	-0.127403	0.473695	-0.314116	-0.223610	0.358043	-0.188599	-0.173928	0.341664	-0.206513	-0.246263	0.315885	-0.194560	-0.197770	0.298109	-0.210765	-0.330322	0.110430	-0.246544	-0.321002	0.112623	-0.343041	-0.222177	0.032247	-0.216486	-0.224255	0.025997	-0.334087	-0.172750	0.043442	-0.288350	-0.419276	0.084985	-0.301286	-0.164220	0.739350	-0.492983	-0.118743	0.757880	-0.473040	-0.158469	0.698535	-0.493185	-0.107429	0.716151	-0.478447	-0.051969	0.491910	-0.460375	-0.040390	0.478739	-0.342631	-0.177845	0.499898	-0.482685	-0.163346	0.448656	-0.479454	-0.228656	0.492987	-0.481987	-0.212381	0.440780	-0.478603	-0.454961	0.413149	-0.452067	-0.433435	0.379275	-0.365541	-0.502380	0.271304	-0.488557	-0.467280	0.240376	-0.383088	-0.444726	0.209399	-0.444979	-0.505899	0.454016	-0.399009	-0.246914	1.429120	-0.104790	-0.186345	1.428075	-0.440267	
77	0.3800	-0.222354	0.954977	-0.120433	-0.176786	0.969282	-0.413437	-0.384137	0.955745	-0.259570	-0.362277	0.963486	-0.352805	-0.245608	0.714126	-0.107651	-0.192197	0.734128	-0.104986	-0.226149	0.671893	-0.119223	-0.174693	0.691627	-0.116878	-0.117102	0.456664	-0.211827	-0.120818	0.472022	-0.314087	-0.218914	0.357242	-0.188747	-0.169394	0.340111	-0.206625	-0.242375	0.315450	-0.194686	-0.194069	0.296840	-0.210970	-0.330450	0.111100	-0.246615	-0.321075	0.113200	-0.343142	-0.223113	0.032285	-0.216193	-0.225104	0.025879	-0.334002	-0.173602	0.043034	-0.288202	-0.419777	0.086076	-0.301361	-0.149256	0.740428	-0.492774	-0.103889	0.759717	-0.472738	-0.142742	0.699717	-0.493066	-0.091802	0.718229	-0.478370	-0.032009	0.495199	-0.460167	-0.020059	0.482303	-0.342299	-0.156914	0.501532	-0.482662	-0.141908	0.450477	-0.479483	-0.207577	0.494092	-0.482191	-0.190851	0.441993	-0.478868	-0.433133	0.411104	-0.453050	-0.411443	0.377474	-0.366485	-0.477574	0.268555	-0.490378	-0.442743	0.237823	-0.384781	-0.419084	0.207577	-0.446635	-0.485415	0.450982	-0.400108	-0.235099	1.428837	-0.103617	-0.176155	1.428233	-0.440081	
78	0.3850	-0.211978	0.954596	-0.119640	-0.166087	0.968458	-0.413264	-0.373569	0.955336	-0.259437	-0.351700	0.962593	-0.352656	-0.236705	0.714006	-0.107502	-0.183219	0.733671	-0.104902	-0.217724	0.671685	-0.119058	-0.166169	0.691051	-0.116830	-0.111623	0.455073	-0.211806	-0.115015	0.470518	-0.314040	-0.214766	0.356502	-0.188842	-0.165408	0.338722	-0.206705	-0.238944	0.315053	-0.194760	-0.190818	0.295713	-0.211133	-0.330582	0.111725	-0.246642	-0.321166	0.113779	-0.343196	-0.223950	0.032389	-0.215922	-0.225877	0.025895	-0.333914	-0.174392	0.042810	-0.288049	-0.420213	0.087060	-0.301397	-0.135818	0.741519	-0.492570	-0.090548	0.761488	-0.472459	-0.128614	0.700913	-0.492937	-0.077762	0.720230	-0.478291	-0.014020	0.498331	-0.459935	-0.001744	0.485701	-0.341957	-0.138050	0.503053	-0.482618	-0.122541	0.452188	-0.479470	-0.188573	0.495085	-0.482365	-0.171395	0.443105	-0.479080	-0.413392	0.409030	-0.453954	-0.391555	0.375654	-0.367349	-0.455009	0.265802	-0.492035	-0.420445	0.235287	-0.386305	-0.395733	0.205696	-0.448105	-0.466942	0.447984	-0.401146	-0.224415	1.428673	-0.102582	-0.166957	1.428455	-0.439908	
79	0.3900	-0.202718	0.954318	-0.118930	-0.156543	0.967766	-0.413100	-0.364130	0.955066	-0.259311	-0.342259	0.961894	-0.352509	-0.228823	0.713957	-0.107361	-0.175266	0.733308	-0.104811	-0.210279	0.671552	-0.118895	-0.158634	0.690577	-0.116763	-0.106865	0.453665	-0.211754	-0.109967	0.469179	-0.313981	-0.211142	0.355825	-0.188894	-0.161944	0.337494	-0.206759	-0.235948	0.314693	-0.194792	-0.187994	0.294722	-0.211260	-0.330703	0.112296	-0.246636	-0.321257	0.114343	-0.343213	-0.224678	0.032540	-0.215679	-0.226559	0.026015	-0.333827	-0.175104	0.042734	-0.287898	-0.420578	0.087935	-0.301401	-0.123905	0.742596	-0.492375	-0.078717	0.763163	-0.472205	-0.116080	0.702090	-0.492801	-0.065307	0.722122	-0.478210	0.001985	0.501262	-0.459689	0.014543	0.488883	-0.341614	-0.121265	0.504447	-0.482559	-0.105269	0.453769	-0.479422	-0.171658	0.495967	-0.482509	-0.154039	0.444110	-0.479244	-0.395769	0.406990	-0.454773	-0.373804	0.373868	-0.368126	-0.434752	0.263118	-0.493520	-0.400449	0.232833	-0.387656	-0.374751	0.203824	-0.449390	-0.450496	0.445092	-0.402109	-0.214876	1.428609	-0.101680	-0.158759	1.428724	-0.439750	
80	0.3950	-0.194568	0.954125	-0.118302	-0.148144	0.967197	-0.412946	-0.355812	0.954912	-0.259196	-0.333949	0.961367	-0.352367	-0.221941	0.713963	-0.107231	-0.168318	0.733024	-0.104715	-0.203791	0.671480	-0.118739	-0.152061	0.690193	-0.116684	-0.102788	0.452431	-0.211680	-0.105638	0.468000	-0.313915	-0.208016	0.355209	-0.188912	-0.158972	0.336421	-0.206792	-0.233363	0.314366	-0.194792	-0.185570	0.293861	-0.211357	-0.330803	0.112809	-0.246604	-0.321337	0.114878	-0.343201	-0.225291	0.032720	-0.215467	-0.227146	0.026206	-0.333746	-0.175726	0.042769	-0.287756	-0.420869	0.088702	-0.301381	-0.113486	0.743630	-0.492191	-0.068368	0.764718	-0.471977	-0.105114	0.703221	-0.492665	-0.054408	0.723877	-0.478131	0.016031	0.503957	-0.459439	0.028828	0.491808	-0.341280	-0.106537	0.505704	-0.482489	-0.090080	0.455207	-0.479349	-0.156812	0.496738	-0.482627	-0.138771	0.445007	-0.479366	-0.380257	0.405037	-0.455502	-0.358182	0.372162	-0.368815	-0.416827	0.260569	-0.494833	-0.382772	0.230517	-0.388836	-0.356168	0.202015	-0.450495	-0.436058	0.442366	-0.402989	-0.206478	1.428624	-0.100908	-0.151552	1.429022	-0.439606	
81	0.4000	-0.187499	0.954002	-0.117757	-0.140864	0.966739	-0.412804	-0.348593	0.954852	-0.259091	-0.326741	0.960986	-0.352232	-0.216021	0.714008	-0.107112	-0.162338	0.732807	-0.104618	-0.198220	0.671453	-0.118592	-0.146414	0.689884	-0.116596	-0.099348	0.451364	-0.211595	-0.101982	0.466975	-0.313847	-0.205357	0.354657	-0.188905	-0.156458	0.335495	-0.206810	-0.231162	0.314073	-0.194767	-0.183517	0.293123	-0.211430	-0.330877	0.113261	-0.246555	-0.321400	0.115372	-0.343169	-0.225795	0.032912	-0.215285	-0.227637	0.026443	-0.333672	-0.176256	0.042884	-0.287627	-0.421090	0.089365	-0.301344	-0.104510	0.744601	-0.492022	-0.059452	0.766133	-0.471776	-0.095663	0.704280	-0.492532	-0.045014	0.725473	-0.478056	0.028171	0.506387	-0.459195	0.041167	0.494448	-0.340964	-0.093809	0.506820	-0.482412	-0.076924	0.456492	-0.479258	-0.143978	0.497404	-0.482721	-0.125544	0.445795	-0.479452	-0.366812	0.403213	-0.456142	-0.344643	0.370574	-0.369415	-0.401209	0.258207	-0.495974	-0.367386	0.228382	-0.389849	-0.339965	0.200317	-0.451431	-0.423574	0.439854	-0.403778	-0.199194	1.428698	-0.100258	-0.145313	1.429334	-0.439477	
82	0.4050	-0.181470	0.953935	-0.117292	-0.134658	0.966380	-0.412677	-0.342429	0.954862	-0.258997	-0.320593	0.960727	-0.352107	-0.211011	0.714079	-0.107007	-0.157274	0.732643	-0.104523	-0.193515	0.671457	-0.118458	-0.141639	0.689639	-0.116506	-0.096491	0.450455	-0.211504	-0.098946	0.466097	-0.313782	-0.203129	0.354167	-0.188880	-0.154364	0.334708	-0.206818	-0.229316	0.313812	-0.194728	-0.181804	0.292498	-0.211484	-0.330925	0.113652	-0.246496	-0.321444	0.115819	-0.343124	-0.226195	0.033105	-0.215133	-0.228036	0.026701	-0.333608	-0.176694	0.043051	-0.287512	-0.421246	0.089928	-0.301297	-0.096905	0.745488	-0.491869	-0.051895	0.767395	-0.471601	-0.087651	0.705247	-0.492406	-0.037050	0.726896	-0.477985	0.038492	0.508536	-0.458964	0.051651	0.496782	-0.340672	-0.082990	0.507792	-0.482333	-0.065719	0.457620	-0.479157	-0.133067	0.497969	-0.482794	-0.114276	0.446475	-0.479508	-0.355351	0.401554	-0.456693	-0.333104	0.369131	-0.369930	-0.387830	0.256072	-0.496948	-0.354219	0.226462	-0.390704	-0.326075	0.198766	-0.452208	-0.412958	0.437591	-0.404471	-0.192982	1.428812	-0.099720	-0.139999	1.429645	-0.439364	
83	0.4100	-0.176420	0.953909	-0.116902	-0.129462	0.966107	-0.412564	-0.337261	0.954922	-0.258916	-0.315442	0.960565	-0.351994	-0.206849	0.714163	-0.106914	-0.153063	0.732523	-0.104433	-0.189612	0.671483	-0.118338	-0.137676	0.689447	-0.116417	-0.094162	0.449692	-0.211413	-0.096472	0.465357	-0.313722	-0.201295	0.353741	-0.188844	-0.152650	0.334050	-0.206819	-0.227793	0.313584	-0.194679	-0.180398	0.291978	-0.211523	-0.330948	0.113981	-0.246433	-0.321468	0.116211	-0.343073	-0.226503	0.033288	-0.215010	-0.228351	0.026962	-0.333553	-0.177046	0.043244	-0.287414	-0.421347	0.090398	-0.301245	-0.090577	0.746280	-0.491735	-0.045606	0.768497	-0.471452	-0.080981	0.706109	-0.492290	-0.030420	0.728137	-0.477921	0.047107	0.510396	-0.458751	0.060395	0.498802	-0.340410	-0.073962	0.508623	-0.482256	-0.056349	0.458589	-0.479054	-0.123960	0.498439	-0.482849	-0.104851	0.447051	-0.479541	-0.345761	0.400081	-0.457158	-0.323452	0.367854	-0.370361	-0.376583	0.254188	-0.497763	-0.343160	0.224777	-0.391411	-0.314391	0.197386	-0.452841	-0.404095	0.435600	-0.405069	-0.187780	1.428950	-0.099283	-0.135556	1.429943	-0.439265	
84	0.4150	-0.172275	0.953912	-0.116584	-0.125200	0.965905	-0.412467	-0.333016	0.955012	-0.258845	-0.311215	0.960476	-0.351894	-0.203460	0.714252	-0.106835	-0.149631	0.732436	-0.104351	-0.186440	0.671521	-0.118233	-0.134452	0.689300	-0.116333	-0.092302	0.449064	-0.211329	-0.094496	0.464745	-0.313669	-0.199814	0.353377	-0.188803	-0.151274	0.333511	-0.206816	-0.226560	0.313387	-0.194628	-0.179267	0.291554	-0.211551	-0.330952	0.114253	-0.246371	-0.321476	0.116548	-0.343020	-0.226731	0.033455	-0.214912	-0.228592	0.027210	-0.333508	-0.177321	0.043444	-0.287332	-0.421405	0.090782	-0.301192	-0.085419	0.746967	-0.491619	-0.040479	0.769435	-0.471328	-0.075542	0.706856	-0.492187	-0.025013	0.729194	-0.477863	0.054152	0.511969	-0.458562	0.067540	0.500511	-0.340180	-0.066581	0.509317	-0.482184	-0.048674	0.459404	-0.478953	-0.116513	0.498823	-0.482889	-0.097129	0.447530	-0.479556	-0.337901	0.398808	-0.457541	-0.315542	0.366753	-0.370716	-0.367322	0.252570	-0.498431	-0.334063	0.223335	-0.391985	-0.304764	0.196192	-0.453346	-0.396845	0.433892	-0.405572	-0.183512	1.429097	-0.098936	-0.131917	1.430217	-0.439182	
85	0.4200	-0.168950	0.953934	-0.116329	-0.121785	0.965761	-0.412386	-0.329609	0.955117	-0.258787	-0.307826	0.960441	-0.351809	-0.200763	0.714338	-0.106769	-0.146899	0.732375	-0.104279	-0.183921	0.671563	-0.118145	-0.131889	0.689188	-0.116258	-0.090849	0.448559	-0.211253	-0.092955	0.464250	-0.313623	-0.198645	0.353074	-0.188761	-0.150194	0.333079	-0.206810	-0.225584	0.313221	-0.194578	-0.178376	0.291215	-0.211571	-0.330940	0.114472	-0.246312	-0.321472	0.116828	-0.342969	-0.226893	0.033600	-0.214838	-0.228770	0.027434	-0.333473	-0.177528	0.043636	-0.287267	-0.421429	0.091090	-0.301142	-0.081310	0.747548	-0.491523	-0.036394	0.770214	-0.471226	-0.071207	0.707486	-0.492098	-0.020702	0.730071	-0.477814	0.059781	0.513267	-0.458398	0.073245	0.501920	-0.339986	-0.060685	0.509882	-0.482119	-0.042531	0.460072	-0.478860	-0.110562	0.499129	-0.482917	-0.090948	0.447917	-0.479559	-0.331607	0.397739	-0.457850	-0.309209	0.365830	-0.371000	-0.359874	0.251217	-0.498966	-0.326752	0.222135	-0.392438	-0.297018	0.195189	-0.453738	-0.391052	0.432466	-0.405985	-0.180092	1.429242	-0.098668	-0.129005	1.430460	-0.439113	
