PathFileType	4	(X/Y/Z)	 P12 pr1 05.trc
DataRate	CameraRate	NumFrames	NumMarkers	Units	OrigDataRate	OrigDataStartFrame	OrigNumFrames
200	200	87	38	m	200	1	87
Frame#	Time	RASIS			LASIS			RPSIS			LPSIS			RThighRear1			RThighFront1			RThighRear2			RThighFront2			RKneeLat			RKneeMed			RShankRear1			RShankFront1			RShankRear2			RShankFront2			RAnkleLat			RAnkleMed			RM5			RM1			RMid			RHeel			LThighRear1			LThighFront1			LThighRear2			LThighFront2			LKneeLat			LKneeMed			LShankRear1			LShankFront1			LShankRear2			LShankFront2			LAnkleLat			LAnkleMed			LM5			LM1			LMid			LHeel			RShoulder			LShoulder			
		X1	Y1	Z1	X2	Y2	Z2	X3	Y3	Z3	X4	Y4	Z4	X5	Y5	Z5	X6	Y6	Z6	X7	Y7	Z7	X8	Y8	Z8	X9	Y9	Z9	X10	Y10	Z10	X11	Y11	Z11	X12	Y12	Z12	X13	Y13	Z13	X14	Y14	Z14	X15	Y15	Z15	X16	Y16	Z16	X17	Y17	Z17	X18	Y18	Z18	X19	Y19	Z19	X20	Y20	Z20	X21	Y21	Z21	X22	Y22	Z22	X23	Y23	Z23	X24	Y24	Z24	X25	Y25	Z25	X26	Y26	Z26	X27	Y27	Z27	X28	Y28	Z28	X29	Y29	Z29	X30	Y30	Z30	X31	Y31	Z31	X32	Y32	Z32	X33	Y33	Z33	X34	Y34	Z34	X35	Y35	Z35	X36	Y36	Z36	X37	Y37	Z37	X38	Y38	Z38	
1	0.0000	-1.505254	0.960528	-0.176377	-1.492882	0.973435	-0.454782	-1.676621	0.999652	-0.292643	-1.671018	0.991358	-0.386833	-1.637530	0.741922	-0.124233	-1.583500	0.733419	-0.131889	-1.645127	0.693536	-0.128516	-1.593083	0.685409	-0.135950	-1.706638	0.442629	-0.183636	-1.704355	0.440960	-0.295234	-1.854579	0.427393	-0.158995	-1.824429	0.382297	-0.170326	-1.897916	0.405760	-0.163742	-1.869789	0.360690	-0.170994	-2.089708	0.270085	-0.196269	-2.074731	0.260584	-0.289645	-2.108142	0.113343	-0.171983	-2.104776	0.115258	-0.288408	-2.053515	0.066843	-0.229278	-2.145504	0.316591	-0.252378	-1.483892	0.740437	-0.513477	-1.437895	0.767927	-0.507486	-1.464638	0.699144	-0.506616	-1.414379	0.728676	-0.500715	-1.291100	0.538335	-0.443614	-1.290985	0.539206	-0.335651	-1.347723	0.402244	-0.465040	-1.296593	0.407365	-0.456200	-1.349854	0.348576	-0.462928	-1.296966	0.356721	-0.453615	-1.305071	0.109959	-0.414491	-1.277876	0.131446	-0.325666	-1.170100	0.068217	-0.440188	-1.147821	0.096153	-0.331770	-1.110949	0.128795	-0.391256	-1.360291	0.066750	-0.365517	-1.412440	1.408941	-0.186360	-1.453335	1.414873	-0.508601	
2	0.0050	-1.491987	0.960084	-0.175859	-1.479860	0.971763	-0.454733	-1.663765	0.997687	-0.292147	-1.658167	0.989632	-0.386463	-1.621921	0.740002	-0.123657	-1.567920	0.732483	-0.131231	-1.628793	0.691563	-0.127936	-1.576744	0.684407	-0.135120	-1.686337	0.440146	-0.182007	-1.683175	0.437704	-0.293504	-1.834271	0.426568	-0.157909	-1.804594	0.381082	-0.168972	-1.877815	0.405468	-0.162713	-1.850125	0.360015	-0.169765	-2.070840	0.271912	-0.195902	-2.055249	0.262178	-0.289067	-2.088594	0.115516	-0.171047	-2.084471	0.117199	-0.287327	-2.033253	0.069178	-0.227670	-2.127053	0.318071	-0.252609	-1.470650	0.738233	-0.512430	-1.424488	0.765368	-0.506401	-1.451633	0.696813	-0.505342	-1.401280	0.726103	-0.499372	-1.279367	0.535657	-0.442102	-1.279585	0.536849	-0.334201	-1.337269	0.401115	-0.463336	-1.286130	0.405154	-0.454427	-1.340346	0.347692	-0.461407	-1.287565	0.354694	-0.451798	-1.301765	0.109467	-0.413412	-1.274666	0.129594	-0.324286	-1.168673	0.065235	-0.439964	-1.145755	0.091049	-0.331137	-1.108301	0.122760	-0.390355	-1.358342	0.067556	-0.364783	-1.398999	1.407308	-0.186987	-1.439345	1.412656	-0.509857	
3	0.0100	-1.478554	0.959595	-0.175325	-1.466671	0.970072	-0.454700	-1.650741	0.995689	-0.291629	-1.645147	0.987893	-0.386072	-1.606072	0.738051	-0.123065	-1.552099	0.731531	-0.130559	-1.612205	0.689563	-0.127337	-1.560148	0.683390	-0.134267	-1.665700	0.437630	-0.180349	-1.661648	0.434418	-0.291748	-1.813618	0.425717	-0.156800	-1.784417	0.379839	-0.167594	-1.857372	0.405152	-0.161666	-1.830119	0.359312	-0.168515	-2.051635	0.273712	-0.195525	-2.035433	0.263744	-0.288484	-2.068638	0.117657	-0.170090	-2.063777	0.119085	-0.286226	-2.012564	0.071495	-0.226042	-2.108307	0.319502	-0.252834	-1.457263	0.736020	-0.511383	-1.410935	0.762798	-0.505326	-1.438485	0.694472	-0.504069	-1.388037	0.723512	-0.498033	-1.267500	0.532943	-0.440583	-1.268034	0.534467	-0.332746	-1.326696	0.399957	-0.461629	-1.275557	0.402902	-0.452642	-1.330739	0.346784	-0.459883	-1.278071	0.352630	-0.449969	-1.298447	0.108982	-0.412317	-1.271448	0.127744	-0.322889	-1.167246	0.062284	-0.439749	-1.143697	0.085975	-0.330505	-1.105658	0.116731	-0.389455	-1.356389	0.068351	-0.364037	-1.385381	1.405642	-0.187603	-1.425150	1.410400	-0.511130	
4	0.0150	-1.464973	0.959054	-0.174773	-1.453329	0.968373	-0.454687	-1.637564	0.993666	-0.291092	-1.631971	0.986154	-0.385658	-1.589993	0.736082	-0.122456	-1.536042	0.730571	-0.129871	-1.595372	0.687548	-0.126718	-1.543300	0.682370	-0.133388	-1.644717	0.435106	-0.178665	-1.639771	0.431135	-0.289968	-1.792612	0.424844	-0.155671	-1.763879	0.378572	-0.166194	-1.836574	0.404808	-0.160601	-1.809752	0.358580	-0.167245	-2.032063	0.275444	-0.195138	-2.015259	0.265245	-0.287897	-2.048212	0.119734	-0.169108	-2.042644	0.120873	-0.285102	-1.991386	0.073770	-0.224393	-2.089245	0.320832	-0.253048	-1.443762	0.733813	-0.510345	-1.397271	0.760230	-0.504270	-1.425231	0.692134	-0.502804	-1.374687	0.720912	-0.496713	-1.255543	0.530195	-0.439067	-1.256369	0.532059	-0.331298	-1.316050	0.398765	-0.459932	-1.264921	0.400608	-0.450858	-1.321077	0.345851	-0.458366	-1.268529	0.350530	-0.448138	-1.295146	0.108513	-0.411210	-1.268250	0.125914	-0.321480	-1.165830	0.059396	-0.439546	-1.141668	0.080983	-0.329880	-1.103041	0.110763	-0.388564	-1.354453	0.069127	-0.363278	-1.371613	1.403956	-0.188196	-1.410758	1.408119	-0.512413	
5	0.0200	-1.451258	0.958458	-0.174202	-1.439840	0.966678	-0.454697	-1.624242	0.991629	-0.290535	-1.618644	0.984431	-0.385223	-1.573684	0.734109	-0.121830	-1.519751	0.729616	-0.129166	-1.578293	0.685534	-0.126076	-1.526200	0.681362	-0.132481	-1.623371	0.432602	-0.176957	-1.617531	0.427892	-0.288168	-1.771234	0.423952	-0.154522	-1.742954	0.377289	-0.164773	-1.815400	0.404430	-0.159520	-1.788993	0.357818	-0.165959	-2.012083	0.277068	-0.194737	-1.994688	0.266641	-0.287305	-2.027244	0.121712	-0.168094	-2.021007	0.122520	-0.283950	-1.969644	0.075981	-0.222722	-2.069836	0.322001	-0.253244	-1.430176	0.731626	-0.509323	-1.383523	0.757676	-0.503246	-1.411901	0.689814	-0.501559	-1.361259	0.718314	-0.495422	-1.243538	0.527413	-0.437564	-1.244623	0.529628	-0.329867	-1.305371	0.397534	-0.458258	-1.254269	0.398271	-0.449084	-1.311401	0.344888	-0.456865	-1.258981	0.348394	-0.446316	-1.291889	0.108064	-0.410093	-1.265098	0.124119	-0.320064	-1.164440	0.056601	-0.439359	-1.139686	0.076119	-0.329266	-1.100474	0.104908	-0.387689	-1.352555	0.069872	-0.362508	-1.357719	1.402265	-0.188754	-1.396173	1.405824	-0.513697	
6	0.0250	-1.437413	0.957803	-0.173613	-1.426207	0.964999	-0.454735	-1.610778	0.989589	-0.289963	-1.605165	0.982739	-0.384767	-1.557143	0.732147	-0.121187	-1.503221	0.728680	-0.128443	-1.560961	0.683539	-0.125409	-1.508840	0.680381	-0.131544	-1.601635	0.430146	-0.175229	-1.594907	0.424725	-0.286351	-1.749455	0.423046	-0.153354	-1.721606	0.376001	-0.163335	-1.793821	0.404014	-0.158422	-1.767804	0.357027	-0.164658	-1.991647	0.278540	-0.194319	-1.973675	0.267894	-0.286708	-2.005654	0.123559	-0.167041	-1.998791	0.123987	-0.282762	-1.947256	0.078108	-0.221027	-2.050040	0.322949	-0.253417	-1.416529	0.729473	-0.508325	-1.369716	0.755149	-0.502264	-1.398522	0.687527	-0.500342	-1.347780	0.715727	-0.494174	-1.231525	0.524597	-0.436083	-1.232832	0.527168	-0.328461	-1.294704	0.396259	-0.456617	-1.243644	0.395887	-0.447330	-1.301753	0.343890	-0.455390	-1.249470	0.346219	-0.444512	-1.288705	0.107644	-0.408968	-1.262019	0.122374	-0.318645	-1.163087	0.053927	-0.439193	-1.137770	0.071429	-0.328669	-1.097977	0.099213	-0.386838	-1.350717	0.070578	-0.361724	-1.343716	1.400587	-0.189266	-1.381393	1.403532	-0.514974	
7	0.0300	-1.423443	0.957092	-0.173006	-1.412425	0.963350	-0.454803	-1.597169	0.987561	-0.289379	-1.591529	0.981095	-0.384293	-1.540362	0.730211	-0.120526	-1.486445	0.727778	-0.127702	-1.543367	0.681579	-0.124714	-1.491210	0.679446	-0.130574	-1.579480	0.427770	-0.173485	-1.571874	0.421676	-0.284522	-1.727244	0.422129	-0.152167	-1.699796	0.374716	-0.161881	-1.771802	0.403558	-0.157307	-1.746144	0.356209	-0.163344	-1.970700	0.279817	-0.193883	-1.952170	0.268963	-0.286106	-1.983355	0.125243	-0.165944	-1.975919	0.125234	-0.281533	-1.924134	0.080132	-0.219306	-2.029808	0.323615	-0.253561	-1.402839	0.727369	-0.507360	-1.355870	0.752657	-0.501333	-1.385119	0.685285	-0.499162	-1.334272	0.713157	-0.492978	-1.219544	0.521742	-0.434635	-1.221027	0.524678	-0.327090	-1.284089	0.394933	-0.455021	-1.233090	0.393452	-0.445607	-1.292176	0.342853	-0.453948	-1.240039	0.344005	-0.442736	-1.285619	0.107255	-0.407838	-1.259037	0.120691	-0.317228	-1.161782	0.051398	-0.439051	-1.135936	0.066954	-0.328094	-1.095568	0.093726	-0.386018	-1.348958	0.071236	-0.360927	-1.329623	1.398942	-0.189720	-1.366412	1.401257	-0.516233	
8	0.0350	-1.409345	0.956326	-0.172383	-1.398488	0.961743	-0.454902	-1.583413	0.985559	-0.288787	-1.577731	0.979516	-0.383805	-1.523334	0.728320	-0.119847	-1.469415	0.726928	-0.126943	-1.525502	0.679674	-0.123991	-1.473302	0.678575	-0.129570	-1.556875	0.425506	-0.171729	-1.548407	0.418786	-0.282685	-1.704572	0.421211	-0.150964	-1.677484	0.373447	-0.160415	-1.749310	0.403059	-0.156177	-1.723969	0.355366	-0.162019	-1.949187	0.280859	-0.193425	-1.930121	0.269809	-0.285497	-1.960264	0.126735	-0.164797	-1.952309	0.126225	-0.280257	-1.900196	0.082037	-0.217557	-2.009091	0.323939	-0.253669	-1.389125	0.725325	-0.506432	-1.342001	0.750210	-0.500461	-1.371711	0.683100	-0.498027	-1.320756	0.710611	-0.491845	-1.207633	0.518844	-0.433228	-1.209242	0.522149	-0.325762	-1.273567	0.393549	-0.453480	-1.222650	0.390964	-0.443923	-1.282708	0.341769	-0.452548	-1.230726	0.341749	-0.440997	-1.282655	0.106902	-0.406705	-1.256173	0.119082	-0.315817	-1.160537	0.049033	-0.438935	-1.134200	0.062727	-0.327547	-1.093264	0.088487	-0.385234	-1.347298	0.071839	-0.360115	-1.315453	1.397350	-0.190106	-1.351224	1.399019	-0.517463	
9	0.0400	-1.395119	0.955512	-0.171745	-1.384388	0.960193	-0.455034	-1.569503	0.983600	-0.288194	-1.563759	0.978019	-0.383308	-1.506052	0.726493	-0.119151	-1.452123	0.726146	-0.126166	-1.507356	0.677846	-0.123238	-1.455106	0.677789	-0.128531	-1.533793	0.423390	-0.169965	-1.524484	0.416098	-0.280844	-1.681409	0.420297	-0.149746	-1.654634	0.372209	-0.158940	-1.726315	0.402516	-0.155032	-1.701241	0.354504	-0.160687	-1.927055	0.281623	-0.192942	-1.907475	0.270397	-0.284880	-1.936301	0.128008	-0.163592	-1.927884	0.126931	-0.278927	-1.875360	0.083809	-0.215780	-1.987837	0.323863	-0.253735	-1.375399	0.723354	-0.505548	-1.328124	0.747813	-0.499655	-1.358318	0.680985	-0.496943	-1.307248	0.708096	-0.490783	-1.195831	0.515900	-0.431870	-1.197513	0.519577	-0.324485	-1.263182	0.392100	-0.452005	-1.212366	0.388419	-0.442290	-1.273391	0.340635	-0.451196	-1.221573	0.339449	-0.439302	-1.279837	0.106588	-0.405572	-1.253449	0.117557	-0.314416	-1.159361	0.046850	-0.438847	-1.132573	0.058779	-0.327032	-1.091080	0.083533	-0.384493	-1.345755	0.072383	-0.359288	-1.301223	1.395836	-0.190416	-1.335823	1.396835	-0.518652	
10	0.0450	-1.380761	0.954661	-0.171097	-1.370116	0.958716	-0.455197	-1.555433	0.981702	-0.287608	-1.549605	0.976622	-0.382808	-1.488513	0.724751	-0.118439	-1.434566	0.725453	-0.125371	-1.488925	0.676116	-0.122454	-1.436617	0.677110	-0.127458	-1.510212	0.421457	-0.168201	-1.500088	0.413655	-0.279005	-1.657732	0.419398	-0.148516	-1.631214	0.371015	-0.157460	-1.702790	0.401929	-0.153875	-1.677925	0.353628	-0.159352	-1.904254	0.282073	-0.192434	-1.884188	0.270692	-0.284254	-1.911396	0.129040	-0.162326	-1.902576	0.127326	-0.277539	-1.849559	0.085441	-0.213972	-1.966000	0.323332	-0.253754	-1.361674	0.721467	-0.504712	-1.314251	0.745475	-0.498920	-1.344957	0.678949	-0.495916	-1.293764	0.705615	-0.489799	-1.184174	0.512905	-0.430571	-1.185873	0.516954	-0.323265	-1.252973	0.390582	-0.450602	-1.202281	0.385814	-0.440714	-1.264262	0.339444	-0.449896	-1.212616	0.337105	-0.437661	-1.277183	0.106316	-0.404442	-1.250881	0.116124	-0.313029	-1.158262	0.044858	-0.438788	-1.131066	0.055132	-0.326552	-1.089027	0.078893	-0.383799	-1.344345	0.072866	-0.358446	-1.286946	1.394425	-0.190641	-1.320204	1.394728	-0.519790	
11	0.0500	-1.366268	0.953786	-0.170442	-1.355663	0.957326	-0.455388	-1.541198	0.979886	-0.287036	-1.535261	0.975344	-0.382313	-1.470716	0.723115	-0.117713	-1.416744	0.724870	-0.124560	-1.470206	0.674507	-0.121642	-1.417835	0.676559	-0.126353	-1.486116	0.419744	-0.166443	-1.475209	0.411501	-0.277174	-1.633527	0.418523	-0.147278	-1.607203	0.369882	-0.155982	-1.678717	0.401301	-0.152706	-1.653996	0.352746	-0.158016	-1.880745	0.282174	-0.191896	-1.860218	0.270664	-0.283618	-1.885492	0.129812	-0.160995	-1.876323	0.127392	-0.276087	-1.822737	0.086925	-0.212133	-1.943534	0.322295	-0.253720	-1.347963	0.719673	-0.503929	-1.300392	0.743200	-0.498258	-1.331643	0.677004	-0.494951	-1.280319	0.703175	-0.488899	-1.172700	0.509855	-0.429336	-1.174359	0.514273	-0.322109	-1.242979	0.388992	-0.449280	-1.192433	0.383150	-0.439206	-1.255360	0.338195	-0.448654	-1.203892	0.334719	-0.436080	-1.274711	0.106087	-0.403318	-1.248484	0.114791	-0.311663	-1.157249	0.043063	-0.438758	-1.129686	0.051801	-0.326111	-1.087115	0.074594	-0.383156	-1.343080	0.073287	-0.357589	-1.272640	1.393145	-0.190775	-1.304366	1.392719	-0.520863	
12	0.0550	-1.351641	0.952903	-0.169784	-1.341022	0.956039	-0.455606	-1.526794	0.978170	-0.286489	-1.520719	0.974200	-0.381830	-1.452666	0.721608	-0.116976	-1.398662	0.724416	-0.123734	-1.451204	0.673043	-0.120802	-1.398764	0.676159	-0.125218	-1.461502	0.418287	-0.164698	-1.449848	0.409677	-0.275357	-1.608788	0.417685	-0.146037	-1.582587	0.368829	-0.154511	-1.654090	0.400634	-0.151530	-1.629437	0.351868	-0.156686	-1.856494	0.281896	-0.191329	-1.835534	0.270286	-0.282970	-1.858544	0.130313	-0.159595	-1.849079	0.127117	-0.274567	-1.794853	0.088260	-0.210262	-1.920400	0.320709	-0.253631	-1.334274	0.717984	-0.503201	-1.286558	0.740993	-0.497672	-1.318391	0.675157	-0.494052	-1.266925	0.700780	-0.488086	-1.161443	0.506749	-0.428173	-1.163004	0.511529	-0.321021	-1.233240	0.387327	-0.448045	-1.182859	0.380429	-0.437772	-1.246717	0.336886	-0.447474	-1.195435	0.332293	-0.434567	-1.272434	0.105906	-0.402205	-1.246267	0.113564	-0.310321	-1.156329	0.041467	-0.438756	-1.128440	0.048795	-0.325711	-1.085351	0.070653	-0.382567	-1.341970	0.073651	-0.356718	-1.258323	1.392023	-0.190814	-1.288311	1.390831	-0.521858	
13	0.0600	-1.336878	0.952033	-0.169128	-1.326188	0.954869	-0.455843	-1.512219	0.976577	-0.285976	-1.505974	0.973208	-0.381370	-1.434374	0.720253	-0.116231	-1.380332	0.724114	-0.122897	-1.431928	0.671746	-0.119938	-1.379418	0.675934	-0.124056	-1.436375	0.417122	-0.162975	-1.424017	0.408224	-0.273561	-1.583521	0.416894	-0.144798	-1.557365	0.367873	-0.153052	-1.628908	0.399933	-0.150350	-1.604243	0.351005	-0.155365	-1.831481	0.281214	-0.190732	-1.810113	0.269537	-0.282310	-1.830525	0.130532	-0.158124	-1.820810	0.126495	-0.272977	-1.765883	0.089450	-0.208361	-1.896568	0.318536	-0.253483	-1.320616	0.716406	-0.502530	-1.272755	0.738858	-0.497160	-1.305212	0.673419	-0.493222	-1.253594	0.698435	-0.487362	-1.150435	0.503587	-0.427088	-1.151844	0.508718	-0.320005	-1.223789	0.385591	-0.446902	-1.173592	0.377655	-0.436420	-1.238365	0.335519	-0.446358	-1.187274	0.329833	-0.433129	-1.270361	0.105773	-0.401107	-1.244237	0.112447	-0.309011	-1.155506	0.040066	-0.438781	-1.127330	0.046117	-0.325355	-1.083740	0.067082	-0.382035	-1.341021	0.073966	-0.355836	-1.244013	1.391086	-0.190754	-1.272043	1.389089	-0.522763	
14	0.0650	-1.321983	0.951200	-0.168479	-1.311157	0.953831	-0.456093	-1.497474	0.975127	-0.285507	-1.491024	0.972383	-0.380942	-1.415853	0.719072	-0.115483	-1.361770	0.723986	-0.122050	-1.412395	0.670641	-0.119052	-1.359812	0.675905	-0.122874	-1.410754	0.416284	-0.161282	-1.397736	0.407180	-0.271794	-1.557744	0.416164	-0.143568	-1.531548	0.367033	-0.151614	-1.603187	0.399205	-0.149170	-1.578423	0.350169	-0.154061	-1.805692	0.280108	-0.190104	-1.783943	0.268400	-0.281635	-1.801424	0.130469	-0.156582	-1.791495	0.125531	-0.271316	-1.735822	0.090499	-0.206428	-1.872013	0.315745	-0.253273	-1.306996	0.714949	-0.501916	-1.258990	0.736801	-0.496720	-1.292117	0.671797	-0.492462	-1.240333	0.696146	-0.486728	-1.139704	0.500372	-0.426085	-1.140910	0.505840	-0.319065	-1.214657	0.383789	-0.445855	-1.164662	0.374836	-0.435157	-1.230330	0.334099	-0.445309	-1.179433	0.327347	-0.431772	-1.268498	0.105693	-0.400031	-1.242397	0.111447	-0.307738	-1.154785	0.038852	-0.438829	-1.126358	0.043761	-0.325042	-1.082286	0.063886	-0.381560	-1.340235	0.074243	-0.354944	-1.229731	1.390363	-0.190595	-1.255574	1.387515	-0.523566	
15	0.0700	-1.306960	0.950429	-0.167843	-1.295927	0.952939	-0.456349	-1.482561	0.973839	-0.285094	-1.475870	0.971737	-0.380556	-1.397125	0.718088	-0.114735	-1.342998	0.724051	-0.121198	-1.392626	0.669750	-0.118151	-1.339973	0.676095	-0.121676	-1.384667	0.415805	-0.159629	-1.371040	0.406578	-0.270065	-1.531483	0.415507	-0.142353	-1.505158	0.366329	-0.150203	-1.576949	0.398455	-0.147995	-1.551995	0.349373	-0.152777	-1.779129	0.278563	-0.189446	-1.757022	0.266864	-0.280946	-1.771248	0.130125	-0.154970	-1.761132	0.124234	-0.269582	-1.704683	0.091419	-0.204466	-1.846719	0.312314	-0.253003	-1.293419	0.713621	-0.501360	-1.245266	0.734825	-0.496348	-1.279112	0.670299	-0.491772	-1.227151	0.693919	-0.486181	-1.129275	0.497110	-0.425169	-1.130230	0.502895	-0.318202	-1.205871	0.381931	-0.444907	-1.156092	0.371984	-0.433989	-1.222634	0.332636	-0.444330	-1.171934	0.324848	-0.430501	-1.266846	0.105670	-0.398982	-1.240744	0.110568	-0.306511	-1.154170	0.037814	-0.438899	-1.125523	0.041716	-0.324774	-1.080990	0.061063	-0.381143	-1.339610	0.074500	-0.354049	-1.215498	1.389880	-0.190337	-1.238916	1.386133	-0.524254	
16	0.0750	-1.291816	0.949747	-0.167224	-1.280500	0.952204	-0.456601	-1.467485	0.972732	-0.284745	-1.460513	0.971282	-0.380223	-1.378215	0.717322	-0.113993	-1.324042	0.724330	-0.120345	-1.372648	0.669095	-0.117240	-1.319928	0.676523	-0.120470	-1.358156	0.415715	-0.158026	-1.343971	0.406450	-0.268381	-1.504778	0.414934	-0.141161	-1.478232	0.365778	-0.148828	-1.550230	0.397692	-0.146832	-1.524989	0.348631	-0.151522	-1.751801	0.276572	-0.188761	-1.729355	0.264924	-0.280243	-1.740018	0.129509	-0.153290	-1.729730	0.122622	-0.267777	-1.672493	0.092225	-0.202475	-1.820678	0.308231	-0.252672	-1.279887	0.712427	-0.500858	-1.231587	0.732936	-0.496039	-1.266202	0.668932	-0.491152	-1.214050	0.691762	-0.485719	-1.119165	0.493809	-0.424343	-1.119830	0.499888	-0.317419	-1.197448	0.380031	-0.444060	-1.147900	0.369115	-0.432921	-1.215292	0.331143	-0.443421	-1.164789	0.322352	-0.429323	-1.265398	0.105712	-0.397969	-1.239271	0.109815	-0.305337	-1.153664	0.036938	-0.438986	-1.124824	0.039965	-0.324549	-1.079852	0.058606	-0.380782	-1.339137	0.074757	-0.353154	-1.201336	1.389661	-0.189983	-1.222087	1.384965	-0.524817	
17	0.0800	-1.276560	0.949182	-0.166628	-1.264877	0.951639	-0.456838	-1.452254	0.971824	-0.284471	-1.444960	0.971028	-0.379952	-1.359150	0.716794	-0.113264	-1.304935	0.724842	-0.119494	-1.352493	0.668696	-0.116326	-1.299713	0.677208	-0.119263	-1.331271	0.416040	-0.156482	-1.316584	0.406821	-0.266750	-1.477677	0.414457	-0.140000	-1.450813	0.365399	-0.147495	-1.523074	0.396922	-0.145685	-1.497448	0.347956	-0.150300	-1.723728	0.274133	-0.188050	-1.700960	0.262578	-0.279525	-1.707772	0.128633	-0.151546	-1.697315	0.120718	-0.265903	-1.639299	0.092932	-0.200457	-1.793888	0.303491	-0.252284	-1.266400	0.711374	-0.500410	-1.217950	0.731139	-0.495785	-1.253388	0.667705	-0.490600	-1.201032	0.689682	-0.485335	-1.109386	0.490484	-0.423609	-1.109728	0.496828	-0.316714	-1.189400	0.378107	-0.443315	-1.140094	0.366247	-0.431958	-1.208311	0.329636	-0.442584	-1.158004	0.319876	-0.428242	-1.264145	0.105827	-0.396999	-1.237967	0.109197	-0.304225	-1.153269	0.036208	-0.439087	-1.124256	0.038488	-0.324366	-1.078871	0.056501	-0.380475	-1.338804	0.075041	-0.352268	-1.187265	1.389728	-0.189536	-1.205108	1.384031	-0.525244	
18	0.0850	-1.261200	0.948765	-0.166058	-1.249064	0.951251	-0.457049	-1.436875	0.971130	-0.284279	-1.429219	0.970982	-0.379752	-1.339962	0.716521	-0.112552	-1.285709	0.725602	-0.118650	-1.332196	0.668570	-0.115416	-1.279366	0.678166	-0.118062	-1.304074	0.416802	-0.155005	-1.288939	0.407709	-0.265179	-1.450237	0.414085	-0.138878	-1.422957	0.365207	-0.146213	-1.495533	0.396153	-0.144562	-1.469421	0.347361	-0.149119	-1.694936	0.271249	-0.187316	-1.671861	0.259835	-0.278794	-1.674562	0.127517	-0.149742	-1.663922	0.118554	-0.263964	-1.605159	0.093563	-0.198415	-1.766354	0.298098	-0.251843	-1.252955	0.710469	-0.500011	-1.204353	0.729442	-0.495577	-1.240665	0.666623	-0.490114	-1.188094	0.687689	-0.485025	-1.099941	0.487150	-0.422968	-1.099934	0.493728	-0.316087	-1.181731	0.376181	-0.442673	-1.132675	0.363402	-0.431105	-1.201689	0.328139	-0.441821	-1.151578	0.317443	-0.427264	-1.263072	0.106026	-0.396081	-1.236814	0.108718	-0.303185	-1.152985	0.035605	-0.439197	-1.123815	0.037259	-0.324221	-1.078046	0.054731	-0.380220	-1.338592	0.075383	-0.351399	-1.173306	1.390099	-0.189004	-1.188000	1.383351	-0.525527	
19	0.0900	-1.245750	0.948522	-0.165517	-1.233066	0.951049	-0.457223	-1.421359	0.970660	-0.284177	-1.413298	0.971148	-0.379629	-1.320685	0.716518	-0.111863	-1.266400	0.726626	-0.117817	-1.311795	0.668733	-0.114517	-1.258927	0.679411	-0.116877	-1.276632	0.418017	-0.153605	-1.261106	0.409128	-0.263677	-1.422522	0.413825	-0.137804	-1.394726	0.365215	-0.144987	-1.467666	0.395393	-0.143470	-1.440967	0.346860	-0.147983	-1.665461	0.267931	-0.186565	-1.642088	0.256704	-0.278051	-1.640448	0.126180	-0.147885	-1.629602	0.116164	-0.261966	-1.570142	0.094139	-0.196352	-1.738089	0.292068	-0.251354	-1.239546	0.709716	-0.499657	-1.190790	0.727851	-0.495405	-1.228026	0.665694	-0.489691	-1.175228	0.685794	-0.484779	-1.090826	0.483827	-0.422419	-1.090455	0.490603	-0.315538	-1.174433	0.374281	-0.442132	-1.125636	0.360608	-0.430363	-1.195419	0.326676	-0.441132	-1.145500	0.315077	-0.426392	-1.262158	0.106323	-0.395226	-1.235792	0.108390	-0.302227	-1.152812	0.035112	-0.439313	-1.123495	0.036251	-0.324112	-1.077373	0.053271	-0.380012	-1.338476	0.075818	-0.350555	-1.159476	1.390789	-0.188392	-1.170788	1.382939	-0.525658	
20	0.0950	-1.230221	0.948482	-0.165008	-1.216890	0.951038	-0.457347	-1.405717	0.970425	-0.284169	-1.397210	0.971527	-0.379591	-1.301352	0.716797	-0.111204	-1.247046	0.727924	-0.116999	-1.291329	0.669196	-0.113638	-1.238439	0.680953	-0.115715	-1.249021	0.419697	-0.152288	-1.233158	0.411083	-0.262249	-1.394601	0.413684	-0.136784	-1.366191	0.365436	-0.143825	-1.439537	0.394648	-0.142415	-1.412152	0.346464	-0.146899	-1.635344	0.264195	-0.185800	-1.611677	0.253203	-0.277299	-1.605503	0.124649	-0.145984	-1.594411	0.113588	-0.259916	-1.534330	0.094683	-0.194272	-1.709109	0.285422	-0.250824	-1.226163	0.709121	-0.499343	-1.177250	0.726375	-0.495261	-1.215459	0.664925	-0.489327	-1.162426	0.684008	-0.484589	-1.082028	0.480538	-0.421962	-1.081283	0.487474	-0.315065	-1.167492	0.372437	-0.441692	-1.118958	0.357892	-0.429737	-1.189479	0.325277	-0.440521	-1.139752	0.312808	-0.425631	-1.261374	0.106733	-0.394443	-1.234874	0.108222	-0.301361	-1.152749	0.034710	-0.439430	-1.123290	0.035436	-0.324035	-1.076849	0.052095	-0.379848	-1.338425	0.076386	-0.349748	-1.145790	1.391808	-0.187710	-1.153497	1.382808	-0.525632	
21	0.1000	-1.214625	0.948669	-0.164531	-1.200544	0.951222	-0.457409	-1.389960	0.970431	-0.284258	-1.380965	0.972119	-0.379640	-1.281998	0.717367	-0.110580	-1.227684	0.729504	-0.116200	-1.270838	0.669969	-0.112786	-1.217944	0.682800	-0.114585	-1.221321	0.421845	-0.151061	-1.205174	0.413573	-0.260902	-1.366545	0.413665	-0.135828	-1.337426	0.365876	-0.142732	-1.411212	0.393922	-0.141404	-1.383043	0.346182	-0.145871	-1.604629	0.260061	-0.185028	-1.580670	0.249352	-0.276539	-1.569805	0.122951	-0.144047	-1.558415	0.110866	-0.257824	-1.497808	0.095220	-0.192180	-1.679436	0.278191	-0.250262	-1.212793	0.708689	-0.499064	-1.163721	0.725023	-0.495132	-1.202946	0.664323	-0.489018	-1.149672	0.682345	-0.484446	-1.073523	0.477309	-0.421596	-1.072405	0.484362	-0.314664	-1.160881	0.370681	-0.441351	-1.112616	0.355286	-0.429227	-1.183844	0.323974	-0.439988	-1.134306	0.310663	-0.424985	-1.260690	0.107277	-0.393742	-1.234029	0.108227	-0.300597	-1.152794	0.034385	-0.439544	-1.123192	0.034783	-0.323984	-1.076470	0.051173	-0.379722	-1.338403	0.077131	-0.348989	-1.132260	1.393160	-0.186967	-1.136152	1.382967	-0.525446	
22	0.1050	-1.198976	0.949106	-0.164086	-1.184038	0.951602	-0.457398	-1.374098	0.970680	-0.284445	-1.364576	0.972920	-0.379779	-1.262655	0.718234	-0.109994	-1.208349	0.731373	-0.115423	-1.250361	0.671057	-0.111969	-1.197483	0.684955	-0.113494	-1.193612	0.424460	-0.149929	-1.177232	0.416589	-0.259641	-1.338429	0.413768	-0.134941	-1.308506	0.366542	-0.141713	-1.382760	0.393222	-0.140445	-1.353715	0.346023	-0.144903	-1.573362	0.255556	-0.184254	-1.549108	0.245179	-0.275776	-1.533438	0.121114	-0.142087	-1.521687	0.108045	-0.255700	-1.460668	0.095771	-0.190082	-1.649094	0.270416	-0.249676	-1.199421	0.708423	-0.498814	-1.150188	0.723806	-0.495008	-1.190469	0.663892	-0.488760	-1.136947	0.680817	-0.484339	-1.065278	0.474168	-0.421318	-1.063798	0.481294	-0.314334	-1.154563	0.369048	-0.441107	-1.106572	0.352822	-0.428835	-1.178475	0.322802	-0.439536	-1.129126	0.308675	-0.424456	-1.260068	0.107973	-0.393135	-1.233221	0.108418	-0.299947	-1.152942	0.034121	-0.439652	-1.123193	0.034267	-0.323956	-1.076233	0.050474	-0.379630	-1.338369	0.078098	-0.348291	-1.118895	1.394847	-0.186173	-1.118777	1.383421	-0.525099	
23	0.1100	-1.183285	0.949813	-0.163672	-1.167379	0.952178	-0.457304	-1.358144	0.971172	-0.284728	-1.348058	0.973923	-0.380007	-1.243354	0.719398	-0.109452	-1.189074	0.733530	-0.114671	-1.229935	0.672459	-0.111194	-1.177095	0.687417	-0.112448	-1.165978	0.427533	-0.148896	-1.149411	0.420115	-0.258470	-1.310324	0.413990	-0.134132	-1.279510	0.367433	-0.140771	-1.354249	0.392547	-0.139544	-1.324239	0.345992	-0.143999	-1.541594	0.250710	-0.183484	-1.517039	0.240712	-0.275014	-1.496487	0.119168	-0.140115	-1.484303	0.105166	-0.253558	-1.423002	0.096360	-0.187987	-1.618111	0.262141	-0.249076	-1.186027	0.708328	-0.498586	-1.136632	0.722735	-0.494879	-1.178000	0.663639	-0.488547	-1.124230	0.679438	-0.484258	-1.057253	0.471143	-0.421124	-1.055426	0.478297	-0.314071	-1.148494	0.367574	-0.440959	-1.100781	0.350532	-0.428562	-1.173326	0.321797	-0.439167	-1.124166	0.306874	-0.424048	-1.259464	0.108847	-0.392631	-1.232411	0.108811	-0.299421	-1.153188	0.033909	-0.439750	-1.123285	0.033860	-0.323945	-1.076131	0.049964	-0.379565	-1.338273	0.079337	-0.347666	-1.105697	1.396863	-0.185339	-1.101395	1.384172	-0.524590	
24	0.1150	-1.167565	0.950803	-0.163286	-1.150579	0.952947	-0.457116	-1.342107	0.971903	-0.285104	-1.331423	0.975121	-0.380320	-1.224123	0.720857	-0.108955	-1.169890	0.735974	-0.113947	-1.209594	0.674174	-0.110466	-1.156816	0.690181	-0.111455	-1.138501	0.431048	-0.147964	-1.121790	0.424127	-0.257391	-1.282303	0.414325	-0.133404	-1.250514	0.368546	-0.139911	-1.325743	0.391899	-0.138706	-1.294689	0.346092	-0.143163	-1.509373	0.245556	-0.182727	-1.484509	0.235985	-0.274258	-1.459038	0.117140	-0.138147	-1.446342	0.102274	-0.251414	-1.384906	0.097003	-0.185905	-1.586520	0.253422	-0.248473	-1.172590	0.708406	-0.498375	-1.123034	0.721822	-0.494734	-1.165513	0.663568	-0.488374	-1.111497	0.678223	-0.484194	-1.049397	0.468264	-0.421012	-1.047250	0.475398	-0.313871	-1.142619	0.366297	-0.440905	-1.095190	0.348450	-0.428408	-1.168343	0.320993	-0.438883	-1.119376	0.305292	-0.423762	-1.258833	0.109921	-0.392242	-1.231555	0.109422	-0.299028	-1.153525	0.033742	-0.439836	-1.123457	0.033541	-0.323946	-1.076161	0.049612	-0.379522	-1.338065	0.080896	-0.347129	-1.092668	1.399198	-0.184477	-1.084028	1.385216	-0.523923	
25	0.1200	-1.151826	0.952087	-0.162925	-1.133647	0.953906	-0.456826	-1.325998	0.972865	-0.285565	-1.314683	0.976503	-0.380713	-1.204988	0.722604	-0.108507	-1.150823	0.738696	-0.113252	-1.189370	0.676194	-0.109792	-1.136681	0.693238	-0.110519	-1.111261	0.434983	-0.147134	-1.094443	0.428593	-0.256408	-1.254432	0.414764	-0.132763	-1.221593	0.369876	-0.139132	-1.297307	0.391276	-0.137938	-1.265135	0.346323	-0.142395	-1.476748	0.240132	-0.181988	-1.451565	0.231034	-0.273514	-1.421177	0.115059	-0.136198	-1.407887	0.099409	-0.249284	-1.346469	0.097716	-0.183847	-1.554355	0.244316	-0.247877	-1.159087	0.708659	-0.498174	-1.109372	0.721076	-0.494564	-1.152977	0.663684	-0.488238	-1.098719	0.677186	-0.484135	-1.041653	0.465560	-0.420977	-1.039216	0.472626	-0.313731	-1.136876	0.365249	-0.440942	-1.089737	0.346606	-0.428371	-1.163464	0.320427	-0.438687	-1.114695	0.303958	-0.423600	-1.258122	0.111223	-0.391976	-1.230609	0.110269	-0.298778	-1.153943	0.033616	-0.439907	-1.123699	0.033291	-0.323954	-1.076314	0.049384	-0.379497	-1.337687	0.082826	-0.346692	-1.079802	1.401836	-0.183597	-1.066695	1.386545	-0.523102	
26	0.1250	-1.136077	0.953670	-0.162584	-1.116594	0.955048	-0.456428	-1.309823	0.974049	-0.286104	-1.297852	0.978057	-0.381179	-1.185970	0.724630	-0.108107	-1.131897	0.741686	-0.112588	-1.169292	0.678507	-0.109174	-1.116717	0.696573	-0.109644	-1.084332	0.439308	-0.146405	-1.067441	0.433474	-0.255521	-1.226773	0.415295	-0.132211	-1.192818	0.371410	-0.138438	-1.268997	0.390673	-0.137244	-1.235643	0.346682	-0.141696	-1.443767	0.234476	-0.181275	-1.418255	0.225897	-0.272787	-1.382988	0.112947	-0.134286	-1.369022	0.096610	-0.247189	-1.307782	0.098510	-0.181828	-1.521651	0.234887	-0.247299	-1.145494	0.709089	-0.497979	-1.095623	0.720510	-0.494361	-1.140360	0.663989	-0.488133	-1.085868	0.676340	-0.484073	-1.033957	0.463058	-0.421014	-1.031267	0.470009	-0.313648	-1.131195	0.364465	-0.441069	-1.084357	0.345029	-0.428451	-1.158623	0.320131	-0.438582	-1.110060	0.302900	-0.423564	-1.257279	0.112777	-0.391843	-1.229522	0.111370	-0.298679	-1.154429	0.033533	-0.439962	-1.123998	0.033097	-0.323966	-1.076582	0.049251	-0.379484	-1.337081	0.085174	-0.346368	-1.067090	1.404756	-0.182710	-1.049413	1.388149	-0.522133	
27	0.1300	-1.120327	0.955553	-0.162257	-1.099431	0.956366	-0.455917	-1.293592	0.975441	-0.286709	-1.280942	0.979769	-0.381707	-1.167087	0.726919	-0.107755	-1.113131	0.744928	-0.111954	-1.149384	0.681098	-0.108617	-1.096948	0.700169	-0.108834	-1.057784	0.443988	-0.145776	-1.040848	0.438728	-0.254731	-1.199383	0.415902	-0.131751	-1.164253	0.373133	-0.137827	-1.240866	0.390086	-0.136627	-1.206276	0.347164	-0.141069	-1.410477	0.228629	-0.180596	-1.384627	0.220613	-0.272085	-1.344551	0.110828	-0.132430	-1.329829	0.093909	-0.245149	-1.268929	0.099389	-0.179865	-1.488450	0.225204	-0.246748	-1.131787	0.709695	-0.497785	-1.081765	0.720133	-0.494117	-1.127628	0.664485	-0.488054	-1.072913	0.675696	-0.483999	-1.026241	0.460782	-0.421119	-1.023338	0.467572	-0.313617	-1.125503	0.363974	-0.441283	-1.078976	0.343746	-0.428646	-1.153748	0.320137	-0.438570	-1.105402	0.302142	-0.423652	-1.256247	0.114610	-0.391849	-1.228246	0.112743	-0.298738	-1.154968	0.033501	-0.440000	-1.124342	0.032951	-0.323977	-1.076956	0.049184	-0.379478	-1.336183	0.087986	-0.346170	-1.054520	1.407936	-0.181829	-1.032198	1.390012	-0.521026	
28	0.1350	-1.104584	0.957729	-0.161938	-1.082168	0.957853	-0.455289	-1.277310	0.977027	-0.287367	-1.263965	0.981623	-0.382285	-1.148353	0.729452	-0.107449	-1.094540	0.748403	-0.111351	-1.129666	0.683946	-0.108120	-1.077395	0.704004	-0.108090	-1.031680	0.448980	-0.145243	-1.014723	0.444302	-0.254037	-1.172311	0.416567	-0.131383	-1.135960	0.375026	-0.137299	-1.212960	0.389506	-0.136093	-1.177091	0.347760	-0.140511	-1.376923	0.222632	-0.179958	-1.350727	0.215222	-0.271415	-1.305944	0.108718	-0.130652	-1.290393	0.091335	-0.243187	-1.229991	0.100353	-0.177976	-1.454794	0.215337	-0.246234	-1.117942	0.710476	-0.497585	-1.067777	0.719954	-0.493828	-1.114748	0.665171	-0.487997	-1.059826	0.675265	-0.483905	-1.018430	0.458755	-0.421288	-1.015361	0.465337	-0.313634	-1.119722	0.363800	-0.441583	-1.073521	0.342777	-0.428952	-1.148762	0.320469	-0.438654	-1.100649	0.301705	-0.423865	-1.254968	0.116745	-0.392002	-1.226729	0.114406	-0.298960	-1.155540	0.033531	-0.440021	-1.124713	0.032851	-0.323984	-1.077421	0.049157	-0.379476	-1.334930	0.091304	-0.346109	-1.042075	1.411345	-0.180962	-1.015062	1.392116	-0.519788	
29	0.1400	-1.088852	0.960188	-0.161623	-1.064818	0.959498	-0.454545	-1.260984	0.978790	-0.288065	-1.246932	0.983603	-0.382899	-1.129781	0.732209	-0.107186	-1.076133	0.752086	-0.110778	-1.110154	0.687026	-0.107685	-1.058072	0.708050	-0.107412	-1.006077	0.454237	-0.144802	-0.989116	0.450144	-0.253437	-1.145600	0.417270	-0.131107	-1.107991	0.377067	-0.136853	-1.185320	0.388923	-0.135641	-1.148141	0.348457	-0.140023	-1.343150	0.216526	-0.179369	-1.316605	0.209764	-0.270784	-1.267239	0.106631	-0.128971	-1.250797	0.088910	-0.241328	-1.191043	0.101395	-0.176184	-1.420730	0.205359	-0.245767	-1.103936	0.711429	-0.497378	-1.053636	0.719979	-0.493488	-1.101689	0.666044	-0.487959	-1.046578	0.675054	-0.483784	-1.010452	0.456994	-0.421514	-1.007264	0.463323	-0.313696	-1.113773	0.363964	-0.441965	-1.067914	0.342139	-0.429366	-1.143589	0.321148	-0.438835	-1.095729	0.301605	-0.424201	-1.253384	0.119206	-0.392305	-1.224920	0.116375	-0.299349	-1.156125	0.033637	-0.440025	-1.125093	0.032801	-0.323987	-1.077961	0.049151	-0.379475	-1.333259	0.095164	-0.346195	-1.029737	1.414952	-0.180119	-0.998016	1.394438	-0.518432	
30	0.1450	-1.073136	0.962915	-0.161305	-1.047392	0.961291	-0.453686	-1.244618	0.980710	-0.288788	-1.229853	0.985692	-0.383535	-1.111376	0.735163	-0.106962	-1.057916	0.755951	-0.110232	-1.090861	0.690313	-0.107310	-1.038990	0.712276	-0.106801	-0.981019	0.459709	-0.144448	-0.964069	0.456194	-0.252931	-1.119282	0.417988	-0.130921	-1.080392	0.379230	-0.136487	-1.157979	0.388326	-0.135274	-1.119470	0.349243	-0.139602	-1.309202	0.210355	-0.178834	-1.282308	0.204278	-0.270200	-1.228507	0.104575	-0.127412	-1.211125	0.086649	-0.239597	-1.152157	0.102502	-0.174510	-1.386309	0.195345	-0.245354	-1.089749	0.712550	-0.497159	-1.039325	0.720214	-0.493096	-1.088420	0.667100	-0.487935	-1.033140	0.675069	-0.483632	-1.002231	0.455510	-0.421792	-0.998973	0.461544	-0.313799	-1.107576	0.364479	-0.442429	-1.062081	0.341844	-0.429883	-1.138153	0.322190	-0.439114	-1.090569	0.301853	-0.424656	-1.251437	0.122012	-0.392762	-1.222769	0.118664	-0.299907	-1.156693	0.033841	-0.440015	-1.125460	0.032811	-0.323983	-1.078557	0.049147	-0.379473	-1.331106	0.099596	-0.346436	-1.017485	1.418723	-0.179309	-0.981068	1.396953	-0.516969	
31	0.1500	-1.057439	0.965887	-0.160978	-1.029905	0.963222	-0.452715	-1.228216	0.982766	-0.289520	-1.212740	0.987872	-0.384175	-1.093145	0.738286	-0.106771	-1.039893	0.759966	-0.109713	-1.071795	0.693773	-0.106992	-1.020155	0.716648	-0.106255	-0.956546	0.465340	-0.144175	-0.939618	0.462391	-0.252515	-1.093386	0.418698	-0.130822	-1.053201	0.381487	-0.136199	-1.130962	0.387702	-0.134991	-1.091116	0.350101	-0.139248	-1.275124	0.204156	-0.178361	-1.247887	0.198803	-0.269670	-1.189815	0.102553	-0.125995	-1.171460	0.084561	-0.238019	-1.113397	0.103653	-0.172980	-1.351587	0.185369	-0.245003	-1.075362	0.713830	-0.496927	-1.024827	0.720658	-0.492649	-1.074915	0.668331	-0.487922	-1.019489	0.675311	-0.483444	-0.993695	0.454312	-0.422118	-0.990415	0.460010	-0.313938	-1.101053	0.365353	-0.442972	-1.055945	0.341896	-0.430498	-1.132378	0.323603	-0.439492	-1.085096	0.302453	-0.425226	-1.249071	0.125178	-0.393373	-1.220225	0.121287	-0.300632	-1.157215	0.034166	-0.439991	-1.125791	0.032896	-0.323973	-1.079183	0.049133	-0.379467	-1.328412	0.104624	-0.346838	-1.005297	1.422622	-0.178539	-0.964227	1.399636	-0.515412	
32	0.1550	-1.041763	0.969080	-0.160637	-1.012369	0.965277	-0.451640	-1.211784	0.984936	-0.290245	-1.195603	0.990122	-0.384805	-1.075088	0.741547	-0.106609	-1.022063	0.764096	-0.109216	-1.052962	0.697373	-0.106726	-1.001569	0.721129	-0.105769	-0.932685	0.471072	-0.143978	-0.915787	0.468672	-0.252187	-1.067929	0.419374	-0.130804	-1.026450	0.383807	-0.135985	-1.104292	0.387038	-0.134791	-1.063114	0.351011	-0.138959	-1.240960	0.197971	-0.177956	-1.213394	0.193375	-0.269204	-1.151227	0.100566	-0.124744	-1.131886	0.082648	-0.236622	-1.074829	0.104823	-0.171619	-1.316624	0.175502	-0.244719	-1.060761	0.715260	-0.496679	-1.010130	0.721312	-0.492150	-1.061149	0.669729	-0.487918	-1.005602	0.675779	-0.483217	-0.984773	0.453400	-0.422485	-0.981519	0.458725	-0.314110	-1.094129	0.366586	-0.443589	-1.049434	0.342294	-0.431205	-1.126191	0.325390	-0.439968	-1.079243	0.303405	-0.425906	-1.246231	0.128719	-0.394136	-1.217243	0.124253	-0.301522	-1.157654	0.034637	-0.439958	-1.126055	0.033076	-0.323958	-1.079811	0.049100	-0.379458	-1.325120	0.110259	-0.347407	-0.993150	1.426609	-0.177814	-0.947497	1.402455	-0.513776	
33	0.1600	-1.026107	0.972462	-0.160279	-0.994798	0.967445	-0.450467	-1.195324	0.987197	-0.290947	-1.178450	0.992425	-0.385408	-1.057205	0.744911	-0.106467	-1.004422	0.768304	-0.108740	-1.034362	0.701076	-0.106508	-0.983231	0.725677	-0.105342	-0.909455	0.476846	-0.143849	-0.892594	0.474972	-0.251943	-1.042923	0.419992	-0.130864	-1.000161	0.386158	-0.135844	-1.077981	0.386321	-0.134674	-1.035488	0.351955	-0.138733	-1.206758	0.191835	-0.177624	-1.178882	0.188028	-0.268807	-1.112808	0.098608	-0.123680	-1.092488	0.080906	-0.235428	-1.036510	0.105980	-0.170453	-1.281486	0.165816	-0.244507	-1.045933	0.716830	-0.496415	-0.995224	0.722168	-0.491600	-1.047104	0.671279	-0.487918	-0.991463	0.676467	-0.482949	-0.975400	0.452771	-0.422889	-0.972220	0.457687	-0.314309	-1.086734	0.368170	-0.444278	-1.042483	0.343031	-0.431995	-1.119524	0.327543	-0.440541	-1.072944	0.304702	-0.426689	-1.242866	0.132639	-0.395048	-1.213779	0.127568	-0.302570	-1.157969	0.035283	-0.439917	-1.126219	0.033374	-0.323940	-1.080404	0.049047	-0.379445	-1.321177	0.116508	-0.348142	-0.981020	1.430648	-0.177139	-0.930885	1.405382	-0.512073	
34	0.1650	-1.010472	0.976000	-0.159899	-0.977208	0.969712	-0.449207	-1.178841	0.989525	-0.291611	-1.161294	0.994760	-0.385968	-1.039494	0.748343	-0.106339	-0.986964	0.772550	-0.108280	-1.015996	0.704841	-0.106332	-0.965136	0.730249	-0.104968	-0.886864	0.482602	-0.143782	-0.870047	0.481230	-0.251781	-1.018374	0.420528	-0.130993	-0.974352	0.388507	-0.135773	-1.052040	0.385535	-0.134635	-1.008260	0.352910	-0.138567	-1.172567	0.185784	-0.177371	-1.144408	0.182793	-0.268488	-1.074621	0.096671	-0.122825	-1.053350	0.079324	-0.234463	-0.998501	0.107089	-0.169509	-1.246247	0.156378	-0.244370	-1.030872	0.718524	-0.496135	-0.980104	0.723219	-0.491001	-1.032766	0.672967	-0.487920	-0.977058	0.677366	-0.482640	-0.965516	0.452413	-0.423324	-0.962456	0.456888	-0.314531	-1.078802	0.370093	-0.445035	-1.035027	0.344093	-0.432861	-1.112316	0.330052	-0.441207	-1.066141	0.306330	-0.427568	-1.238931	0.136943	-0.396103	-1.209791	0.131233	-0.303769	-1.158115	0.036133	-0.439875	-1.126247	0.033819	-0.323924	-1.080921	0.048974	-0.379431	-1.316539	0.123364	-0.349042	-0.968887	1.434699	-0.176517	-0.914393	1.408383	-0.510319	
35	0.1700	-0.994856	0.979656	-0.159496	-0.959615	0.972064	-0.447871	-1.162340	0.991894	-0.292221	-1.144142	0.997107	-0.386469	-1.021951	0.751804	-0.106217	-0.969680	0.776792	-0.107833	-0.997860	0.708629	-0.106190	-0.947277	0.734801	-0.104643	-0.864913	0.488281	-0.143773	-0.848144	0.487382	-0.251695	-0.994279	0.420958	-0.131186	-0.949033	0.390822	-0.135769	-1.026474	0.384670	-0.134671	-0.981446	0.353856	-0.138461	-1.138442	0.179850	-0.177200	-1.110035	0.177700	-0.268252	-1.036729	0.094743	-0.122195	-1.014561	0.077884	-0.233747	-0.960859	0.108110	-0.168809	-1.210986	0.147252	-0.244312	-1.015573	0.720327	-0.495838	-0.964765	0.724452	-0.490359	-1.018123	0.674775	-0.487922	-0.962376	0.678462	-0.482290	-0.955071	0.452311	-0.423783	-0.952171	0.456316	-0.314772	-1.070278	0.372332	-0.445854	-1.027014	0.345460	-0.433792	-1.104510	0.332897	-0.441963	-1.058780	0.308271	-0.428531	-1.234382	0.141625	-0.397293	-1.205244	0.135248	-0.305109	-1.158040	0.037214	-0.439834	-1.126094	0.034437	-0.323913	-1.081315	0.048887	-0.379418	-1.311165	0.130812	-0.350105	-0.956730	1.438723	-0.175950	-0.898025	1.411429	-0.508528	
36	0.1750	-0.979258	0.983392	-0.159068	-0.942033	0.974485	-0.446472	-1.145825	0.994280	-0.292766	-1.127005	0.999445	-0.386899	-1.004569	0.755256	-0.106095	-0.952562	0.780986	-0.107396	-0.979949	0.712396	-0.106075	-0.929644	0.739287	-0.104360	-0.843592	0.493823	-0.143815	-0.826879	0.493369	-0.251684	-0.970632	0.421261	-0.131435	-0.924206	0.393070	-0.135831	-1.001284	0.383711	-0.134779	-0.955058	0.354770	-0.138414	-1.104438	0.174064	-0.177116	-1.075827	0.172772	-0.268107	-0.999200	0.092810	-0.121809	-0.976207	0.076565	-0.233298	-0.923643	0.109001	-0.168376	-1.175788	0.138496	-0.244332	-1.000036	0.722219	-0.495525	-0.949211	0.725850	-0.489679	-1.003172	0.676681	-0.487922	-0.947414	0.679738	-0.481902	-0.944019	0.452443	-0.424262	-0.941318	0.455953	-0.315026	-1.061111	0.374861	-0.446730	-1.018393	0.347105	-0.434778	-1.096059	0.336052	-0.442802	-1.050814	0.310500	-0.429569	-1.229183	0.146677	-0.398607	-1.200104	0.139605	-0.306576	-1.157691	0.038555	-0.439802	-1.125713	0.035259	-0.323914	-1.081532	0.048796	-0.379410	-1.305024	0.138824	-0.351322	-0.944530	1.442684	-0.175438	-0.881786	1.414486	-0.506713	
37	0.1800	-0.963676	0.987163	-0.158615	-0.924478	0.976960	-0.445023	-1.129300	0.996655	-0.293233	-1.109893	1.001753	-0.387245	-0.987344	0.758660	-0.105965	-0.935597	0.785089	-0.106965	-0.962254	0.716100	-0.105980	-0.912226	0.743660	-0.104113	-0.822882	0.499174	-0.143903	-0.806233	0.499135	-0.251742	-0.947423	0.421418	-0.131731	-0.899872	0.395220	-0.135955	-0.976469	0.382650	-0.134952	-0.929103	0.355630	-0.138423	-1.070620	0.168452	-0.177121	-1.041853	0.168031	-0.268056	-0.962101	0.090857	-0.121677	-0.938379	0.075343	-0.233132	-0.886912	0.109719	-0.168230	-1.140745	0.130162	-0.244432	-0.984265	0.724179	-0.495198	-0.933445	0.727393	-0.488966	-0.987913	0.678662	-0.487916	-0.932170	0.681173	-0.481477	-0.932326	0.452784	-0.424754	-0.929857	0.455777	-0.315288	-1.051261	0.377648	-0.447655	-1.009125	0.348999	-0.435807	-1.086921	0.339484	-0.443719	-1.042205	0.312988	-0.430669	-1.223303	0.152083	-0.400032	-1.194343	0.144292	-0.308157	-1.157007	0.040179	-0.439783	-1.125052	0.036313	-0.323932	-1.081512	0.048716	-0.379411	-1.298091	0.147364	-0.352685	-0.932272	1.446547	-0.174979	-0.865678	1.417523	-0.504889	
38	0.1850	-0.948106	0.990928	-0.158138	-0.906968	0.979472	-0.443540	-1.112773	0.998994	-0.293613	-1.092815	1.004009	-0.387498	-0.970267	0.761974	-0.105821	-0.918775	0.789056	-0.106536	-0.944767	0.719696	-0.105898	-0.895009	0.747872	-0.103897	-0.802759	0.504281	-0.144034	-0.786184	0.504627	-0.251866	-0.924638	0.421413	-0.132068	-0.876024	0.397241	-0.136140	-0.952028	0.381477	-0.135187	-0.903588	0.356416	-0.138489	-1.037055	0.163038	-0.177218	-1.008188	0.163495	-0.268104	-0.925504	0.088869	-0.121810	-0.901168	0.074188	-0.233258	-0.850729	0.110222	-0.168383	-1.105955	0.122297	-0.244610	-0.968266	0.726183	-0.494858	-0.917475	0.729057	-0.488227	-0.972348	0.680692	-0.487903	-0.916647	0.682741	-0.481019	-0.919964	0.453304	-0.425254	-0.917757	0.455761	-0.315552	-1.040695	0.380653	-0.448622	-0.999177	0.351107	-0.436867	-1.077065	0.343158	-0.444704	-1.032919	0.315702	-0.431819	-1.216715	0.157821	-0.401556	-1.187938	0.149293	-0.309834	-1.155924	0.042108	-0.439784	-1.124052	0.037624	-0.323975	-1.081186	0.048664	-0.379427	-1.290351	0.156383	-0.354180	-0.919942	1.450275	-0.174571	-0.849704	1.420509	-0.503069	
39	0.1900	-0.932545	0.994641	-0.157638	-0.889516	0.982003	-0.442036	-1.096249	1.001268	-0.293898	-1.075780	1.006191	-0.387649	-0.953331	0.765161	-0.105656	-0.902082	0.792843	-0.106106	-0.927476	0.723142	-0.105821	-0.877979	0.751880	-0.103705	-0.783189	0.509095	-0.144206	-0.766703	0.509798	-0.252052	-0.902260	0.421234	-0.132437	-0.852654	0.399106	-0.136385	-0.927955	0.380186	-0.135478	-0.878515	0.357107	-0.138612	-1.003818	0.157844	-0.177407	-0.974910	0.159177	-0.268254	-0.889486	0.086831	-0.122212	-0.864668	0.073070	-0.233682	-0.815160	0.110470	-0.168847	-1.071522	0.114940	-0.244865	-0.952048	0.728207	-0.494505	-0.901310	0.730817	-0.487468	-0.956487	0.682745	-0.487880	-0.900851	0.684416	-0.480531	-0.906917	0.453971	-0.425756	-0.904997	0.455878	-0.315814	-1.029389	0.383837	-0.449624	-0.988525	0.353390	-0.437945	-1.066467	0.347032	-0.445748	-1.022933	0.318604	-0.433006	-1.209400	0.163865	-0.403161	-1.180869	0.154585	-0.311590	-1.154375	0.044357	-0.439811	-1.122649	0.039216	-0.324051	-1.080483	0.048659	-0.379464	-1.281796	0.165824	-0.355794	-0.907529	1.453839	-0.174209	-0.833867	1.423416	-0.501266	
40	0.1950	-0.916991	0.998259	-0.157118	-0.872137	0.984533	-0.440526	-1.079734	1.003452	-0.294081	-1.058797	1.008277	-0.387693	-0.936526	0.768180	-0.105467	-0.885506	0.796408	-0.105672	-0.910371	0.726396	-0.105743	-0.861119	0.755637	-0.103532	-0.764136	0.513573	-0.144416	-0.747754	0.514606	-0.252298	-0.880272	0.420870	-0.132832	-0.829750	0.400789	-0.136688	-0.904249	0.378775	-0.135819	-0.853887	0.357684	-0.138791	-0.970988	0.152889	-0.177689	-0.942104	0.155089	-0.268508	-0.854128	0.084730	-0.122882	-0.828973	0.071960	-0.234403	-0.780275	0.110426	-0.169626	-1.037553	0.108122	-0.245194	-0.935623	0.730224	-0.494143	-0.884960	0.732643	-0.486697	-0.940339	0.684791	-0.487845	-0.884791	0.686168	-0.480018	-0.893174	0.454749	-0.426256	-0.891560	0.456098	-0.316067	-1.017327	0.387154	-0.450650	-0.977151	0.355809	-0.439029	-1.055109	0.351063	-0.446842	-1.012227	0.321656	-0.434214	-1.201341	0.170180	-0.404832	-1.173120	0.160142	-0.313405	-1.152290	0.046937	-0.439872	-1.120778	0.041106	-0.324167	-1.079324	0.048721	-0.379530	-1.272425	0.175621	-0.357509	-0.895026	1.457208	-0.173887	-0.818171	1.426214	-0.499493	
41	0.2000	-0.901438	1.001738	-0.156579	-0.854846	0.987042	-0.439025	-1.063235	1.005519	-0.294159	-1.041874	1.010245	-0.387627	-0.919843	0.770994	-0.105249	-0.869034	0.799709	-0.105231	-0.893437	0.729418	-0.105658	-0.844415	0.759102	-0.103372	-0.745556	0.517676	-0.144664	-0.729299	0.519015	-0.252598	-0.858657	0.420318	-0.133246	-0.807299	0.402269	-0.137048	-0.880908	0.377242	-0.136206	-0.829706	0.358132	-0.139028	-0.938651	0.148186	-0.178062	-0.909855	0.151236	-0.268866	-0.819514	0.082556	-0.123815	-0.794177	0.070828	-0.235416	-0.746147	0.110059	-0.170718	-1.004160	0.101866	-0.245594	-0.919002	0.732206	-0.493770	-0.868438	0.734505	-0.485918	-0.923919	0.686800	-0.487795	-0.868478	0.687964	-0.479483	-0.878736	0.455605	-0.426746	-0.877441	0.456388	-0.316306	-1.004503	0.390561	-0.451692	-0.965045	0.358321	-0.440104	-1.042984	0.355203	-0.447973	-1.000791	0.324818	-0.435431	-1.192529	0.176730	-0.406550	-1.164678	0.165931	-0.315261	-1.149595	0.049851	-0.439973	-1.118364	0.043305	-0.324333	-1.077626	0.048874	-0.379632	-1.262246	0.185699	-0.359307	-0.882427	1.460354	-0.173599	-0.802619	1.428878	-0.497759	
42	0.2050	-0.885885	1.005036	-0.156026	-0.837653	0.989507	-0.437546	-1.046758	1.007441	-0.294132	-1.025017	1.012071	-0.387451	-0.903272	0.773567	-0.104999	-0.852652	0.802709	-0.104782	-0.876661	0.732171	-0.105562	-0.827848	0.762236	-0.103220	-0.727404	0.521371	-0.144950	-0.711293	0.522993	-0.252950	-0.837397	0.419575	-0.133672	-0.785287	0.403526	-0.137466	-0.857932	0.375590	-0.136632	-0.805976	0.358435	-0.139322	-0.906897	0.143750	-0.178526	-0.878254	0.147623	-0.269328	-0.785733	0.080301	-0.125000	-0.760375	0.069646	-0.236710	-0.712853	0.109343	-0.172115	-0.971459	0.096188	-0.246063	-0.902198	0.734125	-0.493390	-0.851755	0.736371	-0.485137	-0.907240	0.688743	-0.487729	-0.851924	0.689772	-0.478931	-0.863607	0.456503	-0.427224	-0.862641	0.456718	-0.316526	-0.990914	0.394010	-0.452739	-0.952202	0.360886	-0.441159	-1.030089	0.359407	-0.449130	-0.988618	0.328047	-0.436641	-1.182958	0.183471	-0.408299	-1.155533	0.171917	-0.317138	-1.146216	0.053097	-0.440123	-1.115333	0.045817	-0.324556	-1.075301	0.049137	-0.379780	-1.251271	0.195980	-0.361166	-0.869729	1.463254	-0.173337	-0.787211	1.431383	-0.496077	
43	0.2100	-0.870325	1.008111	-0.155461	-0.820567	0.991906	-0.436102	-1.030309	1.009193	-0.293998	-1.008234	1.013735	-0.387166	-0.886801	0.775866	-0.104716	-0.836346	0.805371	-0.104322	-0.860027	0.734619	-0.105451	-0.811402	0.765003	-0.103071	-0.709631	0.524631	-0.145276	-0.693694	0.526516	-0.253350	-0.816477	0.418645	-0.134108	-0.763700	0.404545	-0.137939	-0.835322	0.373826	-0.137094	-0.782699	0.358581	-0.139676	-0.875820	0.139589	-0.179077	-0.847395	0.144249	-0.269891	-0.752877	0.077963	-0.126423	-0.727661	0.068390	-0.238266	-0.680474	0.108260	-0.173803	-0.939563	0.091096	-0.246594	-0.885224	0.735954	-0.493002	-0.834922	0.738208	-0.484361	-0.890318	0.690589	-0.487643	-0.835140	0.691559	-0.478367	-0.847799	0.457410	-0.427683	-0.847165	0.457058	-0.316723	-0.976567	0.397457	-0.453781	-0.938624	0.363462	-0.442181	-1.016426	0.363628	-0.450301	-0.975708	0.331303	-0.437833	-1.172624	0.190355	-0.410059	-1.145675	0.178057	-0.319015	-1.142078	0.056663	-0.440329	-1.111606	0.048640	-0.324845	-1.072259	0.049531	-0.379984	-1.239518	0.206375	-0.363065	-0.856929	1.465885	-0.173093	-0.771950	1.433708	-0.494455	
44	0.2150	-0.854754	1.010926	-0.154887	-0.803597	0.994214	-0.434704	-1.013894	1.010749	-0.293762	-0.991527	1.015212	-0.386777	-0.870420	0.777861	-0.104399	-0.820102	0.807664	-0.103852	-0.843518	0.736731	-0.105323	-0.795058	0.767372	-0.102923	-0.692189	0.527435	-0.145643	-0.676453	0.529566	-0.253796	-0.795885	0.417534	-0.134549	-0.742526	0.405314	-0.138467	-0.813085	0.371957	-0.137588	-0.759882	0.358561	-0.140089	-0.845518	0.135710	-0.179711	-0.817371	0.141112	-0.270551	-0.721039	0.075542	-0.128061	-0.696125	0.067040	-0.240062	-0.649092	0.106803	-0.175759	-0.908589	0.086588	-0.247183	-0.868092	0.737665	-0.492608	-0.817948	0.739985	-0.483592	-0.873168	0.692311	-0.487535	-0.818139	0.693293	-0.477794	-0.831330	0.458294	-0.428121	-0.831025	0.457383	-0.316893	-0.961472	0.400859	-0.454808	-0.924316	0.366012	-0.443159	-1.002005	0.367820	-0.451474	-0.962062	0.334548	-0.438993	-1.161525	0.197333	-0.411815	-1.135098	0.184307	-0.320875	-1.137104	0.060531	-0.440598	-1.107102	0.051761	-0.325207	-1.068406	0.050075	-0.380253	-1.227006	0.216795	-0.364982	-0.844027	1.468228	-0.172858	-0.756836	1.435832	-0.492902	
45	0.2200	-0.839167	1.013447	-0.154307	-0.786745	0.996408	-0.433363	-0.997516	1.012085	-0.293427	-0.974901	1.016483	-0.386290	-0.854116	0.779526	-0.104051	-0.803907	0.809562	-0.103371	-0.827118	0.738480	-0.105177	-0.778798	0.769317	-0.102773	-0.675029	0.529769	-0.146057	-0.659527	0.532131	-0.254284	-0.775609	0.416254	-0.134993	-0.721754	0.405823	-0.139049	-0.791228	0.369995	-0.138108	-0.737531	0.358366	-0.140563	-0.816091	0.132119	-0.180423	-0.788275	0.138207	-0.271303	-0.690315	0.073045	-0.129889	-0.665855	0.065580	-0.242070	-0.618794	0.104970	-0.177956	-0.878647	0.082656	-0.247826	-0.850809	0.739232	-0.492208	-0.800841	0.741672	-0.482836	-0.855801	0.693881	-0.487405	-0.800930	0.694943	-0.477216	-0.814221	0.459129	-0.428534	-0.814237	0.457667	-0.317033	-0.945643	0.404176	-0.455810	-0.909286	0.368498	-0.444083	-0.986837	0.371940	-0.452636	-0.947687	0.337743	-0.440109	-1.149664	0.204350	-0.413548	-1.123792	0.190618	-0.322700	-1.131218	0.064675	-0.440936	-1.101738	0.055161	-0.325651	-1.063650	0.050784	-0.380598	-1.213760	0.227147	-0.366895	-0.831023	1.470268	-0.172622	-0.741867	1.437739	-0.491426	
46	0.2250	-0.823558	1.015641	-0.153721	-0.770014	0.998460	-0.432086	-0.981178	1.013180	-0.292999	-0.958354	1.017527	-0.385714	-0.837874	0.780837	-0.103671	-0.787747	0.811043	-0.102880	-0.810807	0.739845	-0.105015	-0.762605	0.770816	-0.102619	-0.658105	0.531621	-0.146518	-0.642868	0.534203	-0.254811	-0.755645	0.414816	-0.135438	-0.701375	0.406068	-0.139684	-0.769763	0.367955	-0.138653	-0.715657	0.357991	-0.141098	-0.787637	0.128818	-0.181207	-0.760201	0.135527	-0.272140	-0.660797	0.070481	-0.131877	-0.636935	0.063999	-0.244258	-0.589663	0.102770	-0.180363	-0.849847	0.079286	-0.248515	-0.833385	0.740632	-0.491802	-0.783605	0.743240	-0.482095	-0.838230	0.695274	-0.487250	-0.783521	0.696482	-0.476638	-0.796493	0.459890	-0.428919	-0.796817	0.457891	-0.317140	-0.929097	0.407374	-0.456779	-0.893545	0.370889	-0.444945	-0.970936	0.375948	-0.453777	-0.932591	0.340855	-0.441174	-1.137039	0.211352	-0.415243	-1.111750	0.196940	-0.324474	-1.124348	0.069062	-0.441352	-1.095430	0.058810	-0.326184	-1.057897	0.051669	-0.381028	-1.199801	0.237338	-0.368781	-0.817916	1.471989	-0.172376	-0.727042	1.439415	-0.490034	
47	0.2300	-0.807920	1.017482	-0.153132	-0.753400	1.000345	-0.430881	-0.964881	1.014012	-0.292485	-0.941886	1.018325	-0.385058	-0.821680	0.781777	-0.103265	-0.771607	0.812089	-0.102381	-0.794569	0.740806	-0.104837	-0.746458	0.771853	-0.102461	-0.641374	0.532990	-0.147032	-0.626437	0.535782	-0.255375	-0.735988	0.413238	-0.135885	-0.681383	0.406046	-0.140370	-0.748707	0.365850	-0.139219	-0.694272	0.357434	-0.141694	-0.760252	0.125807	-0.182056	-0.733237	0.133065	-0.273055	-0.632577	0.067864	-0.133992	-0.609440	0.062294	-0.246591	-0.561783	0.100222	-0.182940	-0.822290	0.076455	-0.249246	-0.815823	0.741843	-0.491391	-0.766242	0.744664	-0.481372	-0.820463	0.696470	-0.487069	-0.765919	0.697883	-0.476064	-0.778171	0.460560	-0.429275	-0.778786	0.458041	-0.317214	-0.911854	0.410420	-0.457705	-0.877105	0.373159	-0.445738	-0.954319	0.379809	-0.454886	-0.916781	0.343853	-0.442177	-1.123650	0.218280	-0.416887	-1.098962	0.203218	-0.326183	-1.116420	0.073649	-0.441852	-1.088095	0.062673	-0.326812	-1.051055	0.052737	-0.381556	-1.185152	0.247274	-0.370619	-0.804704	1.473384	-0.172110	-0.712356	1.440848	-0.488732	
48	0.2350	-0.792245	1.018947	-0.152540	-0.736898	1.002039	-0.429752	-0.948623	1.014565	-0.291895	-0.925492	1.018860	-0.384332	-0.805519	0.782333	-0.102836	-0.755472	0.812690	-0.101876	-0.778384	0.741354	-0.104646	-0.730342	0.772419	-0.102299	-0.624795	0.533874	-0.147603	-0.610193	0.536872	-0.255973	-0.716640	0.411537	-0.136335	-0.661776	0.405759	-0.141106	-0.728076	0.363700	-0.139805	-0.673390	0.356695	-0.142351	-0.734032	0.123083	-0.182961	-0.707468	0.130809	-0.274039	-0.605742	0.065213	-0.136198	-0.583439	0.060465	-0.249028	-0.535235	0.097352	-0.185647	-0.796069	0.074138	-0.250010	-0.798124	0.742848	-0.490975	-0.748751	0.745923	-0.480668	-0.802505	0.697450	-0.486862	-0.748125	0.699125	-0.475497	-0.759280	0.461127	-0.429600	-0.760164	0.458107	-0.317255	-0.893932	0.413289	-0.458581	-0.859978	0.375284	-0.446459	-0.937001	0.383491	-0.455954	-0.900266	0.346710	-0.443114	-1.109498	0.225076	-0.418466	-1.085413	0.209398	-0.327815	-1.107365	0.078391	-0.442441	-1.079653	0.066704	-0.327541	-1.043034	0.053990	-0.382189	-1.169831	0.256864	-0.372388	-0.791386	1.474443	-0.171816	-0.697802	1.442029	-0.487524	
49	0.2400	-0.776525	1.020018	-0.151943	-0.720498	1.003516	-0.428704	-0.932401	1.014823	-0.291238	-0.909165	1.019117	-0.383550	-0.789375	0.782497	-0.102390	-0.739327	0.812841	-0.101368	-0.762233	0.741482	-0.104447	-0.714237	0.772511	-0.102135	-0.608337	0.534282	-0.148233	-0.594103	0.537479	-0.256603	-0.697607	0.409733	-0.136789	-0.642553	0.405209	-0.141888	-0.707892	0.361523	-0.140407	-0.653029	0.355775	-0.143067	-0.709061	0.120642	-0.183912	-0.682970	0.128750	-0.275080	-0.580370	0.062549	-0.138458	-0.558993	0.058520	-0.251531	-0.510093	0.094196	-0.188440	-0.771269	0.072301	-0.250802	-0.780287	0.743632	-0.490554	-0.731125	0.746999	-0.479986	-0.784358	0.698201	-0.486630	-0.730140	0.700193	-0.474940	-0.739843	0.461583	-0.429897	-0.740969	0.458086	-0.317263	-0.875353	0.415961	-0.459401	-0.842176	0.377248	-0.447105	-0.919000	0.386968	-0.456971	-0.883055	0.349406	-0.443981	-1.094576	0.231683	-0.419971	-1.071090	0.215424	-0.329361	-1.097118	0.083237	-0.443124	-1.070024	0.070854	-0.328376	-1.033751	0.055426	-0.382939	-1.153856	0.266020	-0.374071	-0.777956	1.475163	-0.171484	-0.683372	1.442954	-0.486414	
50	0.2450	-0.760751	1.020685	-0.151342	-0.704187	1.004754	-0.427739	-0.916208	1.014776	-0.290522	-0.892897	1.019084	-0.382724	-0.773231	0.782268	-0.101931	-0.723160	0.812543	-0.100861	-0.746097	0.741191	-0.104245	-0.698127	0.772132	-0.101970	-0.591969	0.534223	-0.148926	-0.578139	0.537617	-0.257263	-0.678897	0.407846	-0.137250	-0.623720	0.404403	-0.142713	-0.688178	0.359336	-0.141024	-0.633206	0.354677	-0.143839	-0.685421	0.118480	-0.184902	-0.659815	0.126878	-0.276168	-0.556533	0.059896	-0.140733	-0.536150	0.056471	-0.254059	-0.486425	0.090795	-0.191274	-0.747962	0.070909	-0.251613	-0.762307	0.744186	-0.490130	-0.713357	0.747879	-0.479326	-0.766020	0.698714	-0.486372	-0.711960	0.701074	-0.474397	-0.719884	0.461928	-0.430164	-0.721221	0.457978	-0.317243	-0.856134	0.418422	-0.460160	-0.823710	0.379039	-0.447676	-0.900331	0.390218	-0.457931	-0.865155	0.351923	-0.444775	-1.078880	0.238044	-0.421393	-1.055974	0.221240	-0.330812	-1.085617	0.088128	-0.443906	-1.059132	0.075068	-0.329321	-1.023124	0.057036	-0.383812	-1.137235	0.274658	-0.375651	-0.764407	1.475543	-0.171106	-0.669055	1.443621	-0.485404	
51	0.2500	-0.744912	1.020941	-0.150732	-0.687949	1.005732	-0.426857	-0.900037	1.014417	-0.289760	-0.876674	1.018752	-0.381865	-0.757073	0.781649	-0.101466	-0.706955	0.811804	-0.100358	-0.729960	0.740486	-0.104044	-0.681997	0.771292	-0.101808	-0.575672	0.533711	-0.149684	-0.562278	0.537301	-0.257951	-0.660524	0.405895	-0.137720	-0.605284	0.403350	-0.143579	-0.668960	0.357158	-0.141656	-0.613943	0.353408	-0.144666	-0.663180	0.116588	-0.185918	-0.638061	0.125182	-0.277291	-0.534291	0.057278	-0.142986	-0.514948	0.054335	-0.256571	-0.464291	0.087199	-0.194102	-0.726207	0.069926	-0.252436	-0.744175	0.744504	-0.489702	-0.695437	0.748556	-0.478689	-0.747488	0.698985	-0.486092	-0.693578	0.701762	-0.473872	-0.699421	0.462168	-0.430406	-0.700936	0.457792	-0.317197	-0.836294	0.420664	-0.460854	-0.804591	0.380653	-0.448174	-0.881010	0.393226	-0.458829	-0.846571	0.354248	-0.445498	-1.062400	0.244103	-0.422726	-1.040045	0.226790	-0.332165	-1.072808	0.093008	-0.444790	-1.046908	0.079285	-0.330378	-1.011081	0.058806	-0.384818	-1.119974	0.282700	-0.377114	-0.750731	1.475586	-0.170675	-0.654838	1.444030	-0.484497	
52	0.2550	-0.728998	1.020785	-0.150113	-0.671764	1.006431	-0.426057	-0.883876	1.013743	-0.288961	-0.860483	1.018115	-0.380988	-0.740884	0.780651	-0.101002	-0.690699	0.810638	-0.099866	-0.713805	0.739380	-0.103851	-0.665831	0.770007	-0.101652	-0.559432	0.532763	-0.150507	-0.546505	0.536550	-0.258664	-0.642503	0.403901	-0.138202	-0.587254	0.402059	-0.144479	-0.650263	0.355006	-0.142299	-0.595260	0.351974	-0.145542	-0.642395	0.114958	-0.186950	-0.617757	0.123650	-0.278436	-0.513691	0.054721	-0.145180	-0.495411	0.052132	-0.259029	-0.443738	0.083459	-0.196882	-0.706047	0.069310	-0.253263	-0.725882	0.744588	-0.489273	-0.677350	0.749030	-0.478075	-0.728752	0.699016	-0.485792	-0.674986	0.702258	-0.473367	-0.678475	0.462315	-0.430625	-0.680131	0.457541	-0.317132	-0.815850	0.422683	-0.461482	-0.784827	0.382090	-0.448604	-0.861050	0.395981	-0.459660	-0.827309	0.356376	-0.446152	-1.045125	0.249807	-0.423967	-1.023281	0.232022	-0.333417	-1.058639	0.097814	-0.445778	-1.033289	0.083444	-0.331549	-0.997558	0.060717	-0.385961	-1.102074	0.290075	-0.378450	-0.736914	1.475297	-0.170185	-0.640708	1.444186	-0.483694	
53	0.2600	-0.712997	1.020223	-0.149481	-0.655612	1.006836	-0.425339	-0.867712	1.012756	-0.288137	-0.844309	1.017174	-0.380104	-0.724649	0.779288	-0.100544	-0.674381	0.809065	-0.099387	-0.697619	0.737892	-0.103670	-0.649619	0.768297	-0.101505	-0.543242	0.531401	-0.151395	-0.530811	0.535385	-0.259401	-0.624854	0.401880	-0.138698	-0.569645	0.400541	-0.145409	-0.632114	0.352897	-0.142953	-0.577178	0.350384	-0.146463	-0.623112	0.113579	-0.187987	-0.598938	0.122274	-0.279591	-0.494765	0.052251	-0.147282	-0.477549	0.049886	-0.261398	-0.424801	0.079631	-0.199570	-0.687512	0.069022	-0.254085	-0.707416	0.744441	-0.488845	-0.659084	0.749304	-0.477487	-0.709804	0.698813	-0.485476	-0.656174	0.702567	-0.472887	-0.657061	0.462386	-0.430826	-0.658820	0.457243	-0.317053	-0.794820	0.424484	-0.462043	-0.764426	0.383355	-0.448972	-0.840464	0.398477	-0.460423	-0.807373	0.358302	-0.446741	-1.027042	0.255104	-0.425112	-1.005657	0.236885	-0.334569	-1.043069	0.102485	-0.446871	-1.018218	0.087484	-0.332835	-0.982498	0.062746	-0.387245	-1.083529	0.296719	-0.379650	-0.722945	1.474686	-0.169632	-0.626646	1.444097	-0.482993	
54	0.2650	-0.696899	1.019268	-0.148833	-0.639469	1.006937	-0.424700	-0.851532	1.011464	-0.287296	-0.828133	1.015931	-0.379224	-0.708357	0.777581	-0.100100	-0.657991	0.807110	-0.098928	-0.681389	0.736045	-0.103508	-0.633350	0.766192	-0.101373	-0.527105	0.529646	-0.152347	-0.515196	0.533828	-0.260160	-0.607597	0.399850	-0.139212	-0.552473	0.398809	-0.146363	-0.614540	0.350844	-0.143615	-0.559719	0.348646	-0.147423	-0.605358	0.112442	-0.189017	-0.581625	0.121044	-0.280744	-0.477531	0.049892	-0.149260	-0.461361	0.047624	-0.263644	-0.407503	0.075771	-0.202130	-0.670613	0.069022	-0.254895	-0.688764	0.744074	-0.488420	-0.640622	0.749388	-0.476925	-0.690633	0.698390	-0.485147	-0.637132	0.702700	-0.472435	-0.635196	0.462401	-0.431013	-0.637015	0.456921	-0.316968	-0.773218	0.426074	-0.462537	-0.743398	0.384459	-0.449286	-0.819265	0.400715	-0.461116	-0.786768	0.360029	-0.447272	-1.008136	0.259950	-0.426163	-0.987150	0.241331	-0.335622	-1.026063	0.106963	-0.448068	-1.001648	0.091343	-0.334235	-0.965858	0.064866	-0.388674	-1.064330	0.302575	-0.380709	-0.708806	1.473766	-0.169013	-0.612637	1.443773	-0.482395	
55	0.2700	-0.680693	1.017936	-0.148164	-0.623314	1.006727	-0.424136	-0.835320	1.009879	-0.286449	-0.811939	1.014394	-0.378358	-0.691998	0.775558	-0.099676	-0.641521	0.804803	-0.098493	-0.665108	0.733869	-0.103369	-0.617017	0.763723	-0.101259	-0.511032	0.527525	-0.153358	-0.499667	0.531906	-0.260939	-0.590756	0.397824	-0.139744	-0.535754	0.396878	-0.147335	-0.597565	0.348858	-0.144284	-0.542902	0.346771	-0.148415	-0.589148	0.111533	-0.190029	-0.565826	0.119952	-0.281881	-0.461990	0.047665	-0.151088	-0.446826	0.045372	-0.265741	-0.391849	0.071935	-0.204528	-0.655346	0.069272	-0.255684	-0.669915	0.743503	-0.488001	-0.621952	0.749297	-0.476391	-0.671229	0.697762	-0.484813	-0.617849	0.702674	-0.472014	-0.612895	0.462388	-0.431192	-0.614732	0.456600	-0.316886	-0.751062	0.427464	-0.462967	-0.721752	0.385416	-0.449555	-0.797466	0.402696	-0.461740	-0.765499	0.361562	-0.447752	-0.988392	0.264300	-0.427121	-0.967736	0.245317	-0.336581	-1.007598	0.111189	-0.449368	-0.983544	0.094963	-0.335745	-0.947606	0.067045	-0.390246	-1.044462	0.307598	-0.381625	-0.694481	1.472554	-0.168325	-0.598664	1.443229	-0.481897	
56	0.2750	-0.664370	1.016252	-0.147473	-0.607122	1.006204	-0.423644	-0.819059	1.008017	-0.285604	-0.795708	1.012576	-0.377517	-0.675565	0.773249	-0.099276	-0.624967	0.802180	-0.098086	-0.648771	0.731397	-0.103258	-0.600619	0.760927	-0.101166	-0.495039	0.525062	-0.154422	-0.484238	0.529643	-0.261734	-0.574355	0.395813	-0.140295	-0.519509	0.394761	-0.148318	-0.581211	0.346949	-0.144957	-0.526745	0.344772	-0.149431	-0.574478	0.110840	-0.191014	-0.551533	0.118991	-0.282991	-0.448126	0.045590	-0.152744	-0.433913	0.043156	-0.267665	-0.377829	0.068176	-0.206736	-0.641688	0.069736	-0.256444	-0.650857	0.742747	-0.487592	-0.603062	0.749052	-0.475886	-0.651581	0.696953	-0.484478	-0.598316	0.702509	-0.471628	-0.590172	0.462375	-0.431369	-0.591984	0.456310	-0.316815	-0.728370	0.428671	-0.463336	-0.699498	0.386244	-0.449789	-0.775082	0.404429	-0.462297	-0.743574	0.362911	-0.448190	-0.967799	0.268119	-0.427991	-0.947396	0.248806	-0.337452	-0.987659	0.115110	-0.450766	-0.963883	0.098289	-0.337363	-0.927723	0.069251	-0.391960	-1.023912	0.311749	-0.382399	-0.679953	1.471068	-0.167569	-0.584708	1.442481	-0.481496	
57	0.2800	-0.647922	1.014244	-0.146756	-0.590873	1.005372	-0.423220	-0.802737	1.005902	-0.284771	-0.779425	1.010493	-0.376708	-0.659055	0.770689	-0.098907	-0.608328	0.799280	-0.097712	-0.632379	0.728668	-0.103179	-0.584157	0.757844	-0.101098	-0.479152	0.522288	-0.155533	-0.468930	0.527068	-0.262545	-0.558418	0.393826	-0.140865	-0.503757	0.392475	-0.149304	-0.565500	0.345123	-0.145630	-0.511265	0.342658	-0.150464	-0.561328	0.110349	-0.191960	-0.538721	0.118154	-0.284063	-0.435906	0.043683	-0.154212	-0.422574	0.041003	-0.269398	-0.365418	0.064546	-0.208733	-0.629600	0.070381	-0.257168	-0.631584	0.741830	-0.487197	-0.583942	0.748676	-0.475413	-0.631684	0.695990	-0.484150	-0.578528	0.702233	-0.471282	-0.567046	0.462394	-0.431550	-0.568787	0.456080	-0.316765	-0.705161	0.429713	-0.463649	-0.676651	0.386965	-0.450000	-0.752130	0.405924	-0.462791	-0.721003	0.364087	-0.448595	-0.946347	0.271374	-0.428777	-0.926114	0.251765	-0.338243	-0.966244	0.118677	-0.452258	-0.942655	0.101273	-0.339081	-0.906206	0.071450	-0.393810	-1.002665	0.315001	-0.383036	-0.665206	1.469334	-0.166747	-0.570754	1.441549	-0.481189	
58	0.2850	-0.631345	1.011945	-0.146012	-0.574549	1.004241	-0.422861	-0.786338	1.003561	-0.283956	-0.763074	1.008167	-0.375938	-0.642470	0.767918	-0.098571	-0.591609	0.796145	-0.097373	-0.615939	0.725723	-0.103133	-0.567637	0.754520	-0.101058	-0.463402	0.519231	-0.156682	-0.453770	0.524209	-0.263366	-0.542969	0.391868	-0.141452	-0.488518	0.390034	-0.150286	-0.550447	0.343382	-0.146301	-0.496473	0.340443	-0.151505	-0.549663	0.110047	-0.192858	-0.527355	0.117435	-0.285086	-0.425279	0.041956	-0.155480	-0.412747	0.038935	-0.270928	-0.354574	0.061090	-0.210502	-0.619030	0.071176	-0.257848	-0.612091	0.740780	-0.486820	-0.564589	0.748199	-0.474975	-0.611536	0.694901	-0.483835	-0.558485	0.701873	-0.470979	-0.543537	0.462475	-0.431742	-0.545163	0.455943	-0.316743	-0.681460	0.430610	-0.463911	-0.653230	0.387600	-0.450199	-0.728632	0.407194	-0.463225	-0.697802	0.365106	-0.448978	-0.924032	0.274039	-0.429486	-0.903884	0.254168	-0.338960	-0.943366	0.121848	-0.453838	-0.919865	0.103874	-0.340894	-0.883068	0.073608	-0.395790	-0.980707	0.317336	-0.383541	-0.650226	1.467375	-0.165861	-0.556789	1.440453	-0.480972	
59	0.2900	-0.614637	1.009394	-0.145240	-0.558135	1.002824	-0.422562	-0.769854	1.001024	-0.283165	-0.746645	1.005626	-0.375210	-0.625820	0.764976	-0.098274	-0.574818	0.792821	-0.097072	-0.599461	0.722605	-0.103123	-0.551072	0.750998	-0.101047	-0.447826	0.515921	-0.157859	-0.438791	0.521093	-0.264197	-0.528031	0.389942	-0.142054	-0.473813	0.387456	-0.151257	-0.536067	0.341727	-0.146966	-0.482381	0.338140	-0.152544	-0.539430	0.109918	-0.193701	-0.517380	0.116829	-0.286052	-0.416180	0.040416	-0.156542	-0.404360	0.036974	-0.272247	-0.345239	0.057846	-0.212035	-0.609907	0.072095	-0.258478	-0.592380	0.739628	-0.486467	-0.545006	0.747650	-0.474573	-0.591139	0.693721	-0.483541	-0.538190	0.701462	-0.470723	-0.519669	0.462652	-0.431951	-0.521137	0.455928	-0.316760	-0.657296	0.431384	-0.464127	-0.629260	0.388175	-0.450396	-0.704615	0.408255	-0.463605	-0.673994	0.365983	-0.449347	-0.900859	0.276097	-0.430126	-0.880706	0.255998	-0.339614	-0.919052	0.124587	-0.455496	-0.895539	0.106058	-0.342793	-0.858343	0.075692	-0.397888	-0.958032	0.318748	-0.383923	-0.635003	1.465223	-0.164918	-0.542802	1.439220	-0.480839	
60	0.2950	-0.597802	1.006632	-0.144439	-0.541623	1.001143	-0.422320	-0.753279	0.998327	-0.282406	-0.730131	1.002899	-0.374530	-0.609117	0.761908	-0.098017	-0.557971	0.789351	-0.096811	-0.582964	0.719360	-0.103149	-0.534479	0.747326	-0.101067	-0.432467	0.512391	-0.159051	-0.424031	0.517751	-0.265032	-0.513627	0.388049	-0.142668	-0.459660	0.384757	-0.152209	-0.522370	0.340156	-0.147619	-0.468994	0.335762	-0.153574	-0.530563	0.109950	-0.194482	-0.508731	0.116331	-0.286952	-0.408529	0.039067	-0.157398	-0.397327	0.035137	-0.273355	-0.337342	0.054847	-0.213329	-0.602150	0.073115	-0.259052	-0.572462	0.738405	-0.486141	-0.525201	0.747063	-0.474212	-0.570503	0.692483	-0.483274	-0.517657	0.701032	-0.470518	-0.495474	0.462953	-0.432182	-0.496741	0.456064	-0.316823	-0.632706	0.432057	-0.464304	-0.604774	0.388712	-0.450603	-0.680112	0.409123	-0.463935	-0.649609	0.366736	-0.449714	-0.876842	0.277536	-0.430703	-0.856594	0.257244	-0.340213	-0.893347	0.126865	-0.457224	-0.869719	0.107800	-0.344766	-0.832080	0.077671	-0.400093	-0.934639	0.319240	-0.384194	-0.619532	1.462907	-0.163924	-0.528786	1.437872	-0.480784	
61	0.3000	-0.580849	1.003703	-0.143612	-0.525010	0.999221	-0.422130	-0.736610	0.995507	-0.281681	-0.713531	1.000019	-0.373899	-0.592384	0.758758	-0.097802	-0.541088	0.785784	-0.096591	-0.566471	0.716033	-0.103209	-0.517883	0.743552	-0.101116	-0.417370	0.508672	-0.160247	-0.409530	0.514213	-0.265867	-0.499776	0.386188	-0.143289	-0.446077	0.381954	-0.153135	-0.509360	0.338665	-0.148257	-0.456314	0.333322	-0.154585	-0.522983	0.110127	-0.195193	-0.501330	0.115939	-0.287781	-0.402234	0.037909	-0.158051	-0.391553	0.033437	-0.274253	-0.330797	0.052119	-0.214388	-0.595665	0.074217	-0.259566	-0.552353	0.737146	-0.485848	-0.505194	0.746471	-0.473894	-0.549649	0.691224	-0.483042	-0.496906	0.700617	-0.470366	-0.470989	0.463408	-0.432441	-0.472014	0.456378	-0.316940	-0.607735	0.432650	-0.464449	-0.579814	0.389235	-0.450828	-0.655168	0.409815	-0.464223	-0.624688	0.367382	-0.450086	-0.852007	0.278351	-0.431227	-0.831575	0.257902	-0.340767	-0.866312	0.128665	-0.459012	-0.842466	0.109086	-0.346804	-0.804352	0.079517	-0.402390	-0.910540	0.318826	-0.384366	-0.603812	1.460461	-0.162887	-0.514739	1.436438	-0.480802	
62	0.3050	-0.563793	1.000653	-0.142761	-0.508302	0.997089	-0.421990	-0.719855	0.992603	-0.280996	-0.696852	0.997023	-0.373319	-0.575647	0.755569	-0.097629	-0.524199	0.782165	-0.096411	-0.550015	0.712670	-0.103303	-0.501315	0.739722	-0.101195	-0.402585	0.504796	-0.161432	-0.395332	0.510509	-0.266700	-0.486497	0.384356	-0.143911	-0.433078	0.379066	-0.154027	-0.497039	0.337247	-0.148876	-0.444340	0.330835	-0.155569	-0.516599	0.110434	-0.195832	-0.495091	0.115648	-0.288534	-0.397190	0.036938	-0.158511	-0.386936	0.031884	-0.274951	-0.325509	0.049680	-0.215221	-0.590348	0.075386	-0.260015	-0.532080	0.735884	-0.485593	-0.485011	0.745906	-0.473623	-0.528604	0.689979	-0.482850	-0.475967	0.700248	-0.470270	-0.446263	0.464041	-0.432731	-0.447006	0.456892	-0.317116	-0.582435	0.433183	-0.464567	-0.554434	0.389767	-0.451082	-0.629833	0.410348	-0.464473	-0.599283	0.367940	-0.450473	-0.826394	0.278547	-0.431706	-0.805692	0.257978	-0.341285	-0.838029	0.129974	-0.460846	-0.813866	0.109909	-0.348892	-0.775253	0.081206	-0.404762	-0.885756	0.317530	-0.384453	-0.587852	1.457920	-0.161818	-0.500667	1.434945	-0.480885	
63	0.3100	-0.546657	0.997528	-0.141889	-0.491511	0.994781	-0.421895	-0.703026	0.989657	-0.280351	-0.680106	0.993948	-0.372787	-0.558942	0.752386	-0.097500	-0.507337	0.778539	-0.096271	-0.533632	0.709315	-0.103427	-0.484811	0.735882	-0.101299	-0.388162	0.500797	-0.162595	-0.381482	0.506670	-0.267523	-0.473805	0.382549	-0.144528	-0.420679	0.376110	-0.154879	-0.485404	0.335896	-0.149470	-0.433066	0.328316	-0.156517	-0.511312	0.110858	-0.196395	-0.489918	0.115454	-0.289207	-0.393285	0.036145	-0.158790	-0.383365	0.030484	-0.275458	-0.321372	0.047538	-0.215841	-0.586090	0.076609	-0.260397	-0.511679	0.734653	-0.485378	-0.464690	0.745401	-0.473402	-0.507408	0.688782	-0.482704	-0.454881	0.699958	-0.470233	-0.421352	0.464871	-0.433057	-0.421777	0.457624	-0.317357	-0.556872	0.433677	-0.464665	-0.528697	0.390325	-0.451369	-0.604172	0.410742	-0.464692	-0.573458	0.368426	-0.450880	-0.800061	0.278135	-0.432147	-0.779006	0.257485	-0.341774	-0.808599	0.130790	-0.462714	-0.784025	0.110273	-0.351017	-0.744898	0.082717	-0.407190	-0.860327	0.315387	-0.384469	-0.571671	1.455318	-0.160725	-0.486580	1.433419	-0.481027	
64	0.3150	-0.529471	0.994375	-0.141002	-0.474663	0.992334	-0.421842	-0.686145	0.986709	-0.279750	-0.663316	0.990836	-0.372305	-0.542311	0.749249	-0.097411	-0.490545	0.774948	-0.096167	-0.517366	0.706008	-0.103578	-0.468414	0.732075	-0.101428	-0.374151	0.496709	-0.163720	-0.368026	0.502728	-0.268334	-0.461714	0.380763	-0.145134	-0.408890	0.373107	-0.155686	-0.474450	0.334603	-0.150035	-0.422483	0.325779	-0.157423	-0.507015	0.111384	-0.196881	-0.485708	0.115354	-0.289799	-0.390401	0.035520	-0.158904	-0.380728	0.029238	-0.275791	-0.318275	0.045696	-0.216266	-0.582777	0.077877	-0.260711	-0.491197	0.733483	-0.485209	-0.444281	0.744982	-0.473233	-0.486111	0.687665	-0.482607	-0.433699	0.699772	-0.470256	-0.396323	0.465913	-0.433420	-0.396397	0.458585	-0.317665	-0.531120	0.434147	-0.464748	-0.502681	0.390928	-0.451696	-0.578261	0.411012	-0.464885	-0.547291	0.368857	-0.451313	-0.773081	0.277136	-0.432559	-0.751595	0.256446	-0.342243	-0.778147	0.131121	-0.464603	-0.753073	0.110191	-0.353164	-0.713425	0.084036	-0.409655	-0.834306	0.312442	-0.384428	-0.555295	1.452691	-0.159622	-0.472497	1.431888	-0.481221	
65	0.3200	-0.512273	0.991239	-0.140106	-0.457789	0.989787	-0.421830	-0.669244	0.983800	-0.279193	-0.646512	0.987724	-0.371867	-0.525803	0.746198	-0.097363	-0.473871	0.771432	-0.096098	-0.501267	0.702791	-0.103752	-0.452174	0.728340	-0.101576	-0.360603	0.492565	-0.164797	-0.355009	0.498713	-0.269126	-0.450233	0.378994	-0.145723	-0.397719	0.370075	-0.156442	-0.464166	0.333360	-0.150567	-0.412580	0.323239	-0.158280	-0.503599	0.111999	-0.197289	-0.482356	0.115344	-0.290311	-0.388417	0.035049	-0.158871	-0.378911	0.028144	-0.275966	-0.316099	0.044151	-0.216518	-0.580292	0.079182	-0.260956	-0.470692	0.732403	-0.485086	-0.423842	0.744677	-0.473118	-0.464774	0.686657	-0.482565	-0.412484	0.699716	-0.470339	-0.371256	0.467177	-0.433821	-0.370949	0.459784	-0.318042	-0.505266	0.434607	-0.464821	-0.476477	0.391588	-0.452067	-0.552187	0.411176	-0.465058	-0.520873	0.369248	-0.451776	-0.745546	0.275576	-0.432947	-0.723559	0.254890	-0.342698	-0.746816	0.130982	-0.466498	-0.721160	0.109684	-0.355317	-0.680996	0.085152	-0.412136	-0.807767	0.308751	-0.384344	-0.538762	1.450074	-0.158519	-0.458443	1.430377	-0.481459	
66	0.3250	-0.495111	0.988164	-0.139207	-0.440933	0.987180	-0.421853	-0.652361	0.980967	-0.278681	-0.629735	0.984651	-0.371473	-0.509474	0.743267	-0.097352	-0.457370	0.768026	-0.096059	-0.485390	0.699697	-0.103943	-0.436145	0.724715	-0.101740	-0.347564	0.488398	-0.165812	-0.342474	0.494657	-0.269894	-0.439371	0.377239	-0.146286	-0.387172	0.367035	-0.157143	-0.454541	0.332159	-0.151062	-0.403341	0.320712	-0.159083	-0.500953	0.112690	-0.197621	-0.479756	0.115420	-0.290742	-0.387210	0.034717	-0.158711	-0.377799	0.027197	-0.276002	-0.314727	0.042890	-0.216618	-0.578518	0.080519	-0.261134	-0.450232	0.731437	-0.485012	-0.403443	0.744506	-0.473059	-0.443470	0.685783	-0.482576	-0.391309	0.699808	-0.470482	-0.346240	0.468664	-0.434260	-0.345526	0.461219	-0.318488	-0.479408	0.435069	-0.464889	-0.450187	0.392316	-0.452483	-0.526051	0.411249	-0.465215	-0.494309	0.369612	-0.452270	-0.717568	0.273493	-0.433318	-0.695016	0.252853	-0.343144	-0.714770	0.130395	-0.468385	-0.688461	0.108782	-0.357461	-0.647794	0.086061	-0.414612	-0.780803	0.304375	-0.384232	-0.522122	1.447499	-0.157429	-0.444453	1.428911	-0.481733	
67	0.3300	-0.478041	0.985189	-0.138314	-0.424148	0.984555	-0.421910	-0.635548	0.978246	-0.278213	-0.613035	0.981655	-0.371119	-0.493384	0.740488	-0.097376	-0.441103	0.764764	-0.096046	-0.469794	0.696757	-0.104148	-0.420387	0.721233	-0.101915	-0.335079	0.484241	-0.166756	-0.330461	0.490593	-0.270633	-0.429133	0.375496	-0.146819	-0.377252	0.364006	-0.157785	-0.445560	0.330995	-0.151516	-0.394748	0.318214	-0.159826	-0.498966	0.113443	-0.197880	-0.477801	0.115576	-0.291097	-0.386659	0.034507	-0.158446	-0.377281	0.026388	-0.275920	-0.314040	0.041899	-0.216591	-0.577342	0.081883	-0.261246	-0.429895	0.730606	-0.484988	-0.383164	0.744485	-0.473056	-0.422282	0.685063	-0.482643	-0.370257	0.700062	-0.470683	-0.321376	0.470370	-0.434735	-0.320232	0.462886	-0.319001	-0.453656	0.435543	-0.464955	-0.423925	0.393118	-0.452943	-0.499963	0.411244	-0.465359	-0.467718	0.369959	-0.452797	-0.689277	0.270928	-0.433677	-0.666106	0.250380	-0.343585	-0.682196	0.129392	-0.470249	-0.655172	0.107522	-0.359579	-0.614019	0.086763	-0.417061	-0.753525	0.299389	-0.384105	-0.505434	1.444997	-0.156363	-0.430568	1.427511	-0.482036	
68	0.3350	-0.461125	0.982350	-0.137435	-0.407496	0.981951	-0.421998	-0.618863	0.975669	-0.277788	-0.596471	0.978770	-0.370800	-0.477600	0.737886	-0.097430	-0.425135	0.761671	-0.096056	-0.454543	0.693998	-0.104361	-0.404961	0.717921	-0.102095	-0.323190	0.480127	-0.167620	-0.319008	0.486552	-0.271339	-0.419519	0.373766	-0.147315	-0.367959	0.361011	-0.158367	-0.437205	0.329861	-0.151928	-0.386783	0.315760	-0.160507	-0.497530	0.114247	-0.198069	-0.476388	0.115807	-0.291379	-0.386646	0.034401	-0.158097	-0.377249	0.025709	-0.275739	-0.313923	0.041156	-0.216462	-0.576655	0.083271	-0.261295	-0.409769	0.729926	-0.485013	-0.363093	0.744625	-0.473109	-0.401302	0.684512	-0.482764	-0.349422	0.700486	-0.470940	-0.296773	0.472286	-0.435244	-0.295183	0.464771	-0.319575	-0.428129	0.436033	-0.465022	-0.397819	0.393996	-0.453446	-0.474048	0.411175	-0.465495	-0.441229	0.370300	-0.453356	-0.660818	0.267931	-0.434028	-0.636983	0.247520	-0.344026	-0.649294	0.128010	-0.472076	-0.621505	0.105945	-0.361656	-0.579893	0.087264	-0.419462	-0.726064	0.293870	-0.383973	-0.488769	1.442598	-0.155333	-0.416836	1.426196	-0.482362	
69	0.3400	-0.444435	0.979679	-0.136577	-0.391047	0.979407	-0.422112	-0.602374	0.973261	-0.277405	-0.580109	0.976027	-0.370512	-0.462189	0.735483	-0.097512	-0.409535	0.758770	-0.096084	-0.439700	0.691439	-0.104577	-0.389934	0.714803	-0.102275	-0.311931	0.476087	-0.168398	-0.308146	0.482564	-0.272005	-0.410530	0.372049	-0.147770	-0.359291	0.358069	-0.158885	-0.429459	0.328755	-0.152296	-0.379423	0.313367	-0.161123	-0.496545	0.115088	-0.198192	-0.475420	0.116107	-0.291592	-0.387062	0.034382	-0.157685	-0.377602	0.025146	-0.275480	-0.314265	0.040637	-0.216254	-0.576355	0.084678	-0.261286	-0.389947	0.729408	-0.485084	-0.343326	0.744930	-0.473215	-0.380632	0.684139	-0.482937	-0.328902	0.701083	-0.471250	-0.272549	0.474394	-0.435781	-0.270501	0.466857	-0.320206	-0.402953	0.436542	-0.465092	-0.372004	0.394949	-0.453988	-0.448437	0.411054	-0.465625	-0.414983	0.370640	-0.453942	-0.632357	0.264558	-0.434375	-0.607822	0.244329	-0.344466	-0.616285	0.126291	-0.473853	-0.587690	0.104097	-0.363676	-0.545651	0.087573	-0.421797	-0.698567	0.287904	-0.383847	-0.472206	1.440324	-0.154350	-0.403313	1.424983	-0.482702	
70	0.3450	-0.428048	0.977201	-0.135749	-0.374880	0.976958	-0.422251	-0.586155	0.971047	-0.277061	-0.564024	0.973452	-0.370253	-0.447224	0.733294	-0.097616	-0.394374	0.756080	-0.096124	-0.425331	0.689097	-0.104791	-0.375371	0.711896	-0.102452	-0.301334	0.472152	-0.169084	-0.297903	0.478659	-0.272629	-0.402162	0.370352	-0.148178	-0.351241	0.355202	-0.159341	-0.422302	0.327673	-0.152617	-0.372648	0.311048	-0.161673	-0.495916	0.115956	-0.198257	-0.474804	0.116468	-0.291743	-0.387803	0.034433	-0.157231	-0.378247	0.024687	-0.275163	-0.314961	0.040316	-0.215990	-0.576348	0.086101	-0.261223	-0.370531	0.729057	-0.485200	-0.323965	0.745400	-0.473373	-0.360377	0.683948	-0.483156	-0.308803	0.701849	-0.471606	-0.248827	0.476672	-0.436343	-0.246313	0.469119	-0.320886	-0.378261	0.437072	-0.465166	-0.346623	0.395971	-0.454563	-0.423268	0.410891	-0.465750	-0.389129	0.370985	-0.454553	-0.604067	0.260869	-0.434718	-0.578807	0.240865	-0.344908	-0.583397	0.124284	-0.475566	-0.553970	0.102029	-0.365625	-0.511540	0.087704	-0.424046	-0.671197	0.281583	-0.383735	-0.455835	1.438199	-0.153423	-0.390060	1.423885	-0.483050	
71	0.3500	-0.412045	0.974937	-0.134958	-0.359076	0.974635	-0.422410	-0.570289	0.969040	-0.276755	-0.548297	0.971067	-0.370018	-0.432774	0.731329	-0.097739	-0.379724	0.753611	-0.096174	-0.411501	0.686982	-0.105000	-0.361338	0.709216	-0.102620	-0.291420	0.468349	-0.169676	-0.288303	0.474867	-0.273207	-0.394410	0.368678	-0.148539	-0.343802	0.352428	-0.159734	-0.415713	0.326617	-0.152893	-0.366433	0.308820	-0.162157	-0.495557	0.116840	-0.198268	-0.474458	0.116885	-0.291838	-0.388775	0.034536	-0.156751	-0.379100	0.024320	-0.274805	-0.315917	0.040165	-0.215690	-0.576550	0.087534	-0.261114	-0.351624	0.728873	-0.485356	-0.305114	0.746027	-0.473579	-0.340649	0.683936	-0.483418	-0.289234	0.702774	-0.472004	-0.225736	0.479093	-0.436922	-0.222753	0.471528	-0.321606	-0.354191	0.437620	-0.465245	-0.321823	0.397054	-0.455165	-0.398685	0.410696	-0.465872	-0.363821	0.371338	-0.455182	-0.576135	0.256927	-0.435059	-0.550135	0.237190	-0.345350	-0.550871	0.122039	-0.477205	-0.520595	0.099792	-0.367490	-0.477814	0.087675	-0.426193	-0.644130	0.274999	-0.383643	-0.439750	1.436238	-0.152559	-0.377140	1.422911	-0.483400	
72	0.3550	-0.396510	0.972901	-0.134211	-0.343723	0.972465	-0.422586	-0.554860	0.967254	-0.276484	-0.533009	0.968890	-0.369803	-0.418909	0.729593	-0.097876	-0.365654	0.751371	-0.096227	-0.398273	0.685099	-0.105199	-0.347900	0.706769	-0.102777	-0.282209	0.464704	-0.170175	-0.279359	0.471214	-0.273735	-0.387264	0.367037	-0.148849	-0.336963	0.349766	-0.160065	-0.409671	0.325588	-0.153124	-0.360755	0.306695	-0.162575	-0.495393	0.117728	-0.198233	-0.474307	0.117347	-0.291883	-0.389894	0.034677	-0.156265	-0.380086	0.024029	-0.274424	-0.317047	0.040156	-0.215375	-0.576887	0.088970	-0.260962	-0.333331	0.728851	-0.485549	-0.286879	0.746802	-0.473828	-0.321557	0.684097	-0.483716	-0.270306	0.703843	-0.472436	-0.203403	0.481625	-0.437513	-0.199954	0.474052	-0.322357	-0.330881	0.438183	-0.465328	-0.297753	0.398188	-0.455787	-0.374832	0.410476	-0.465992	-0.339215	0.371699	-0.455824	-0.548753	0.252800	-0.435397	-0.522008	0.233368	-0.345790	-0.518949	0.119608	-0.478758	-0.487820	0.097436	-0.369259	-0.444729	0.087504	-0.428223	-0.617547	0.268248	-0.383576	-0.424050	1.434455	-0.151766	-0.364622	1.422067	-0.483746	
73	0.3600	-0.381531	0.971100	-0.133515	-0.328907	0.970470	-0.422775	-0.539954	0.965693	-0.276245	-0.518248	0.966931	-0.369607	-0.405696	0.728085	-0.098024	-0.352233	0.749363	-0.096282	-0.385706	0.683447	-0.105386	-0.335118	0.704560	-0.102918	-0.273708	0.461240	-0.170581	-0.271084	0.467725	-0.274212	-0.380713	0.365437	-0.149108	-0.330710	0.347235	-0.160339	-0.404156	0.324590	-0.153311	-0.355591	0.304685	-0.162930	-0.495358	0.118612	-0.198158	-0.474288	0.117847	-0.291885	-0.391088	0.034842	-0.155784	-0.381140	0.023804	-0.274034	-0.318275	0.040261	-0.215058	-0.577298	0.090404	-0.260777	-0.315756	0.728982	-0.485771	-0.269363	0.747706	-0.474113	-0.303212	0.684417	-0.484042	-0.252124	0.705037	-0.472895	-0.181954	0.484233	-0.438108	-0.178046	0.476654	-0.323128	-0.308465	0.438756	-0.465415	-0.274559	0.399357	-0.456419	-0.351853	0.410240	-0.466110	-0.315465	0.372067	-0.456471	-0.522115	0.248556	-0.435733	-0.494629	0.229461	-0.346227	-0.487871	0.117046	-0.480217	-0.455896	0.095014	-0.370922	-0.412540	0.087214	-0.430124	-0.591637	0.261427	-0.383536	-0.408834	1.432857	-0.151047	-0.352572	1.421355	-0.484084	
74	0.3650	-0.367189	0.969538	-0.132872	-0.314714	0.968666	-0.422974	-0.525658	0.964355	-0.276037	-0.504096	0.965196	-0.369426	-0.393195	0.726800	-0.098178	-0.339524	0.747585	-0.096335	-0.373852	0.682021	-0.105558	-0.323046	0.702588	-0.103041	-0.265923	0.457978	-0.170900	-0.263480	0.464422	-0.274637	-0.374744	0.363889	-0.149318	-0.325027	0.344848	-0.160556	-0.399146	0.323626	-0.153457	-0.350917	0.302802	-0.163225	-0.495398	0.119481	-0.198051	-0.474347	0.118375	-0.291852	-0.392297	0.035019	-0.155323	-0.382209	0.023632	-0.273648	-0.319538	0.040453	-0.214755	-0.577730	0.091825	-0.260563	-0.298998	0.729251	-0.486017	-0.252666	0.748720	-0.474430	-0.285717	0.684880	-0.484390	-0.234793	0.706334	-0.473374	-0.161508	0.486881	-0.438699	-0.157154	0.479297	-0.323908	-0.287072	0.439331	-0.465506	-0.252382	0.400548	-0.457054	-0.329884	0.409993	-0.466226	-0.292718	0.372441	-0.457116	-0.496410	0.244262	-0.436063	-0.468198	0.225533	-0.346658	-0.457873	0.114407	-0.481575	-0.425069	0.092574	-0.372471	-0.381490	0.086826	-0.431887	-0.566585	0.254628	-0.383526	-0.394203	1.431448	-0.150407	-0.341057	1.420773	-0.484409	
75	0.3700	-0.353565	0.968211	-0.132289	-0.301226	0.967062	-0.423177	-0.512054	0.963237	-0.275856	-0.490635	0.963685	-0.369259	-0.381462	0.725729	-0.098334	-0.327583	0.746030	-0.096383	-0.362758	0.680812	-0.105713	-0.311734	0.700848	-0.103146	-0.258847	0.454935	-0.171136	-0.256545	0.461324	-0.275010	-0.369340	0.362404	-0.149480	-0.319897	0.342621	-0.160723	-0.394618	0.322703	-0.153565	-0.346707	0.301054	-0.163464	-0.495470	0.120327	-0.197918	-0.474441	0.118922	-0.291790	-0.393472	0.035199	-0.154890	-0.383248	0.023502	-0.273276	-0.320782	0.040708	-0.214474	-0.578144	0.093225	-0.260330	-0.283147	0.729641	-0.486281	-0.236877	0.749821	-0.474770	-0.269171	0.685465	-0.484752	-0.218407	0.707706	-0.473863	-0.142176	0.489530	-0.439280	-0.137391	0.481943	-0.324685	-0.266822	0.439902	-0.465598	-0.231352	0.401743	-0.457683	-0.309053	0.409741	-0.466338	-0.271116	0.372817	-0.457750	-0.471821	0.239984	-0.436388	-0.442904	0.221642	-0.347080	-0.429175	0.111741	-0.482827	-0.395569	0.090159	-0.373899	-0.351810	0.086364	-0.433504	-0.542571	0.247942	-0.383543	-0.380250	1.430227	-0.149845	-0.330139	1.420316	-0.484716	
76	0.3750	-0.340732	0.967109	-0.131765	-0.288519	0.965663	-0.423383	-0.499219	0.962326	-0.275699	-0.477941	0.962394	-0.369103	-0.370542	0.724857	-0.098489	-0.316458	0.744689	-0.096424	-0.352462	0.679808	-0.105851	-0.301222	0.699332	-0.103232	-0.252470	0.452123	-0.171298	-0.250271	0.458447	-0.275331	-0.364482	0.360993	-0.149597	-0.315297	0.340562	-0.160842	-0.390551	0.321827	-0.153638	-0.342939	0.299449	-0.163651	-0.495540	0.121141	-0.197767	-0.474535	0.119478	-0.291705	-0.394574	0.035372	-0.154492	-0.384224	0.023405	-0.272926	-0.321966	0.041003	-0.214223	-0.578511	0.094592	-0.260082	-0.268286	0.730133	-0.486556	-0.222079	0.750983	-0.475126	-0.253658	0.686150	-0.485119	-0.203049	0.709128	-0.474356	-0.124057	0.492143	-0.439843	-0.118862	0.484553	-0.325450	-0.247821	0.440462	-0.465690	-0.211586	0.402927	-0.458297	-0.289474	0.409489	-0.466447	-0.250781	0.373191	-0.458367	-0.448516	0.235784	-0.436703	-0.418924	0.217845	-0.347488	-0.401982	0.109097	-0.483969	-0.367608	0.087813	-0.375203	-0.323710	0.085849	-0.434972	-0.519763	0.241452	-0.383587	-0.367065	1.429188	-0.149361	-0.319875	1.419978	-0.485004	
77	0.3800	-0.328754	0.966219	-0.131303	-0.276658	0.964468	-0.423586	-0.487221	0.961609	-0.275565	-0.466078	0.961314	-0.368959	-0.360471	0.724169	-0.098641	-0.306186	0.743551	-0.096458	-0.342993	0.678993	-0.105970	-0.291542	0.698029	-0.103298	-0.246774	0.449552	-0.171393	-0.244642	0.455801	-0.275603	-0.360148	0.359666	-0.149674	-0.311205	0.338680	-0.160920	-0.386922	0.321002	-0.153680	-0.339587	0.297990	-0.163790	-0.495586	0.121918	-0.197604	-0.474608	0.120034	-0.291605	-0.395577	0.035533	-0.154135	-0.385114	0.023331	-0.272605	-0.323059	0.041319	-0.214007	-0.578811	0.095916	-0.259828	-0.254483	0.730704	-0.486836	-0.208338	0.752180	-0.475491	-0.239251	0.686910	-0.485484	-0.188791	0.710569	-0.474843	-0.107232	0.494685	-0.440381	-0.101650	0.487091	-0.326190	-0.230160	0.441002	-0.465781	-0.193186	0.404083	-0.458889	-0.271247	0.409241	-0.466551	-0.231824	0.373559	-0.458960	-0.426645	0.231721	-0.437006	-0.396415	0.214191	-0.347879	-0.376471	0.106520	-0.484999	-0.341374	0.085569	-0.376380	-0.297372	0.085302	-0.436290	-0.498314	0.235234	-0.383654	-0.354723	1.428324	-0.148953	-0.310315	1.419748	-0.485270	
78	0.3850	-0.317686	0.965525	-0.130900	-0.265697	0.963470	-0.423783	-0.476118	0.961068	-0.275450	-0.455103	0.960431	-0.368824	-0.351273	0.723646	-0.098785	-0.296796	0.742598	-0.096484	-0.334368	0.678348	-0.106071	-0.282713	0.696924	-0.103346	-0.241735	0.447227	-0.171430	-0.239639	0.453396	-0.275828	-0.356315	0.358433	-0.149714	-0.307595	0.336979	-0.160962	-0.383708	0.320236	-0.153696	-0.336628	0.296680	-0.163889	-0.495591	0.122649	-0.197435	-0.474642	0.120581	-0.291494	-0.396463	0.035678	-0.153821	-0.385900	0.023276	-0.272316	-0.324040	0.041640	-0.213828	-0.579034	0.097185	-0.259572	-0.241791	0.731333	-0.487114	-0.195709	0.753385	-0.475857	-0.226006	0.687719	-0.485841	-0.175687	0.712001	-0.475317	-0.091766	0.497121	-0.440890	-0.085824	0.489525	-0.326898	-0.213908	0.441518	-0.465869	-0.176229	0.405195	-0.459450	-0.254448	0.409001	-0.466650	-0.214331	0.373916	-0.459521	-0.406335	0.227846	-0.437294	-0.375510	0.210727	-0.348249	-0.352794	0.104049	-0.485918	-0.317022	0.083458	-0.377431	-0.272951	0.084743	-0.437459	-0.478354	0.229357	-0.383741	-0.343292	1.427623	-0.148616	-0.301499	1.419614	-0.485512	
79	0.3900	-0.307566	0.965006	-0.130557	-0.255677	0.962658	-0.423973	-0.465953	0.960683	-0.275353	-0.445059	0.959729	-0.368699	-0.342962	0.723267	-0.098920	-0.288301	0.741816	-0.096502	-0.326594	0.677856	-0.106155	-0.274746	0.696001	-0.103377	-0.237322	0.445148	-0.171421	-0.235234	0.451233	-0.276009	-0.352954	0.357300	-0.149724	-0.304439	0.335461	-0.160974	-0.380884	0.319533	-0.153690	-0.334035	0.295518	-0.163952	-0.495551	0.123330	-0.197266	-0.474630	0.121111	-0.291378	-0.397222	0.035804	-0.153551	-0.386576	0.023233	-0.272062	-0.324896	0.041953	-0.213686	-0.579176	0.098387	-0.259322	-0.230248	0.731996	-0.487384	-0.184226	0.754574	-0.476217	-0.213961	0.688553	-0.486182	-0.163774	0.713400	-0.475770	-0.077703	0.499423	-0.441363	-0.071430	0.491823	-0.327564	-0.199115	0.442001	-0.465952	-0.160775	0.406250	-0.459976	-0.239134	0.408771	-0.466742	-0.198365	0.374257	-0.460045	-0.387686	0.224204	-0.437566	-0.356312	0.207488	-0.348596	-0.331068	0.101719	-0.486729	-0.294675	0.081503	-0.378357	-0.250564	0.084190	-0.438482	-0.459989	0.223875	-0.383844	-0.332820	1.427069	-0.148345	-0.293456	1.419562	-0.485730	
80	0.3950	-0.298420	0.964641	-0.130268	-0.246625	0.962017	-0.424151	-0.456755	0.960431	-0.275272	-0.435972	0.959188	-0.368584	-0.335537	0.723011	-0.099045	-0.280704	0.741185	-0.096511	-0.319666	0.677494	-0.106222	-0.267636	0.695243	-0.103393	-0.233500	0.443313	-0.171373	-0.231399	0.449314	-0.276151	-0.350039	0.356274	-0.149708	-0.301708	0.334124	-0.160961	-0.378426	0.318896	-0.153666	-0.331785	0.294502	-0.163985	-0.495462	0.123957	-0.197100	-0.474571	0.121615	-0.291261	-0.397853	0.035909	-0.153324	-0.387140	0.023197	-0.271844	-0.325622	0.042247	-0.213579	-0.579239	0.099514	-0.259081	-0.219872	0.732672	-0.487643	-0.173908	0.755724	-0.476564	-0.203137	0.689389	-0.486503	-0.153070	0.714738	-0.476198	-0.065065	0.501564	-0.441798	-0.058491	0.493961	-0.328182	-0.185808	0.442448	-0.466031	-0.146855	0.407234	-0.460460	-0.225338	0.408556	-0.466827	-0.183966	0.374578	-0.460528	-0.370770	0.220831	-0.437818	-0.338896	0.204506	-0.348917	-0.311373	0.099557	-0.487434	-0.274416	0.079722	-0.379164	-0.230290	0.083656	-0.439367	-0.443295	0.218834	-0.383957	-0.323343	1.426647	-0.148135	-0.286204	1.419578	-0.485923	
81	0.4000	-0.290259	0.964405	-0.130031	-0.238550	0.961530	-0.424315	-0.448537	0.960291	-0.275204	-0.427856	0.958789	-0.368479	-0.328986	0.722857	-0.099158	-0.273994	0.740688	-0.096514	-0.313567	0.677243	-0.106275	-0.261370	0.694631	-0.103397	-0.230230	0.441713	-0.171298	-0.228097	0.447632	-0.276259	-0.347537	0.355358	-0.149673	-0.299371	0.332963	-0.160929	-0.376308	0.318327	-0.153629	-0.329851	0.293624	-0.163994	-0.495331	0.124525	-0.196943	-0.474467	0.122087	-0.291148	-0.398361	0.035995	-0.153138	-0.387596	0.023167	-0.271661	-0.326221	0.042514	-0.213505	-0.579233	0.100555	-0.258855	-0.210662	0.733340	-0.487884	-0.164753	0.756812	-0.476892	-0.193532	0.690204	-0.486798	-0.143575	0.715997	-0.476593	-0.053850	0.503527	-0.442191	-0.047007	0.495919	-0.328746	-0.173987	0.442854	-0.466103	-0.134476	0.408139	-0.460899	-0.213066	0.408356	-0.466904	-0.171146	0.374876	-0.460967	-0.355623	0.217755	-0.438049	-0.323300	0.201801	-0.349209	-0.293753	0.097583	-0.488039	-0.256291	0.078127	-0.379857	-0.212170	0.083153	-0.440120	-0.428318	0.214267	-0.384076	-0.314876	1.426340	-0.147977	-0.279746	1.419648	-0.486091	
82	0.4050	-0.283074	0.964275	-0.129840	-0.231445	0.961176	-0.424464	-0.441296	0.960239	-0.275148	-0.420705	0.958509	-0.368383	-0.323283	0.722785	-0.099259	-0.268146	0.740305	-0.096510	-0.308270	0.677083	-0.106315	-0.255921	0.694147	-0.103390	-0.227468	0.440340	-0.171204	-0.225291	0.446179	-0.276336	-0.345417	0.354553	-0.149623	-0.297395	0.331970	-0.160884	-0.374504	0.317827	-0.153584	-0.328208	0.292879	-0.163984	-0.495164	0.125035	-0.196796	-0.474327	0.122522	-0.291041	-0.398756	0.036061	-0.152989	-0.387951	0.023140	-0.271510	-0.326700	0.042751	-0.213458	-0.579167	0.101503	-0.258645	-0.202600	0.733984	-0.488106	-0.156742	0.757823	-0.477197	-0.185127	0.690979	-0.487066	-0.135266	0.717158	-0.476954	-0.044034	0.505295	-0.442540	-0.036953	0.497684	-0.329253	-0.163632	0.443217	-0.466168	-0.123619	0.408957	-0.461292	-0.202300	0.408173	-0.466973	-0.159888	0.375147	-0.461358	-0.342250	0.214996	-0.438258	-0.309532	0.199386	-0.349471	-0.278211	0.095813	-0.488551	-0.240303	0.076721	-0.380444	-0.196203	0.082692	-0.440752	-0.415069	0.210193	-0.384196	-0.307416	1.426129	-0.147865	-0.274076	1.419758	-0.486236	
83	0.4100	-0.276844	0.964228	-0.129691	-0.225287	0.960934	-0.424598	-0.435010	0.960255	-0.275102	-0.414499	0.958327	-0.368298	-0.318392	0.722775	-0.099346	-0.263125	0.740018	-0.096502	-0.303737	0.676994	-0.106344	-0.251252	0.693773	-0.103375	-0.225168	0.439179	-0.171099	-0.222938	0.444944	-0.276389	-0.343643	0.353857	-0.149564	-0.295746	0.331134	-0.160830	-0.372987	0.317395	-0.153533	-0.326830	0.292257	-0.163961	-0.494971	0.125484	-0.196662	-0.474159	0.122915	-0.290942	-0.399048	0.036110	-0.152873	-0.388217	0.023115	-0.271389	-0.327070	0.042954	-0.213435	-0.579056	0.102354	-0.258456	-0.195648	0.734587	-0.488305	-0.149837	0.758743	-0.477474	-0.177881	0.691699	-0.487304	-0.128105	0.718208	-0.477276	-0.035571	0.506861	-0.442846	-0.028283	0.499246	-0.329701	-0.154695	0.443536	-0.466225	-0.114240	0.409684	-0.461636	-0.192996	0.408009	-0.467034	-0.150150	0.375390	-0.461702	-0.330624	0.212562	-0.438443	-0.297562	0.197268	-0.349703	-0.264710	0.094253	-0.488977	-0.226417	0.075505	-0.380932	-0.182348	0.082279	-0.441273	-0.403528	0.206617	-0.384314	-0.300945	1.425997	-0.147790	-0.269170	1.419893	-0.486359	
84	0.4150	-0.271529	0.964244	-0.129577	-0.220039	0.960784	-0.424714	-0.429644	0.960319	-0.275065	-0.409202	0.958224	-0.368222	-0.314264	0.722809	-0.099421	-0.258883	0.739811	-0.096491	-0.299918	0.676959	-0.106363	-0.247315	0.693491	-0.103356	-0.223283	0.438214	-0.170991	-0.220996	0.443912	-0.276421	-0.342182	0.353267	-0.149501	-0.294392	0.330443	-0.160772	-0.371730	0.317030	-0.153481	-0.325689	0.291747	-0.163930	-0.494764	0.125873	-0.196544	-0.473973	0.123264	-0.290853	-0.399254	0.036144	-0.152787	-0.388406	0.023091	-0.271295	-0.327345	0.043124	-0.213431	-0.578913	0.103103	-0.258288	-0.189751	0.735139	-0.488480	-0.143981	0.759562	-0.477721	-0.171737	0.692352	-0.487511	-0.122034	0.719138	-0.477559	-0.028394	0.508222	-0.443108	-0.020930	0.500604	-0.330089	-0.147109	0.443811	-0.466275	-0.106271	0.410316	-0.461932	-0.185087	0.407864	-0.467086	-0.141868	0.375603	-0.461998	-0.320686	0.210454	-0.438604	-0.287329	0.195443	-0.349904	-0.253179	0.092904	-0.489326	-0.214556	0.074472	-0.381331	-0.170525	0.081917	-0.441695	-0.393643	0.203536	-0.384425	-0.295424	1.425927	-0.147745	-0.264995	1.420042	-0.486460	
85	0.4200	-0.267079	0.964301	-0.129493	-0.215646	0.960706	-0.424814	-0.425147	0.960413	-0.275036	-0.404762	0.958178	-0.368156	-0.310842	0.722872	-0.099484	-0.255364	0.739667	-0.096478	-0.296759	0.676963	-0.106375	-0.244054	0.693284	-0.103333	-0.221765	0.437428	-0.170885	-0.219420	0.443065	-0.276438	-0.340999	0.352776	-0.149438	-0.293298	0.329884	-0.160714	-0.370706	0.316726	-0.153430	-0.324761	0.291338	-0.163894	-0.494553	0.126204	-0.196441	-0.473782	0.123568	-0.290776	-0.399389	0.036165	-0.152724	-0.388533	0.023068	-0.271223	-0.327539	0.043263	-0.213440	-0.578753	0.103751	-0.258143	-0.184840	0.735630	-0.488631	-0.139107	0.760275	-0.477937	-0.166622	0.692930	-0.487686	-0.116981	0.719944	-0.477802	-0.022418	0.509382	-0.443329	-0.014805	0.501760	-0.330418	-0.140786	0.444042	-0.466316	-0.099623	0.410857	-0.462182	-0.178488	0.407739	-0.467130	-0.134950	0.375786	-0.462248	-0.312346	0.208665	-0.438742	-0.278742	0.193902	-0.350075	-0.243512	0.091762	-0.489605	-0.204613	0.073614	-0.381651	-0.160624	0.081607	-0.442030	-0.385333	0.200932	-0.384528	-0.290801	1.425903	-0.147723	-0.261508	1.420194	-0.486543	
86	0.4250	-0.263426	0.964384	-0.129433	-0.212044	0.960679	-0.424897	-0.421454	0.960523	-0.275012	-0.401117	0.958175	-0.368101	-0.308063	0.722950	-0.099536	-0.252502	0.739572	-0.096463	-0.294198	0.676992	-0.106382	-0.241408	0.693137	-0.103310	-0.220565	0.436799	-0.170786	-0.218165	0.442384	-0.276443	-0.340059	0.352376	-0.149377	-0.292430	0.329441	-0.160658	-0.369886	0.316480	-0.153382	-0.324020	0.291016	-0.163856	-0.494349	0.126481	-0.196354	-0.473594	0.123826	-0.290710	-0.399468	0.036177	-0.152681	-0.388609	0.023047	-0.271171	-0.327668	0.043372	-0.213458	-0.578586	0.104299	-0.258020	-0.180832	0.736056	-0.488758	-0.135131	0.760882	-0.478120	-0.162451	0.693428	-0.487833	-0.112860	0.720626	-0.478006	-0.017543	0.510348	-0.443510	-0.009808	0.502723	-0.330692	-0.135622	0.444233	-0.466351	-0.094189	0.411308	-0.462389	-0.173092	0.407632	-0.467166	-0.129291	0.375940	-0.462455	-0.305490	0.207179	-0.438857	-0.271684	0.192629	-0.350217	-0.235573	0.090816	-0.489825	-0.196448	0.072916	-0.381903	-0.152500	0.081349	-0.442291	-0.378490	0.198778	-0.384619	-0.287008	1.425911	-0.147718	-0.258653	1.420341	-0.486609	
87	0.4300	-0.260497	0.964479	-0.129392	-0.209159	0.960688	-0.424965	-0.418490	0.960635	-0.274994	-0.398192	0.958197	-0.368055	-0.305857	0.723034	-0.099577	-0.250227	0.739513	-0.096449	-0.292168	0.677034	-0.106384	-0.239308	0.693036	-0.103287	-0.219639	0.436309	-0.170698	-0.217188	0.441850	-0.276440	-0.339328	0.352060	-0.149322	-0.291757	0.329098	-0.160608	-0.369243	0.316285	-0.153340	-0.323439	0.290770	-0.163820	-0.494160	0.126706	-0.196283	-0.473419	0.124039	-0.290655	-0.399507	0.036182	-0.152652	-0.388649	0.023027	-0.271135	-0.327747	0.043455	-0.213480	-0.578426	0.104751	-0.257918	-0.177637	0.736415	-0.488861	-0.131962	0.761383	-0.478272	-0.159126	0.693845	-0.487951	-0.109575	0.721189	-0.478173	-0.013656	0.511133	-0.443657	-0.005824	0.503506	-0.330913	-0.131502	0.444386	-0.466379	-0.089850	0.411675	-0.462555	-0.168780	0.407544	-0.467196	-0.124766	0.376066	-0.462622	-0.299985	0.205975	-0.438951	-0.266017	0.191602	-0.350332	-0.229203	0.090052	-0.489993	-0.189898	0.072363	-0.382096	-0.145989	0.081139	-0.442488	-0.372985	0.197038	-0.384697	-0.283968	1.425938	-0.147724	-0.256370	1.420476	-0.486660	
