PathFileType	4	(X/Y/Z)	 P3 -130r2 06.trc
DataRate	CameraRate	NumFrames	NumMarkers	Units	OrigDataRate	OrigDataStartFrame	OrigNumFrames
200	200	83	38	m	200	1	83
Frame#	Time	RASIS			LASIS			RPSIS			LPSIS			RThighRear1			RThighFront1			RThighRear2			RThighFront2			RKneeLat			RKneeMed			RShankRear1			RShankFront1			RShankRear2			RShankFront2			RAnkleLat			RAnkleMed			RM5			RM1			RMid			RHeel			LThighRear1			LThighFront1			LThighRear2			LThighFront2			LKneeLat			LKneeMed			LShankRear1			LShankFront1			LShankRear2			LShankFront2			LAnkleLat			LAnkleMed			LM5			LM1			LMid			LHeel			RShoulder			LShoulder			
		X1	Y1	Z1	X2	Y2	Z2	X3	Y3	Z3	X4	Y4	Z4	X5	Y5	Z5	X6	Y6	Z6	X7	Y7	Z7	X8	Y8	Z8	X9	Y9	Z9	X10	Y10	Z10	X11	Y11	Z11	X12	Y12	Z12	X13	Y13	Z13	X14	Y14	Z14	X15	Y15	Z15	X16	Y16	Z16	X17	Y17	Z17	X18	Y18	Z18	X19	Y19	Z19	X20	Y20	Z20	X21	Y21	Z21	X22	Y22	Z22	X23	Y23	Z23	X24	Y24	Z24	X25	Y25	Z25	X26	Y26	Z26	X27	Y27	Z27	X28	Y28	Z28	X29	Y29	Z29	X30	Y30	Z30	X31	Y31	Z31	X32	Y32	Z32	X33	Y33	Z33	X34	Y34	Z34	X35	Y35	Z35	X36	Y36	Z36	X37	Y37	Z37	X38	Y38	Z38	
1	0.0000	-1.580163	0.923929	-0.274350	-1.600097	0.942325	-0.518268	-1.766357	1.011913	-0.349555	-1.769283	1.009217	-0.439155	-1.699808	0.790785	-0.205515	-1.648054	0.772633	-0.210573	-1.711688	0.738165	-0.206769	-1.658358	0.719642	-0.214923	-1.770025	0.439462	-0.249030	-1.758206	0.442592	-0.376063	-1.944377	0.420810	-0.239136	-1.918212	0.374388	-0.246648	-1.989616	0.403188	-0.250853	-1.967044	0.358896	-0.256136	-2.166298	0.329216	-0.285200	-2.153435	0.318963	-0.376703	-2.216967	0.211023	-0.244105	-2.197951	0.181415	-0.355115	-2.164755	0.131972	-0.277854	-2.201276	0.374638	-0.353738	-1.663975	0.827428	-0.582235	-1.619822	0.849214	-0.586439	-1.642838	0.783956	-0.585870	-1.598599	0.810187	-0.594195	-1.439533	0.520581	-0.548678	-1.430348	0.513967	-0.428069	-1.486713	0.321060	-0.560173	-1.428602	0.322687	-0.555847	-1.476370	0.270105	-0.548564	-1.425246	0.284706	-0.545397	-1.437270	0.097989	-0.509762	-1.420637	0.108490	-0.419943	-1.327177	0.046385	-0.525491	-1.300778	0.058581	-0.414920	-1.237846	0.084472	-0.472539	-1.494224	0.069112	-0.449831	-1.409324	1.384349	-0.276014	-1.462822	1.385087	-0.589532	
2	0.0050	-1.565166	0.922665	-0.274792	-1.585898	0.942206	-0.518783	-1.751998	1.010337	-0.348448	-1.755327	1.008225	-0.438160	-1.680546	0.788209	-0.205353	-1.628653	0.771397	-0.211155	-1.691133	0.735386	-0.206618	-1.637642	0.718397	-0.215310	-1.742716	0.437032	-0.249926	-1.731689	0.440894	-0.376955	-1.916580	0.418786	-0.238606	-1.890799	0.372480	-0.247185	-1.962032	0.401711	-0.250290	-1.939919	0.357556	-0.256371	-2.139776	0.330300	-0.284036	-2.127801	0.320145	-0.375552	-2.190022	0.211906	-0.243110	-2.172229	0.182522	-0.354123	-2.138234	0.132907	-0.277580	-2.175468	0.376088	-0.352052	-1.651100	0.826564	-0.581852	-1.606896	0.848173	-0.586595	-1.630170	0.782919	-0.585332	-1.586035	0.808855	-0.594361	-1.427989	0.519001	-0.548903	-1.418916	0.512252	-0.428334	-1.479042	0.320662	-0.559641	-1.421044	0.320843	-0.555375	-1.469982	0.269719	-0.547890	-1.418649	0.283002	-0.544761	-1.435998	0.097826	-0.508275	-1.419154	0.107454	-0.418492	-1.326785	0.045562	-0.525725	-1.299802	0.056366	-0.414533	-1.237113	0.080827	-0.471921	-1.493404	0.069267	-0.448696	-1.393542	1.381950	-0.275465	-1.447132	1.382458	-0.590364	
3	0.0100	-1.549979	0.921367	-0.275261	-1.571525	0.942096	-0.519333	-1.737439	1.008760	-0.347312	-1.741177	1.007248	-0.437132	-1.661010	0.785640	-0.205208	-1.608975	0.770196	-0.211760	-1.670278	0.732624	-0.206487	-1.616625	0.717197	-0.215722	-1.714927	0.434656	-0.250887	-1.704738	0.439265	-0.377906	-1.888297	0.416751	-0.238084	-1.862897	0.370572	-0.247750	-1.933974	0.400211	-0.249716	-1.912312	0.356195	-0.256621	-2.112813	0.331279	-0.282817	-2.101759	0.321244	-0.374346	-2.162551	0.212633	-0.242077	-2.146014	0.183494	-0.353098	-2.111154	0.133719	-0.277318	-2.149282	0.377427	-0.350274	-1.638087	0.825729	-0.581460	-1.593836	0.847155	-0.586749	-1.617363	0.781904	-0.584789	-1.573339	0.807548	-0.594531	-1.416355	0.517361	-0.549148	-1.407391	0.510468	-0.428616	-1.471326	0.320220	-0.559113	-1.413449	0.318941	-0.554914	-1.463561	0.269295	-0.547221	-1.412022	0.281246	-0.544132	-1.434753	0.097651	-0.506787	-1.417694	0.106419	-0.417040	-1.326401	0.044755	-0.525961	-1.298836	0.054181	-0.414155	-1.236395	0.077215	-0.471318	-1.492610	0.069391	-0.447549	-1.377560	1.379541	-0.274906	-1.431199	1.379815	-0.591187	
4	0.0150	-1.534620	0.920044	-0.275759	-1.556990	0.942001	-0.519922	-1.722690	1.007202	-0.346152	-1.726840	1.006305	-0.436072	-1.641228	0.783113	-0.205089	-1.589048	0.769069	-0.212389	-1.649149	0.729921	-0.206387	-1.595333	0.716083	-0.216165	-1.686665	0.432399	-0.251928	-1.677371	0.437764	-0.378929	-1.859527	0.414726	-0.237583	-1.834498	0.368690	-0.248350	-1.905441	0.398696	-0.249136	-1.884211	0.354824	-0.256892	-2.085388	0.332086	-0.281545	-2.075286	0.322199	-0.373085	-2.134491	0.213134	-0.241008	-2.119234	0.184264	-0.352044	-2.083428	0.134356	-0.277073	-2.122713	0.378572	-0.348401	-1.624952	0.824942	-0.581061	-1.580660	0.846177	-0.586900	-1.604434	0.780933	-0.584246	-1.560528	0.806284	-0.594705	-1.404684	0.515660	-0.549415	-1.395819	0.508607	-0.428921	-1.463607	0.319734	-0.558597	-1.405863	0.316986	-0.554472	-1.457145	0.268835	-0.546563	-1.405410	0.279444	-0.543520	-1.433552	0.097466	-0.505313	-1.416277	0.105401	-0.415603	-1.326034	0.043974	-0.526196	-1.297894	0.052054	-0.413789	-1.235704	0.073680	-0.470739	-1.491857	0.069482	-0.446401	-1.361402	1.377144	-0.274332	-1.415026	1.377182	-0.591985	
5	0.0200	-1.519098	0.918707	-0.276284	-1.542296	0.941925	-0.520551	-1.707754	1.005680	-0.344972	-1.712314	1.005414	-0.434985	-1.621219	0.780668	-0.205001	-1.568893	0.768056	-0.213043	-1.627764	0.727322	-0.206327	-1.573788	0.715099	-0.216645	-1.657929	0.430329	-0.253064	-1.649593	0.436455	-0.380038	-1.830262	0.412734	-0.237116	-1.805580	0.366863	-0.248992	-1.876419	0.397171	-0.248560	-1.855588	0.353454	-0.257190	-2.057465	0.332656	-0.280221	-2.048343	0.322945	-0.371771	-2.105763	0.213338	-0.239904	-2.091802	0.184762	-0.350962	-2.054954	0.134771	-0.276853	-2.095739	0.379437	-0.346429	-1.611702	0.824220	-0.580659	-1.567374	0.845254	-0.587047	-1.591393	0.780023	-0.583710	-1.547612	0.805081	-0.594882	-1.393029	0.513892	-0.549709	-1.384249	0.506661	-0.429253	-1.455929	0.319203	-0.558097	-1.398334	0.314984	-0.554058	-1.450772	0.268341	-0.545924	-1.398854	0.277605	-0.542937	-1.432413	0.097277	-0.503869	-1.414919	0.104417	-0.414197	-1.325690	0.043228	-0.526426	-1.296988	0.050013	-0.413441	-1.235051	0.070263	-0.470190	-1.491162	0.069538	-0.445260	-1.345085	1.374784	-0.273737	-1.398608	1.374587	-0.592742	
6	0.0250	-1.503416	0.917370	-0.276835	-1.527439	0.941874	-0.521221	-1.692627	1.004215	-0.343779	-1.697591	1.004593	-0.433876	-1.600997	0.778343	-0.204952	-1.548525	0.767198	-0.213721	-1.606137	0.724874	-0.206318	-1.552006	0.714291	-0.217166	-1.628711	0.428515	-0.254308	-1.621408	0.435403	-0.381244	-1.800486	0.410797	-0.236699	-1.776116	0.365122	-0.249686	-1.846886	0.395644	-0.247997	-1.826409	0.352096	-0.257522	-2.028997	0.332920	-0.278848	-2.020880	0.323418	-0.370408	-2.076276	0.213177	-0.238767	-2.063617	0.184923	-0.349857	-2.025621	0.134919	-0.276663	-2.068325	0.379932	-0.344361	-1.598336	0.823580	-0.580255	-1.553977	0.844400	-0.587188	-1.578242	0.779193	-0.583185	-1.534591	0.803953	-0.595061	-1.381438	0.512055	-0.550034	-1.372724	0.504621	-0.429614	-1.448331	0.318632	-0.557619	-1.390904	0.312943	-0.553683	-1.444478	0.267820	-0.545311	-1.392392	0.275736	-0.542392	-1.431351	0.097089	-0.502471	-1.413634	0.103483	-0.412838	-1.325375	0.042523	-0.526648	-1.296130	0.048080	-0.413115	-1.234444	0.067001	-0.469676	-1.490537	0.069560	-0.444138	-1.328620	1.372484	-0.273112	-1.381936	1.372058	-0.593441	
7	0.0300	-1.487570	0.916048	-0.277409	-1.512410	0.941852	-0.521930	-1.677301	1.002825	-0.342583	-1.682656	1.003860	-0.432751	-1.580572	0.776179	-0.204949	-1.527956	0.766537	-0.214422	-1.584280	0.722621	-0.206368	-1.529999	0.713706	-0.217734	-1.599004	0.427028	-0.255672	-1.592815	0.434672	-0.382559	-1.770181	0.408940	-0.236346	-1.746077	0.363496	-0.250438	-1.816818	0.394123	-0.247456	-1.796636	0.350764	-0.257894	-1.999931	0.332816	-0.277435	-1.992839	0.323551	-0.369003	-2.045934	0.212591	-0.237604	-2.034572	0.184682	-0.348733	-1.995310	0.134763	-0.276508	-2.040429	0.379969	-0.342204	-1.584846	0.823037	-0.579853	-1.540462	0.843625	-0.587322	-1.564978	0.778459	-0.582676	-1.521460	0.802914	-0.595240	-1.369956	0.510144	-0.550391	-1.361283	0.502478	-0.430009	-1.440852	0.318026	-0.557167	-1.383614	0.310872	-0.553353	-1.438297	0.267276	-0.544731	-1.386062	0.273847	-0.541893	-1.430379	0.096907	-0.501134	-1.412436	0.102615	-0.411541	-1.325094	0.041864	-0.526858	-1.295330	0.046276	-0.412815	-1.233892	0.063931	-0.469202	-1.489998	0.069551	-0.443046	-1.312015	1.370271	-0.272448	-1.364996	1.369625	-0.594066	
8	0.0350	-1.471554	0.914759	-0.278000	-1.497195	0.941865	-0.522676	-1.661765	1.001530	-0.341392	-1.667493	1.003231	-0.431620	-1.559956	0.774214	-0.204996	-1.507199	0.766112	-0.215145	-1.562200	0.720609	-0.206485	-1.507779	0.713387	-0.218351	-1.568801	0.425935	-0.257165	-1.563816	0.434324	-0.383990	-1.739331	0.407187	-0.236073	-1.715433	0.362017	-0.251255	-1.786193	0.392616	-0.246950	-1.766232	0.349473	-0.258314	-1.970212	0.332284	-0.275991	-1.964157	0.323284	-0.367566	-2.014640	0.211527	-0.236419	-2.004556	0.183985	-0.347596	-1.963906	0.134271	-0.276393	-2.012002	0.379464	-0.339969	-1.571219	0.822603	-0.579457	-1.526814	0.842940	-0.587449	-1.551595	0.777835	-0.582191	-1.508207	0.801975	-0.595417	-1.358627	0.508160	-0.550783	-1.349965	0.500227	-0.430439	-1.433526	0.317391	-0.556746	-1.376502	0.308782	-0.553076	-1.432258	0.266720	-0.544188	-1.379897	0.271951	-0.541449	-1.429506	0.096741	-0.499872	-1.411333	0.101831	-0.410320	-1.324852	0.041255	-0.527051	-1.294597	0.044617	-0.412543	-1.233402	0.061081	-0.468771	-1.489552	0.069518	-0.441994	-1.295274	1.368170	-0.271738	-1.347774	1.367315	-0.594599	
9	0.0400	-1.455360	0.913524	-0.278603	-1.481775	0.941917	-0.523452	-1.646005	1.000350	-0.340218	-1.652083	1.002723	-0.430494	-1.539158	0.772488	-0.205097	-1.486266	0.765964	-0.215884	-1.539910	0.718882	-0.206678	-1.485359	0.713378	-0.219019	-1.538106	0.425303	-0.258793	-1.534418	0.434418	-0.385543	-1.707929	0.405563	-0.235893	-1.684165	0.360716	-0.252144	-1.754992	0.391132	-0.246491	-1.735169	0.348237	-0.258787	-1.939787	0.331270	-0.274530	-1.934773	0.322560	-0.366112	-1.982306	0.209943	-0.235222	-1.973465	0.182785	-0.346455	-1.931303	0.133424	-0.276320	-1.982995	0.378337	-0.337675	-1.557438	0.822290	-0.579069	-1.513014	0.842351	-0.587568	-1.538081	0.777334	-0.581734	-1.494819	0.801143	-0.595589	-1.347488	0.506101	-0.551209	-1.338804	0.497862	-0.430904	-1.426384	0.316738	-0.556358	-1.369602	0.306688	-0.552859	-1.426389	0.266161	-0.543688	-1.373927	0.270060	-0.541068	-1.428739	0.096598	-0.498698	-1.410332	0.101147	-0.409191	-1.324653	0.040696	-0.527222	-1.293938	0.043115	-0.412301	-1.232979	0.058474	-0.468383	-1.489210	0.069470	-0.440994	-1.278399	1.366206	-0.270971	-1.330257	1.365161	-0.595026	
10	0.0450	-1.438978	0.912365	-0.279210	-1.466134	0.942011	-0.524251	-1.630010	0.999303	-0.339074	-1.636409	1.002350	-0.429384	-1.518191	0.771037	-0.205256	-1.465170	0.766127	-0.216637	-1.517423	0.717479	-0.206950	-1.462755	0.713717	-0.219737	-1.506930	0.425191	-0.260556	-1.504636	0.435008	-0.387218	-1.675975	0.404090	-0.235822	-1.652260	0.359622	-0.253108	-1.723207	0.389680	-0.246092	-1.703423	0.347072	-0.259320	-1.908607	0.329729	-0.273070	-1.904628	0.321325	-0.364657	-1.948854	0.207807	-0.234024	-1.941204	0.181046	-0.345319	-1.897407	0.132210	-0.276293	-1.953358	0.376517	-0.335347	-1.543483	0.822105	-0.578694	-1.499041	0.841862	-0.587678	-1.524422	0.776967	-0.581311	-1.481276	0.800424	-0.595753	-1.336577	0.503972	-0.551669	-1.327831	0.495385	-0.431406	-1.419454	0.316080	-0.556008	-1.362944	0.304605	-0.552706	-1.420714	0.265614	-0.543236	-1.368177	0.268193	-0.540755	-1.428079	0.096488	-0.497627	-1.409434	0.100576	-0.408165	-1.324499	0.040186	-0.527369	-1.293361	0.041779	-0.412090	-1.232625	0.056128	-0.468038	-1.488973	0.069419	-0.440057	-1.261394	1.364404	-0.270140	-1.312434	1.363190	-0.595332	
11	0.0500	-1.422397	0.911306	-0.279809	-1.450253	0.942150	-0.525062	-1.613768	0.998406	-0.337974	-1.620453	1.002124	-0.428304	-1.497070	0.769895	-0.205474	-1.443929	0.766635	-0.217397	-1.494758	0.716439	-0.207305	-1.439988	0.714438	-0.220504	-1.475300	0.425652	-0.262453	-1.474493	0.436138	-0.389013	-1.643481	0.402790	-0.235873	-1.619720	0.358763	-0.254152	-1.690839	0.388271	-0.245767	-1.670987	0.345995	-0.259917	-1.876635	0.327624	-0.271631	-1.873672	0.319538	-0.363224	-1.914218	0.205103	-0.232839	-1.907692	0.178744	-0.344202	-1.862145	0.130630	-0.276313	-1.923047	0.373944	-0.333014	-1.529331	0.822054	-0.578336	-1.484870	0.841477	-0.587778	-1.510603	0.776741	-0.580927	-1.467559	0.799820	-0.595906	-1.325923	0.501779	-0.552160	-1.317075	0.492799	-0.431943	-1.412759	0.315434	-0.555698	-1.356551	0.302554	-0.552621	-1.415251	0.265096	-0.542834	-1.362670	0.266368	-0.540516	-1.427526	0.096424	-0.496670	-1.408638	0.100134	-0.407256	-1.324391	0.039724	-0.527487	-1.292868	0.040612	-0.411912	-1.232342	0.054054	-0.467734	-1.488842	0.069380	-0.439195	-1.244260	1.362789	-0.269234	-1.294298	1.361433	-0.595501	
12	0.0550	-1.405609	0.910372	-0.280390	-1.434113	0.942338	-0.525874	-1.597271	0.997675	-0.336930	-1.604200	1.002055	-0.427270	-1.475814	0.769093	-0.205749	-1.422564	0.767515	-0.218155	-1.471937	0.715792	-0.207745	-1.417081	0.715570	-0.221317	-1.443255	0.426730	-0.264476	-1.444027	0.437846	-0.390922	-1.610473	0.401683	-0.236057	-1.586561	0.358163	-0.255276	-1.657902	0.386912	-0.245530	-1.637864	0.345021	-0.260583	-1.843843	0.324930	-0.270238	-1.841864	0.317164	-0.361836	-1.878354	0.201827	-0.231684	-1.872863	0.175868	-0.343117	-1.825464	0.128696	-0.276383	-1.892023	0.370567	-0.330711	-1.514962	0.822141	-0.577998	-1.470477	0.841195	-0.587867	-1.496610	0.776662	-0.580588	-1.453646	0.799332	-0.596044	-1.315553	0.499532	-0.552680	-1.306560	0.490113	-0.432511	-1.406316	0.314817	-0.555428	-1.350442	0.300557	-0.552607	-1.410015	0.264624	-0.542486	-1.357420	0.264606	-0.540356	-1.427072	0.096416	-0.495838	-1.407936	0.099834	-0.406475	-1.324329	0.039303	-0.527573	-1.292460	0.039615	-0.411765	-1.232128	0.052257	-0.467466	-1.488813	0.069375	-0.438422	-1.227004	1.361384	-0.268246	-1.275848	1.359915	-0.595523	
13	0.0600	-1.388608	0.909588	-0.280942	-1.417699	0.942578	-0.526672	-1.580512	0.997124	-0.335959	-1.587639	1.002153	-0.426296	-1.454445	0.768656	-0.206080	-1.401100	0.768788	-0.218906	-1.448987	0.715567	-0.208268	-1.394065	0.717136	-0.222170	-1.410849	0.428458	-0.266613	-1.413281	0.440159	-0.392935	-1.576991	0.400786	-0.236383	-1.552813	0.357844	-0.256479	-1.624424	0.385613	-0.245395	-1.604075	0.344164	-0.261321	-1.810212	0.321631	-0.268917	-1.809174	0.314180	-0.360520	-1.841234	0.197991	-0.230577	-1.836673	0.172424	-0.342082	-1.787334	0.126435	-0.276507	-1.860256	0.366349	-0.328478	-1.500353	0.822367	-0.577684	-1.455838	0.841015	-0.587945	-1.482427	0.776735	-0.580298	-1.439518	0.798958	-0.596164	-1.305489	0.497247	-0.553224	-1.296304	0.487340	-0.433107	-1.400138	0.314253	-0.555202	-1.344631	0.298640	-0.552667	-1.405014	0.264221	-0.542194	-1.352436	0.262933	-0.540277	-1.426705	0.096479	-0.495142	-1.407317	0.099690	-0.405833	-1.324312	0.038919	-0.527625	-1.292138	0.038782	-0.411649	-1.231981	0.050734	-0.467230	-1.488876	0.069425	-0.437751	-1.209630	1.360209	-0.267169	-1.257088	1.358664	-0.595387	
14	0.0650	-1.371388	0.908980	-0.281449	-1.400998	0.942871	-0.527440	-1.563490	0.996766	-0.335074	-1.570762	1.002423	-0.425398	-1.432988	0.768606	-0.206462	-1.379563	0.770470	-0.219639	-1.425940	0.715784	-0.208872	-1.370971	0.719150	-0.223056	-1.378150	0.430860	-0.268850	-1.382315	0.443091	-0.395036	-1.543089	0.400111	-0.236859	-1.518523	0.357823	-0.257760	-1.590445	0.384380	-0.245374	-1.569655	0.343440	-0.262133	-1.775741	0.317723	-0.267697	-1.775583	0.310574	-0.359306	-1.802852	0.193621	-0.229541	-1.799098	0.168431	-0.341118	-1.747753	0.123881	-0.276687	-1.827723	0.361269	-0.326359	-1.485485	0.822730	-0.577399	-1.440929	0.840935	-0.588011	-1.468039	0.776962	-0.580060	-1.425156	0.798695	-0.596261	-1.295744	0.494943	-0.553786	-1.286322	0.484501	-0.433726	-1.394230	0.313767	-0.555020	-1.339122	0.296830	-0.552800	-1.400252	0.263909	-0.541962	-1.347722	0.261374	-0.540283	-1.426408	0.096628	-0.494592	-1.406765	0.099712	-0.405341	-1.324334	0.038563	-0.527639	-1.291899	0.038106	-0.411563	-1.231896	0.049477	-0.467019	-1.489017	0.069556	-0.437196	-1.192148	1.359285	-0.265995	-1.238028	1.357702	-0.595084	
15	0.0700	-1.353947	0.908572	-0.281900	-1.383998	0.943221	-0.528163	-1.546204	0.996611	-0.334288	-1.553565	1.002869	-0.424590	-1.411472	0.768959	-0.206889	-1.357984	0.772569	-0.220345	-1.402831	0.716457	-0.209551	-1.347837	0.721618	-0.223967	-1.345240	0.433945	-0.271165	-1.351195	0.446647	-0.397209	-1.508831	0.399665	-0.237490	-1.483751	0.358111	-0.259115	-1.556018	0.383219	-0.245478	-1.534654	0.342859	-0.263020	-1.740438	0.313214	-0.266609	-1.741088	0.306345	-0.358224	-1.763222	0.188754	-0.228599	-1.760136	0.163924	-0.340245	-1.706743	0.121083	-0.276930	-1.794410	0.355319	-0.324397	-1.470339	0.823229	-0.577146	-1.425731	0.840950	-0.588065	-1.453435	0.777342	-0.579877	-1.410540	0.798539	-0.596331	-1.286328	0.492644	-0.554359	-1.276622	0.481622	-0.434360	-1.388594	0.313387	-0.554885	-1.333913	0.295157	-0.553007	-1.395724	0.263716	-0.541791	-1.343273	0.259959	-0.540374	-1.426161	0.096877	-0.494198	-1.406259	0.099912	-0.405007	-1.324393	0.038226	-0.527617	-1.291739	0.037577	-0.411504	-1.231866	0.048472	-0.466825	-1.489215	0.069800	-0.436772	-1.174568	1.358628	-0.264720	-1.218685	1.357050	-0.594608	
16	0.0750	-1.336284	0.908388	-0.282281	-1.366693	0.943631	-0.528824	-1.528657	0.996666	-0.333614	-1.536047	1.003493	-0.423887	-1.389926	0.769725	-0.207354	-1.336394	0.775088	-0.221015	-1.379699	0.717593	-0.210296	-1.324703	0.724542	-0.224894	-1.312213	0.437709	-0.273538	-1.319995	0.450818	-0.399432	-1.474295	0.399454	-0.238279	-1.448572	0.358716	-0.260536	-1.521206	0.382132	-0.245718	-1.499136	0.342432	-0.263981	-1.704323	0.308123	-0.265682	-1.705695	0.301506	-0.357306	-1.722380	0.183443	-0.227778	-1.719807	0.158950	-0.339489	-1.664353	0.118098	-0.277242	-1.760312	0.348507	-0.322640	-1.454900	0.823861	-0.576927	-1.410225	0.841058	-0.588106	-1.438602	0.777877	-0.579751	-1.395656	0.798485	-0.596370	-1.277240	0.490379	-0.554937	-1.267208	0.478734	-0.435004	-1.383220	0.313143	-0.554797	-1.328995	0.293655	-0.553288	-1.391421	0.263667	-0.541684	-1.339078	0.258716	-0.540554	-1.425937	0.097244	-0.493969	-1.405774	0.100300	-0.404840	-1.324482	0.037901	-0.527556	-1.291649	0.037184	-0.411472	-1.231885	0.047700	-0.466639	-1.489446	0.070187	-0.436494	-1.156900	1.358253	-0.263340	-1.199079	1.356726	-0.593955	
17	0.0800	-1.318402	0.908448	-0.282579	-1.349078	0.944104	-0.529407	-1.510856	0.996936	-0.333062	-1.518212	1.004293	-0.423299	-1.368380	0.770907	-0.207847	-1.314826	0.778020	-0.221639	-1.356582	0.719190	-0.211099	-1.301607	0.727909	-0.225825	-1.279172	0.442136	-0.275941	-1.288798	0.455582	-0.401681	-1.439565	0.399472	-0.239223	-1.413071	0.359638	-0.262018	-1.486084	0.381121	-0.246103	-1.463176	0.342165	-0.265017	-1.667430	0.302479	-0.264948	-1.669427	0.296081	-0.356582	-1.680378	0.177748	-0.227104	-1.678152	0.153572	-0.338874	-1.620654	0.114990	-0.277633	-1.725434	0.340856	-0.321132	-1.439155	0.824621	-0.576745	-1.394396	0.841254	-0.588133	-1.423532	0.778564	-0.579681	-1.380492	0.798530	-0.596373	-1.268473	0.488181	-0.555510	-1.258073	0.475874	-0.435647	-1.378095	0.313064	-0.554758	-1.324350	0.292355	-0.553641	-1.387326	0.263791	-0.541643	-1.335117	0.257676	-0.540821	-1.425706	0.097746	-0.493912	-1.405280	0.100885	-0.404849	-1.324594	0.037578	-0.527459	-1.291623	0.036912	-0.411464	-1.231945	0.047137	-0.466453	-1.489679	0.070753	-0.436379	-1.139158	1.358171	-0.261853	-1.179238	1.356742	-0.593124	
18	0.0850	-1.300305	0.908770	-0.282783	-1.331152	0.944644	-0.529895	-1.492809	0.997423	-0.332638	-1.500067	1.005268	-0.422836	-1.346864	0.772503	-0.208358	-1.293309	0.781352	-0.222209	-1.333521	0.721242	-0.211947	-1.278591	0.731704	-0.226749	-1.246225	0.447193	-0.278348	-1.257688	0.460905	-0.403932	-1.404732	0.399712	-0.240320	-1.377342	0.360872	-0.263551	-1.450730	0.380183	-0.246637	-1.426859	0.342062	-0.266124	-1.629801	0.296319	-0.264436	-1.632314	0.290107	-0.356083	-1.637287	0.171742	-0.226605	-1.635234	0.147864	-0.338429	-1.575741	0.111833	-0.278113	-1.689789	0.332402	-0.319917	-1.423097	0.825507	-0.576602	-1.378236	0.841536	-0.588145	-1.408217	0.779403	-0.579667	-1.365037	0.798669	-0.596336	-1.260012	0.486085	-0.556071	-1.249208	0.473083	-0.436283	-1.373196	0.313184	-0.554772	-1.319952	0.291291	-0.554065	-1.383414	0.264115	-0.541672	-1.331366	0.256870	-0.541178	-1.425431	0.098398	-0.494036	-1.404745	0.101676	-0.405042	-1.324720	0.037249	-0.527329	-1.291649	0.036747	-0.411479	-1.232035	0.046756	-0.466257	-1.489880	0.071534	-0.436444	-1.121355	1.358390	-0.260257	-1.159192	1.357110	-0.592116	
19	0.0900	-1.281996	0.909367	-0.282883	-1.312917	0.945255	-0.530275	-1.474527	0.998126	-0.332349	-1.481621	1.006413	-0.422504	-1.325404	0.774503	-0.208875	-1.271873	0.785063	-0.222716	-1.310553	0.723730	-0.212828	-1.255691	0.735900	-0.227654	-1.213485	0.452838	-0.280730	-1.226753	0.466741	-0.406159	-1.369890	0.400160	-0.241562	-1.341484	0.362406	-0.265126	-1.415229	0.379312	-0.247326	-1.390276	0.342123	-0.267300	-1.591487	0.289693	-0.264173	-1.594401	0.283631	-0.355835	-1.593192	0.165502	-0.226308	-1.591131	0.141909	-0.338179	-1.529724	0.108703	-0.278696	-1.653396	0.323198	-0.319034	-1.406720	0.826514	-0.576498	-1.361737	0.841901	-0.588141	-1.392652	0.780392	-0.579706	-1.349286	0.798900	-0.596255	-1.251834	0.484130	-0.556612	-1.240594	0.470406	-0.436901	-1.368493	0.313532	-0.554840	-1.315768	0.290495	-0.554558	-1.379656	0.264669	-0.541775	-1.327789	0.256327	-0.541625	-1.425076	0.099220	-0.494348	-1.404131	0.102680	-0.405424	-1.324850	0.036908	-0.527168	-1.291716	0.036677	-0.411517	-1.232146	0.046526	-0.466045	-1.490007	0.072568	-0.436705	-1.103504	1.358915	-0.258555	-1.138974	1.357833	-0.590934	
20	0.0950	-1.263484	0.910249	-0.282872	-1.294379	0.945941	-0.530534	-1.456020	0.999042	-0.332195	-1.462887	1.007720	-0.422306	-1.304027	0.776890	-0.209387	-1.250543	0.789125	-0.223153	-1.287713	0.726633	-0.213726	-1.232944	0.740463	-0.228528	-1.181065	0.459012	-0.283059	-1.196078	0.473034	-0.408334	-1.335132	0.400795	-0.242941	-1.305601	0.364221	-0.266732	-1.379666	0.378501	-0.248169	-1.353526	0.342345	-0.268541	-1.552545	0.282653	-0.264182	-1.555739	0.276710	-0.355863	-1.548190	0.159111	-0.226241	-1.545941	0.135798	-0.338152	-1.482734	0.105679	-0.279396	-1.616283	0.313306	-0.318517	-1.390023	0.827640	-0.576432	-1.344898	0.842349	-0.588121	-1.376835	0.781528	-0.579795	-1.333236	0.799221	-0.596128	-1.243906	0.482355	-0.557125	-1.232205	0.467890	-0.437492	-1.363950	0.314140	-0.554966	-1.311756	0.289998	-0.555118	-1.376013	0.265477	-0.541954	-1.324348	0.256076	-0.542161	-1.424599	0.100229	-0.494855	-1.403401	0.103903	-0.406004	-1.324974	0.036549	-0.526984	-1.291811	0.036688	-0.411577	-1.232269	0.046415	-0.465808	-1.490017	0.073893	-0.437178	-1.085619	1.359748	-0.256749	-1.118621	1.358913	-0.589582	
21	0.1000	-1.244775	0.911420	-0.282745	-1.275546	0.946707	-0.530663	-1.437300	1.000164	-0.332174	-1.443880	1.009182	-0.422240	-1.282752	0.779641	-0.209880	-1.229339	0.793504	-0.223515	-1.265033	0.729918	-0.214626	-1.210378	0.745351	-0.229360	-1.149074	0.465648	-0.285308	-1.165748	0.479715	-0.410432	-1.300550	0.401589	-0.244444	-1.269795	0.366293	-0.268359	-1.344128	0.377739	-0.249165	-1.316704	0.342719	-0.269843	-1.513038	0.275260	-0.264485	-1.516391	0.269410	-0.356188	-1.502388	0.152653	-0.226430	-1.499775	0.129627	-0.338375	-1.434911	0.102840	-0.280231	-1.578485	0.302801	-0.318396	-1.373010	0.828882	-0.576403	-1.327724	0.842879	-0.588081	-1.360766	0.782812	-0.579929	-1.316888	0.799633	-0.595950	-1.236190	0.480801	-0.557604	-1.224011	0.465583	-0.438048	-1.359525	0.315034	-0.555153	-1.307870	0.289828	-0.555744	-1.372443	0.266564	-0.542214	-1.320995	0.256142	-0.542788	-1.423956	0.101441	-0.495563	-1.402513	0.105351	-0.406785	-1.325080	0.036169	-0.526783	-1.291919	0.036770	-0.411661	-1.232395	0.046391	-0.465543	-1.489864	0.075545	-0.437880	-1.067712	1.360887	-0.254844	-1.098167	1.360348	-0.588068	
22	0.1050	-1.225878	0.912880	-0.282498	-1.256430	0.947559	-0.530653	-1.418379	1.001483	-0.332280	-1.424615	1.010789	-0.422302	-1.261595	0.782728	-0.210343	-1.208278	0.798159	-0.223799	-1.242538	0.733549	-0.215512	-1.188019	0.750519	-0.230138	-1.117616	0.472665	-0.287451	-1.135839	0.486710	-0.412430	-1.266231	0.402513	-0.246058	-1.234167	0.368593	-0.269996	-1.308696	0.377010	-0.250310	-1.279911	0.343236	-0.271202	-1.473035	0.267578	-0.265097	-1.476424	0.261801	-0.356826	-1.455901	0.146214	-0.226896	-1.452753	0.123497	-0.338871	-1.386406	0.100265	-0.281217	-1.540041	0.291766	-0.318691	-1.355688	0.830239	-0.576408	-1.310222	0.843494	-0.588021	-1.344446	0.784241	-0.580100	-1.300248	0.800138	-0.595719	-1.228638	0.479506	-0.558041	-1.215974	0.463532	-0.438561	-1.355167	0.316238	-0.555407	-1.304055	0.290010	-0.556432	-1.368896	0.267951	-0.542560	-1.317679	0.256548	-0.543505	-1.423105	0.102872	-0.496477	-1.401426	0.107029	-0.407773	-1.325158	0.035770	-0.526574	-1.292025	0.036916	-0.411770	-1.232514	0.046420	-0.465245	-1.489496	0.077562	-0.438824	-1.049795	1.362326	-0.252846	-1.077651	1.362129	-0.586400	
23	0.1100	-1.206799	0.914621	-0.282134	-1.237044	0.948500	-0.530502	-1.399269	1.002987	-0.332503	-1.405109	1.012531	-0.422482	-1.240567	0.786115	-0.210764	-1.187369	0.803044	-0.224001	-1.220250	0.737481	-0.216369	-1.165886	0.755911	-0.230853	-1.086784	0.479978	-0.289465	-1.106422	0.493935	-0.414306	-1.232253	0.403530	-0.247766	-1.198813	0.371085	-0.271634	-1.273448	0.376298	-0.251598	-1.243239	0.343879	-0.272613	-1.432606	0.259675	-0.266030	-1.435912	0.253963	-0.357789	-1.408851	0.139876	-0.227661	-1.405009	0.117506	-0.339662	-1.337379	0.098024	-0.282372	-1.500996	0.280293	-0.319418	-1.338067	0.831711	-0.576443	-1.292405	0.844198	-0.587938	-1.327879	0.785815	-0.580302	-1.283323	0.800737	-0.595433	-1.221199	0.478505	-0.558431	-1.208050	0.461782	-0.439022	-1.350822	0.317773	-0.555732	-1.300252	0.290562	-0.557182	-1.365321	0.269655	-0.542997	-1.314344	0.257312	-0.544312	-1.422000	0.104539	-0.497601	-1.400097	0.108940	-0.408970	-1.325195	0.035355	-0.526367	-1.292115	0.037120	-0.411907	-1.232619	0.046472	-0.464914	-1.488861	0.079978	-0.440023	-1.031879	1.364059	-0.250764	-1.057108	1.364243	-0.584589	
24	0.1150	-1.187548	0.916632	-0.281656	-1.217404	0.949536	-0.530209	-1.379980	1.004662	-0.332830	-1.385381	1.014395	-0.422768	-1.219674	0.789762	-0.211132	-1.166616	0.808109	-0.224121	-1.198182	0.741667	-0.217181	-1.143991	0.761470	-0.231496	-1.056661	0.487491	-0.291332	-1.077559	0.501302	-0.416040	-1.198687	0.404601	-0.249552	-1.163822	0.373729	-0.273264	-1.238455	0.375583	-0.253019	-1.206778	0.344631	-0.274071	-1.391823	0.251618	-0.267288	-1.394936	0.245974	-0.359082	-1.361361	0.133718	-0.228739	-1.356681	0.111750	-0.340765	-1.287989	0.096184	-0.283713	-1.461403	0.268477	-0.320581	-1.320163	0.833298	-0.576503	-1.274289	0.844994	-0.587829	-1.311071	0.787533	-0.580525	-1.266125	0.801437	-0.595090	-1.213813	0.477829	-0.558771	-1.200193	0.460376	-0.439425	-1.346433	0.319655	-0.556133	-1.296399	0.291500	-0.557991	-1.361661	0.271689	-0.543529	-1.310931	0.258448	-0.545209	-1.420597	0.106455	-0.498938	-1.398486	0.111087	-0.410379	-1.325180	0.034934	-0.526173	-1.292171	0.037381	-0.412079	-1.232702	0.046517	-0.464553	-1.487908	0.082823	-0.441488	-1.013972	1.366073	-0.248608	-1.036574	1.366676	-0.582645	
25	0.1200	-1.168131	0.918896	-0.281072	-1.197529	0.950671	-0.529776	-1.360523	1.006490	-0.333245	-1.365447	1.016369	-0.423143	-1.198914	0.793624	-0.211438	-1.146016	0.813298	-0.224162	-1.176342	0.746052	-0.217934	-1.122337	0.767135	-0.232060	-1.027316	0.495106	-0.293035	-1.049303	0.508719	-0.417618	-1.165593	0.405683	-0.251398	-1.129272	0.376483	-0.274878	-1.203782	0.374846	-0.254562	-1.170613	0.345469	-0.275573	-1.350760	0.243476	-0.268874	-1.353579	0.237916	-0.360705	-1.313557	0.127812	-0.230143	-1.307913	0.106319	-0.342194	-1.238401	0.094803	-0.285256	-1.421316	0.256417	-0.322178	-1.301993	0.835001	-0.576580	-1.255895	0.845888	-0.587693	-1.294030	0.789394	-0.580760	-1.248668	0.802241	-0.594690	-1.206418	0.477505	-0.559059	-1.192350	0.459347	-0.439765	-1.341937	0.321892	-0.556614	-1.292431	0.292833	-0.558858	-1.357855	0.274062	-0.544161	-1.307377	0.259963	-0.546196	-1.418855	0.108634	-0.500488	-1.396553	0.113472	-0.411999	-1.325100	0.034518	-0.526005	-1.292178	0.037700	-0.412290	-1.232757	0.046528	-0.464167	-1.486582	0.086127	-0.443226	-0.996081	1.368356	-0.246388	-1.016079	1.369408	-0.580581	
26	0.1250	-1.148558	0.921389	-0.280392	-1.177438	0.951906	-0.529210	-1.340906	1.008455	-0.333728	-1.345328	1.018437	-0.423586	-1.178281	0.797653	-0.211672	-1.125562	0.818556	-0.224127	-1.154731	0.750579	-0.218616	-1.100924	0.772840	-0.232539	-0.998803	0.502721	-0.294565	-1.021695	0.516094	-0.419029	-1.133020	0.406732	-0.253286	-1.095235	0.379300	-0.276469	-1.169482	0.374063	-0.256214	-1.134817	0.346369	-0.277114	-1.309492	0.235314	-0.270780	-1.311929	0.229868	-0.362653	-1.265567	0.122223	-0.231877	-1.258853	0.101296	-0.343957	-1.188773	0.093927	-0.287015	-1.380798	0.244214	-0.324200	-1.283578	0.836821	-0.576669	-1.237248	0.846884	-0.587526	-1.276765	0.791396	-0.580997	-1.230969	0.803156	-0.594232	-1.198948	0.477552	-0.559294	-1.184468	0.458724	-0.440038	-1.337271	0.324489	-0.557180	-1.288281	0.294564	-0.559780	-1.353845	0.276777	-0.544896	-1.303623	0.261862	-0.547271	-1.416733	0.111088	-0.502250	-1.394260	0.116095	-0.413829	-1.324943	0.034126	-0.525877	-1.292120	0.038084	-0.412549	-1.232780	0.046483	-0.463766	-1.484833	0.089911	-0.445241	-0.978214	1.370889	-0.244116	-0.995655	1.372414	-0.578409	
27	0.1300	-1.128834	0.924083	-0.279629	-1.157154	0.953245	-0.528520	-1.321138	1.010533	-0.334255	-1.325041	1.020585	-0.424076	-1.157766	0.801797	-0.211829	-1.105238	0.823822	-0.224020	-1.133342	0.755189	-0.219214	-1.079741	0.778519	-0.232930	-0.971161	0.510235	-0.295916	-0.994765	0.523333	-0.420267	-1.101005	0.407706	-0.255199	-1.061769	0.382134	-0.278033	-1.135603	0.373213	-0.257962	-1.099457	0.347305	-0.278690	-1.268095	0.227194	-0.272996	-1.270074	0.221906	-0.364915	-1.217516	0.117005	-0.233943	-1.209649	0.096753	-0.346055	-1.139265	0.093591	-0.288998	-1.339914	0.231966	-0.326628	-1.264940	0.838760	-0.576762	-1.218373	0.847987	-0.587326	-1.259288	0.793536	-0.581224	-1.213048	0.804185	-0.593719	-1.191337	0.477980	-0.559476	-1.176491	0.458528	-0.440243	-1.332371	0.327443	-0.557836	-1.283883	0.296687	-0.560756	-1.349570	0.279832	-0.545739	-1.299605	0.264140	-0.548434	-1.414195	0.113826	-0.504221	-1.391573	0.118957	-0.415865	-1.324700	0.033781	-0.525804	-1.291980	0.038543	-0.412865	-1.232766	0.046365	-0.463362	-1.482611	0.094197	-0.447532	-0.960374	1.373655	-0.241805	-0.975328	1.375669	-0.576141	
28	0.1350	-1.108968	0.926946	-0.278800	-1.136700	0.954686	-0.527719	-1.301227	1.012703	-0.334805	-1.304605	1.022797	-0.424587	-1.137352	0.806001	-0.211906	-1.085027	0.829036	-0.223849	-1.112165	0.759820	-0.219720	-1.058774	0.784106	-0.233232	-0.944409	0.517549	-0.297087	-0.968533	0.530347	-0.421330	-1.069574	0.408560	-0.257120	-1.028921	0.384937	-0.279566	-1.102182	0.372274	-0.259791	-1.064592	0.348249	-0.280297	-1.226647	0.219176	-0.275506	-1.228108	0.214103	-0.367472	-1.169530	0.112204	-0.236333	-1.160451	0.092747	-0.348485	-1.090028	0.093818	-0.291212	-1.298738	0.219770	-0.329436	-1.246105	0.840817	-0.576848	-1.199299	0.849201	-0.587090	-1.241611	0.795810	-0.581432	-1.194925	0.805333	-0.593150	-1.183515	0.478791	-0.559608	-1.168363	0.458768	-0.440379	-1.327175	0.330745	-0.558585	-1.279172	0.299192	-0.561784	-1.344971	0.283219	-0.546692	-1.295264	0.266790	-0.549682	-1.411209	0.116860	-0.506395	-1.388461	0.122057	-0.418100	-1.324357	0.033510	-0.525800	-1.291742	0.039092	-0.413248	-1.232713	0.046160	-0.462972	-1.479868	0.098996	-0.450095	-0.942564	1.376632	-0.239469	-0.955123	1.379143	-0.573791	
29	0.1400	-1.088968	0.929940	-0.277922	-1.116101	0.956227	-0.526822	-1.281180	1.014940	-0.335350	-1.284038	1.025054	-0.425093	-1.117021	0.810209	-0.211899	-1.064906	0.834137	-0.223622	-1.091183	0.764410	-0.220126	-1.038003	0.789534	-0.233445	-0.918553	0.524567	-0.298084	-0.943008	0.537049	-0.422220	-1.038745	0.409253	-0.259033	-0.996728	0.387660	-0.281068	-1.069250	0.371223	-0.261684	-1.030269	0.349171	-0.281933	-1.185224	0.211313	-0.278287	-1.186126	0.206522	-0.370305	-1.121733	0.107852	-0.239036	-1.111406	0.089323	-0.351236	-1.041208	0.094613	-0.293658	-1.257349	0.207717	-0.332593	-1.227097	0.842990	-0.576921	-1.180055	0.850527	-0.586816	-1.223747	0.798210	-0.581610	-1.176622	0.806602	-0.592530	-1.175416	0.479979	-0.559696	-1.160027	0.459445	-0.440448	-1.321621	0.334381	-0.559428	-1.274088	0.302062	-0.562861	-1.339990	0.286926	-0.547755	-1.290545	0.269796	-0.551014	-1.407747	0.120196	-0.508763	-1.384897	0.125393	-0.420526	-1.323905	0.033346	-0.525880	-1.291390	0.039746	-0.413708	-1.232617	0.045862	-0.462615	-1.476563	0.104318	-0.452919	-0.924789	1.379797	-0.237121	-0.935060	1.382805	-0.571370	
30	0.1450	-1.068839	0.933026	-0.277014	-1.095381	0.957864	-0.525845	-1.261002	1.017217	-0.335866	-1.263358	1.027339	-0.425568	-1.096751	0.814364	-0.211808	-1.044849	0.839067	-0.223349	-1.070375	0.768896	-0.220429	-1.017403	0.794740	-0.233572	-0.893580	0.531200	-0.298914	-0.918187	0.543360	-0.422946	-1.008524	0.409748	-0.260925	-0.965216	0.390258	-0.282537	-1.036827	0.370042	-0.263628	-0.996528	0.350042	-0.283595	-1.143908	0.203652	-0.281314	-1.144222	0.199220	-0.373385	-1.074246	0.103971	-0.242033	-1.062660	0.086509	-0.354290	-0.992944	0.095971	-0.296332	-1.215830	0.195892	-0.336061	-1.207943	0.845277	-0.576971	-1.160673	0.851965	-0.586502	-1.205710	0.800729	-0.581749	-1.158161	0.807991	-0.591861	-1.166974	0.481526	-0.559745	-1.151429	0.460547	-0.440455	-1.315650	0.338330	-0.560368	-1.268573	0.305275	-0.563985	-1.334577	0.290936	-0.548928	-1.285394	0.273139	-0.552425	-1.403787	0.123840	-0.511314	-1.380859	0.128963	-0.423130	-1.323334	0.033327	-0.526059	-1.290908	0.040528	-0.414259	-1.232478	0.045472	-0.462317	-1.472657	0.110165	-0.455989	-0.907050	1.383125	-0.234775	-0.915159	1.386622	-0.568891	
31	0.1500	-1.048591	0.936160	-0.276098	-1.074568	0.959587	-0.524807	-1.240702	1.019506	-0.336327	-1.242584	1.029631	-0.425985	-1.076519	0.818410	-0.211637	-1.024829	0.843766	-0.223040	-1.049718	0.773219	-0.220627	-0.996946	0.799661	-0.233616	-0.869464	0.537368	-0.299593	-0.894059	0.549207	-0.423519	-0.978908	0.410011	-0.262783	-0.934399	0.392686	-0.283976	-1.004931	0.368711	-0.265606	-0.963399	0.350833	-0.285280	-1.102778	0.196233	-0.284558	-1.102495	0.192244	-0.376683	-1.027191	0.100570	-0.245299	-1.014355	0.084318	-0.357622	-0.945367	0.097870	-0.299222	-1.174272	0.184374	-0.339801	-1.188669	0.847670	-0.576991	-1.141182	0.853512	-0.586146	-1.187515	0.803353	-0.581839	-1.139566	0.809497	-0.591148	-1.158128	0.483406	-0.559763	-1.142515	0.462050	-0.440404	-1.309210	0.342566	-0.561404	-1.262576	0.308801	-0.565154	-1.328680	0.295227	-0.550209	-1.279766	0.276794	-0.553912	-1.399311	0.127800	-0.514032	-1.376330	0.132764	-0.425899	-1.322631	0.033495	-0.526352	-1.290279	0.041461	-0.414913	-1.232293	0.044995	-0.462102	-1.468117	0.116534	-0.459285	-0.889348	1.386590	-0.232444	-0.895433	1.390559	-0.566365	
32	0.1550	-1.028231	0.939298	-0.275194	-1.053687	0.961388	-0.523729	-1.220286	1.021780	-0.336706	-1.221733	1.031911	-0.426318	-1.056302	0.822290	-0.211390	-1.004818	0.848179	-0.222705	-1.029185	0.777318	-0.220720	-0.976602	0.804240	-0.233586	-0.846165	0.542999	-0.300137	-0.870603	0.554527	-0.423954	-0.949889	0.410011	-0.264597	-0.904283	0.394904	-0.285387	-0.973572	0.367217	-0.267603	-0.930908	0.351514	-0.286987	-1.061918	0.189091	-0.287985	-1.061043	0.185630	-0.380166	-0.980685	0.097648	-0.248804	-0.966631	0.082744	-0.361203	-0.898598	0.100273	-0.302315	-1.132773	0.173231	-0.343766	-1.169301	0.850162	-0.576972	-1.121610	0.855161	-0.585748	-1.169175	0.806067	-0.581875	-1.120856	0.811113	-0.590397	-1.148820	0.485583	-0.559760	-1.133235	0.463923	-0.440306	-1.302250	0.347060	-0.562535	-1.256049	0.312607	-0.566364	-1.322258	0.299775	-0.551594	-1.273619	0.280733	-0.555470	-1.394308	0.132078	-0.516902	-1.371296	0.136793	-0.428816	-1.321787	0.033893	-0.526773	-1.289488	0.042570	-0.415682	-1.232059	0.044446	-0.461999	-1.462916	0.123416	-0.462781	-0.871685	1.390164	-0.230140	-0.875895	1.394581	-0.563803	
33	0.1600	-1.007769	0.942393	-0.274322	-1.032765	0.963252	-0.522630	-1.199762	1.024008	-0.336983	-1.200823	1.034156	-0.426544	-1.036075	0.825951	-0.211073	-0.984788	0.852255	-0.222357	-1.008747	0.781138	-0.220713	-0.956339	0.808424	-0.233487	-0.823628	0.548032	-0.300568	-0.847790	0.559266	-0.424270	-0.921452	0.409726	-0.266361	-0.874866	0.396875	-0.286775	-0.942755	0.365546	-0.269607	-0.899070	0.352060	-0.288712	-1.021416	0.182252	-0.291560	-1.019966	0.179406	-0.383797	-0.934845	0.095190	-0.252514	-0.919622	0.081766	-0.364998	-0.852753	0.103129	-0.305587	-1.091436	0.162523	-0.347910	-1.149862	0.852737	-0.576908	-1.101985	0.856902	-0.585309	-1.150706	0.808853	-0.581850	-1.102053	0.812827	-0.589614	-1.138997	0.488014	-0.559747	-1.123541	0.466119	-0.440169	-1.294727	0.351776	-0.563756	-1.248955	0.316657	-0.567613	-1.315271	0.304552	-0.553077	-1.266917	0.284924	-0.557093	-1.388770	0.136679	-0.519902	-1.365748	0.141047	-0.431861	-1.320787	0.034571	-0.527332	-1.288516	0.043883	-0.416579	-1.231772	0.043843	-0.462039	-1.457033	0.130798	-0.466446	-0.854062	1.393817	-0.227875	-0.856555	1.398651	-0.561215	
34	0.1650	-0.987212	0.945400	-0.273503	-1.011827	0.965163	-0.521529	-1.179140	1.026159	-0.337134	-1.179872	1.036342	-0.426640	-1.015815	0.829341	-0.210695	-0.964711	0.855944	-0.222004	-0.988378	0.784627	-0.220610	-0.936128	0.812164	-0.233330	-0.801791	0.552418	-0.300908	-0.825586	0.563381	-0.424488	-0.893581	0.409138	-0.268068	-0.846140	0.398564	-0.288144	-0.912485	0.363691	-0.271604	-0.867898	0.352443	-0.290455	-0.981359	0.175735	-0.295246	-0.979365	0.173586	-0.387539	-0.889788	0.093173	-0.256390	-0.873458	0.081344	-0.368965	-0.807936	0.106375	-0.309014	-1.050371	0.152302	-0.352185	-1.130375	0.855381	-0.576794	-1.082331	0.858720	-0.584829	-1.132121	0.811688	-0.581760	-1.083175	0.814625	-0.588805	-1.128612	0.490647	-0.559735	-1.113388	0.468586	-0.440007	-1.286603	0.356678	-0.565063	-1.241261	0.320909	-0.568898	-1.307688	0.309529	-0.554650	-1.259634	0.289331	-0.558776	-1.382695	0.141604	-0.523009	-1.359683	0.145522	-0.435014	-1.319619	0.035578	-0.528043	-1.287345	0.045428	-0.417616	-1.231423	0.043215	-0.462253	-1.450452	0.138660	-0.470245	-0.836480	1.397520	-0.225660	-0.837418	1.402732	-0.558609	
35	0.1700	-0.966573	0.948273	-0.272754	-0.990899	0.967101	-0.520447	-1.158428	1.028202	-0.337143	-1.158899	1.038445	-0.426588	-0.995503	0.832412	-0.210264	-0.944564	0.859206	-0.221659	-0.968049	0.787738	-0.220421	-0.915936	0.815418	-0.233123	-0.780582	0.556120	-0.301183	-0.803948	0.566840	-0.424629	-0.866254	0.408235	-0.269715	-0.818088	0.399945	-0.289499	-0.882764	0.361644	-0.273584	-0.837399	0.352642	-0.292212	-0.941839	0.169552	-0.299007	-0.939341	0.168174	-0.391354	-0.845625	0.091561	-0.260390	-0.828267	0.081426	-0.373061	-0.764245	0.109935	-0.312564	-1.009693	0.142607	-0.356545	-1.110858	0.858072	-0.576627	-1.062671	0.860596	-0.584310	-1.113432	0.814545	-0.581603	-1.064239	0.816487	-0.587980	-1.117624	0.493424	-0.559738	-1.102737	0.471261	-0.439834	-1.277846	0.361728	-0.566449	-1.232942	0.325322	-0.570216	-1.299483	0.314673	-0.556304	-1.251747	0.293919	-0.560512	-1.376083	0.146856	-0.526200	-1.353098	0.150215	-0.438250	-1.318266	0.036963	-0.528913	-1.285955	0.047233	-0.418805	-1.231004	0.042594	-0.462672	-1.443162	0.146979	-0.474139	-0.818941	1.401241	-0.223504	-0.818489	1.406790	-0.555996	
36	0.1750	-0.945860	0.950969	-0.272092	-0.970002	0.969044	-0.519400	-1.137640	1.030107	-0.336994	-1.137919	1.040441	-0.426373	-0.975119	0.835121	-0.209792	-0.924325	0.862001	-0.221331	-0.947735	0.790429	-0.220154	-0.895737	0.818153	-0.232879	-0.759925	0.559114	-0.301418	-0.782831	0.569623	-0.424718	-0.839451	0.407013	-0.271302	-0.790694	0.400994	-0.290846	-0.853593	0.359405	-0.275536	-0.807576	0.352636	-0.293982	-0.902950	0.163709	-0.302803	-0.899997	0.163166	-0.395205	-0.802468	0.090312	-0.264471	-0.784167	0.081944	-0.377240	-0.721770	0.113723	-0.316204	-0.969523	0.133471	-0.360941	-1.091329	0.860784	-0.576403	-1.043020	0.862508	-0.583756	-1.094650	0.817394	-0.581380	-1.045257	0.818388	-0.587146	-1.105997	0.496282	-0.559769	-1.091549	0.474074	-0.439667	-1.268431	0.366887	-0.567906	-1.223979	0.329853	-0.571564	-1.290635	0.319954	-0.558027	-1.243239	0.298650	-0.562292	-1.368940	0.152434	-0.529447	-1.345994	0.155121	-0.441545	-1.316709	0.038776	-0.529950	-1.284321	0.049326	-0.420155	-1.230500	0.042019	-0.463328	-1.435160	0.155727	-0.478085	-0.801445	1.404949	-0.221413	-0.799769	1.410788	-0.553382	
37	0.1800	-0.925086	0.953446	-0.271527	-0.949160	0.970968	-0.518404	-1.116786	1.031843	-0.336675	-1.116951	1.042303	-0.425984	-0.954649	0.837427	-0.209290	-0.903976	0.864298	-0.221027	-0.927413	0.792664	-0.219821	-0.875506	0.820340	-0.232606	-0.739739	0.561389	-0.301639	-0.762186	0.571721	-0.424777	-0.813152	0.405472	-0.272827	-0.763936	0.401692	-0.292189	-0.824975	0.356975	-0.277452	-0.778430	0.352405	-0.295761	-0.864787	0.158206	-0.306599	-0.861432	0.158547	-0.399054	-0.760427	0.089374	-0.268588	-0.741274	0.082819	-0.381456	-0.680593	0.117646	-0.319897	-0.929984	0.124914	-0.365329	-1.071800	0.863489	-0.576121	-1.023395	0.864430	-0.583169	-1.075784	0.820202	-0.581093	-1.026241	0.820302	-0.586313	-1.093703	0.499156	-0.559845	-1.079790	0.476950	-0.439522	-1.258337	0.372115	-0.569425	-1.214360	0.334459	-0.572940	-1.281129	0.325341	-0.559808	-1.234101	0.303486	-0.564110	-1.361271	0.158339	-0.532722	-1.338374	0.160236	-0.444874	-1.314924	0.041065	-0.531158	-1.282419	0.051733	-0.421673	-1.229890	0.041534	-0.464247	-1.426444	0.164873	-0.482038	-0.783992	1.408612	-0.219395	-0.781257	1.414692	-0.550775	
38	0.1850	-0.904263	0.955665	-0.271071	-0.928390	0.972845	-0.517472	-1.095881	1.033379	-0.336180	-1.096012	1.044005	-0.425415	-0.934081	0.839299	-0.208768	-0.883503	0.866073	-0.220755	-0.907061	0.794413	-0.219434	-0.855219	0.821958	-0.232317	-0.719943	0.562945	-0.301868	-0.741961	0.573135	-0.424829	-0.787338	0.403618	-0.274295	-0.737790	0.402028	-0.293533	-0.796911	0.354359	-0.279326	-0.749963	0.351937	-0.297547	-0.827449	0.153037	-0.310359	-0.823748	0.154294	-0.402866	-0.719607	0.088692	-0.272698	-0.699697	0.083963	-0.385661	-0.640788	0.121601	-0.323605	-0.891204	0.116950	-0.369669	-1.052281	0.866154	-0.575784	-1.003803	0.866332	-0.582556	-1.056843	0.822933	-0.580746	-1.007197	0.822199	-0.585489	-1.080718	0.501979	-0.559979	-1.067429	0.479811	-0.439418	-1.247549	0.377375	-0.570995	-1.204078	0.339100	-0.574340	-1.270953	0.330802	-0.561634	-1.224324	0.308392	-0.565956	-1.353082	0.164568	-0.535997	-1.330240	0.165558	-0.448209	-1.312882	0.043873	-0.532542	-1.280218	0.054478	-0.423367	-1.229147	0.041185	-0.465456	-1.417018	0.174383	-0.485952	-0.766584	1.412198	-0.217453	-0.762948	1.418469	-0.548181	
39	0.1900	-0.883401	0.957593	-0.270730	-0.907708	0.974649	-0.516616	-1.074939	1.034688	-0.335504	-1.075115	1.045521	-0.424663	-0.913408	0.840707	-0.208238	-0.862897	0.867308	-0.220519	-0.886662	0.795655	-0.219006	-0.834861	0.822996	-0.232021	-0.700454	0.563793	-0.302130	-0.722103	0.573878	-0.424895	-0.761993	0.401465	-0.275708	-0.712235	0.401992	-0.294882	-0.769408	0.351565	-0.281150	-0.722172	0.351218	-0.299337	-0.791032	0.148191	-0.314051	-0.787043	0.150377	-0.406608	-0.680112	0.088205	-0.276758	-0.659540	0.085281	-0.389809	-0.602424	0.125486	-0.327293	-0.853311	0.109585	-0.373920	-1.032778	0.868742	-0.575392	-0.984251	0.868183	-0.581922	-1.037830	0.825549	-0.580345	-0.988127	0.824043	-0.584684	-1.067026	0.504684	-0.560185	-1.054437	0.482579	-0.439375	-1.236055	0.382629	-0.572605	-1.193128	0.343735	-0.575763	-1.260099	0.336308	-0.563490	-1.213907	0.313330	-0.567824	-1.344378	0.171117	-0.539242	-1.321595	0.171080	-0.451524	-1.310549	0.047240	-0.534100	-1.277685	0.057580	-0.425238	-1.228239	0.041024	-0.466978	-1.406887	0.184219	-0.489782	-0.749220	1.415674	-0.215590	-0.744836	1.422088	-0.545606	
40	0.1950	-0.862513	0.959200	-0.270504	-0.887128	0.976350	-0.515843	-1.053976	1.035742	-0.334650	-1.054277	1.046824	-0.423729	-0.892626	0.841632	-0.207711	-0.842154	0.867991	-0.220323	-0.866204	0.796372	-0.218550	-0.814417	0.823448	-0.231727	-0.681197	0.563954	-0.302442	-0.702558	0.573973	-0.424992	-0.737104	0.399029	-0.277069	-0.687247	0.401583	-0.296240	-0.742473	0.348603	-0.282922	-0.695059	0.350241	-0.301126	-0.755634	0.143653	-0.317645	-0.751413	0.146762	-0.410251	-0.642039	0.087849	-0.280729	-0.620900	0.086673	-0.393859	-0.565561	0.129193	-0.330922	-0.816433	0.102816	-0.378048	-1.013290	0.871217	-0.574950	-0.964738	0.869948	-0.581272	-1.018748	0.828011	-0.579898	-0.969032	0.825801	-0.583908	-1.052611	0.507207	-0.560480	-1.040788	0.485176	-0.439412	-1.223845	0.387844	-0.574244	-1.181511	0.348327	-0.577205	-1.248562	0.341832	-0.565361	-1.202847	0.318269	-0.569705	-1.335162	0.177982	-0.542428	-1.312438	0.176799	-0.454793	-1.307885	0.051197	-0.535830	-1.274781	0.061058	-0.427289	-1.227121	0.041100	-0.468829	-1.396057	0.194344	-0.493482	-0.731898	1.419010	-0.213806	-0.726911	1.425519	-0.543057	
41	0.2000	-0.841611	0.960462	-0.270392	-0.866659	0.977921	-0.515159	-1.033007	1.036518	-0.333621	-1.033509	1.047889	-0.422619	-0.871736	0.842060	-0.207196	-0.821271	0.868118	-0.220168	-0.845676	0.796559	-0.218079	-0.793878	0.823319	-0.231444	-0.662100	0.563462	-0.302822	-0.683274	0.573450	-0.425136	-0.712663	0.396332	-0.278384	-0.662807	0.400802	-0.297607	-0.716115	0.345489	-0.284637	-0.668622	0.348999	-0.302910	-0.721351	0.139406	-0.321113	-0.716951	0.143410	-0.413767	-0.605482	0.087560	-0.284574	-0.583864	0.088040	-0.397772	-0.530254	0.132619	-0.334460	-0.780694	0.096636	-0.382024	-0.993816	0.873536	-0.574463	-0.945261	0.871593	-0.580613	-0.999596	0.830278	-0.579413	-0.949907	0.827437	-0.583168	-1.037467	0.509489	-0.560874	-1.026457	0.487526	-0.439548	-1.210914	0.392989	-0.575900	-1.169228	0.352843	-0.578664	-1.236336	0.347350	-0.567234	-1.191144	0.323178	-0.571590	-1.325432	0.185155	-0.545529	-1.302765	0.182709	-0.457991	-1.304841	0.055770	-0.537728	-1.271459	0.064924	-0.429517	-1.225742	0.041467	-0.471020	-1.384536	0.204715	-0.497009	-0.714615	1.422174	-0.212102	-0.709159	1.428735	-0.540539	
42	0.2050	-0.820704	0.961361	-0.270388	-0.846304	0.979332	-0.514563	-1.012048	1.036995	-0.332427	-1.012822	1.048693	-0.421345	-0.850741	0.841983	-0.206700	-0.800255	0.867695	-0.220051	-0.825074	0.796215	-0.217603	-0.773241	0.822619	-0.231176	-0.643095	0.562354	-0.303281	-0.664199	0.572349	-0.425338	-0.688663	0.393397	-0.279657	-0.638895	0.399656	-0.298985	-0.690347	0.342238	-0.286294	-0.642863	0.347493	-0.304685	-0.688274	0.135431	-0.324434	-0.683745	0.140282	-0.417134	-0.570528	0.087276	-0.288263	-0.548514	0.089283	-0.401513	-0.496549	0.135664	-0.337875	-0.746218	0.091030	-0.385821	-0.974349	0.875660	-0.573936	-0.925811	0.873083	-0.579951	-0.980369	0.832312	-0.578901	-0.930742	0.828913	-0.582473	-1.021585	0.511475	-0.561382	-1.011419	0.489560	-0.439801	-1.197255	0.398037	-0.577561	-1.156278	0.357254	-0.580139	-1.223417	0.352837	-0.569095	-1.178795	0.328028	-0.573471	-1.315181	0.192624	-0.548518	-1.292570	0.188804	-0.461093	-1.301359	0.060976	-0.539788	-1.267669	0.069183	-0.431918	-1.224039	0.042172	-0.473559	-1.372330	0.215293	-0.500324	-0.697366	1.425139	-0.210474	-0.691566	1.431713	-0.538057	
43	0.2100	-0.799802	0.961884	-0.270481	-0.826065	0.980558	-0.514056	-0.991113	1.037155	-0.331079	-0.992226	1.049215	-0.419919	-0.829649	0.841404	-0.206231	-0.779113	0.866731	-0.219969	-0.804395	0.795348	-0.217134	-0.752505	0.821367	-0.230929	-0.624127	0.560677	-0.303827	-0.645284	0.570714	-0.425605	-0.665105	0.390254	-0.280892	-0.615497	0.398154	-0.300372	-0.665183	0.338867	-0.287890	-0.617785	0.345722	-0.306445	-0.656491	0.131707	-0.327587	-0.651879	0.137337	-0.420333	-0.537253	0.086935	-0.291767	-0.514923	0.090309	-0.405054	-0.464487	0.138233	-0.341142	-0.713119	0.085980	-0.389418	-0.954877	0.877547	-0.573376	-0.906374	0.874383	-0.579294	-0.961061	0.834074	-0.578371	-0.911524	0.830197	-0.581831	-1.004963	0.513117	-0.562013	-0.995652	0.491216	-0.440188	-1.182861	0.402962	-0.579217	-1.142660	0.361534	-0.581627	-1.209797	0.358272	-0.570930	-1.165796	0.332794	-0.575341	-1.304398	0.200378	-0.551371	-1.281838	0.195075	-0.464078	-1.297375	0.066821	-0.541999	-1.263353	0.073839	-0.434484	-1.221938	0.043264	-0.476443	-1.359442	0.226032	-0.503390	-0.680143	1.427876	-0.208918	-0.674110	1.434430	-0.535616	
44	0.2150	-0.778913	0.962027	-0.270656	-0.805938	0.981574	-0.513632	-0.970216	1.036985	-0.329592	-0.971725	1.049436	-0.418359	-0.808471	0.840331	-0.205791	-0.757857	0.865245	-0.219915	-0.783644	0.793972	-0.216680	-0.731675	0.819589	-0.230704	-0.605147	0.558481	-0.304462	-0.626484	0.568597	-0.425939	-0.641990	0.386931	-0.282093	-0.592600	0.396310	-0.301766	-0.640640	0.335397	-0.289424	-0.593391	0.343692	-0.308185	-0.626084	0.128214	-0.330558	-0.621429	0.134536	-0.423348	-0.505729	0.086483	-0.295065	-0.483152	0.091031	-0.408373	-0.434101	0.140241	-0.344238	-0.681506	0.081466	-0.392799	-0.935384	0.879159	-0.572790	-0.886933	0.875462	-0.578645	-0.941660	0.835529	-0.577836	-0.892237	0.831254	-0.581246	-0.987597	0.514378	-0.562776	-0.979132	0.492442	-0.440724	-1.167724	0.407745	-0.580856	-1.128372	0.365661	-0.583126	-1.195468	0.363639	-0.572727	-1.152139	0.337456	-0.577191	-1.293061	0.208398	-0.554066	-1.270550	0.201514	-0.466926	-1.292815	0.073300	-0.544350	-1.258445	0.078887	-0.437204	-1.219356	0.044782	-0.479665	-1.345872	0.236889	-0.506178	-0.662939	1.430360	-0.207430	-0.656770	1.436870	-0.533222	
45	0.2200	-0.758044	0.961791	-0.270897	-0.785913	0.982358	-0.513283	-0.949370	1.036477	-0.327985	-0.951322	1.049341	-0.416683	-0.787222	0.838779	-0.205382	-0.736502	0.863263	-0.219882	-0.762825	0.792111	-0.216246	-0.710760	0.817316	-0.230500	-0.586118	0.555821	-0.305186	-0.607757	0.566051	-0.426340	-0.619327	0.383458	-0.283261	-0.570196	0.394143	-0.303163	-0.616735	0.331847	-0.290896	-0.569687	0.341411	-0.309898	-0.597126	0.124931	-0.333336	-0.592462	0.131843	-0.426169	-0.476014	0.085869	-0.298142	-0.453254	0.091373	-0.411454	-0.405418	0.141617	-0.347146	-0.651475	0.077464	-0.395953	-0.915852	0.880459	-0.572184	-0.867467	0.876290	-0.578012	-0.922153	0.836646	-0.577303	-0.872862	0.832057	-0.580723	-0.969484	0.515227	-0.563676	-0.961836	0.493196	-0.441418	-1.151833	0.412369	-0.582470	-1.113404	0.369618	-0.584634	-1.180416	0.368920	-0.574476	-1.137812	0.341994	-0.579014	-1.281143	0.216664	-0.556586	-1.258679	0.208108	-0.469618	-1.287595	0.080398	-0.546830	-1.252873	0.084314	-0.440066	-1.216197	0.046762	-0.483209	-1.331617	0.247819	-0.508663	-0.645741	1.432571	-0.206004	-0.639519	1.439017	-0.530880	
46	0.2250	-0.737199	0.961183	-0.271182	-0.765978	0.982894	-0.513000	-0.928583	1.035629	-0.326276	-0.931017	1.048919	-0.414915	-0.765916	0.836774	-0.205005	-0.715066	0.860815	-0.219857	-0.741949	0.789793	-0.215837	-0.689770	0.814587	-0.230313	-0.567014	0.552754	-0.305991	-0.589067	0.563135	-0.426802	-0.597125	0.379869	-0.284399	-0.548280	0.391671	-0.304558	-0.593489	0.328240	-0.292304	-0.546679	0.338890	-0.311578	-0.569684	0.121841	-0.335914	-0.565038	0.129226	-0.428789	-0.448156	0.085053	-0.300988	-0.425269	0.091273	-0.414286	-0.378455	0.142300	-0.349854	-0.623113	0.073947	-0.398871	-0.896259	0.881415	-0.571564	-0.847952	0.876843	-0.577398	-0.902523	0.837399	-0.576783	-0.853373	0.832581	-0.580264	-0.950620	0.515646	-0.564716	-0.943743	0.493449	-0.442280	-1.135176	0.416820	-0.584049	-1.097744	0.373393	-0.586147	-1.164625	0.374100	-0.576166	-1.122796	0.346394	-0.580802	-1.268607	0.225150	-0.558916	-1.246193	0.214845	-0.472140	-1.281624	0.088087	-0.549421	-1.246560	0.090104	-0.443053	-1.212356	0.049232	-0.487055	-1.316669	0.258777	-0.510826	-0.628533	1.434488	-0.204632	-0.622329	1.440862	-0.528596	
47	0.2300	-0.716381	0.960219	-0.271487	-0.746116	0.983166	-0.512769	-0.907864	1.034443	-0.324489	-0.910806	1.048164	-0.413077	-0.744572	0.834344	-0.204655	-0.693569	0.857939	-0.219827	-0.721030	0.787056	-0.215454	-0.668721	0.811444	-0.230139	-0.547821	0.549339	-0.306866	-0.570384	0.559905	-0.427312	-0.575397	0.376193	-0.285506	-0.526851	0.388918	-0.305943	-0.570921	0.324596	-0.293647	-0.524375	0.336143	-0.313217	-0.543813	0.118925	-0.338289	-0.539206	0.126658	-0.431205	-0.422191	0.084001	-0.303596	-0.399225	0.090681	-0.416865	-0.353224	0.142248	-0.352356	-0.596492	0.070890	-0.401551	-0.876580	0.881997	-0.570937	-0.828362	0.877101	-0.576805	-0.882748	0.837766	-0.576284	-0.833747	0.832807	-0.579871	-0.931002	0.515627	-0.565895	-0.924827	0.493183	-0.443313	-1.117734	0.421087	-0.585587	-1.081374	0.376976	-0.587662	-1.148074	0.379168	-0.577790	-1.107070	0.350642	-0.582548	-1.255410	0.233827	-0.561042	-1.233051	0.221708	-0.474479	-1.274805	0.096328	-0.552110	-1.239419	0.096231	-0.446148	-1.207718	0.052209	-0.491174	-1.301013	0.269717	-0.512656	-0.611300	1.436097	-0.203307	-0.605168	1.442400	-0.526373	
48	0.2350	-0.695589	0.958921	-0.271787	-0.726305	0.983167	-0.512577	-0.887217	1.032929	-0.322645	-0.890683	1.047075	-0.411193	-0.723211	0.831528	-0.204328	-0.672034	0.854678	-0.219778	-0.700081	0.783941	-0.215095	-0.647631	0.807936	-0.229968	-0.528534	0.545631	-0.307796	-0.551684	0.556420	-0.427858	-0.554161	0.372463	-0.286580	-0.505914	0.385909	-0.307310	-0.549052	0.320939	-0.294925	-0.502785	0.333186	-0.314809	-0.519555	0.116170	-0.340461	-0.515004	0.124119	-0.433416	-0.398140	0.082689	-0.305967	-0.375138	0.089563	-0.419194	-0.329726	0.141433	-0.354650	-0.571667	0.068266	-0.403993	-0.856788	0.882185	-0.570306	-0.808666	0.877048	-0.576237	-0.862807	0.837732	-0.575811	-0.813955	0.832722	-0.579541	-0.910622	0.515172	-0.567210	-0.905068	0.492396	-0.444516	-1.099489	0.425165	-0.587076	-1.064270	0.380361	-0.589175	-1.130737	0.384111	-0.579341	-1.090605	0.354729	-0.584244	-1.241500	0.242659	-0.562956	-1.219205	0.228676	-0.476626	-1.267033	0.105072	-0.554877	-1.231361	0.102664	-0.449331	-1.202161	0.055700	-0.495532	-1.284633	0.280590	-0.514147	-0.594021	1.437387	-0.202023	-0.588003	1.443627	-0.524219	
49	0.2400	-0.674824	0.957315	-0.272055	-0.706521	0.982892	-0.512406	-0.866644	1.031103	-0.320766	-0.870636	1.045657	-0.409288	-0.701852	0.828368	-0.204015	-0.650483	0.851079	-0.219692	-0.679123	0.780495	-0.214757	-0.626520	0.804112	-0.229789	-0.509164	0.541689	-0.308761	-0.532950	0.552738	-0.428421	-0.533435	0.368707	-0.287618	-0.485475	0.382670	-0.308648	-0.527902	0.317290	-0.296135	-0.481917	0.330040	-0.316345	-0.496942	0.113565	-0.342434	-0.492460	0.121594	-0.435426	-0.376012	0.081104	-0.308105	-0.353009	0.087903	-0.421279	-0.307956	0.139846	-0.356738	-0.548681	0.066046	-0.406202	-0.836855	0.881964	-0.569674	-0.788836	0.876678	-0.575692	-0.842676	0.837291	-0.575368	-0.793967	0.832321	-0.579271	-0.889474	0.514296	-0.568652	-0.884444	0.491099	-0.445883	-1.080416	0.429047	-0.588512	-1.046404	0.383548	-0.590681	-1.112585	0.388921	-0.580814	-1.073366	0.358647	-0.585883	-1.226821	0.251609	-0.564653	-1.204605	0.235727	-0.478573	-1.258200	0.114256	-0.557706	-1.222292	0.109364	-0.452581	-1.195557	0.059703	-0.500089	-1.267505	0.291349	-0.515300	-0.576676	1.438352	-0.200771	-0.570799	1.444548	-0.522139	
50	0.2450	-0.654082	0.955436	-0.272261	-0.686737	0.982342	-0.512238	-0.846145	1.028986	-0.318876	-0.850654	1.043921	-0.407385	-0.680519	0.824913	-0.203706	-0.628942	0.847192	-0.219553	-0.658175	0.776769	-0.214432	-0.605410	0.800028	-0.229588	-0.489729	0.537565	-0.309740	-0.514173	0.548912	-0.428980	-0.513240	0.364955	-0.288616	-0.465545	0.379230	-0.309947	-0.507493	0.313671	-0.297275	-0.461784	0.326725	-0.317817	-0.475993	0.111102	-0.344214	-0.471585	0.119077	-0.437242	-0.355799	0.079243	-0.310018	-0.332826	0.085700	-0.423130	-0.287898	0.137498	-0.358625	-0.527555	0.064203	-0.408184	-0.816751	0.881325	-0.569044	-0.768840	0.875989	-0.575169	-0.822329	0.836444	-0.574958	-0.773755	0.831604	-0.579055	-0.867549	0.513020	-0.570210	-0.862935	0.489317	-0.447405	-1.060491	0.432732	-0.589889	-1.027743	0.386536	-0.592173	-1.093586	0.393586	-0.582204	-1.055316	0.362391	-0.587457	-1.211310	0.260632	-0.566132	-1.189193	0.242835	-0.480317	-1.248196	0.123809	-0.560577	-1.212117	0.116288	-0.455875	-1.187775	0.064202	-0.504804	-1.249603	0.301946	-0.516124	-0.559241	1.438992	-0.199543	-0.553521	1.445169	-0.520137	
51	0.2500	-0.633359	0.953321	-0.272379	-0.666925	0.981525	-0.512056	-0.825715	1.026606	-0.316997	-0.830721	1.041883	-0.405507	-0.659233	0.821216	-0.203391	-0.607435	0.843072	-0.219342	-0.637261	0.772820	-0.214112	-0.584325	0.795738	-0.229352	-0.470261	0.533310	-0.310706	-0.495353	0.544996	-0.429511	-0.493599	0.361234	-0.289566	-0.446139	0.375619	-0.311195	-0.487843	0.310103	-0.298344	-0.442395	0.323266	-0.319215	-0.456713	0.108774	-0.345810	-0.452381	0.116568	-0.438869	-0.337479	0.077112	-0.311717	-0.314562	0.082970	-0.424762	-0.269529	0.134414	-0.360322	-0.508296	0.062712	-0.409950	-0.796447	0.880269	-0.568416	-0.748649	0.874988	-0.574664	-0.801740	0.835198	-0.574579	-0.753290	0.830580	-0.578884	-0.844838	0.511380	-0.571867	-0.840524	0.487086	-0.449064	-1.039686	0.436218	-0.591204	-1.008250	0.389328	-0.593643	-1.073706	0.398098	-0.583510	-1.036414	0.365958	-0.588957	-1.194904	0.269679	-0.567392	-1.172911	0.249969	-0.481854	-1.236913	0.133651	-0.563472	-1.200740	0.123384	-0.459191	-1.178682	0.069171	-0.509628	-1.230899	0.312331	-0.516630	-0.541693	1.439309	-0.198334	-0.536135	1.445504	-0.518218	
52	0.2550	-0.612651	0.951014	-0.272380	-0.647057	0.980453	-0.511841	-0.805351	1.023997	-0.315148	-0.810820	1.039567	-0.403676	-0.638018	0.817333	-0.203055	-0.585988	0.838774	-0.219039	-0.616404	0.768704	-0.213785	-0.563292	0.791299	-0.229061	-0.450799	0.528971	-0.311632	-0.476498	0.541036	-0.429990	-0.474537	0.357569	-0.290462	-0.427275	0.371865	-0.312376	-0.468971	0.306605	-0.299337	-0.423764	0.319688	-0.320531	-0.439092	0.106579	-0.347233	-0.434836	0.114071	-0.440320	-0.321017	0.074730	-0.313217	-0.298178	0.079744	-0.426193	-0.252815	0.130641	-0.361839	-0.490890	0.061546	-0.411512	-0.775918	0.878806	-0.567787	-0.728236	0.873688	-0.574173	-0.780885	0.833571	-0.574229	-0.732545	0.829266	-0.578748	-0.821333	0.509417	-0.573605	-0.817197	0.484458	-0.450840	-1.017977	0.439508	-0.592453	-0.987889	0.391929	-0.595083	-1.052912	0.402449	-0.584729	-1.016619	0.369344	-0.590376	-1.177539	0.278700	-0.568437	-1.155700	0.257096	-0.483185	-1.224246	0.143695	-0.566372	-1.188069	0.130597	-0.462506	-1.168150	0.074573	-0.514514	-1.211364	0.322454	-0.516835	-0.524009	1.439314	-0.197137	-0.518606	1.445569	-0.516389	
53	0.2600	-0.591954	0.948559	-0.272239	-0.627106	0.979144	-0.511573	-0.785045	1.021197	-0.313349	-0.790934	1.037002	-0.401910	-0.616899	0.813321	-0.202685	-0.564627	0.834356	-0.218628	-0.595630	0.764480	-0.213437	-0.542337	0.786767	-0.228701	-0.431393	0.524591	-0.312491	-0.457625	0.537075	-0.430391	-0.456078	0.353981	-0.291294	-0.408975	0.368000	-0.313478	-0.450894	0.303199	-0.300252	-0.405901	0.316018	-0.321754	-0.423108	0.104518	-0.348495	-0.418922	0.111600	-0.441603	-0.306362	0.072121	-0.314532	-0.283618	0.076070	-0.427440	-0.237716	0.126239	-0.363189	-0.475308	0.060680	-0.412883	-0.755137	0.876954	-0.567155	-0.707575	0.872109	-0.573689	-0.759741	0.831586	-0.573902	-0.711496	0.827686	-0.578636	-0.797026	0.507181	-0.575401	-0.792949	0.481491	-0.452707	-0.995340	0.442602	-0.593635	-0.966624	0.394346	-0.596482	-1.031173	0.406631	-0.585859	-0.995892	0.372549	-0.591704	-1.159155	0.287640	-0.569273	-1.137504	0.264179	-0.484313	-1.210098	0.153848	-0.569257	-1.174015	0.137868	-0.465796	-1.156059	0.080358	-0.519414	-1.190971	0.332266	-0.516762	-0.506168	1.439021	-0.195947	-0.500906	1.445385	-0.514653	
54	0.2650	-0.571265	0.946005	-0.271931	-0.607045	0.977621	-0.511234	-0.764790	1.018249	-0.311617	-0.771047	1.034222	-0.400227	-0.595898	0.809242	-0.202267	-0.543380	0.829873	-0.218089	-0.574968	0.760208	-0.213055	-0.521489	0.782196	-0.228251	-0.412101	0.520207	-0.313254	-0.438761	0.533152	-0.430688	-0.438250	0.350492	-0.292054	-0.391260	0.364054	-0.314486	-0.433627	0.299900	-0.301084	-0.388818	0.312283	-0.322875	-0.408725	0.102592	-0.349607	-0.404602	0.109171	-0.442732	-0.293449	0.069319	-0.315680	-0.270816	0.072007	-0.428525	-0.224180	0.121283	-0.364385	-0.461500	0.060090	-0.414078	-0.734086	0.874738	-0.566516	-0.686646	0.870280	-0.573203	-0.738290	0.829278	-0.573589	-0.690124	0.825869	-0.578532	-0.771915	0.504729	-0.577228	-0.767779	0.478254	-0.454635	-0.971757	0.445505	-0.594746	-0.944422	0.396587	-0.597830	-1.008463	0.410635	-0.586900	-0.974196	0.375574	-0.592934	-1.139695	0.296441	-0.569909	-1.118269	0.271179	-0.485241	-1.194382	0.164012	-0.572109	-1.158500	0.145134	-0.469042	-1.142296	0.086470	-0.524278	-1.169696	0.341715	-0.516435	-0.488149	1.438450	-0.194759	-0.483009	1.444977	-0.513014	
55	0.2700	-0.550583	0.943402	-0.271436	-0.586855	0.975912	-0.510808	-0.744580	1.015200	-0.309966	-0.751143	1.031266	-0.398641	-0.575043	0.805154	-0.201785	-0.522274	0.825382	-0.217408	-0.554447	0.755946	-0.212623	-0.500778	0.777639	-0.227694	-0.392985	0.515854	-0.313892	-0.419939	0.529299	-0.430856	-0.421079	0.347120	-0.292731	-0.374157	0.360058	-0.315385	-0.417185	0.296725	-0.301829	-0.372526	0.308512	-0.323883	-0.395894	0.100806	-0.350583	-0.391824	0.106804	-0.443718	-0.282202	0.066364	-0.316675	-0.259690	0.067623	-0.429465	-0.212148	0.115861	-0.365442	-0.449404	0.059753	-0.415112	-0.712749	0.872193	-0.565862	-0.665435	0.868235	-0.572707	-0.716517	0.826683	-0.573281	-0.668416	0.823854	-0.578423	-0.746001	0.502121	-0.579058	-0.741696	0.474825	-0.456592	-0.947217	0.448221	-0.595785	-0.921256	0.398659	-0.599114	-0.984763	0.414454	-0.587852	-0.951503	0.378418	-0.594055	-1.119117	0.305047	-0.570353	-1.097954	0.278053	-0.485975	-1.177029	0.174090	-0.574911	-1.141459	0.152328	-0.472221	-1.126768	0.092841	-0.529060	-1.147521	0.350755	-0.515881	-0.469939	1.437625	-0.193572	-0.464895	1.444376	-0.511476	
56	0.2750	-0.529910	0.940799	-0.270734	-0.566518	0.974048	-0.510279	-0.724410	1.012099	-0.308408	-0.731210	1.028179	-0.397162	-0.554359	0.801115	-0.201226	-0.501338	0.820935	-0.216569	-0.534099	0.751751	-0.212126	-0.480236	0.773146	-0.227015	-0.374116	0.511559	-0.314380	-0.401204	0.525544	-0.430872	-0.404592	0.343879	-0.293316	-0.357694	0.356042	-0.316159	-0.401578	0.293690	-0.302483	-0.357034	0.304734	-0.324769	-0.384555	0.099164	-0.351436	-0.380525	0.104524	-0.444574	-0.272531	0.063302	-0.317537	-0.250150	0.062997	-0.430281	-0.201554	0.110069	-0.366373	-0.438939	0.059645	-0.416001	-0.691119	0.869362	-0.565187	-0.643934	0.866012	-0.572191	-0.694416	0.823849	-0.572966	-0.646364	0.821681	-0.578292	-0.719295	0.499421	-0.580861	-0.714719	0.471282	-0.458541	-0.921718	0.450753	-0.596748	-0.897109	0.400573	-0.600321	-0.960065	0.418080	-0.588712	-0.927794	0.381084	-0.595060	-1.097386	0.313397	-0.570616	-1.076526	0.284758	-0.486523	-1.157986	0.183983	-0.577646	-1.122839	0.159386	-0.475314	-1.109399	0.099400	-0.533716	-1.124436	0.359335	-0.515127	-0.451528	1.436575	-0.192383	-0.446553	1.443611	-0.510042	
57	0.2800	-0.509252	0.938245	-0.269812	-0.546027	0.972064	-0.509632	-0.704276	1.008997	-0.306952	-0.711239	1.025007	-0.395799	-0.533875	0.797182	-0.200577	-0.480602	0.816584	-0.215562	-0.513956	0.747676	-0.211549	-0.459898	0.768763	-0.226196	-0.355567	0.507348	-0.314693	-0.382607	0.521908	-0.430716	-0.388815	0.340784	-0.293799	-0.341897	0.352034	-0.316796	-0.386817	0.290806	-0.303041	-0.342352	0.300977	-0.325523	-0.374635	0.097673	-0.352179	-0.370631	0.102355	-0.445312	-0.264339	0.060181	-0.318279	-0.242094	0.058210	-0.430991	-0.192323	0.104011	-0.367191	-0.430014	0.059746	-0.416761	-0.669195	0.866292	-0.564483	-0.622144	0.863657	-0.571644	-0.671986	0.820826	-0.572631	-0.623973	0.819398	-0.578123	-0.691815	0.496694	-0.582605	-0.686881	0.467709	-0.460445	-0.895271	0.453107	-0.597634	-0.871978	0.402337	-0.601437	-0.934374	0.421507	-0.589481	-0.903062	0.383574	-0.595940	-1.074485	0.321435	-0.570711	-1.053967	0.291249	-0.486892	-1.137224	0.193596	-0.580298	-1.102611	0.166241	-0.478305	-1.090137	0.106067	-0.538207	-1.100444	0.367412	-0.514203	-0.432913	1.435334	-0.191193	-0.427978	1.442719	-0.508714	
58	0.2850	-0.488622	0.935787	-0.268661	-0.525381	0.969998	-0.508856	-0.684182	1.005944	-0.305603	-0.691229	1.021799	-0.394556	-0.513621	0.793408	-0.199827	-0.460099	0.812375	-0.214378	-0.494055	0.743771	-0.210879	-0.439799	0.764532	-0.225226	-0.337412	0.503240	-0.314811	-0.364205	0.518408	-0.430371	-0.373772	0.337844	-0.294172	-0.326795	0.348063	-0.317281	-0.372908	0.288084	-0.303500	-0.328488	0.297267	-0.326137	-0.366053	0.096338	-0.352824	-0.362059	0.100323	-0.445942	-0.257518	0.057050	-0.318918	-0.235413	0.053349	-0.431610	-0.184374	0.097793	-0.367908	-0.422523	0.060034	-0.417408	-0.646987	0.863036	-0.563742	-0.600075	0.861215	-0.571055	-0.649238	0.817667	-0.572263	-0.601254	0.817053	-0.577900	-0.663593	0.494007	-0.584258	-0.658229	0.464188	-0.462265	-0.867904	0.455290	-0.598438	-0.845872	0.403961	-0.602448	-0.907710	0.424729	-0.590157	-0.877318	0.385891	-0.596686	-1.050418	0.329106	-0.570650	-1.030277	0.297482	-0.487093	-1.114739	0.202837	-0.582853	-1.080763	0.172829	-0.481177	-1.068959	0.112763	-0.542497	-1.075562	0.374943	-0.513136	-0.414098	1.433936	-0.190003	-0.409176	1.441734	-0.507492	
59	0.2900	-0.468036	0.933469	-0.267275	-0.504589	0.967889	-0.507942	-0.664135	1.002990	-0.304366	-0.671185	1.018604	-0.393434	-0.493629	0.789839	-0.198966	-0.439862	0.808350	-0.213011	-0.474432	0.740081	-0.210104	-0.419977	0.760490	-0.224094	-0.319729	0.499250	-0.314716	-0.346062	0.515054	-0.429822	-0.359489	0.335067	-0.294427	-0.312415	0.344155	-0.317604	-0.359856	0.285533	-0.303857	-0.315445	0.293631	-0.326601	-0.358721	0.095164	-0.353382	-0.354717	0.098453	-0.446477	-0.251955	0.053958	-0.319467	-0.229991	0.048498	-0.432154	-0.177620	0.091523	-0.368535	-0.416355	0.060489	-0.417957	-0.624517	0.859653	-0.562956	-0.577749	0.858739	-0.570415	-0.626193	0.814430	-0.571846	-0.578232	0.814698	-0.577609	-0.634673	0.491421	-0.585789	-0.628825	0.460802	-0.463963	-0.839659	0.457305	-0.599158	-0.818820	0.405455	-0.603342	-0.880111	0.427740	-0.590738	-0.850590	0.388037	-0.597291	-1.025208	0.336358	-0.570444	-1.005475	0.303413	-0.487134	-1.090555	0.211624	-0.585297	-1.057313	0.179091	-0.483918	-1.045872	0.119408	-0.546555	-1.049821	0.381889	-0.511954	-0.395098	1.432420	-0.188814	-0.390165	1.440694	-0.506378	
60	0.2950	-0.447520	0.931329	-0.265655	-0.483671	0.965777	-0.506885	-0.644148	1.000180	-0.303241	-0.651118	1.015472	-0.392433	-0.473933	0.786518	-0.197987	-0.419929	0.804545	-0.211460	-0.455128	0.736645	-0.209214	-0.400474	0.756667	-0.222793	-0.302593	0.495392	-0.314395	-0.328247	0.511855	-0.429062	-0.345986	0.332460	-0.294557	-0.298782	0.340333	-0.317755	-0.347661	0.283160	-0.304109	-0.303228	0.290094	-0.326911	-0.352542	0.094156	-0.353863	-0.348509	0.096767	-0.446926	-0.247533	0.050953	-0.319938	-0.225708	0.043738	-0.432634	-0.171972	0.085305	-0.369080	-0.411387	0.061091	-0.418421	-0.601817	0.856203	-0.562116	-0.555199	0.856277	-0.569713	-0.602884	0.811172	-0.571369	-0.554942	0.812384	-0.577235	-0.605118	0.488996	-0.587169	-0.598748	0.457624	-0.465504	-0.810600	0.459160	-0.599791	-0.790872	0.406829	-0.604104	-0.851636	0.430535	-0.591224	-0.822927	0.390016	-0.597749	-0.998903	0.343144	-0.570109	-0.979603	0.309000	-0.487026	-1.064729	0.219880	-0.587620	-1.032306	0.184970	-0.486517	-1.020918	0.125921	-0.550358	-1.023273	0.388217	-0.510682	-0.375938	1.430826	-0.187632	-0.370973	1.439636	-0.505370	
61	0.3000	-0.427105	0.929402	-0.263806	-0.462658	0.963701	-0.505681	-0.624243	0.997559	-0.302226	-0.631052	1.012452	-0.391549	-0.454572	0.783480	-0.196888	-0.400340	0.800991	-0.209727	-0.436186	0.733494	-0.208203	-0.381332	0.753090	-0.221320	-0.286077	0.491675	-0.313840	-0.310833	0.508814	-0.428087	-0.333281	0.330026	-0.294560	-0.285919	0.336623	-0.317727	-0.336320	0.280968	-0.304254	-0.291835	0.286677	-0.327062	-0.347416	0.093315	-0.354276	-0.343333	0.095284	-0.447298	-0.244130	0.048077	-0.320343	-0.222440	0.039147	-0.433062	-0.167333	0.079237	-0.369553	-0.407497	0.061823	-0.418813	-0.578933	0.852746	-0.561216	-0.532470	0.853879	-0.568941	-0.579357	0.807950	-0.570818	-0.531435	0.810159	-0.576767	-0.575006	0.486786	-0.588370	-0.568096	0.454725	-0.466855	-0.780810	0.460862	-0.600333	-0.762099	0.408091	-0.604724	-0.822366	0.433112	-0.591611	-0.794402	0.391833	-0.598054	-0.971576	0.349424	-0.569655	-0.952729	0.314207	-0.486782	-1.037350	0.227540	-0.589811	-1.005816	0.190416	-0.488966	-0.994177	0.132227	-0.553885	-0.995988	0.393899	-0.509345	-0.356654	1.429192	-0.186461	-0.351641	1.438594	-0.504467	
62	0.3050	-0.406833	0.927717	-0.261740	-0.441596	0.961698	-0.504331	-0.604449	0.995163	-0.301316	-0.611019	1.009587	-0.390774	-0.435586	0.780753	-0.195668	-0.381136	0.797713	-0.207820	-0.417650	0.730655	-0.207067	-0.362596	0.749777	-0.219677	-0.270249	0.488106	-0.313048	-0.293892	0.505929	-0.426897	-0.321390	0.327766	-0.294433	-0.273847	0.333042	-0.317516	-0.325829	0.278959	-0.304293	-0.281265	0.283400	-0.327050	-0.343239	0.092642	-0.354629	-0.339084	0.094021	-0.447602	-0.241625	0.045371	-0.320690	-0.220065	0.034792	-0.433446	-0.163609	0.073409	-0.369959	-0.404556	0.062664	-0.419145	-0.555922	0.849342	-0.560250	-0.509621	0.851594	-0.568093	-0.555673	0.804820	-0.570183	-0.507773	0.808073	-0.576195	-0.544433	0.484838	-0.589370	-0.536984	0.452164	-0.467986	-0.750394	0.462416	-0.600780	-0.732596	0.409250	-0.605193	-0.792405	0.435470	-0.591899	-0.765111	0.393492	-0.598204	-0.943328	0.355163	-0.569096	-0.924944	0.318998	-0.486412	-1.008541	0.234550	-0.591863	-0.977949	0.195387	-0.491257	-0.965763	0.138256	-0.557125	-0.968058	0.398915	-0.507964	-0.337291	1.427560	-0.185306	-0.332222	1.437604	-0.503665	
63	0.3100	-0.386752	0.926296	-0.259470	-0.420539	0.959805	-0.502839	-0.584807	0.993026	-0.300507	-0.591062	1.006919	-0.390100	-0.417020	0.778359	-0.194329	-0.362363	0.794728	-0.205748	-0.399568	0.728145	-0.205807	-0.344316	0.746742	-0.217869	-0.255173	0.484689	-0.312022	-0.277499	0.503199	-0.425500	-0.310323	0.325680	-0.294177	-0.262579	0.329612	-0.317121	-0.316176	0.277133	-0.304226	-0.271511	0.280282	-0.326876	-0.339908	0.092135	-0.354929	-0.335658	0.092988	-0.447845	-0.239900	0.042867	-0.320988	-0.218461	0.030732	-0.433792	-0.160701	0.067902	-0.370305	-0.402438	0.063599	-0.419427	-0.532857	0.846049	-0.559215	-0.486723	0.849466	-0.567165	-0.531905	0.801831	-0.569456	-0.484033	0.806166	-0.575512	-0.513517	0.483192	-0.590149	-0.505545	0.449992	-0.468875	-0.719480	0.463830	-0.601131	-0.702482	0.410315	-0.605502	-0.761879	0.437608	-0.592086	-0.735174	0.394998	-0.598196	-0.914285	0.360336	-0.568445	-0.896366	0.323347	-0.485929	-0.978457	0.240870	-0.593769	-0.948845	0.199849	-0.493387	-0.935832	0.143946	-0.560070	-0.939596	0.403252	-0.506558	-0.317908	1.425964	-0.184175	-0.312780	1.436695	-0.502961	
64	0.3150	-0.366919	0.925152	-0.257019	-0.399558	0.958052	-0.501212	-0.565363	0.991172	-0.299789	-0.571235	1.004482	-0.389517	-0.398919	0.776310	-0.192879	-0.344070	0.792046	-0.203528	-0.381988	0.725975	-0.204427	-0.326541	0.743993	-0.215906	-0.240906	0.481427	-0.310770	-0.261726	0.500618	-0.423906	-0.300085	0.323767	-0.293794	-0.252128	0.326346	-0.316545	-0.307348	0.275489	-0.304057	-0.262560	0.277337	-0.326544	-0.337318	0.091791	-0.355181	-0.332951	0.092191	-0.448034	-0.238838	0.040589	-0.321243	-0.217510	0.027016	-0.434105	-0.158513	0.062781	-0.370596	-0.401020	0.064611	-0.419668	-0.509821	0.842920	-0.558108	-0.463861	0.847533	-0.566154	-0.508140	0.799032	-0.568631	-0.460304	0.804476	-0.574714	-0.482391	0.481878	-0.590694	-0.473931	0.448247	-0.469502	-0.688215	0.465111	-0.601382	-0.671899	0.411294	-0.605646	-0.730936	0.439528	-0.592171	-0.704735	0.396356	-0.598033	-0.884599	0.364925	-0.567714	-0.867141	0.327231	-0.485346	-0.947287	0.246471	-0.595524	-0.918672	0.203778	-0.495355	-0.904573	0.149242	-0.562718	-0.910737	0.406907	-0.505144	-0.298576	1.424441	-0.183073	-0.293392	1.435896	-0.502350	
65	0.3200	-0.347399	0.924294	-0.254410	-0.378731	0.956468	-0.499462	-0.546177	0.989620	-0.299155	-0.551602	1.002305	-0.389014	-0.381334	0.774611	-0.191326	-0.326307	0.789674	-0.201177	-0.364960	0.724149	-0.202933	-0.309322	0.741532	-0.213802	-0.227496	0.478323	-0.309306	-0.246642	0.498181	-0.422132	-0.290676	0.322022	-0.293291	-0.242497	0.323258	-0.315795	-0.299325	0.274021	-0.303790	-0.254399	0.274577	-0.326057	-0.335369	0.091601	-0.355391	-0.330862	0.091630	-0.448174	-0.238328	0.038559	-0.321462	-0.217098	0.023680	-0.434389	-0.156951	0.058100	-0.370835	-0.400183	0.065683	-0.419877	-0.486912	0.840003	-0.556930	-0.441131	0.845830	-0.565061	-0.484479	0.796461	-0.567704	-0.436689	0.803034	-0.573803	-0.451207	0.480916	-0.590994	-0.442307	0.446953	-0.469857	-0.656769	0.466266	-0.601532	-0.641012	0.412193	-0.605625	-0.699746	0.441236	-0.592154	-0.673960	0.397573	-0.597718	-0.854449	0.368921	-0.566916	-0.837435	0.330637	-0.484675	-0.915249	0.251340	-0.597127	-0.887631	0.207159	-0.497159	-0.872214	0.154103	-0.565073	-0.881633	0.409885	-0.503737	-0.279373	1.423022	-0.182009	-0.274145	1.435228	-0.501827	
66	0.3250	-0.328265	0.923723	-0.251673	-0.358150	0.955075	-0.497604	-0.527313	0.988379	-0.298595	-0.532237	1.000412	-0.388580	-0.364316	0.773260	-0.189683	-0.309127	0.787608	-0.198719	-0.348537	0.722662	-0.201339	-0.292711	0.739356	-0.211576	-0.214980	0.475377	-0.307647	-0.232310	0.495880	-0.420198	-0.282089	0.320442	-0.292675	-0.233684	0.320361	-0.314881	-0.292084	0.272725	-0.303432	-0.247008	0.272012	-0.325426	-0.333963	0.091557	-0.355562	-0.329295	0.091302	-0.448271	-0.238266	0.036785	-0.321648	-0.217121	0.020749	-0.434645	-0.155923	0.053897	-0.371028	-0.399815	0.066801	-0.420059	-0.464237	0.837337	-0.555685	-0.418637	0.844382	-0.563888	-0.461032	0.794152	-0.566677	-0.413301	0.801863	-0.572780	-0.420135	0.480318	-0.591049	-0.410854	0.446124	-0.469936	-0.625325	0.467303	-0.601581	-0.610007	0.413022	-0.605440	-0.668496	0.442735	-0.592037	-0.643038	0.398656	-0.597256	-0.824031	0.372327	-0.566061	-0.807438	0.333557	-0.483929	-0.882587	0.255478	-0.598576	-0.855949	0.209987	-0.498802	-0.839009	0.158494	-0.567143	-0.852457	0.412201	-0.502350	-0.260389	1.421733	-0.180988	-0.255132	1.434710	-0.501385	
67	0.3300	-0.309593	0.923432	-0.248838	-0.337913	0.953889	-0.495653	-0.508845	0.987452	-0.298098	-0.513223	0.998815	-0.388202	-0.347918	0.772245	-0.187967	-0.292583	0.785842	-0.196178	-0.332769	0.721503	-0.199658	-0.276761	0.737456	-0.209248	-0.203389	0.472590	-0.305816	-0.218785	0.493710	-0.418131	-0.274313	0.319021	-0.291958	-0.225682	0.317661	-0.313817	-0.285597	0.271592	-0.302990	-0.240362	0.269647	-0.324662	-0.333008	0.091648	-0.355699	-0.328158	0.091195	-0.448330	-0.238554	0.035274	-0.321805	-0.217479	0.018235	-0.434874	-0.155341	0.050198	-0.371177	-0.399812	0.067949	-0.420219	-0.441911	0.834957	-0.554377	-0.396496	0.843208	-0.562643	-0.437920	0.792129	-0.565555	-0.390262	0.800977	-0.571653	-0.389356	0.480084	-0.590862	-0.379761	0.445759	-0.469742	-0.594085	0.468229	-0.601531	-0.579085	0.413784	-0.605097	-0.637392	0.444035	-0.591821	-0.612172	0.399611	-0.596658	-0.793563	0.375152	-0.565163	-0.777361	0.335993	-0.483123	-0.849570	0.258897	-0.599874	-0.823877	0.212269	-0.500288	-0.805244	0.162395	-0.568939	-0.823395	0.413879	-0.500993	-0.241721	1.420595	-0.180018	-0.236456	1.434353	-0.501019	
68	0.3350	-0.291466	0.923407	-0.245940	-0.318127	0.952921	-0.493631	-0.490854	0.986833	-0.297655	-0.494648	0.997521	-0.387869	-0.332193	0.771550	-0.186196	-0.276729	0.784363	-0.193582	-0.317706	0.720655	-0.197908	-0.261522	0.735820	-0.206845	-0.192739	0.469964	-0.303841	-0.206117	0.491664	-0.415958	-0.267328	0.317752	-0.291152	-0.218474	0.315165	-0.312621	-0.279833	0.270614	-0.302473	-0.234433	0.267486	-0.323779	-0.332419	0.091860	-0.355804	-0.327370	0.091297	-0.448354	-0.239106	0.034022	-0.321938	-0.218085	0.016137	-0.435079	-0.155123	0.047010	-0.371285	-0.400080	0.069115	-0.420363	-0.420057	0.832885	-0.553016	-0.374827	0.842319	-0.561334	-0.415272	0.790409	-0.564343	-0.367699	0.800382	-0.570432	-0.359062	0.480205	-0.590441	-0.349226	0.445845	-0.469285	-0.563258	0.469053	-0.601383	-0.548462	0.414488	-0.604602	-0.606646	0.445145	-0.591513	-0.581579	0.400446	-0.595933	-0.763274	0.377416	-0.564234	-0.747426	0.337955	-0.482269	-0.816480	0.261623	-0.601022	-0.791682	0.214021	-0.501620	-0.771223	0.165796	-0.570477	-0.794645	0.414953	-0.499676	-0.223469	1.419625	-0.179104	-0.218223	1.434164	-0.500720	
69	0.3400	-0.273968	0.923629	-0.243014	-0.298899	0.952176	-0.491560	-0.473422	0.986508	-0.297257	-0.476608	0.996529	-0.387570	-0.317194	0.771152	-0.184388	-0.261619	0.783154	-0.190960	-0.303395	0.720098	-0.196109	-0.247044	0.734433	-0.204393	-0.183037	0.467497	-0.301752	-0.194343	0.489736	-0.413710	-0.261108	0.316627	-0.290272	-0.212039	0.312877	-0.311313	-0.274754	0.269782	-0.301893	-0.229188	0.265529	-0.322794	-0.332119	0.092179	-0.355880	-0.326853	0.091587	-0.448350	-0.239841	0.033019	-0.322047	-0.218860	0.014447	-0.435259	-0.155195	0.044331	-0.371358	-0.400537	0.070283	-0.420492	-0.398801	0.831136	-0.551611	-0.353756	0.841716	-0.559971	-0.393219	0.788999	-0.563054	-0.345745	0.800077	-0.569130	-0.329449	0.480661	-0.589803	-0.319449	0.446356	-0.468581	-0.533061	0.469783	-0.601144	-0.518359	0.415136	-0.603970	-0.576480	0.446077	-0.591116	-0.551485	0.401169	-0.595098	-0.733402	0.379149	-0.563283	-0.717867	0.339461	-0.481381	-0.783614	0.263694	-0.602026	-0.759648	0.215269	-0.502806	-0.737264	0.168699	-0.571774	-0.766413	0.415465	-0.498405	-0.205740	1.418832	-0.178253	-0.200540	1.434145	-0.500482	
70	0.3450	-0.257182	0.924073	-0.240096	-0.280342	0.951652	-0.489462	-0.456638	0.986459	-0.296895	-0.459199	0.995831	-0.387295	-0.302970	0.771023	-0.182567	-0.247300	0.782195	-0.188342	-0.289882	0.719802	-0.194283	-0.233371	0.733276	-0.201922	-0.174277	0.465192	-0.299582	-0.183490	0.487922	-0.411419	-0.255623	0.315640	-0.289333	-0.206348	0.310796	-0.309915	-0.270321	0.269084	-0.301262	-0.224590	0.263775	-0.321725	-0.332036	0.092588	-0.355929	-0.326543	0.092043	-0.448319	-0.240693	0.032251	-0.322137	-0.219737	0.013145	-0.435414	-0.155486	0.042144	-0.371397	-0.401111	0.071443	-0.420610	-0.378269	0.829714	-0.550175	-0.333407	0.841393	-0.558570	-0.371896	0.787898	-0.561702	-0.324533	0.800050	-0.567764	-0.300718	0.481426	-0.588968	-0.290630	0.447257	-0.467655	-0.503711	0.470424	-0.600818	-0.489003	0.415735	-0.603215	-0.547118	0.446842	-0.590641	-0.522119	0.401789	-0.594168	-0.704189	0.380386	-0.562324	-0.688920	0.340536	-0.480472	-0.751269	0.265157	-0.602892	-0.728063	0.216048	-0.503851	-0.703693	0.171117	-0.572851	-0.738905	0.415467	-0.497189	-0.188637	1.418221	-0.177467	-0.183514	1.434290	-0.500298	
71	0.3500	-0.241190	0.924711	-0.237220	-0.262564	0.951340	-0.487363	-0.440585	0.986659	-0.296561	-0.442515	0.995409	-0.387038	-0.289570	0.771132	-0.180754	-0.233821	0.781461	-0.185759	-0.277205	0.719740	-0.192453	-0.220544	0.732328	-0.199460	-0.166442	0.463049	-0.297364	-0.173575	0.486219	-0.409117	-0.250834	0.314780	-0.288354	-0.201365	0.308922	-0.308454	-0.266491	0.268510	-0.300591	-0.220599	0.262218	-0.320595	-0.332111	0.093070	-0.355954	-0.326380	0.092642	-0.448266	-0.241603	0.031700	-0.322208	-0.220657	0.012202	-0.435545	-0.155935	0.040422	-0.371407	-0.401740	0.072581	-0.420717	-0.358587	0.828617	-0.548724	-0.313902	0.841336	-0.557144	-0.351433	0.787097	-0.560303	-0.304192	0.800284	-0.566353	-0.273063	0.482465	-0.587962	-0.262959	0.448502	-0.466534	-0.475419	0.470986	-0.600416	-0.460618	0.416287	-0.602355	-0.518776	0.447456	-0.590095	-0.493706	0.402314	-0.593161	-0.675871	0.381170	-0.561368	-0.660822	0.341214	-0.479555	-0.719739	0.266070	-0.603627	-0.697213	0.216399	-0.504765	-0.670832	0.173071	-0.573728	-0.712326	0.415015	-0.496031	-0.172263	1.417790	-0.176750	-0.167248	1.434589	-0.500159	
72	0.3550	-0.226069	0.925511	-0.234421	-0.245667	0.951227	-0.485288	-0.425347	0.987078	-0.296250	-0.426651	0.995241	-0.386790	-0.277033	0.771443	-0.178970	-0.221221	0.780927	-0.183239	-0.265398	0.719877	-0.190643	-0.208598	0.731569	-0.197039	-0.159507	0.461067	-0.295134	-0.164600	0.484624	-0.406838	-0.246699	0.314040	-0.287351	-0.197051	0.307250	-0.306955	-0.263218	0.268047	-0.299895	-0.217171	0.260852	-0.319423	-0.332291	0.093608	-0.355959	-0.326317	0.093355	-0.448195	-0.242524	0.031341	-0.322263	-0.221574	0.011584	-0.435654	-0.156490	0.039129	-0.371392	-0.402377	0.073688	-0.420815	-0.339871	0.827830	-0.547273	-0.295357	0.841523	-0.555712	-0.331954	0.786578	-0.558875	-0.284844	0.800753	-0.564915	-0.246669	0.483737	-0.586814	-0.236618	0.450038	-0.465252	-0.448387	0.471476	-0.599947	-0.433415	0.416795	-0.601410	-0.491663	0.447933	-0.589491	-0.466463	0.402753	-0.592097	-0.648677	0.381551	-0.560425	-0.633799	0.341534	-0.478644	-0.689309	0.266495	-0.604241	-0.667377	0.216372	-0.505556	-0.638997	0.174592	-0.574427	-0.686871	0.414172	-0.494937	-0.156715	1.417532	-0.176104	-0.151835	1.435027	-0.500060	
73	0.3600	-0.211888	0.926437	-0.231731	-0.229747	0.951295	-0.483260	-0.410999	0.987681	-0.295955	-0.411691	0.995300	-0.386548	-0.265394	0.771920	-0.177237	-0.209534	0.780567	-0.180811	-0.254487	0.720180	-0.188875	-0.197558	0.730974	-0.194685	-0.153433	0.459248	-0.292926	-0.156557	0.483138	-0.404612	-0.243172	0.313410	-0.286342	-0.193359	0.305774	-0.305443	-0.260454	0.267684	-0.299186	-0.214261	0.259668	-0.318232	-0.332534	0.094184	-0.355944	-0.326315	0.094156	-0.448109	-0.243417	0.031151	-0.322303	-0.222451	0.011251	-0.435740	-0.157103	0.038221	-0.371355	-0.402984	0.074753	-0.420904	-0.322229	0.827333	-0.545838	-0.277877	0.841928	-0.554290	-0.313575	0.786319	-0.557439	-0.266602	0.801426	-0.563473	-0.221709	0.485197	-0.585555	-0.211770	0.451809	-0.463846	-0.422800	0.471900	-0.599423	-0.407594	0.417264	-0.600403	-0.465970	0.448288	-0.588841	-0.440589	0.403115	-0.590997	-0.622816	0.381581	-0.559505	-0.608065	0.341538	-0.477750	-0.660244	0.266500	-0.604743	-0.638819	0.216019	-0.506232	-0.608483	0.175717	-0.574970	-0.662721	0.413005	-0.493911	-0.142080	1.417435	-0.175530	-0.137362	1.435587	-0.499993	
74	0.3650	-0.198708	0.927456	-0.229176	-0.214887	0.951522	-0.481304	-0.397611	0.988432	-0.295675	-0.397713	0.995555	-0.386309	-0.254680	0.772526	-0.175576	-0.198785	0.780353	-0.178499	-0.244489	0.720614	-0.187170	-0.187442	0.730523	-0.192427	-0.148175	0.457589	-0.290771	-0.149426	0.481760	-0.402468	-0.240202	0.312880	-0.285345	-0.190240	0.304485	-0.303946	-0.258151	0.267410	-0.298478	-0.211822	0.258654	-0.317044	-0.332804	0.094781	-0.355914	-0.326342	0.095016	-0.448012	-0.244253	0.031103	-0.322331	-0.223261	0.011162	-0.435805	-0.157738	0.037651	-0.371301	-0.403533	0.075767	-0.420985	-0.305756	0.827099	-0.544437	-0.261556	0.842517	-0.552897	-0.296397	0.786290	-0.556015	-0.249565	0.802268	-0.562047	-0.198333	0.486796	-0.584220	-0.188559	0.453752	-0.462352	-0.398821	0.472265	-0.598857	-0.383332	0.417694	-0.599356	-0.441866	0.448539	-0.588158	-0.416266	0.403408	-0.589882	-0.598479	0.381317	-0.558619	-0.583809	0.341274	-0.476883	-0.632781	0.266154	-0.605144	-0.611778	0.215398	-0.506805	-0.579557	0.176489	-0.575379	-0.640039	0.411582	-0.492955	-0.128435	1.417483	-0.175025	-0.123901	1.436245	-0.499953	
75	0.3700	-0.186574	0.928533	-0.226781	-0.201156	0.951881	-0.479441	-0.385239	0.989293	-0.295407	-0.384780	0.995971	-0.386071	-0.244907	0.773226	-0.174003	-0.188988	0.780260	-0.176326	-0.235413	0.721147	-0.185550	-0.178259	0.730192	-0.190288	-0.143680	0.456091	-0.288700	-0.143175	0.480490	-0.400432	-0.237737	0.312442	-0.284375	-0.187643	0.303374	-0.302486	-0.256258	0.267210	-0.297783	-0.209806	0.257799	-0.315879	-0.333075	0.095385	-0.355871	-0.326375	0.095909	-0.447907	-0.245013	0.031170	-0.322349	-0.223987	0.011273	-0.435851	-0.158364	0.037367	-0.371235	-0.404007	0.076723	-0.421058	-0.290529	0.827095	-0.543086	-0.246469	0.843256	-0.551549	-0.280502	0.786458	-0.554623	-0.233813	0.803241	-0.560659	-0.176669	0.488487	-0.582842	-0.167099	0.455807	-0.460811	-0.376588	0.472577	-0.598262	-0.360779	0.418086	-0.598292	-0.419496	0.448700	-0.587458	-0.393646	0.403642	-0.588772	-0.575826	0.380814	-0.557776	-0.561198	0.340791	-0.476056	-0.607126	0.265529	-0.605455	-0.586463	0.214565	-0.507283	-0.552456	0.176956	-0.575674	-0.618962	0.409973	-0.492072	-0.115841	1.417655	-0.174589	-0.111509	1.436979	-0.499934	
76	0.3750	-0.175521	0.929633	-0.224567	-0.188604	0.952346	-0.477690	-0.373924	0.990227	-0.295150	-0.372941	0.996511	-0.385835	-0.236082	0.773984	-0.172534	-0.180150	0.780261	-0.174311	-0.227255	0.721745	-0.184030	-0.170006	0.729961	-0.188290	-0.139889	0.454749	-0.286740	-0.137761	0.479328	-0.398527	-0.235722	0.312085	-0.283447	-0.185512	0.302429	-0.301087	-0.254728	0.267075	-0.297113	-0.208164	0.257089	-0.314757	-0.333327	0.095980	-0.355817	-0.326399	0.096809	-0.447797	-0.245683	0.031325	-0.322357	-0.224616	0.011540	-0.435879	-0.158957	0.037319	-0.371158	-0.404396	0.077612	-0.421122	-0.276606	0.827284	-0.541801	-0.232675	0.844107	-0.550264	-0.265956	0.786787	-0.553284	-0.219407	0.804306	-0.559326	-0.156814	0.490219	-0.581456	-0.147481	0.457913	-0.459259	-0.356206	0.472843	-0.597653	-0.340055	0.418444	-0.597234	-0.398970	0.448787	-0.586754	-0.372851	0.403824	-0.587687	-0.554986	0.380130	-0.556983	-0.540365	0.340140	-0.475276	-0.583449	0.264694	-0.605688	-0.563048	0.213578	-0.507676	-0.527373	0.177164	-0.575875	-0.599599	0.408245	-0.491264	-0.104344	1.417930	-0.174219	-0.100227	1.437763	-0.499930	
77	0.3800	-0.165567	0.930727	-0.222547	-0.177264	0.952888	-0.476067	-0.363695	0.991198	-0.294904	-0.362229	0.997141	-0.385601	-0.228200	0.774769	-0.171183	-0.172262	0.780334	-0.172466	-0.220003	0.722379	-0.182625	-0.162670	0.729811	-0.186448	-0.136737	0.453562	-0.284914	-0.133133	0.478276	-0.396769	-0.234105	0.311800	-0.282574	-0.183795	0.301636	-0.299769	-0.253513	0.266993	-0.296477	-0.206849	0.256510	-0.313693	-0.333548	0.096553	-0.355756	-0.326403	0.097693	-0.447686	-0.246259	0.031544	-0.322359	-0.225145	0.011921	-0.435894	-0.159502	0.037454	-0.371077	-0.404697	0.078431	-0.421179	-0.264026	0.827627	-0.540595	-0.220210	0.845032	-0.549055	-0.252799	0.787240	-0.552014	-0.206388	0.805424	-0.558068	-0.138835	0.491947	-0.580092	-0.129758	0.460012	-0.457732	-0.337748	0.473067	-0.597044	-0.321245	0.418767	-0.596203	-0.380366	0.448815	-0.586061	-0.353969	0.403962	-0.586646	-0.536052	0.379317	-0.556246	-0.521408	0.339367	-0.474551	-0.561873	0.263714	-0.605853	-0.541665	0.212492	-0.507994	-0.504458	0.177165	-0.576000	-0.582026	0.406460	-0.490532	-0.093972	1.418285	-0.173909	-0.090077	1.438572	-0.499938	
78	0.3850	-0.156712	0.931786	-0.220732	-0.167150	0.953480	-0.474585	-0.354562	0.992172	-0.294670	-0.352658	0.997826	-0.385373	-0.221242	0.775552	-0.169956	-0.165307	0.780458	-0.170803	-0.213634	0.723022	-0.181347	-0.156227	0.729723	-0.184776	-0.134157	0.452522	-0.283238	-0.129234	0.477332	-0.395174	-0.232832	0.311578	-0.281766	-0.182437	0.300981	-0.298547	-0.252567	0.266954	-0.295885	-0.205817	0.256046	-0.312703	-0.333731	0.097094	-0.355691	-0.326384	0.098540	-0.447576	-0.246738	0.031804	-0.322354	-0.225577	0.012379	-0.435895	-0.159987	0.037725	-0.370993	-0.404914	0.079175	-0.421227	-0.252802	0.828086	-0.539480	-0.209088	0.845993	-0.547936	-0.241051	0.787782	-0.550830	-0.194771	0.806556	-0.556898	-0.122766	0.493630	-0.578779	-0.113954	0.462052	-0.456263	-0.321250	0.473255	-0.596448	-0.304396	0.419056	-0.595218	-0.363725	0.448798	-0.585392	-0.337049	0.404064	-0.585664	-0.519078	0.378428	-0.555573	-0.504387	0.338521	-0.473886	-0.542479	0.262651	-0.605964	-0.522404	0.211357	-0.508248	-0.483811	0.177004	-0.576067	-0.566287	0.404678	-0.489875	-0.084734	1.418695	-0.173655	-0.081061	1.439383	-0.499953	
79	0.3900	-0.148941	0.932787	-0.219126	-0.158251	0.954093	-0.473251	-0.346518	0.993120	-0.294450	-0.344222	0.998532	-0.385152	-0.215182	0.776309	-0.168862	-0.159253	0.780612	-0.169326	-0.208111	0.723651	-0.180201	-0.150641	0.729683	-0.183282	-0.132082	0.451624	-0.281727	-0.125998	0.476496	-0.393748	-0.231851	0.311408	-0.281032	-0.181385	0.300450	-0.297434	-0.251847	0.266947	-0.295343	-0.205023	0.255683	-0.311798	-0.333872	0.097594	-0.355624	-0.326341	0.099334	-0.447470	-0.247126	0.032086	-0.322346	-0.225916	0.012876	-0.435888	-0.160408	0.038087	-0.370910	-0.405055	0.079841	-0.421269	-0.242927	0.828621	-0.538467	-0.199301	0.846957	-0.546916	-0.230705	0.788375	-0.549744	-0.184547	0.807668	-0.555830	-0.108603	0.495229	-0.577542	-0.100056	0.463989	-0.454880	-0.306711	0.473411	-0.595878	-0.289518	0.419313	-0.594296	-0.349050	0.448748	-0.584758	-0.322103	0.404136	-0.584755	-0.504078	0.377507	-0.554965	-0.489324	0.337643	-0.473287	-0.525298	0.261558	-0.606029	-0.505305	0.210219	-0.508445	-0.465480	0.176727	-0.576089	-0.552389	0.402949	-0.489294	-0.076619	1.419137	-0.173451	-0.073164	1.440172	-0.499973	
80	0.3950	-0.142221	0.933711	-0.217728	-0.150540	0.954704	-0.472072	-0.339537	0.994017	-0.294246	-0.336899	0.999232	-0.384943	-0.209978	0.777020	-0.167901	-0.154060	0.780783	-0.168035	-0.203392	0.724248	-0.179192	-0.145869	0.729677	-0.181969	-0.130445	0.450860	-0.280388	-0.123357	0.475766	-0.392496	-0.231115	0.311284	-0.280375	-0.180590	0.300028	-0.296440	-0.251313	0.266965	-0.294855	-0.204427	0.255406	-0.310986	-0.333973	0.098047	-0.355557	-0.326277	0.100062	-0.447371	-0.247429	0.032371	-0.322334	-0.226172	0.013385	-0.435872	-0.160761	0.038501	-0.370830	-0.405129	0.080429	-0.421303	-0.234368	0.829198	-0.537560	-0.190818	0.847892	-0.546002	-0.221731	0.788990	-0.548765	-0.175684	0.808730	-0.554870	-0.096311	0.496714	-0.576402	-0.088020	0.465785	-0.453606	-0.294095	0.473539	-0.595344	-0.276582	0.419538	-0.593451	-0.336306	0.448677	-0.584171	-0.309103	0.404184	-0.583929	-0.491029	0.376594	-0.554425	-0.476201	0.336770	-0.472756	-0.510319	0.260483	-0.606060	-0.490364	0.209117	-0.508596	-0.449463	0.176376	-0.576079	-0.540305	0.401318	-0.488786	-0.069597	1.419591	-0.173292	-0.066351	1.440922	-0.499994	
81	0.4000	-0.136505	0.934544	-0.216533	-0.143968	0.955291	-0.471047	-0.333579	0.994843	-0.294059	-0.330645	0.999902	-0.384749	-0.205581	0.777669	-0.167072	-0.149675	0.780957	-0.166928	-0.199423	0.724797	-0.178320	-0.141856	0.729694	-0.180835	-0.129180	0.450220	-0.279223	-0.121242	0.475138	-0.391417	-0.230577	0.311195	-0.279801	-0.180006	0.299698	-0.295568	-0.250930	0.266999	-0.294426	-0.203992	0.255201	-0.310271	-0.334038	0.098448	-0.355493	-0.326197	0.100713	-0.447280	-0.247658	0.032647	-0.322321	-0.226356	0.013879	-0.435852	-0.161051	0.038934	-0.370757	-0.405150	0.080940	-0.421330	-0.227072	0.829784	-0.536764	-0.183585	0.848773	-0.545199	-0.214074	0.789596	-0.547901	-0.168128	0.809717	-0.554025	-0.085820	0.498062	-0.575374	-0.077769	0.467411	-0.452458	-0.283330	0.473644	-0.594856	-0.265525	0.419733	-0.592691	-0.325426	0.448594	-0.583639	-0.297987	0.404215	-0.583194	-0.479869	0.375723	-0.553955	-0.464960	0.335935	-0.472292	-0.497481	0.259463	-0.606064	-0.477533	0.208084	-0.508707	-0.435709	0.175985	-0.576048	-0.529974	0.399818	-0.488349	-0.063622	1.420036	-0.173170	-0.060570	1.441615	-0.500016	
82	0.4050	-0.131730	0.935277	-0.215531	-0.138468	0.955838	-0.470174	-0.328584	0.995583	-0.293892	-0.325402	1.000520	-0.384572	-0.201931	0.778246	-0.166372	-0.146038	0.781123	-0.165997	-0.196143	0.725288	-0.177581	-0.138540	0.729724	-0.179875	-0.128225	0.449693	-0.278230	-0.119580	0.474607	-0.390505	-0.230199	0.311136	-0.279308	-0.179591	0.299448	-0.294819	-0.250664	0.267042	-0.294056	-0.203685	0.255054	-0.309655	-0.334073	0.098796	-0.355433	-0.326106	0.101283	-0.447198	-0.247823	0.032902	-0.322308	-0.226480	0.014340	-0.435830	-0.161281	0.039359	-0.370690	-0.405131	0.081375	-0.421352	-0.220966	0.830351	-0.536079	-0.177530	0.849578	-0.544506	-0.207661	0.790171	-0.547153	-0.161803	0.810609	-0.553296	-0.077030	0.499255	-0.574468	-0.069197	0.468849	-0.451447	-0.274313	0.473728	-0.594419	-0.256248	0.419899	-0.592024	-0.316309	0.448506	-0.583166	-0.288657	0.404232	-0.582553	-0.470502	0.374919	-0.553552	-0.455511	0.335162	-0.471896	-0.486684	0.258527	-0.606051	-0.466720	0.207145	-0.508787	-0.424121	0.175585	-0.576005	-0.521306	0.398476	-0.487980	-0.058631	1.420458	-0.173080	-0.055754	1.442239	-0.500037	
83	0.4100	-0.127821	0.935905	-0.214710	-0.133959	0.956329	-0.469447	-0.324482	0.996228	-0.293745	-0.321094	1.001073	-0.384415	-0.198960	0.778744	-0.165793	-0.143081	0.781275	-0.165230	-0.193487	0.725715	-0.176968	-0.135855	0.729760	-0.179081	-0.127523	0.449269	-0.277403	-0.118305	0.474167	-0.389751	-0.229943	0.311099	-0.278894	-0.179307	0.299263	-0.294191	-0.250488	0.267089	-0.293743	-0.203477	0.254953	-0.309137	-0.334084	0.099090	-0.355380	-0.326011	0.101769	-0.447126	-0.247937	0.033129	-0.322295	-0.226556	0.014754	-0.435807	-0.161458	0.039755	-0.370632	-0.405085	0.081738	-0.421368	-0.215960	0.830878	-0.535503	-0.172565	0.850292	-0.543923	-0.202399	0.790696	-0.546519	-0.156616	0.811393	-0.552682	-0.069816	0.500284	-0.573690	-0.062176	0.470087	-0.450579	-0.266917	0.473794	-0.594038	-0.248625	0.420037	-0.591452	-0.308825	0.448421	-0.582757	-0.280989	0.404239	-0.582007	-0.462802	0.374203	-0.553215	-0.447733	0.334470	-0.471565	-0.477794	0.257697	-0.606027	-0.457799	0.206317	-0.508843	-0.414563	0.175200	-0.575958	-0.514181	0.397306	-0.487673	-0.054545	1.420842	-0.173016	-0.051824	1.442786	-0.500055	
