PathFileType	4	(X/Y/Z)	 P3 65r1 01.trc
DataRate	CameraRate	NumFrames	NumMarkers	Units	OrigDataRate	OrigDataStartFrame	OrigNumFrames
200	200	89	38	m	200	1	89
Frame#	Time	RASIS			LASIS			RPSIS			LPSIS			RThighRear1			RThighFront1			RThighRear2			RThighFront2			RKneeLat			RKneeMed			RShankRear1			RShankFront1			RShankRear2			RShankFront2			RAnkleLat			RAnkleMed			RM5			RM1			RMid			RHeel			LThighRear1			LThighFront1			LThighRear2			LThighFront2			LKneeLat			LKneeMed			LShankRear1			LShankFront1			LShankRear2			LShankFront2			LAnkleLat			LAnkleMed			LM5			LM1			LMid			LHeel			RShoulder			LShoulder			
		X1	Y1	Z1	X2	Y2	Z2	X3	Y3	Z3	X4	Y4	Z4	X5	Y5	Z5	X6	Y6	Z6	X7	Y7	Z7	X8	Y8	Z8	X9	Y9	Z9	X10	Y10	Z10	X11	Y11	Z11	X12	Y12	Z12	X13	Y13	Z13	X14	Y14	Z14	X15	Y15	Z15	X16	Y16	Z16	X17	Y17	Z17	X18	Y18	Z18	X19	Y19	Z19	X20	Y20	Z20	X21	Y21	Z21	X22	Y22	Z22	X23	Y23	Z23	X24	Y24	Z24	X25	Y25	Z25	X26	Y26	Z26	X27	Y27	Z27	X28	Y28	Z28	X29	Y29	Z29	X30	Y30	Z30	X31	Y31	Z31	X32	Y32	Z32	X33	Y33	Z33	X34	Y34	Z34	X35	Y35	Z35	X36	Y36	Z36	X37	Y37	Z37	X38	Y38	Z38	
1	0.0000	-1.325399	0.975906	-0.240098	-1.339570	0.995595	-0.481541	-1.513014	1.053201	-0.313122	-1.510735	1.053727	-0.402920	-1.405434	0.830076	-0.169337	-1.350819	0.825920	-0.178728	-1.403938	0.775993	-0.171781	-1.347929	0.772726	-0.183220	-1.386298	0.470299	-0.216737	-1.382730	0.478862	-0.345267	-1.550209	0.429366	-0.195271	-1.520418	0.387220	-0.207434	-1.594303	0.407981	-0.204315	-1.568210	0.367084	-0.213540	-1.766420	0.316800	-0.228576	-1.754226	0.310087	-0.319959	-1.825025	0.197672	-0.202922	-1.809379	0.179315	-0.314475	-1.785203	0.119956	-0.247778	-1.794093	0.371310	-0.290425	-1.413707	0.867166	-0.542926	-1.366522	0.883515	-0.547355	-1.400346	0.822737	-0.549804	-1.353573	0.841833	-0.559494	-1.256318	0.526320	-0.506818	-1.264450	0.517287	-0.387770	-1.332543	0.331083	-0.533761	-1.274957	0.326939	-0.527769	-1.328814	0.278610	-0.525166	-1.275794	0.286583	-0.519120	-1.312601	0.100081	-0.496775	-1.296318	0.106466	-0.405698	-1.201522	0.045923	-0.513268	-1.176102	0.051269	-0.403759	-1.111728	0.081294	-0.460245	-1.370305	0.067831	-0.439486	-1.205600	1.440981	-0.187456	-1.248430	1.467381	-0.511618	
2	0.0050	-1.313116	0.972862	-0.239693	-1.327594	0.993059	-0.481747	-1.501364	1.049274	-0.311943	-1.499450	1.050138	-0.401828	-1.389840	0.826884	-0.168793	-1.335233	0.823932	-0.178451	-1.387172	0.773001	-0.171282	-1.331197	0.771044	-0.182904	-1.363704	0.469114	-0.217371	-1.360858	0.478292	-0.345781	-1.526928	0.428269	-0.194518	-1.497502	0.386341	-0.207693	-1.571227	0.407212	-0.203485	-1.545481	0.366435	-0.213603	-1.744162	0.317230	-0.227324	-1.732937	0.311309	-0.318766	-1.801450	0.197559	-0.201866	-1.786982	0.179831	-0.313486	-1.761492	0.120434	-0.247550	-1.773098	0.371919	-0.288467	-1.402525	0.864423	-0.542263	-1.355576	0.880891	-0.547233	-1.389067	0.820007	-0.548989	-1.342442	0.839101	-0.559114	-1.245307	0.523464	-0.507022	-1.252370	0.514682	-0.388703	-1.324561	0.329865	-0.533813	-1.267257	0.324473	-0.527539	-1.322084	0.277542	-0.525056	-1.269117	0.284267	-0.518751	-1.311281	0.099879	-0.496073	-1.295138	0.105692	-0.405023	-1.201100	0.045146	-0.513537	-1.175467	0.049568	-0.403233	-1.111149	0.077959	-0.459527	-1.369791	0.067969	-0.439139	-1.193192	1.437460	-0.186862	-1.234376	1.463572	-0.512054	
3	0.0100	-1.300656	0.969781	-0.239281	-1.315453	0.990489	-0.481966	-1.489538	1.045325	-0.310748	-1.487991	1.046529	-0.400717	-1.374047	0.823687	-0.168244	-1.319449	0.821955	-0.178157	-1.370192	0.770010	-0.170781	-1.314253	0.769378	-0.182574	-1.340756	0.467990	-0.218034	-1.338666	0.477796	-0.346326	-1.503284	0.427195	-0.193777	-1.474220	0.385488	-0.207969	-1.547794	0.406456	-0.202659	-1.522388	0.365799	-0.213678	-1.721560	0.317615	-0.226056	-1.711319	0.312481	-0.317557	-1.777460	0.197376	-0.200774	-1.764186	0.180261	-0.312459	-1.737332	0.120854	-0.247291	-1.751805	0.372461	-0.286490	-1.391230	0.861650	-0.541560	-1.344523	0.878232	-0.547095	-1.377691	0.817249	-0.548135	-1.331217	0.836336	-0.558714	-1.234244	0.520528	-0.507240	-1.240190	0.511977	-0.389668	-1.316559	0.328598	-0.533859	-1.259545	0.321944	-0.527315	-1.315343	0.276431	-0.524941	-1.262434	0.281896	-0.518387	-1.309988	0.099658	-0.495366	-1.293986	0.104901	-0.404340	-1.200685	0.044379	-0.513809	-1.174834	0.047885	-0.402716	-1.110578	0.074645	-0.458821	-1.369309	0.068065	-0.438784	-1.180623	1.433907	-0.186249	-1.220094	1.459720	-0.512483	
4	0.0150	-1.288023	0.966687	-0.238861	-1.303146	0.987897	-0.482196	-1.477532	1.041384	-0.309542	-1.476353	1.042926	-0.399591	-1.358076	0.820520	-0.167692	-1.303489	0.820021	-0.177843	-1.353023	0.767059	-0.170281	-1.297123	0.767761	-0.182231	-1.317478	0.466973	-0.218731	-1.316182	0.477412	-0.346905	-1.479299	0.426161	-0.193060	-1.450585	0.384681	-0.208267	-1.524021	0.405721	-0.201846	-1.498940	0.365187	-0.213764	-1.698612	0.317918	-0.224778	-1.689368	0.313552	-0.316336	-1.753026	0.197087	-0.199643	-1.740954	0.180559	-0.311388	-1.712678	0.121186	-0.246992	-1.730221	0.372878	-0.284506	-1.379835	0.858865	-0.540808	-1.333375	0.875551	-0.546933	-1.366240	0.814482	-0.547237	-1.319922	0.833549	-0.558286	-1.223195	0.517519	-0.507474	-1.227978	0.509169	-0.390660	-1.308594	0.327288	-0.533894	-1.251877	0.319362	-0.527099	-1.308644	0.275284	-0.524818	-1.255796	0.279481	-0.518030	-1.308741	0.099423	-0.494656	-1.292877	0.104102	-0.403653	-1.200285	0.043630	-0.514081	-1.174211	0.046238	-0.402215	-1.110025	0.071390	-0.458132	-1.368872	0.068114	-0.438422	-1.167913	1.430352	-0.185610	-1.205585	1.455854	-0.512890	
5	0.0200	-1.275211	0.963602	-0.238429	-1.290667	0.985296	-0.482435	-1.465338	1.037480	-0.308330	-1.464521	1.039358	-0.398454	-1.341939	0.817421	-0.167136	-1.287367	0.818164	-0.177507	-1.335679	0.764185	-0.169783	-1.279825	0.766226	-0.181872	-1.293885	0.466107	-0.219464	-1.293428	0.477185	-0.347522	-1.454984	0.425185	-0.192378	-1.426599	0.383939	-0.208588	-1.499917	0.405012	-0.201054	-1.475133	0.364606	-0.213865	-1.675305	0.318100	-0.223495	-1.667066	0.314474	-0.315109	-1.728105	0.196655	-0.198470	-1.717234	0.180674	-0.310268	-1.687469	0.121402	-0.246644	-1.708339	0.373110	-0.282524	-1.368348	0.856086	-0.540002	-1.322138	0.872860	-0.546744	-1.354734	0.811726	-0.546291	-1.308571	0.830753	-0.557825	-1.212228	0.514442	-0.507719	-1.215802	0.506255	-0.391671	-1.300720	0.325943	-0.533915	-1.244309	0.316742	-0.526892	-1.302032	0.274111	-0.524683	-1.249253	0.277036	-0.517684	-1.307555	0.099179	-0.493949	-1.291824	0.103305	-0.402966	-1.199908	0.042907	-0.514351	-1.173608	0.044645	-0.401734	-1.109499	0.068232	-0.457471	-1.368492	0.068119	-0.438054	-1.155077	1.426823	-0.184934	-1.190845	1.452005	-0.513258	
6	0.0250	-1.262211	0.960551	-0.237985	-1.278003	0.982699	-0.482678	-1.452939	1.033644	-0.307118	-1.452475	1.035853	-0.397311	-1.325642	0.814426	-0.166577	-1.271091	0.816418	-0.177144	-1.318171	0.761428	-0.169291	-1.262370	0.764807	-0.181497	-1.269989	0.465441	-0.220235	-1.270419	0.477154	-0.348181	-1.430347	0.424284	-0.191743	-1.402259	0.383283	-0.208935	-1.475482	0.404335	-0.200292	-1.450960	0.364066	-0.213981	-1.651618	0.318118	-0.222212	-1.644384	0.315192	-0.313881	-1.702644	0.196042	-0.197251	-1.692966	0.180558	-0.309093	-1.661636	0.121477	-0.246238	-1.686143	0.373095	-0.280559	-1.356770	0.853329	-0.539136	-1.310811	0.870170	-0.546521	-1.343180	0.808999	-0.545292	-1.297173	0.827962	-0.557326	-1.201403	0.511307	-0.507975	-1.203729	0.503236	-0.392693	-1.292991	0.324573	-0.533916	-1.236894	0.314098	-0.526695	-1.295557	0.272920	-0.524533	-1.242853	0.274577	-0.517351	-1.306444	0.098933	-0.493249	-1.290840	0.102520	-0.402283	-1.199561	0.042216	-0.514615	-1.173032	0.043120	-0.401280	-1.109006	0.065203	-0.456842	-1.368180	0.068082	-0.437684	-1.142125	1.423351	-0.184213	-1.175863	1.448203	-0.513571	
7	0.0300	-1.249007	0.957562	-0.237525	-1.265136	0.980119	-0.482923	-1.440316	1.029908	-0.305913	-1.440190	1.032440	-0.396167	-1.309187	0.811574	-0.166016	-1.254664	0.814818	-0.176753	-1.300504	0.758827	-0.168804	-1.244764	0.763542	-0.181106	-1.245797	0.465018	-0.221047	-1.247170	0.477360	-0.348883	-1.405393	0.423474	-0.191164	-1.377559	0.382731	-0.209307	-1.450716	0.403694	-0.199568	-1.426407	0.363575	-0.214112	-1.627523	0.317932	-0.220936	-1.621291	0.315655	-0.312658	-1.676587	0.195213	-0.195986	-1.668082	0.180165	-0.307862	-1.635107	0.121383	-0.245765	-1.663611	0.372770	-0.278621	-1.345094	0.850615	-0.538206	-1.299384	0.867495	-0.546260	-1.331584	0.806323	-0.544238	-1.285728	0.825189	-0.556781	-1.190781	0.508123	-0.508236	-1.191824	0.500116	-0.393713	-1.285456	0.323189	-0.533892	-1.229683	0.311447	-0.526508	-1.289260	0.271726	-0.524365	-1.236640	0.272123	-0.517031	-1.305421	0.098696	-0.492559	-1.289935	0.101761	-0.401609	-1.199252	0.041561	-0.514870	-1.172494	0.041676	-0.400857	-1.108554	0.062337	-0.456252	-1.367945	0.068008	-0.437313	-1.129066	1.419968	-0.183437	-1.160628	1.444482	-0.513810	
8	0.0350	-1.235584	0.954662	-0.237048	-1.252044	0.977569	-0.483164	-1.427447	1.026300	-0.304721	-1.427642	1.029145	-0.395029	-1.292573	0.808903	-0.165452	-1.238087	0.813400	-0.176332	-1.282681	0.756420	-0.168325	-1.227012	0.762462	-0.180700	-1.221318	0.464881	-0.221899	-1.223694	0.477838	-0.349627	-1.380127	0.422768	-0.190652	-1.352495	0.382300	-0.209706	-1.425617	0.403092	-0.198889	-1.401463	0.363139	-0.214257	-1.602989	0.317501	-0.219674	-1.597749	0.315812	-0.311447	-1.649876	0.194136	-0.194672	-1.642513	0.179449	-0.306571	-1.607808	0.121102	-0.245218	-1.640718	0.372072	-0.276723	-1.333310	0.847962	-0.537210	-1.287844	0.864847	-0.545954	-1.319943	0.803718	-0.543126	-1.274232	0.822447	-0.556187	-1.180416	0.504907	-0.508499	-1.180153	0.496904	-0.394718	-1.278162	0.321808	-0.533838	-1.222722	0.308811	-0.526330	-1.283182	0.270542	-0.524174	-1.230654	0.269695	-0.516726	-1.304494	0.098476	-0.491885	-1.289117	0.101039	-0.400947	-1.198987	0.040946	-0.515111	-1.172001	0.040325	-0.400469	-1.108150	0.059661	-0.455706	-1.367792	0.067909	-0.436945	-1.115904	1.416708	-0.182594	-1.145128	1.440877	-0.513959	
9	0.0400	-1.221922	0.951880	-0.236551	-1.238705	0.975065	-0.483393	-1.414310	1.022853	-0.303550	-1.414801	1.025998	-0.393902	-1.275795	0.806450	-0.164885	-1.221357	0.812196	-0.175880	-1.264703	0.754244	-0.167855	-1.209116	0.761602	-0.180280	-1.196565	0.465070	-0.222788	-1.200005	0.478623	-0.350412	-1.354557	0.422178	-0.190214	-1.327062	0.382006	-0.210128	-1.400183	0.402530	-0.198262	-1.376118	0.362764	-0.214415	-1.577989	0.316786	-0.218432	-1.573724	0.315614	-0.310254	-1.622455	0.192780	-0.193312	-1.616193	0.178373	-0.305219	-1.579671	0.120615	-0.244593	-1.617436	0.370944	-0.274878	-1.321403	0.845390	-0.536146	-1.276174	0.862239	-0.545602	-1.308251	0.801206	-0.541957	-1.262676	0.819750	-0.555538	-1.170358	0.501674	-0.508755	-1.168776	0.493612	-0.395693	-1.271149	0.320448	-0.533748	-1.216051	0.306213	-0.526159	-1.277357	0.269389	-0.523957	-1.224933	0.267315	-0.516435	-1.303669	0.098288	-0.491231	-1.288389	0.100371	-0.400302	-1.198771	0.040373	-0.515337	-1.171563	0.039073	-0.400117	-1.107797	0.057199	-0.455205	-1.367725	0.067798	-0.436582	-1.102644	1.413602	-0.181677	-1.129353	1.437424	-0.513998	
10	0.0450	-1.208006	0.949247	-0.236032	-1.225096	0.972623	-0.483605	-1.400882	1.019594	-0.302407	-1.401642	1.023024	-0.392794	-1.258851	0.804251	-0.164314	-1.204472	0.811238	-0.175396	-1.246571	0.752336	-0.167394	-1.191078	0.760993	-0.179847	-1.171556	0.465618	-0.223712	-1.176123	0.479740	-0.351234	-1.328694	0.421716	-0.189858	-1.301265	0.381862	-0.210573	-1.374420	0.402008	-0.197693	-1.350367	0.362454	-0.214584	-1.552496	0.315753	-0.217217	-1.549180	0.315016	-0.309087	-1.594278	0.191123	-0.191908	-1.589062	0.176905	-0.303809	-1.550636	0.119911	-0.243887	-1.593737	0.369329	-0.273099	-1.309357	0.842920	-0.535016	-1.264353	0.859686	-0.545198	-1.296497	0.798808	-0.540733	-1.251046	0.817113	-0.554831	-1.160652	0.498447	-0.508999	-1.157752	0.490261	-0.396620	-1.264454	0.319131	-0.533617	-1.209707	0.303680	-0.525993	-1.271816	0.268285	-0.523709	-1.219506	0.265010	-0.516158	-1.302946	0.098144	-0.490601	-1.287752	0.099770	-0.399679	-1.198607	0.039843	-0.515542	-1.171184	0.037927	-0.399803	-1.107500	0.054970	-0.454751	-1.367743	0.067694	-0.436228	-1.089291	1.410685	-0.180674	-1.113295	1.434160	-0.513909	
11	0.0500	-1.193820	0.946792	-0.235490	-1.211195	0.970257	-0.483790	-1.387145	1.016551	-0.301298	-1.388141	1.020251	-0.391712	-1.241737	0.802339	-0.163740	-1.187432	0.810556	-0.174882	-1.228287	0.750728	-0.166942	-1.172900	0.760664	-0.179403	-1.146315	0.466552	-0.224665	-1.152073	0.481209	-0.352087	-1.302559	0.421386	-0.189587	-1.275112	0.381876	-0.211036	-1.348338	0.401522	-0.197186	-1.324211	0.362211	-0.214762	-1.526490	0.314368	-0.216036	-1.524091	0.313979	-0.307951	-1.565304	0.189146	-0.190465	-1.561070	0.175020	-0.302343	-1.520657	0.118984	-0.243097	-1.569596	0.367179	-0.271397	-1.297151	0.840570	-0.533826	-1.252356	0.857203	-0.544742	-1.284669	0.796547	-0.539459	-1.239324	0.814551	-0.554064	-1.151336	0.495251	-0.509221	-1.147135	0.486876	-0.397480	-1.258107	0.317880	-0.533442	-1.203718	0.301242	-0.525830	-1.266583	0.267256	-0.523428	-1.214397	0.262809	-0.515893	-1.302324	0.098061	-0.490000	-1.287201	0.099254	-0.399083	-1.198500	0.039356	-0.515723	-1.170873	0.036888	-0.399528	-1.107261	0.052987	-0.454346	-1.367840	0.067620	-0.435888	-1.075850	1.407988	-0.179578	-1.096950	1.431122	-0.513677	
12	0.0550	-1.179351	0.944545	-0.234922	-1.196985	0.967986	-0.483941	-1.373083	1.013752	-0.300233	-1.374277	1.017702	-0.390665	-1.224453	0.800743	-0.163160	-1.170237	0.810175	-0.174340	-1.209855	0.749450	-0.166500	-1.154589	0.760639	-0.178952	-1.120877	0.467894	-0.225639	-1.127884	0.483045	-0.352963	-1.276177	0.421192	-0.189405	-1.248622	0.382057	-0.211513	-1.321954	0.401070	-0.196743	-1.297663	0.362037	-0.214944	-1.499955	0.312604	-0.214897	-1.498435	0.312470	-0.306856	-1.535507	0.186836	-0.188989	-1.532178	0.172702	-0.300829	-1.489702	0.117833	-0.242228	-1.544995	0.364449	-0.269783	-1.284766	0.838364	-0.532582	-1.240161	0.854805	-0.544233	-1.272748	0.794443	-0.538141	-1.227492	0.812082	-0.553237	-1.142439	0.492115	-0.509414	-1.136975	0.483487	-0.398253	-1.252128	0.316724	-0.533218	-1.198104	0.298931	-0.525666	-1.261673	0.266326	-0.523110	-1.209623	0.260743	-0.515639	-1.301793	0.098056	-0.489431	-1.286728	0.098840	-0.398519	-1.198449	0.038910	-0.515878	-1.170632	0.035956	-0.399290	-1.107079	0.051259	-0.453987	-1.368006	0.067601	-0.435566	-1.062327	1.405546	-0.178381	-1.080323	1.428346	-0.513284	
13	0.0600	-1.164590	0.942536	-0.234326	-1.182448	0.965827	-0.484047	-1.358682	1.011220	-0.299217	-1.360034	1.015399	-0.389658	-1.206999	0.799492	-0.162575	-1.152888	0.810118	-0.173771	-1.191281	0.748525	-0.166067	-1.136150	0.760938	-0.178497	-1.095282	0.469656	-0.226625	-1.103593	0.485252	-0.353852	-1.249583	0.421133	-0.189311	-1.221823	0.382408	-0.211996	-1.295294	0.400644	-0.196368	-1.270740	0.361929	-0.215126	-1.472886	0.310440	-0.213805	-1.472197	0.310461	-0.305808	-1.504872	0.184189	-0.187489	-1.502359	0.169945	-0.299274	-1.457754	0.116466	-0.241283	-1.519915	0.361106	-0.268269	-1.272181	0.836320	-0.531292	-1.227743	0.852509	-0.543670	-1.260717	0.792520	-0.536786	-1.215527	0.809720	-0.552349	-1.133984	0.489074	-0.509568	-1.127311	0.480133	-0.398920	-1.246533	0.315693	-0.532942	-1.192879	0.296783	-0.525498	-1.257096	0.265523	-0.522754	-1.205193	0.258846	-0.515394	-1.301340	0.098149	-0.488900	-1.286317	0.098546	-0.397993	-1.198455	0.038502	-0.516002	-1.170464	0.035129	-0.399088	-1.106955	0.049789	-0.453673	-1.368225	0.067671	-0.435268	-1.048728	1.403387	-0.177077	-1.063419	1.425869	-0.512715	
14	0.0650	-1.149530	0.940790	-0.233702	-1.167574	0.963796	-0.484098	-1.343936	1.008977	-0.298257	-1.345400	1.013365	-0.388700	-1.189378	0.798607	-0.161983	-1.135390	0.810403	-0.173180	-1.172574	0.747976	-0.165642	-1.117592	0.761579	-0.178040	-1.069580	0.471843	-0.227613	-1.079243	0.487828	-0.354744	-1.222816	0.421205	-0.189306	-1.194748	0.382926	-0.212480	-1.268390	0.400235	-0.196058	-1.243472	0.361884	-0.215304	-1.445283	0.307858	-0.212767	-1.445371	0.307935	-0.304813	-1.473398	0.181206	-0.185977	-1.471604	0.166752	-0.297691	-1.424815	0.114896	-0.240270	-1.494347	0.357122	-0.266862	-1.259376	0.834460	-0.529968	-1.215077	0.850333	-0.543054	-1.248556	0.790797	-0.535407	-1.203407	0.807485	-0.551402	-1.125984	0.486163	-0.509674	-1.118176	0.476854	-0.399460	-1.241327	0.314819	-0.532613	-1.188046	0.294834	-0.525323	-1.252852	0.264879	-0.522359	-1.201107	0.257151	-0.515157	-1.300947	0.098358	-0.488412	-1.285949	0.098391	-0.397511	-1.198513	0.038130	-0.516094	-1.170371	0.034402	-0.398921	-1.106885	0.048573	-0.453400	-1.368476	0.067862	-0.434999	-1.035062	1.401539	-0.175662	-1.046254	1.423722	-0.511959	
15	0.0700	-1.134172	0.939332	-0.233048	-1.152354	0.961912	-0.484087	-1.328841	1.007043	-0.297359	-1.330370	1.011615	-0.387796	-1.171597	0.798107	-0.161384	-1.117749	0.811042	-0.172572	-1.153745	0.747817	-0.165223	-1.098926	0.762573	-0.177588	-1.043828	0.474450	-0.228591	-1.054881	0.490761	-0.355624	-1.195925	0.421399	-0.189383	-1.167444	0.383609	-0.212957	-1.241279	0.399833	-0.195813	-1.215894	0.361897	-0.215472	-1.417156	0.304847	-0.211789	-1.417960	0.304880	-0.303879	-1.441098	0.177898	-0.184463	-1.439915	0.163136	-0.296093	-1.390905	0.113141	-0.239201	-1.468286	0.352482	-0.265571	-1.246332	0.832804	-0.528622	-1.202141	0.848292	-0.542389	-1.236244	0.789297	-0.534014	-1.191106	0.805393	-0.550400	-1.118440	0.483422	-0.509723	-1.109595	0.473697	-0.399854	-1.236505	0.314136	-0.532229	-1.183597	0.293125	-0.525138	-1.248934	0.264424	-0.521924	-1.197356	0.255696	-0.514925	-1.300589	0.098706	-0.487972	-1.285600	0.098394	-0.397078	-1.198621	0.037790	-0.516152	-1.170350	0.033770	-0.398784	-1.106865	0.047603	-0.453163	-1.368733	0.068212	-0.434766	-1.021337	1.400029	-0.174134	-1.028846	1.421939	-0.511004	
16	0.0750	-1.118518	0.938183	-0.232363	-1.136784	0.960191	-0.484002	-1.313398	1.005433	-0.296526	-1.314942	1.010167	-0.386953	-1.153661	0.798004	-0.160776	-1.099973	0.812044	-0.171951	-1.134807	0.748058	-0.164809	-1.080166	0.763923	-0.177143	-1.018089	0.477465	-0.229546	-1.030559	0.494033	-0.356480	-1.168961	0.421703	-0.189535	-1.139960	0.384448	-0.213417	-1.214006	0.399425	-0.195628	-1.188052	0.361961	-0.215624	-1.388521	0.301405	-0.210876	-1.389976	0.301296	-0.303010	-1.407996	0.174281	-0.182963	-1.407311	0.159120	-0.294494	-1.356060	0.111229	-0.238089	-1.441732	0.347177	-0.264399	-1.233031	0.831372	-0.527269	-1.188914	0.846406	-0.541677	-1.223760	0.788037	-0.532622	-1.178603	0.803463	-0.549344	-1.111344	0.480894	-0.509707	-1.101578	0.470713	-0.400085	-1.232055	0.313680	-0.531791	-1.179518	0.291693	-0.524939	-1.245325	0.264190	-0.521450	-1.193922	0.254517	-0.514697	-1.300239	0.099214	-0.487584	-1.285239	0.098574	-0.396702	-1.198770	0.037479	-0.516175	-1.170397	0.033225	-0.398674	-1.106889	0.046864	-0.452959	-1.368964	0.068763	-0.434574	-1.007561	1.398878	-0.172490	-1.011219	1.420545	-0.509842	
17	0.0800	-1.102574	0.937361	-0.231647	-1.120867	0.958648	-0.483836	-1.297612	1.004160	-0.295763	-1.299120	1.009031	-0.386174	-1.135583	0.798305	-0.160158	-1.082071	0.813410	-0.171323	-1.115775	0.748704	-0.164398	-1.061325	0.765631	-0.176710	-0.992432	0.480867	-0.230464	-1.006332	0.497616	-0.357295	-1.141979	0.422100	-0.189755	-1.112353	0.385431	-0.213852	-1.186619	0.398997	-0.195498	-1.159996	0.362067	-0.215756	-1.359400	0.297534	-0.210032	-1.361436	0.297190	-0.302210	-1.374130	0.170377	-0.181491	-1.373823	0.154738	-0.292912	-1.320332	0.109191	-0.236950	-1.414690	0.341211	-0.263351	-1.219458	0.830181	-0.525924	-1.175378	0.844692	-0.540922	-1.211083	0.787037	-0.531242	-1.165875	0.801714	-0.548242	-1.104678	0.478620	-0.509619	-1.094124	0.467952	-0.400138	-1.227953	0.313485	-0.531300	-1.175782	0.290578	-0.524726	-1.241998	0.264209	-0.520939	-1.190779	0.253647	-0.514474	-1.299861	0.099905	-0.487255	-1.284831	0.098950	-0.396389	-1.198953	0.037193	-0.516163	-1.170507	0.032759	-0.398589	-1.106951	0.046340	-0.452781	-1.369130	0.069557	-0.434431	-0.993743	1.398103	-0.170732	-0.993401	1.419565	-0.508466	
18	0.0850	-1.086349	0.936878	-0.230899	-1.104608	0.957301	-0.483580	-1.281494	1.003233	-0.295069	-1.282913	1.008218	-0.385463	-1.117372	0.799012	-0.159530	-1.064055	0.815136	-0.170694	-1.096666	0.749751	-0.163986	-1.042419	0.767689	-0.176293	-0.966928	0.484625	-0.231332	-0.982257	0.501476	-0.358056	-1.115038	0.422571	-0.190030	-1.084683	0.386542	-0.214253	-1.159169	0.398534	-0.195416	-1.131781	0.362204	-0.215861	-1.329822	0.293242	-0.209259	-1.332367	0.292577	-0.301483	-1.339546	0.166217	-0.180062	-1.339497	0.150029	-0.291366	-1.283787	0.107063	-0.235804	-1.387169	0.334597	-0.262426	-1.205599	0.829250	-0.524601	-1.161517	0.843167	-0.540128	-1.198193	0.786313	-0.529891	-1.152898	0.800162	-0.547098	-1.098412	0.476643	-0.509452	-1.087221	0.465468	-0.400000	-1.224167	0.313585	-0.530760	-1.172355	0.289817	-0.524498	-1.238920	0.264513	-0.520394	-1.187890	0.253123	-0.514256	-1.299417	0.100799	-0.486989	-1.284338	0.099542	-0.396146	-1.199159	0.036931	-0.516116	-1.170670	0.032367	-0.398524	-1.107043	0.046006	-0.452626	-1.369189	0.070635	-0.434342	-0.979892	1.397718	-0.168863	-0.975424	1.419016	-0.506873	
19	0.0900	-1.069858	0.936741	-0.230118	-1.088016	0.956161	-0.483227	-1.265055	1.002658	-0.294445	-1.266335	1.007732	-0.384819	-1.099042	0.800119	-0.158888	-1.045937	0.817214	-0.170070	-1.077497	0.751191	-0.163571	-1.023465	0.770087	-0.175895	-0.941648	0.488703	-0.232135	-0.958391	0.505574	-0.358747	-1.088193	0.423092	-0.190347	-1.057013	0.387764	-0.214611	-1.131708	0.398019	-0.195373	-1.103466	0.362362	-0.215935	-1.299820	0.288544	-0.208559	-1.302801	0.287481	-0.300831	-1.304303	0.161836	-0.178694	-1.304389	0.145045	-0.289874	-1.246504	0.104887	-0.234671	-1.359182	0.327356	-0.261622	-1.191445	0.828593	-0.523317	-1.147321	0.841848	-0.539300	-1.185070	0.785879	-0.528582	-1.139655	0.798826	-0.545918	-1.092507	0.475006	-0.509203	-1.080840	0.463312	-0.399664	-1.220655	0.314014	-0.530174	-1.169190	0.289445	-0.524253	-1.236049	0.265131	-0.519821	-1.185210	0.252975	-0.514043	-1.298867	0.101919	-0.486793	-1.283716	0.100366	-0.395981	-1.199374	0.036691	-0.516035	-1.170875	0.032042	-0.398476	-1.107154	0.045837	-0.452487	-1.369094	0.072041	-0.434313	-0.966013	1.397731	-0.166887	-0.957320	1.418911	-0.505062	
20	0.0950	-1.053115	0.936953	-0.229305	-1.071104	0.955242	-0.482773	-1.248313	1.002435	-0.293889	-1.249403	1.007576	-0.384241	-1.080606	0.801616	-0.158233	-1.027729	0.819626	-0.169457	-1.058285	0.753010	-0.163149	-1.004478	0.772804	-0.175519	-0.916664	0.493056	-0.232861	-0.934788	0.509863	-0.359353	-1.061499	0.423638	-0.190691	-1.029406	0.389076	-0.214917	-1.104287	0.397436	-0.195358	-1.075109	0.362526	-0.215972	-1.269431	0.283461	-0.207933	-1.272775	0.281935	-0.300255	-1.268463	0.157274	-0.177401	-1.268564	0.139839	-0.288455	-1.208573	0.102706	-0.233571	-1.330748	0.319519	-0.260935	-1.176988	0.828224	-0.522084	-1.132780	0.840751	-0.538444	-1.171698	0.785748	-0.527328	-1.126128	0.797723	-0.544708	-1.086911	0.473746	-0.508870	-1.074942	0.461532	-0.399124	-1.217367	0.314802	-0.529546	-1.166235	0.289494	-0.523993	-1.233333	0.266090	-0.519223	-1.182689	0.253232	-0.513838	-1.298163	0.103284	-0.486671	-1.282919	0.101439	-0.395900	-1.199584	0.036476	-0.515925	-1.171106	0.031778	-0.398443	-1.107276	0.045804	-0.452360	-1.368794	0.073816	-0.434351	-0.952111	1.398146	-0.164809	-0.939124	1.419258	-0.503034	
21	0.1000	-1.036138	0.937511	-0.228459	-1.053890	0.954553	-0.482213	-1.231284	1.002563	-0.293395	-1.232137	1.007748	-0.383728	-1.062078	0.803487	-0.157563	-1.009443	0.822354	-0.168859	-1.039049	0.755188	-0.162717	-0.985476	0.775819	-0.175167	-0.892043	0.497635	-0.233498	-0.911501	0.514294	-0.359862	-1.035009	0.424183	-0.191046	-1.001925	0.390455	-0.215165	-1.076955	0.396768	-0.195360	-1.046772	0.362686	-0.215968	-1.238692	0.278021	-0.207378	-1.242329	0.275978	-0.299752	-1.232097	0.152573	-0.176197	-1.232097	0.134474	-0.287127	-1.170089	0.100568	-0.232526	-1.301884	0.311128	-0.260357	-1.162224	0.828156	-0.520916	-1.117893	0.839891	-0.537564	-1.158061	0.785929	-0.526140	-1.112304	0.796867	-0.543475	-1.081567	0.472900	-0.508451	-1.069472	0.460174	-0.398382	-1.214246	0.315974	-0.528884	-1.163430	0.289990	-0.523720	-1.230717	0.267413	-0.518607	-1.180268	0.253918	-0.513644	-1.297260	0.104913	-0.486628	-1.281899	0.102775	-0.395911	-1.199772	0.036287	-0.515787	-1.171348	0.031571	-0.398422	-1.107396	0.045875	-0.452244	-1.368237	0.076000	-0.434460	-0.938189	1.398959	-0.162636	-0.920869	1.420057	-0.500794	
22	0.1050	-1.018945	0.938406	-0.227582	-1.036392	0.954102	-0.481546	-1.213990	1.003035	-0.292959	-1.214561	1.008246	-0.383273	-1.043473	0.805708	-0.156877	-0.991092	0.825370	-0.168282	-1.019804	0.757699	-0.162271	-0.966473	0.779101	-0.174839	-0.867848	0.502387	-0.234034	-0.888579	0.518814	-0.360260	-1.008768	0.424697	-0.191395	-0.974626	0.391878	-0.215348	-1.049757	0.395998	-0.195368	-1.018510	0.362827	-0.215920	-1.207645	0.272255	-0.206893	-1.211509	0.269655	-0.299321	-1.195277	0.147782	-0.175098	-1.195067	0.129015	-0.285908	-1.131156	0.098519	-0.231558	-1.272613	0.302229	-0.259880	-1.147153	0.828395	-0.519824	-1.102659	0.839282	-0.536665	-1.144147	0.786431	-0.525030	-1.098170	0.796272	-0.542225	-1.076408	0.472499	-0.507950	-1.064364	0.459277	-0.397442	-1.211226	0.317554	-0.528193	-1.160708	0.290956	-0.523437	-1.228139	0.269121	-0.517981	-1.177882	0.255052	-0.513464	-1.296109	0.106822	-0.486669	-1.280606	0.104387	-0.396018	-1.199921	0.036130	-0.515628	-1.171580	0.031421	-0.398413	-1.107505	0.046019	-0.452134	-1.367366	0.078627	-0.434645	-0.924247	1.400162	-0.160378	-0.902589	1.421302	-0.498349	
23	0.1100	-1.001557	0.939624	-0.226674	-1.018633	0.953896	-0.480770	-1.196450	1.003842	-0.292572	-1.196700	1.009060	-0.382869	-1.024805	0.808254	-0.156173	-0.972688	0.828644	-0.167729	-1.000569	0.760512	-0.161807	-0.947483	0.782618	-0.174536	-0.844136	0.507253	-0.234460	-0.866064	0.523367	-0.360538	-0.982816	0.425154	-0.191721	-0.947565	0.393319	-0.215459	-1.022735	0.395113	-0.195369	-0.990379	0.362936	-0.215825	-1.176330	0.266198	-0.206474	-1.180360	0.263016	-0.298959	-1.158081	0.142949	-0.174113	-1.157560	0.123530	-0.284813	-1.091880	0.096608	-0.230687	-1.242959	0.292876	-0.259492	-1.131777	0.828950	-0.518815	-1.087083	0.838934	-0.535750	-1.129945	0.787256	-0.524004	-1.083722	0.795951	-0.540964	-1.071361	0.472566	-0.507370	-1.059540	0.458872	-0.396313	-1.208240	0.319558	-0.527481	-1.157998	0.292406	-0.523147	-1.225531	0.271228	-0.517351	-1.175465	0.256646	-0.513303	-1.294662	0.109026	-0.486799	-1.278991	0.106285	-0.396228	-1.200012	0.036014	-0.515453	-1.171781	0.031329	-0.398415	-1.107590	0.046202	-0.452031	-1.366125	0.081730	-0.434910	-0.910283	1.401742	-0.158042	-0.884313	1.422982	-0.495707	
24	0.1150	-0.983993	0.941146	-0.225736	-1.000636	0.953938	-0.479888	-1.178686	1.004971	-0.292224	-1.178580	1.010181	-0.382508	-1.006088	0.811090	-0.155450	-0.954241	0.832140	-0.167201	-0.981358	0.763590	-0.161321	-0.928521	0.786330	-0.174255	-0.820954	0.512174	-0.234769	-0.843995	0.527899	-0.360687	-0.957188	0.425526	-0.192008	-0.920791	0.394753	-0.215495	-0.995925	0.394097	-0.195350	-0.962429	0.363003	-0.215682	-1.144790	0.259890	-0.206115	-1.148930	0.256117	-0.298660	-1.120586	0.138123	-0.173254	-1.119664	0.118085	-0.283854	-1.052368	0.094879	-0.229931	-1.212948	0.283128	-0.259181	-1.116103	0.829824	-0.517896	-1.071176	0.838857	-0.534823	-1.115450	0.788405	-0.523069	-1.068956	0.795913	-0.539698	-1.066348	0.473119	-0.506717	-1.054912	0.458984	-0.395010	-1.205213	0.321996	-0.526756	-1.155225	0.294349	-0.522857	-1.222826	0.273743	-0.516727	-1.172945	0.258710	-0.513167	-1.292871	0.111537	-0.487019	-1.277005	0.108477	-0.396545	-1.200025	0.035949	-0.515267	-1.171928	0.031298	-0.398430	-1.107639	0.046395	-0.451936	-1.364460	0.085333	-0.435256	-0.896291	1.403681	-0.155640	-0.866069	1.425079	-0.492880	
25	0.1200	-0.966273	0.942947	-0.224771	-0.982426	0.954227	-0.478902	-1.160721	1.006405	-0.291904	-1.160230	1.011594	-0.382180	-0.987335	0.814180	-0.154708	-0.935763	0.835820	-0.166701	-0.962185	0.766896	-0.160809	-0.909599	0.790198	-0.173994	-0.798342	0.517090	-0.234955	-0.822402	0.532354	-0.360701	-0.931910	0.425786	-0.192238	-0.894346	0.396158	-0.215454	-0.969357	0.392941	-0.195299	-0.934705	0.363014	-0.215488	-1.113067	0.253374	-0.205811	-1.117270	0.249016	-0.298418	-1.082871	0.133352	-0.172526	-1.081470	0.112749	-0.283043	-1.012729	0.093378	-0.229305	-1.182608	0.273050	-0.258935	-1.100140	0.831016	-0.517069	-1.054951	0.839058	-0.533887	-1.100659	0.789877	-0.522226	-1.053875	0.796164	-0.538430	-1.061288	0.474169	-0.506001	-1.050385	0.459624	-0.393551	-1.202071	0.324873	-0.526026	-1.152314	0.296786	-0.522572	-1.219953	0.276671	-0.516114	-1.170251	0.261242	-0.513061	-1.290692	0.114362	-0.487334	-1.274603	0.110966	-0.396972	-1.199939	0.035950	-0.515079	-1.171996	0.031335	-0.398460	-1.107641	0.046567	-0.451850	-1.362317	0.089456	-0.435686	-0.882265	1.405953	-0.153180	-0.847881	1.427569	-0.489881	
26	0.1250	-0.948416	0.944998	-0.223779	-0.964029	0.954763	-0.477818	-1.142576	1.008125	-0.291600	-1.141677	1.013283	-0.381871	-0.968560	0.817484	-0.153945	-0.917264	0.839641	-0.166227	-0.943066	0.770385	-0.160269	-0.890726	0.794175	-0.173749	-0.776330	0.521943	-0.235016	-0.801308	0.536681	-0.360576	-0.907001	0.425910	-0.192398	-0.868265	0.397509	-0.215333	-0.943055	0.391635	-0.195205	-0.907247	0.362961	-0.215246	-1.081203	0.246694	-0.205554	-1.085429	0.241771	-0.298227	-1.045015	0.128685	-0.171934	-1.043070	0.107586	-0.282386	-0.973070	0.092142	-0.228821	-1.151969	0.262709	-0.258738	-1.083903	0.832524	-0.516335	-1.038426	0.839540	-0.532944	-1.085573	0.791665	-0.521475	-1.038484	0.796710	-0.537165	-1.056098	0.475715	-0.505231	-1.045858	0.460798	-0.391958	-1.198738	0.328188	-0.525298	-1.149188	0.299710	-0.522297	-1.216842	0.280009	-0.515523	-1.167312	0.264236	-0.512990	-1.288083	0.117508	-0.487743	-1.271743	0.113755	-0.397511	-1.199733	0.036036	-0.514896	-1.171959	0.031450	-0.398509	-1.107586	0.046692	-0.451778	-1.359645	0.094111	-0.436197	-0.868194	1.408530	-0.150674	-0.829770	1.430423	-0.486724	
27	0.1300	-0.930442	0.947268	-0.222763	-0.945472	0.955541	-0.476642	-1.124272	1.010108	-0.291299	-1.122949	1.015230	-0.381570	-0.949775	0.820959	-0.153161	-0.898751	0.843558	-0.165779	-0.924011	0.774013	-0.159696	-0.871913	0.798217	-0.173514	-0.754935	0.526673	-0.234949	-0.780731	0.540828	-0.360310	-0.882473	0.425879	-0.192474	-0.842579	0.398784	-0.215133	-0.917040	0.390173	-0.195056	-0.880090	0.362835	-0.214955	-1.049240	0.239896	-0.205338	-1.053458	0.234443	-0.298079	-1.007097	0.124165	-0.171479	-1.004554	0.102655	-0.281886	-0.933493	0.091208	-0.228487	-1.121065	0.252173	-0.258579	-1.067406	0.834341	-0.515690	-1.021624	0.840305	-0.531994	-1.070196	0.793760	-0.520814	-1.022794	0.797552	-0.535905	-1.050694	0.477750	-0.504419	-1.041224	0.462495	-0.390257	-1.195137	0.331929	-0.524580	-1.145773	0.303107	-0.522039	-1.213423	0.283749	-0.514959	-1.164059	0.267679	-0.512961	-1.285006	0.120977	-0.488246	-1.268386	0.116841	-0.398162	-1.199386	0.036226	-0.514726	-1.171789	0.031656	-0.398581	-1.107462	0.046747	-0.451727	-1.356398	0.099303	-0.436789	-0.854066	1.411379	-0.148131	-0.811751	1.433605	-0.483426	
28	0.1350	-0.912368	0.949722	-0.221727	-0.926782	0.956552	-0.475382	-1.105830	1.012330	-0.290986	-1.104073	1.017414	-0.381262	-0.930992	0.824558	-0.152355	-0.880233	0.847525	-0.165352	-0.905031	0.777731	-0.159088	-0.853167	0.802274	-0.173283	-0.734165	0.531228	-0.234756	-0.760679	0.544751	-0.359904	-0.858331	0.425673	-0.192454	-0.817309	0.399966	-0.214856	-0.891325	0.388552	-0.194845	-0.853262	0.362630	-0.214616	-1.017222	0.233028	-0.205155	-1.021408	0.227092	-0.297968	-0.969195	0.119834	-0.171159	-0.966015	0.098010	-0.281543	-0.894100	0.090603	-0.228307	-1.089932	0.241514	-0.258444	-1.050669	0.836458	-0.515128	-1.004569	0.841350	-0.531038	-1.054536	0.796148	-0.520235	-1.006820	0.798685	-0.534654	-1.044996	0.480256	-0.503578	-1.036378	0.464698	-0.388477	-1.191198	0.336083	-0.523879	-1.141997	0.306953	-0.521804	-1.209631	0.287875	-0.514429	-1.160427	0.271550	-0.512979	-1.281429	0.124769	-0.488842	-1.264501	0.120219	-0.398923	-1.198878	0.036547	-0.514577	-1.171460	0.031969	-0.398683	-1.107259	0.046715	-0.451703	-1.352537	0.105031	-0.437457	-0.839868	1.414464	-0.145560	-0.793836	1.437077	-0.480004	
29	0.1400	-0.894213	0.952323	-0.220674	-0.907984	0.957788	-0.474048	-1.087269	1.014764	-0.290649	-1.085077	1.019810	-0.380933	-0.912222	0.828234	-0.151527	-0.861719	0.851494	-0.164943	-0.886138	0.781493	-0.158442	-0.834496	0.806297	-0.173048	-0.714020	0.535556	-0.234441	-0.741155	0.548407	-0.359362	-0.834576	0.425279	-0.192331	-0.792470	0.401035	-0.214505	-0.865919	0.386771	-0.194563	-0.826787	0.362339	-0.214233	-0.985193	0.226134	-0.204997	-0.989331	0.219774	-0.297884	-0.931386	0.115729	-0.170968	-0.927541	0.093700	-0.281352	-0.854987	0.090350	-0.228280	-1.058610	0.230802	-0.258323	-1.033713	0.838861	-0.514640	-0.987290	0.842671	-0.530075	-1.038606	0.798813	-0.519731	-0.990579	0.800105	-0.533413	-1.038927	0.483208	-0.502722	-1.031214	0.467376	-0.386648	-1.186849	0.340624	-0.523202	-1.137795	0.311220	-0.521599	-1.205406	0.292368	-0.513940	-1.156356	0.275823	-0.513048	-1.277326	0.128879	-0.489526	-1.260061	0.123881	-0.399791	-1.198190	0.037024	-0.514457	-1.170946	0.032407	-0.398821	-1.106968	0.046583	-0.451717	-1.348025	0.111283	-0.438194	-0.825586	1.417743	-0.142972	-0.776033	1.440798	-0.476475	
30	0.1450	-0.875991	0.955031	-0.219607	-0.889106	0.959235	-0.472649	-1.068609	1.017380	-0.290273	-1.065987	1.022394	-0.380569	-0.893477	0.831940	-0.150677	-0.843216	0.855418	-0.164546	-0.867340	0.785249	-0.157756	-0.815905	0.810240	-0.172802	-0.694486	0.539612	-0.234007	-0.722154	0.551762	-0.358688	-0.811203	0.424688	-0.192097	-0.768073	0.401979	-0.214082	-0.840831	0.384835	-0.194205	-0.800685	0.361960	-0.213808	-0.953200	0.219260	-0.204856	-0.957279	0.212545	-0.297822	-0.893749	0.111881	-0.170899	-0.889223	0.089764	-0.281305	-0.816245	0.090463	-0.228399	-1.027143	0.220104	-0.258204	-1.016561	0.841533	-0.514217	-0.969814	0.844257	-0.529103	-1.022420	0.801735	-0.519290	-0.974093	0.801801	-0.532182	-1.032412	0.486568	-0.501865	-1.025630	0.470486	-0.384801	-1.182028	0.345524	-0.522553	-1.133105	0.315870	-0.521429	-1.200690	0.297202	-0.513496	-1.151790	0.280463	-0.513172	-1.272677	0.133301	-0.490294	-1.255048	0.127818	-0.400759	-1.197302	0.037689	-0.514374	-1.170221	0.032990	-0.399002	-1.106580	0.046346	-0.451777	-1.342837	0.118042	-0.438994	-0.811205	1.421175	-0.140373	-0.758346	1.444721	-0.472859	
31	0.1500	-0.857717	0.957808	-0.218530	-0.870171	0.960879	-0.471197	-1.049868	1.020148	-0.289846	-1.046827	1.025138	-0.380157	-0.874768	0.835627	-0.149804	-0.824730	0.859250	-0.164154	-0.848645	0.788952	-0.157028	-0.797400	0.814054	-0.172536	-0.675542	0.543356	-0.233462	-0.703664	0.554786	-0.357890	-0.788204	0.423894	-0.191750	-0.744123	0.402784	-0.213594	-0.816062	0.382748	-0.193766	-0.774969	0.361490	-0.213344	-0.921291	0.212450	-0.204727	-0.925306	0.205453	-0.297773	-0.856361	0.108314	-0.170939	-0.851147	0.086230	-0.281391	-0.777963	0.090948	-0.228654	-0.995579	0.209487	-0.258080	-0.999239	0.844453	-0.513843	-0.952175	0.846097	-0.528121	-1.005997	0.804890	-0.518900	-0.957386	0.803759	-0.530962	-1.025385	0.490295	-0.501023	-1.019531	0.473979	-0.382968	-1.176676	0.350749	-0.521938	-1.127874	0.320860	-0.521299	-1.195436	0.302345	-0.513100	-1.146682	0.285434	-0.513353	-1.267469	0.138027	-0.491139	-1.249451	0.132014	-0.401820	-1.196198	0.038573	-0.514334	-1.169260	0.033741	-0.399234	-1.106088	0.046002	-0.451897	-1.336954	0.125285	-0.439845	-0.796711	1.424714	-0.137772	-0.740774	1.448799	-0.469173	
32	0.1550	-0.839407	0.960614	-0.217448	-0.851205	0.962702	-0.469703	-1.031064	1.023034	-0.289354	-1.027622	1.028014	-0.379684	-0.856105	0.839247	-0.148908	-0.806269	0.862944	-0.163760	-0.830060	0.792554	-0.156257	-0.778984	0.817695	-0.172240	-0.657159	0.546755	-0.232814	-0.685669	0.557454	-0.356976	-0.765569	0.422897	-0.191288	-0.720619	0.403441	-0.213045	-0.791617	0.380520	-0.193247	-0.749652	0.360929	-0.212845	-0.889517	0.205743	-0.204601	-0.893467	0.198545	-0.297732	-0.819300	0.105049	-0.171076	-0.813400	0.083120	-0.281593	-0.740223	0.091801	-0.229029	-0.963974	0.199015	-0.257946	-0.981771	0.847597	-0.513507	-0.934404	0.848175	-0.527126	-0.989355	0.808249	-0.518546	-0.940483	0.805961	-0.529752	-1.017785	0.494335	-0.500208	-1.012827	0.477793	-0.381182	-1.170741	0.356257	-0.521361	-1.122057	0.326142	-0.521212	-1.189600	0.307764	-0.512755	-1.140994	0.290692	-0.513592	-1.261696	0.143045	-0.492050	-1.243265	0.136456	-0.402964	-1.194861	0.039711	-0.514344	-1.168042	0.034684	-0.399525	-1.105485	0.045562	-0.452089	-1.330364	0.132980	-0.440735	-0.782089	1.428315	-0.135173	-0.723316	1.452983	-0.465437	
33	0.1600	-0.821073	0.963411	-0.216365	-0.832230	0.964684	-0.468178	-1.012215	1.026005	-0.288788	-1.008394	1.030991	-0.379137	-0.837497	0.842755	-0.147990	-0.787839	0.866456	-0.163355	-0.811592	0.796012	-0.155442	-0.760661	0.821119	-0.171907	-0.639301	0.549783	-0.232072	-0.668145	0.559749	-0.355955	-0.743288	0.421697	-0.190713	-0.697558	0.403943	-0.212440	-0.767497	0.378161	-0.192646	-0.724744	0.360277	-0.212313	-0.857931	0.199176	-0.204474	-0.861820	0.191861	-0.297693	-0.782645	0.102094	-0.171294	-0.776067	0.080443	-0.281895	-0.703105	0.093011	-0.229505	-0.932385	0.188746	-0.257798	-0.964183	0.850938	-0.513192	-0.916533	0.850470	-0.526116	-0.972517	0.811782	-0.518213	-0.923412	0.808384	-0.528552	-1.009560	0.498629	-0.499435	-1.005441	0.481859	-0.379472	-1.164181	0.362006	-0.520823	-1.115616	0.331664	-0.521172	-1.183148	0.313421	-0.512461	-1.134693	0.296190	-0.513889	-1.255360	0.148344	-0.493017	-1.236495	0.141127	-0.404179	-1.193278	0.041137	-0.514409	-1.166545	0.035845	-0.399883	-1.104764	0.045041	-0.452364	-1.323066	0.141092	-0.441652	-0.767327	1.431931	-0.132582	-0.705965	1.457223	-0.461667	
34	0.1650	-0.802728	0.966163	-0.215285	-0.813268	0.966804	-0.466633	-0.993338	1.029026	-0.288139	-0.989167	1.034039	-0.378508	-0.818956	0.846107	-0.147050	-0.769449	0.869747	-0.162931	-0.793246	0.799284	-0.154581	-0.742435	0.824287	-0.171527	-0.621925	0.552417	-0.231246	-0.651065	0.561661	-0.354840	-0.721348	0.420302	-0.190031	-0.674936	0.404285	-0.211787	-0.743705	0.375684	-0.191966	-0.700250	0.359536	-0.211752	-0.826593	0.192783	-0.204341	-0.830421	0.185433	-0.297651	-0.746476	0.099455	-0.171576	-0.739232	0.078199	-0.282277	-0.666682	0.094556	-0.230060	-0.900878	0.178736	-0.257636	-0.946502	0.854443	-0.512884	-0.898592	0.852958	-0.525088	-0.955507	0.815455	-0.517887	-0.906200	0.811003	-0.527362	-1.000666	0.503115	-0.498716	-0.997304	0.486104	-0.377866	-1.156961	0.367949	-0.520327	-1.108523	0.337370	-0.521181	-1.176055	0.319275	-0.512218	-1.127757	0.301881	-0.514242	-1.248469	0.153909	-0.494027	-1.229152	0.146008	-0.405451	-1.191436	0.042889	-0.514532	-1.164753	0.037248	-0.400313	-1.103919	0.044460	-0.452735	-1.315065	0.149580	-0.442578	-0.752415	1.435514	-0.130002	-0.688715	1.461469	-0.457882	
35	0.1700	-0.784384	0.968834	-0.214212	-0.794339	0.969039	-0.465079	-0.974449	1.032059	-0.287398	-0.969961	1.037124	-0.377787	-0.800489	0.849262	-0.146087	-0.751104	0.872777	-0.162480	-0.775028	0.802329	-0.153676	-0.724308	0.827164	-0.171094	-0.604984	0.554646	-0.230346	-0.634396	0.563185	-0.353642	-0.699740	0.418721	-0.189248	-0.652745	0.404464	-0.211090	-0.720245	0.373104	-0.191212	-0.676179	0.358706	-0.211166	-0.795562	0.186592	-0.204199	-0.799332	0.179289	-0.297602	-0.710873	0.097127	-0.171904	-0.702978	0.076377	-0.282717	-0.631026	0.096405	-0.230667	-0.869523	0.169033	-0.257461	-0.928753	0.858078	-0.512566	-0.880611	0.855613	-0.524041	-0.938348	0.819230	-0.517551	-0.888874	0.813787	-0.526179	-0.991067	0.507722	-0.498064	-0.988360	0.490447	-0.376391	-1.149052	0.374036	-0.519873	-1.100758	0.343203	-0.521238	-1.168302	0.325285	-0.512024	-1.120173	0.307714	-0.514648	-1.241036	0.159726	-0.495066	-1.221254	0.151082	-0.406765	-1.189324	0.045000	-0.514717	-1.162649	0.038920	-0.400823	-1.102945	0.043852	-0.453214	-1.306375	0.158401	-0.443497	-0.737344	1.439018	-0.127436	-0.671557	1.465673	-0.454099	
36	0.1750	-0.766052	0.971392	-0.213151	-0.775461	0.971362	-0.463525	-0.955567	1.035069	-0.286560	-0.950795	1.040212	-0.376968	-0.782108	0.852182	-0.145102	-0.732812	0.875514	-0.161994	-0.756941	0.805115	-0.152727	-0.706283	0.829718	-0.170599	-0.588431	0.556460	-0.229383	-0.618103	0.564320	-0.352371	-0.678455	0.416966	-0.188374	-0.630977	0.404478	-0.210354	-0.697122	0.370435	-0.190390	-0.652537	0.357789	-0.210557	-0.764904	0.180627	-0.204046	-0.768615	0.173449	-0.297545	-0.675917	0.095098	-0.172260	-0.667388	0.074957	-0.283194	-0.596203	0.098519	-0.231300	-0.838398	0.159682	-0.257276	-0.910958	0.861805	-0.512226	-0.862618	0.858403	-0.522972	-0.921065	0.823068	-0.517193	-0.871462	0.816704	-0.525004	-0.980737	0.512378	-0.497488	-0.978567	0.494806	-0.375070	-1.140436	0.380217	-0.519462	-1.092312	0.349105	-0.521344	-1.159878	0.331408	-0.511875	-1.111933	0.313637	-0.515101	-1.233082	0.165782	-0.496118	-1.212826	0.156331	-0.408103	-1.186932	0.047505	-0.514962	-1.160221	0.040884	-0.401416	-1.101834	0.043252	-0.453810	-1.297016	0.167510	-0.444391	-0.722108	1.442397	-0.124885	-0.654481	1.469786	-0.450332	
37	0.1800	-0.747743	0.973808	-0.212105	-0.756652	0.973748	-0.461981	-0.936707	1.038018	-0.285622	-0.931691	1.043269	-0.376046	-0.763820	0.854832	-0.144095	-0.714580	0.877927	-0.161465	-0.738989	0.807608	-0.151734	-0.688362	0.831924	-0.170036	-0.572214	0.557859	-0.228368	-0.602145	0.565074	-0.351041	-0.657489	0.415050	-0.187420	-0.609625	0.404327	-0.209586	-0.674345	0.367692	-0.189509	-0.629331	0.356787	-0.209928	-0.734686	0.174908	-0.203879	-0.738336	0.167927	-0.297477	-0.641691	0.093350	-0.172625	-0.632542	0.073907	-0.283685	-0.562278	0.100852	-0.231932	-0.807582	0.150720	-0.257087	-0.893141	0.865585	-0.511850	-0.844637	0.861295	-0.521881	-0.903681	0.826925	-0.516799	-0.853987	0.819715	-0.523837	-0.969657	0.517010	-0.496997	-0.967892	0.499098	-0.373922	-1.131103	0.386443	-0.519093	-1.083181	0.355020	-0.521497	-1.150780	0.337602	-0.511767	-1.103041	0.319601	-0.515596	-1.224629	0.172060	-0.497166	-1.203895	0.161737	-0.409448	-1.184250	0.050435	-0.515269	-1.157459	0.043164	-0.402096	-1.100580	0.042704	-0.454534	-1.287016	0.176859	-0.445240	-0.706704	1.445607	-0.122350	-0.637478	1.473763	-0.446596	
38	0.1850	-0.729469	0.976053	-0.211076	-0.737927	0.976167	-0.460454	-0.917888	1.040869	-0.284583	-0.912665	1.046260	-0.375021	-0.745634	0.857184	-0.143067	-0.696417	0.879993	-0.160885	-0.721174	0.809782	-0.150698	-0.670547	0.833759	-0.169402	-0.556282	0.558845	-0.227309	-0.586481	0.565457	-0.349663	-0.636838	0.412989	-0.186398	-0.588681	0.404010	-0.208790	-0.651926	0.364891	-0.188576	-0.606568	0.355700	-0.209282	-0.704980	0.169448	-0.203700	-0.708561	0.162728	-0.297398	-0.608276	0.091858	-0.172984	-0.598522	0.073189	-0.284172	-0.529311	0.103347	-0.232536	-0.777161	0.142180	-0.256902	-0.875322	0.869372	-0.511428	-0.826691	0.864252	-0.520766	-0.886219	0.830757	-0.516358	-0.836472	0.822780	-0.522677	-0.957817	0.521543	-0.496600	-0.956320	0.503240	-0.372964	-1.121048	0.392664	-0.518764	-1.073370	0.360891	-0.521693	-1.141013	0.343827	-0.511696	-1.093504	0.325557	-0.516125	-1.215705	0.178548	-0.498192	-1.194494	0.167283	-0.410782	-1.181270	0.053820	-0.515635	-1.154353	0.045782	-0.402863	-1.099174	0.042256	-0.455390	-1.276408	0.186404	-0.446024	-0.691133	1.448605	-0.119831	-0.620537	1.477559	-0.442905	
39	0.1900	-0.711240	0.978105	-0.210066	-0.719299	0.978591	-0.458951	-0.899127	1.043585	-0.283443	-0.893736	1.049150	-0.373891	-0.727558	0.859210	-0.142018	-0.678330	0.881690	-0.160249	-0.703498	0.811614	-0.149622	-0.652839	0.835207	-0.168693	-0.540587	0.559426	-0.226218	-0.571068	0.565483	-0.348247	-0.616504	0.410797	-0.185322	-0.568139	0.403527	-0.207970	-0.629879	0.362044	-0.187602	-0.584258	0.354527	-0.208621	-0.675856	0.164255	-0.203509	-0.679357	0.157852	-0.297309	-0.575754	0.090589	-0.173320	-0.565407	0.072757	-0.284633	-0.497360	0.105945	-0.233086	-0.747226	0.134086	-0.256727	-0.857518	0.873124	-0.510949	-0.808798	0.867234	-0.519629	-0.868700	0.834517	-0.515861	-0.818938	0.825859	-0.521525	-0.945216	0.525903	-0.496301	-0.943844	0.507152	-0.372206	-1.110275	0.398834	-0.518474	-1.062892	0.366666	-0.521931	-1.130585	0.350043	-0.511655	-1.083337	0.331459	-0.516680	-1.206337	0.185230	-0.499180	-1.184658	0.172955	-0.412084	-1.177983	0.057686	-0.516055	-1.150898	0.048756	-0.403715	-1.097605	0.041959	-0.456384	-1.265227	0.196098	-0.446726	-0.675396	1.451352	-0.117325	-0.603650	1.481134	-0.439271	
40	0.1950	-0.693066	0.979943	-0.209078	-0.700781	0.980990	-0.457477	-0.880441	1.046131	-0.282207	-0.874920	1.051903	-0.372660	-0.709599	0.860890	-0.140948	-0.660326	0.883005	-0.159552	-0.685962	0.813088	-0.148507	-0.635242	0.836257	-0.167906	-0.525081	0.559616	-0.225102	-0.555861	0.565169	-0.346803	-0.596490	0.408490	-0.184207	-0.547995	0.402879	-0.207131	-0.608219	0.359165	-0.186598	-0.562412	0.353267	-0.207947	-0.647391	0.159334	-0.203309	-0.650796	0.153295	-0.297210	-0.544206	0.089508	-0.173620	-0.533274	0.072558	-0.285053	-0.466478	0.108579	-0.233559	-0.717867	0.126458	-0.256573	-0.839744	0.876792	-0.510407	-0.790973	0.870201	-0.518471	-0.851143	0.838160	-0.515303	-0.801401	0.828906	-0.520383	-0.931859	0.530019	-0.496106	-0.930471	0.510757	-0.371657	-1.098792	0.404908	-0.518220	-1.051763	0.372296	-0.522204	-1.119511	0.356215	-0.511638	-1.072560	0.337263	-0.517252	-1.196556	0.192095	-0.500110	-1.174422	0.178738	-0.413337	-1.174379	0.062051	-0.516523	-1.147088	0.052103	-0.404649	-1.095860	0.041869	-0.457516	-1.253512	0.205899	-0.447324	-0.659498	1.453811	-0.114832	-0.586807	1.484450	-0.435704	
41	0.2000	-0.674958	0.981551	-0.208110	-0.682382	0.983333	-0.456036	-0.861847	1.048470	-0.280880	-0.856232	1.054484	-0.371332	-0.691766	0.862207	-0.139859	-0.642414	0.883926	-0.158789	-0.668567	0.814188	-0.147356	-0.617757	0.836904	-0.167040	-0.509720	0.559427	-0.223970	-0.540814	0.564536	-0.345342	-0.576804	0.406082	-0.183066	-0.528246	0.402064	-0.206274	-0.586968	0.356265	-0.185575	-0.541039	0.351915	-0.207263	-0.619658	0.154683	-0.203102	-0.622946	0.149043	-0.297105	-0.513711	0.088572	-0.173872	-0.502199	0.072535	-0.285417	-0.436717	0.111181	-0.233935	-0.689179	0.119311	-0.256446	-0.822013	0.880329	-0.509797	-0.773226	0.873109	-0.517295	-0.833565	0.841636	-0.514679	-0.783874	0.831875	-0.519251	-0.917756	0.533825	-0.496017	-0.916217	0.513985	-0.371322	-1.086614	0.410844	-0.518001	-1.040005	0.377736	-0.522509	-1.107807	0.362308	-0.511640	-1.061194	0.342931	-0.517830	-1.186389	0.199130	-0.500966	-1.163821	0.184621	-0.414521	-1.170446	0.066931	-0.517033	-1.142916	0.055834	-0.405659	-1.093921	0.042040	-0.458784	-1.241302	0.215768	-0.447803	-0.643449	1.455948	-0.112349	-0.570001	1.487472	-0.432213	
42	0.2050	-0.656925	0.982914	-0.207162	-0.664110	0.985589	-0.454630	-0.843363	1.050571	-0.279469	-0.837688	1.056859	-0.369915	-0.674064	0.863150	-0.138750	-0.624601	0.884449	-0.157957	-0.651313	0.814906	-0.146171	-0.600385	0.837146	-0.166096	-0.494467	0.558879	-0.222828	-0.525886	0.563605	-0.343870	-0.557456	0.403586	-0.181915	-0.508890	0.401082	-0.205404	-0.566145	0.353351	-0.184544	-0.520153	0.350468	-0.206570	-0.592731	0.150298	-0.202891	-0.595878	0.145083	-0.296995	-0.484342	0.087738	-0.174068	-0.472255	0.072626	-0.285715	-0.408124	0.113679	-0.234199	-0.661255	0.112651	-0.256356	-0.804333	0.883688	-0.509118	-0.755564	0.875915	-0.516102	-0.815978	0.844899	-0.513989	-0.766367	0.834722	-0.518133	-0.902924	0.537258	-0.496036	-0.901107	0.516775	-0.371200	-1.073757	0.416607	-0.517815	-1.027642	0.382948	-0.522841	-1.095495	0.368293	-0.511654	-1.049263	0.348426	-0.518407	-1.175861	0.206322	-0.501732	-1.152886	0.190594	-0.415620	-1.166172	0.072333	-0.517576	-1.138377	0.059957	-0.406736	-1.091768	0.042528	-0.460181	-1.228636	0.225668	-0.448146	-0.627257	1.457733	-0.109874	-0.553227	1.490171	-0.428807	
43	0.2100	-0.638977	0.984022	-0.206231	-0.645972	0.987728	-0.453261	-0.825004	1.052401	-0.277982	-0.819300	1.058996	-0.368416	-0.656499	0.863709	-0.137622	-0.606896	0.884572	-0.157054	-0.634200	0.815238	-0.144957	-0.583129	0.836987	-0.165076	-0.479288	0.557988	-0.221682	-0.511031	0.562398	-0.342396	-0.538457	0.401014	-0.180766	-0.489927	0.399929	-0.204523	-0.545774	0.350431	-0.183517	-0.499768	0.348919	-0.205872	-0.566682	0.146169	-0.202681	-0.569661	0.141393	-0.296884	-0.456171	0.086962	-0.174202	-0.443511	0.072771	-0.285939	-0.380741	0.116002	-0.234340	-0.634187	0.106481	-0.256311	-0.786710	0.886820	-0.508371	-0.737990	0.878574	-0.514899	-0.798393	0.847902	-0.513234	-0.748886	0.837399	-0.517030	-0.887384	0.540262	-0.496163	-0.885176	0.519070	-0.371287	-1.060240	0.422162	-0.517660	-1.014699	0.387897	-0.523193	-1.082595	0.374143	-0.511674	-1.036794	0.353719	-0.518971	-1.164993	0.213660	-0.502393	-1.141646	0.196649	-0.416616	-1.161537	0.078261	-0.518142	-1.133462	0.064478	-0.407868	-1.089373	0.043383	-0.461700	-1.215550	0.235567	-0.448338	-0.610934	1.459139	-0.107405	-0.536478	1.492519	-0.425491	
44	0.2150	-0.621123	0.984867	-0.205315	-0.627972	0.989721	-0.451928	-0.806788	1.053934	-0.276431	-0.801079	1.060863	-0.366846	-0.639077	0.863883	-0.136477	-0.589305	0.884301	-0.156078	-0.617227	0.815184	-0.143715	-0.565990	0.836434	-0.163981	-0.464154	0.556775	-0.220536	-0.496211	0.560938	-0.340924	-0.519821	0.398376	-0.179633	-0.471359	0.398604	-0.203635	-0.525877	0.347508	-0.182505	-0.479897	0.347261	-0.205169	-0.541579	0.142283	-0.202477	-0.544360	0.137950	-0.296776	-0.429263	0.086197	-0.174272	-0.416033	0.072908	-0.286087	-0.354608	0.118080	-0.234351	-0.608066	0.100798	-0.256317	-0.769147	0.889680	-0.507556	-0.720502	0.881044	-0.513688	-0.780818	0.850601	-0.512419	-0.731432	0.839864	-0.515947	-0.871158	0.542790	-0.496397	-0.868459	0.520827	-0.371578	-1.046084	0.427482	-0.517534	-1.001202	0.392555	-0.523561	-1.069126	0.379834	-0.511695	-1.023808	0.358782	-0.519515	-1.153801	0.221132	-0.502934	-1.130123	0.202779	-0.417495	-1.156521	0.084706	-0.518720	-1.128160	0.069394	-0.409043	-1.086703	0.044653	-0.463326	-1.202076	0.245437	-0.448369	-0.594493	1.460146	-0.104939	-0.519750	1.494497	-0.422271	
45	0.2200	-0.603371	0.985443	-0.204409	-0.610111	0.991537	-0.450630	-0.788726	1.055143	-0.274826	-0.783035	1.062431	-0.365217	-0.621801	0.863673	-0.135314	-0.571835	0.883642	-0.155030	-0.600392	0.814747	-0.142450	-0.548970	0.835500	-0.162814	-0.449044	0.555260	-0.219394	-0.481389	0.559247	-0.339460	-0.501564	0.395679	-0.178528	-0.453189	0.397102	-0.202741	-0.506479	0.344586	-0.181518	-0.460555	0.345486	-0.204467	-0.517487	0.138628	-0.202283	-0.520041	0.134731	-0.296673	-0.403677	0.085398	-0.174277	-0.389879	0.072976	-0.286160	-0.329757	0.119848	-0.234232	-0.582975	0.095596	-0.256379	-0.751641	0.892222	-0.506681	-0.703096	0.883282	-0.512476	-0.763254	0.852954	-0.511550	-0.714003	0.842073	-0.514886	-0.854273	0.544800	-0.496736	-0.851001	0.522011	-0.372060	-1.031309	0.432542	-0.517435	-0.987173	0.396900	-0.523938	-1.055108	0.385346	-0.511713	-1.010327	0.363595	-0.520028	-1.142294	0.228726	-0.503344	-1.118332	0.208979	-0.418244	-1.151096	0.091656	-0.519299	-1.122456	0.074699	-0.410244	-1.083718	0.046379	-0.465044	-1.188243	0.255252	-0.448229	-0.577946	1.460734	-0.102475	-0.503041	1.496085	-0.419152	
46	0.2250	-0.585727	0.985749	-0.203505	-0.592391	0.993150	-0.449364	-0.770832	1.056007	-0.273181	-0.765176	1.063675	-0.363541	-0.604675	0.863083	-0.134136	-0.554494	0.882607	-0.153908	-0.583695	0.813935	-0.141166	-0.532072	0.834200	-0.161580	-0.433942	0.553462	-0.218259	-0.466533	0.557347	-0.338006	-0.483699	0.392930	-0.177461	-0.435421	0.395419	-0.201846	-0.487602	0.341664	-0.180565	-0.441756	0.343585	-0.203767	-0.494464	0.135185	-0.202103	-0.496763	0.131709	-0.296580	-0.379463	0.084525	-0.174220	-0.365103	0.072920	-0.286159	-0.306219	0.121244	-0.233987	-0.558995	0.090863	-0.256501	-0.734190	0.894406	-0.505750	-0.685763	0.885250	-0.511268	-0.745702	0.854923	-0.510635	-0.696593	0.843987	-0.513850	-0.836752	0.546262	-0.497174	-0.832844	0.522598	-0.372722	-1.015933	0.437324	-0.517364	-0.972634	0.400914	-0.524319	-1.040554	0.390663	-0.511724	-0.996368	0.368141	-0.520504	-1.130474	0.236429	-0.503615	-1.106281	0.215245	-0.418851	-1.145230	0.099086	-0.519867	-1.116329	0.080380	-0.411456	-1.080370	0.048594	-0.466835	-1.174071	0.264992	-0.447914	-0.561307	1.460892	-0.100011	-0.486348	1.497273	-0.416136	
47	0.2300	-0.568198	0.985784	-0.202599	-0.574808	0.994535	-0.448127	-0.753117	1.056511	-0.271507	-0.747506	1.064573	-0.361832	-0.587703	0.862124	-0.132943	-0.537285	0.881212	-0.152714	-0.567134	0.812760	-0.139866	-0.515296	0.832553	-0.160281	-0.418839	0.551399	-0.217131	-0.451615	0.555257	-0.336566	-0.466243	0.390133	-0.176440	-0.418061	0.393551	-0.200951	-0.469267	0.338741	-0.179654	-0.423511	0.341551	-0.203073	-0.472564	0.131939	-0.201943	-0.474580	0.128858	-0.296499	-0.356665	0.083540	-0.174106	-0.341750	0.072689	-0.286095	-0.284015	0.122216	-0.233623	-0.536197	0.086585	-0.256685	-0.716784	0.896193	-0.504771	-0.668489	0.886910	-0.510069	-0.728157	0.856474	-0.509685	-0.679190	0.845570	-0.512844	-0.818622	0.547154	-0.497707	-0.814032	0.522576	-0.373547	-0.999971	0.441811	-0.517319	-0.957599	0.404587	-0.524699	-1.025477	0.395771	-0.511725	-0.981943	0.372407	-0.520934	-1.118334	0.244225	-0.503739	-1.093968	0.221572	-0.419308	-1.138884	0.106966	-0.520412	-1.109752	0.086421	-0.412660	-1.076604	0.051321	-0.468675	-1.159574	0.274639	-0.447419	-0.544587	1.460613	-0.097545	-0.469669	1.498054	-0.413226	
48	0.2350	-0.550788	0.985552	-0.201680	-0.557359	0.995668	-0.446913	-0.735586	1.056643	-0.269818	-0.730027	1.065107	-0.360104	-0.570885	0.860809	-0.131736	-0.520216	0.879473	-0.151447	-0.550709	0.811235	-0.138554	-0.498644	0.830578	-0.158920	-0.403732	0.549091	-0.216012	-0.436614	0.552998	-0.335140	-0.449210	0.387290	-0.175472	-0.401113	0.391494	-0.200061	-0.451494	0.335814	-0.178792	-0.405835	0.339374	-0.202390	-0.451831	0.128871	-0.201806	-0.453541	0.126154	-0.296434	-0.335316	0.082409	-0.173943	-0.319858	0.072239	-0.285975	-0.263161	0.122717	-0.233155	-0.514645	0.082744	-0.256930	-0.699412	0.897552	-0.503753	-0.651259	0.888230	-0.508884	-0.710609	0.857578	-0.508711	-0.661782	0.846792	-0.511869	-0.799905	0.547463	-0.498328	-0.794608	0.521945	-0.374515	-0.983435	0.445993	-0.517300	-0.942080	0.407911	-0.525070	-1.009882	0.400659	-0.511715	-0.967057	0.376384	-0.521312	-1.105859	0.252098	-0.503710	-1.081384	0.227955	-0.419606	-1.132012	0.115257	-0.520921	-1.102693	0.092797	-0.413837	-1.072355	0.054574	-0.470541	-1.144757	0.284175	-0.446748	-0.527798	1.459894	-0.095078	-0.453003	1.498425	-0.410422	
49	0.2400	-0.533498	0.985057	-0.200740	-0.540034	0.996530	-0.445717	-0.718244	1.056395	-0.268127	-0.712739	1.065263	-0.358369	-0.554224	0.859153	-0.130515	-0.503289	0.877413	-0.150109	-0.534418	0.809378	-0.137233	-0.482119	0.828298	-0.157502	-0.388624	0.546553	-0.214900	-0.421516	0.550585	-0.333728	-0.432612	0.384403	-0.174563	-0.384583	0.389246	-0.199179	-0.434300	0.332882	-0.177985	-0.388738	0.337049	-0.201720	-0.432301	0.125965	-0.201697	-0.433687	0.123573	-0.296388	-0.315436	0.081106	-0.173738	-0.299455	0.071534	-0.285812	-0.243667	0.122712	-0.232598	-0.494391	0.079320	-0.257235	-0.682060	0.898454	-0.502706	-0.634055	0.889184	-0.507718	-0.693047	0.858213	-0.507722	-0.644351	0.847627	-0.510928	-0.780622	0.547188	-0.499027	-0.774610	0.520716	-0.375606	-0.966333	0.449862	-0.517306	-0.926080	0.410885	-0.525428	-0.993768	0.405317	-0.511693	-0.951708	0.380068	-0.521631	-1.093023	0.260029	-0.503528	-1.068506	0.234388	-0.419743	-1.124560	0.123909	-0.521383	-1.095109	0.099477	-0.414968	-1.067550	0.058352	-0.472406	-1.129619	0.293586	-0.445902	-0.510947	1.458739	-0.092610	-0.436349	1.498391	-0.407726	
50	0.2450	-0.516328	0.984308	-0.199769	-0.522826	0.997104	-0.444532	-0.701091	1.055769	-0.266445	-0.695636	1.065033	-0.356640	-0.537719	0.857178	-0.129282	-0.486508	0.875053	-0.148699	-0.518260	0.807210	-0.135907	-0.465721	0.825739	-0.156028	-0.373523	0.543804	-0.213796	-0.406313	0.548035	-0.332330	-0.416462	0.381473	-0.173716	-0.368479	0.386805	-0.198309	-0.417699	0.329940	-0.177237	-0.372228	0.334569	-0.201068	-0.414001	0.123205	-0.201617	-0.415051	0.121095	-0.296363	-0.297040	0.079613	-0.173502	-0.280558	0.070548	-0.285620	-0.225536	0.122178	-0.231971	-0.475479	0.076290	-0.257596	-0.664712	0.898879	-0.501637	-0.616854	0.889749	-0.506574	-0.675453	0.858363	-0.506731	-0.626877	0.848057	-0.510021	-0.760789	0.546338	-0.499795	-0.754073	0.518909	-0.376798	-0.948666	0.453414	-0.517338	-0.909595	0.413511	-0.525766	-0.977131	0.409738	-0.511657	-0.935889	0.383456	-0.521887	-1.079793	0.267996	-0.503192	-1.055304	0.240864	-0.419714	-1.116468	0.132868	-0.521787	-1.086951	0.106427	-0.416034	-1.062105	0.062646	-0.474244	-1.114147	0.302856	-0.444891	-0.494041	1.457157	-0.090140	-0.419704	1.497960	-0.405136	
51	0.2500	-0.499276	0.983313	-0.198755	-0.505721	0.997377	-0.443351	-0.684125	1.054770	-0.264784	-0.678710	1.064416	-0.354931	-0.521369	0.854904	-0.128037	-0.469873	0.872417	-0.147218	-0.502234	0.804754	-0.134577	-0.449452	0.822924	-0.154500	-0.358443	0.540858	-0.212696	-0.391006	0.545361	-0.330943	-0.400769	0.378502	-0.172931	-0.352806	0.384171	-0.197453	-0.401703	0.326987	-0.176551	-0.356314	0.331933	-0.200438	-0.396950	0.120577	-0.201570	-0.397657	0.118702	-0.296359	-0.280126	0.077917	-0.173244	-0.263173	0.069262	-0.285414	-0.208763	0.121100	-0.231294	-0.457938	0.073633	-0.258009	-0.647346	0.898813	-0.500555	-0.599632	0.889912	-0.505456	-0.657809	0.858018	-0.505748	-0.609335	0.848071	-0.509150	-0.740418	0.544930	-0.500619	-0.733026	0.516559	-0.378063	-0.930430	0.456648	-0.517395	-0.892614	0.415796	-0.526078	-0.959955	0.413916	-0.511609	-0.919581	0.386549	-0.522075	-1.066127	0.275972	-0.502704	-1.041736	0.247370	-0.419520	-1.107668	0.142069	-0.522123	-1.078160	0.113602	-0.417017	-1.055931	0.067430	-0.476027	-1.098322	0.311971	-0.443722	-0.477083	1.455163	-0.087671	-0.403066	1.497148	-0.402653	
52	0.2550	-0.482337	0.982085	-0.197688	-0.488704	0.997344	-0.442166	-0.667337	1.053410	-0.263154	-0.661950	1.063415	-0.353252	-0.505171	0.852358	-0.126779	-0.453386	0.869531	-0.145665	-0.486339	0.802036	-0.133246	-0.433312	0.819881	-0.152919	-0.343402	0.537730	-0.211600	-0.375604	0.542578	-0.329566	-0.385544	0.375491	-0.172208	-0.337572	0.381347	-0.196615	-0.386320	0.324021	-0.175929	-0.341001	0.329140	-0.199833	-0.381155	0.118070	-0.201557	-0.381520	0.116380	-0.296379	-0.264684	0.076015	-0.172976	-0.247298	0.067670	-0.285209	-0.193334	0.119479	-0.230591	-0.441785	0.071324	-0.258467	-0.629939	0.898250	-0.499467	-0.582362	0.889663	-0.504363	-0.640091	0.857180	-0.504782	-0.591700	0.847664	-0.508311	-0.719517	0.542992	-0.501485	-0.711492	0.513707	-0.379377	-0.911615	0.459565	-0.517475	-0.875118	0.417747	-0.526356	-0.942223	0.417846	-0.511547	-0.902761	0.389351	-0.522191	-1.051972	0.283929	-0.502069	-1.027752	0.253895	-0.419162	-1.098084	0.151442	-0.522382	-1.068668	0.120956	-0.417900	-1.048930	0.072669	-0.477728	-1.082114	0.320912	-0.442410	-0.460072	1.452778	-0.085204	-0.386432	1.495975	-0.400275	
53	0.2600	-0.465502	0.980639	-0.196555	-0.471759	0.996999	-0.440968	-0.650715	1.051707	-0.261562	-0.645338	1.062041	-0.351613	-0.489124	0.849569	-0.125509	-0.437046	0.866422	-0.144041	-0.470574	0.799084	-0.131915	-0.417302	0.816636	-0.151285	-0.328424	0.534437	-0.210502	-0.360122	0.539695	-0.328194	-0.370792	0.372442	-0.171544	-0.322783	0.378339	-0.195799	-0.371556	0.321042	-0.175368	-0.326293	0.326194	-0.199256	-0.366614	0.115674	-0.201579	-0.366645	0.114120	-0.296423	-0.250693	0.073910	-0.172707	-0.232915	0.065774	-0.285018	-0.179229	0.117326	-0.229881	-0.427027	0.069339	-0.258962	-0.612468	0.897193	-0.498380	-0.565017	0.889004	-0.503297	-0.622273	0.855854	-0.503839	-0.573945	0.846841	-0.507503	-0.698089	0.540563	-0.502377	-0.689485	0.510404	-0.380710	-0.892207	0.462168	-0.517577	-0.857082	0.419378	-0.526593	-0.923907	0.421522	-0.511472	-0.885396	0.391865	-0.522229	-1.037273	0.291832	-0.501292	-1.013294	0.260420	-0.418643	-1.087637	0.160912	-0.522556	-1.058402	0.128434	-0.418668	-1.040994	0.078313	-0.479320	-1.065488	0.329660	-0.440967	-0.443004	1.450029	-0.082742	-0.369798	1.494467	-0.397999	
54	0.2650	-0.448761	0.978991	-0.195345	-0.454865	0.996346	-0.439748	-0.634243	1.049687	-0.260016	-0.628857	1.060312	-0.350021	-0.473221	0.846566	-0.124227	-0.420849	0.863119	-0.142343	-0.454938	0.795929	-0.130585	-0.401421	0.813217	-0.149599	-0.313534	0.530993	-0.209402	-0.344586	0.536726	-0.326825	-0.356520	0.369361	-0.170936	-0.308447	0.375157	-0.195005	-0.357413	0.318053	-0.174869	-0.312191	0.323102	-0.198708	-0.353314	0.113384	-0.201636	-0.353026	0.111917	-0.296489	-0.238120	0.071615	-0.172446	-0.219996	0.063587	-0.284855	-0.166420	0.114666	-0.229186	-0.413653	0.067654	-0.259487	-0.594906	0.895654	-0.497298	-0.547568	0.887942	-0.502254	-0.604328	0.854058	-0.502926	-0.556040	0.845615	-0.506721	-0.676131	0.537688	-0.503276	-0.667015	0.506711	-0.382034	-0.872185	0.464463	-0.517698	-0.838473	0.420700	-0.526781	-0.904979	0.424943	-0.511383	-0.867449	0.394098	-0.522187	-1.021964	0.299646	-0.500381	-0.998296	0.266923	-0.417968	-1.076242	0.170396	-0.522638	-1.047279	0.135978	-0.419306	-1.032015	0.084304	-0.480778	-1.048402	0.338191	-0.439409	-0.425872	1.446949	-0.080288	-0.353157	1.492654	-0.395824	
55	0.2700	-0.432100	0.977160	-0.194047	-0.438001	0.995392	-0.438498	-0.617900	1.047382	-0.258521	-0.612481	1.058251	-0.348484	-0.457457	0.843382	-0.122930	-0.404792	0.859648	-0.140571	-0.439430	0.792601	-0.129256	-0.385669	0.809650	-0.147857	-0.298764	0.527415	-0.208293	-0.329025	0.533680	-0.325453	-0.342733	0.366252	-0.170378	-0.294571	0.371812	-0.194236	-0.343891	0.315057	-0.174427	-0.298697	0.319874	-0.198191	-0.341234	0.111197	-0.201726	-0.340646	0.109768	-0.296577	-0.226921	0.069148	-0.172201	-0.208504	0.061131	-0.284732	-0.154872	0.111534	-0.228526	-0.401644	0.066247	-0.260033	-0.577225	0.893651	-0.496224	-0.529984	0.886493	-0.501230	-0.586226	0.851816	-0.502044	-0.537956	0.844007	-0.505958	-0.653636	0.534420	-0.504163	-0.644085	0.502695	-0.383318	-0.851525	0.466456	-0.517834	-0.819251	0.421729	-0.526909	-0.885401	0.428102	-0.511281	-0.848874	0.396058	-0.522059	-1.005980	0.307329	-0.499344	-0.982686	0.273378	-0.417143	-1.063811	0.179811	-0.522624	-1.035212	0.143524	-0.419804	-1.021878	0.090572	-0.482080	-1.030807	0.346478	-0.437754	-0.408664	1.443575	-0.077847	-0.336505	1.490574	-0.393748	
56	0.2750	-0.415502	0.975168	-0.192648	-0.421144	0.994151	-0.437207	-0.601661	1.044827	-0.257078	-0.596184	1.055889	-0.347004	-0.441826	0.840053	-0.121618	-0.388870	0.856041	-0.138723	-0.424049	0.789137	-0.127926	-0.370044	0.805964	-0.146059	-0.284144	0.523721	-0.207173	-0.313479	0.530571	-0.324075	-0.329434	0.363124	-0.169863	-0.281163	0.368321	-0.193491	-0.330989	0.312063	-0.174037	-0.285807	0.316526	-0.197703	-0.330341	0.109111	-0.201847	-0.329481	0.107678	-0.296686	-0.217043	0.066536	-0.171979	-0.198388	0.058436	-0.284657	-0.144542	0.107975	-0.227916	-0.390963	0.065095	-0.260590	-0.559397	0.891216	-0.495156	-0.512236	0.884683	-0.500221	-0.567936	0.849160	-0.501193	-0.519662	0.842046	-0.505207	-0.630595	0.530821	-0.505014	-0.620690	0.498427	-0.384530	-0.830199	0.468156	-0.517981	-0.799376	0.422483	-0.526969	-0.865135	0.430997	-0.511161	-0.829626	0.397753	-0.521841	-0.989249	0.314837	-0.498191	-0.966390	0.279755	-0.416174	-1.050253	0.189069	-0.522510	-1.022109	0.151005	-0.420153	-1.010468	0.097039	-0.483207	-1.012654	0.354490	-0.436017	-0.391368	1.439951	-0.075422	-0.319833	1.488267	-0.391766	
57	0.2800	-0.398949	0.973039	-0.191140	-0.404269	0.992643	-0.435865	-0.585500	1.042065	-0.255690	-0.579938	1.053262	-0.345584	-0.426319	0.836613	-0.120288	-0.373075	0.852325	-0.136797	-0.408793	0.785571	-0.126592	-0.354545	0.802187	-0.144202	-0.269709	0.519929	-0.206037	-0.297990	0.527408	-0.322684	-0.316628	0.359987	-0.169382	-0.268230	0.364705	-0.192769	-0.318701	0.309081	-0.173693	-0.273521	0.313077	-0.197242	-0.320595	0.107131	-0.201998	-0.319492	0.105653	-0.296811	-0.208425	0.063809	-0.171785	-0.189588	0.055539	-0.284638	-0.135379	0.104045	-0.227371	-0.381567	0.064177	-0.261149	-0.541394	0.888384	-0.494095	-0.494296	0.882543	-0.499218	-0.549430	0.846133	-0.500369	-0.501131	0.839770	-0.504457	-0.606994	0.526955	-0.505808	-0.596823	0.493985	-0.385640	-0.808178	0.469572	-0.518131	-0.778801	0.422977	-0.526948	-0.844143	0.433625	-0.511021	-0.809653	0.399191	-0.521529	-0.971702	0.322121	-0.496930	-0.949332	0.286017	-0.415069	-1.035480	0.198082	-0.522293	-1.007878	0.158353	-0.420347	-0.997669	0.103622	-0.484141	-0.993888	0.362190	-0.434216	-0.373966	1.436126	-0.073019	-0.303134	1.485777	-0.389877	
58	0.2850	-0.382421	0.970799	-0.189514	-0.387351	0.990891	-0.434464	-0.569385	1.039142	-0.254355	-0.563711	1.050413	-0.344223	-0.410927	0.833101	-0.118940	-0.357400	0.848532	-0.134793	-0.393659	0.781939	-0.125253	-0.339169	0.798345	-0.142283	-0.255496	0.516059	-0.204880	-0.282609	0.524206	-0.321276	-0.304317	0.356856	-0.168926	-0.255782	0.360989	-0.192068	-0.307023	0.306122	-0.173388	-0.261834	0.309549	-0.196805	-0.311947	0.105259	-0.202173	-0.310636	0.103703	-0.296951	-0.200997	0.061002	-0.171622	-0.182034	0.052486	-0.284679	-0.127330	0.099807	-0.226902	-0.373396	0.063476	-0.261702	-0.523190	0.885202	-0.493036	-0.476136	0.880114	-0.498212	-0.530677	0.842782	-0.499568	-0.482336	0.837223	-0.503697	-0.582819	0.522895	-0.506517	-0.572472	0.489449	-0.386618	-0.785433	0.470713	-0.518276	-0.757481	0.423230	-0.526837	-0.822385	0.435982	-0.510857	-0.788906	0.400383	-0.521116	-0.953271	0.329133	-0.495573	-0.931436	0.292126	-0.413836	-1.019407	0.206763	-0.521974	-0.992426	0.165495	-0.420381	-0.983373	0.110233	-0.484869	-0.974457	0.369538	-0.432367	-0.356441	1.432151	-0.070643	-0.286401	1.483154	-0.388077	
59	0.2900	-0.365897	0.968474	-0.187761	-0.370367	0.988926	-0.432995	-0.553285	1.036108	-0.253069	-0.547471	1.047390	-0.342919	-0.395641	0.829556	-0.117568	-0.341836	0.844692	-0.132709	-0.378647	0.778280	-0.123905	-0.323916	0.794468	-0.140301	-0.241543	0.512134	-0.203697	-0.267388	0.520978	-0.319846	-0.292507	0.353746	-0.168487	-0.243828	0.357198	-0.191384	-0.295948	0.303202	-0.173115	-0.250742	0.305968	-0.196387	-0.304341	0.103505	-0.202368	-0.302856	0.101842	-0.297101	-0.194683	0.058153	-0.171492	-0.175648	0.049322	-0.284782	-0.120331	0.095329	-0.226516	-0.366384	0.062973	-0.262240	-0.504760	0.881723	-0.491972	-0.457732	0.877444	-0.497193	-0.511652	0.839162	-0.498779	-0.463253	0.834457	-0.502915	-0.558055	0.518715	-0.507118	-0.547623	0.484900	-0.387431	-0.761938	0.471593	-0.518406	-0.735372	0.423262	-0.526623	-0.799826	0.438065	-0.510661	-0.767337	0.401337	-0.520596	-0.933893	0.335820	-0.494127	-0.912632	0.298039	-0.412483	-1.001953	0.215027	-0.521553	-0.975666	0.172361	-0.420256	-0.967477	0.116781	-0.485380	-0.954312	0.376490	-0.430484	-0.338773	1.428081	-0.068299	-0.269626	1.480447	-0.386361	
60	0.2950	-0.349355	0.966096	-0.185876	-0.353294	0.986783	-0.431448	-0.537167	1.033016	-0.251828	-0.531186	1.044242	-0.341666	-0.380452	0.826015	-0.116172	-0.326375	0.840834	-0.130546	-0.363753	0.774632	-0.122544	-0.308781	0.790581	-0.138253	-0.227887	0.508178	-0.202484	-0.252382	0.517739	-0.318388	-0.281200	0.350675	-0.168053	-0.232376	0.353364	-0.190711	-0.285468	0.300339	-0.172863	-0.240239	0.302365	-0.195981	-0.297715	0.101875	-0.202578	-0.296091	0.100085	-0.297258	-0.189400	0.055302	-0.171394	-0.170346	0.046100	-0.284946	-0.114318	0.090683	-0.226217	-0.360455	0.062655	-0.262755	-0.486083	0.878007	-0.490896	-0.439064	0.874584	-0.496149	-0.492332	0.835333	-0.497991	-0.443861	0.831528	-0.502098	-0.532690	0.514490	-0.507583	-0.522264	0.480420	-0.388052	-0.737670	0.472222	-0.518509	-0.712434	0.423090	-0.526293	-0.776433	0.439874	-0.510427	-0.744903	0.402064	-0.519963	-0.913513	0.342131	-0.492603	-0.892855	0.303708	-0.411019	-0.983048	0.222793	-0.521031	-0.957515	0.178880	-0.419973	-0.949890	0.123175	-0.485669	-0.933406	0.382998	-0.428583	-0.320945	1.423976	-0.065994	-0.252803	1.477710	-0.384727	
61	0.3000	-0.332775	0.963694	-0.183856	-0.336110	0.984501	-0.429816	-0.520999	1.029920	-0.250625	-0.514825	1.041026	-0.340458	-0.365350	0.822518	-0.114749	-0.311008	0.836989	-0.128304	-0.348976	0.771034	-0.121164	-0.293763	0.786713	-0.136138	-0.214567	0.504215	-0.201236	-0.237648	0.514506	-0.316897	-0.270402	0.347662	-0.167616	-0.221436	0.349519	-0.190043	-0.275576	0.297551	-0.172624	-0.230319	0.298770	-0.195579	-0.292000	0.100381	-0.202798	-0.290271	0.098449	-0.297417	-0.185063	0.052488	-0.171328	-0.166037	0.042871	-0.285166	-0.109219	0.085945	-0.226005	-0.355524	0.062509	-0.263240	-0.467142	0.874119	-0.489800	-0.420116	0.871594	-0.495068	-0.472699	0.831360	-0.497191	-0.424148	0.828496	-0.501232	-0.506715	0.510297	-0.507887	-0.496383	0.476089	-0.388453	-0.712612	0.472614	-0.518571	-0.688636	0.422737	-0.525836	-0.752185	0.441407	-0.510144	-0.721569	0.402574	-0.519210	-0.892084	0.348013	-0.491009	-0.872049	0.309088	-0.409451	-0.962634	0.229985	-0.520413	-0.937904	0.184983	-0.419535	-0.930533	0.129330	-0.485732	-0.911702	0.389013	-0.426674	-0.302939	1.419895	-0.063733	-0.235927	1.474996	-0.383170	
62	0.3050	-0.316137	0.961300	-0.181700	-0.318799	0.982123	-0.428093	-0.504752	1.026873	-0.249451	-0.498360	1.037796	-0.339288	-0.350325	0.819104	-0.113294	-0.295728	0.833186	-0.125986	-0.334314	0.767522	-0.119762	-0.278862	0.782891	-0.133957	-0.201621	0.500274	-0.199948	-0.223243	0.511298	-0.315370	-0.260117	0.344730	-0.167164	-0.211016	0.345699	-0.189372	-0.266262	0.294860	-0.172388	-0.220975	0.295217	-0.195171	-0.287125	0.099031	-0.203021	-0.285323	0.096953	-0.297572	-0.181582	0.049750	-0.171290	-0.162628	0.039686	-0.285438	-0.104964	0.081187	-0.225879	-0.351504	0.062524	-0.263689	-0.447926	0.870127	-0.488671	-0.400879	0.868535	-0.493937	-0.452740	0.827311	-0.496363	-0.404105	0.825427	-0.500302	-0.480130	0.506211	-0.508004	-0.469976	0.471983	-0.388609	-0.686759	0.472785	-0.518578	-0.663955	0.422220	-0.525238	-0.727067	0.442665	-0.509803	-0.697311	0.402879	-0.518330	-0.869575	0.353417	-0.489353	-0.850173	0.314127	-0.407788	-0.940667	0.236533	-0.519702	-0.916775	0.190607	-0.418949	-0.909348	0.135161	-0.485570	-0.889172	0.394486	-0.424768	-0.284741	1.415899	-0.061523	-0.218997	1.472358	-0.381686	
63	0.3100	-0.299427	0.958946	-0.179408	-0.301348	0.979694	-0.426272	-0.488400	1.023930	-0.248298	-0.481766	1.034610	-0.338144	-0.335372	0.815809	-0.111806	-0.280527	0.829456	-0.123594	-0.319768	0.764134	-0.118333	-0.264076	0.779142	-0.131710	-0.189087	0.496382	-0.198617	-0.209224	0.508132	-0.313803	-0.250351	0.341901	-0.166690	-0.201127	0.341940	-0.188690	-0.257517	0.292287	-0.172145	-0.212200	0.291741	-0.194748	-0.283015	0.097836	-0.203241	-0.281168	0.095615	-0.297719	-0.178869	0.047124	-0.171277	-0.160021	0.036595	-0.285753	-0.101476	0.076483	-0.225832	-0.348300	0.062691	-0.264095	-0.428430	0.866103	-0.487501	-0.381351	0.865471	-0.492743	-0.432453	0.823256	-0.495491	-0.383732	0.822384	-0.499296	-0.452941	0.502307	-0.507911	-0.443045	0.468174	-0.388497	-0.660113	0.472748	-0.518514	-0.638379	0.421562	-0.524490	-0.701078	0.443651	-0.509392	-0.672114	0.402990	-0.517315	-0.845967	0.358295	-0.487641	-0.827197	0.318780	-0.406037	-0.917122	0.242378	-0.518902	-0.894090	0.195693	-0.418222	-0.886298	0.140592	-0.485188	-0.865799	0.399366	-0.422874	-0.266343	1.412047	-0.059371	-0.202015	1.469850	-0.380270	
64	0.3150	-0.282633	0.956663	-0.176985	-0.283751	0.977261	-0.424351	-0.471920	1.021140	-0.247155	-0.465026	1.031523	-0.337017	-0.320485	0.812669	-0.110282	-0.265401	0.825826	-0.121133	-0.305338	0.760904	-0.116873	-0.249409	0.775491	-0.129400	-0.177002	0.492568	-0.197238	-0.195644	0.505029	-0.312193	-0.241107	0.339199	-0.166184	-0.191775	0.338277	-0.187987	-0.249333	0.289854	-0.171887	-0.203986	0.288374	-0.194299	-0.279592	0.096806	-0.203452	-0.277724	0.094450	-0.297852	-0.176833	0.044642	-0.171284	-0.158121	0.033643	-0.286102	-0.098681	0.071899	-0.225858	-0.345817	0.063004	-0.264455	-0.408659	0.862119	-0.486277	-0.361538	0.862467	-0.491476	-0.411842	0.819263	-0.494558	-0.363039	0.819433	-0.498200	-0.425165	0.498652	-0.507587	-0.415600	0.464728	-0.388099	-0.632694	0.472520	-0.518364	-0.611915	0.420782	-0.523581	-0.674233	0.444367	-0.508898	-0.645984	0.402919	-0.516161	-0.821261	0.362605	-0.485882	-0.803114	0.322999	-0.404206	-0.891996	0.247469	-0.518020	-0.869830	0.200187	-0.417363	-0.861370	0.145556	-0.484591	-0.841582	0.403607	-0.420997	-0.247740	1.408396	-0.057282	-0.184987	1.467519	-0.378919	
65	0.3200	-0.265748	0.954482	-0.174438	-0.266008	0.974872	-0.422328	-0.455300	1.018551	-0.246013	-0.448127	1.028590	-0.335896	-0.305661	0.809716	-0.108720	-0.250351	0.822324	-0.118611	-0.291028	0.757866	-0.115377	-0.234864	0.771962	-0.127032	-0.165400	0.488861	-0.195808	-0.182553	0.502009	-0.310539	-0.232392	0.336646	-0.165640	-0.182968	0.334746	-0.187255	-0.241699	0.287581	-0.171604	-0.196324	0.285152	-0.193815	-0.276779	0.095949	-0.203647	-0.274909	0.093476	-0.297967	-0.175384	0.042333	-0.171308	-0.156830	0.030872	-0.286475	-0.096501	0.067498	-0.225948	-0.343959	0.063458	-0.264764	-0.388626	0.858245	-0.484989	-0.341455	0.859585	-0.490124	-0.390922	0.815401	-0.493549	-0.342044	0.816637	-0.497004	-0.396833	0.495310	-0.507014	-0.387665	0.461704	-0.387401	-0.604534	0.472120	-0.518110	-0.584584	0.419901	-0.522503	-0.646561	0.444821	-0.508310	-0.618940	0.402679	-0.514860	-0.795477	0.366308	-0.484079	-0.777932	0.326741	-0.402303	-0.865309	0.251767	-0.517061	-0.844001	0.204047	-0.416384	-0.834581	0.149995	-0.483790	-0.816536	0.407166	-0.419142	-0.228936	1.405001	-0.055263	-0.167924	1.465413	-0.377628	
66	0.3250	-0.248774	0.952431	-0.171776	-0.248127	0.972573	-0.420202	-0.438533	1.016205	-0.244862	-0.431066	1.025860	-0.334770	-0.290902	0.806981	-0.107121	-0.235377	0.818974	-0.116035	-0.276843	0.755048	-0.113844	-0.220449	0.768581	-0.124611	-0.154313	0.485289	-0.194327	-0.169999	0.499093	-0.308841	-0.224208	0.334264	-0.165050	-0.174710	0.331381	-0.186484	-0.234604	0.285490	-0.171289	-0.189203	0.282105	-0.193285	-0.274500	0.095272	-0.203821	-0.272640	0.092706	-0.298059	-0.174439	0.040219	-0.171342	-0.156056	0.028316	-0.286861	-0.094864	0.063334	-0.226090	-0.342631	0.064050	-0.265020	-0.368353	0.854550	-0.483628	-0.321129	0.856887	-0.488678	-0.369719	0.811734	-0.492448	-0.320777	0.814055	-0.495698	-0.367989	0.492338	-0.506178	-0.359278	0.459151	-0.386392	-0.575683	0.471565	-0.517738	-0.556427	0.418942	-0.521249	-0.618112	0.445021	-0.507615	-0.591023	0.402283	-0.513409	-0.768656	0.369375	-0.482240	-0.751686	0.329968	-0.400336	-0.837109	0.255243	-0.516032	-0.816635	0.207236	-0.415294	-0.805978	0.153863	-0.482798	-0.790692	0.410006	-0.417312	-0.209943	1.401913	-0.053320	-0.150845	1.463572	-0.376393	
67	0.3300	-0.231720	0.950537	-0.169013	-0.230126	0.970410	-0.417976	-0.421622	1.014139	-0.243691	-0.413850	1.023378	-0.333628	-0.276215	0.804489	-0.105482	-0.220488	0.815800	-0.113416	-0.262793	0.752478	-0.112272	-0.206175	0.765367	-0.122147	-0.143770	0.481880	-0.192792	-0.158023	0.496300	-0.307101	-0.216558	0.332075	-0.164411	-0.167004	0.328214	-0.185667	-0.228038	0.283599	-0.170935	-0.182614	0.279263	-0.192700	-0.272679	0.094779	-0.203967	-0.270837	0.092150	-0.298122	-0.173913	0.038318	-0.171383	-0.155709	0.026004	-0.287249	-0.093697	0.059455	-0.226273	-0.341742	0.064775	-0.265220	-0.347875	0.851097	-0.482186	-0.300597	0.854429	-0.487133	-0.348271	0.808321	-0.491242	-0.299279	0.811741	-0.494276	-0.338693	0.489784	-0.505069	-0.330491	0.457109	-0.385069	-0.546210	0.470874	-0.517232	-0.527507	0.417923	-0.519817	-0.588954	0.444978	-0.506802	-0.562295	0.401746	-0.511806	-0.740865	0.371783	-0.480368	-0.724431	0.332649	-0.398310	-0.807470	0.257883	-0.514940	-0.787795	0.209732	-0.414108	-0.775641	0.157127	-0.481628	-0.764104	0.412097	-0.415509	-0.190783	1.399174	-0.051459	-0.133774	1.462032	-0.375210	
68	0.3350	-0.214603	0.948823	-0.166164	-0.212032	0.968424	-0.415656	-0.404581	1.012384	-0.242493	-0.396497	1.021184	-0.332459	-0.261611	0.802262	-0.103807	-0.205695	0.812823	-0.110765	-0.248891	0.750176	-0.110659	-0.192055	0.762341	-0.119648	-0.133797	0.478659	-0.191205	-0.146661	0.493651	-0.305321	-0.209442	0.330096	-0.163719	-0.159850	0.325275	-0.184798	-0.221987	0.281923	-0.170538	-0.176543	0.276653	-0.192054	-0.271244	0.094473	-0.204081	-0.269421	0.091815	-0.298154	-0.173729	0.036640	-0.171425	-0.155704	0.023956	-0.287629	-0.092930	0.055897	-0.226487	-0.341202	0.065633	-0.265364	-0.327237	0.847944	-0.480657	-0.279906	0.852261	-0.485484	-0.326629	0.805215	-0.489921	-0.277605	0.809743	-0.492734	-0.309024	0.487687	-0.503684	-0.301374	0.455607	-0.383432	-0.516204	0.470068	-0.516580	-0.497907	0.416867	-0.518207	-0.559177	0.444705	-0.505861	-0.532841	0.401082	-0.510051	-0.712191	0.373518	-0.478468	-0.696249	0.334758	-0.396235	-0.776500	0.259687	-0.513791	-0.757574	0.211520	-0.412838	-0.743684	0.159766	-0.480299	-0.736845	0.413420	-0.413733	-0.171489	1.396822	-0.049686	-0.116743	1.460822	-0.374076	
69	0.3400	-0.197452	0.947309	-0.163247	-0.193882	0.966652	-0.413249	-0.387435	1.010960	-0.241261	-0.379034	1.019309	-0.331257	-0.247107	0.800317	-0.102097	-0.191018	0.810061	-0.108095	-0.235153	0.748160	-0.109009	-0.178111	0.759520	-0.117127	-0.124416	0.475649	-0.189567	-0.135942	0.491162	-0.303506	-0.202860	0.328344	-0.162973	-0.153245	0.322587	-0.183870	-0.216439	0.280475	-0.170092	-0.170976	0.274296	-0.191339	-0.270127	0.094354	-0.204158	-0.268320	0.091707	-0.298150	-0.173817	0.035193	-0.171465	-0.155963	0.022188	-0.287991	-0.092496	0.052688	-0.226719	-0.340930	0.066620	-0.265451	-0.306497	0.845140	-0.479038	-0.259117	0.850426	-0.483730	-0.304856	0.802462	-0.488477	-0.255819	0.808100	-0.491070	-0.279077	0.486076	-0.502023	-0.272015	0.454662	-0.381489	-0.485773	0.469166	-0.515773	-0.467735	0.415793	-0.516421	-0.528892	0.444219	-0.504786	-0.502766	0.400306	-0.508145	-0.682747	0.374578	-0.476546	-0.667247	0.336279	-0.394118	-0.744332	0.260664	-0.512593	-0.726095	0.212600	-0.411497	-0.710257	0.161774	-0.478827	-0.709009	0.413964	-0.411983	-0.152104	1.394887	-0.048004	-0.099791	1.459962	-0.372988	
70	0.3450	-0.180303	0.946012	-0.160281	-0.175724	0.965126	-0.410766	-0.370223	1.009884	-0.239988	-0.361502	1.017778	-0.330014	-0.232726	0.798665	-0.100355	-0.176481	0.807527	-0.105422	-0.221603	0.746442	-0.107322	-0.164365	0.756917	-0.114597	-0.115643	0.472870	-0.187883	-0.125889	0.488850	-0.301664	-0.196806	0.326830	-0.162174	-0.147184	0.320172	-0.182881	-0.211376	0.279265	-0.169596	-0.165899	0.272210	-0.190554	-0.269264	0.094419	-0.204195	-0.267465	0.091823	-0.298108	-0.174109	0.033974	-0.171499	-0.156415	0.020705	-0.288326	-0.092336	0.049845	-0.226960	-0.340852	0.067734	-0.265482	-0.285722	0.842725	-0.477329	-0.238302	0.848958	-0.481873	-0.283028	0.800098	-0.486907	-0.233999	0.806843	-0.489288	-0.248965	0.484970	-0.500093	-0.242517	0.454279	-0.379251	-0.455043	0.468190	-0.514803	-0.437118	0.414719	-0.514466	-0.498228	0.443538	-0.503572	-0.472202	0.399436	-0.506095	-0.652671	0.374969	-0.474607	-0.637556	0.337208	-0.391968	-0.711132	0.260842	-0.511354	-0.693514	0.212982	-0.410098	-0.675544	0.163155	-0.477233	-0.680710	0.413734	-0.410260	-0.132683	1.393388	-0.046419	-0.082964	1.459466	-0.371942	
71	0.3500	-0.163205	0.944941	-0.157288	-0.157617	0.963873	-0.408218	-0.352992	1.009160	-0.238673	-0.343955	1.016606	-0.328725	-0.218500	0.797311	-0.098589	-0.162115	0.805233	-0.102760	-0.208266	0.745027	-0.105605	-0.150847	0.754544	-0.112071	-0.107491	0.470337	-0.186158	-0.116518	0.486727	-0.299801	-0.191273	0.325564	-0.161324	-0.141657	0.318045	-0.181831	-0.206783	0.278299	-0.169050	-0.161292	0.270408	-0.189695	-0.268598	0.094661	-0.204191	-0.266794	0.092160	-0.298026	-0.174548	0.032980	-0.171524	-0.156998	0.019507	-0.288627	-0.092391	0.047378	-0.227200	-0.340899	0.068970	-0.265458	-0.264995	0.840731	-0.475532	-0.217542	0.847882	-0.479919	-0.261232	0.798151	-0.485212	-0.212234	0.805991	-0.487394	-0.218818	0.484375	-0.497907	-0.213002	0.454454	-0.376740	-0.424160	0.467159	-0.513666	-0.406207	0.413665	-0.512354	-0.467337	0.442681	-0.502216	-0.441297	0.398486	-0.503910	-0.622122	0.374710	-0.472656	-0.607332	0.337547	-0.389795	-0.677095	0.260259	-0.510081	-0.660018	0.212690	-0.408655	-0.639760	0.163930	-0.475536	-0.652082	0.412743	-0.408561	-0.113294	1.392337	-0.044934	-0.066318	1.459339	-0.370937	
72	0.3550	-0.146216	0.944104	-0.154293	-0.139630	0.962909	-0.405621	-0.335805	1.008787	-0.237313	-0.326457	1.015799	-0.327389	-0.204465	0.796256	-0.096803	-0.147958	0.803185	-0.100127	-0.195176	0.743916	-0.103864	-0.137591	0.752407	-0.109566	-0.099964	0.468064	-0.184398	-0.107838	0.484805	-0.297929	-0.186250	0.324549	-0.160427	-0.136651	0.316215	-0.180720	-0.202641	0.277578	-0.168454	-0.157139	0.268898	-0.188766	-0.268077	0.095072	-0.204143	-0.266253	0.092710	-0.297903	-0.175082	0.032200	-0.171539	-0.157656	0.018586	-0.288888	-0.092612	0.045284	-0.227430	-0.341012	0.070324	-0.265382	-0.244404	0.839176	-0.473655	-0.196929	0.847212	-0.477876	-0.239566	0.796635	-0.483395	-0.190623	0.805554	-0.485398	-0.188780	0.484286	-0.495485	-0.183607	0.455168	-0.373979	-0.393286	0.466094	-0.512363	-0.375169	0.412647	-0.510098	-0.436384	0.441673	-0.500722	-0.410223	0.397475	-0.501600	-0.591278	0.373828	-0.470700	-0.576752	0.337312	-0.387608	-0.642441	0.258964	-0.508783	-0.625821	0.211759	-0.407182	-0.603153	0.164127	-0.473759	-0.623280	0.411021	-0.406888	-0.094013	1.391734	-0.043552	-0.049912	1.459577	-0.369972	
73	0.3600	-0.129403	0.943500	-0.151319	-0.121839	0.962247	-0.402993	-0.318734	1.008755	-0.235910	-0.309082	1.015355	-0.326006	-0.190665	0.795495	-0.095006	-0.134054	0.801386	-0.097540	-0.182369	0.743104	-0.102107	-0.124636	0.750511	-0.107098	-0.093064	0.466057	-0.182614	-0.099851	0.483090	-0.296058	-0.181724	0.323786	-0.159489	-0.132149	0.314688	-0.179553	-0.198930	0.277099	-0.167813	-0.153416	0.267680	-0.187769	-0.267656	0.095641	-0.204052	-0.265793	0.093460	-0.297739	-0.175668	0.031620	-0.171543	-0.158342	0.017930	-0.289105	-0.092951	0.043555	-0.227644	-0.341142	0.071787	-0.265257	-0.224048	0.838068	-0.471705	-0.176565	0.846950	-0.475758	-0.218138	0.795558	-0.481466	-0.169273	0.805532	-0.483313	-0.159010	0.484687	-0.492850	-0.154483	0.456391	-0.370998	-0.362596	0.465014	-0.510900	-0.344189	0.411679	-0.507717	-0.405554	0.440535	-0.499096	-0.379167	0.396419	-0.499182	-0.560338	0.372363	-0.468747	-0.546012	0.336527	-0.385419	-0.607413	0.257020	-0.507469	-0.591163	0.210235	-0.405690	-0.565996	0.163789	-0.471922	-0.594472	0.408610	-0.405240	-0.074926	1.391571	-0.042275	-0.033813	1.460167	-0.369045	
74	0.3650	-0.112841	0.943127	-0.148390	-0.104329	0.961889	-0.400353	-0.301859	1.009045	-0.234468	-0.291916	1.015262	-0.324580	-0.177150	0.795015	-0.093209	-0.120452	0.799834	-0.095014	-0.169887	0.742580	-0.100343	-0.112024	0.748854	-0.104682	-0.086785	0.464320	-0.180815	-0.092553	0.481587	-0.294200	-0.177677	0.323270	-0.158518	-0.128132	0.313462	-0.178336	-0.195627	0.276855	-0.167130	-0.150103	0.266751	-0.186711	-0.267296	0.096353	-0.203918	-0.265376	0.094392	-0.297536	-0.176267	0.031223	-0.171535	-0.159018	0.017519	-0.289275	-0.093370	0.042174	-0.227837	-0.341249	0.073351	-0.265085	-0.204034	0.837405	-0.469697	-0.156556	0.847091	-0.473578	-0.197063	0.794913	-0.479438	-0.148297	0.805912	-0.481156	-0.129676	0.485553	-0.490033	-0.125791	0.458086	-0.367834	-0.332277	0.463936	-0.509286	-0.313466	0.410775	-0.505233	-0.375038	0.439294	-0.497347	-0.348330	0.395335	-0.496675	-0.529513	0.370365	-0.466805	-0.515326	0.335229	-0.383239	-0.572275	0.254499	-0.506146	-0.556306	0.208173	-0.404194	-0.528585	0.162966	-0.470048	-0.565840	0.405564	-0.403619	-0.056130	1.391831	-0.041103	-0.018092	1.461090	-0.368155	
75	0.3700	-0.096614	0.942975	-0.145530	-0.087192	0.961829	-0.397721	-0.285272	1.009633	-0.232994	-0.275050	1.015501	-0.323117	-0.163973	0.794800	-0.091421	-0.107207	0.798524	-0.092568	-0.157774	0.742328	-0.098583	-0.099802	0.747434	-0.102335	-0.081116	0.462851	-0.179015	-0.085930	0.480295	-0.292368	-0.174087	0.322992	-0.157522	-0.124576	0.312530	-0.177078	-0.192709	0.276835	-0.166413	-0.147175	0.266102	-0.185600	-0.266966	0.097192	-0.203745	-0.264969	0.095489	-0.297295	-0.176850	0.030990	-0.171515	-0.159654	0.017333	-0.289398	-0.093835	0.041117	-0.228004	-0.341300	0.075004	-0.264873	-0.184473	0.837172	-0.467645	-0.137013	0.847615	-0.471356	-0.176459	0.794685	-0.477329	-0.127813	0.806673	-0.478945	-0.100953	0.486846	-0.487069	-0.097699	0.460202	-0.364524	-0.302523	0.462879	-0.507535	-0.283206	0.409944	-0.502671	-0.345039	0.437974	-0.495489	-0.317922	0.394239	-0.494099	-0.499024	0.367892	-0.464882	-0.484915	0.333462	-0.381080	-0.537302	0.251478	-0.504824	-0.521527	0.205640	-0.402707	-0.491229	0.161715	-0.468158	-0.537576	0.401951	-0.402028	-0.037724	1.392485	-0.040037	-0.002824	1.462317	-0.367304	
76	0.3750	-0.080807	0.943029	-0.142763	-0.070522	0.962055	-0.395119	-0.269068	1.010487	-0.231496	-0.258582	1.016046	-0.321625	-0.151193	0.794830	-0.089655	-0.094376	0.797447	-0.090216	-0.146078	0.742327	-0.096841	-0.088018	0.746241	-0.100074	-0.076039	0.461645	-0.177226	-0.079968	0.479213	-0.290576	-0.170931	0.322938	-0.156511	-0.121454	0.311879	-0.175790	-0.190151	0.277023	-0.165668	-0.144606	0.265718	-0.184449	-0.266641	0.098139	-0.203535	-0.264548	0.096725	-0.297021	-0.177394	0.030897	-0.171484	-0.160228	0.017344	-0.289473	-0.094317	0.040356	-0.228143	-0.341275	0.076731	-0.264624	-0.165477	0.837344	-0.465568	-0.118050	0.848496	-0.469111	-0.156450	0.794848	-0.475158	-0.107942	0.807783	-0.476703	-0.073020	0.488521	-0.483994	-0.070381	0.462683	-0.361112	-0.273529	0.461855	-0.505665	-0.253621	0.409195	-0.500058	-0.315760	0.436601	-0.493540	-0.288159	0.393146	-0.491479	-0.469098	0.365010	-0.462989	-0.455010	0.331282	-0.378957	-0.502780	0.248044	-0.503512	-0.487113	0.202707	-0.401239	-0.454250	0.160100	-0.466273	-0.509877	0.397847	-0.400469	-0.019814	1.393499	-0.039076	0.011916	1.463813	-0.366491	
77	0.3800	-0.065512	0.943273	-0.140109	-0.054416	0.962546	-0.392569	-0.253344	1.011572	-0.229986	-0.242613	1.016862	-0.320115	-0.138871	0.795079	-0.087922	-0.082019	0.796589	-0.087974	-0.134850	0.742552	-0.095128	-0.076721	0.745266	-0.097911	-0.071533	0.460689	-0.175462	-0.074641	0.478333	-0.288838	-0.168182	0.323091	-0.155496	-0.118740	0.311493	-0.174485	-0.187926	0.277401	-0.164904	-0.142370	0.265581	-0.183268	-0.266304	0.099173	-0.203292	-0.264097	0.098077	-0.296716	-0.177884	0.030924	-0.171443	-0.160724	0.017525	-0.289505	-0.094793	0.039860	-0.228254	-0.341157	0.078517	-0.264344	-0.147159	0.837888	-0.463485	-0.099779	0.849698	-0.466866	-0.137154	0.795370	-0.472950	-0.088802	0.809203	-0.474452	-0.046055	0.490526	-0.480850	-0.044007	0.465466	-0.357643	-0.245491	0.460880	-0.503698	-0.224921	0.408533	-0.497422	-0.287406	0.435200	-0.491522	-0.259254	0.392072	-0.488842	-0.439962	0.361791	-0.461137	-0.425842	0.328749	-0.376882	-0.468994	0.244286	-0.502220	-0.453355	0.199451	-0.399803	-0.417969	0.158188	-0.464413	-0.482942	0.393340	-0.398948	-0.002507	1.394829	-0.038217	0.026053	1.465540	-0.365718	
78	0.3850	-0.050817	0.943684	-0.137589	-0.038967	0.963275	-0.390092	-0.238201	1.012847	-0.228476	-0.227243	1.017911	-0.318600	-0.127068	0.795519	-0.086236	-0.070196	0.795934	-0.085855	-0.124137	0.742975	-0.093459	-0.065960	0.744494	-0.095861	-0.067570	0.459971	-0.173739	-0.069922	0.477645	-0.287167	-0.165812	0.323428	-0.154487	-0.116401	0.311347	-0.173177	-0.186009	0.277945	-0.164130	-0.140441	0.265666	-0.182073	-0.265942	0.100274	-0.203023	-0.263606	0.099517	-0.296387	-0.178307	0.031048	-0.171394	-0.161133	0.017847	-0.289495	-0.095246	0.039593	-0.228336	-0.340943	0.080342	-0.264040	-0.129629	0.838761	-0.461417	-0.082308	0.851177	-0.464642	-0.118690	0.796209	-0.470729	-0.070506	0.810887	-0.472217	-0.020227	0.492802	-0.477680	-0.018744	0.468485	-0.354161	-0.218595	0.459963	-0.501660	-0.197310	0.407962	-0.494795	-0.260170	0.433794	-0.489457	-0.231417	0.391030	-0.486214	-0.411836	0.358312	-0.459338	-0.397636	0.325930	-0.374869	-0.436225	0.240296	-0.500957	-0.420540	0.195953	-0.398411	-0.382704	0.156048	-0.462598	-0.456964	0.388522	-0.397470	0.014095	1.396428	-0.037457	0.039515	1.467452	-0.364987	
79	0.3900	-0.036809	0.944238	-0.135220	-0.024267	0.964211	-0.387710	-0.223734	1.014271	-0.226981	-0.212570	1.019151	-0.317095	-0.115843	0.796118	-0.084609	-0.058965	0.795464	-0.083870	-0.113988	0.743564	-0.091846	-0.055782	0.743908	-0.093936	-0.064118	0.459470	-0.172070	-0.065779	0.477136	-0.285575	-0.163790	0.323927	-0.153496	-0.114407	0.311417	-0.171880	-0.184371	0.278630	-0.163357	-0.138790	0.265947	-0.180877	-0.265550	0.101420	-0.202732	-0.263071	0.101017	-0.296038	-0.178658	0.031247	-0.171338	-0.161452	0.018280	-0.289449	-0.095663	0.039519	-0.228392	-0.340631	0.082186	-0.263717	-0.112989	0.839915	-0.459387	-0.065738	0.852884	-0.462464	-0.101166	0.797318	-0.468522	-0.053160	0.812785	-0.470022	0.004304	0.495287	-0.474526	0.005253	0.471668	-0.350713	-0.193016	0.459114	-0.499579	-0.170980	0.407481	-0.492206	-0.234238	0.432408	-0.487372	-0.204846	0.390031	-0.483624	-0.384929	0.354651	-0.457601	-0.370609	0.322896	-0.372932	-0.404741	0.236163	-0.499734	-0.388944	0.192295	-0.397072	-0.348757	0.153749	-0.460845	-0.432128	0.383491	-0.396042	0.029890	1.398243	-0.036793	0.052236	1.469502	-0.364298	
80	0.3950	-0.023570	0.944909	-0.133015	-0.010399	0.965315	-0.385441	-0.210035	1.015800	-0.225514	-0.198683	1.020537	-0.315615	-0.105254	0.796845	-0.083053	-0.048382	0.795158	-0.082029	-0.104447	0.744287	-0.090302	-0.046230	0.743489	-0.092145	-0.061143	0.459167	-0.170470	-0.062176	0.476791	-0.284073	-0.162084	0.324559	-0.152533	-0.112726	0.311674	-0.170609	-0.182985	0.279430	-0.162595	-0.137392	0.266395	-0.179698	-0.265125	0.102589	-0.202426	-0.262494	0.102547	-0.295676	-0.178935	0.031502	-0.171278	-0.161683	0.018796	-0.289372	-0.096034	0.039604	-0.228423	-0.340230	0.084028	-0.263382	-0.097331	0.841297	-0.457415	-0.050160	0.854767	-0.460354	-0.084682	0.798646	-0.466356	-0.036859	0.814841	-0.467891	0.027392	0.497917	-0.471429	0.027843	0.474946	-0.347343	-0.168913	0.458338	-0.497484	-0.146107	0.407088	-0.489686	-0.209774	0.431060	-0.485294	-0.179720	0.389086	-0.481100	-0.359434	0.350887	-0.455940	-0.344959	0.319719	-0.371084	-0.374790	0.231977	-0.498558	-0.358825	0.188557	-0.395797	-0.316408	0.151358	-0.459170	-0.408604	0.378344	-0.394673	0.044789	1.400219	-0.036219	0.064154	1.471643	-0.363654	
81	0.4000	-0.011173	0.945667	-0.130986	0.002562	0.966550	-0.383304	-0.197184	1.017391	-0.224091	-0.185666	1.022023	-0.314176	-0.095350	0.797667	-0.081581	-0.038495	0.794995	-0.080338	-0.095554	0.745110	-0.088840	-0.037342	0.743217	-0.090496	-0.058608	0.459036	-0.168952	-0.059074	0.476591	-0.282671	-0.160663	0.325298	-0.151609	-0.111324	0.312086	-0.169379	-0.181826	0.280316	-0.161852	-0.136218	0.266977	-0.178548	-0.264670	0.103758	-0.202110	-0.261881	0.104081	-0.295308	-0.179142	0.031792	-0.171216	-0.161830	0.019367	-0.289270	-0.096357	0.039812	-0.228432	-0.339750	0.085845	-0.263042	-0.082737	0.842853	-0.455522	-0.035653	0.856771	-0.458334	-0.069321	0.800139	-0.464257	-0.021685	0.816999	-0.465847	0.048915	0.500626	-0.468430	0.048904	0.478251	-0.344091	-0.146423	0.457639	-0.495406	-0.122844	0.406780	-0.487262	-0.186923	0.429770	-0.483250	-0.156198	0.388204	-0.478670	-0.335519	0.347099	-0.454364	-0.320864	0.316473	-0.369338	-0.346593	0.227820	-0.497438	-0.330414	0.184817	-0.394593	-0.285910	0.148937	-0.457587	-0.386542	0.373181	-0.393368	0.058709	1.402301	-0.035729	0.075220	1.473826	-0.363056	
82	0.4050	0.000320	0.946486	-0.129139	0.014555	0.967875	-0.381313	-0.185252	1.019004	-0.222727	-0.173588	1.023565	-0.312793	-0.086177	0.798551	-0.080201	-0.029346	0.794950	-0.078801	-0.087342	0.746002	-0.087470	-0.029149	0.743071	-0.088994	-0.056472	0.459052	-0.167527	-0.056431	0.476518	-0.281378	-0.159495	0.326113	-0.150734	-0.110169	0.312621	-0.168204	-0.180865	0.281260	-0.161139	-0.135243	0.267663	-0.177444	-0.264191	0.104909	-0.201793	-0.261241	0.105590	-0.294940	-0.179282	0.032101	-0.171152	-0.161903	0.019968	-0.289148	-0.096627	0.040111	-0.228423	-0.339206	0.087614	-0.262703	-0.069270	0.844524	-0.453728	-0.022278	0.858842	-0.456422	-0.055152	0.801743	-0.462249	-0.007702	0.819206	-0.463911	0.068771	0.503354	-0.465566	0.068338	0.481515	-0.340996	-0.125656	0.457020	-0.493375	-0.101316	0.406549	-0.484960	-0.165803	0.428553	-0.481267	-0.134410	0.387391	-0.476357	-0.313328	0.343358	-0.452885	-0.298471	0.313226	-0.367704	-0.320341	0.223768	-0.496384	-0.303912	0.181147	-0.393468	-0.257477	0.146544	-0.456108	-0.366068	0.368093	-0.392137	0.071585	1.404432	-0.035318	0.085394	1.476004	-0.362505	
83	0.4100	0.010860	0.947338	-0.127480	0.025532	0.969248	-0.379480	-0.174294	1.020598	-0.221436	-0.162503	1.025121	-0.311480	-0.077767	0.799467	-0.078923	-0.020967	0.795003	-0.077421	-0.079835	0.746929	-0.086200	-0.021672	0.743029	-0.087641	-0.054697	0.459189	-0.166206	-0.054206	0.476550	-0.280198	-0.158548	0.326977	-0.149914	-0.109231	0.313247	-0.167096	-0.180079	0.282234	-0.160463	-0.134443	0.268419	-0.176397	-0.263696	0.106021	-0.201480	-0.260587	0.107051	-0.294578	-0.179364	0.032415	-0.171090	-0.161911	0.020576	-0.289013	-0.096848	0.040471	-0.228399	-0.338617	0.089315	-0.262371	-0.056979	0.846258	-0.452049	-0.010083	0.860925	-0.454637	-0.042226	0.803405	-0.460355	0.005043	0.821407	-0.462101	0.086886	0.506040	-0.462868	0.086072	0.484681	-0.338091	-0.106693	0.456480	-0.491418	-0.081619	0.406388	-0.482802	-0.146502	0.427422	-0.479371	-0.114458	0.386652	-0.474184	-0.292970	0.339733	-0.451510	-0.277900	0.310044	-0.366191	-0.296183	0.219889	-0.495401	-0.279479	0.177611	-0.392429	-0.231283	0.144230	-0.454744	-0.347283	0.363168	-0.390987	0.083365	1.406560	-0.034978	0.094649	1.478134	-0.362003	
84	0.4150	0.020415	0.948197	-0.126006	0.035463	0.970632	-0.377815	-0.164350	1.022141	-0.220230	-0.152451	1.026650	-0.310252	-0.070144	0.800387	-0.077754	-0.013381	0.795130	-0.076196	-0.073050	0.747863	-0.085039	-0.014926	0.743070	-0.086437	-0.053241	0.459420	-0.164997	-0.052355	0.476666	-0.279136	-0.157792	0.327861	-0.149158	-0.108479	0.313931	-0.166066	-0.179444	0.283211	-0.159833	-0.133794	0.269216	-0.175419	-0.263196	0.107078	-0.201176	-0.259931	0.108440	-0.294229	-0.179395	0.032722	-0.171031	-0.161866	0.021173	-0.288871	-0.097020	0.040864	-0.228364	-0.338000	0.090927	-0.262051	-0.045892	0.848001	-0.450499	0.000909	0.862972	-0.452992	-0.030571	0.805077	-0.458593	0.016523	0.823554	-0.460431	0.103219	0.508632	-0.460364	0.102062	0.487694	-0.335402	-0.089587	0.456016	-0.489563	-0.063816	0.406288	-0.480808	-0.129075	0.426386	-0.477583	-0.096408	0.385990	-0.472171	-0.274522	0.336283	-0.450248	-0.259234	0.306986	-0.364807	-0.274229	0.216241	-0.494495	-0.257236	0.174266	-0.391480	-0.207454	0.142038	-0.453501	-0.330255	0.358483	-0.389924	0.094017	1.408639	-0.034701	0.102971	1.480177	-0.361550	
85	0.4200	0.028966	0.949039	-0.124717	0.044334	0.971989	-0.376321	-0.155442	1.023601	-0.219118	-0.143452	1.028118	-0.309119	-0.063320	0.801284	-0.076698	-0.006595	0.795310	-0.075123	-0.066990	0.748778	-0.083992	-0.008913	0.743173	-0.085380	-0.052064	0.459720	-0.163905	-0.050837	0.476847	-0.278193	-0.157199	0.328739	-0.148470	-0.107886	0.314645	-0.165123	-0.178938	0.284167	-0.159253	-0.133274	0.270025	-0.174519	-0.262702	0.108065	-0.200887	-0.259288	0.109738	-0.293899	-0.179385	0.033012	-0.170975	-0.161780	0.021741	-0.288727	-0.097150	0.041270	-0.228322	-0.337374	0.092432	-0.261748	-0.036017	0.849706	-0.449088	0.010689	0.864938	-0.451497	-0.020197	0.806713	-0.456979	0.026734	0.825603	-0.458912	0.117754	0.511084	-0.458075	0.116297	0.490510	-0.332950	-0.074352	0.455626	-0.487831	-0.047934	0.406240	-0.478991	-0.113544	0.425453	-0.475924	-0.080292	0.385405	-0.470332	-0.258023	0.333059	-0.449104	-0.242518	0.304103	-0.363557	-0.254542	0.212870	-0.493672	-0.237257	0.171159	-0.390623	-0.186068	0.140003	-0.452382	-0.315018	0.354104	-0.388953	0.103525	1.410624	-0.034481	0.110361	1.482099	-0.361146	
86	0.4250	0.036514	0.949844	-0.123604	0.052148	0.973287	-0.375002	-0.147571	1.024955	-0.218111	-0.135507	1.029495	-0.308090	-0.057293	0.802138	-0.075758	-0.000607	0.795525	-0.074196	-0.061651	0.749650	-0.083060	-0.003623	0.743321	-0.084465	-0.051129	0.460063	-0.162933	-0.049609	0.477072	-0.277368	-0.156742	0.329589	-0.147854	-0.107427	0.315360	-0.164273	-0.178540	0.285080	-0.158728	-0.132862	0.270819	-0.173705	-0.262222	0.108972	-0.200618	-0.258669	0.110931	-0.293591	-0.179344	0.033278	-0.170924	-0.161666	0.022269	-0.288586	-0.097242	0.041667	-0.228275	-0.336758	0.093816	-0.261468	-0.027344	0.851333	-0.447824	0.019273	0.866785	-0.450161	-0.011088	0.808272	-0.455524	0.035691	0.827519	-0.457553	0.130512	0.513357	-0.456015	0.128791	0.493093	-0.330751	-0.060975	0.455302	-0.486242	-0.033964	0.406233	-0.477361	-0.099896	0.424626	-0.474410	-0.066105	0.384896	-0.468678	-0.243476	0.330101	-0.448081	-0.227761	0.301438	-0.362444	-0.237142	0.209810	-0.492933	-0.219568	0.168325	-0.389861	-0.167151	0.138151	-0.451391	-0.301576	0.350084	-0.388079	0.111897	1.412480	-0.034310	0.116835	1.483873	-0.360791	
87	0.4300	0.043077	0.950594	-0.122660	0.058930	0.974500	-0.373854	-0.140723	1.026184	-0.217212	-0.128598	1.030760	-0.307170	-0.052048	0.802930	-0.074934	0.004599	0.795758	-0.073408	-0.057015	0.750461	-0.082243	0.000961	0.743495	-0.083685	-0.050399	0.460428	-0.162082	-0.048633	0.477323	-0.276656	-0.156397	0.330390	-0.147311	-0.107076	0.316054	-0.163519	-0.178231	0.285932	-0.158261	-0.132542	0.271578	-0.172980	-0.261769	0.109789	-0.200372	-0.258089	0.112006	-0.293310	-0.179281	0.033516	-0.170878	-0.161534	0.022747	-0.288451	-0.097303	0.042043	-0.228227	-0.336169	0.095066	-0.261212	-0.019839	0.852848	-0.446711	0.026693	0.868483	-0.448984	-0.003212	0.809724	-0.454234	0.043430	0.829271	-0.456356	0.141539	0.515422	-0.454194	0.139593	0.495418	-0.328810	-0.049406	0.455040	-0.484809	-0.021864	0.406258	-0.475924	-0.088085	0.423905	-0.473051	-0.053806	0.384461	-0.467214	-0.230846	0.327438	-0.447179	-0.214934	0.299022	-0.361467	-0.222000	0.207085	-0.492281	-0.204151	0.165789	-0.389193	-0.150678	0.136500	-0.450526	-0.289898	0.346463	-0.387304	0.119157	1.414179	-0.034180	0.122422	1.485478	-0.360482	
88	0.4350	0.048689	0.951277	-0.121872	0.064718	0.975605	-0.372873	-0.134864	1.027276	-0.216424	-0.122691	1.031894	-0.306363	-0.047559	0.803647	-0.074224	0.009052	0.795994	-0.072750	-0.053055	0.751198	-0.081541	0.004872	0.743681	-0.083031	-0.049839	0.460795	-0.161349	-0.047869	0.477584	-0.276054	-0.156143	0.331126	-0.146840	-0.106815	0.316706	-0.162863	-0.177996	0.286708	-0.157854	-0.132296	0.272281	-0.172347	-0.261350	0.110511	-0.200152	-0.257556	0.112956	-0.293058	-0.179205	0.033723	-0.170838	-0.161395	0.023170	-0.288327	-0.097339	0.042386	-0.228179	-0.335619	0.096174	-0.260984	-0.013451	0.854223	-0.445747	0.033003	0.870009	-0.447967	0.003488	0.811043	-0.453111	0.050007	0.830839	-0.455321	0.150912	0.517259	-0.452612	0.148777	0.497467	-0.327128	-0.039567	0.454833	-0.483542	-0.011559	0.406305	-0.474678	-0.078034	0.423288	-0.471854	-0.043324	0.384096	-0.465941	-0.220064	0.325088	-0.446399	-0.203971	0.296876	-0.360625	-0.209046	0.204705	-0.491714	-0.190942	0.163565	-0.388616	-0.136577	0.135058	-0.449784	-0.279921	0.343265	-0.386627	0.125350	1.415700	-0.034084	0.127166	1.486899	-0.360218	
89	0.4400	0.053401	0.951884	-0.121227	0.069569	0.976589	-0.372050	-0.129942	1.028225	-0.215747	-0.117732	1.032887	-0.305669	-0.043785	0.804280	-0.073624	0.012792	0.796220	-0.072209	-0.049732	0.751850	-0.080947	0.008147	0.743867	-0.082492	-0.049419	0.461148	-0.160729	-0.047283	0.477840	-0.275554	-0.155960	0.331787	-0.146441	-0.106624	0.317300	-0.162303	-0.177820	0.287398	-0.157505	-0.132110	0.272917	-0.171806	-0.260971	0.111136	-0.199960	-0.257078	0.113779	-0.292837	-0.179123	0.033898	-0.170804	-0.161257	0.023534	-0.288216	-0.097355	0.042689	-0.228135	-0.335120	0.097139	-0.260785	-0.008114	0.855441	-0.444929	0.038270	0.871349	-0.447105	0.009083	0.812211	-0.452153	0.055495	0.832210	-0.454442	0.158735	0.518857	-0.451266	0.156443	0.499237	-0.325700	-0.031353	0.454672	-0.482444	-0.002944	0.406366	-0.473620	-0.069638	0.422771	-0.470821	-0.034553	0.383795	-0.464856	-0.211029	0.323058	-0.445735	-0.194775	0.295013	-0.359911	-0.198170	0.202670	-0.491231	-0.179836	0.161656	-0.388128	-0.124733	0.133826	-0.449159	-0.271555	0.340500	-0.386048	0.130535	1.417031	-0.034016	0.131120	1.488132	-0.359997	
