PathFileType	4	(X/Y/Z)	 P3 pr2 05.trc
DataRate	CameraRate	NumFrames	NumMarkers	Units	OrigDataRate	OrigDataStartFrame	OrigNumFrames
200	200	87	38	m	200	1	87
Frame#	Time	RASIS			LASIS			RPSIS			LPSIS			RThighRear1			RThighFront1			RThighRear2			RThighFront2			RKneeLat			RKneeMed			RShankRear1			RShankFront1			RShankRear2			RShankFront2			RAnkleLat			RAnkleMed			RM5			RM1			RMid			RHeel			LThighRear1			LThighFront1			LThighRear2			LThighFront2			LKneeLat			LKneeMed			LShankRear1			LShankFront1			LShankRear2			LShankFront2			LAnkleLat			LAnkleMed			LM5			LM1			LMid			LHeel			RShoulder			LShoulder			
		X1	Y1	Z1	X2	Y2	Z2	X3	Y3	Z3	X4	Y4	Z4	X5	Y5	Z5	X6	Y6	Z6	X7	Y7	Z7	X8	Y8	Z8	X9	Y9	Z9	X10	Y10	Z10	X11	Y11	Z11	X12	Y12	Z12	X13	Y13	Z13	X14	Y14	Z14	X15	Y15	Z15	X16	Y16	Z16	X17	Y17	Z17	X18	Y18	Z18	X19	Y19	Z19	X20	Y20	Z20	X21	Y21	Z21	X22	Y22	Z22	X23	Y23	Z23	X24	Y24	Z24	X25	Y25	Z25	X26	Y26	Z26	X27	Y27	Z27	X28	Y28	Z28	X29	Y29	Z29	X30	Y30	Z30	X31	Y31	Z31	X32	Y32	Z32	X33	Y33	Z33	X34	Y34	Z34	X35	Y35	Z35	X36	Y36	Z36	X37	Y37	Z37	X38	Y38	Z38	
1	0.0000	-1.505662	0.970048	-0.216961	-1.512710	0.971387	-0.464697	-1.697751	1.019577	-0.303603	-1.693459	1.015857	-0.392483	-1.609351	0.812770	-0.156431	-1.555373	0.803677	-0.157178	-1.618080	0.758819	-0.160924	-1.562444	0.748754	-0.162625	-1.647870	0.460829	-0.212862	-1.623834	0.464718	-0.339247	-1.818716	0.457270	-0.211830	-1.796268	0.406987	-0.218191	-1.864832	0.443182	-0.225099	-1.846523	0.396372	-0.228681	-2.047986	0.385939	-0.266086	-2.028839	0.370468	-0.356955	-2.120489	0.276324	-0.236945	-2.101553	0.245523	-0.343642	-2.063181	0.169539	-0.297430	-2.066721	0.437213	-0.336832	-1.572963	0.840312	-0.522454	-1.527613	0.860056	-0.528251	-1.550927	0.793301	-0.524297	-1.506826	0.819441	-0.533686	-1.365905	0.530702	-0.470786	-1.365249	0.531218	-0.355785	-1.399073	0.323339	-0.491954	-1.342701	0.332035	-0.486025	-1.385242	0.273336	-0.482383	-1.334968	0.291235	-0.476395	-1.329539	0.100764	-0.450542	-1.313453	0.112467	-0.359513	-1.213024	0.070451	-0.470884	-1.185342	0.086414	-0.365827	-1.131682	0.130663	-0.423717	-1.376814	0.059823	-0.391364	-1.436200	1.443058	-0.200757	-1.471098	1.442449	-0.528465	
2	0.0050	-1.490856	0.966831	-0.216001	-1.497886	0.968966	-0.464296	-1.683377	1.015846	-0.302510	-1.679263	1.012577	-0.391492	-1.590855	0.809085	-0.155239	-1.536757	0.801045	-0.156505	-1.598209	0.755110	-0.159598	-1.542481	0.746246	-0.161654	-1.621631	0.457435	-0.211374	-1.598183	0.461891	-0.337777	-1.792158	0.453922	-0.209121	-1.769836	0.403776	-0.216435	-1.838291	0.440014	-0.222521	-1.820243	0.393510	-0.226754	-2.022037	0.384192	-0.263381	-2.003457	0.369405	-0.354261	-2.092820	0.273711	-0.234339	-2.074645	0.243551	-0.341225	-2.034879	0.168158	-0.295082	-2.042170	0.435707	-0.333585	-1.558292	0.837993	-0.521928	-1.512854	0.857960	-0.527729	-1.536048	0.791231	-0.524028	-1.491895	0.817491	-0.533215	-1.350003	0.528803	-0.471204	-1.349082	0.528898	-0.356356	-1.387307	0.322746	-0.492246	-1.330986	0.329956	-0.485830	-1.375022	0.272669	-0.482404	-1.324600	0.289111	-0.475997	-1.326099	0.100166	-0.449976	-1.309820	0.110977	-0.358932	-1.211052	0.067296	-0.470763	-1.182947	0.081453	-0.365050	-1.128496	0.123584	-0.422863	-1.374701	0.060648	-0.390999	-1.420910	1.439959	-0.200257	-1.454319	1.438135	-0.528808	
3	0.0100	-1.475855	0.963558	-0.215042	-1.482869	0.966515	-0.463916	-1.668806	1.012096	-0.301393	-1.664876	1.009285	-0.390476	-1.572114	0.805377	-0.154039	-1.517892	0.798410	-0.155827	-1.578068	0.751387	-0.158264	-1.522245	0.743746	-0.160680	-1.594943	0.454076	-0.209900	-1.572152	0.459115	-0.336323	-1.765161	0.450558	-0.206397	-1.742957	0.400556	-0.214676	-1.811319	0.436821	-0.219915	-1.793521	0.390620	-0.224817	-1.995688	0.382348	-0.260631	-1.977695	0.368253	-0.351526	-2.064673	0.270964	-0.231686	-2.047276	0.241447	-0.338763	-2.006092	0.166634	-0.292692	-2.017275	0.434088	-0.330282	-1.543458	0.835660	-0.521393	-1.497938	0.855844	-0.527210	-1.521011	0.789139	-0.523750	-1.476813	0.815515	-0.532751	-1.333963	0.526819	-0.471648	-1.332783	0.526485	-0.356949	-1.375471	0.322103	-0.492537	-1.319210	0.327806	-0.485649	-1.364752	0.271959	-0.482423	-1.314183	0.286926	-0.475607	-1.322683	0.099563	-0.449398	-1.306209	0.109485	-0.358340	-1.209097	0.064174	-0.470650	-1.180563	0.076534	-0.364272	-1.125340	0.116523	-0.422012	-1.372610	0.061447	-0.390619	-1.405420	1.436836	-0.199744	-1.437298	1.433785	-0.529143	
4	0.0150	-1.460673	0.960248	-0.214086	-1.467671	0.964052	-0.463560	-1.654047	1.008359	-0.300255	-1.650305	1.006009	-0.389439	-1.553152	0.801684	-0.152835	-1.498807	0.795810	-0.155146	-1.557683	0.747694	-0.156928	-1.501767	0.741295	-0.159706	-1.567816	0.450815	-0.208452	-1.545767	0.456451	-0.334898	-1.737733	0.447201	-0.203672	-1.715632	0.397357	-0.212924	-1.783928	0.433617	-0.217292	-1.766354	0.387720	-0.222881	-1.968937	0.380364	-0.257844	-1.951549	0.366967	-0.348756	-2.036020	0.268044	-0.228986	-2.019409	0.239164	-0.336255	-1.976783	0.164924	-0.290258	-1.992043	0.432296	-0.326930	-1.528484	0.833330	-0.520847	-1.482888	0.853720	-0.526694	-1.505846	0.787041	-0.523461	-1.461609	0.813522	-0.532296	-1.317861	0.524738	-0.472115	-1.316440	0.523969	-0.357560	-1.363640	0.321403	-0.492820	-1.307449	0.325583	-0.485488	-1.354501	0.271205	-0.482435	-1.303787	0.284681	-0.475232	-1.319328	0.098964	-0.448808	-1.302659	0.108007	-0.357742	-1.207185	0.061122	-0.470548	-1.178217	0.071711	-0.363502	-1.122251	0.109550	-0.421169	-1.370570	0.062210	-0.390221	-1.389756	1.433717	-0.199211	-1.420049	1.429434	-0.529456	
5	0.0200	-1.445316	0.956923	-0.213136	-1.452291	0.961591	-0.463231	-1.639100	1.004667	-0.299101	-1.635546	1.002780	-0.388381	-1.533989	0.798045	-0.151631	-1.479523	0.793285	-0.154462	-1.537073	0.744072	-0.155596	-1.481069	0.738938	-0.158738	-1.540252	0.447717	-0.207039	-1.519043	0.453963	-0.333511	-1.709876	0.443877	-0.200961	-1.687853	0.394209	-0.211186	-1.756114	0.430417	-0.214660	-1.738730	0.384824	-0.220951	-1.941768	0.378193	-0.255024	-1.925000	0.365497	-0.345956	-2.006816	0.264905	-0.226239	-1.990993	0.236654	-0.333699	-1.946897	0.162984	-0.287776	-1.966466	0.430266	-0.323538	-1.513386	0.831022	-0.520291	-1.467720	0.851600	-0.526183	-1.490579	0.784949	-0.523158	-1.446307	0.811518	-0.531850	-1.301775	0.522546	-0.472605	-1.300135	0.521337	-0.358184	-1.351885	0.320644	-0.493090	-1.295777	0.323288	-0.485349	-1.344334	0.270407	-0.482438	-1.293482	0.282380	-0.474877	-1.316073	0.098375	-0.448209	-1.299209	0.106557	-0.357138	-1.205337	0.058173	-0.470459	-1.175935	0.067036	-0.362746	-1.119266	0.102729	-0.420342	-1.368608	0.062927	-0.389808	-1.373933	1.430629	-0.198651	-1.402581	1.425120	-0.529735	
6	0.0250	-1.429784	0.953608	-0.212194	-1.436724	0.959151	-0.462928	-1.623958	1.001052	-0.297935	-1.620590	0.999628	-0.387308	-1.514636	0.794502	-0.150433	-1.460052	0.790879	-0.153777	-1.516252	0.740569	-0.154273	-1.460163	0.736720	-0.157779	-1.512248	0.444849	-0.205669	-1.491991	0.451714	-0.332171	-1.681583	0.440611	-0.198278	-1.659602	0.391145	-0.209468	-1.727871	0.427233	-0.212029	-1.710626	0.381947	-0.219035	-1.914154	0.375790	-0.252178	-1.898020	0.363792	-0.343134	-1.977004	0.261505	-0.223447	-1.961960	0.233867	-0.331094	-1.916367	0.160771	-0.285241	-1.940524	0.427929	-0.320116	-1.498170	0.828755	-0.519722	-1.452442	0.849494	-0.525676	-1.475223	0.782878	-0.522838	-1.430922	0.809512	-0.531412	-1.285777	0.520232	-0.473114	-1.283950	0.518579	-0.358814	-1.340276	0.319821	-0.493341	-1.284268	0.320921	-0.485237	-1.334316	0.269563	-0.482429	-1.283333	0.280026	-0.474544	-1.312951	0.097805	-0.447602	-1.295895	0.105152	-0.356532	-1.203577	0.055357	-0.470387	-1.173742	0.062556	-0.362011	-1.116418	0.096124	-0.419535	-1.366754	0.063589	-0.389380	-1.357965	1.427602	-0.198054	-1.384894	1.420882	-0.529966	
7	0.0300	-1.414071	0.950329	-0.211262	-1.420959	0.956749	-0.462650	-1.608610	0.997548	-0.296761	-1.605423	0.996584	-0.386222	-1.495101	0.791097	-0.149243	-1.440406	0.788634	-0.153090	-1.495228	0.737229	-0.152963	-1.439063	0.734688	-0.156833	-1.483799	0.442280	-0.204348	-1.464617	0.449770	-0.330884	-1.652845	0.437427	-0.195637	-1.630861	0.388196	-0.207775	-1.699185	0.424079	-0.209407	-1.682018	0.379105	-0.217137	-1.886064	0.373105	-0.249313	-1.870571	0.361800	-0.340296	-1.946521	0.257803	-0.220608	-1.932239	0.230758	-0.328439	-1.885115	0.158248	-0.282647	-1.914189	0.425218	-0.316675	-1.482837	0.826548	-0.519140	-1.437056	0.847416	-0.525174	-1.459791	0.780844	-0.522498	-1.415465	0.807511	-0.530982	-1.269939	0.517785	-0.473638	-1.267964	0.515686	-0.359442	-1.328879	0.318935	-0.493568	-1.272991	0.318483	-0.485152	-1.324508	0.268677	-0.482404	-1.273405	0.277626	-0.474240	-1.309994	0.097260	-0.446991	-1.292751	0.103805	-0.355929	-1.201924	0.052700	-0.470334	-1.171661	0.058315	-0.361303	-1.113738	0.089794	-0.418756	-1.365032	0.064188	-0.388940	-1.341858	1.424666	-0.197413	-1.366987	1.416761	-0.530134	
8	0.0350	-1.398168	0.947117	-0.210339	-1.404979	0.954405	-0.462393	-1.593041	0.994185	-0.295586	-1.590024	0.993679	-0.385128	-1.475388	0.787874	-0.148065	-1.420591	0.786596	-0.152401	-1.474007	0.734101	-0.151670	-1.417777	0.732891	-0.155901	-1.454903	0.440075	-0.203082	-1.436926	0.448191	-0.329655	-1.623653	0.434349	-0.193050	-1.601611	0.385391	-0.206113	-1.670044	0.420968	-0.206803	-1.652881	0.376314	-0.215262	-1.857459	0.370095	-0.246438	-1.842613	0.359473	-0.337450	-1.915304	0.253761	-0.217725	-1.901752	0.227283	-0.325732	-1.853063	0.155383	-0.279989	-1.887430	0.422066	-0.313227	-1.467386	0.824420	-0.518543	-1.421558	0.845376	-0.524673	-1.444288	0.778862	-0.522134	-1.399940	0.805525	-0.530556	-1.254332	0.515197	-0.474171	-1.252254	0.512649	-0.360062	-1.317760	0.317988	-0.493763	-1.262011	0.315980	-0.485097	-1.314970	0.267751	-0.482360	-1.263758	0.275186	-0.473965	-1.307232	0.096750	-0.446380	-1.289807	0.102530	-0.355331	-1.200395	0.050225	-0.470301	-1.169714	0.054347	-0.360629	-1.111252	0.083792	-0.418010	-1.363465	0.064720	-0.388491	-1.325619	1.421851	-0.196716	-1.348856	1.412799	-0.530224	
9	0.0400	-1.382066	0.944004	-0.209426	-1.388767	0.952138	-0.462152	-1.577236	0.990998	-0.294418	-1.574373	0.990942	-0.384033	-1.455501	0.784876	-0.146901	-1.400615	0.784809	-0.151708	-1.452596	0.731229	-0.150397	-1.396313	0.731374	-0.154986	-1.425566	0.438296	-0.201870	-1.408927	0.447036	-0.328484	-1.594006	0.431400	-0.190528	-1.571838	0.382760	-0.204482	-1.640441	0.417910	-0.204223	-1.623195	0.373590	-0.213413	-1.828307	0.366718	-0.243559	-1.814104	0.356763	-0.334604	-1.883291	0.249347	-0.214798	-1.870427	0.223407	-0.322972	-1.820135	0.152154	-0.277263	-1.860212	0.418409	-0.309786	-1.451809	0.822389	-0.517930	-1.405939	0.843387	-0.524171	-1.428716	0.776948	-0.521745	-1.384348	0.803562	-0.530131	-1.239021	0.512463	-0.474706	-1.236892	0.509467	-0.360662	-1.306976	0.316983	-0.493921	-1.251393	0.313420	-0.485070	-1.305753	0.266792	-0.482294	-1.254450	0.272717	-0.473723	-1.304686	0.096280	-0.445772	-1.287086	0.101340	-0.354743	-1.199004	0.047949	-0.470290	-1.167917	0.050684	-0.359995	-1.108981	0.078163	-0.417300	-1.362073	0.065183	-0.388037	-1.309252	1.419188	-0.195956	-1.330498	1.409039	-0.530224	
10	0.0450	-1.365753	0.941023	-0.208521	-1.372304	0.949967	-0.461920	-1.561177	0.988015	-0.293263	-1.558449	0.988404	-0.382942	-1.435446	0.782146	-0.145753	-1.380485	0.783315	-0.151011	-1.431002	0.728661	-0.149147	-1.374682	0.730181	-0.154088	-1.395799	0.437003	-0.200713	-1.380633	0.446358	-0.327372	-1.563906	0.428601	-0.188081	-1.541537	0.380331	-0.202883	-1.610373	0.414918	-0.201677	-1.592948	0.370946	-0.211590	-1.798573	0.362937	-0.240688	-1.785005	0.353628	-0.331767	-1.850429	0.244539	-0.211832	-1.838196	0.219100	-0.320162	-1.786261	0.148546	-0.274464	-1.832499	0.414189	-0.306367	-1.436096	0.820474	-0.517298	-1.390190	0.841459	-0.523664	-1.413075	0.775117	-0.521326	-1.368685	0.801632	-0.529700	-1.224072	0.509583	-0.475235	-1.221948	0.506142	-0.361233	-1.296585	0.315930	-0.494036	-1.241190	0.310814	-0.485071	-1.296908	0.265809	-0.482201	-1.245529	0.270233	-0.473515	-1.302375	0.095859	-0.445171	-1.284609	0.100248	-0.354169	-1.197763	0.045884	-0.470300	-1.166288	0.047348	-0.359407	-1.106941	0.072947	-0.416632	-1.360870	0.065579	-0.387584	-1.292764	1.416708	-0.195124	-1.311913	1.405524	-0.530117	
11	0.0500	-1.349220	0.938211	-0.207621	-1.355573	0.947915	-0.461685	-1.544850	0.985268	-0.292130	-1.542231	0.986091	-0.381864	-1.415228	0.779726	-0.144623	-1.360211	0.782156	-0.150306	-1.409237	0.726437	-0.147922	-1.352896	0.729355	-0.153208	-1.365629	0.436248	-0.199608	-1.352063	0.446203	-0.326315	-1.533368	0.425972	-0.185720	-1.510714	0.378130	-0.201317	-1.579846	0.411999	-0.199171	-1.562136	0.368399	-0.209796	-1.768233	0.358719	-0.237834	-1.755282	0.350033	-0.328948	-1.816672	0.239319	-0.208830	-1.805001	0.214345	-0.317302	-1.751382	0.144558	-0.271590	-1.804261	0.409355	-0.302987	-1.420238	0.818692	-0.516648	-1.374299	0.839606	-0.523148	-1.397361	0.773387	-0.520875	-1.352946	0.799745	-0.529258	-1.209544	0.506564	-0.475747	-1.207486	0.502681	-0.361761	-1.286633	0.314841	-0.494101	-1.231455	0.308179	-0.485096	-1.288476	0.264815	-0.482079	-1.237042	0.267750	-0.473340	-1.300311	0.095495	-0.444585	-1.282389	0.099265	-0.353616	-1.196680	0.044036	-0.470331	-1.164837	0.044354	-0.358868	-1.105144	0.068175	-0.416008	-1.359866	0.065913	-0.387137	-1.276159	1.414441	-0.194210	-1.293103	1.402296	-0.529892	
12	0.0550	-1.332458	0.935605	-0.206724	-1.338556	0.946002	-0.461437	-1.528242	0.982782	-0.291028	-1.525701	0.984029	-0.380805	-1.394856	0.777655	-0.143512	-1.339803	0.781369	-0.149592	-1.387314	0.724597	-0.146724	-1.330971	0.728932	-0.152345	-1.335094	0.436074	-0.198549	-1.323244	0.446607	-0.325306	-1.502416	0.423528	-0.183452	-1.479384	0.376179	-0.199781	-1.548879	0.409164	-0.196713	-1.530770	0.365961	-0.208031	-1.737268	0.354042	-0.235008	-1.724909	0.345948	-0.326159	-1.781989	0.233684	-0.205799	-1.770797	0.209132	-0.314397	-1.715454	0.140198	-0.268641	-1.775469	0.403866	-0.299664	-1.404222	0.817061	-0.515976	-1.358253	0.837840	-0.522617	-1.381572	0.771774	-0.520391	-1.337127	0.797914	-0.528797	-1.195492	0.503418	-0.476231	-1.193562	0.499098	-0.362235	-1.277165	0.313732	-0.494111	-1.222229	0.305536	-0.485142	-1.280494	0.263825	-0.481926	-1.229026	0.265289	-0.473199	-1.298499	0.095198	-0.444018	-1.280431	0.098404	-0.353089	-1.195759	0.042405	-0.470382	-1.163574	0.041709	-0.358384	-1.103593	0.063868	-0.415431	-1.359067	0.066194	-0.386704	-1.259445	1.412417	-0.193207	-1.274072	1.399396	-0.529536	
13	0.0600	-1.315461	0.933243	-0.205825	-1.321242	0.944248	-0.461163	-1.511343	0.980585	-0.289965	-1.508844	0.982242	-0.379776	-1.374343	0.775969	-0.142422	-1.319277	0.780988	-0.148866	-1.365250	0.723178	-0.145553	-1.308928	0.728945	-0.151499	-1.304245	0.436516	-0.197529	-1.294213	0.447597	-0.324338	-1.471086	0.421284	-0.181282	-1.447578	0.374496	-0.198273	-1.517497	0.406418	-0.194310	-1.498869	0.363645	-0.206292	-1.705667	0.348889	-0.232223	-1.693865	0.341354	-0.323411	-1.746363	0.227635	-0.202745	-1.735553	0.203464	-0.311453	-1.678447	0.135489	-0.265619	-1.746101	0.397689	-0.296415	-1.388039	0.815597	-0.515283	-1.342038	0.836173	-0.522066	-1.365701	0.770295	-0.519871	-1.321217	0.796151	-0.528310	-1.181966	0.500163	-0.476674	-1.180229	0.495415	-0.362641	-1.268214	0.312625	-0.494062	-1.213547	0.302909	-0.485203	-1.272988	0.262858	-0.481739	-1.221510	0.262875	-0.473089	-1.296937	0.094976	-0.443477	-1.278736	0.097673	-0.352594	-1.194999	0.040988	-0.470452	-1.162501	0.039412	-0.357957	-1.102290	0.060039	-0.414902	-1.358470	0.066438	-0.386294	-1.242632	1.410662	-0.192109	-1.254832	1.396862	-0.529038	
14	0.0650	-1.298225	0.931160	-0.204920	-1.303618	0.942673	-0.460849	-1.494146	0.978697	-0.288951	-1.491647	0.980749	-0.378783	-1.353702	0.774700	-0.141351	-1.298649	0.781040	-0.148126	-1.343068	0.722209	-0.144409	-1.286788	0.729420	-0.150667	-1.273146	0.437599	-0.196540	-1.265014	0.449192	-0.323400	-1.439427	0.419249	-0.179216	-1.415339	0.373096	-0.196788	-1.485740	0.403765	-0.191967	-1.466469	0.361461	-0.204578	-1.673431	0.343252	-0.229490	-1.662143	0.336239	-0.320713	-1.709791	0.221188	-0.199679	-1.699255	0.197355	-0.308478	-1.640349	0.130462	-0.262526	-1.716139	0.390803	-0.293260	-1.371679	0.814316	-0.514568	-1.325643	0.834618	-0.521488	-1.349745	0.768968	-0.519314	-1.305210	0.794469	-0.527787	-1.169006	0.496825	-0.477063	-1.167526	0.491659	-0.362965	-1.259806	0.311546	-0.493951	-1.205434	0.300328	-0.485274	-1.265979	0.261938	-0.481516	-1.214514	0.260537	-0.473008	-1.295618	0.094841	-0.442970	-1.277295	0.097085	-0.352137	-1.194399	0.039777	-0.470538	-1.161620	0.037456	-0.357590	-1.101227	0.056692	-0.414422	-1.358067	0.066662	-0.385914	-1.225731	1.409204	-0.190910	-1.235398	1.394732	-0.528387	
15	0.0700	-1.280749	0.929394	-0.204005	-1.285679	0.941298	-0.460480	-1.476648	0.977138	-0.287994	-1.474104	0.979568	-0.377834	-1.332951	0.773874	-0.140300	-1.277939	0.781549	-0.147370	-1.320793	0.721714	-0.143291	-1.264578	0.730376	-0.149847	-1.241874	0.439335	-0.195570	-1.235698	0.451397	-0.322480	-1.407495	0.417428	-0.177256	-1.382723	0.371989	-0.195322	-1.453654	0.401208	-0.189690	-1.433617	0.359419	-0.202887	-1.640566	0.337130	-0.226821	-1.629742	0.330600	-0.318078	-1.672286	0.214366	-0.196611	-1.661904	0.190831	-0.305481	-1.601167	0.125165	-0.259370	-1.685573	0.383198	-0.290215	-1.355132	0.813234	-0.513831	-1.309056	0.833188	-0.520879	-1.333699	0.767808	-0.518719	-1.289098	0.792883	-0.527222	-1.156646	0.493436	-0.477384	-1.155487	0.487866	-0.363192	-1.251957	0.310523	-0.493775	-1.197904	0.297829	-0.485349	-1.259477	0.261091	-0.481258	-1.208049	0.258305	-0.472953	-1.294524	0.094804	-0.442503	-1.276092	0.096648	-0.351726	-1.193949	0.038757	-0.470637	-1.160926	0.035827	-0.357284	-1.100393	0.053822	-0.413992	-1.357844	0.066892	-0.385576	-1.208755	1.408064	-0.189608	-1.215787	1.393036	-0.527578	
16	0.0750	-1.263036	0.927975	-0.203075	-1.267421	0.940140	-0.460043	-1.458851	0.975924	-0.287101	-1.456210	0.978712	-0.376938	-1.312111	0.773514	-0.139267	-1.257167	0.782528	-0.146594	-1.298452	0.721710	-0.142199	-1.242327	0.731824	-0.149036	-1.210518	0.441723	-0.194609	-1.206325	0.454204	-0.321565	-1.375360	0.415821	-0.175402	-1.349794	0.371179	-0.193868	-1.421298	0.398747	-0.187483	-1.400370	0.357525	-0.201216	-1.607090	0.330532	-0.224229	-1.596669	0.324444	-0.315517	-1.633875	0.207204	-0.193552	-1.623518	0.183929	-0.302473	-1.560924	0.119653	-0.256159	-1.654398	0.374876	-0.287299	-1.338391	0.812363	-0.513072	-1.292266	0.831896	-0.520232	-1.317556	0.766834	-0.518087	-1.272870	0.791407	-0.526604	-1.144910	0.490037	-0.477624	-1.144132	0.484078	-0.363308	-1.244674	0.309589	-0.493532	-1.190961	0.295449	-0.485420	-1.253481	0.260347	-0.480964	-1.202116	0.256215	-0.472921	-1.293633	0.094878	-0.442084	-1.275105	0.096375	-0.351367	-1.193642	0.037914	-0.470746	-1.160414	0.034504	-0.357039	-1.099774	0.051414	-0.413609	-1.357780	0.067155	-0.385287	-1.191718	1.407262	-0.188199	-1.196023	1.391803	-0.526602	
17	0.0800	-1.245089	0.926934	-0.202124	-1.248843	0.939215	-0.459522	-1.440756	0.975066	-0.286278	-1.437966	0.978191	-0.376099	-1.291201	0.773634	-0.138250	-1.236356	0.783987	-0.145797	-1.276076	0.722208	-0.141131	-1.220064	0.733766	-0.148230	-1.179173	0.444753	-0.193646	-1.176958	0.457596	-0.320642	-1.343094	0.414426	-0.173652	-1.316629	0.370667	-0.192422	-1.388734	0.396377	-0.185351	-1.366795	0.355782	-0.199560	-1.573026	0.323476	-0.221724	-1.562943	0.317788	-0.313037	-1.594599	0.199745	-0.190516	-1.584131	0.176699	-0.299466	-1.519661	0.113994	-0.252903	-1.622614	0.365851	-0.284525	-1.321451	0.811716	-0.512291	-1.275267	0.830755	-0.519542	-1.301311	0.766061	-0.517417	-1.256521	0.790058	-0.525926	-1.133809	0.486671	-0.477768	-1.133469	0.480343	-0.363299	-1.237951	0.308783	-0.493223	-1.184598	0.293230	-0.485480	-1.247983	0.259739	-0.480634	-1.196703	0.254304	-0.472909	-1.292914	0.095077	-0.441721	-1.274303	0.096274	-0.351066	-1.193461	0.037227	-0.470862	-1.160072	0.033463	-0.356856	-1.099348	0.049446	-0.413272	-1.357845	0.067486	-0.385057	-1.174635	1.406815	-0.186683	-1.176131	1.391055	-0.525456	
18	0.0850	-1.226915	0.926295	-0.201147	-1.229951	0.938537	-0.458905	-1.422373	0.974572	-0.285531	-1.419375	0.978011	-0.375324	-1.270245	0.774240	-0.137248	-1.215528	0.785925	-0.144976	-1.253696	0.723210	-0.140084	-1.197821	0.736198	-0.147425	-1.147942	0.448397	-0.192668	-1.147667	0.461542	-0.319695	-1.310778	0.413232	-0.172004	-1.283311	0.370444	-0.190976	-1.356031	0.394093	-0.183294	-1.332967	0.354193	-0.197915	-1.538407	0.315985	-0.219314	-1.528588	0.310658	-0.310650	-1.554509	0.192039	-0.187514	-1.543790	0.169197	-0.296474	-1.477437	0.108263	-0.249617	-1.590227	0.356149	-0.281907	-1.304307	0.811305	-0.511489	-1.258050	0.829777	-0.518804	-1.284960	0.765505	-0.516710	-1.240041	0.788851	-0.525180	-1.123344	0.483388	-0.477804	-1.123493	0.476712	-0.363154	-1.231772	0.308141	-0.492849	-1.178794	0.291215	-0.485523	-1.242961	0.259301	-0.480272	-1.191790	0.252613	-0.472912	-1.292333	0.095419	-0.441421	-1.273648	0.096356	-0.350831	-1.193393	0.036679	-0.470981	-1.159884	0.032675	-0.356732	-1.099093	0.047890	-0.412978	-1.358006	0.067921	-0.384896	-1.157522	1.406735	-0.185061	-1.156138	1.390808	-0.524137	
19	0.0900	-1.208522	0.926078	-0.200140	-1.210751	0.938120	-0.458179	-1.403709	0.974445	-0.284862	-1.400447	0.978173	-0.374615	-1.249264	0.775333	-0.136256	-1.194704	0.788333	-0.144128	-1.231344	0.724709	-0.139055	-1.175629	0.739104	-0.146617	-1.116931	0.452617	-0.191663	-1.118521	0.466000	-0.318710	-1.278493	0.412226	-0.170451	-1.249928	0.370501	-0.189524	-1.323263	0.391885	-0.181315	-1.298968	0.352754	-0.196278	-1.503267	0.308093	-0.217009	-1.493638	0.303088	-0.308360	-1.513668	0.184144	-0.184561	-1.502555	0.161490	-0.293512	-1.434322	0.102542	-0.246316	-1.557247	0.345806	-0.279453	-1.286957	0.811138	-0.510668	-1.240613	0.828976	-0.518014	-1.268498	0.765181	-0.515968	-1.223425	0.787803	-0.524359	-1.113505	0.480244	-0.477722	-1.114187	0.473243	-0.362862	-1.226111	0.307706	-0.492413	-1.173520	0.289451	-0.485541	-1.238385	0.259069	-0.479878	-1.187346	0.251181	-0.472927	-1.291846	0.095919	-0.441190	-1.273099	0.096634	-0.350668	-1.193417	0.036247	-0.471099	-1.159835	0.032110	-0.356664	-1.098984	0.046708	-0.412726	-1.358221	0.068503	-0.384811	-1.140394	1.407031	-0.183337	-1.136074	1.391074	-0.522644	
20	0.0950	-1.189917	0.926296	-0.199098	-1.191253	0.937971	-0.457335	-1.384777	0.974685	-0.284271	-1.381193	0.978675	-0.373973	-1.228279	0.776905	-0.135273	-1.173904	0.791195	-0.143253	-1.209050	0.726691	-0.138042	-1.153515	0.742461	-0.145802	-1.086245	0.457364	-0.190623	-1.089592	0.470917	-0.317675	-1.246323	0.411388	-0.168986	-1.216569	0.370819	-0.188061	-1.290501	0.389744	-0.179413	-1.264880	0.351462	-0.194644	-1.467646	0.299836	-0.214815	-1.458128	0.295122	-0.306175	-1.472146	0.176123	-0.181670	-1.460499	0.153653	-0.290593	-1.390402	0.096917	-0.243015	-1.523689	0.334868	-0.277171	-1.269400	0.811225	-0.509828	-1.222952	0.828363	-0.517168	-1.251919	0.765101	-0.515190	-1.206665	0.786929	-0.523459	-1.104267	0.477293	-0.477511	-1.105519	0.469995	-0.362413	-1.220929	0.307517	-0.491917	-1.168733	0.287983	-0.485530	-1.234216	0.259081	-0.479458	-1.183327	0.250048	-0.472949	-1.291407	0.096596	-0.441034	-1.272605	0.097116	-0.350581	-1.193513	0.035913	-0.471214	-1.159903	0.031736	-0.356650	-1.098992	0.045859	-0.412512	-1.358443	0.069274	-0.384809	-1.123263	1.407705	-0.181515	-1.115968	1.391855	-0.520979	
21	0.1000	-1.171113	0.926955	-0.198017	-1.171471	0.938097	-0.456363	-1.365589	0.975285	-0.283758	-1.361626	0.979510	-0.373398	-1.207312	0.778941	-0.134293	-1.153147	0.794484	-0.142347	-1.186844	0.729134	-0.137040	-1.131508	0.746236	-0.144973	-1.055988	0.462575	-0.189537	-1.060950	0.476232	-0.316578	-1.214348	0.410696	-0.167602	-1.183325	0.371376	-0.186581	-1.257817	0.387653	-0.177586	-1.230787	0.350309	-0.193011	-1.431589	0.291261	-0.212734	-1.422104	0.286807	-0.304097	-1.430020	0.168044	-0.178853	-1.417703	0.145765	-0.287733	-1.345771	0.091478	-0.239735	-1.489569	0.323393	-0.275063	-1.251639	0.811571	-0.508970	-1.205070	0.827950	-0.516263	-1.235219	0.765279	-0.514380	-1.189757	0.786247	-0.522474	-1.095595	0.474594	-0.477164	-1.097444	0.467025	-0.361800	-1.216178	0.307617	-0.491367	-1.164381	0.286856	-0.485483	-1.230404	0.259372	-0.479013	-1.179682	0.249255	-0.472977	-1.290964	0.097470	-0.440957	-1.272113	0.097816	-0.350577	-1.193660	0.035657	-0.471320	-1.160064	0.031522	-0.356686	-1.099089	0.045298	-0.412332	-1.358620	0.070283	-0.384897	-1.106143	1.408757	-0.179601	-1.095849	1.393148	-0.519145	
22	0.1050	-1.152118	0.928054	-0.196894	-1.151419	0.938502	-0.455260	-1.346160	0.976237	-0.283316	-1.341763	0.980669	-0.372885	-1.186379	0.781416	-0.133313	-1.132448	0.798169	-0.141410	-1.164753	0.732007	-0.136045	-1.109631	0.750388	-0.144125	-1.026259	0.468180	-0.188398	-1.032663	0.481873	-0.315408	-1.182643	0.410122	-0.166287	-1.150283	0.372147	-0.185080	-1.225279	0.385599	-0.175832	-1.196774	0.349286	-0.191374	-1.395139	0.282416	-0.210770	-1.385610	0.278201	-0.302128	-1.387370	0.159976	-0.176122	-1.374256	0.137907	-0.284945	-1.300533	0.086315	-0.236494	-1.454910	0.311444	-0.273129	-1.233676	0.812182	-0.508096	-1.186968	0.827747	-0.515299	-1.218395	0.765725	-0.513538	-1.172698	0.785770	-0.521402	-1.087441	0.472204	-0.476677	-1.089905	0.464392	-0.361021	-1.211800	0.308043	-0.490768	-1.160403	0.286112	-0.485397	-1.226891	0.259979	-0.478549	-1.176352	0.248838	-0.473006	-1.290463	0.098561	-0.440965	-1.271566	0.098745	-0.350659	-1.193833	0.035465	-0.471417	-1.160294	0.031438	-0.356767	-1.099246	0.044975	-0.412185	-1.358696	0.071576	-0.385079	-1.089043	1.410181	-0.177602	-1.075744	1.394944	-0.517146	
23	0.1100	-1.132943	0.929587	-0.195727	-1.131116	0.939184	-0.454023	-1.326505	0.977528	-0.282940	-1.321623	0.982137	-0.372428	-1.165497	0.784301	-0.132329	-1.111819	0.802207	-0.140438	-1.142801	0.735272	-0.135053	-1.087904	0.754870	-0.143253	-0.997148	0.474099	-0.187202	-1.004795	0.487763	-0.314158	-1.151278	0.409638	-0.165031	-1.117527	0.373101	-0.183555	-1.192953	0.383564	-0.174148	-1.162919	0.348379	-0.189731	-1.358342	0.273354	-0.208920	-1.348697	0.269364	-0.300268	-1.344280	0.151990	-0.173488	-1.330252	0.130165	-0.282244	-1.254798	0.081515	-0.233312	-1.419734	0.299091	-0.271363	-1.215517	0.813059	-0.507207	-1.168652	0.827765	-0.514273	-1.201444	0.766448	-0.512664	-1.155484	0.785514	-0.520241	-1.079747	0.470176	-0.476048	-1.082833	0.462150	-0.360075	-1.207729	0.308832	-0.490127	-1.156728	0.285790	-0.485269	-1.223612	0.260933	-0.478071	-1.173268	0.248832	-0.473035	-1.289847	0.099889	-0.441058	-1.270905	0.099914	-0.350830	-1.194010	0.035324	-0.471499	-1.160566	0.031456	-0.356888	-1.099434	0.044842	-0.412066	-1.358611	0.073200	-0.385355	-1.071972	1.411967	-0.175529	-1.055679	1.397226	-0.514990	
24	0.1150	-1.113598	0.931538	-0.194516	-1.110580	0.940142	-0.452651	-1.306641	0.979141	-0.282619	-1.301227	0.983900	-0.372020	-1.144679	0.787556	-0.131335	-1.091268	0.806551	-0.139431	-1.121008	0.738885	-0.134060	-1.066344	0.759626	-0.142351	-0.968734	0.480246	-0.185945	-0.977403	0.493820	-0.312823	-1.120315	0.409209	-0.163824	-1.085132	0.374205	-0.182003	-1.160894	0.381529	-0.172528	-1.129297	0.347575	-0.188080	-1.321245	0.264131	-0.207182	-1.311418	0.260359	-0.298513	-1.300835	0.144155	-0.170959	-1.285790	0.122622	-0.279643	-1.208681	0.077162	-0.230208	-1.384070	0.286412	-0.269758	-1.197169	0.814206	-0.506303	-1.150131	0.828012	-0.513186	-1.184362	0.767454	-0.511760	-1.138115	0.785491	-0.518991	-1.072444	0.468560	-0.475278	-1.076146	0.460349	-0.358965	-1.203892	0.310017	-0.489448	-1.153280	0.285926	-0.485097	-1.220498	0.262264	-0.477582	-1.170357	0.249265	-0.473061	-1.289060	0.101476	-0.441238	-1.270067	0.101334	-0.351091	-1.194166	0.035227	-0.471566	-1.160852	0.031554	-0.357045	-1.099627	0.044848	-0.411975	-1.358303	0.075204	-0.385725	-1.054936	1.414100	-0.173390	-1.035677	1.399971	-0.512684	
25	0.1200	-1.094094	0.933884	-0.193259	-1.089832	0.941367	-0.451149	-1.286581	0.981057	-0.282342	-1.280597	0.985936	-0.371648	-1.123935	0.791138	-0.130326	-1.070800	0.811147	-0.138387	-1.099391	0.742793	-0.133061	-1.044963	0.764597	-0.141413	-0.941088	0.486532	-0.184627	-0.950542	0.499959	-0.311401	-1.089807	0.408804	-0.162653	-1.053168	0.375424	-0.180425	-1.129154	0.379478	-0.170967	-1.095977	0.346858	-0.186421	-1.283893	0.254805	-0.205552	-1.273827	0.251254	-0.296860	-1.257120	0.136539	-0.168543	-1.240972	0.115360	-0.277151	-1.162300	0.073334	-0.227202	-1.347946	0.273487	-0.268303	-1.178641	0.815620	-0.505385	-1.131415	0.828493	-0.512038	-1.167149	0.768747	-0.510826	-1.120594	0.785712	-0.517654	-1.065456	0.467400	-0.474373	-1.069757	0.459030	-0.357697	-1.200209	0.311624	-0.488739	-1.149976	0.286547	-0.484880	-1.217470	0.263998	-0.477087	-1.167540	0.250164	-0.473083	-1.288044	0.103340	-0.441505	-1.268993	0.103016	-0.351443	-1.194280	0.035171	-0.471615	-1.161122	0.031713	-0.357233	-1.099799	0.044944	-0.411908	-1.357708	0.077631	-0.386188	-1.037938	1.416560	-0.171196	-1.015760	1.403152	-0.510238	
26	0.1250	-1.074440	0.936597	-0.191960	-1.068894	0.942849	-0.449522	-1.266344	0.983252	-0.282094	-1.259755	0.988225	-0.371301	-1.103272	0.794997	-0.129300	-1.050417	0.815936	-0.137302	-1.077961	0.746943	-0.132052	-1.023768	0.769717	-0.140433	-0.914262	0.492863	-0.183251	-0.924256	0.506093	-0.309894	-1.059798	0.408390	-0.161507	-1.021694	0.376721	-0.178820	-1.097775	0.377392	-0.169458	-1.063019	0.346212	-0.184755	-1.246334	0.245435	-0.204021	-1.235981	0.242115	-0.295301	-1.213220	0.129207	-0.166247	-1.195900	0.108455	-0.274778	-1.115774	0.070099	-0.224312	-1.311397	0.260399	-0.266982	-1.159945	0.817299	-0.504451	-1.112519	0.829215	-0.510832	-1.149806	0.770330	-0.509862	-1.102923	0.786187	-0.516232	-1.058699	0.466734	-0.473340	-1.063569	0.458227	-0.356281	-1.196599	0.313676	-0.488006	-1.146730	0.287676	-0.484620	-1.214452	0.266154	-0.476590	-1.164736	0.251546	-0.473099	-1.286744	0.105502	-0.441855	-1.267622	0.104971	-0.351884	-1.194327	0.035159	-0.471645	-1.161348	0.031920	-0.357446	-1.099928	0.045084	-0.411867	-1.356763	0.080522	-0.386736	-1.020978	1.419324	-0.168957	-0.995943	1.406735	-0.507662	
27	0.1300	-1.054645	0.939640	-0.190619	-1.047788	0.944577	-0.447780	-1.245943	0.985703	-0.281860	-1.238725	0.990743	-0.370964	-1.082694	0.799078	-0.128250	-1.030118	0.820856	-0.136176	-1.056728	0.751274	-0.131028	-1.002762	0.774918	-0.139406	-0.888299	0.499148	-0.181819	-0.898583	0.512138	-0.308306	-1.030319	0.407932	-0.160377	-0.990759	0.378061	-0.177191	-1.066791	0.375255	-0.167995	-1.030475	0.345619	-0.183082	-1.208614	0.236079	-0.202581	-1.197938	0.233010	-0.293830	-1.169218	0.122218	-0.164073	-1.150678	0.101978	-0.272531	-1.069220	0.067516	-0.221554	-1.274460	0.247231	-0.265779	-1.141094	0.819239	-0.503503	-1.093458	0.830179	-0.509569	-1.132332	0.772200	-0.508867	-1.085108	0.786921	-0.514730	-1.052084	0.466589	-0.472190	-1.057481	0.457964	-0.354732	-1.192973	0.316186	-0.487254	-1.143455	0.289327	-0.484318	-1.211362	0.268746	-0.476094	-1.161861	0.253424	-0.473110	-1.285106	0.107981	-0.442283	-1.265896	0.107207	-0.352411	-1.194287	0.035199	-0.471653	-1.161500	0.032167	-0.357680	-1.099993	0.045226	-0.411850	-1.355406	0.083915	-0.387362	-1.004055	1.422365	-0.166686	-0.976243	1.410680	-0.504969	
28	0.1350	-1.034719	0.942974	-0.189241	-1.026540	0.946532	-0.445934	-1.225397	0.988380	-0.281621	-1.217532	0.993465	-0.370620	-1.062202	0.803323	-0.127173	-1.009897	0.825840	-0.135005	-1.035695	0.755724	-0.129985	-0.981945	0.780130	-0.138326	-0.863222	0.505296	-0.180340	-0.873554	0.518011	-0.306644	-1.001393	0.407401	-0.159253	-0.960404	0.379407	-0.175543	-1.036231	0.373052	-0.166572	-0.998391	0.345063	-0.181405	-1.170780	0.226796	-0.201221	-1.159756	0.224004	-0.292438	-1.125197	0.115624	-0.162023	-1.105409	0.095993	-0.270416	-1.022758	0.065632	-0.218943	-1.237177	0.234069	-0.264676	-1.122101	0.821432	-0.502537	-1.074250	0.831386	-0.508252	-1.114732	0.774353	-0.507839	-1.067157	0.787918	-0.513153	-1.045519	0.466983	-0.470936	-1.051386	0.458252	-0.353066	-1.189247	0.319164	-0.486488	-1.140064	0.291505	-0.483977	-1.208120	0.271784	-0.475603	-1.158835	0.255802	-0.473114	-1.283082	0.110792	-0.442783	-1.263762	0.109732	-0.353020	-1.194141	0.035307	-0.471640	-1.161549	0.032454	-0.357932	-1.099978	0.045334	-0.411859	-1.353577	0.087842	-0.388054	-0.987166	1.425654	-0.164393	-0.956670	1.414947	-0.502171	
29	0.1400	-1.014670	0.946551	-0.187830	-1.005173	0.948697	-0.443998	-1.204719	0.991254	-0.281358	-1.196201	0.996364	-0.370253	-1.041797	0.807672	-0.126065	-0.989748	0.830822	-0.133788	-1.014864	0.760229	-0.128920	-0.961312	0.785284	-0.137188	-0.839041	0.511222	-0.178821	-0.849190	0.523634	-0.304918	-0.973034	0.406767	-0.158126	-0.930657	0.380725	-0.173880	-1.006112	0.370772	-0.165181	-0.966803	0.344528	-0.179728	-1.132881	0.217640	-0.199931	-1.121498	0.215160	-0.291113	-1.081239	0.109472	-0.160097	-1.060198	0.090551	-0.268435	-0.976503	0.064482	-0.216490	-1.199597	0.220995	-0.263655	-1.102985	0.823869	-0.501553	-1.054917	0.832833	-0.506885	-1.097011	0.776781	-0.506777	-1.049080	0.789178	-0.511508	-1.038909	0.467922	-0.469596	-1.045179	0.459092	-0.351302	-1.185335	0.322608	-0.485713	-1.136471	0.294208	-0.483600	-1.204647	0.275269	-0.475117	-1.155576	0.258678	-0.473111	-1.280626	0.113950	-0.443347	-1.261170	0.112553	-0.353703	-1.193868	0.035504	-0.471604	-1.161469	0.032788	-0.358196	-1.099870	0.045378	-0.411897	-1.351220	0.092327	-0.388799	-0.970306	1.429156	-0.162088	-0.937233	1.419490	-0.499281	
30	0.1450	-0.994509	0.950324	-0.186392	-0.983713	0.951050	-0.441987	-1.183927	0.994296	-0.281054	-1.174756	0.999413	-0.369844	-1.021475	0.812063	-0.124923	-0.969662	0.835735	-0.132521	-0.994232	0.764727	-0.127829	-0.940856	0.790310	-0.135988	-0.815752	0.516845	-0.177274	-0.825505	0.528937	-0.303142	-0.945245	0.406008	-0.156990	-0.901537	0.381983	-0.172209	-0.976448	0.368405	-0.163817	-0.935737	0.343997	-0.178056	-1.094968	0.208667	-0.198698	-1.083226	0.206537	-0.289848	-1.037425	0.103799	-0.158293	-1.015144	0.085696	-0.266589	-0.930566	0.064085	-0.214203	-1.161772	0.208090	-0.262694	-1.083761	0.826537	-0.500549	-1.035478	0.834515	-0.505471	-1.079173	0.779474	-0.505678	-1.030888	0.790699	-0.509803	-1.032162	0.469402	-0.468187	-1.038756	0.460472	-0.349465	-1.181152	0.326513	-0.484932	-1.132593	0.297426	-0.483192	-1.200866	0.279195	-0.474636	-1.152008	0.262041	-0.473101	-1.277701	0.117469	-0.443964	-1.258078	0.115674	-0.354452	-1.193454	0.035817	-0.471544	-1.161233	0.033179	-0.358470	-1.099659	0.045334	-0.411966	-1.348283	0.097390	-0.389581	-0.953467	1.432836	-0.159781	-0.917938	1.424262	-0.496312	
31	0.1500	-0.974245	0.954240	-0.184933	-0.962184	0.953567	-0.439916	-1.163036	0.997472	-0.280688	-1.153224	1.002584	-0.369376	-1.001233	0.816435	-0.123743	-0.949630	0.840516	-0.131203	-0.973794	0.769153	-0.126708	-0.920567	0.795142	-0.134719	-0.793335	0.522095	-0.175710	-0.802504	0.533856	-0.301330	-0.918022	0.405102	-0.155839	-0.873055	0.383154	-0.170536	-0.947244	0.365944	-0.162473	-0.905213	0.343458	-0.176394	-1.057093	0.199924	-0.197511	-1.045005	0.198189	-0.288630	-0.993836	0.098633	-0.156607	-0.970350	0.081458	-0.264876	-0.885058	0.064445	-0.212089	-1.123762	0.195429	-0.261776	-1.064449	0.829424	-0.499520	-1.015958	0.836424	-0.504013	-1.061226	0.782417	-0.504539	-1.012596	0.792474	-0.508045	-1.025186	0.471407	-0.466728	-1.032014	0.462366	-0.347577	-1.176621	0.330861	-0.484145	-1.128354	0.301138	-0.482757	-1.196707	0.283551	-0.474161	-1.148060	0.265874	-0.473082	-1.274272	0.121358	-0.444622	-1.254448	0.119099	-0.355257	-1.192884	0.036279	-0.471460	-1.160818	0.033648	-0.358752	-1.099339	0.045190	-0.412070	-1.344720	0.103042	-0.390382	-0.936644	1.436656	-0.157481	-0.898789	1.429212	-0.493280	
32	0.1550	-0.953889	0.958246	-0.183461	-0.940613	0.956223	-0.437805	-1.142063	1.000750	-0.280242	-1.131630	1.005849	-0.368831	-0.981065	0.820726	-0.122523	-0.929640	0.845100	-0.129829	-0.953540	0.773448	-0.125554	-0.900432	0.799719	-0.133380	-0.771757	0.526908	-0.174140	-0.780183	0.538336	-0.299498	-0.891354	0.404033	-0.154671	-0.845211	0.384211	-0.168872	-0.918504	0.363388	-0.161145	-0.875247	0.342897	-0.174747	-1.019312	0.191459	-0.196358	-1.006904	0.190164	-0.287450	-0.950553	0.093995	-0.155033	-0.925915	0.077856	-0.263291	-0.840083	0.065553	-0.210148	-1.085635	0.183086	-0.260882	-1.045067	0.832512	-0.498465	-0.996379	0.838548	-0.502515	-1.043181	0.785590	-0.503358	-0.994217	0.794490	-0.506244	-1.017893	0.473909	-0.465242	-1.024856	0.464738	-0.345664	-1.171666	0.335633	-0.483355	-1.123681	0.305317	-0.482299	-1.192102	0.288319	-0.473688	-1.143667	0.270153	-0.473055	-1.270314	0.125625	-0.445306	-1.250252	0.122828	-0.356105	-1.192143	0.036928	-0.471352	-1.160200	0.034218	-0.359038	-1.098907	0.044940	-0.412214	-1.340493	0.109286	-0.391182	-0.919827	1.440576	-0.155195	-0.879786	1.434293	-0.490197	
33	0.1600	-0.933451	0.962286	-0.181981	-0.919024	0.958991	-0.435669	-1.121026	1.004096	-0.279698	-1.110000	1.009179	-0.368195	-0.960965	0.824880	-0.121260	-0.909682	0.849432	-0.128399	-0.933462	0.777555	-0.124364	-0.880438	0.803983	-0.131967	-0.750973	0.531234	-0.172578	-0.758531	0.542336	-0.297664	-0.865223	0.402792	-0.153483	-0.818001	0.385133	-0.167223	-0.890224	0.360737	-0.159829	-0.845844	0.342304	-0.173122	-0.981686	0.183312	-0.195228	-0.968992	0.182504	-0.286299	-0.907658	0.089893	-0.153564	-0.881938	0.074894	-0.261829	-0.795745	0.067382	-0.208380	-1.047463	0.171126	-0.259995	-1.025635	0.835781	-0.497380	-0.976766	0.840871	-0.500982	-1.025045	0.788972	-0.502130	-0.975766	0.796734	-0.504408	-1.010201	0.476870	-0.463749	-1.017192	0.467538	-0.343754	-1.166219	0.340797	-0.482560	-1.118512	0.309927	-0.481824	-1.186993	0.293475	-0.473215	-1.138771	0.274847	-0.473016	-1.265807	0.130275	-0.446002	-1.245466	0.126861	-0.356984	-1.191222	0.037807	-0.471219	-1.159360	0.034920	-0.359329	-1.098364	0.044589	-0.412402	-1.335568	0.116117	-0.391959	-0.903010	1.444557	-0.152930	-0.860929	1.439453	-0.487078	
34	0.1650	-0.912945	0.966308	-0.180503	-0.897444	0.961842	-0.433526	-1.099940	1.007476	-0.279042	-1.088359	1.012546	-0.367452	-0.940928	0.828840	-0.119954	-0.889747	0.853456	-0.126908	-0.913547	0.781422	-0.123136	-0.860572	0.807883	-0.130479	-0.730927	0.535033	-0.171036	-0.737528	0.545822	-0.295845	-0.839610	0.401373	-0.152275	-0.791410	0.385905	-0.165598	-0.862401	0.357995	-0.158522	-0.817009	0.341672	-0.171526	-0.944278	0.175519	-0.194110	-0.931342	0.175244	-0.285166	-0.865236	0.086327	-0.152192	-0.838517	0.072564	-0.260482	-0.752140	0.069890	-0.206779	-1.009329	0.159612	-0.259102	-1.006172	0.839209	-0.496263	-0.957140	0.843374	-0.499417	-1.006829	0.792537	-0.500854	-0.957260	0.799186	-0.502546	-1.002034	0.480239	-0.462271	-1.008942	0.470706	-0.341872	-1.160221	0.346319	-0.481758	-1.112791	0.314926	-0.481336	-1.181326	0.298988	-0.472736	-1.133321	0.279917	-0.472966	-1.260737	0.135310	-0.446693	-1.240077	0.131195	-0.357880	-1.190109	0.038962	-0.471061	-1.158280	0.035787	-0.359623	-1.097710	0.044151	-0.412641	-1.329922	0.123525	-0.392691	-0.886184	1.448557	-0.150690	-0.842216	1.444642	-0.483935	
35	0.1700	-0.892383	0.970259	-0.179032	-0.875895	0.964749	-0.431393	-1.078825	1.010857	-0.278260	-1.066731	1.015920	-0.366591	-0.920948	0.832558	-0.118603	-0.869825	0.857129	-0.125357	-0.893782	0.785000	-0.121869	-0.840817	0.811377	-0.128913	-0.711555	0.538276	-0.169526	-0.717147	0.548773	-0.294059	-0.814491	0.399777	-0.151048	-0.765422	0.386513	-0.164005	-0.835029	0.355172	-0.157221	-0.788739	0.340992	-0.169964	-0.907158	0.168111	-0.192997	-0.894029	0.168410	-0.284045	-0.823373	0.083286	-0.150907	-0.795749	0.070845	-0.259239	-0.709362	0.073022	-0.205337	-0.971321	0.148597	-0.258191	-0.986697	0.842770	-0.495108	-0.937523	0.846037	-0.497825	-0.988545	0.796255	-0.499527	-0.938712	0.801823	-0.500667	-0.993324	0.483959	-0.460827	-1.000033	0.474174	-0.340044	-1.153618	0.352159	-0.480948	-1.106470	0.320267	-0.480838	-1.175057	0.304826	-0.472247	-1.127278	0.285324	-0.472902	-1.255099	0.140730	-0.447362	-1.234079	0.135823	-0.358776	-1.188795	0.040441	-0.470876	-1.156945	0.036857	-0.359919	-1.096952	0.043649	-0.412935	-1.323536	0.131490	-0.393355	-0.869342	1.452535	-0.148479	-0.823643	1.449814	-0.480783	
36	0.1750	-0.871781	0.974089	-0.177575	-0.854402	0.967681	-0.429285	-1.057698	1.014203	-0.277342	-1.045142	1.019274	-0.365602	-0.901019	0.835987	-0.117207	-0.849910	0.860409	-0.123744	-0.874155	0.788251	-0.120560	-0.821161	0.814430	-0.127270	-0.692786	0.540948	-0.168058	-0.697354	0.551178	-0.292319	-0.789840	0.398009	-0.149806	-0.740015	0.386949	-0.162453	-0.808102	0.352278	-0.155925	-0.761032	0.340262	-0.168444	-0.870400	0.161113	-0.191880	-0.857131	0.162022	-0.282929	-0.782156	0.080751	-0.149702	-0.753729	0.069702	-0.258090	-0.667501	0.076706	-0.204042	-0.933535	0.138129	-0.257252	-0.967227	0.846437	-0.493915	-0.917935	0.848832	-0.496208	-0.970203	0.800092	-0.498147	-0.920138	0.804616	-0.498779	-0.984009	0.487963	-0.459436	-0.990404	0.477866	-0.338295	-1.146365	0.358270	-0.480125	-1.099513	0.325897	-0.480335	-1.168150	0.310950	-0.471740	-1.120607	0.291020	-0.472820	-1.248893	0.146531	-0.447991	-1.227472	0.140741	-0.359656	-1.187271	0.042293	-0.470664	-1.155341	0.038169	-0.360216	-1.096092	0.043118	-0.413290	-1.316401	0.139985	-0.393928	-0.852477	1.456450	-0.146297	-0.805205	1.454920	-0.477631	
37	0.1800	-0.851153	0.977752	-0.176140	-0.832988	0.970609	-0.427215	-1.036580	1.017481	-0.276280	-1.023614	1.022580	-0.364478	-0.881137	0.839090	-0.115765	-0.829997	0.863266	-0.122067	-0.854651	0.791138	-0.119208	-0.801591	0.817016	-0.125551	-0.674543	0.543046	-0.166641	-0.678108	0.553040	-0.290642	-0.765633	0.396079	-0.148551	-0.715166	0.387208	-0.160947	-0.781615	0.349326	-0.154634	-0.733882	0.339477	-0.166969	-0.834082	0.154542	-0.190756	-0.820729	0.156092	-0.281814	-0.741676	0.078692	-0.148564	-0.712555	0.069089	-0.257024	-0.626643	0.080860	-0.202879	-0.896074	0.128248	-0.256280	-0.947776	0.850177	-0.492679	-0.898393	0.851731	-0.494570	-0.951811	0.804011	-0.496713	-0.901549	0.807534	-0.496891	-0.974039	0.492177	-0.458117	-0.980005	0.481699	-0.336645	-1.138427	0.364606	-0.479285	-1.091888	0.331759	-0.479827	-1.160574	0.317318	-0.471210	-1.113285	0.296956	-0.472718	-1.242121	0.152708	-0.448564	-1.220262	0.145939	-0.360505	-1.185527	0.044570	-0.470424	-1.153457	0.039767	-0.360516	-1.095137	0.042598	-0.413709	-1.308515	0.148979	-0.394390	-0.835583	1.460262	-0.144144	-0.786897	1.459916	-0.474492	
38	0.1850	-0.830516	0.981205	-0.174731	-0.811673	0.973503	-0.425196	-1.015488	1.020658	-0.275070	-1.002171	1.025808	-0.363215	-0.861299	0.841833	-0.114279	-0.810081	0.865676	-0.120329	-0.835258	0.793637	-0.117813	-0.782093	0.819117	-0.123759	-0.656746	0.544576	-0.165283	-0.659361	0.554369	-0.289038	-0.741844	0.394001	-0.147289	-0.690847	0.387290	-0.159494	-0.755564	0.346334	-0.153350	-0.707283	0.338635	-0.165545	-0.798286	0.148413	-0.189620	-0.784904	0.150623	-0.280695	-0.702027	0.077072	-0.147485	-0.672319	0.068950	-0.256027	-0.586868	0.085390	-0.201832	-0.859045	0.118986	-0.255273	-0.928359	0.853957	-0.491399	-0.878912	0.854702	-0.492915	-0.933379	0.807973	-0.495224	-0.882956	0.810543	-0.495009	-0.963370	0.496522	-0.456883	-0.968798	0.485587	-0.335115	-1.129773	0.371114	-0.478425	-1.083577	0.337797	-0.479319	-1.152308	0.323889	-0.470647	-1.105295	0.303083	-0.472593	-1.234794	0.159252	-0.449062	-1.212464	0.151407	-0.361305	-1.183553	0.047319	-0.470155	-1.151281	0.041689	-0.360818	-1.094089	0.042140	-0.414197	-1.299881	0.158433	-0.394719	-0.818654	1.463931	-0.142020	-0.768710	1.464761	-0.471376	
39	0.1900	-0.809888	0.984410	-0.173352	-0.790477	0.976334	-0.423237	-0.994443	1.023702	-0.273713	-0.980833	1.028933	-0.361815	-0.841503	0.844191	-0.112749	-0.790163	0.867625	-0.118530	-0.815961	0.795726	-0.116374	-0.762656	0.820725	-0.121898	-0.639314	0.545558	-0.163989	-0.641061	0.555187	-0.287517	-0.718453	0.391793	-0.146025	-0.667035	0.387195	-0.158099	-0.729948	0.343318	-0.152074	-0.681229	0.337737	-0.164174	-0.763099	0.142732	-0.188470	-0.749741	0.145613	-0.279572	-0.663302	0.075845	-0.146455	-0.633115	0.069217	-0.255088	-0.548252	0.090191	-0.200882	-0.822561	0.110370	-0.254231	-0.908986	0.857740	-0.490074	-0.859501	0.857709	-0.491247	-0.914914	0.811934	-0.493683	-0.864366	0.813603	-0.493141	-0.951968	0.500918	-0.455746	-0.956757	0.489444	-0.333720	-1.120383	0.377743	-0.477539	-1.074565	0.343949	-0.478810	-1.143337	0.330616	-0.470046	-1.096628	0.309347	-0.472439	-1.226922	0.166153	-0.449471	-1.204093	0.157134	-0.362041	-1.181337	0.050586	-0.469856	-1.148804	0.043978	-0.361121	-1.092949	0.041799	-0.414755	-1.290509	0.168305	-0.394896	-0.801686	1.467419	-0.139919	-0.750638	1.469413	-0.468291	
40	0.1950	-0.789285	0.987335	-0.172008	-0.769415	0.979072	-0.421345	-0.973463	1.026582	-0.272211	-0.959620	1.031925	-0.360280	-0.821746	0.846147	-0.111177	-0.770244	0.869107	-0.116673	-0.796749	0.797395	-0.114893	-0.743272	0.821841	-0.119972	-0.622165	0.546018	-0.162762	-0.623150	0.555524	-0.286083	-0.695439	0.389476	-0.144764	-0.643702	0.386929	-0.156763	-0.704768	0.340297	-0.150808	-0.655713	0.336781	-0.162861	-0.728611	0.137500	-0.187307	-0.715323	0.141051	-0.278443	-0.625596	0.074960	-0.145464	-0.595035	0.069817	-0.254195	-0.510869	0.095153	-0.200011	-0.786737	0.102416	-0.253158	-0.889665	0.861487	-0.488703	-0.840170	0.860716	-0.489567	-0.896420	0.815850	-0.492091	-0.845785	0.816672	-0.491292	-0.939808	0.505281	-0.454717	-0.943865	0.493183	-0.332472	-1.110243	0.384441	-0.476625	-1.064847	0.350158	-0.478302	-1.133653	0.337454	-0.469398	-1.087280	0.315698	-0.472254	-1.218520	0.173397	-0.449775	-1.195171	0.163108	-0.362698	-1.178861	0.054412	-0.469526	-1.146016	0.046672	-0.361424	-1.091715	0.041637	-0.415384	-1.280412	0.178550	-0.394906	-0.784673	1.470690	-0.137839	-0.732671	1.473838	-0.465244	
41	0.2000	-0.768726	0.989950	-0.170698	-0.748504	0.981691	-0.419527	-0.952567	1.029267	-0.270571	-0.938550	1.034759	-0.358617	-0.802029	0.847689	-0.109566	-0.750326	0.870124	-0.114763	-0.777609	0.798637	-0.113370	-0.723932	0.822475	-0.117988	-0.605220	0.545992	-0.161602	-0.605569	0.555415	-0.284740	-0.672787	0.387071	-0.143513	-0.620825	0.386497	-0.155488	-0.680028	0.337289	-0.149557	-0.630733	0.335768	-0.161605	-0.694912	0.132712	-0.186134	-0.681736	0.136921	-0.277311	-0.589006	0.074362	-0.144504	-0.558166	0.070669	-0.253335	-0.474785	0.100158	-0.199197	-0.751693	0.095137	-0.252059	-0.870400	0.865157	-0.487286	-0.820919	0.863683	-0.487881	-0.877900	0.819673	-0.490452	-0.827211	0.819709	-0.489468	-0.926871	0.509529	-0.453802	-0.930119	0.496721	-0.331379	-1.099344	0.391155	-0.475677	-1.054421	0.356366	-0.477793	-1.123251	0.344360	-0.468697	-1.077253	0.322083	-0.472033	-1.209599	0.180969	-0.449961	-1.185719	0.169314	-0.363261	-1.176109	0.058834	-0.469163	-1.142905	0.049805	-0.361727	-1.090378	0.041718	-0.416083	-1.269608	0.189119	-0.394735	-0.767611	1.473711	-0.135773	-0.714798	1.478001	-0.462242	
42	0.2050	-0.748227	0.992235	-0.169424	-0.727754	0.984162	-0.417784	-0.931772	1.031729	-0.268805	-0.917636	1.037407	-0.356837	-0.782354	0.848814	-0.107917	-0.730416	0.870686	-0.112804	-0.758531	0.799456	-0.111806	-0.704631	0.822643	-0.115953	-0.588405	0.545522	-0.160507	-0.588253	0.554904	-0.283485	-0.650482	0.384601	-0.142278	-0.598381	0.385906	-0.154274	-0.655734	0.334314	-0.148322	-0.606285	0.334698	-0.160408	-0.662094	0.128358	-0.184954	-0.649062	0.133201	-0.276178	-0.553626	0.073989	-0.143568	-0.522594	0.071691	-0.252499	-0.440062	0.105088	-0.198421	-0.717544	0.088535	-0.250943	-0.851192	0.868707	-0.485826	-0.801749	0.866569	-0.486190	-0.859352	0.823354	-0.488771	-0.808644	0.822667	-0.487674	-0.913147	0.513582	-0.453003	-0.915521	0.499979	-0.330446	-1.087682	0.397834	-0.474694	-1.043291	0.362516	-0.477283	-1.112131	0.351289	-0.467939	-1.066552	0.328454	-0.471772	-1.200173	0.188852	-0.450018	-1.175759	0.175738	-0.363718	-1.173055	0.063881	-0.468765	-1.139458	0.053407	-0.362027	-1.088925	0.042107	-0.416849	-1.258116	0.199962	-0.394373	-0.750494	1.476450	-0.133714	-0.697010	1.481873	-0.459289	
43	0.2100	-0.727805	0.994173	-0.168184	-0.707174	0.986461	-0.416117	-0.911094	1.033942	-0.266926	-0.896891	1.039846	-0.354951	-0.762720	0.849525	-0.106235	-0.710520	0.870810	-0.110802	-0.739504	0.799860	-0.110205	-0.685362	0.822370	-0.113877	-0.571649	0.544653	-0.159475	-0.571137	0.554037	-0.282314	-0.628516	0.382089	-0.141063	-0.576351	0.385164	-0.153120	-0.631896	0.331388	-0.147109	-0.582367	0.333570	-0.159267	-0.630248	0.124424	-0.183772	-0.617383	0.129863	-0.275049	-0.519547	0.073780	-0.142650	-0.488401	0.072795	-0.251677	-0.406756	0.109823	-0.197666	-0.684407	0.082607	-0.249821	-0.832037	0.872094	-0.484324	-0.782653	0.869332	-0.484498	-0.840773	0.826845	-0.487056	-0.790076	0.825500	-0.485912	-0.898632	0.517363	-0.452321	-0.900085	0.502885	-0.329672	-1.075257	0.404432	-0.473674	-1.031464	0.368557	-0.476771	-1.100296	0.358199	-0.467118	-1.055185	0.334764	-0.471467	-1.190249	0.197025	-0.449937	-1.165311	0.182365	-0.364058	-1.169670	0.069574	-0.468333	-1.135659	0.057503	-0.362322	-1.087332	0.042870	-0.417676	-1.245955	0.211028	-0.393812	-0.733319	1.478879	-0.131657	-0.679292	1.485428	-0.456389	
44	0.2150	-0.707474	0.995752	-0.166975	-0.686769	0.988563	-0.414524	-0.890546	1.035882	-0.264950	-0.876324	1.042050	-0.352976	-0.743131	0.849831	-0.104523	-0.690645	0.870519	-0.108765	-0.720520	0.799865	-0.108570	-0.666122	0.821687	-0.111769	-0.554888	0.543435	-0.158498	-0.554159	0.552861	-0.281218	-0.606885	0.379557	-0.139872	-0.554717	0.384279	-0.152023	-0.608527	0.328527	-0.145920	-0.558981	0.332384	-0.158183	-0.599463	0.120892	-0.182597	-0.586778	0.126877	-0.273928	-0.486858	0.073674	-0.141743	-0.455661	0.073897	-0.250861	-0.374916	0.114248	-0.196912	-0.652395	0.077345	-0.248705	-0.812929	0.875273	-0.482784	-0.763621	0.871932	-0.482808	-0.822156	0.830098	-0.485312	-0.771497	0.828164	-0.484187	-0.883324	0.520801	-0.451752	-0.883829	0.505375	-0.329052	-1.062070	0.410901	-0.472617	-1.018946	0.374439	-0.476253	-1.087749	0.365049	-0.466233	-1.043158	0.340969	-0.471114	-1.179833	0.205467	-0.449711	-1.154391	0.189179	-0.364271	-1.165919	0.075925	-0.467864	-1.131487	0.062111	-0.362607	-1.085570	0.044068	-0.418556	-1.233143	0.222267	-0.393051	-0.716078	1.480971	-0.129591	-0.661631	1.488643	-0.453543	
45	0.2200	-0.687246	0.996967	-0.165793	-0.666540	0.990445	-0.413001	-0.870141	1.037528	-0.262896	-0.855941	1.043995	-0.350930	-0.723589	0.849747	-0.102785	-0.670802	0.869842	-0.106701	-0.701571	0.799489	-0.106905	-0.646909	0.820628	-0.109639	-0.538066	0.541918	-0.157569	-0.537254	0.551427	-0.280186	-0.585585	0.377027	-0.138712	-0.533467	0.383257	-0.150977	-0.585639	0.325743	-0.144761	-0.536129	0.331136	-0.157151	-0.569823	0.117739	-0.181434	-0.557320	0.124211	-0.272823	-0.455642	0.073608	-0.140846	-0.424446	0.074916	-0.250047	-0.344587	0.118251	-0.196147	-0.621614	0.072732	-0.247606	-0.793857	0.878200	-0.481209	-0.744639	0.874327	-0.481123	-0.803490	0.833065	-0.483550	-0.752891	0.830613	-0.482499	-0.867230	0.523835	-0.451291	-0.866777	0.507398	-0.328578	-1.048125	0.417200	-0.471522	-1.005747	0.380119	-0.475728	-1.074494	0.371802	-0.465281	-1.030478	0.347029	-0.470709	-1.168924	0.214152	-0.449336	-1.143013	0.196164	-0.364350	-1.161759	0.082935	-0.467358	-1.126916	0.067242	-0.362879	-1.083597	0.045758	-0.419479	-1.219698	0.233628	-0.392090	-0.698763	1.482704	-0.127511	-0.644012	1.491502	-0.450751	
46	0.2250	-0.667131	0.997817	-0.164632	-0.646485	0.992087	-0.411541	-0.849886	1.038862	-0.260785	-0.835743	1.045662	-0.348832	-0.704098	0.849293	-0.101027	-0.650998	0.868813	-0.104619	-0.682650	0.798757	-0.105213	-0.627720	0.819232	-0.107498	-0.521134	0.540153	-0.156678	-0.520364	0.549782	-0.279203	-0.564619	0.374516	-0.137583	-0.512588	0.382105	-0.149979	-0.563250	0.323050	-0.143635	-0.513814	0.329825	-0.156167	-0.541408	0.114941	-0.180293	-0.529079	0.121830	-0.271740	-0.425972	0.073525	-0.139955	-0.394816	0.075774	-0.249230	-0.315805	0.121730	-0.195357	-0.592163	0.068748	-0.246539	-0.774807	0.880832	-0.479606	-0.725690	0.876477	-0.479446	-0.784761	0.835702	-0.481779	-0.734241	0.832805	-0.480852	-0.850355	0.526408	-0.450929	-0.848956	0.508909	-0.328238	-1.033425	0.423291	-0.470394	-0.991870	0.385556	-0.475192	-1.060532	0.378422	-0.464264	-1.017151	0.352907	-0.470249	-1.157516	0.223053	-0.448811	-1.131181	0.203303	-0.364289	-1.157140	0.090596	-0.466815	-1.121914	0.072899	-0.363130	-1.081362	0.047990	-0.420433	-1.205631	0.245062	-0.390934	-0.681367	1.484062	-0.125408	-0.626416	1.493988	-0.448014	
47	0.2300	-0.647137	0.998307	-0.163483	-0.626598	0.993471	-0.410139	-0.829787	1.039868	-0.258638	-0.815728	1.047029	-0.346702	-0.684658	0.848494	-0.099253	-0.631243	0.867468	-0.102527	-0.663751	0.797698	-0.103501	-0.608556	0.817543	-0.105357	-0.504053	0.538186	-0.155816	-0.503431	0.547971	-0.278253	-0.543992	0.372042	-0.136489	-0.492075	0.380828	-0.149022	-0.541374	0.320454	-0.142544	-0.492043	0.328447	-0.155230	-0.514290	0.112473	-0.179184	-0.502117	0.119697	-0.270687	-0.397917	0.073371	-0.139069	-0.366827	0.076402	-0.248408	-0.288598	0.124593	-0.194532	-0.564133	0.065368	-0.245516	-0.755761	0.883129	-0.477980	-0.706752	0.878346	-0.477780	-0.765952	0.837965	-0.480008	-0.715524	0.834700	-0.479244	-0.832708	0.528476	-0.450655	-0.830396	0.509878	-0.328016	-1.017970	0.429137	-0.469235	-0.977321	0.390717	-0.474641	-1.045863	0.384877	-0.463183	-1.003175	0.358570	-0.469732	-1.145593	0.232141	-0.448136	-1.118895	0.210577	-0.364084	-1.152003	0.098885	-0.466232	-1.116442	0.079075	-0.363355	-1.078801	0.050804	-0.421402	-1.190952	0.256521	-0.389590	-0.663878	1.485028	-0.123274	-0.608826	1.496092	-0.445330	
48	0.2350	-0.627266	0.998444	-0.162339	-0.606869	0.994580	-0.408784	-0.809846	1.040537	-0.256477	-0.795890	1.048082	-0.344562	-0.665273	0.847378	-0.097470	-0.611544	0.865845	-0.100435	-0.644869	0.796343	-0.101773	-0.589414	0.815601	-0.103227	-0.486795	0.536062	-0.154971	-0.486407	0.546038	-0.277319	-0.523710	0.369617	-0.135430	-0.471923	0.379430	-0.148100	-0.520031	0.317962	-0.141493	-0.470823	0.326997	-0.154332	-0.488534	0.110305	-0.178114	-0.476489	0.117778	-0.269671	-0.371532	0.073100	-0.138188	-0.340521	0.076738	-0.247581	-0.262987	0.126761	-0.193668	-0.537603	0.062562	-0.244550	-0.736698	0.885052	-0.476337	-0.687799	0.879899	-0.476127	-0.747043	0.839818	-0.478248	-0.696717	0.836262	-0.477677	-0.814299	0.530003	-0.450456	-0.811125	0.510287	-0.327893	-1.001761	0.434710	-0.468050	-0.962097	0.395572	-0.474072	-1.030483	0.391136	-0.462044	-0.988550	0.363992	-0.469155	-1.133133	0.241384	-0.447316	-1.106145	0.217967	-0.363734	-1.146283	0.107772	-0.465610	-1.110453	0.085755	-0.363545	-1.075841	0.054229	-0.422370	-1.175664	0.267961	-0.388071	-0.646283	1.485592	-0.121103	-0.591221	1.497809	-0.442696	
49	0.2400	-0.607518	0.998241	-0.161190	-0.587283	0.995401	-0.407467	-0.790060	1.040862	-0.254325	-0.776219	1.048804	-0.342433	-0.645944	0.845974	-0.095682	-0.591909	0.863984	-0.098351	-0.625999	0.794724	-0.100037	-0.570296	0.813452	-0.101118	-0.469339	0.533821	-0.154131	-0.469248	0.544018	-0.276383	-0.503784	0.367253	-0.134408	-0.452132	0.377913	-0.147207	-0.499236	0.315577	-0.140483	-0.450160	0.325469	-0.153471	-0.464194	0.108409	-0.177094	-0.452244	0.116039	-0.268700	-0.346862	0.072670	-0.137315	-0.315933	0.076734	-0.246752	-0.238986	0.128171	-0.192760	-0.512639	0.060297	-0.243652	-0.717593	0.886567	-0.474684	-0.668806	0.881106	-0.474490	-0.728011	0.841228	-0.476509	-0.677792	0.837461	-0.476150	-0.795138	0.530965	-0.450316	-0.791173	0.510129	-0.327848	-0.984795	0.439983	-0.466846	-0.946196	0.400098	-0.473479	-1.014386	0.397173	-0.460851	-0.973265	0.369146	-0.468517	-1.120108	0.250745	-0.446355	-1.092914	0.225455	-0.363238	-1.139906	0.117211	-0.464948	-1.103893	0.092915	-0.363692	-1.072394	0.058280	-0.423318	-1.159765	0.279336	-0.386390	-0.628569	1.485750	-0.118887	-0.573580	1.499137	-0.440108	
50	0.2450	-0.587890	0.997715	-0.160026	-0.567825	0.995923	-0.406177	-0.770424	1.040840	-0.252201	-0.756701	1.049187	-0.340334	-0.626672	0.844317	-0.093897	-0.572344	0.861923	-0.096285	-0.607139	0.792876	-0.098297	-0.551201	0.811136	-0.099040	-0.451677	0.531499	-0.153286	-0.451922	0.541944	-0.275424	-0.484225	0.364955	-0.133421	-0.432703	0.376279	-0.146337	-0.479007	0.313299	-0.139515	-0.430063	0.323859	-0.152642	-0.441314	0.106759	-0.176132	-0.429417	0.114449	-0.267781	-0.323940	0.072049	-0.136451	-0.293085	0.076351	-0.245925	-0.216599	0.128777	-0.191810	-0.489295	0.058536	-0.242833	-0.698423	0.887646	-0.473028	-0.649743	0.881943	-0.472871	-0.708832	0.842167	-0.474801	-0.658722	0.838270	-0.474661	-0.775233	0.531351	-0.450220	-0.770564	0.509412	-0.327860	-0.967065	0.444933	-0.465629	-0.929606	0.404276	-0.472859	-0.997559	0.402965	-0.459613	-0.957307	0.374014	-0.467815	-1.106479	0.260188	-0.445261	-1.079175	0.233018	-0.362598	-1.132793	0.127148	-0.464246	-1.096700	0.100521	-0.363785	-1.068365	0.062961	-0.424226	-1.143246	0.290605	-0.384566	-0.610720	1.485500	-0.116622	-0.555879	1.500078	-0.437564	
51	0.2500	-0.568373	0.996885	-0.158834	-0.548475	0.996139	-0.404904	-0.750928	1.040474	-0.250127	-0.737320	1.049222	-0.338284	-0.607456	0.842439	-0.092119	-0.552852	0.859702	-0.094244	-0.588285	0.790833	-0.096559	-0.532129	0.808693	-0.097002	-0.433809	0.529123	-0.152424	-0.434404	0.539840	-0.274427	-0.465046	0.362730	-0.132468	-0.413643	0.374528	-0.145482	-0.459359	0.311127	-0.138592	-0.410542	0.322162	-0.151841	-0.419926	0.105327	-0.175235	-0.408038	0.112980	-0.266921	-0.302784	0.071214	-0.135600	-0.271986	0.075563	-0.245104	-0.195820	0.128550	-0.190821	-0.467608	0.057242	-0.242101	-0.679159	0.888264	-0.471374	-0.630581	0.882390	-0.471272	-0.689479	0.842616	-0.473133	-0.639475	0.838672	-0.473208	-0.754591	0.531157	-0.450151	-0.749321	0.508153	-0.327903	-0.948562	0.449543	-0.464408	-0.912313	0.408092	-0.472207	-0.979987	0.408489	-0.458337	-0.940657	0.378578	-0.467049	-1.092204	0.269672	-0.444042	-1.064895	0.240635	-0.361816	-1.124858	0.137514	-0.463503	-1.088804	0.108531	-0.363815	-1.063647	0.068257	-0.425073	-1.126097	0.301727	-0.382617	-0.592718	1.484845	-0.114303	-0.538097	1.500642	-0.435059	
52	0.2550	-0.548956	0.995774	-0.157605	-0.529209	0.996045	-0.403637	-0.731558	1.039773	-0.248119	-0.718056	1.048908	-0.336299	-0.588296	0.840374	-0.090355	-0.533437	0.857356	-0.092233	-0.569436	0.788630	-0.094830	-0.513081	0.806161	-0.095010	-0.415747	0.526717	-0.151536	-0.416680	0.537726	-0.273374	-0.446262	0.360578	-0.131547	-0.394961	0.372662	-0.144639	-0.440309	0.309058	-0.137714	-0.391606	0.320373	-0.151063	-0.400050	0.104088	-0.174412	-0.388123	0.111607	-0.266126	-0.283399	0.070152	-0.134766	-0.252636	0.074360	-0.244296	-0.176637	0.127480	-0.189799	-0.447601	0.056375	-0.241462	-0.659774	0.888404	-0.469729	-0.611290	0.882434	-0.469693	-0.669927	0.842562	-0.471511	-0.620025	0.838654	-0.471790	-0.733220	0.530396	-0.450090	-0.727462	0.506382	-0.327953	-0.929275	0.453799	-0.463190	-0.894299	0.411537	-0.471517	-0.961653	0.413728	-0.457033	-0.923291	0.382827	-0.466218	-1.077233	0.279153	-0.442710	-1.050031	0.248282	-0.360896	-1.116011	0.148233	-0.462719	-1.080128	0.116893	-0.363772	-1.058126	0.074141	-0.425836	-1.108299	0.312663	-0.380563	-0.574545	1.483795	-0.111928	-0.520209	1.500840	-0.432589	
53	0.2600	-0.529626	0.994405	-0.156327	-0.510005	0.995641	-0.402365	-0.712298	1.038748	-0.246192	-0.698887	1.048247	-0.334395	-0.569191	0.838157	-0.088609	-0.514101	0.854919	-0.090259	-0.550592	0.786299	-0.093116	-0.494057	0.803572	-0.093071	-0.397513	0.524297	-0.150612	-0.398749	0.535614	-0.272251	-0.427889	0.358499	-0.130656	-0.376667	0.370679	-0.143803	-0.421868	0.307086	-0.136880	-0.373264	0.318487	-0.150306	-0.381695	0.103018	-0.173668	-0.369680	0.110308	-0.265401	-0.265773	0.068856	-0.133954	-0.235017	0.072742	-0.243509	-0.159027	0.125577	-0.188753	-0.429282	0.055893	-0.240921	-0.640241	0.888056	-0.468097	-0.591841	0.882069	-0.468136	-0.650150	0.842001	-0.469943	-0.600342	0.838214	-0.470402	-0.711124	0.529087	-0.450020	-0.705003	0.504137	-0.327986	-0.909189	0.457691	-0.461985	-0.875542	0.414607	-0.470786	-0.942535	0.418666	-0.455711	-0.905183	0.386752	-0.465320	-1.061514	0.288586	-0.441274	-1.034537	0.255933	-0.359842	-1.106160	0.159219	-0.461893	-1.070593	0.125549	-0.363644	-1.051680	0.080571	-0.426495	-1.089831	0.323377	-0.378427	-0.556183	1.482363	-0.109493	-0.502193	1.500689	-0.430149	
54	0.2650	-0.510364	0.992805	-0.154990	-0.490837	0.994930	-0.401079	-0.693130	1.037416	-0.244357	-0.679788	1.047244	-0.332581	-0.550139	0.835821	-0.086887	-0.494843	0.852420	-0.088325	-0.531755	0.783873	-0.091420	-0.475060	0.800956	-0.091189	-0.379136	0.521875	-0.149647	-0.380620	0.533511	-0.271046	-0.409942	0.356491	-0.129791	-0.358776	0.368582	-0.142970	-0.404049	0.305205	-0.136089	-0.355526	0.316502	-0.149567	-0.364854	0.102097	-0.173007	-0.352703	0.109068	-0.264750	-0.249882	0.067332	-0.133168	-0.219103	0.070723	-0.242751	-0.142960	0.122871	-0.187695	-0.412640	0.055756	-0.240478	-0.620535	0.887218	-0.466485	-0.572207	0.881295	-0.466599	-0.630123	0.840937	-0.468433	-0.580400	0.837353	-0.469042	-0.688309	0.527262	-0.449923	-0.681955	0.501468	-0.327978	-0.888290	0.461212	-0.460799	-0.856015	0.417303	-0.470007	-0.922610	0.423290	-0.454379	-0.886303	0.390346	-0.464356	-1.044993	0.297924	-0.439746	-1.018361	0.263560	-0.358661	-1.095212	0.170378	-0.461025	-1.060112	0.134430	-0.363422	-1.044185	0.087488	-0.427027	-1.070673	0.333830	-0.376230	-0.537612	1.480568	-0.107000	-0.484029	1.500209	-0.427737	
55	0.2700	-0.491151	0.991001	-0.153585	-0.471682	0.993920	-0.399769	-0.674032	1.035801	-0.242624	-0.660737	1.045913	-0.330868	-0.531138	0.833397	-0.085193	-0.475662	0.849885	-0.086433	-0.512927	0.781383	-0.089747	-0.456092	0.798338	-0.089365	-0.360657	0.519455	-0.148633	-0.362314	0.531417	-0.269751	-0.392440	0.354549	-0.128950	-0.341303	0.366370	-0.142137	-0.386863	0.303409	-0.135341	-0.338402	0.314418	-0.148843	-0.349509	0.101305	-0.172432	-0.337177	0.107875	-0.264175	-0.235685	0.065593	-0.132413	-0.204852	0.068330	-0.242030	-0.128396	0.119406	-0.186637	-0.397653	0.055922	-0.240135	-0.600630	0.885895	-0.464895	-0.552364	0.880122	-0.465084	-0.609824	0.839382	-0.466983	-0.560177	0.836086	-0.467706	-0.664780	0.524964	-0.449781	-0.658324	0.498431	-0.327905	-0.866564	0.464361	-0.459640	-0.835695	0.419628	-0.469175	-0.901857	0.427590	-0.453049	-0.866620	0.393609	-0.463325	-1.027617	0.307117	-0.438137	-1.001451	0.271135	-0.357357	-1.083079	0.181610	-0.460115	-1.048601	0.143465	-0.363095	-1.035517	0.094824	-0.427412	-1.050800	0.343987	-0.373993	-0.518817	1.478433	-0.104448	-0.465697	1.499426	-0.425347	
56	0.2750	-0.471969	0.989024	-0.152102	-0.452515	0.992622	-0.398429	-0.654983	1.033928	-0.240998	-0.641709	1.044271	-0.329258	-0.512187	0.830917	-0.083530	-0.456557	0.847338	-0.084583	-0.494113	0.778855	-0.088100	-0.437157	0.795737	-0.087600	-0.342123	0.517038	-0.147568	-0.343866	0.529329	-0.268361	-0.375400	0.352669	-0.128130	-0.324268	0.364045	-0.141304	-0.370319	0.301690	-0.134633	-0.321900	0.312235	-0.148134	-0.335630	0.100628	-0.171945	-0.323075	0.106720	-0.263679	-0.223131	0.063660	-0.131693	-0.192211	0.065600	-0.241353	-0.115287	0.115246	-0.185591	-0.384278	0.056352	-0.239888	-0.580509	0.884103	-0.463329	-0.532292	0.878565	-0.463588	-0.589237	0.837358	-0.465594	-0.539656	0.834432	-0.466388	-0.640544	0.522240	-0.449579	-0.634119	0.495088	-0.327747	-0.843999	0.467139	-0.458515	-0.814557	0.421589	-0.468286	-0.880255	0.431558	-0.451728	-0.846106	0.396540	-0.462225	-1.009334	0.316116	-0.436459	-0.983752	0.278626	-0.355937	-1.069676	0.192811	-0.459161	-1.035975	0.152574	-0.362655	-1.025554	0.102494	-0.427631	-1.030193	0.353814	-0.371736	-0.499782	1.475988	-0.101842	-0.447181	1.498369	-0.422978	
57	0.2800	-0.452798	0.986901	-0.150535	-0.433316	0.991052	-0.397052	-0.635963	1.031829	-0.239479	-0.622682	1.042339	-0.327755	-0.493286	0.828409	-0.081902	-0.437529	0.844796	-0.082774	-0.475323	0.776317	-0.086482	-0.418262	0.793168	-0.085893	-0.323590	0.514622	-0.146451	-0.325320	0.527238	-0.266873	-0.358843	0.350846	-0.127327	-0.307692	0.361613	-0.140468	-0.354424	0.300041	-0.133964	-0.306029	0.309958	-0.147438	-0.323175	0.100052	-0.171546	-0.310361	0.105601	-0.263260	-0.212151	0.061560	-0.131014	-0.181115	0.062580	-0.240728	-0.103578	0.110468	-0.184571	-0.372463	0.057007	-0.239733	-0.560157	0.881864	-0.461788	-0.511977	0.876647	-0.462109	-0.568347	0.834895	-0.464264	-0.518823	0.832419	-0.465085	-0.615610	0.519148	-0.449301	-0.609344	0.491506	-0.327484	-0.820589	0.469551	-0.457430	-0.792579	0.423199	-0.467335	-0.857790	0.435190	-0.450424	-0.824735	0.399143	-0.461058	-0.990100	0.324869	-0.434721	-0.965217	0.286001	-0.354407	-1.054928	0.203874	-0.458163	-1.022154	0.161676	-0.362094	-1.014182	0.110409	-0.427668	-1.008834	0.363275	-0.369479	-0.480497	1.473264	-0.099185	-0.428471	1.497070	-0.420627	
58	0.2850	-0.433620	0.984664	-0.148879	-0.414067	0.989231	-0.395634	-0.616950	1.029539	-0.238065	-0.603637	1.040145	-0.326355	-0.474437	0.825899	-0.080309	-0.418577	0.842275	-0.081004	-0.456566	0.773791	-0.084895	-0.399417	0.790643	-0.084240	-0.305120	0.512200	-0.145281	-0.306732	0.525133	-0.265289	-0.342786	0.349073	-0.126539	-0.291598	0.359078	-0.139631	-0.339186	0.298456	-0.133331	-0.290800	0.307590	-0.146755	-0.312089	0.099568	-0.171233	-0.298987	0.104518	-0.262918	-0.202669	0.059327	-0.130378	-0.171489	0.059324	-0.240161	-0.093207	0.105161	-0.183590	-0.362139	0.057849	-0.239662	-0.539564	0.879209	-0.460273	-0.491411	0.874400	-0.460646	-0.547148	0.832030	-0.462990	-0.497673	0.830084	-0.463791	-0.589993	0.515751	-0.448933	-0.584006	0.487756	-0.327099	-0.796331	0.471605	-0.456388	-0.769748	0.424471	-0.466317	-0.834453	0.438483	-0.449145	-0.802489	0.401425	-0.459823	-0.969881	0.333326	-0.432934	-0.945801	0.293225	-0.352774	-1.038771	0.214693	-0.457120	-1.007068	0.170686	-0.361404	-1.001296	0.118468	-0.427508	-0.986715	0.372337	-0.367238	-0.460955	1.470298	-0.096483	-0.409560	1.495565	-0.418292	
59	0.2900	-0.414420	0.982342	-0.147131	-0.394756	0.987182	-0.394172	-0.597930	1.027094	-0.236752	-0.584560	1.037719	-0.325054	-0.455645	0.823411	-0.078753	-0.399703	0.839784	-0.079269	-0.437857	0.771298	-0.083338	-0.380633	0.788169	-0.082637	-0.286780	0.509763	-0.144061	-0.288168	0.523004	-0.263615	-0.327252	0.347346	-0.125764	-0.276009	0.356449	-0.138793	-0.324610	0.296930	-0.132732	-0.276220	0.305142	-0.146085	-0.302312	0.099166	-0.171002	-0.288897	0.103474	-0.262651	-0.194595	0.056999	-0.129789	-0.163249	0.055891	-0.239658	-0.084106	0.099424	-0.182661	-0.353227	0.058846	-0.239669	-0.518729	0.876178	-0.458781	-0.470592	0.871862	-0.459196	-0.525642	0.828809	-0.461767	-0.476209	0.827467	-0.462502	-0.563712	0.512118	-0.448463	-0.558117	0.483909	-0.326578	-0.771234	0.473312	-0.455391	-0.746057	0.425423	-0.465228	-0.810244	0.441437	-0.447896	-0.779357	0.403395	-0.458520	-0.948652	0.341439	-0.431106	-0.925470	0.300263	-0.351043	-1.021156	0.225163	-0.456031	-0.990655	0.179520	-0.360583	-0.986808	0.126568	-0.427141	-0.963833	0.380966	-0.365028	-0.441157	1.467130	-0.093743	-0.390450	1.493891	-0.415974	
60	0.2950	-0.395189	0.979964	-0.145290	-0.375377	0.984932	-0.392664	-0.578890	1.024535	-0.235531	-0.565441	1.035099	-0.323845	-0.436918	0.820969	-0.077234	-0.380914	0.837334	-0.077565	-0.419217	0.768858	-0.081813	-0.361928	0.785748	-0.081078	-0.268643	0.507305	-0.142796	-0.269701	0.520835	-0.261860	-0.312261	0.345660	-0.125000	-0.260951	0.353735	-0.137957	-0.310700	0.295456	-0.132165	-0.262297	0.302623	-0.145428	-0.293769	0.098842	-0.170849	-0.280026	0.102475	-0.262454	-0.187833	0.054614	-0.129249	-0.156301	0.052344	-0.239222	-0.076199	0.093363	-0.181792	-0.345638	0.059964	-0.239744	-0.497659	0.872815	-0.457312	-0.449530	0.869074	-0.457755	-0.503840	0.825284	-0.460587	-0.454443	0.824617	-0.461212	-0.536796	0.508317	-0.447883	-0.531691	0.480038	-0.325910	-0.745317	0.474687	-0.454441	-0.721512	0.426075	-0.464065	-0.785176	0.444057	-0.446679	-0.755343	0.405064	-0.457149	-0.926405	0.349160	-0.429245	-0.904205	0.307081	-0.349222	-1.002055	0.235183	-0.454896	-0.972872	0.188092	-0.359626	-0.970649	0.134602	-0.426559	-0.940200	0.389131	-0.362862	-0.421109	1.463804	-0.090975	-0.371148	1.492088	-0.413672	
61	0.3000	-0.375921	0.977561	-0.143359	-0.355930	0.982513	-0.391113	-0.559824	1.021903	-0.234391	-0.546277	1.032323	-0.322716	-0.418268	0.818591	-0.075752	-0.362220	0.834928	-0.075886	-0.400667	0.766486	-0.080318	-0.343323	0.783382	-0.079557	-0.250782	0.504816	-0.141493	-0.251412	0.518616	-0.260036	-0.297834	0.344011	-0.124246	-0.246451	0.350948	-0.137124	-0.297462	0.294033	-0.131626	-0.249041	0.300046	-0.144785	-0.286384	0.098591	-0.170768	-0.272303	0.101528	-0.262322	-0.182277	0.052214	-0.128759	-0.150547	0.048748	-0.238854	-0.069409	0.087086	-0.180994	-0.339275	0.061174	-0.239876	-0.476371	0.869174	-0.455860	-0.428241	0.866086	-0.456321	-0.481760	0.821511	-0.459443	-0.432396	0.821586	-0.459917	-0.509283	0.504421	-0.447183	-0.504754	0.476211	-0.325088	-0.718612	0.475748	-0.453536	-0.696130	0.426449	-0.462826	-0.759275	0.446347	-0.445497	-0.730461	0.406446	-0.455711	-0.903149	0.356444	-0.427357	-0.881997	0.313642	-0.347318	-0.981459	0.244660	-0.453715	-0.953692	0.196323	-0.358533	-0.952773	0.142466	-0.425758	-0.915838	0.396802	-0.360748	-0.400828	1.460364	-0.088187	-0.351671	1.490196	-0.411388	
62	0.3050	-0.356619	0.975158	-0.141340	-0.336424	0.979957	-0.389521	-0.540732	1.019241	-0.233320	-0.527074	1.029432	-0.321655	-0.399712	0.816295	-0.074305	-0.343633	0.832571	-0.074226	-0.382237	0.764196	-0.078852	-0.324843	0.781070	-0.078068	-0.233275	0.502288	-0.140157	-0.233386	0.516336	-0.258158	-0.283993	0.342398	-0.123502	-0.232535	0.348103	-0.136298	-0.284897	0.292656	-0.131114	-0.236457	0.297427	-0.144157	-0.280070	0.098411	-0.170752	-0.265650	0.100645	-0.262250	-0.177820	0.049840	-0.128320	-0.145883	0.045166	-0.238557	-0.063653	0.080702	-0.180273	-0.334034	0.062449	-0.240055	-0.454892	0.865312	-0.454422	-0.406755	0.862949	-0.454890	-0.459434	0.817552	-0.458324	-0.410103	0.818429	-0.458614	-0.481223	0.500502	-0.446360	-0.477340	0.472496	-0.324108	-0.691166	0.476514	-0.452674	-0.669946	0.426569	-0.461508	-0.732583	0.448317	-0.444349	-0.704744	0.407555	-0.454207	-0.878911	0.363253	-0.425448	-0.858861	0.319911	-0.345337	-0.959384	0.253508	-0.452488	-0.933110	0.204135	-0.357306	-0.933162	0.150058	-0.424738	-0.890786	0.403951	-0.358694	-0.380338	1.456857	-0.085391	-0.332046	1.488257	-0.409124	
63	0.3100	-0.337294	0.972784	-0.139242	-0.316879	0.977302	-0.387892	-0.521623	1.016589	-0.232303	-0.507846	1.026471	-0.320649	-0.381275	0.814096	-0.072893	-0.325176	0.830264	-0.072582	-0.363960	0.762001	-0.077415	-0.306520	0.778808	-0.076604	-0.216200	0.499717	-0.138800	-0.215710	0.513985	-0.256241	-0.270761	0.340818	-0.122768	-0.219230	0.345216	-0.135480	-0.273009	0.291326	-0.130627	-0.224551	0.294783	-0.143544	-0.274739	0.098299	-0.170792	-0.259985	0.099833	-0.262231	-0.174349	0.047530	-0.127932	-0.142200	0.041659	-0.238327	-0.058846	0.074317	-0.179633	-0.329806	0.063767	-0.240270	-0.433258	0.861289	-0.452994	-0.385111	0.859718	-0.453461	-0.436904	0.813469	-0.457221	-0.387607	0.815205	-0.457299	-0.452680	0.496630	-0.445412	-0.449496	0.468954	-0.322969	-0.663044	0.477007	-0.451851	-0.643013	0.426461	-0.460112	-0.705160	0.449978	-0.443235	-0.678244	0.408410	-0.452639	-0.853742	0.369551	-0.423524	-0.834828	0.325855	-0.343286	-0.935874	0.261653	-0.451216	-0.911147	0.211457	-0.355950	-0.911828	0.157282	-0.423504	-0.865101	0.410552	-0.356704	-0.359676	1.453330	-0.082599	-0.312309	1.486311	-0.406883	
64	0.3150	-0.317967	0.970462	-0.137073	-0.297323	0.974583	-0.386233	-0.502517	1.013989	-0.231325	-0.488618	1.023483	-0.319683	-0.362985	0.812008	-0.071514	-0.306874	0.828008	-0.070948	-0.345877	0.759910	-0.076006	-0.288393	0.776594	-0.075159	-0.199632	0.497100	-0.137430	-0.198475	0.511561	-0.254305	-0.258157	0.339272	-0.122045	-0.206560	0.342306	-0.134674	-0.261799	0.290041	-0.130163	-0.213330	0.292131	-0.142948	-0.270300	0.098256	-0.170879	-0.255221	0.099102	-0.262258	-0.171751	0.045320	-0.127592	-0.139391	0.038281	-0.238164	-0.054900	0.068033	-0.179076	-0.326481	0.065107	-0.240508	-0.411521	0.857168	-0.451571	-0.363359	0.856449	-0.452029	-0.414226	0.809329	-0.456124	-0.364965	0.811972	-0.455970	-0.423731	0.492869	-0.444337	-0.421282	0.465641	-0.321673	-0.634328	0.477252	-0.451061	-0.615402	0.426153	-0.458639	-0.677084	0.451344	-0.442151	-0.651030	0.409029	-0.451009	-0.827715	0.375308	-0.421589	-0.809953	0.331443	-0.341174	-0.911001	0.269031	-0.449901	-0.887852	0.218228	-0.354470	-0.888819	0.164053	-0.422063	-0.838856	0.416584	-0.354782	-0.338887	1.449829	-0.079823	-0.292505	1.484396	-0.404670	
65	0.3200	-0.298669	0.968217	-0.134846	-0.277794	0.971839	-0.384551	-0.483441	1.011478	-0.230371	-0.469422	1.020513	-0.318743	-0.344879	0.810040	-0.070165	-0.288761	0.825805	-0.069320	-0.328031	0.757932	-0.074623	-0.270503	0.774424	-0.073727	-0.183646	0.494437	-0.136057	-0.181768	0.509061	-0.252369	-0.246202	0.337761	-0.121335	-0.194551	0.339391	-0.133883	-0.251267	0.288802	-0.129721	-0.202797	0.289491	-0.142369	-0.266660	0.098280	-0.171006	-0.251271	0.098461	-0.262322	-0.169912	0.043240	-0.127300	-0.137348	0.035083	-0.238061	-0.051730	0.061942	-0.178602	-0.323949	0.066451	-0.240761	-0.389740	0.853015	-0.450149	-0.341561	0.853197	-0.450595	-0.391464	0.805194	-0.455023	-0.342245	0.808785	-0.454624	-0.394469	0.489282	-0.443140	-0.392775	0.462605	-0.320228	-0.605120	0.477274	-0.450299	-0.587207	0.425672	-0.457092	-0.648456	0.452433	-0.441093	-0.623194	0.409432	-0.449322	-0.800924	0.380501	-0.419646	-0.784315	0.336647	-0.339009	-0.884867	0.275595	-0.448545	-0.863302	0.224395	-0.352877	-0.864214	0.170295	-0.420429	-0.812143	0.422030	-0.352928	-0.318029	1.446399	-0.077078	-0.272692	1.482549	-0.402490	
66	0.3250	-0.279439	0.966067	-0.132573	-0.258342	0.969107	-0.382857	-0.464435	1.009091	-0.229428	-0.450304	1.017603	-0.317814	-0.327000	0.808203	-0.068847	-0.270877	0.823654	-0.067697	-0.310473	0.756073	-0.073266	-0.252901	0.772296	-0.072305	-0.168312	0.491732	-0.134694	-0.165674	0.506488	-0.250452	-0.234913	0.336289	-0.120639	-0.183223	0.336493	-0.133110	-0.241413	0.287611	-0.129299	-0.192952	0.286884	-0.141809	-0.263727	0.098369	-0.171161	-0.248048	0.097918	-0.262417	-0.168724	0.041317	-0.127052	-0.135964	0.032106	-0.238014	-0.049248	0.056126	-0.178209	-0.322102	0.067785	-0.241017	-0.367987	0.848891	-0.448724	-0.319790	0.850015	-0.449158	-0.368699	0.801127	-0.453910	-0.319527	0.805699	-0.453264	-0.365004	0.485923	-0.441827	-0.364067	0.459887	-0.318642	-0.575540	0.477101	-0.449558	-0.558539	0.425048	-0.455475	-0.619394	0.453261	-0.440056	-0.594849	0.409642	-0.447583	-0.773491	0.385116	-0.417700	-0.758014	0.341442	-0.336801	-0.857603	0.281310	-0.447152	-0.837604	0.229915	-0.351181	-0.838132	0.175946	-0.418618	-0.785072	0.426878	-0.351140	-0.297171	1.443082	-0.074377	-0.252936	1.480804	-0.400349	
67	0.3300	-0.260331	0.964032	-0.130271	-0.239027	0.966424	-0.381160	-0.445549	1.006861	-0.228482	-0.431319	1.014794	-0.316885	-0.309397	0.806502	-0.067558	-0.253269	0.821557	-0.066078	-0.293257	0.754340	-0.071935	-0.235639	0.770208	-0.070891	-0.153693	0.488992	-0.133351	-0.150271	0.503850	-0.248573	-0.224308	0.334858	-0.119961	-0.172594	0.333632	-0.132358	-0.232234	0.286470	-0.128897	-0.183796	0.284328	-0.141267	-0.261411	0.098522	-0.171336	-0.245465	0.097478	-0.262534	-0.168081	0.039573	-0.126846	-0.135137	0.029385	-0.238017	-0.047370	0.050657	-0.177893	-0.320833	0.069096	-0.241268	-0.346345	0.844857	-0.447293	-0.298131	0.846954	-0.447717	-0.346019	0.797186	-0.452778	-0.296902	0.802765	-0.451888	-0.335459	0.482838	-0.440406	-0.335269	0.457520	-0.316930	-0.545726	0.476761	-0.448831	-0.529532	0.424308	-0.453794	-0.590035	0.453850	-0.439036	-0.566130	0.409679	-0.445797	-0.745556	0.389144	-0.415755	-0.731177	0.345809	-0.334559	-0.829371	0.286158	-0.445727	-0.810895	0.234758	-0.349397	-0.810726	0.180957	-0.416649	-0.757772	0.431123	-0.349417	-0.276393	1.439918	-0.071733	-0.233313	1.479189	-0.398253	
68	0.3350	-0.241407	0.962128	-0.127957	-0.219916	0.963825	-0.379471	-0.426842	1.004812	-0.227523	-0.412531	1.012122	-0.315943	-0.292126	0.804942	-0.066298	-0.235992	0.819517	-0.064463	-0.276442	0.752735	-0.070633	-0.218775	0.768160	-0.069483	-0.139850	0.486228	-0.132038	-0.135633	0.501158	-0.246751	-0.214398	0.333473	-0.119303	-0.162679	0.330830	-0.131628	-0.223725	0.285383	-0.128515	-0.175326	0.281844	-0.140744	-0.259625	0.098737	-0.171523	-0.243437	0.097144	-0.262665	-0.167882	0.038020	-0.126677	-0.134770	0.026944	-0.238062	-0.046015	0.045592	-0.177648	-0.320044	0.070375	-0.241506	-0.324907	0.840971	-0.445855	-0.276676	0.844061	-0.446274	-0.323524	0.793425	-0.451621	-0.274470	0.800026	-0.450501	-0.305974	0.480067	-0.438888	-0.306506	0.455524	-0.315106	-0.515835	0.476282	-0.448111	-0.500339	0.423481	-0.452058	-0.560536	0.454223	-0.438026	-0.537188	0.409567	-0.443974	-0.717282	0.392586	-0.413815	-0.703951	0.349734	-0.332296	-0.800357	0.290137	-0.444276	-0.783343	0.238906	-0.347541	-0.782184	0.185298	-0.414546	-0.730387	0.434764	-0.347756	-0.255783	1.436940	-0.069160	-0.213907	1.477730	-0.396208	
69	0.3400	-0.222737	0.960365	-0.125648	-0.201089	0.961342	-0.377803	-0.408386	1.002968	-0.226541	-0.394015	1.009620	-0.314981	-0.275248	0.803526	-0.065068	-0.219105	0.817535	-0.062855	-0.260090	0.751260	-0.069359	-0.202372	0.766153	-0.068084	-0.126830	0.483454	-0.130765	-0.121821	0.498427	-0.245002	-0.205192	0.332139	-0.118668	-0.153487	0.328108	-0.130924	-0.215881	0.284351	-0.128151	-0.167534	0.279449	-0.140241	-0.258288	0.099009	-0.171713	-0.241883	0.096918	-0.262804	-0.168037	0.036669	-0.126542	-0.134772	0.024800	-0.238141	-0.045103	0.040974	-0.177468	-0.319641	0.071613	-0.241723	-0.303772	0.837282	-0.444410	-0.255527	0.841374	-0.444833	-0.301322	0.789890	-0.450437	-0.252341	0.797521	-0.449106	-0.276701	0.477638	-0.437288	-0.277918	0.453914	-0.313189	-0.486037	0.475692	-0.447392	-0.471128	0.422594	-0.450277	-0.531068	0.454401	-0.437024	-0.508194	0.409328	-0.442121	-0.688852	0.395452	-0.411887	-0.676503	0.353208	-0.330022	-0.770776	0.293260	-0.442805	-0.755142	0.242356	-0.345630	-0.752728	0.188950	-0.412334	-0.703075	0.437809	-0.346153	-0.235440	1.434180	-0.066671	-0.194810	1.476446	-0.394223	
70	0.3450	-0.204403	0.958755	-0.123363	-0.182629	0.959003	-0.376166	-0.390258	1.001342	-0.225530	-0.375850	1.007315	-0.313992	-0.258828	0.802255	-0.063869	-0.202673	0.815617	-0.061258	-0.244264	0.749918	-0.068118	-0.186494	0.764192	-0.066694	-0.114676	0.480687	-0.129542	-0.108889	0.495675	-0.243342	-0.196695	0.330862	-0.118059	-0.145024	0.325485	-0.130247	-0.208691	0.283378	-0.127806	-0.160412	0.277161	-0.139759	-0.257321	0.099335	-0.171898	-0.240729	0.096797	-0.262944	-0.168459	0.035523	-0.126436	-0.135059	0.022960	-0.238247	-0.044561	0.036834	-0.177345	-0.319538	0.072805	-0.241915	-0.283048	0.833835	-0.442959	-0.234791	0.838928	-0.443397	-0.279530	0.786621	-0.449225	-0.230630	0.795280	-0.447708	-0.247803	0.475570	-0.435622	-0.249657	0.452691	-0.311199	-0.456514	0.475017	-0.446669	-0.442084	0.421673	-0.448463	-0.501817	0.454411	-0.436024	-0.479334	0.408984	-0.440251	-0.660461	0.397757	-0.409975	-0.649019	0.356229	-0.327753	-0.740862	0.295557	-0.441323	-0.726509	0.245115	-0.343683	-0.722606	0.191914	-0.410041	-0.676006	0.440275	-0.344607	-0.215467	1.431659	-0.064280	-0.176118	1.475352	-0.392304	
71	0.3500	-0.186492	0.957302	-0.121122	-0.164627	0.956832	-0.374573	-0.372543	0.999945	-0.224488	-0.358124	1.005229	-0.312973	-0.242936	0.801127	-0.062703	-0.186763	0.813767	-0.059680	-0.229029	0.748707	-0.066913	-0.171204	0.762280	-0.065319	-0.103417	0.477946	-0.128377	-0.096877	0.492925	-0.241784	-0.188908	0.329648	-0.117479	-0.137287	0.322979	-0.129599	-0.202142	0.282467	-0.127479	-0.153946	0.274995	-0.139298	-0.256656	0.099709	-0.172073	-0.239902	0.096778	-0.263080	-0.169073	0.034577	-0.126356	-0.135556	0.021423	-0.238373	-0.044321	0.033187	-0.177271	-0.319660	0.073946	-0.242078	-0.262844	0.830667	-0.441506	-0.214578	0.836749	-0.441972	-0.258265	0.783650	-0.447985	-0.209454	0.793325	-0.446315	-0.219449	0.473873	-0.433906	-0.221887	0.451849	-0.309159	-0.427459	0.474286	-0.445938	-0.413400	0.420741	-0.446628	-0.472977	0.454275	-0.435025	-0.450803	0.408559	-0.438374	-0.632317	0.399528	-0.408087	-0.621698	0.358803	-0.325501	-0.710866	0.297070	-0.439840	-0.697683	0.247205	-0.341719	-0.692090	0.194203	-0.407696	-0.649357	0.442182	-0.343115	-0.195974	1.429397	-0.061997	-0.157931	1.474455	-0.390460	
72	0.3550	-0.169093	0.956010	-0.118942	-0.147176	0.954848	-0.373035	-0.355332	0.998781	-0.223415	-0.340928	1.003377	-0.311924	-0.227639	0.800139	-0.061573	-0.171445	0.811990	-0.058126	-0.214448	0.747625	-0.065748	-0.156568	0.760426	-0.063966	-0.093073	0.475252	-0.127277	-0.085813	0.490199	-0.240337	-0.181823	0.328502	-0.116930	-0.130271	0.320608	-0.128982	-0.196220	0.281620	-0.127172	-0.148119	0.272964	-0.138858	-0.256229	0.100125	-0.172231	-0.239339	0.096855	-0.263205	-0.169812	0.033826	-0.126297	-0.136197	0.020180	-0.238511	-0.044319	0.030036	-0.177237	-0.319939	0.075032	-0.242208	-0.243275	0.827805	-0.440057	-0.195002	0.834853	-0.440564	-0.237649	0.780998	-0.446723	-0.188934	0.791669	-0.444933	-0.191816	0.472546	-0.432160	-0.194778	0.451373	-0.307092	-0.399066	0.473520	-0.445197	-0.385277	0.419821	-0.444788	-0.444748	0.454019	-0.434025	-0.422804	0.408071	-0.436504	-0.604634	0.400797	-0.406232	-0.594746	0.360941	-0.323282	-0.681050	0.297856	-0.438365	-0.668914	0.248658	-0.339760	-0.661472	0.195847	-0.405329	-0.623311	0.443563	-0.341676	-0.177070	1.427405	-0.059834	-0.140349	1.473760	-0.388697	
73	0.3600	-0.152302	0.954879	-0.116841	-0.130370	0.953066	-0.371562	-0.338716	0.997847	-0.222315	-0.324353	1.001767	-0.310847	-0.213009	0.799287	-0.060483	-0.156788	0.810294	-0.056607	-0.200581	0.746670	-0.064627	-0.142645	0.758635	-0.062641	-0.083653	0.472627	-0.126248	-0.075714	0.487522	-0.239009	-0.175430	0.327429	-0.116416	-0.123961	0.318384	-0.128397	-0.190903	0.280841	-0.126884	-0.142909	0.271079	-0.138439	-0.255983	0.100575	-0.172370	-0.238982	0.097019	-0.263318	-0.170621	0.033257	-0.126256	-0.136924	0.019215	-0.238654	-0.044500	0.027371	-0.177237	-0.320317	0.076061	-0.242305	-0.224449	0.825268	-0.438617	-0.176174	0.833250	-0.439181	-0.217801	0.778679	-0.445446	-0.169190	0.790317	-0.443573	-0.165077	0.471579	-0.430403	-0.168500	0.451240	-0.305022	-0.371532	0.472743	-0.444444	-0.357917	0.418930	-0.442959	-0.417328	0.453667	-0.433025	-0.395542	0.407542	-0.434655	-0.577628	0.401604	-0.404418	-0.568375	0.362660	-0.321111	-0.651681	0.297982	-0.436909	-0.640465	0.249520	-0.337825	-0.631051	0.196888	-0.402970	-0.598047	0.444453	-0.340289	-0.158864	1.425686	-0.057799	-0.123471	1.473263	-0.387022	
74	0.3650	-0.136211	0.953906	-0.114836	-0.114301	0.951494	-0.370165	-0.322788	0.997135	-0.221192	-0.308491	1.000403	-0.309750	-0.199111	0.798565	-0.059436	-0.142860	0.808685	-0.055131	-0.187485	0.745838	-0.063556	-0.129495	0.756918	-0.061352	-0.075154	0.470091	-0.125295	-0.066582	0.484918	-0.237806	-0.169711	0.326433	-0.115937	-0.118337	0.316320	-0.127846	-0.186170	0.280130	-0.126616	-0.138292	0.269347	-0.138043	-0.255870	0.101051	-0.172486	-0.238782	0.097260	-0.263414	-0.171451	0.032854	-0.126228	-0.137689	0.018509	-0.238796	-0.044814	0.025171	-0.177262	-0.320746	0.077032	-0.242370	-0.206475	0.823065	-0.437195	-0.158199	0.831941	-0.437832	-0.198836	0.776697	-0.444162	-0.150333	0.789266	-0.442244	-0.139403	0.470953	-0.428657	-0.143224	0.451419	-0.302972	-0.345047	0.471975	-0.443683	-0.331519	0.418084	-0.441156	-0.390913	0.453242	-0.432027	-0.369217	0.406989	-0.432841	-0.551508	0.401994	-0.402654	-0.542795	0.363985	-0.319003	-0.623025	0.297526	-0.435484	-0.612599	0.249844	-0.335935	-0.601131	0.197379	-0.400646	-0.573743	0.444897	-0.338955	-0.141465	1.424240	-0.055899	-0.107389	1.472956	-0.385442	
75	0.3700	-0.120910	0.953084	-0.112941	-0.099055	0.950134	-0.368850	-0.307636	0.996633	-0.220056	-0.293427	0.999279	-0.308640	-0.186006	0.797964	-0.058439	-0.129723	0.807169	-0.053709	-0.175210	0.745123	-0.062539	-0.117167	0.755284	-0.060109	-0.067561	0.467666	-0.124420	-0.058405	0.482411	-0.236728	-0.164644	0.325518	-0.115496	-0.113375	0.314425	-0.127329	-0.181994	0.279488	-0.126368	-0.134237	0.267774	-0.137670	-0.255850	0.101545	-0.172577	-0.238694	0.097567	-0.263492	-0.172265	0.032599	-0.126211	-0.138453	0.018034	-0.238933	-0.045216	0.023409	-0.177306	-0.321187	0.077943	-0.242402	-0.189451	0.821198	-0.435802	-0.141178	0.830919	-0.436524	-0.180862	0.775047	-0.442882	-0.132471	0.788503	-0.440954	-0.114956	0.470643	-0.426941	-0.119112	0.451872	-0.300966	-0.319790	0.471233	-0.442915	-0.306271	0.417297	-0.439396	-0.365689	0.452765	-0.431037	-0.344021	0.406428	-0.431078	-0.526478	0.402017	-0.400951	-0.518209	0.364947	-0.316974	-0.595339	0.296571	-0.434101	-0.585572	0.249692	-0.334108	-0.572009	0.197381	-0.398387	-0.550564	0.444944	-0.337677	-0.124969	1.423058	-0.054141	-0.092192	1.472825	-0.383963	
76	0.3750	-0.106481	0.952406	-0.111169	-0.084714	0.948986	-0.367626	-0.293343	0.996323	-0.218918	-0.279243	0.998386	-0.307527	-0.173750	0.797476	-0.057494	-0.117432	0.805753	-0.052351	-0.163798	0.744518	-0.061582	-0.105705	0.753740	-0.058919	-0.060849	0.465371	-0.123626	-0.051160	0.480024	-0.235776	-0.160200	0.324687	-0.115093	-0.109042	0.312703	-0.126848	-0.178345	0.278915	-0.126140	-0.130714	0.266362	-0.137320	-0.255888	0.102048	-0.172643	-0.238683	0.097925	-0.263551	-0.173033	0.032473	-0.126202	-0.139185	0.017764	-0.239061	-0.045670	0.022047	-0.177362	-0.321610	0.078792	-0.242405	-0.173466	0.819658	-0.434447	-0.125199	0.830169	-0.435268	-0.163975	0.773718	-0.441617	-0.115697	0.788009	-0.439715	-0.091885	0.470615	-0.425274	-0.096315	0.452560	-0.299026	-0.295926	0.470530	-0.442146	-0.282350	0.416579	-0.437696	-0.341824	0.452257	-0.430058	-0.320133	0.405874	-0.429380	-0.502721	0.401726	-0.399320	-0.494807	0.365580	-0.315037	-0.568864	0.295206	-0.432770	-0.559631	0.249133	-0.332361	-0.543972	0.196964	-0.396218	-0.528662	0.444646	-0.336456	-0.109466	1.422126	-0.052528	-0.077954	1.472854	-0.382589	
77	0.3800	-0.092999	0.951862	-0.109529	-0.071345	0.948040	-0.366498	-0.279983	0.996185	-0.217789	-0.266006	0.997710	-0.306423	-0.162390	0.797090	-0.056607	-0.106034	0.804442	-0.051066	-0.153282	0.744015	-0.060689	-0.095141	0.752297	-0.057793	-0.054982	0.463223	-0.122912	-0.044814	0.477777	-0.234947	-0.156345	0.323940	-0.114729	-0.105301	0.311157	-0.126403	-0.175189	0.278411	-0.125931	-0.127685	0.265109	-0.136994	-0.255958	0.102551	-0.172686	-0.238719	0.098324	-0.263592	-0.173735	0.032455	-0.126198	-0.139862	0.017667	-0.239177	-0.046146	0.021042	-0.177425	-0.321994	0.079581	-0.242381	-0.158598	0.818428	-0.433142	-0.110339	0.829670	-0.434073	-0.148257	0.772688	-0.440382	-0.100092	0.787759	-0.438536	-0.070318	0.470832	-0.423674	-0.074966	0.453437	-0.297173	-0.273600	0.469878	-0.441381	-0.259910	0.415935	-0.436071	-0.319470	0.451735	-0.429099	-0.297710	0.405339	-0.427762	-0.480405	0.401175	-0.397771	-0.472759	0.365922	-0.313206	-0.543819	0.293520	-0.431504	-0.535003	0.248237	-0.330709	-0.517281	0.196200	-0.394160	-0.508170	0.444061	-0.335298	-0.095034	1.421427	-0.051063	-0.064741	1.473023	-0.381323	
78	0.3850	-0.080525	0.951438	-0.108030	-0.059006	0.947286	-0.365470	-0.267618	0.996194	-0.216685	-0.253776	0.997230	-0.305342	-0.151959	0.796796	-0.055782	-0.095567	0.803240	-0.049863	-0.143683	0.743607	-0.059863	-0.085500	0.750960	-0.056737	-0.049916	0.461236	-0.122277	-0.039320	0.475687	-0.234234	-0.153040	0.323278	-0.114403	-0.102112	0.309787	-0.125994	-0.172491	0.277972	-0.125743	-0.125113	0.264014	-0.136693	-0.256039	0.103045	-0.172705	-0.238780	0.098748	-0.263614	-0.174356	0.032523	-0.126197	-0.140469	0.017712	-0.239278	-0.046620	0.020349	-0.177490	-0.322325	0.080307	-0.242335	-0.144905	0.817487	-0.431898	-0.096656	0.829396	-0.432946	-0.133774	0.771933	-0.439189	-0.085721	0.787723	-0.437425	-0.050365	0.471253	-0.422159	-0.055178	0.454458	-0.295424	-0.252931	0.469284	-0.440629	-0.239083	0.415369	-0.434535	-0.298750	0.451216	-0.428167	-0.276886	0.404834	-0.426235	-0.459668	0.400422	-0.396313	-0.452213	0.366015	-0.311494	-0.520395	0.291602	-0.430311	-0.511886	0.247078	-0.329167	-0.492171	0.195164	-0.392233	-0.489199	0.443246	-0.334207	-0.081732	1.420936	-0.049745	-0.052602	1.473307	-0.380169	
79	0.3900	-0.069106	0.951122	-0.106674	-0.047738	0.946708	-0.364542	-0.256294	0.996325	-0.215617	-0.242596	0.996924	-0.304297	-0.142482	0.796583	-0.055022	-0.086054	0.802151	-0.048750	-0.135013	0.743283	-0.059109	-0.076792	0.749736	-0.055759	-0.045599	0.459421	-0.121720	-0.034626	0.473767	-0.233632	-0.150244	0.322698	-0.114116	-0.099430	0.308588	-0.125623	-0.170214	0.277597	-0.125574	-0.122958	0.263069	-0.136416	-0.256117	0.103523	-0.172705	-0.238848	0.099184	-0.263620	-0.174891	0.032658	-0.126197	-0.140996	0.017867	-0.239364	-0.047072	0.019921	-0.177555	-0.322596	0.080971	-0.242270	-0.132431	0.816807	-0.430724	-0.084193	0.829317	-0.431896	-0.120574	0.771422	-0.438051	-0.072628	0.787868	-0.436391	-0.032106	0.471834	-0.420742	-0.037040	0.455576	-0.293795	-0.234011	0.468755	-0.439896	-0.219971	0.414882	-0.433100	-0.279762	0.450713	-0.427271	-0.257767	0.404365	-0.424811	-0.440620	0.399520	-0.394955	-0.433288	0.365903	-0.309910	-0.498749	0.289539	-0.429200	-0.490451	0.245729	-0.327745	-0.468840	0.193929	-0.390453	-0.471831	0.442259	-0.333186	-0.069606	1.420630	-0.048573	-0.041570	1.473684	-0.379126	
80	0.3950	-0.058775	0.950898	-0.105465	-0.037568	0.946286	-0.363716	-0.246045	0.996553	-0.214599	-0.232494	0.996768	-0.303301	-0.133968	0.796438	-0.054330	-0.077505	0.801174	-0.047732	-0.127269	0.743033	-0.058427	-0.069014	0.748630	-0.054865	-0.041970	0.457785	-0.121237	-0.030669	0.472028	-0.233132	-0.147911	0.322198	-0.113864	-0.097206	0.307553	-0.125288	-0.168317	0.277281	-0.125424	-0.121177	0.262266	-0.136165	-0.256182	0.103978	-0.172687	-0.238911	0.099621	-0.263611	-0.175337	0.032839	-0.126199	-0.141441	0.018105	-0.239435	-0.047490	0.019710	-0.177616	-0.322803	0.081574	-0.242192	-0.121200	0.816354	-0.429631	-0.072973	0.829399	-0.430928	-0.108683	0.771120	-0.436979	-0.060839	0.788157	-0.435440	-0.015596	0.472532	-0.419435	-0.020611	0.456749	-0.292298	-0.216899	0.468292	-0.439193	-0.202645	0.414472	-0.431778	-0.262571	0.450238	-0.426420	-0.240426	0.403938	-0.423500	-0.423339	0.398521	-0.393705	-0.416071	0.365627	-0.308462	-0.478999	0.287410	-0.428177	-0.470828	0.244259	-0.326450	-0.447444	0.192567	-0.388831	-0.456123	0.441156	-0.332241	-0.058680	1.420479	-0.047542	-0.031661	1.474128	-0.378195	
81	0.4000	-0.049544	0.950754	-0.104401	-0.028502	0.946001	-0.362990	-0.236885	0.996851	-0.213644	-0.223479	0.996733	-0.302365	-0.126414	0.796350	-0.053708	-0.069918	0.800311	-0.046814	-0.120437	0.742849	-0.057818	-0.062153	0.747642	-0.054057	-0.038967	0.456331	-0.120824	-0.027384	0.470475	-0.232724	-0.145995	0.321774	-0.113648	-0.095392	0.306674	-0.124989	-0.166760	0.277020	-0.125293	-0.119730	0.261595	-0.135939	-0.256229	0.104402	-0.172656	-0.238962	0.100048	-0.263591	-0.175697	0.033050	-0.126199	-0.141805	0.018397	-0.239490	-0.047865	0.019669	-0.177672	-0.322950	0.082115	-0.242105	-0.111214	0.816095	-0.428627	-0.063000	0.829609	-0.430048	-0.098106	0.770994	-0.435985	-0.050358	0.788554	-0.434576	-0.000857	0.473304	-0.418247	-0.005920	0.457934	-0.290942	-0.201623	0.467894	-0.438527	-0.187144	0.414135	-0.430575	-0.247210	0.449797	-0.425623	-0.224904	0.403557	-0.422309	-0.407868	0.397473	-0.392569	-0.400615	0.365231	-0.307156	-0.461225	0.285287	-0.427250	-0.453110	0.242734	-0.325288	-0.428096	0.191143	-0.387374	-0.442100	0.439990	-0.331376	-0.048960	1.420456	-0.046647	-0.022873	1.474614	-0.377373	
82	0.4050	-0.041409	0.950673	-0.103479	-0.020531	0.945830	-0.362361	-0.228808	0.997194	-0.212762	-0.215544	0.996795	-0.301500	-0.119801	0.796308	-0.053156	-0.063274	0.799558	-0.045998	-0.114489	0.742719	-0.057282	-0.056180	0.746773	-0.053338	-0.036523	0.455059	-0.120476	-0.024701	0.469109	-0.232397	-0.144447	0.321420	-0.113463	-0.093939	0.305940	-0.124725	-0.165504	0.276809	-0.125179	-0.118573	0.261045	-0.135737	-0.256255	0.104792	-0.172614	-0.238998	0.100453	-0.263562	-0.175977	0.033275	-0.126200	-0.142093	0.018720	-0.239532	-0.048191	0.019756	-0.177721	-0.323042	0.082595	-0.242012	-0.102456	0.815994	-0.427717	-0.054255	0.829913	-0.429260	-0.088826	0.771006	-0.435077	-0.041166	0.789025	-0.433804	0.012119	0.474113	-0.417183	0.007033	0.459095	-0.289733	-0.188176	0.467561	-0.437905	-0.173470	0.413864	-0.429497	-0.233675	0.449399	-0.424886	-0.211205	0.403224	-0.421242	-0.394215	0.396420	-0.391550	-0.386938	0.364753	-0.305993	-0.445460	0.283234	-0.426420	-0.437345	0.241212	-0.324260	-0.410859	0.189715	-0.386086	-0.429755	0.438810	-0.330594	-0.040431	1.420531	-0.045880	-0.015186	1.475119	-0.376658	
83	0.4100	-0.034347	0.950642	-0.102691	-0.013627	0.945750	-0.361824	-0.221794	0.997561	-0.211962	-0.208663	0.996927	-0.300716	-0.114096	0.796301	-0.052673	-0.057542	0.798912	-0.045284	-0.109386	0.742634	-0.056818	-0.051058	0.746021	-0.052709	-0.034570	0.453964	-0.120186	-0.022547	0.467927	-0.232142	-0.143219	0.321131	-0.113309	-0.092797	0.305338	-0.124497	-0.164508	0.276642	-0.125081	-0.117667	0.260603	-0.135561	-0.256261	0.105144	-0.172565	-0.239016	0.100831	-0.263526	-0.176186	0.033501	-0.126199	-0.142311	0.019052	-0.239561	-0.048467	0.019932	-0.177763	-0.323087	0.083017	-0.241919	-0.094891	0.816014	-0.426906	-0.046702	0.830277	-0.428563	-0.080806	0.771121	-0.434262	-0.033226	0.789536	-0.433123	0.023370	0.474922	-0.416245	0.018282	0.460199	-0.288671	-0.176520	0.467288	-0.437336	-0.161593	0.413654	-0.428547	-0.221932	0.449046	-0.424216	-0.199301	0.402938	-0.420302	-0.382350	0.395398	-0.390649	-0.375023	0.364231	-0.304975	-0.431697	0.281303	-0.425688	-0.423540	0.239743	-0.323365	-0.395748	0.188334	-0.384966	-0.419053	0.437657	-0.329897	-0.033059	1.420679	-0.045233	-0.008562	1.475623	-0.376044	
84	0.4150	-0.028316	0.950648	-0.102031	-0.007745	0.945742	-0.361373	-0.215802	0.997931	-0.211249	-0.202794	0.997106	-0.300016	-0.109254	0.796320	-0.052259	-0.052677	0.798367	-0.044670	-0.105078	0.742585	-0.056422	-0.046735	0.745381	-0.052168	-0.033041	0.453038	-0.119950	-0.020853	0.466922	-0.231947	-0.142266	0.320900	-0.113183	-0.091919	0.304853	-0.124300	-0.163734	0.276513	-0.124999	-0.116973	0.260255	-0.135408	-0.256251	0.105455	-0.172513	-0.239018	0.101173	-0.263487	-0.176334	0.033718	-0.126197	-0.142470	0.019375	-0.239580	-0.048695	0.020163	-0.177798	-0.323094	0.083382	-0.241828	-0.088462	0.816123	-0.426195	-0.040285	0.830673	-0.427959	-0.073988	0.771308	-0.433543	-0.026479	0.790059	-0.432534	0.032964	0.475701	-0.415435	0.027888	0.461220	-0.287755	-0.166585	0.467070	-0.436823	-0.151448	0.413496	-0.427723	-0.211913	0.448740	-0.423618	-0.189130	0.402697	-0.419486	-0.372214	0.394438	-0.389867	-0.364818	0.363696	-0.304097	-0.419887	0.279535	-0.425055	-0.411659	0.238369	-0.322600	-0.382731	0.187042	-0.384009	-0.409930	0.436567	-0.329286	-0.026793	1.420873	-0.044696	-0.002949	1.476108	-0.375525	
85	0.4200	-0.023259	0.950680	-0.101487	-0.002823	0.945783	-0.361001	-0.210776	0.998286	-0.210627	-0.197878	0.997309	-0.299406	-0.105218	0.796355	-0.051909	-0.048621	0.797915	-0.044152	-0.101506	0.742562	-0.056090	-0.043152	0.744847	-0.051711	-0.031869	0.452270	-0.119761	-0.019547	0.466085	-0.231802	-0.141543	0.320718	-0.113080	-0.091261	0.304471	-0.124135	-0.163147	0.276417	-0.124931	-0.116453	0.259988	-0.135279	-0.256227	0.105724	-0.172461	-0.239007	0.101476	-0.263447	-0.176432	0.033917	-0.126194	-0.142579	0.019678	-0.239590	-0.048878	0.020418	-0.177826	-0.323073	0.083692	-0.241744	-0.083098	0.816289	-0.425585	-0.034932	0.831074	-0.427445	-0.068298	0.771537	-0.432921	-0.020849	0.790566	-0.432034	0.040997	0.476426	-0.414747	0.035941	0.462140	-0.286981	-0.158271	0.466899	-0.436371	-0.142944	0.413383	-0.427023	-0.203523	0.448481	-0.423094	-0.180600	0.402499	-0.418793	-0.363716	0.393564	-0.389200	-0.356240	0.363175	-0.303355	-0.409943	0.277959	-0.424517	-0.401626	0.237122	-0.321957	-0.371730	0.185868	-0.383208	-0.402296	0.435568	-0.328760	-0.021562	1.421092	-0.044258	0.001723	1.476558	-0.375095	
86	0.4250	-0.019105	0.950727	-0.101049	0.001211	0.945857	-0.360701	-0.206646	0.998615	-0.210097	-0.193844	0.997520	-0.298886	-0.101922	0.796400	-0.051619	-0.045308	0.797549	-0.043724	-0.098604	0.742559	-0.055819	-0.040241	0.744410	-0.051334	-0.030995	0.451647	-0.119613	-0.018566	0.465403	-0.231698	-0.141008	0.320580	-0.112999	-0.090781	0.304178	-0.123999	-0.162711	0.276348	-0.124876	-0.116075	0.259788	-0.135171	-0.256194	0.105951	-0.172411	-0.238987	0.101737	-0.263408	-0.176491	0.034094	-0.126191	-0.142648	0.019950	-0.239594	-0.049021	0.020676	-0.177847	-0.323033	0.083951	-0.241667	-0.078713	0.816487	-0.425072	-0.030557	0.831460	-0.427015	-0.063645	0.771783	-0.432396	-0.016248	0.791039	-0.431617	0.047585	0.477077	-0.414175	0.042555	0.462946	-0.286340	-0.151457	0.466771	-0.435981	-0.135961	0.413304	-0.426440	-0.196641	0.448267	-0.422645	-0.173593	0.402341	-0.418216	-0.356736	0.392791	-0.388643	-0.349178	0.362691	-0.302740	-0.401745	0.276592	-0.424069	-0.393332	0.236022	-0.321429	-0.362628	0.184834	-0.382551	-0.396037	0.434680	-0.328315	-0.017284	1.421316	-0.043909	0.005532	1.476963	-0.374745	
87	0.4300	-0.015771	0.950780	-0.100704	0.004443	0.945947	-0.360464	-0.203329	0.998906	-0.209656	-0.190610	0.997722	-0.298453	-0.099290	0.796448	-0.051386	-0.042663	0.797259	-0.043378	-0.096298	0.742568	-0.055601	-0.037930	0.744062	-0.051029	-0.030359	0.451154	-0.119500	-0.017847	0.464859	-0.231626	-0.140624	0.320478	-0.112936	-0.090442	0.303958	-0.123889	-0.162397	0.276300	-0.124833	-0.115809	0.259644	-0.135083	-0.256156	0.106139	-0.172365	-0.238960	0.101956	-0.263372	-0.176521	0.034245	-0.126187	-0.142686	0.020185	-0.239594	-0.049127	0.020919	-0.177864	-0.322983	0.084163	-0.241599	-0.075209	0.816693	-0.424650	-0.027062	0.831813	-0.426666	-0.059926	0.772025	-0.431962	-0.012571	0.791462	-0.431279	0.052864	0.477643	-0.413712	0.047861	0.463630	-0.285822	-0.146001	0.466677	-0.435653	-0.130359	0.413254	-0.425966	-0.191126	0.448095	-0.422271	-0.167971	0.402217	-0.417746	-0.351137	0.392130	-0.388189	-0.343500	0.362257	-0.302243	-0.395144	0.275440	-0.423705	-0.386635	0.235083	-0.321005	-0.355276	0.183952	-0.382024	-0.391024	0.433916	-0.327949	-0.013865	1.421531	-0.043636	0.008567	1.477315	-0.374467	
