PathFileType	4	(X/Y/Z)	 P11 250r1 01.trc
DataRate	CameraRate	NumFrames	NumMarkers	Units	OrigDataRate	OrigDataStartFrame	OrigNumFrames
200	200	86	38	m	200	1	86
Frame#	Time	RASIS			LASIS			RPSIS			LPSIS			RThighRear1			RThighFront1			RThighRear2			RThighFront2			RKneeLat			RKneeMed			RShankRear1			RShankFront1			RShankRear2			RShankFront2			RAnkleLat			RAnkleMed			RM5			RM1			RMid			RHeel			LThighRear1			LThighFront1			LThighRear2			LThighFront2			LKneeLat			LKneeMed			LShankRear1			LShankFront1			LShankRear2			LShankFront2			LAnkleLat			LAnkleMed			LM5			LM1			LMid			LHeel			RShoulder			LShoulder			
		X1	Y1	Z1	X2	Y2	Z2	X3	Y3	Z3	X4	Y4	Z4	X5	Y5	Z5	X6	Y6	Z6	X7	Y7	Z7	X8	Y8	Z8	X9	Y9	Z9	X10	Y10	Z10	X11	Y11	Z11	X12	Y12	Z12	X13	Y13	Z13	X14	Y14	Z14	X15	Y15	Z15	X16	Y16	Z16	X17	Y17	Z17	X18	Y18	Z18	X19	Y19	Z19	X20	Y20	Z20	X21	Y21	Z21	X22	Y22	Z22	X23	Y23	Z23	X24	Y24	Z24	X25	Y25	Z25	X26	Y26	Z26	X27	Y27	Z27	X28	Y28	Z28	X29	Y29	Z29	X30	Y30	Z30	X31	Y31	Z31	X32	Y32	Z32	X33	Y33	Z33	X34	Y34	Z34	X35	Y35	Z35	X36	Y36	Z36	X37	Y37	Z37	X38	Y38	Z38	
1	0.0000	-1.551575	0.946784	-0.193202	-1.555248	0.962540	-0.416095	-1.736923	0.964353	-0.250306	-1.739832	0.977321	-0.340626	-1.650653	0.683584	-0.145076	-1.594194	0.684947	-0.155837	-1.641564	0.636037	-0.154215	-1.585948	0.629980	-0.163550	-1.603049	0.435319	-0.199827	-1.594811	0.437468	-0.311243	-1.751972	0.435657	-0.187661	-1.737265	0.391779	-0.195332	-1.798557	0.416895	-0.197210	-1.786690	0.381703	-0.201248	-1.998025	0.343279	-0.228550	-1.974329	0.339808	-0.320220	-2.026692	0.189421	-0.214748	-1.999738	0.175049	-0.333197	-1.972964	0.157042	-0.275634	-2.051020	0.396603	-0.294366	-1.550563	0.714814	-0.492510	-1.505368	0.738344	-0.484984	-1.539302	0.673733	-0.487597	-1.495180	0.695678	-0.485949	-1.427911	0.534397	-0.462519	-1.437056	0.521133	-0.366349	-1.475522	0.408334	-0.513559	-1.425666	0.413762	-0.497929	-1.470605	0.351358	-0.518193	-1.422535	0.359546	-0.503716	-1.432563	0.121010	-0.511928	-1.414579	0.133075	-0.428316	-1.305702	0.054100	-0.546226	-1.293713	0.079474	-0.431863	-1.251922	0.106565	-0.485655	-1.499130	0.078129	-0.465267	-1.548559	1.403607	-0.129914	-1.569080	1.416733	-0.454973	
2	0.0050	-1.538421	0.943560	-0.192375	-1.542709	0.960348	-0.415619	-1.723912	0.960418	-0.249279	-1.727201	0.974829	-0.339947	-1.633099	0.681090	-0.143853	-1.576600	0.683540	-0.153723	-1.622753	0.633965	-0.152417	-1.567024	0.629039	-0.160948	-1.579275	0.435332	-0.196782	-1.570942	0.437319	-0.308250	-1.727614	0.434269	-0.184484	-1.712542	0.390545	-0.192041	-1.774188	0.415434	-0.193507	-1.761887	0.379933	-0.197953	-1.973342	0.340229	-0.224689	-1.949398	0.336354	-0.316515	-1.999341	0.186162	-0.210522	-1.971925	0.171456	-0.328146	-1.944840	0.154449	-0.270454	-2.027214	0.392068	-0.291060	-1.538859	0.712849	-0.492247	-1.493593	0.736185	-0.484999	-1.527637	0.671686	-0.487258	-1.483500	0.693591	-0.485994	-1.416029	0.532128	-0.462246	-1.425050	0.519161	-0.365881	-1.465348	0.407320	-0.512950	-1.415528	0.411620	-0.497181	-1.461766	0.350425	-0.517580	-1.413744	0.357540	-0.502897	-1.429987	0.120461	-0.510952	-1.412231	0.131761	-0.427223	-1.305019	0.052884	-0.546156	-1.292516	0.077012	-0.431167	-1.250269	0.102807	-0.484914	-1.498078	0.078546	-0.464694	-1.535660	1.401196	-0.129068	-1.554494	1.413445	-0.454906	
3	0.0100	-1.525082	0.940318	-0.191544	-1.530006	0.958145	-0.415148	-1.710720	0.956452	-0.248246	-1.714403	0.972317	-0.339269	-1.615293	0.678622	-0.142605	-1.558761	0.682189	-0.151570	-1.603669	0.631938	-0.150588	-1.547828	0.628169	-0.158308	-1.555153	0.435444	-0.193693	-1.546726	0.437271	-0.305214	-1.702909	0.432910	-0.181262	-1.687449	0.389343	-0.188702	-1.749466	0.413970	-0.189758	-1.736711	0.378168	-0.194606	-1.948287	0.337056	-0.220760	-1.924082	0.332776	-0.312747	-1.971522	0.182765	-0.206200	-1.943630	0.167728	-0.322999	-1.916230	0.151748	-0.265179	-2.003061	0.387363	-0.287697	-1.527029	0.710858	-0.491968	-1.481689	0.733995	-0.485013	-1.515855	0.669610	-0.486903	-1.471704	0.691471	-0.486037	-1.404066	0.529801	-0.461981	-1.412927	0.517127	-0.365422	-1.455132	0.406270	-0.512332	-1.405350	0.409425	-0.496436	-1.452901	0.349460	-0.516957	-1.404926	0.355485	-0.502077	-1.427440	0.119907	-0.509969	-1.409907	0.130442	-0.426121	-1.304330	0.051671	-0.546087	-1.291312	0.074577	-0.430478	-1.248613	0.099076	-0.484184	-1.497064	0.078928	-0.464116	-1.522595	1.398790	-0.128193	-1.539693	1.410154	-0.454807	
4	0.0150	-1.511569	0.937092	-0.190706	-1.517148	0.955952	-0.414677	-1.697358	0.952486	-0.247201	-1.701449	0.969808	-0.338585	-1.597258	0.676223	-0.141326	-1.540704	0.680936	-0.149379	-1.584340	0.630001	-0.148726	-1.528388	0.627415	-0.155634	-1.530721	0.435702	-0.190566	-1.522205	0.437372	-0.302143	-1.677887	0.431600	-0.177997	-1.662008	0.388201	-0.185319	-1.724414	0.412509	-0.185971	-1.711179	0.376427	-0.191206	-1.922847	0.333723	-0.216763	-1.898374	0.329046	-0.308911	-1.943202	0.179206	-0.201771	-1.914822	0.163852	-0.317753	-1.887103	0.148928	-0.259808	-1.978548	0.382441	-0.284272	-1.515095	0.708857	-0.491662	-1.469680	0.731787	-0.485013	-1.503981	0.667520	-0.486524	-1.459816	0.689326	-0.486064	-1.392073	0.527419	-0.461721	-1.400729	0.515030	-0.364970	-1.444928	0.405191	-0.511707	-1.395185	0.407184	-0.495699	-1.444059	0.348470	-0.516322	-1.396133	0.353393	-0.501260	-1.424948	0.119361	-0.508985	-1.407630	0.129137	-0.425015	-1.303647	0.050468	-0.546022	-1.290115	0.072193	-0.429808	-1.246970	0.095410	-0.483478	-1.496107	0.079277	-0.463536	-1.509383	1.396419	-0.127280	-1.524691	1.406899	-0.454657	
5	0.0200	-1.497885	0.933915	-0.189856	-1.504136	0.953788	-0.414197	-1.683830	0.948554	-0.246141	-1.688341	0.967320	-0.337891	-1.579010	0.673935	-0.140011	-1.522447	0.679829	-0.147146	-1.564785	0.628200	-0.146831	-1.508726	0.626824	-0.152928	-1.506009	0.436153	-0.187407	-1.497414	0.437671	-0.299041	-1.652571	0.430361	-0.174690	-1.636236	0.387145	-0.181894	-1.699045	0.411059	-0.182149	-1.685299	0.374726	-0.187752	-1.896994	0.330194	-0.212697	-1.872249	0.325134	-0.305003	-1.914327	0.175464	-0.197225	-1.885450	0.159813	-0.312407	-1.857411	0.145980	-0.254342	-1.953651	0.377252	-0.280775	-1.503073	0.706859	-0.491316	-1.457578	0.729571	-0.484987	-1.492037	0.665431	-0.486109	-1.447858	0.687167	-0.486063	-1.380093	0.524987	-0.461462	-1.388499	0.512871	-0.364521	-1.434783	0.404089	-0.511071	-1.385084	0.404907	-0.494971	-1.435285	0.347465	-0.515672	-1.387412	0.351274	-0.500448	-1.422534	0.118841	-0.508010	-1.405419	0.127863	-0.423914	-1.302981	0.049285	-0.545966	-1.288942	0.069884	-0.429168	-1.245359	0.091846	-0.482808	-1.495220	0.079600	-0.462960	-1.496038	1.394114	-0.126317	-1.509495	1.403715	-0.454436	
6	0.0250	-1.484029	0.930823	-0.188987	-1.490965	0.951674	-0.413700	-1.670134	0.944691	-0.245060	-1.675073	0.964876	-0.337176	-1.560558	0.671804	-0.138651	-1.504005	0.678912	-0.144869	-1.545017	0.626582	-0.144899	-1.488858	0.626444	-0.150191	-1.481043	0.436846	-0.184221	-1.472384	0.438217	-0.295913	-1.626976	0.429210	-0.171339	-1.610138	0.386202	-0.178427	-1.673362	0.409623	-0.178297	-1.659068	0.373086	-0.184243	-1.870689	0.326429	-0.208557	-1.845673	0.321012	-0.301013	-1.884835	0.171520	-0.192552	-1.855452	0.155602	-0.306956	-1.827096	0.142898	-0.248778	-1.928331	0.371746	-0.277195	-1.490974	0.704879	-0.490916	-1.445394	0.727358	-0.484918	-1.480038	0.663359	-0.485646	-1.435842	0.685003	-0.486018	-1.368165	0.522508	-0.461198	-1.376272	0.510649	-0.364070	-1.424743	0.402976	-0.510422	-1.375092	0.402604	-0.494253	-1.426621	0.346456	-0.515004	-1.378802	0.349140	-0.499643	-1.420220	0.118364	-0.507050	-1.403290	0.126640	-0.422827	-1.302345	0.048126	-0.545921	-1.287809	0.067671	-0.428569	-1.243799	0.088417	-0.482184	-1.494416	0.079908	-0.462393	-1.482571	1.391905	-0.125291	-1.494109	1.400642	-0.454124	
7	0.0300	-1.469995	0.927853	-0.188089	-1.477625	0.949631	-0.413174	-1.656265	0.940933	-0.243951	-1.661638	0.962496	-0.336431	-1.541909	0.669872	-0.137239	-1.485388	0.678231	-0.142545	-1.525047	0.625191	-0.142928	-1.468799	0.626322	-0.147425	-1.455849	0.437823	-0.181012	-1.447142	0.439057	-0.292761	-1.601114	0.428165	-0.167945	-1.583720	0.385399	-0.174921	-1.647367	0.408209	-0.174415	-1.632483	0.371521	-0.180677	-1.843883	0.322393	-0.204342	-1.818602	0.316650	-0.296934	-1.854655	0.167358	-0.187740	-1.824760	0.151211	-0.301395	-1.796091	0.139678	-0.243115	-1.902541	0.365874	-0.273519	-1.478802	0.702935	-0.490447	-1.433131	0.725161	-0.484790	-1.467995	0.661319	-0.485123	-1.423779	0.682845	-0.485913	-1.356323	0.519986	-0.460920	-1.364084	0.508366	-0.363610	-1.414845	0.401861	-0.509756	-1.365249	0.400285	-0.493544	-1.418101	0.345456	-0.514316	-1.370343	0.347004	-0.498847	-1.418023	0.117950	-0.506113	-1.401257	0.125486	-0.421761	-1.301750	0.046997	-0.545891	-1.286730	0.065571	-0.428020	-1.242307	0.085153	-0.481618	-1.493703	0.080215	-0.461839	-1.468989	1.389823	-0.124192	-1.478532	1.397717	-0.453700	
8	0.0350	-1.455775	0.925043	-0.187155	-1.464104	0.947681	-0.412608	-1.642215	0.937317	-0.242803	-1.648022	0.960202	-0.335644	-1.523072	0.668182	-0.135767	-1.466607	0.677828	-0.140170	-1.504888	0.624071	-0.140915	-1.448561	0.626500	-0.144629	-1.430449	0.439127	-0.177785	-1.421717	0.440230	-0.289590	-1.574994	0.427241	-0.164506	-1.556984	0.384758	-0.171374	-1.621058	0.406819	-0.170505	-1.605535	0.370048	-0.177050	-1.816525	0.318051	-0.200048	-1.790992	0.312025	-0.292758	-1.823713	0.162968	-0.182780	-1.793305	0.146639	-0.295723	-1.764330	0.136323	-0.237350	-1.876229	0.359591	-0.269735	-1.466561	0.701040	-0.489894	-1.420791	0.722991	-0.484585	-1.455916	0.659328	-0.484526	-1.411672	0.680704	-0.485730	-1.344597	0.517429	-0.460621	-1.351968	0.506023	-0.363132	-1.405122	0.400758	-0.509068	-1.355589	0.397965	-0.492843	-1.409756	0.344479	-0.513602	-1.362065	0.344881	-0.498059	-1.415955	0.117620	-0.505205	-1.399328	0.124421	-0.420725	-1.301210	0.045903	-0.545879	-1.285722	0.063597	-0.427532	-1.240899	0.082080	-0.481120	-1.493085	0.080539	-0.461302	-1.455295	1.387898	-0.123007	-1.462766	1.394978	-0.453144	
9	0.0400	-1.441360	0.922430	-0.186172	-1.450386	0.945843	-0.411987	-1.627975	0.933880	-0.241608	-1.634212	0.958015	-0.334801	-1.504051	0.666772	-0.134227	-1.447670	0.677742	-0.137742	-1.484550	0.623261	-0.138858	-1.428160	0.627019	-0.141806	-1.404870	0.440793	-0.174545	-1.396141	0.441773	-0.286403	-1.548628	0.426450	-0.161019	-1.529938	0.384302	-0.167788	-1.594434	0.405455	-0.166568	-1.578221	0.368682	-0.173360	-1.788562	0.313374	-0.195674	-1.762796	0.307118	-0.288477	-1.791941	0.158347	-0.177667	-1.761019	0.141891	-0.289938	-1.731750	0.132843	-0.231484	-1.849343	0.352857	-0.265830	-1.454250	0.699214	-0.489244	-1.408372	0.720861	-0.484284	-1.443805	0.657404	-0.483845	-1.399525	0.678591	-0.485452	-1.333010	0.514843	-0.460290	-1.339952	0.503624	-0.362624	-1.395600	0.399681	-0.508354	-1.346141	0.395658	-0.492147	-1.401610	0.343541	-0.512859	-1.353993	0.342789	-0.497277	-1.414023	0.117394	-0.504334	-1.397509	0.123463	-0.419725	-1.300737	0.044847	-0.545889	-1.284800	0.061760	-0.427113	-1.239592	0.079217	-0.480697	-1.492564	0.080905	-0.460788	-1.441493	1.386158	-0.121725	-1.446811	1.392461	-0.452438	
10	0.0450	-1.426742	0.920052	-0.185130	-1.436457	0.944139	-0.411295	-1.613538	0.930660	-0.240355	-1.620194	0.955957	-0.333889	-1.484856	0.665680	-0.132611	-1.428589	0.678006	-0.135259	-1.464047	0.622797	-0.136752	-1.407612	0.627912	-0.138955	-1.379145	0.442849	-0.171295	-1.370449	0.443714	-0.283203	-1.522030	0.425799	-0.157484	-1.502590	0.384048	-0.164163	-1.567497	0.404121	-0.162602	-1.550539	0.367435	-0.169606	-1.759945	0.308339	-0.191219	-1.733972	0.301915	-0.284083	-1.759274	0.153499	-0.172396	-1.727844	0.136982	-0.284041	-1.698297	0.129251	-0.225521	-1.821829	0.345640	-0.261793	-1.441865	0.697471	-0.488480	-1.395869	0.718783	-0.483867	-1.431663	0.655565	-0.483065	-1.387337	0.676518	-0.485060	-1.321581	0.512238	-0.459916	-1.328064	0.501178	-0.362075	-1.386301	0.398646	-0.507609	-1.336926	0.393381	-0.491451	-1.393681	0.342662	-0.512082	-1.346147	0.340747	-0.496500	-1.412230	0.117294	-0.503506	-1.395798	0.122631	-0.418769	-1.300341	0.043832	-0.545923	-1.283977	0.060066	-0.426771	-1.238399	0.076581	-0.480355	-1.492131	0.081339	-0.460301	-1.427588	1.384630	-0.120334	-1.430671	1.390200	-0.451565	
11	0.0500	-1.411916	0.917945	-0.184015	-1.422303	0.942587	-0.410517	-1.598897	0.927693	-0.239033	-1.605953	0.954049	-0.332890	-1.465498	0.664937	-0.130914	-1.409378	0.678651	-0.132720	-1.443398	0.622709	-0.134598	-1.386936	0.629207	-0.136079	-1.353309	0.445314	-0.168042	-1.344683	0.446073	-0.279996	-1.495220	0.425293	-0.153900	-1.474960	0.384011	-0.160501	-1.540256	0.402815	-0.158609	-1.522497	0.366317	-0.165787	-1.730630	0.302931	-0.186684	-1.704487	0.296408	-0.279573	-1.725663	0.148438	-0.166969	-1.693735	0.131930	-0.278038	-1.663928	0.125571	-0.219465	-1.793641	0.337919	-0.257612	-1.429402	0.695832	-0.487590	-1.383276	0.716772	-0.483315	-1.419490	0.653830	-0.482176	-1.375103	0.674500	-0.484535	-1.310322	0.509627	-0.459486	-1.316326	0.498692	-0.361472	-1.377236	0.397672	-0.506827	-1.327960	0.391155	-0.490751	-1.385979	0.341860	-0.511268	-1.338537	0.338775	-0.495724	-1.410572	0.117344	-0.502726	-1.394189	0.121944	-0.417864	-1.300034	0.042859	-0.545982	-1.283265	0.058517	-0.426510	-1.237331	0.074183	-0.480100	-1.491777	0.081872	-0.459842	-1.413583	1.383339	-0.118827	-1.414351	1.388229	-0.450509	
12	0.0550	-1.396876	0.916143	-0.182816	-1.407911	0.941207	-0.409634	-1.584047	0.925015	-0.237630	-1.591479	0.952311	-0.331791	-1.445994	0.664570	-0.129127	-1.390053	0.679697	-0.130125	-1.422624	0.623021	-0.132393	-1.366158	0.630925	-0.133179	-1.327408	0.448201	-0.164793	-1.318891	0.448858	-0.276784	-1.468223	0.424934	-0.150266	-1.447070	0.384200	-0.156804	-1.512725	0.401539	-0.154589	-1.494108	0.365338	-0.161905	-1.700583	0.297144	-0.182071	-1.674314	0.290600	-0.274944	-1.691069	0.143188	-0.161388	-1.658658	0.126768	-0.271934	-1.628616	0.121833	-0.213326	-1.764740	0.329683	-0.253280	-1.416856	0.694312	-0.486561	-1.370587	0.714841	-0.482610	-1.407283	0.652216	-0.481167	-1.362819	0.672550	-0.483860	-1.299242	0.507023	-0.458990	-1.304759	0.496179	-0.360801	-1.368411	0.396778	-0.506003	-1.319249	0.389001	-0.490040	-1.378506	0.341157	-0.510411	-1.331168	0.336896	-0.494946	-1.409036	0.117565	-0.501999	-1.392671	0.121421	-0.417016	-1.299823	0.041933	-0.546068	-1.282674	0.057113	-0.426334	-1.236398	0.072026	-0.479935	-1.491483	0.082539	-0.459415	-1.399485	1.382306	-0.117195	-1.397862	1.386574	-0.449258	
13	0.0600	-1.381621	0.914676	-0.181521	-1.393271	0.940015	-0.408631	-1.568985	0.922657	-0.236135	-1.576761	0.950761	-0.330575	-1.426363	0.664600	-0.127247	-1.370633	0.681160	-0.127475	-1.401752	0.623750	-0.130136	-1.345305	0.633078	-0.130258	-1.301489	0.451510	-0.161552	-1.293127	0.452069	-0.273573	-1.441072	0.424718	-0.146584	-1.418955	0.384622	-0.153076	-1.484926	0.400290	-0.150543	-1.465396	0.364503	-0.157960	-1.669781	0.290979	-0.177386	-1.643439	0.284499	-0.270193	-1.655473	0.137781	-0.155665	-1.622601	0.121532	-0.265743	-1.592351	0.118072	-0.207116	-1.735095	0.320932	-0.248789	-1.404220	0.692932	-0.485382	-1.357795	0.713007	-0.481733	-1.395038	0.650745	-0.480029	-1.350479	0.670685	-0.483018	-1.288341	0.504445	-0.458412	-1.293376	0.493655	-0.360047	-1.359825	0.395986	-0.505130	-1.310792	0.386942	-0.489311	-1.371257	0.340577	-0.509507	-1.324036	0.335135	-0.494162	-1.407607	0.117982	-0.501327	-1.391225	0.121078	-0.416229	-1.299715	0.041057	-0.546182	-1.282213	0.055850	-0.426246	-1.235608	0.070110	-0.479859	-1.491225	0.083379	-0.459021	-1.385299	1.381550	-0.115432	-1.381218	1.385262	-0.447802	
14	0.0650	-1.366154	0.913571	-0.180116	-1.378376	0.939026	-0.407491	-1.553714	0.920651	-0.234536	-1.561793	0.949418	-0.329226	-1.406628	0.665043	-0.125269	-1.351141	0.683046	-0.124772	-1.380814	0.624904	-0.127827	-1.324409	0.635670	-0.127320	-1.275611	0.455234	-0.158329	-1.267452	0.455697	-0.270369	-1.413804	0.424638	-0.142855	-1.390655	0.385276	-0.149319	-1.456888	0.399066	-0.146471	-1.436392	0.363815	-0.153957	-1.638211	0.284450	-0.172633	-1.611860	0.278124	-0.265323	-1.618873	0.132260	-0.149810	-1.585567	0.116268	-0.259478	-1.555143	0.114334	-0.200851	-1.704686	0.311678	-0.244136	-1.391486	0.691707	-0.484044	-1.344891	0.711286	-0.480668	-1.382748	0.649434	-0.478755	-1.338072	0.668921	-0.481995	-1.277613	0.501913	-0.457743	-1.282188	0.491139	-0.359198	-1.351465	0.395320	-0.504204	-1.302581	0.385003	-0.488557	-1.364220	0.340142	-0.508553	-1.317130	0.333517	-0.493366	-1.406260	0.118617	-0.500714	-1.389828	0.120933	-0.415508	-1.299714	0.040236	-0.546322	-1.281886	0.054723	-0.426245	-1.234964	0.068431	-0.479872	-1.490971	0.084434	-0.458658	-1.371035	1.381085	-0.113534	-1.364437	1.384313	-0.446134	
15	0.0700	-1.350478	0.912852	-0.178591	-1.363223	0.938256	-0.406197	-1.538236	0.919022	-0.232823	-1.546572	0.948297	-0.327730	-1.386817	0.665906	-0.123188	-1.331602	0.685355	-0.122021	-1.359842	0.626487	-0.125466	-1.303506	0.638695	-0.124369	-1.249835	0.459354	-0.155130	-1.241933	0.459717	-0.267175	-1.386463	0.424684	-0.139082	-1.362221	0.386159	-0.145539	-1.428649	0.397864	-0.142374	-1.407137	0.363277	-0.149900	-1.605876	0.277578	-0.167821	-1.579587	0.271501	-0.260339	-1.581283	0.126674	-0.143841	-1.547580	0.111031	-0.253157	-1.517019	0.110669	-0.194548	-1.673503	0.301945	-0.239317	-1.378646	0.690658	-0.482540	-1.331867	0.709694	-0.479401	-1.370405	0.648304	-0.477338	-1.325590	0.667277	-0.480778	-1.267047	0.499448	-0.456969	-1.271197	0.488651	-0.358238	-1.343315	0.394802	-0.503219	-1.294597	0.383213	-0.487771	-1.357373	0.339879	-0.507546	-1.310428	0.332070	-0.492552	-1.404964	0.119491	-0.500159	-1.388450	0.121003	-0.414855	-1.299823	0.039476	-0.546487	-1.281694	0.053725	-0.426330	-1.234468	0.066979	-0.479969	-1.490683	0.085745	-0.458326	-1.356702	1.380921	-0.111499	-1.347540	1.383742	-0.444250	
16	0.0750	-1.334603	0.912535	-0.176935	-1.347814	0.937715	-0.404737	-1.522559	0.917792	-0.230986	-1.531099	0.947413	-0.326072	-1.366957	0.667192	-0.121003	-1.312042	0.688077	-0.119225	-1.338874	0.628492	-0.123052	-1.282633	0.642138	-0.121408	-1.224227	0.463840	-0.151963	-1.216639	0.464100	-0.263998	-1.359099	0.424841	-0.135267	-1.333709	0.387261	-0.141742	-1.400251	0.396681	-0.138256	-1.377682	0.362885	-0.145795	-1.572790	0.270397	-0.162957	-1.546644	0.264662	-0.255247	-1.542739	0.121082	-0.137780	-1.508682	0.105880	-0.246803	-1.478027	0.107130	-0.188231	-1.641552	0.291769	-0.234334	-1.365692	0.689800	-0.480865	-1.318715	0.708249	-0.477920	-1.357999	0.647372	-0.475774	-1.313021	0.665771	-0.479356	-1.256623	0.497076	-0.456080	-1.260399	0.486215	-0.357157	-1.335346	0.394458	-0.502171	-1.286816	0.381596	-0.486943	-1.350688	0.339812	-0.506482	-1.303902	0.330820	-0.491717	-1.403682	0.120627	-0.499662	-1.387056	0.121305	-0.414271	-1.300038	0.038786	-0.546675	-1.281634	0.052850	-0.426495	-1.234117	0.065741	-0.480147	-1.490319	0.087358	-0.458018	-1.342310	1.381066	-0.109325	-1.330553	1.383560	-0.442148	
17	0.0800	-1.318538	0.912633	-0.175140	-1.332151	0.937413	-0.403097	-1.506690	0.916976	-0.229016	-1.515377	0.946777	-0.324241	-1.347082	0.668895	-0.118713	-1.292489	0.691194	-0.116390	-1.317949	0.630906	-0.120587	-1.261829	0.645976	-0.118444	-1.198854	0.468657	-0.148835	-1.191644	0.468803	-0.260843	-1.331766	0.425092	-0.131415	-1.305180	0.388570	-0.137933	-1.371742	0.395510	-0.134117	-1.348081	0.362637	-0.141650	-1.538982	0.262947	-0.158052	-1.513067	0.257650	-0.250056	-1.503295	0.115549	-0.131648	-1.468935	0.100879	-0.240438	-1.438232	0.103777	-0.181923	-1.608846	0.281197	-0.229190	-1.352615	0.689151	-0.479016	-1.305427	0.706970	-0.476215	-1.345517	0.646656	-0.474061	-1.300352	0.664423	-0.477720	-1.246318	0.494822	-0.455067	-1.249782	0.483858	-0.355943	-1.327524	0.394310	-0.501055	-1.279202	0.380182	-0.486066	-1.344127	0.339965	-0.505358	-1.297518	0.329796	-0.490852	-1.402372	0.122045	-0.499218	-1.385607	0.121854	-0.413754	-1.300354	0.038179	-0.546880	-1.281699	0.052090	-0.426734	-1.233906	0.064701	-0.480396	-1.489827	0.089318	-0.457730	-1.327871	1.381522	-0.107015	-1.313501	1.383770	-0.439831	
18	0.0850	-1.302297	0.913151	-0.173198	-1.316244	0.937358	-0.401266	-1.490641	0.916585	-0.226904	-1.499414	0.946399	-0.322226	-1.327222	0.671003	-0.116316	-1.272971	0.694680	-0.113522	-1.297107	0.633707	-0.118070	-1.241132	0.650178	-0.115481	-1.173785	0.473757	-0.145755	-1.167020	0.473776	-0.257713	-1.304517	0.425417	-0.127530	-1.276700	0.390066	-0.134120	-1.343178	0.394349	-0.129961	-1.318398	0.362524	-0.137472	-1.504494	0.255277	-0.153115	-1.478904	0.250510	-0.244777	-1.463020	0.110145	-0.125473	-1.428416	0.096096	-0.234087	-1.397717	0.100672	-0.175649	-1.575415	0.270284	-0.223889	-1.339404	0.688725	-0.476992	-1.291992	0.705873	-0.474282	-1.332946	0.646172	-0.472198	-1.287568	0.663251	-0.475868	-1.236098	0.492715	-0.453923	-1.239327	0.481605	-0.354588	-1.319808	0.394382	-0.499867	-1.271716	0.378995	-0.485133	-1.337647	0.340362	-0.504173	-1.291231	0.329021	-0.489953	-1.400985	0.123765	-0.498822	-1.384057	0.122665	-0.413303	-1.300760	0.037669	-0.547098	-1.281877	0.051441	-0.427039	-1.233824	0.063842	-0.480709	-1.489153	0.091669	-0.457453	-1.313394	1.382287	-0.104571	-1.296415	1.384374	-0.437302	
19	0.0900	-1.285892	0.914087	-0.171104	-1.300104	0.937554	-0.399238	-1.474424	0.916624	-0.224645	-1.483219	0.946284	-0.320019	-1.307410	0.673496	-0.113814	-1.253512	0.698504	-0.110627	-1.276386	0.636869	-0.115502	-1.220580	0.654704	-0.112526	-1.149090	0.479089	-0.142728	-1.142839	0.478960	-0.254613	-1.277412	0.425794	-0.123617	-1.248339	0.391730	-0.130308	-1.314614	0.393190	-0.125790	-1.288699	0.362539	-0.133270	-1.469379	0.247445	-0.148157	-1.444216	0.243294	-0.239424	-1.422001	0.104941	-0.119281	-1.387220	0.091598	-0.227778	-1.356581	0.097877	-0.169437	-1.541297	0.259096	-0.218440	-1.326050	0.688536	-0.474797	-1.278404	0.704977	-0.472116	-1.320269	0.645935	-0.470189	-1.274655	0.662276	-0.473796	-1.225927	0.490780	-0.452642	-1.229004	0.479484	-0.353086	-1.312148	0.394696	-0.498604	-1.264309	0.378063	-0.484136	-1.331199	0.341026	-0.502923	-1.284992	0.328522	-0.489014	-1.399469	0.125803	-0.498467	-1.382358	0.123752	-0.412910	-1.301243	0.037275	-0.547321	-1.282151	0.050898	-0.427399	-1.233858	0.063143	-0.481073	-1.488238	0.094453	-0.457175	-1.298890	1.383353	-0.101998	-1.279322	1.385363	-0.434570	
20	0.0950	-1.269340	0.915434	-0.168856	-1.283744	0.938002	-0.397007	-1.458052	0.917091	-0.222233	-1.466805	0.946437	-0.317614	-1.287676	0.676349	-0.111206	-1.234139	0.702625	-0.107713	-1.255822	0.640355	-0.112882	-1.200208	0.659508	-0.109582	-1.124831	0.484593	-0.139761	-1.119171	0.484292	-0.251547	-1.250505	0.426200	-0.119682	-1.220166	0.393534	-0.126503	-1.286109	0.392028	-0.121607	-1.259053	0.362671	-0.129052	-1.433702	0.239512	-0.143186	-1.409071	0.236057	-0.234012	-1.380339	0.100012	-0.113101	-1.345455	0.087456	-0.221536	-1.314933	0.095451	-0.163314	-1.506544	0.247702	-0.212853	-1.312541	0.688594	-0.472433	-1.264652	0.704298	-0.469720	-1.307469	0.645955	-0.468035	-1.261597	0.661516	-0.471508	-1.215760	0.489045	-0.451221	-1.218778	0.477521	-0.351434	-1.304490	0.395271	-0.497263	-1.256926	0.377406	-0.483069	-1.324727	0.341975	-0.501609	-1.278746	0.328321	-0.488028	-1.397768	0.128175	-0.498143	-1.380458	0.125129	-0.412570	-1.301781	0.037017	-0.547541	-1.282497	0.050462	-0.427800	-1.233988	0.062586	-0.481477	-1.487018	0.097709	-0.456882	-1.284368	1.384711	-0.099301	-1.262252	1.386725	-0.431642	
21	0.1000	-1.252656	0.917179	-0.166451	-1.267182	0.938703	-0.394571	-1.441539	0.917977	-0.219666	-1.450188	0.946857	-0.315007	-1.268048	0.679530	-0.108494	-1.214872	0.706999	-0.104785	-1.235450	0.644128	-0.110210	-1.180045	0.664538	-0.106656	-1.101070	0.490206	-0.136858	-1.096078	0.489702	-0.248515	-1.223852	0.426610	-0.115728	-1.192248	0.395451	-0.122713	-1.257722	0.390858	-0.117415	-1.229530	0.362906	-0.124829	-1.397541	0.231545	-0.138214	-1.373549	0.228856	-0.228556	-1.338145	0.095427	-0.106961	-1.303239	0.083732	-0.215388	-1.272897	0.093454	-0.157305	-1.471216	0.236180	-0.207140	-1.298866	0.688909	-0.469908	-1.250728	0.703850	-0.467098	-1.294528	0.646241	-0.465743	-1.248376	0.660986	-0.469007	-1.205552	0.487535	-0.449659	-1.208601	0.475741	-0.349629	-1.296774	0.396123	-0.495841	-1.249508	0.377046	-0.481926	-1.318171	0.343226	-0.500226	-1.272433	0.328435	-0.486991	-1.395823	0.130895	-0.497838	-1.378303	0.126807	-0.412271	-1.302351	0.036921	-0.547746	-1.282888	0.050135	-0.428229	-1.234191	0.062152	-0.481906	-1.485429	0.101471	-0.456558	-1.269838	1.386346	-0.096487	-1.245233	1.388444	-0.428530	
22	0.1050	-1.235856	0.919300	-0.163891	-1.250437	0.939653	-0.391933	-1.424898	0.919267	-0.216941	-1.433383	0.947541	-0.312198	-1.248551	0.683003	-0.105681	-1.195729	0.711575	-0.101850	-1.215299	0.648141	-0.107484	-1.160119	0.669737	-0.103751	-1.077859	0.495862	-0.134021	-1.073618	0.495120	-0.245520	-1.197505	0.427000	-0.111762	-1.164652	0.397451	-0.118943	-1.229511	0.389674	-0.113216	-1.200200	0.363230	-0.120608	-1.360978	0.223612	-0.133250	-1.337733	0.221748	-0.223074	-1.295544	0.091257	-0.100888	-1.260699	0.080489	-0.209358	-1.230602	0.091939	-0.151436	-1.435383	0.224608	-0.201317	-1.285015	0.689485	-0.467230	-1.236623	0.703648	-0.464259	-1.281426	0.646800	-0.463320	-1.234976	0.660702	-0.466303	-1.195249	0.486272	-0.447959	-1.198423	0.474167	-0.347675	-1.288937	0.397264	-0.494337	-1.241992	0.376997	-0.480703	-1.311469	0.344793	-0.498774	-1.265989	0.328881	-0.485896	-1.393574	0.133972	-0.497536	-1.375839	0.128797	-0.412002	-1.302922	0.037016	-0.547926	-1.283290	0.049923	-0.428670	-1.234439	0.061825	-0.482346	-1.483403	0.105771	-0.456185	-1.255305	1.388239	-0.093562	-1.228290	1.390496	-0.425247	
23	0.1100	-1.218953	0.921772	-0.161182	-1.233531	0.940845	-0.389095	-1.408141	0.920941	-0.214060	-1.416410	0.948482	-0.309189	-1.229207	0.686727	-0.102769	-1.176726	0.716299	-0.098915	-1.195395	0.652346	-0.104702	-1.140451	0.675045	-0.100871	-1.055245	0.501493	-0.131254	-1.051839	0.500471	-0.242559	-1.171512	0.427345	-0.107788	-1.137439	0.399503	-0.115197	-1.201532	0.388469	-0.109015	-1.171131	0.363627	-0.116397	-1.324108	0.215784	-0.128301	-1.301715	0.214791	-0.217584	-1.252665	0.087564	-0.094907	-1.217971	0.077778	-0.203471	-1.188186	0.090951	-0.145730	-1.399124	0.213067	-0.195399	-1.270976	0.690326	-0.464409	-1.222329	0.703701	-0.461213	-1.268143	0.647633	-0.460775	-1.221381	0.660675	-0.463409	-1.184797	0.485276	-0.446126	-1.188183	0.472818	-0.345576	-1.280915	0.398705	-0.492748	-1.234313	0.377273	-0.479396	-1.304555	0.346684	-0.497252	-1.259350	0.329670	-0.484739	-1.390960	0.137415	-0.497220	-1.373008	0.131107	-0.411746	-1.303457	0.037331	-0.548067	-1.283661	0.049835	-0.429103	-1.234699	0.061591	-0.482780	-1.480874	0.110632	-0.455742	-1.240774	1.390368	-0.090536	-1.211447	1.392854	-0.421804	
24	0.1150	-1.201963	0.924563	-0.158328	-1.216486	0.942271	-0.386068	-1.391283	0.922971	-0.211023	-1.399288	0.949671	-0.305984	-1.210034	0.690657	-0.099761	-1.157871	0.721116	-0.095983	-1.175756	0.656691	-0.101864	-1.121057	0.680398	-0.098019	-1.033264	0.507031	-0.128554	-1.030780	0.505685	-0.239631	-1.145915	0.427622	-0.103810	-1.110665	0.401573	-0.111479	-1.173839	0.387240	-0.104812	-1.142388	0.364081	-0.112206	-1.287028	0.208127	-0.123376	-1.265590	0.208037	-0.212104	-1.209645	0.084402	-0.089043	-1.175193	0.075646	-0.197746	-1.145789	0.090529	-0.140207	-1.362526	0.201637	-0.189406	-1.256741	0.691428	-0.461459	-1.207840	0.704016	-0.457977	-1.254659	0.648737	-0.458117	-1.207574	0.660914	-0.460338	-1.174142	0.484561	-0.444166	-1.177818	0.471710	-0.343340	-1.272640	0.400449	-0.491073	-1.226403	0.377879	-0.478001	-1.297364	0.348903	-0.495655	-1.252450	0.330807	-0.483515	-1.387921	0.141228	-0.496873	-1.369757	0.133744	-0.411487	-1.303916	0.037901	-0.548153	-1.283957	0.049886	-0.429510	-1.234934	0.061439	-0.483192	-1.477778	0.116070	-0.455205	-1.226248	1.392707	-0.087417	-1.194724	1.395488	-0.418218	
25	0.1200	-1.184898	0.927637	-0.155340	-1.199325	0.943918	-0.382861	-1.374333	0.925325	-0.207836	-1.382036	0.951091	-0.302590	-1.191043	0.694744	-0.096661	-1.139173	0.725967	-0.093059	-1.156398	0.661122	-0.098966	-1.101945	0.685734	-0.095196	-1.011944	0.512413	-0.125920	-1.010468	0.510690	-0.236734	-1.120751	0.427810	-0.099833	-1.084380	0.403629	-0.107793	-1.146481	0.385980	-0.100612	-1.114030	0.364573	-0.108039	-1.249843	0.200708	-0.118483	-1.229455	0.201537	-0.206651	-1.166626	0.081817	-0.083317	-1.132505	0.074125	-0.192201	-1.103552	0.090701	-0.134883	-1.325683	0.190396	-0.183358	-1.242299	0.692786	-0.458391	-1.193150	0.704598	-0.454568	-1.240956	0.650105	-0.455357	-1.193542	0.661425	-0.457108	-1.163227	0.484139	-0.442088	-1.167259	0.470853	-0.340977	-1.264047	0.402495	-0.489310	-1.218197	0.378817	-0.476518	-1.289831	0.351451	-0.493983	-1.245222	0.332294	-0.482218	-1.384400	0.145412	-0.496472	-1.366032	0.136714	-0.411204	-1.304253	0.038758	-0.548170	-1.284128	0.050093	-0.429871	-1.235099	0.061362	-0.483563	-1.474052	0.122093	-0.454550	-1.211729	1.395228	-0.084212	-1.178139	1.398362	-0.414502	
26	0.1250	-1.167770	0.930954	-0.152227	-1.182073	0.945772	-0.379489	-1.357302	0.927966	-0.204502	-1.364675	0.952727	-0.299017	-1.172245	0.698937	-0.093471	-1.120632	0.730793	-0.090145	-1.137329	0.665585	-0.096005	-1.083120	0.690989	-0.092403	-0.991302	0.517575	-0.123347	-0.990921	0.515421	-0.233861	-1.096052	0.427888	-0.095859	-1.058627	0.405640	-0.104140	-1.119503	0.384685	-0.096416	-1.086112	0.365085	-0.103905	-1.212661	0.193586	-0.113626	-1.193411	0.195337	-0.201244	-1.123751	0.079843	-0.077744	-1.090049	0.073238	-0.186850	-1.061617	0.091484	-0.129772	-1.288693	0.179417	-0.177275	-1.227642	0.694389	-0.455222	-1.178253	0.705445	-0.451008	-1.227015	0.651727	-0.452507	-1.179270	0.662206	-0.453739	-1.151997	0.484014	-0.439905	-1.156435	0.470253	-0.338499	-1.255072	0.404837	-0.487459	-1.209630	0.380083	-0.474944	-1.281894	0.354322	-0.492232	-1.237605	0.334127	-0.480843	-1.380342	0.149964	-0.495996	-1.361782	0.140018	-0.410875	-1.304416	0.039939	-0.548098	-1.284117	0.050476	-0.430165	-1.235149	0.061358	-0.483876	-1.469638	0.128702	-0.453752	-1.197216	1.397901	-0.080930	-1.161707	1.401440	-0.410671	
27	0.1300	-1.150588	0.934471	-0.149004	-1.164753	0.947816	-0.375968	-1.340201	0.930853	-0.201030	-1.347226	0.954556	-0.295276	-1.153644	0.703185	-0.090195	-1.102248	0.735537	-0.087244	-1.118553	0.670025	-0.092978	-1.064579	0.696100	-0.089639	-0.971344	0.522460	-0.120829	-0.972144	0.519817	-0.231006	-1.071842	0.427839	-0.091893	-1.033442	0.407573	-0.100522	-1.092946	0.383352	-0.092226	-1.058685	0.365600	-0.099808	-1.175591	0.186815	-0.108813	-1.157557	0.189474	-0.195899	-1.081163	0.078499	-0.072340	-1.047964	0.072993	-0.181701	-1.020122	0.092880	-0.124881	-1.251660	0.168769	-0.171181	-1.212766	0.696222	-0.451965	-1.163147	0.706553	-0.447318	-1.212822	0.653585	-0.449579	-1.164749	0.663253	-0.450254	-1.140398	0.484186	-0.437629	-1.145276	0.469909	-0.335921	-1.245654	0.407466	-0.485518	-1.200641	0.381667	-0.473281	-1.273493	0.357505	-0.490398	-1.229538	0.336295	-0.479387	-1.375696	0.154878	-0.495420	-1.356962	0.143657	-0.410478	-1.304350	0.041477	-0.547921	-1.283865	0.051058	-0.430371	-1.235030	0.061429	-0.484112	-1.464484	0.135888	-0.452784	-1.182707	1.400693	-0.077579	-1.145437	1.404680	-0.406739	
28	0.1350	-1.133363	0.938142	-0.145684	-1.147390	0.950030	-0.372318	-1.323038	0.933939	-0.197428	-1.329708	0.956554	-0.291381	-1.135241	0.707436	-0.086838	-1.084016	0.740143	-0.084356	-1.100068	0.674388	-0.089884	-1.046315	0.701008	-0.086903	-0.952069	0.527016	-0.118359	-0.954129	0.523826	-0.228164	-1.048141	0.427649	-0.087936	-1.008851	0.409400	-0.096938	-1.066846	0.381976	-0.088046	-1.031790	0.366098	-0.095752	-1.138744	0.180442	-0.104049	-1.121992	0.183980	-0.190632	-1.039004	0.077793	-0.067114	-1.006384	0.073386	-0.176761	-0.979202	0.094880	-0.120214	-1.214692	0.158514	-0.165100	-1.197665	0.698267	-0.448638	-1.147831	0.707911	-0.443525	-1.198361	0.655658	-0.446586	-1.149969	0.664558	-0.446674	-1.128382	0.484649	-0.435273	-1.133713	0.469815	-0.333258	-1.235738	0.410363	-0.483486	-1.191172	0.383554	-0.471527	-1.264574	0.360984	-0.488479	-1.220967	0.338784	-0.477844	-1.370418	0.160145	-0.494721	-1.351527	0.147626	-0.409986	-1.303996	0.043406	-0.547618	-1.283309	0.051865	-0.430466	-1.234689	0.061580	-0.484253	-1.458546	0.143633	-0.451619	-1.168199	1.403568	-0.074166	-1.129339	1.408044	-0.402721	
29	0.1400	-1.116102	0.941920	-0.142284	-1.130008	0.952390	-0.368558	-1.305821	0.937178	-0.193705	-1.312142	0.958692	-0.287346	-1.117032	0.711637	-0.083404	-1.065931	0.744557	-0.081480	-1.081868	0.678622	-0.086718	-1.028318	0.705658	-0.084190	-0.933462	0.531198	-0.115926	-0.936860	0.527403	-0.225325	-1.024959	0.427305	-0.083990	-0.984874	0.411094	-0.093387	-1.041232	0.380555	-0.083877	-1.005463	0.366562	-0.091742	-1.102232	0.174503	-0.099339	-1.086812	0.178878	-0.185458	-0.997415	0.077716	-0.062074	-0.965440	0.074396	-0.172031	-0.938984	0.097460	-0.115771	-1.177899	0.148707	-0.159055	-1.182337	0.700497	-0.445255	-1.132304	0.709505	-0.439653	-1.183623	0.657921	-0.443541	-1.134925	0.666105	-0.443025	-1.115902	0.485389	-0.432855	-1.121678	0.469961	-0.330526	-1.225273	0.413510	-0.481361	-1.181172	0.385724	-0.469686	-1.255088	0.364739	-0.486469	-1.211842	0.341573	-0.476211	-1.364468	0.165751	-0.493873	-1.345442	0.151921	-0.409375	-1.303293	0.045754	-0.547172	-1.282385	0.052920	-0.430431	-1.234066	0.061825	-0.484282	-1.451784	0.151910	-0.450233	-1.153689	1.406491	-0.070696	-1.113416	1.411487	-0.398629	
30	0.1450	-1.098811	0.945758	-0.138821	-1.112629	0.954874	-0.364711	-1.288559	0.940520	-0.189872	-1.294546	0.960940	-0.283188	-1.099014	0.715737	-0.079896	-1.047984	0.748729	-0.078614	-1.063943	0.682677	-0.083479	-1.010572	0.709996	-0.081497	-0.915500	0.534969	-0.113519	-0.920306	0.530510	-0.222482	-1.002305	0.426798	-0.080059	-0.961523	0.412630	-0.089869	-1.016130	0.379086	-0.079723	-0.979735	0.366973	-0.087779	-1.066163	0.169025	-0.094689	-1.052112	0.174183	-0.180391	-0.956529	0.078246	-0.057220	-0.925255	0.075990	-0.167510	-0.899589	0.100582	-0.111546	-1.141393	0.139394	-0.153072	-1.166782	0.702887	-0.441833	-1.116569	0.711316	-0.435728	-1.168599	0.660343	-0.440455	-1.119612	0.667876	-0.439330	-1.102919	0.486390	-0.430388	-1.109111	0.470330	-0.327744	-1.214214	0.416881	-0.479144	-1.170596	0.388151	-0.467758	-1.244991	0.368745	-0.484365	-1.202120	0.344637	-0.474483	-1.357812	0.171680	-0.492853	-1.338674	0.156532	-0.408618	-1.302177	0.048549	-0.546563	-1.281025	0.054251	-0.430244	-1.233101	0.062178	-0.484179	-1.444169	0.160683	-0.448599	-1.139171	1.409426	-0.067177	-1.097670	1.414969	-0.394477	
31	0.1500	-1.081498	0.949607	-0.135312	-1.095275	0.957452	-0.360800	-1.271259	0.943914	-0.185939	-1.276940	0.963263	-0.278922	-1.081178	0.719688	-0.076321	-1.030166	0.752615	-0.075754	-1.046279	0.686507	-0.080166	-0.993059	0.713977	-0.078819	-0.898154	0.538298	-0.111128	-0.904429	0.533121	-0.219625	-0.980179	0.426122	-0.076143	-0.938800	0.413986	-0.086382	-0.991559	0.377567	-0.075585	-0.954627	0.367316	-0.083867	-1.030644	0.164026	-0.090103	-1.017983	0.169902	-0.175442	-0.916477	0.079343	-0.052554	-0.885948	0.078118	-0.163190	-0.861128	0.104193	-0.107531	-1.105288	0.130612	-0.147175	-1.151003	0.705402	-0.438387	-1.100631	0.713318	-0.431777	-1.153286	0.662891	-0.437341	-1.104032	0.669844	-0.435613	-1.089398	0.487628	-0.427890	-1.095955	0.470900	-0.324927	-1.202526	0.420447	-0.476833	-1.159406	0.390806	-0.465747	-1.234249	0.372973	-0.482161	-1.191765	0.347948	-0.472657	-1.350427	0.177910	-0.491636	-1.331196	0.161447	-0.407691	-1.300583	0.051811	-0.545772	-1.279163	0.055880	-0.429886	-1.231729	0.062657	-0.483930	-1.435683	0.169907	-0.446695	-1.124640	1.412334	-0.063612	-1.082101	1.418446	-0.390276	
32	0.1550	-1.064169	0.953422	-0.131775	-1.077967	0.960098	-0.356846	-1.253928	0.947307	-0.181919	-1.259341	0.965624	-0.274566	-1.063515	0.723442	-0.072684	-1.012467	0.756172	-0.072896	-1.028861	0.690069	-0.076778	-0.975759	0.717561	-0.076147	-0.881386	0.541164	-0.108739	-0.889181	0.535220	-0.216747	-0.958577	0.425275	-0.072244	-0.916704	0.415143	-0.082922	-0.967537	0.375995	-0.071468	-0.930156	0.367573	-0.080006	-0.995778	0.159510	-0.085588	-0.984510	0.166032	-0.170623	-0.877381	0.080956	-0.048072	-0.847625	0.080718	-0.159062	-0.823706	0.108229	-0.103712	-1.069695	0.122390	-0.141389	-1.135003	0.708009	-0.434932	-1.084495	0.715483	-0.427824	-1.137680	0.665527	-0.434210	-1.088186	0.671982	-0.431898	-1.075312	0.489076	-0.425375	-1.082164	0.471647	-0.322093	-1.190178	0.424176	-0.474427	-1.147573	0.393656	-0.463654	-1.222832	0.377392	-0.479853	-1.180749	0.351472	-0.470729	-1.342292	0.184419	-0.490201	-1.322991	0.166648	-0.406568	-1.298448	0.055554	-0.544782	-1.276732	0.057830	-0.429339	-1.229889	0.063286	-0.483518	-1.426314	0.179532	-0.444501	-1.110093	1.415178	-0.060006	-1.066706	1.421879	-0.386038	
33	0.1600	-1.046829	0.957155	-0.128226	-1.060723	0.962778	-0.352872	-1.236577	0.950648	-0.177823	-1.241766	0.967987	-0.270138	-1.046016	0.726955	-0.068988	-0.994880	0.759366	-0.070035	-1.011672	0.693326	-0.073315	-0.958654	0.720713	-0.073476	-0.865149	0.543554	-0.106340	-0.874506	0.536799	-0.213840	-0.937491	0.424256	-0.068366	-0.895226	0.416086	-0.079488	-0.944072	0.374370	-0.067376	-0.906332	0.367730	-0.076199	-0.961665	0.155475	-0.081149	-0.951775	0.162562	-0.165942	-0.839356	0.083017	-0.043766	-0.810386	0.083717	-0.155116	-0.787412	0.112610	-0.100075	-1.034728	0.114747	-0.135737	-1.118790	0.710667	-0.431481	-1.068170	0.717779	-0.423894	-1.121784	0.668211	-0.431073	-1.072078	0.674256	-0.428206	-1.060640	0.490702	-0.422858	-1.067698	0.472543	-0.319257	-1.177151	0.428034	-0.471926	-1.135074	0.396665	-0.461482	-1.210722	0.381966	-0.477437	-1.169052	0.355175	-0.468697	-1.333398	0.191179	-0.488526	-1.314045	0.172118	-0.405227	-1.295709	0.059786	-0.543577	-1.273669	0.060119	-0.428587	-1.227514	0.064086	-0.482929	-1.416062	0.189498	-0.441999	-1.095523	1.417922	-0.056362	-1.051481	1.425227	-0.381771	
34	0.1650	-1.029486	0.960763	-0.124682	-1.043562	0.965462	-0.348900	-1.219213	0.953886	-0.173664	-1.224232	0.970309	-0.265654	-1.028671	0.730189	-0.065242	-0.977395	0.762167	-0.067164	-0.994692	0.696244	-0.069780	-0.941721	0.723405	-0.070798	-0.849396	0.545462	-0.103918	-0.860341	0.537863	-0.210896	-0.916911	0.423068	-0.064510	-0.874349	0.416801	-0.076079	-0.921173	0.372690	-0.063312	-0.883160	0.367771	-0.072446	-0.928397	0.151904	-0.076792	-0.919855	0.159473	-0.161407	-0.802507	0.085450	-0.039630	-0.774322	0.087028	-0.151336	-0.752331	0.117248	-0.096601	-1.000495	0.107694	-0.130242	-1.102371	0.713337	-0.428048	-1.051663	0.720168	-0.420009	-1.105602	0.670900	-0.427940	-1.055717	0.676629	-0.424558	-1.045367	0.492472	-0.420353	-1.052527	0.473556	-0.316433	-1.163430	0.431984	-0.469331	-1.121894	0.399796	-0.459236	-1.197904	0.386660	-0.474909	-1.156661	0.359019	-0.466558	-1.323739	0.198160	-0.486595	-1.304350	0.177833	-0.403646	-1.292306	0.064506	-0.542142	-1.269911	0.062759	-0.427616	-1.224543	0.065083	-0.482151	-1.404934	0.199741	-0.439173	-1.080928	1.420528	-0.052681	-1.036420	1.428453	-0.377485	
35	0.1700	-1.012145	0.964206	-0.121159	-1.026498	0.968116	-0.344948	-1.201847	0.956974	-0.169454	-1.206755	0.972552	-0.261132	-1.011468	0.733107	-0.061450	-0.960006	0.764552	-0.064275	-0.977903	0.698796	-0.066175	-0.924942	0.725619	-0.068103	-0.834072	0.546890	-0.101463	-0.846618	0.538424	-0.207911	-0.896820	0.421715	-0.060680	-0.854055	0.417280	-0.072693	-0.898842	0.370953	-0.059283	-0.860637	0.367685	-0.068749	-0.896061	0.148775	-0.072525	-0.888819	0.156741	-0.157024	-0.766933	0.088166	-0.035654	-0.739513	0.090559	-0.147709	-0.718531	0.122045	-0.093271	-0.967101	0.101232	-0.124925	-1.085755	0.715975	-0.424642	-1.034986	0.722613	-0.416188	-1.089140	0.673552	-0.424819	-1.039110	0.679063	-0.420971	-1.029488	0.494349	-0.417871	-1.036632	0.474654	-0.313635	-1.149011	0.435990	-0.466642	-1.108028	0.403009	-0.456919	-1.184375	0.391434	-0.472264	-1.143571	0.362964	-0.464312	-1.313320	0.205330	-0.484391	-1.293905	0.183767	-0.401808	-1.288181	0.069705	-0.540464	-1.265403	0.065758	-0.426414	-1.220913	0.066300	-0.481171	-1.392949	0.210192	-0.436014	-1.066303	1.422962	-0.048966	-1.021517	1.431520	-0.373189	
36	0.1750	-0.994814	0.967445	-0.117668	-1.009546	0.970704	-0.341036	-1.184489	0.959863	-0.165205	-1.189347	0.974673	-0.256586	-0.994400	0.735678	-0.057619	-0.942709	0.766505	-0.061363	-0.961287	0.700959	-0.062506	-0.908297	0.727340	-0.065383	-0.819121	0.547848	-0.098964	-0.833264	0.538503	-0.204880	-0.877203	0.420204	-0.056878	-0.834319	0.417515	-0.069329	-0.877080	0.369161	-0.055294	-0.838758	0.367458	-0.065109	-0.864737	0.146053	-0.068355	-0.858732	0.154332	-0.152798	-0.732717	0.091068	-0.031828	-0.706031	0.094208	-0.144218	-0.686072	0.126896	-0.090065	-0.934650	0.095357	-0.119805	-1.068952	0.718539	-0.421274	-1.018148	0.725073	-0.412449	-1.072408	0.676122	-0.421717	-1.022268	0.681515	-0.417462	-1.013001	0.496295	-0.415424	-1.020002	0.475805	-0.310874	-1.133895	0.440015	-0.463859	-1.093476	0.406266	-0.454533	-1.170136	0.396251	-0.469501	-1.129784	0.366972	-0.461956	-1.302149	0.212654	-0.481903	-1.282714	0.189890	-0.399698	-1.283282	0.075364	-0.538533	-1.260089	0.069118	-0.424971	-1.216565	0.067759	-0.479982	-1.380131	0.220778	-0.432516	-1.051645	1.425190	-0.045216	-1.006763	1.434395	-0.368887	
37	0.1800	-0.977500	0.970443	-0.114221	-0.992715	0.973192	-0.337179	-1.167150	0.962510	-0.160928	-1.172022	0.976632	-0.252031	-0.977456	0.737878	-0.053756	-0.925500	0.768014	-0.058419	-0.944824	0.702716	-0.058777	-0.891771	0.728563	-0.062629	-0.804486	0.548352	-0.096412	-0.820207	0.538129	-0.201801	-0.858039	0.418545	-0.053111	-0.815114	0.417504	-0.065988	-0.855882	0.367311	-0.051353	-0.817514	0.367080	-0.061529	-0.834497	0.143700	-0.064290	-0.829652	0.152210	-0.148732	-0.699937	0.094056	-0.028140	-0.673937	0.097871	-0.140847	-0.655001	0.131690	-0.086962	-0.903236	0.090056	-0.114900	-1.051974	0.720986	-0.417951	-1.001160	0.727505	-0.408805	-1.055415	0.678567	-0.418642	-1.005202	0.683943	-0.414043	-0.995914	0.498274	-0.413019	-1.002637	0.476978	-0.308158	-1.118091	0.444022	-0.460985	-1.078247	0.409529	-0.452084	-1.155196	0.401073	-0.466617	-1.115307	0.371003	-0.459491	-1.290239	0.220094	-0.479123	-1.270786	0.196172	-0.397303	-1.277560	0.081457	-0.536342	-1.253924	0.072832	-0.423282	-1.211443	0.069481	-0.478575	-1.366514	0.231424	-0.428675	-1.036952	1.427179	-0.041433	-0.992149	1.437049	-0.364588	
38	0.1850	-0.960213	0.973170	-0.110826	-0.976016	0.975544	-0.333390	-1.149844	0.964874	-0.156635	-1.154793	0.978389	-0.247482	-0.960629	0.739683	-0.049869	-0.908379	0.769074	-0.055436	-0.928498	0.704056	-0.054998	-0.875348	0.729290	-0.059834	-0.790107	0.548422	-0.093800	-0.807369	0.537337	-0.198673	-0.839309	0.416746	-0.049384	-0.796410	0.417246	-0.062671	-0.835244	0.365403	-0.047467	-0.796890	0.366543	-0.058011	-0.805405	0.141670	-0.060339	-0.801631	0.150333	-0.144830	-0.668656	0.097025	-0.024582	-0.643281	0.101442	-0.137584	-0.625357	0.136315	-0.083945	-0.872949	0.085309	-0.110225	-1.034829	0.723274	-0.414680	-0.984031	0.729868	-0.405268	-1.038173	0.680846	-0.415597	-0.987923	0.686307	-0.410724	-0.978237	0.500247	-0.410663	-0.984546	0.478143	-0.305495	-1.101616	0.447976	-0.458022	-1.062352	0.412762	-0.449574	-1.139569	0.405863	-0.463611	-1.100155	0.375020	-0.456918	-1.277609	0.227611	-0.476045	-1.258131	0.202575	-0.394617	-1.270974	0.087945	-0.533886	-1.246865	0.076886	-0.421341	-1.205494	0.071479	-0.476946	-1.352134	0.242055	-0.424494	-1.022222	1.428901	-0.037615	-0.977666	1.439454	-0.360297	
39	0.1900	-0.942962	0.975598	-0.107490	-0.959454	0.977726	-0.329679	-1.132581	0.966919	-0.152335	-1.137668	0.979906	-0.242951	-0.943913	0.741081	-0.045965	-0.891346	0.769689	-0.052406	-0.912293	0.704973	-0.051178	-0.859016	0.729527	-0.056989	-0.775926	0.548086	-0.091124	-0.794678	0.536170	-0.195499	-0.820990	0.414821	-0.045703	-0.778175	0.416741	-0.059382	-0.815157	0.363440	-0.043644	-0.776869	0.365838	-0.054559	-0.777517	0.139913	-0.056509	-0.774713	0.148658	-0.141092	-0.638926	0.099872	-0.021145	-0.614105	0.104816	-0.134414	-0.597165	0.140661	-0.080997	-0.843873	0.081094	-0.105793	-1.017530	0.725364	-0.411465	-0.966771	0.732122	-0.401845	-1.020693	0.682917	-0.412587	-0.970443	0.688563	-0.407510	-0.959988	0.502181	-0.408360	-0.965746	0.479272	-0.302888	-1.084488	0.451844	-0.454972	-1.045811	0.415929	-0.447006	-1.123274	0.410584	-0.460484	-1.084346	0.378986	-0.454239	-1.264282	0.235163	-0.472670	-1.244765	0.209063	-0.391636	-1.263487	0.094783	-0.531163	-1.238877	0.081258	-0.419147	-1.198671	0.073764	-0.475091	-1.337033	0.252593	-0.419981	-1.007454	1.430328	-0.033761	-0.963305	1.441586	-0.356016	
40	0.1950	-0.925756	0.977701	-0.104215	-0.943032	0.979704	-0.326053	-1.115376	0.968613	-0.148038	-1.120658	0.981146	-0.238449	-0.927301	0.742059	-0.042051	-0.874402	0.769863	-0.049324	-0.896193	0.705467	-0.047325	-0.842764	0.729291	-0.054088	-0.761889	0.547372	-0.088382	-0.782060	0.534672	-0.192284	-0.803061	0.412780	-0.042075	-0.760376	0.415995	-0.056125	-0.795610	0.361420	-0.039896	-0.757433	0.364961	-0.051177	-0.750880	0.138377	-0.052812	-0.748936	0.147141	-0.137522	-0.610789	0.102493	-0.017821	-0.586442	0.107894	-0.131327	-0.570441	0.144618	-0.078102	-0.816080	0.077381	-0.101613	-1.000083	0.727218	-0.408307	-0.949389	0.734226	-0.398540	-1.002986	0.684747	-0.409613	-0.952773	0.690674	-0.404407	-0.941188	0.504045	-0.406111	-0.946261	0.480343	-0.300340	-1.066733	0.455598	-0.451840	-1.028647	0.419001	-0.444385	-1.106335	0.415203	-0.457236	-1.067900	0.382868	-0.451455	-1.250279	0.242709	-0.469001	-1.230704	0.215594	-0.388360	-1.255068	0.101918	-0.528174	-1.229929	0.085920	-0.416702	-1.190930	0.076338	-0.473010	-1.321257	0.262964	-0.415145	-0.992646	1.431438	-0.029872	-0.949055	1.443425	-0.351752	
41	0.2000	-0.908606	0.979460	-0.101001	-0.926752	0.981446	-0.322516	-1.098241	0.969929	-0.143753	-1.103769	0.982078	-0.233987	-0.910788	0.742616	-0.038136	-0.857550	0.769611	-0.046183	-0.880185	0.705543	-0.043453	-0.826583	0.728600	-0.051123	-0.747941	0.546315	-0.085574	-0.769445	0.532891	-0.189033	-0.785499	0.410639	-0.038510	-0.742980	0.415013	-0.052905	-0.776591	0.359346	-0.036231	-0.738559	0.363906	-0.047870	-0.725531	0.137009	-0.049255	-0.724333	0.145736	-0.134118	-0.584273	0.104796	-0.014605	-0.560314	0.110580	-0.128316	-0.545190	0.148086	-0.075251	-0.789635	0.074141	-0.097693	-0.982496	0.728804	-0.405207	-0.931890	0.736144	-0.395353	-0.985064	0.686301	-0.406674	-0.934921	0.692604	-0.401413	-0.921860	0.505810	-0.403915	-0.926121	0.481335	-0.297849	-1.048378	0.459209	-0.448628	-1.010883	0.421950	-0.441712	-1.088777	0.419690	-0.453870	-1.050843	0.386634	-0.448570	-1.235625	0.250203	-0.465044	-1.215966	0.222128	-0.384794	-1.245691	0.109287	-0.524922	-1.219998	0.090833	-0.414008	-1.182230	0.079199	-0.470702	-1.304850	0.273096	-0.410001	-0.977798	1.432210	-0.025946	-0.934904	1.444954	-0.347507	
42	0.2050	-0.891520	0.980857	-0.097844	-0.910610	0.982922	-0.319069	-1.081187	0.970845	-0.139489	-1.087007	0.982671	-0.229572	-0.894371	0.742750	-0.034228	-0.840795	0.768948	-0.042979	-0.864255	0.705211	-0.039574	-0.810468	0.727481	-0.048092	-0.734032	0.544949	-0.082703	-0.756768	0.530877	-0.185756	-0.768281	0.408410	-0.035016	-0.725955	0.413805	-0.049731	-0.758088	0.357221	-0.032660	-0.720226	0.362673	-0.044644	-0.701498	0.135759	-0.045849	-0.700927	0.144400	-0.130883	-0.559395	0.106692	-0.011494	-0.535736	0.112790	-0.125375	-0.521410	0.150971	-0.072435	-0.764594	0.071339	-0.094037	-0.964775	0.730093	-0.402164	-0.914279	0.737845	-0.392282	-0.966936	0.687555	-0.403771	-0.916895	0.694320	-0.398526	-0.902032	0.507453	-0.401768	-0.905362	0.482236	-0.295412	-1.029453	0.462655	-0.445342	-0.992548	0.424751	-0.438989	-1.070629	0.424016	-0.450390	-1.033200	0.390257	-0.445587	-1.220344	0.257600	-0.460811	-1.200567	0.228620	-0.380947	-1.235338	0.116821	-0.521415	-1.209065	0.095954	-0.411072	-1.172539	0.082335	-0.468171	-1.287856	0.282919	-0.404569	-0.962907	1.432629	-0.021981	-0.920841	1.446160	-0.343283	
43	0.2100	-0.874509	0.981882	-0.094740	-0.894601	0.984104	-0.315709	-1.064227	0.971345	-0.135253	-1.070373	0.982902	-0.225213	-0.878043	0.742469	-0.030334	-0.824138	0.767895	-0.039708	-0.848394	0.704485	-0.035700	-0.794412	0.725962	-0.044990	-0.720115	0.543309	-0.079776	-0.743968	0.528679	-0.182463	-0.751387	0.406108	-0.031603	-0.709268	0.412378	-0.046610	-0.740083	0.355046	-0.029195	-0.702409	0.361261	-0.041507	-0.678801	0.134577	-0.042604	-0.678737	0.143095	-0.127818	-0.536161	0.108105	-0.008487	-0.512711	0.114451	-0.122503	-0.499089	0.153192	-0.069652	-0.740999	0.068942	-0.090649	-0.946924	0.731061	-0.399173	-0.896558	0.739301	-0.389320	-0.948608	0.688485	-0.400900	-0.898702	0.695796	-0.395739	-0.881733	0.508958	-0.399665	-0.884024	0.483035	-0.293024	-1.009989	0.465917	-0.441984	-0.973668	0.427386	-0.436217	-1.051918	0.428157	-0.446799	-1.014995	0.393712	-0.442509	-1.204458	0.264855	-0.456314	-1.184522	0.235025	-0.376830	-1.223993	0.124447	-0.517660	-1.197116	0.101231	-0.407901	-1.161824	0.085726	-0.465419	-1.270317	0.292366	-0.398871	-0.947973	1.432684	-0.017978	-0.906854	1.447034	-0.339082	
44	0.2150	-0.857580	0.982526	-0.091679	-0.878716	0.984969	-0.312430	-1.047369	0.971418	-0.131051	-1.053869	0.982752	-0.220916	-0.861801	0.741784	-0.026463	-0.807584	0.766479	-0.036369	-0.832588	0.703383	-0.031845	-0.778410	0.724077	-0.041815	-0.706148	0.541432	-0.076801	-0.730993	0.526345	-0.179167	-0.734794	0.403747	-0.028283	-0.692888	0.410746	-0.043552	-0.722563	0.352827	-0.025847	-0.685084	0.359672	-0.038467	-0.657450	0.133420	-0.039528	-0.657773	0.141782	-0.124923	-0.514567	0.108974	-0.005585	-0.491238	0.115503	-0.119700	-0.478207	0.154682	-0.066900	-0.718886	0.066914	-0.087528	-0.928942	0.731692	-0.396229	-0.878728	0.740489	-0.386458	-0.930087	0.689077	-0.398055	-0.880345	0.697010	-0.393044	-0.860990	0.510311	-0.397596	-0.862149	0.483730	-0.290677	-0.990018	0.468978	-0.438561	-0.954270	0.429841	-0.433397	-1.032674	0.432090	-0.443102	-0.996253	0.396980	-0.439340	-1.187985	0.271922	-0.451571	-1.167846	0.241298	-0.372459	-1.211644	0.132087	-0.513669	-1.184140	0.106609	-0.404504	-1.150059	0.089346	-0.462452	-1.252271	0.301377	-0.392930	-0.932991	1.432367	-0.013935	-0.892928	1.447571	-0.334907	
45	0.2200	-0.840742	0.982787	-0.088648	-0.862943	0.985498	-0.309225	-1.030621	0.971061	-0.126889	-1.037492	0.982206	-0.216685	-0.845640	0.740711	-0.022622	-0.791133	0.764726	-0.032961	-0.816829	0.701929	-0.028022	-0.762460	0.721864	-0.038570	-0.692095	0.539352	-0.073788	-0.717794	0.523922	-0.175881	-0.718484	0.401341	-0.025067	-0.676789	0.408921	-0.040569	-0.705511	0.350568	-0.022628	-0.668228	0.357911	-0.035532	-0.637445	0.132247	-0.036631	-0.638041	0.140432	-0.122199	-0.494594	0.109250	-0.002792	-0.471303	0.115902	-0.116972	-0.458738	0.155387	-0.064184	-0.698275	0.065224	-0.084670	-0.910828	0.731974	-0.393324	-0.860786	0.741393	-0.383684	-0.911377	0.689323	-0.395233	-0.861826	0.697947	-0.390429	-0.839833	0.511507	-0.395550	-0.839779	0.484323	-0.288359	-0.969569	0.471829	-0.435074	-0.934381	0.432104	-0.430528	-1.012924	0.435798	-0.439304	-0.976999	0.400043	-0.436084	-1.170942	0.278753	-0.446600	-1.150549	0.247393	-0.367852	-1.198285	0.139659	-0.509453	-1.170131	0.112026	-0.400889	-1.137221	0.093158	-0.459275	-1.233752	0.309893	-0.386774	-0.917960	1.431677	-0.009852	-0.879049	1.447771	-0.330759	
46	0.2250	-0.823999	0.982665	-0.085636	-0.847267	0.985676	-0.306084	-1.013988	0.970275	-0.122773	-1.021237	0.981257	-0.212525	-0.829553	0.739270	-0.018819	-0.774785	0.762667	-0.029486	-0.801106	0.700147	-0.024244	-0.746556	0.719359	-0.035254	-0.677923	0.537104	-0.070750	-0.704333	0.521452	-0.172621	-0.702436	0.398905	-0.021964	-0.660943	0.406917	-0.037671	-0.688909	0.348276	-0.019548	-0.651818	0.355983	-0.032711	-0.618781	0.131028	-0.033921	-0.619538	0.139020	-0.119650	-0.476219	0.108900	-0.000114	-0.452888	0.115618	-0.114325	-0.440650	0.155272	-0.061512	-0.679176	0.063837	-0.082073	-0.892580	0.731904	-0.390449	-0.842727	0.742003	-0.380985	-0.892479	0.689221	-0.392423	-0.843144	0.698597	-0.387881	-0.818291	0.512544	-0.393513	-0.816958	0.484821	-0.286057	-0.948671	0.474461	-0.431528	-0.914025	0.434171	-0.427607	-0.992693	0.439265	-0.435412	-0.957251	0.402891	-0.432742	-1.153340	0.285301	-0.441423	-1.132637	0.253265	-0.363029	-1.183908	0.147081	-0.505028	-1.155084	0.117420	-0.397068	-1.123290	0.097121	-0.455895	-1.214784	0.317862	-0.380432	-0.902873	1.430617	-0.005730	-0.865202	1.447636	-0.326638	
47	0.2300	-0.807354	0.982168	-0.082625	-0.831671	0.985494	-0.302993	-0.997472	0.969069	-0.118707	-1.005097	0.979903	-0.208439	-0.813535	0.737487	-0.015059	-0.758540	0.760334	-0.025945	-0.785409	0.698066	-0.020524	-0.730694	0.716602	-0.031874	-0.663608	0.534719	-0.067703	-0.690579	0.518974	-0.169403	-0.686634	0.396453	-0.018987	-0.645327	0.404750	-0.034870	-0.672741	0.345958	-0.016619	-0.635830	0.353899	-0.030013	-0.601440	0.129737	-0.031406	-0.602256	0.137525	-0.117276	-0.459404	0.107912	0.002443	-0.435965	0.114641	-0.111768	-0.423903	0.154320	-0.058895	-0.661588	0.062725	-0.079729	-0.874190	0.731483	-0.387595	-0.824546	0.742315	-0.378343	-0.873392	0.688775	-0.389619	-0.824297	0.698960	-0.385382	-0.796390	0.513430	-0.391471	-0.793729	0.485237	-0.283758	-0.927353	0.476870	-0.427924	-0.893223	0.436042	-0.424632	-0.972004	0.442481	-0.431428	-0.937030	0.405514	-0.429318	-1.135185	0.291522	-0.436060	-1.114115	0.258869	-0.358010	-1.168510	0.154271	-0.500406	-1.138994	0.122724	-0.393051	-1.108248	0.101187	-0.452317	-1.195389	0.325238	-0.373933	-0.887725	1.429196	-0.001570	-0.851371	1.447174	-0.322546	
48	0.2350	-0.790809	0.981305	-0.079600	-0.816132	0.984947	-0.299938	-0.981073	0.967457	-0.114695	-0.989060	0.978150	-0.204428	-0.797577	0.735388	-0.011351	-0.742392	0.757759	-0.022344	-0.769729	0.695717	-0.016874	-0.714871	0.713633	-0.028434	-0.649129	0.532227	-0.064662	-0.676509	0.516522	-0.166242	-0.671063	0.393998	-0.016144	-0.629923	0.402435	-0.032178	-0.656991	0.343623	-0.013850	-0.620245	0.351668	-0.027448	-0.585399	0.128358	-0.029092	-0.586180	0.135938	-0.115079	-0.444106	0.106286	0.004870	-0.420501	0.112975	-0.109312	-0.408456	0.152533	-0.056345	-0.645497	0.061859	-0.077630	-0.855650	0.730723	-0.384748	-0.806234	0.742335	-0.375740	-0.854114	0.688000	-0.386808	-0.805280	0.699040	-0.382915	-0.774158	0.514175	-0.389404	-0.770133	0.485591	-0.281443	-0.905639	0.479058	-0.424264	-0.871994	0.437718	-0.421596	-0.950879	0.445437	-0.427360	-0.916348	0.407908	-0.425812	-1.116477	0.297368	-0.430536	-1.094981	0.264162	-0.352818	-1.152085	0.161146	-0.495604	-1.121858	0.127874	-0.388847	-1.092077	0.105301	-0.448547	-1.175576	0.331978	-0.367309	-0.872508	1.427428	0.002628	-0.837538	1.446397	-0.318482	
49	0.2400	-0.774362	0.980094	-0.076541	-0.800628	0.984038	-0.296904	-0.964784	0.965460	-0.110740	-0.973113	0.976010	-0.200493	-0.781671	0.733006	-0.007699	-0.726335	0.754977	-0.018690	-0.754057	0.693133	-0.013302	-0.699080	0.710492	-0.024943	-0.634473	0.529654	-0.061644	-0.662111	0.514123	-0.163155	-0.655710	0.391554	-0.013447	-0.614714	0.399989	-0.029607	-0.641643	0.341280	-0.011250	-0.605042	0.349304	-0.025024	-0.570628	0.126883	-0.026985	-0.571291	0.134252	-0.113062	-0.430272	0.104043	0.007159	-0.406453	0.110643	-0.106970	-0.394262	0.149929	-0.053879	-0.630878	0.061215	-0.075768	-0.836952	0.729639	-0.381896	-0.787780	0.742071	-0.373158	-0.834641	0.686913	-0.383980	-0.786088	0.698848	-0.380460	-0.751617	0.514796	-0.387294	-0.746211	0.485903	-0.279094	-0.883550	0.481027	-0.420548	-0.850355	0.439208	-0.418493	-0.929335	0.448128	-0.423211	-0.895219	0.410072	-0.422225	-1.097212	0.302797	-0.424874	-1.075230	0.269102	-0.347475	-1.134630	0.167629	-0.490636	-1.103674	0.132804	-0.384467	-1.074765	0.109407	-0.444590	-1.155351	0.338044	-0.360588	-0.857215	1.425332	0.006860	-0.823687	1.445319	-0.314447	
50	0.2450	-0.758008	0.978553	-0.073432	-0.785134	0.982776	-0.293874	-0.948600	0.963104	-0.106843	-0.957241	0.973501	-0.196635	-0.765806	0.730373	-0.004107	-0.710361	0.752021	-0.014989	-0.738384	0.690346	-0.009819	-0.683316	0.707215	-0.021410	-0.619633	0.527023	-0.058666	-0.647379	0.511802	-0.160155	-0.640564	0.389133	-0.010902	-0.599687	0.397429	-0.027166	-0.626681	0.338940	-0.008826	-0.590206	0.346821	-0.022750	-0.557088	0.125310	-0.025088	-0.557560	0.132471	-0.111226	-0.417842	0.101218	0.009299	-0.393773	0.107683	-0.104754	-0.381270	0.146547	-0.051511	-0.617695	0.060771	-0.074131	-0.818085	0.728255	-0.379025	-0.769175	0.741542	-0.370575	-0.814967	0.685542	-0.381122	-0.766713	0.698404	-0.377998	-0.728791	0.515313	-0.385119	-0.721999	0.486200	-0.276693	-0.861108	0.482783	-0.416773	-0.828319	0.440522	-0.415315	-0.907389	0.450551	-0.418985	-0.873652	0.412008	-0.418555	-1.077382	0.307767	-0.419095	-1.054856	0.273651	-0.342003	-1.116137	0.173647	-0.485516	-1.084437	0.137452	-0.379919	-1.056296	0.113445	-0.440451	-1.134711	0.343403	-0.353800	-0.841835	1.422933	0.011124	-0.809798	1.443961	-0.310441	
51	0.2500	-0.741740	0.976708	-0.070255	-0.769624	0.981175	-0.290833	-0.932508	0.960421	-0.103008	-0.941423	0.970649	-0.192853	-0.749972	0.727525	-0.000580	-0.694458	0.748925	-0.011251	-0.722701	0.687390	-0.006431	-0.667572	0.703840	-0.017848	-0.604608	0.524356	-0.055745	-0.632318	0.509576	-0.157259	-0.625617	0.386748	-0.008518	-0.584836	0.394773	-0.024866	-0.612093	0.336613	-0.006584	-0.575722	0.344237	-0.020633	-0.544736	0.123649	-0.023403	-0.544956	0.130602	-0.109572	-0.406751	0.097861	0.011284	-0.382409	0.104146	-0.102677	-0.369428	0.142440	-0.049261	-0.605900	0.060508	-0.072708	-0.799038	0.726600	-0.376120	-0.750407	0.740771	-0.367972	-0.795087	0.683917	-0.378221	-0.747150	0.697732	-0.375507	-0.705701	0.515753	-0.382859	-0.697534	0.486511	-0.274217	-0.838330	0.484335	-0.412937	-0.805898	0.441673	-0.412052	-0.885052	0.452707	-0.414684	-0.851652	0.413721	-0.414800	-1.056972	0.312236	-0.413221	-1.033845	0.277773	-0.336424	-1.096601	0.179132	-0.480259	-1.064144	0.141761	-0.375211	-1.036660	0.117354	-0.436134	-1.113645	0.348028	-0.346974	-0.826360	1.420260	0.015417	-0.795854	1.442345	-0.306464	
52	0.2550	-0.725549	0.974588	-0.066992	-0.754070	0.979259	-0.287763	-0.916495	0.957448	-0.099234	-0.925641	0.967484	-0.189145	-0.734156	0.724500	0.002878	-0.678614	0.745721	-0.007488	-0.706999	0.684302	-0.003144	-0.651840	0.700400	-0.014268	-0.589403	0.521670	-0.052898	-0.616942	0.507456	-0.154478	-0.610865	0.384410	-0.006298	-0.570155	0.392040	-0.022714	-0.597865	0.334312	-0.004527	-0.561578	0.341567	-0.018678	-0.533521	0.121912	-0.021930	-0.533441	0.128662	-0.108101	-0.396928	0.094036	0.013104	-0.372301	0.100100	-0.100749	-0.358681	0.137678	-0.047142	-0.595439	0.060412	-0.071487	-0.779801	0.724710	-0.373168	-0.731466	0.739788	-0.365328	-0.774996	0.682076	-0.375263	-0.727390	0.696862	-0.372967	-0.682368	0.516144	-0.380491	-0.672849	0.486867	-0.271646	-0.815231	0.485693	-0.409036	-0.783101	0.442678	-0.408695	-0.862337	0.454596	-0.410310	-0.829225	0.415220	-0.410957	-1.035965	0.316168	-0.407273	-1.012185	0.281436	-0.330755	-1.076015	0.184021	-0.474876	-1.042789	0.145677	-0.370349	-1.015845	0.121077	-0.431640	-1.092139	0.351896	-0.340136	-0.810779	1.417347	0.019734	-0.781837	1.440498	-0.302516	
53	0.2600	-0.709422	0.972228	-0.063630	-0.738447	0.977054	-0.284649	-0.900543	0.954225	-0.095523	-0.909872	0.964045	-0.185509	-0.718347	0.721336	0.006267	-0.662816	0.742441	-0.003711	-0.691273	0.681116	0.000038	-0.636115	0.696928	-0.010686	-0.574030	0.518977	-0.050141	-0.601273	0.505451	-0.151823	-0.596307	0.382128	-0.004246	-0.555647	0.389246	-0.020716	-0.583989	0.332049	-0.002659	-0.547766	0.338833	-0.016890	-0.523388	0.120120	-0.020668	-0.522973	0.126670	-0.106813	-0.388299	0.089817	0.014754	-0.363384	0.095619	-0.098981	-0.348972	0.132345	-0.045171	-0.586245	0.060469	-0.070455	-0.760366	0.722623	-0.370153	-0.712343	0.738627	-0.362624	-0.754691	0.680060	-0.372235	-0.707430	0.695830	-0.370357	-0.658811	0.516516	-0.377994	-0.647976	0.487299	-0.268959	-0.791829	0.486868	-0.405063	-0.759937	0.443555	-0.405231	-0.839254	0.456224	-0.405864	-0.806374	0.416513	-0.407021	-1.014343	0.319530	-0.401270	-0.989862	0.284612	-0.325016	-1.054370	0.188263	-0.469381	-1.020369	0.149155	-0.365339	-0.993844	0.124557	-0.426973	-1.070172	0.354986	-0.333312	-0.795082	1.414232	0.024070	-0.767730	1.438450	-0.298598	
54	0.2650	-0.693345	0.969663	-0.060155	-0.722729	0.974595	-0.281478	-0.884635	0.950797	-0.091873	-0.894095	0.960373	-0.181942	-0.702534	0.718072	0.009585	-0.647048	0.739116	0.000066	-0.675515	0.677864	0.003114	-0.620389	0.693451	-0.007116	-0.558508	0.516290	-0.047487	-0.585341	0.503561	-0.149304	-0.581945	0.379914	-0.002364	-0.541314	0.386411	-0.018877	-0.570456	0.329835	-0.000977	-0.534280	0.336053	-0.015271	-0.514279	0.118301	-0.019611	-0.513504	0.124651	-0.105706	-0.380784	0.085286	0.016230	-0.355589	0.090788	-0.097380	-0.340245	0.126533	-0.043361	-0.578245	0.060672	-0.069599	-0.740726	0.720385	-0.367061	-0.693031	0.737326	-0.359841	-0.734169	0.677914	-0.369122	-0.687266	0.694673	-0.367657	-0.635053	0.516903	-0.375344	-0.622947	0.487840	-0.266135	-0.768138	0.487875	-0.401012	-0.736417	0.444321	-0.401649	-0.815812	0.457595	-0.401344	-0.783105	0.417614	-0.402986	-0.992087	0.322292	-0.395229	-0.966863	0.287277	-0.319221	-1.031660	0.191813	-0.463782	-0.996880	0.152153	-0.360186	-0.970652	0.127742	-0.422132	-1.047722	0.357285	-0.326522	-0.779262	1.410958	0.028418	-0.753518	1.436232	-0.294709	
55	0.2700	-0.677303	0.966935	-0.056557	-0.706893	0.971920	-0.278237	-0.868750	0.947211	-0.088284	-0.878288	0.956515	-0.178441	-0.686706	0.714745	0.012830	-0.631297	0.735774	0.003829	-0.659724	0.674582	0.006084	-0.604656	0.689996	-0.003573	-0.542861	0.513617	-0.044949	-0.569184	0.501785	-0.146926	-0.567785	0.377775	-0.000650	-0.527168	0.383551	-0.017197	-0.557261	0.327684	0.000520	-0.521118	0.333247	-0.013822	-0.506131	0.116482	-0.018753	-0.504983	0.122634	-0.104776	-0.374302	0.080530	0.017529	-0.348845	0.085698	-0.095953	-0.332441	0.120345	-0.041722	-0.571358	0.061012	-0.068904	-0.720879	0.718040	-0.363880	-0.673527	0.735927	-0.356961	-0.713432	0.675685	-0.365913	-0.666899	0.693434	-0.364849	-0.611114	0.517335	-0.372524	-0.597795	0.488520	-0.263155	-0.744174	0.488727	-0.396874	-0.712552	0.444999	-0.397936	-0.792025	0.458717	-0.396751	-0.759422	0.418535	-0.398848	-0.969177	0.324428	-0.389164	-0.943175	0.289412	-0.313384	-1.007879	0.194635	-0.458090	-0.972322	0.154642	-0.354894	-0.946269	0.130587	-0.417120	-1.024765	0.358783	-0.319787	-0.763313	1.407568	0.032773	-0.739189	1.433880	-0.290851	
56	0.2750	-0.661283	0.964087	-0.052829	-0.690919	0.969073	-0.274917	-0.852869	0.943518	-0.084755	-0.862431	0.952521	-0.175002	-0.670856	0.711395	0.016004	-0.615550	0.732443	0.007565	-0.643898	0.671301	0.008948	-0.588914	0.686586	-0.000074	-0.527117	0.510965	-0.042537	-0.552847	0.500118	-0.144695	-0.553835	0.375718	0.000899	-0.513221	0.380683	-0.015677	-0.544401	0.325605	0.001838	-0.508279	0.330436	-0.012539	-0.498879	0.114698	-0.018085	-0.497354	0.120650	-0.104019	-0.368772	0.075642	0.018652	-0.343076	0.080442	-0.094701	-0.325503	0.113888	-0.040261	-0.565500	0.061486	-0.068358	-0.700825	0.715638	-0.360597	-0.653832	0.734473	-0.353970	-0.692486	0.673423	-0.362595	-0.646333	0.692157	-0.361917	-0.587019	0.517845	-0.369513	-0.572552	0.489369	-0.260000	-0.719957	0.489437	-0.392643	-0.688355	0.445606	-0.394082	-0.767905	0.459597	-0.392082	-0.735336	0.419291	-0.394599	-0.945599	0.325920	-0.383089	-0.918792	0.291005	-0.307517	-0.983028	0.196707	-0.452314	-0.946699	0.156598	-0.349466	-0.920701	0.133051	-0.411937	-1.001281	0.359474	-0.313124	-0.747229	1.404110	0.037126	-0.724732	1.431429	-0.287024	
57	0.2800	-0.645268	0.961163	-0.048969	-0.674792	0.966101	-0.271509	-0.836973	0.939767	-0.081283	-0.846506	0.948443	-0.171620	-0.654977	0.708058	0.019107	-0.599796	0.729149	0.011257	-0.628039	0.668051	0.011711	-0.573161	0.683240	0.003365	-0.511313	0.508337	-0.040259	-0.536382	0.498549	-0.142611	-0.540110	0.373750	0.002290	-0.499490	0.377824	-0.014312	-0.531874	0.323609	0.002983	-0.495769	0.327639	-0.011419	-0.492454	0.112981	-0.017595	-0.490560	0.118731	-0.103427	-0.364110	0.070710	0.019602	-0.338203	0.075114	-0.093624	-0.319371	0.107273	-0.038984	-0.560579	0.062091	-0.067945	-0.680572	0.713227	-0.357205	-0.633952	0.733010	-0.350855	-0.671341	0.671175	-0.359159	-0.625579	0.690884	-0.358846	-0.562794	0.518463	-0.366297	-0.547252	0.490411	-0.256657	-0.695508	0.490018	-0.388309	-0.663845	0.446164	-0.390076	-0.743471	0.460244	-0.387335	-0.710860	0.419896	-0.390235	-0.921344	0.326753	-0.377016	-0.893712	0.292047	-0.301630	-0.957110	0.198014	-0.446461	-0.920022	0.158008	-0.343905	-0.893963	0.135106	-0.406584	-0.977251	0.359360	-0.306548	-0.731012	1.400631	0.041469	-0.710142	1.428917	-0.283229	
58	0.2850	-0.629246	0.958211	-0.044978	-0.658504	0.963055	-0.268009	-0.821047	0.936010	-0.077866	-0.830499	0.944336	-0.168292	-0.639069	0.704770	0.022140	-0.584029	0.725914	0.014892	-0.612153	0.664861	0.014376	-0.557399	0.679975	0.006730	-0.495487	0.505737	-0.038119	-0.519845	0.497067	-0.140674	-0.526626	0.371875	0.003529	-0.485995	0.374989	-0.013097	-0.519682	0.321707	0.003966	-0.483592	0.324876	-0.010456	-0.486789	0.111365	-0.017269	-0.484540	0.116909	-0.102990	-0.360235	0.065824	0.020384	-0.334150	0.069805	-0.092719	-0.313990	0.100607	-0.037891	-0.556503	0.062827	-0.067652	-0.660132	0.710855	-0.353693	-0.613897	0.731580	-0.347607	-0.650015	0.668990	-0.355597	-0.604651	0.689659	-0.355626	-0.538472	0.519216	-0.362863	-0.521934	0.491669	-0.253112	-0.670855	0.490484	-0.383865	-0.639046	0.446690	-0.385910	-0.718745	0.460667	-0.382509	-0.686014	0.420365	-0.385750	-0.896409	0.326921	-0.370953	-0.867943	0.292537	-0.295730	-0.930140	0.198554	-0.440539	-0.892309	0.158868	-0.338218	-0.866078	0.136727	-0.401064	-0.952664	0.358444	-0.300069	-0.714666	1.397179	0.045794	-0.695418	1.426381	-0.279470	
59	0.2900	-0.613208	0.955278	-0.040860	-0.642050	0.959986	-0.264417	-0.805076	0.932297	-0.074500	-0.814401	0.940252	-0.165011	-0.623134	0.701563	0.025105	-0.568244	0.722760	0.018454	-0.596252	0.661758	0.016947	-0.541636	0.676808	0.010005	-0.479685	0.503166	-0.036120	-0.503297	0.495662	-0.138881	-0.513401	0.370098	0.004626	-0.472759	0.372193	-0.012025	-0.507831	0.319906	0.004798	-0.471759	0.322166	-0.009640	-0.481814	0.109882	-0.017091	-0.479231	0.115217	-0.102699	-0.357064	0.061065	0.021007	-0.330835	0.064601	-0.091980	-0.309301	0.093997	-0.036979	-0.553177	0.063693	-0.067463	-0.639526	0.708570	-0.350059	-0.593688	0.730227	-0.344219	-0.628533	0.666913	-0.351904	-0.583572	0.688525	-0.352249	-0.514089	0.520128	-0.359202	-0.496639	0.493161	-0.249356	-0.646031	0.490847	-0.379307	-0.613990	0.447202	-0.381577	-0.693757	0.460877	-0.377604	-0.660826	0.420713	-0.381142	-0.870803	0.326424	-0.364911	-0.841500	0.292479	-0.289825	-0.902141	0.198335	-0.434555	-0.863591	0.159183	-0.332407	-0.837083	0.137904	-0.395382	-0.927518	0.356739	-0.293698	-0.698200	1.393801	0.050089	-0.680565	1.423859	-0.275748	
60	0.2950	-0.597149	0.952408	-0.036625	-0.625437	0.956946	-0.260735	-0.789055	0.928676	-0.071185	-0.798209	0.936245	-0.161774	-0.607179	0.698470	0.028002	-0.552446	0.719708	0.021929	-0.580350	0.658767	0.019431	-0.525881	0.673750	0.013176	-0.463953	0.500626	-0.034263	-0.486805	0.494318	-0.137227	-0.500458	0.368421	0.005594	-0.459809	0.369451	-0.011084	-0.496325	0.318213	0.005491	-0.460279	0.319525	-0.008960	-0.477461	0.108562	-0.017044	-0.474570	0.113684	-0.102541	-0.354519	0.056508	0.021480	-0.328181	0.059582	-0.091397	-0.305249	0.087542	-0.036243	-0.550508	0.064691	-0.067365	-0.618783	0.706415	-0.346301	-0.573351	0.728992	-0.340688	-0.606925	0.664987	-0.348076	-0.562374	0.687519	-0.348710	-0.489688	0.521219	-0.355308	-0.471413	0.494900	-0.245385	-0.621074	0.491118	-0.374629	-0.588717	0.447715	-0.377075	-0.668545	0.460883	-0.372619	-0.635332	0.420954	-0.376408	-0.844546	0.325268	-0.358896	-0.814414	0.291883	-0.283920	-0.873151	0.197376	-0.428518	-0.833909	0.158966	-0.326482	-0.807031	0.138633	-0.389545	-0.901819	0.354262	-0.287442	-0.681632	1.390545	0.054344	-0.665593	1.421388	-0.272067	
61	0.3000	-0.581068	0.949647	-0.032288	-0.608679	0.953986	-0.256968	-0.772980	0.925192	-0.067916	-0.781927	0.932367	-0.158577	-0.591221	0.695517	0.030834	-0.536642	0.716775	0.025305	-0.564470	0.655908	0.021833	-0.510152	0.670811	0.016233	-0.448344	0.498118	-0.032546	-0.470435	0.493022	-0.135705	-0.487821	0.366845	0.006445	-0.447172	0.366774	-0.010264	-0.485174	0.316634	0.006061	-0.449165	0.316969	-0.008405	-0.473661	0.107431	-0.017108	-0.470494	0.112335	-0.102500	-0.352523	0.052220	0.021816	-0.326109	0.054818	-0.090960	-0.301779	0.081332	-0.035673	-0.548403	0.065821	-0.067343	-0.597937	0.704429	-0.342419	-0.552920	0.727909	-0.337016	-0.585232	0.663249	-0.344116	-0.541094	0.686677	-0.345010	-0.465318	0.522503	-0.351183	-0.446310	0.496890	-0.241200	-0.596035	0.491306	-0.369831	-0.563274	0.448242	-0.372403	-0.643155	0.460698	-0.367558	-0.609580	0.421103	-0.371552	-0.817673	0.323470	-0.352915	-0.786726	0.290768	-0.278022	-0.843223	0.195708	-0.422437	-0.803321	0.158239	-0.320451	-0.775987	0.138920	-0.383562	-0.875590	0.351037	-0.281306	-0.664983	1.387451	0.058549	-0.650520	1.419001	-0.268432	
62	0.3050	-0.564973	0.947035	-0.027865	-0.591798	0.951155	-0.253126	-0.756859	0.921887	-0.064691	-0.765567	0.928664	-0.155417	-0.575278	0.692730	0.033602	-0.520849	0.713977	0.028568	-0.548638	0.653203	0.024158	-0.494473	0.668001	0.019162	-0.432911	0.495643	-0.030964	-0.454257	0.491762	-0.134305	-0.475515	0.365371	0.007193	-0.434876	0.364174	-0.009550	-0.474387	0.315172	0.006522	-0.438432	0.314513	-0.007961	-0.470349	0.106511	-0.017264	-0.466939	0.111195	-0.102561	-0.351004	0.048255	0.022029	-0.324545	0.050370	-0.090655	-0.298839	0.075448	-0.035257	-0.546772	0.067083	-0.067384	-0.577037	0.702649	-0.338420	-0.532440	0.727012	-0.333208	-0.563504	0.661733	-0.340028	-0.519780	0.686028	-0.341154	-0.441036	0.523990	-0.346833	-0.421386	0.499134	-0.236806	-0.570968	0.491422	-0.364915	-0.537722	0.448794	-0.367566	-0.617644	0.460333	-0.362424	-0.583628	0.421173	-0.366575	-0.790235	0.321053	-0.346977	-0.758496	0.289156	-0.272137	-0.812427	0.193370	-0.416322	-0.771904	0.157034	-0.314326	-0.744039	0.138782	-0.377446	-0.848868	0.347097	-0.275296	-0.648285	1.384560	0.062690	-0.635372	1.416732	-0.264846	
63	0.3100	-0.548878	0.944612	-0.023378	-0.574827	0.948499	-0.249221	-0.740706	0.918799	-0.061509	-0.749150	0.925180	-0.152291	-0.559381	0.690130	0.036305	-0.505089	0.711327	0.031707	-0.532888	0.650666	0.026412	-0.478871	0.665327	0.021956	-0.417709	0.493204	-0.029511	-0.438341	0.490527	-0.133018	-0.463569	0.363998	0.007852	-0.422950	0.361663	-0.008930	-0.463974	0.313831	0.006890	-0.428094	0.312168	-0.007613	-0.467463	0.105817	-0.017492	-0.463844	0.110280	-0.102707	-0.349891	0.044655	0.022134	-0.323416	0.046285	-0.090467	-0.296376	0.069956	-0.034980	-0.545529	0.068478	-0.067473	-0.556135	0.701104	-0.334313	-0.511963	0.726327	-0.329273	-0.541799	0.660465	-0.335821	-0.498488	0.685597	-0.337149	-0.416906	0.525681	-0.342267	-0.396707	0.501624	-0.232212	-0.545941	0.491472	-0.359887	-0.512131	0.449379	-0.362574	-0.592077	0.459798	-0.357225	-0.557547	0.421175	-0.361488	-0.762298	0.318047	-0.341088	-0.729797	0.287076	-0.266273	-0.780854	0.190412	-0.410186	-0.739752	0.155388	-0.308123	-0.711291	0.138241	-0.371214	-0.821706	0.342481	-0.269414	-0.631575	1.381906	0.066756	-0.620181	1.414608	-0.261317	
64	0.3150	-0.532804	0.942410	-0.018853	-0.557810	0.946057	-0.245271	-0.724543	0.915958	-0.058369	-0.732708	0.921953	-0.149199	-0.543563	0.687734	0.038943	-0.489396	0.708837	0.034713	-0.517259	0.648312	0.028600	-0.463384	0.662795	0.024607	-0.402795	0.490803	-0.028179	-0.422756	0.489306	-0.131833	-0.452008	0.362726	0.008437	-0.411424	0.359249	-0.008388	-0.453949	0.312612	0.007183	-0.418166	0.309945	-0.007346	-0.464943	0.105361	-0.017769	-0.461150	0.109605	-0.102921	-0.349122	0.041453	0.022147	-0.322654	0.042600	-0.090380	-0.294341	0.064912	-0.034828	-0.544594	0.070003	-0.067598	-0.535297	0.699816	-0.330110	-0.491550	0.725873	-0.325224	-0.520183	0.659466	-0.331507	-0.477284	0.685401	-0.333009	-0.393000	0.527576	-0.337502	-0.372344	0.504349	-0.227436	-0.521028	0.491464	-0.354757	-0.486580	0.450002	-0.357439	-0.566533	0.459109	-0.351971	-0.531418	0.421120	-0.356302	-0.733950	0.314494	-0.335258	-0.700722	0.284564	-0.260439	-0.748616	0.186891	-0.404044	-0.706978	0.153344	-0.301859	-0.677872	0.137330	-0.364886	-0.794176	0.337236	-0.263665	-0.614898	1.379519	0.070734	-0.604989	1.412655	-0.257850	
65	0.3200	-0.516784	0.940457	-0.014318	-0.540800	0.943865	-0.241294	-0.708405	0.913392	-0.055271	-0.716279	0.919013	-0.146140	-0.527868	0.685556	0.041516	-0.473807	0.706516	0.037577	-0.501796	0.646150	0.030725	-0.448053	0.660410	0.027109	-0.388225	0.488444	-0.026959	-0.407569	0.488093	-0.130738	-0.440860	0.361553	0.008963	-0.400326	0.356941	-0.007911	-0.444323	0.311513	0.007415	-0.408662	0.307853	-0.007144	-0.462733	0.105148	-0.018078	-0.458801	0.109176	-0.103185	-0.348635	0.038666	0.022085	-0.322194	0.039339	-0.090378	-0.292687	0.060354	-0.034783	-0.543894	0.071655	-0.067747	-0.514594	0.698802	-0.325829	-0.471271	0.725664	-0.321079	-0.498733	0.658748	-0.327103	-0.456239	0.685452	-0.328753	-0.369396	0.529665	-0.332562	-0.348372	0.507292	-0.222498	-0.496314	0.491403	-0.349540	-0.461161	0.450667	-0.352180	-0.541100	0.458276	-0.346677	-0.505336	0.421019	-0.351033	-0.705294	0.310438	-0.329496	-0.671380	0.281659	-0.254645	-0.715843	0.182873	-0.397911	-0.673718	0.150951	-0.295557	-0.643926	0.136087	-0.358488	-0.766367	0.331417	-0.258052	-0.598310	1.377422	0.074611	-0.589842	1.410894	-0.254454	
66	0.3250	-0.500858	0.938775	-0.009802	-0.523859	0.941951	-0.237311	-0.692335	0.911119	-0.052217	-0.699915	0.916387	-0.143116	-0.512346	0.683605	0.044022	-0.458371	0.704372	0.040292	-0.486552	0.644189	0.032789	-0.432927	0.658175	0.029459	-0.374055	0.486132	-0.025842	-0.392846	0.486883	-0.129724	-0.430152	0.360477	0.009442	-0.389682	0.354747	-0.007484	-0.435108	0.310534	0.007603	-0.399597	0.305898	-0.006993	-0.460783	0.105176	-0.018398	-0.456743	0.108995	-0.103481	-0.348376	0.036300	0.021962	-0.321976	0.036513	-0.090445	-0.291368	0.056311	-0.034828	-0.543361	0.073429	-0.067907	-0.494108	0.698072	-0.321490	-0.451203	0.725707	-0.316860	-0.477530	0.658318	-0.322630	-0.435436	0.685754	-0.324401	-0.346180	0.531934	-0.327473	-0.324876	0.510426	-0.217426	-0.471891	0.491293	-0.344253	-0.435975	0.451372	-0.346821	-0.515876	0.457316	-0.341360	-0.479406	0.420880	-0.345701	-0.676452	0.305936	-0.323815	-0.641897	0.278409	-0.248905	-0.682691	0.178427	-0.391808	-0.640127	0.148262	-0.289242	-0.609623	0.134555	-0.352048	-0.738387	0.325086	-0.252580	-0.581870	1.375631	0.078374	-0.574798	1.409341	-0.251137	
67	0.3300	-0.485075	0.937380	-0.005337	-0.507059	0.940336	-0.233347	-0.676385	0.909152	-0.049210	-0.683675	0.914091	-0.140131	-0.497054	0.681886	0.046456	-0.443141	0.702409	0.042853	-0.471580	0.642431	0.034795	-0.418059	0.656093	0.031653	-0.360341	0.483875	-0.024818	-0.378649	0.485673	-0.128778	-0.419909	0.359494	0.009889	-0.379518	0.352672	-0.007094	-0.426318	0.309671	0.007759	-0.390984	0.304086	-0.006879	-0.459046	0.105439	-0.018713	-0.454929	0.109060	-0.103793	-0.348296	0.034352	0.021795	-0.321947	0.034122	-0.090564	-0.290342	0.052792	-0.034944	-0.542938	0.075316	-0.068070	-0.473924	0.697627	-0.317116	-0.431431	0.726002	-0.312590	-0.456665	0.658175	-0.318111	-0.414960	0.686304	-0.319981	-0.323443	0.534364	-0.322267	-0.301941	0.513725	-0.212250	-0.447861	0.491140	-0.338922	-0.411130	0.452116	-0.341389	-0.490967	0.456241	-0.336040	-0.453744	0.420711	-0.340330	-0.647564	0.301048	-0.318229	-0.612415	0.274862	-0.243234	-0.649333	0.173630	-0.385758	-0.606378	0.145334	-0.282943	-0.575149	0.132781	-0.345600	-0.710363	0.318315	-0.247253	-0.565645	1.374156	0.082011	-0.559918	1.408007	-0.247909	
68	0.3350	-0.469493	0.936278	-0.000954	-0.490477	0.939032	-0.229426	-0.660617	0.907496	-0.046255	-0.667626	0.912135	-0.137191	-0.482052	0.680400	0.048817	-0.428178	0.700629	0.045256	-0.456942	0.640879	0.036742	-0.403510	0.654166	0.033693	-0.347133	0.481678	-0.023875	-0.365033	0.484463	-0.127891	-0.410153	0.358602	0.010313	-0.369857	0.350723	-0.006729	-0.417964	0.308921	0.007898	-0.382833	0.302419	-0.006788	-0.457483	0.105924	-0.019007	-0.453314	0.109360	-0.104106	-0.348352	0.032807	0.021598	-0.322059	0.032157	-0.090721	-0.289568	0.049797	-0.035115	-0.542574	0.077306	-0.068225	-0.454134	0.697462	-0.312735	-0.412045	0.726541	-0.308298	-0.436232	0.658309	-0.313575	-0.394904	0.687093	-0.315522	-0.301280	0.536930	-0.316982	-0.279657	0.517154	-0.207008	-0.424329	0.490946	-0.333573	-0.386744	0.452894	-0.335918	-0.466490	0.455069	-0.330741	-0.428474	0.420518	-0.334948	-0.618784	0.295840	-0.312752	-0.583091	0.271072	-0.237650	-0.615962	0.168560	-0.379784	-0.572665	0.142223	-0.276692	-0.540707	0.130815	-0.339179	-0.682434	0.311179	-0.242079	-0.549708	1.373000	0.085508	-0.545270	1.406898	-0.244779	
69	0.3400	-0.454178	0.935472	0.003313	-0.474199	0.938046	-0.225576	-0.645101	0.906152	-0.043357	-0.651843	0.910521	-0.134303	-0.467406	0.679143	0.051099	-0.413549	0.699033	0.047499	-0.442699	0.639530	0.038629	-0.389339	0.652395	0.035578	-0.334482	0.479551	-0.023006	-0.352051	0.483256	-0.127053	-0.400905	0.357798	0.010725	-0.360717	0.348903	-0.006380	-0.410056	0.308278	0.008031	-0.375155	0.300899	-0.006710	-0.456058	0.106614	-0.019267	-0.451861	0.109882	-0.104407	-0.348506	0.031641	0.021385	-0.322270	0.030596	-0.090902	-0.289008	0.047313	-0.035325	-0.542228	0.079387	-0.068366	-0.434836	0.697566	-0.308375	-0.393136	0.727310	-0.304015	-0.416328	0.658707	-0.309051	-0.375364	0.688105	-0.311056	-0.279787	0.539603	-0.311659	-0.258115	0.520676	-0.201738	-0.401405	0.490716	-0.328238	-0.362936	0.453699	-0.330442	-0.442562	0.453814	-0.325491	-0.403726	0.420308	-0.329588	-0.590279	0.290383	-0.307403	-0.554091	0.267095	-0.232174	-0.582784	0.163299	-0.373914	-0.539192	0.138986	-0.270522	-0.506513	0.128709	-0.332825	-0.654757	0.303761	-0.237065	-0.534135	1.372159	0.088854	-0.530926	1.406015	-0.241757	
70	0.3450	-0.439200	0.934955	0.007435	-0.458312	0.937373	-0.221822	-0.629912	0.905112	-0.040525	-0.636407	0.909244	-0.131475	-0.453186	0.678110	0.053296	-0.399322	0.697619	0.049580	-0.428917	0.638379	0.040453	-0.375612	0.650778	0.037311	-0.322433	0.477503	-0.022200	-0.339749	0.482058	-0.126258	-0.392183	0.357079	0.011131	-0.352116	0.347215	-0.006038	-0.402603	0.307738	0.008166	-0.367956	0.299526	-0.006635	-0.454743	0.107488	-0.019484	-0.450535	0.110607	-0.104683	-0.348724	0.030824	0.021167	-0.322542	0.029413	-0.091094	-0.288629	0.045316	-0.035558	-0.541867	0.081542	-0.068485	-0.416126	0.697921	-0.304067	-0.374801	0.728290	-0.299771	-0.397053	0.659347	-0.304571	-0.356437	0.689318	-0.306618	-0.259062	0.542353	-0.306341	-0.237407	0.524251	-0.196483	-0.379202	0.490453	-0.322952	-0.339830	0.454524	-0.325002	-0.419309	0.452495	-0.320320	-0.379634	0.420085	-0.324282	-0.562225	0.284750	-0.302201	-0.525593	0.262987	-0.226828	-0.550019	0.157925	-0.368177	-0.506176	0.135682	-0.264472	-0.472797	0.126511	-0.326578	-0.627496	0.296148	-0.232223	-0.519006	1.371620	0.092038	-0.516961	1.405353	-0.238855	
71	0.3500	-0.424636	0.934714	0.011383	-0.442907	0.937002	-0.218190	-0.615131	0.904361	-0.037769	-0.621402	0.908290	-0.128719	-0.439462	0.677290	0.055403	-0.385569	0.696382	0.051501	-0.415658	0.637418	0.042212	-0.362394	0.649314	0.038896	-0.311026	0.475542	-0.021450	-0.328165	0.480875	-0.125498	-0.384002	0.356440	0.011538	-0.344065	0.345661	-0.005696	-0.395613	0.307293	0.008311	-0.361241	0.298297	-0.006554	-0.453513	0.108520	-0.019649	-0.449310	0.111511	-0.104926	-0.348979	0.030319	0.020953	-0.322846	0.028574	-0.091287	-0.288397	0.043773	-0.035802	-0.541469	0.083753	-0.068579	-0.398101	0.698503	-0.299844	-0.357133	0.729456	-0.295600	-0.378504	0.660203	-0.300169	-0.338217	0.690705	-0.302242	-0.239200	0.545145	-0.301074	-0.217619	0.527840	-0.191286	-0.357830	0.490161	-0.317750	-0.317549	0.455360	-0.319638	-0.396852	0.451129	-0.315258	-0.356332	0.419854	-0.319067	-0.534804	0.279018	-0.297166	-0.497776	0.258807	-0.221637	-0.517893	0.152519	-0.362602	-0.473841	0.132363	-0.258576	-0.439789	0.124271	-0.320480	-0.600824	0.288430	-0.227562	-0.504399	1.371368	0.095050	-0.503449	1.404903	-0.236082	
72	0.3550	-0.410564	0.934730	0.015130	-0.428074	0.936916	-0.214706	-0.600841	0.903881	-0.035100	-0.606913	0.907641	-0.126047	-0.426303	0.676668	0.057412	-0.372361	0.695316	0.053264	-0.402986	0.636637	0.043899	-0.349747	0.648001	0.040338	-0.300296	0.473678	-0.020749	-0.317330	0.479716	-0.124769	-0.376372	0.355878	0.011949	-0.336575	0.344242	-0.005351	-0.389091	0.306937	0.008470	-0.355012	0.297209	-0.006462	-0.452351	0.109683	-0.019758	-0.448164	0.112569	-0.105128	-0.349249	0.030087	0.020753	-0.323157	0.028040	-0.091473	-0.288285	0.042643	-0.036046	-0.541015	0.086001	-0.068643	-0.380855	0.699285	-0.295735	-0.340223	0.730779	-0.291534	-0.360775	0.661245	-0.295878	-0.320798	0.692237	-0.297965	-0.220292	0.547945	-0.295903	-0.198835	0.531400	-0.186193	-0.337398	0.489844	-0.312672	-0.296212	0.456195	-0.314391	-0.375314	0.449733	-0.310338	-0.333951	0.419619	-0.313979	-0.508199	0.273261	-0.292322	-0.470823	0.254612	-0.216626	-0.486635	0.147155	-0.357219	-0.442412	0.129081	-0.252874	-0.407722	0.122035	-0.314574	-0.574917	0.280697	-0.223097	-0.490392	1.371379	0.097881	-0.490467	1.404651	-0.233449	
73	0.3600	-0.397063	0.934978	0.018654	-0.413898	0.937089	-0.211392	-0.587125	0.903648	-0.032528	-0.593025	0.907272	-0.123471	-0.413776	0.676229	0.059319	-0.359768	0.694413	0.054871	-0.390960	0.636023	0.045511	-0.337733	0.646835	0.041641	-0.290273	0.471920	-0.020092	-0.307269	0.478589	-0.124068	-0.369301	0.355389	0.012365	-0.329649	0.342958	-0.005000	-0.383042	0.306663	0.008648	-0.349269	0.296257	-0.006354	-0.451243	0.110948	-0.019809	-0.447080	0.113750	-0.105284	-0.349517	0.030086	0.020571	-0.323455	0.027769	-0.091644	-0.288267	0.041882	-0.036280	-0.540500	0.088263	-0.068678	-0.364475	0.700234	-0.291774	-0.324160	0.732228	-0.287606	-0.343955	0.662439	-0.291732	-0.304268	0.693880	-0.293822	-0.202423	0.550717	-0.290873	-0.181131	0.534891	-0.181247	-0.318007	0.489506	-0.307754	-0.275931	0.457021	-0.309303	-0.354809	0.448327	-0.305592	-0.312616	0.419383	-0.309057	-0.482589	0.267555	-0.287688	-0.444910	0.250457	-0.211821	-0.456469	0.141905	-0.352060	-0.412108	0.125884	-0.247402	-0.376825	0.119844	-0.308900	-0.549947	0.273041	-0.218840	-0.477060	1.371625	0.100523	-0.478086	1.404581	-0.230964	
74	0.3650	-0.384208	0.935430	0.021935	-0.400462	0.937493	-0.208268	-0.574063	0.903634	-0.030067	-0.579818	0.907153	-0.121004	-0.401941	0.675953	0.061116	-0.347853	0.693663	0.056327	-0.379634	0.635563	0.047041	-0.326407	0.645809	0.042813	-0.280979	0.470276	-0.019473	-0.297997	0.477505	-0.123393	-0.362791	0.354969	0.012787	-0.323288	0.341806	-0.004642	-0.377465	0.306462	0.008844	-0.344007	0.295435	-0.006230	-0.450182	0.112282	-0.019803	-0.446046	0.115026	-0.105394	-0.349769	0.030273	0.020413	-0.323727	0.027720	-0.091796	-0.288320	0.041440	-0.036497	-0.539920	0.090515	-0.068681	-0.349042	0.701318	-0.287988	-0.309020	0.733767	-0.283846	-0.328124	0.663750	-0.287763	-0.288703	0.695598	-0.289846	-0.185665	0.553427	-0.286029	-0.164572	0.538273	-0.176490	-0.299748	0.489152	-0.303035	-0.256809	0.457827	-0.304415	-0.335443	0.446927	-0.301053	-0.292445	0.419148	-0.304336	-0.458148	0.261969	-0.283287	-0.420205	0.246396	-0.207248	-0.427609	0.136832	-0.347153	-0.383141	0.122812	-0.242194	-0.347311	0.117735	-0.303497	-0.526082	0.265548	-0.214805	-0.464470	1.372074	0.102971	-0.466372	1.404671	-0.228637	
75	0.3700	-0.372072	0.936053	0.024959	-0.387838	0.938092	-0.205353	-0.561729	0.903810	-0.027729	-0.567367	0.907252	-0.118661	-0.390856	0.675822	0.062797	-0.336676	0.693054	0.057637	-0.369055	0.635239	0.048483	-0.315818	0.644918	0.043859	-0.272429	0.468753	-0.018890	-0.289521	0.476474	-0.122745	-0.356842	0.354613	0.013212	-0.317489	0.340783	-0.004279	-0.372359	0.306326	0.009059	-0.339220	0.294734	-0.006088	-0.449162	0.113657	-0.019743	-0.445055	0.116365	-0.105456	-0.349996	0.030606	0.020282	-0.323963	0.027849	-0.091925	-0.288423	0.041267	-0.036693	-0.539280	0.092733	-0.068655	-0.334625	0.702501	-0.284406	-0.294872	0.735361	-0.280282	-0.313351	0.665141	-0.283998	-0.274174	0.697356	-0.286070	-0.170083	0.556043	-0.281412	-0.149213	0.541513	-0.171962	-0.282702	0.488787	-0.298548	-0.238934	0.458603	-0.299764	-0.317309	0.445551	-0.296750	-0.273538	0.418919	-0.299850	-0.435031	0.256571	-0.279140	-0.396864	0.242476	-0.202929	-0.400255	0.131994	-0.342524	-0.355706	0.119902	-0.237282	-0.319381	0.115739	-0.298399	-0.503478	0.258302	-0.211007	-0.452684	1.372693	0.105221	-0.455384	1.404900	-0.226474	
76	0.3750	-0.360719	0.936813	0.027716	-0.376088	0.938849	-0.202661	-0.550191	0.904141	-0.025527	-0.555738	0.907534	-0.116453	-0.380566	0.675813	0.064357	-0.326285	0.692572	0.058807	-0.359261	0.635036	0.049833	-0.306007	0.644154	0.044786	-0.264630	0.467355	-0.018342	-0.281838	0.475503	-0.122125	-0.351446	0.354317	0.013636	-0.312243	0.339885	-0.003914	-0.367719	0.306247	0.009289	-0.334898	0.294148	-0.005930	-0.448183	0.115042	-0.019635	-0.444104	0.117735	-0.105473	-0.350192	0.031047	0.020177	-0.324157	0.028115	-0.092031	-0.288561	0.041314	-0.036863	-0.538591	0.094894	-0.068602	-0.321282	0.703747	-0.281050	-0.281773	0.736977	-0.276939	-0.299691	0.666577	-0.280465	-0.260734	0.699119	-0.282520	-0.155725	0.558537	-0.277057	-0.135095	0.544577	-0.167696	-0.266934	0.488417	-0.294326	-0.222380	0.459341	-0.295384	-0.300485	0.444217	-0.292709	-0.255983	0.418696	-0.295629	-0.413379	0.251419	-0.275265	-0.375022	0.238742	-0.198888	-0.374584	0.127440	-0.338198	-0.329974	0.117183	-0.232694	-0.293207	0.113880	-0.293637	-0.482273	0.251379	-0.207459	-0.441751	1.373445	0.107272	-0.445174	1.405241	-0.224481	
77	0.3800	-0.350202	0.937674	0.030201	-0.365262	0.939727	-0.200200	-0.539505	0.904596	-0.023470	-0.544985	0.907961	-0.114393	-0.371107	0.675904	0.065792	-0.316721	0.692205	0.059844	-0.350283	0.634935	0.051085	-0.297004	0.643508	0.045603	-0.257580	0.466088	-0.017828	-0.274940	0.474601	-0.121534	-0.346595	0.354075	0.014057	-0.307538	0.339106	-0.003549	-0.363536	0.306216	0.009532	-0.331027	0.293665	-0.005758	-0.447246	0.116410	-0.019484	-0.443193	0.119107	-0.105448	-0.350354	0.031557	0.020099	-0.324307	0.028480	-0.092112	-0.288719	0.041530	-0.037006	-0.537863	0.096973	-0.068526	-0.309054	0.705022	-0.277940	-0.269764	0.738580	-0.273837	-0.287185	0.668021	-0.277185	-0.248425	0.700853	-0.279220	-0.142624	0.560882	-0.272996	-0.122243	0.547439	-0.163724	-0.252492	0.488047	-0.290395	-0.207203	0.460032	-0.291304	-0.285033	0.442939	-0.288954	-0.239846	0.418482	-0.291700	-0.393309	0.246566	-0.271678	-0.354792	0.235230	-0.195142	-0.350745	0.123209	-0.334195	-0.306092	0.114677	-0.228452	-0.268939	0.112179	-0.289237	-0.462586	0.244846	-0.204172	-0.431710	1.374294	0.109123	-0.435780	1.405670	-0.222662	
78	0.3850	-0.340563	0.938600	0.032415	-0.355397	0.940686	-0.197978	-0.529714	0.905141	-0.021569	-0.535149	0.908498	-0.112489	-0.362505	0.676075	0.067098	-0.308012	0.691938	0.060754	-0.342137	0.634919	0.052235	-0.288830	0.642972	0.046316	-0.251272	0.464950	-0.017347	-0.268808	0.473775	-0.120975	-0.342274	0.353882	0.014468	-0.303357	0.338439	-0.003189	-0.359800	0.306226	0.009782	-0.327593	0.293276	-0.005576	-0.446357	0.117734	-0.019300	-0.442325	0.120453	-0.105388	-0.350482	0.032106	0.020046	-0.324415	0.028909	-0.092171	-0.288885	0.041872	-0.037123	-0.537113	0.098949	-0.068430	-0.297967	0.706294	-0.275092	-0.258872	0.740139	-0.270993	-0.275857	0.669442	-0.274176	-0.237271	0.702528	-0.276188	-0.130795	0.563057	-0.269254	-0.110666	0.550077	-0.160069	-0.239403	0.487683	-0.286778	-0.193437	0.460672	-0.287549	-0.270991	0.441732	-0.285504	-0.225173	0.418280	-0.288084	-0.374912	0.242056	-0.268391	-0.336263	0.231972	-0.191707	-0.328858	0.119332	-0.330529	-0.284175	0.112402	-0.224575	-0.246688	0.110646	-0.285216	-0.444509	0.238761	-0.201156	-0.422588	1.375204	0.110778	-0.427231	1.406163	-0.221018	
79	0.3900	-0.331833	0.939558	0.034360	-0.346512	0.941689	-0.195995	-0.520849	0.905745	-0.019832	-0.526258	0.909109	-0.110751	-0.354771	0.676304	0.068276	-0.300171	0.691756	0.061546	-0.334830	0.634971	0.053279	-0.281492	0.642533	0.046933	-0.245687	0.463944	-0.016902	-0.263415	0.473028	-0.120452	-0.338463	0.353734	0.014864	-0.299680	0.337877	-0.002840	-0.356495	0.306267	0.010035	-0.324575	0.292971	-0.005388	-0.445518	0.118994	-0.019092	-0.441504	0.121747	-0.105299	-0.350577	0.032665	0.020015	-0.324483	0.029373	-0.092208	-0.289051	0.042297	-0.037213	-0.536358	0.100801	-0.068319	-0.288030	0.707533	-0.272516	-0.249106	0.741628	-0.268417	-0.265714	0.670811	-0.271448	-0.227280	0.704117	-0.273437	-0.120238	0.565046	-0.265850	-0.100355	0.552476	-0.156748	-0.227679	0.487330	-0.283490	-0.181096	0.461254	-0.284134	-0.258379	0.440606	-0.282372	-0.211987	0.418091	-0.284797	-0.358249	0.237922	-0.265412	-0.319491	0.228991	-0.188593	-0.309005	0.115829	-0.327212	-0.264303	0.110365	-0.221072	-0.226533	0.109289	-0.281586	-0.428109	0.233170	-0.198418	-0.414395	1.376142	0.112241	-0.419540	1.406694	-0.219549	
80	0.3950	-0.324023	0.940515	0.036047	-0.338612	0.942701	-0.194250	-0.512924	0.906379	-0.018264	-0.518323	0.909761	-0.109184	-0.347904	0.676572	0.069324	-0.293201	0.691644	0.062228	-0.328356	0.635073	0.054217	-0.274986	0.642182	0.047463	-0.240801	0.463064	-0.016491	-0.258728	0.472363	-0.119968	-0.335140	0.353623	0.015241	-0.296480	0.337409	-0.002506	-0.353604	0.306332	0.010285	-0.321952	0.292738	-0.005199	-0.444738	0.120169	-0.018867	-0.440735	0.122968	-0.105187	-0.350642	0.033210	0.020004	-0.324515	0.029843	-0.092227	-0.289209	0.042770	-0.037280	-0.535613	0.102514	-0.068198	-0.279236	0.708714	-0.270216	-0.240459	0.743022	-0.266115	-0.256745	0.672103	-0.269009	-0.218442	0.705596	-0.270975	-0.110932	0.566838	-0.262795	-0.091284	0.554626	-0.153771	-0.217307	0.486993	-0.280542	-0.170171	0.461776	-0.281071	-0.247193	0.439572	-0.279564	-0.200285	0.417915	-0.281849	-0.343352	0.234187	-0.262747	-0.304506	0.226303	-0.185805	-0.291230	0.112709	-0.324247	-0.246517	0.108570	-0.217948	-0.208512	0.108109	-0.278353	-0.413421	0.228104	-0.195960	-0.407130	1.377078	0.113519	-0.412708	1.407242	-0.218252	
81	0.4000	-0.317134	0.941445	0.037488	-0.331683	0.943690	-0.192735	-0.505936	0.907016	-0.016867	-0.511337	0.910425	-0.107789	-0.341888	0.676861	0.070246	-0.287089	0.691590	0.062809	-0.322696	0.635209	0.055047	-0.269295	0.641908	0.047911	-0.236580	0.462307	-0.016118	-0.254706	0.471781	-0.119525	-0.332277	0.353545	0.015593	-0.293730	0.337028	-0.002192	-0.351104	0.306414	0.010527	-0.319699	0.292567	-0.005013	-0.444020	0.121247	-0.018637	-0.440024	0.124098	-0.105060	-0.350681	0.033725	0.020009	-0.324519	0.030301	-0.092231	-0.289355	0.043258	-0.037327	-0.534896	0.104073	-0.068072	-0.271558	0.709814	-0.268192	-0.232907	0.744302	-0.264087	-0.248922	0.673298	-0.266859	-0.210730	0.706949	-0.268803	-0.102839	0.568428	-0.260093	-0.083412	0.556523	-0.151142	-0.208256	0.486678	-0.277936	-0.160631	0.462237	-0.278363	-0.237406	0.438637	-0.277083	-0.190044	0.417756	-0.279241	-0.330219	0.230866	-0.260392	-0.291301	0.223916	-0.183343	-0.275541	0.109974	-0.321634	-0.230821	0.107014	-0.215201	-0.192626	0.107100	-0.275513	-0.400449	0.223585	-0.193782	-0.400774	1.377983	0.114620	-0.406722	1.407786	-0.217122	
82	0.4050	-0.311146	0.942323	0.038700	-0.325697	0.944629	-0.191442	-0.499867	0.907633	-0.015642	-0.505280	0.911074	-0.106566	-0.336697	0.677155	0.071044	-0.281809	0.691578	0.063297	-0.317821	0.635367	0.055773	-0.264389	0.641699	0.048288	-0.232985	0.461666	-0.015783	-0.251303	0.471280	-0.119126	-0.329843	0.353494	0.015916	-0.291399	0.336724	-0.001902	-0.348973	0.306505	0.010756	-0.317789	0.292448	-0.004835	-0.443370	0.122214	-0.018408	-0.439377	0.125123	-0.104925	-0.350699	0.034195	0.020026	-0.324499	0.030729	-0.092223	-0.289485	0.043737	-0.037355	-0.534221	0.105470	-0.067947	-0.264954	0.710818	-0.266439	-0.226407	0.745456	-0.262328	-0.242199	0.674380	-0.264993	-0.204099	0.708162	-0.266917	-0.095904	0.569813	-0.257741	-0.076680	0.558169	-0.148856	-0.200474	0.486389	-0.275667	-0.152425	0.462637	-0.276006	-0.228970	0.437806	-0.274924	-0.181214	0.417612	-0.276970	-0.318817	0.227960	-0.258343	-0.279842	0.221832	-0.181200	-0.261903	0.107615	-0.319365	-0.217181	0.105687	-0.212822	-0.178835	0.106256	-0.273057	-0.389167	0.219619	-0.191881	-0.395297	1.378835	0.115557	-0.401556	1.408308	-0.216151	
83	0.4100	-0.306029	0.943131	0.039701	-0.320612	0.945498	-0.190355	-0.494682	0.908212	-0.014584	-0.500115	0.911688	-0.105512	-0.332290	0.677442	0.071724	-0.277321	0.691598	0.063701	-0.313689	0.635534	0.056396	-0.260230	0.641546	0.048599	-0.229971	0.461133	-0.015487	-0.248469	0.470857	-0.118773	-0.327806	0.353464	0.016207	-0.289451	0.336485	-0.001640	-0.347181	0.306601	0.010968	-0.316195	0.292369	-0.004668	-0.442791	0.123067	-0.018189	-0.438797	0.126034	-0.104789	-0.350700	0.034611	0.020051	-0.324463	0.031116	-0.092207	-0.289597	0.044187	-0.037370	-0.533601	0.106699	-0.067825	-0.259366	0.711714	-0.264946	-0.220906	0.746475	-0.260829	-0.236515	0.675340	-0.263401	-0.198490	0.709229	-0.265306	-0.090059	0.571000	-0.255729	-0.071015	0.559573	-0.146902	-0.193892	0.486127	-0.273727	-0.145480	0.462977	-0.273988	-0.221818	0.437079	-0.273077	-0.173725	0.417485	-0.275025	-0.309081	0.225462	-0.256589	-0.270061	0.220044	-0.179367	-0.250247	0.105618	-0.317426	-0.205523	0.104577	-0.210796	-0.167061	0.105563	-0.270969	-0.379517	0.216199	-0.190246	-0.390654	1.379617	0.116341	-0.397170	1.408796	-0.215330	
84	0.4150	-0.301734	0.943854	0.040512	-0.316370	0.946278	-0.189458	-0.490335	0.908739	-0.013687	-0.495790	0.912249	-0.104620	-0.328615	0.677711	0.072294	-0.273576	0.691639	0.064031	-0.310249	0.635700	0.056921	-0.256765	0.641437	0.048852	-0.227488	0.460699	-0.015229	-0.246148	0.470508	-0.118465	-0.326129	0.353451	0.016463	-0.287852	0.336303	-0.001408	-0.345702	0.306694	0.011160	-0.314886	0.292323	-0.004516	-0.442285	0.123802	-0.017985	-0.438288	0.126826	-0.104657	-0.350689	0.034970	0.020082	-0.324417	0.031455	-0.092185	-0.289692	0.044595	-0.037374	-0.533044	0.107759	-0.067711	-0.254722	0.712496	-0.263697	-0.216332	0.747354	-0.259574	-0.231796	0.676171	-0.262068	-0.193832	0.710146	-0.263957	-0.085219	0.571996	-0.254039	-0.066334	0.560747	-0.145263	-0.188425	0.485897	-0.272097	-0.139710	0.463260	-0.272294	-0.215864	0.436456	-0.271526	-0.167490	0.417375	-0.273391	-0.300921	0.223357	-0.255115	-0.261866	0.218539	-0.177827	-0.240469	0.103959	-0.315801	-0.195744	0.103666	-0.209103	-0.157195	0.105008	-0.269226	-0.371414	0.213306	-0.188866	-0.386789	1.380315	0.116985	-0.393513	1.409237	-0.214649	
85	0.4200	-0.298202	0.944483	0.041156	-0.312903	0.946961	-0.188735	-0.486764	0.909205	-0.012943	-0.492243	0.912747	-0.103880	-0.325613	0.677953	0.072761	-0.270514	0.691692	0.064296	-0.307444	0.635856	0.057356	-0.253938	0.641363	0.049055	-0.225481	0.460351	-0.015010	-0.244284	0.470226	-0.118204	-0.324774	0.353450	0.016684	-0.286563	0.336167	-0.001207	-0.344502	0.306783	0.011328	-0.313830	0.292300	-0.004382	-0.441853	0.124421	-0.017801	-0.437850	0.127498	-0.104535	-0.350671	0.035269	0.020114	-0.324366	0.031742	-0.092161	-0.289770	0.044951	-0.037370	-0.532557	0.108654	-0.067608	-0.250941	0.713160	-0.262675	-0.212606	0.748095	-0.258546	-0.227956	0.676875	-0.260974	-0.190040	0.710918	-0.262850	-0.081293	0.572814	-0.252650	-0.062544	0.561708	-0.143917	-0.183975	0.485697	-0.270757	-0.135013	0.463491	-0.270901	-0.211007	0.435934	-0.270249	-0.162402	0.417282	-0.272047	-0.294221	0.221620	-0.253900	-0.255139	0.217300	-0.176558	-0.232433	0.102610	-0.314465	-0.187708	0.102936	-0.207716	-0.149097	0.104573	-0.267802	-0.364749	0.210910	-0.187724	-0.383637	1.380921	0.117504	-0.390526	1.409625	-0.214095	
86	0.4250	-0.295365	0.945016	0.041654	-0.310134	0.947540	-0.188164	-0.483897	0.909602	-0.012339	-0.489400	0.913174	-0.103281	-0.323217	0.678164	0.073136	-0.268067	0.691748	0.064503	-0.305206	0.635996	0.057707	-0.251682	0.641316	0.049214	-0.223895	0.460081	-0.014827	-0.242820	0.470004	-0.117986	-0.323703	0.353456	0.016869	-0.285546	0.336070	-0.001037	-0.343550	0.306863	0.011471	-0.312998	0.292294	-0.004266	-0.441493	0.124929	-0.017642	-0.437482	0.128054	-0.104425	-0.350648	0.035512	0.020146	-0.324314	0.031978	-0.092136	-0.289832	0.045251	-0.037362	-0.532143	0.109391	-0.067517	-0.247932	0.713710	-0.261857	-0.209639	0.748704	-0.257723	-0.224903	0.677455	-0.260099	-0.187024	0.711549	-0.261963	-0.078180	0.573469	-0.251534	-0.059542	0.562475	-0.142838	-0.180436	0.485530	-0.269681	-0.131275	0.463675	-0.269782	-0.207134	0.435507	-0.269223	-0.158346	0.417205	-0.270966	-0.288847	0.220222	-0.252921	-0.249744	0.216305	-0.175539	-0.225982	0.101539	-0.313393	-0.181257	0.102365	-0.206606	-0.142603	0.104242	-0.266664	-0.359393	0.208974	-0.186800	-0.381124	1.381433	0.117913	-0.388142	1.409955	-0.213654	
