PathFileType	4	(X/Y/Z)	 P11 250r2 05.trc
DataRate	CameraRate	NumFrames	NumMarkers	Units	OrigDataRate	OrigDataStartFrame	OrigNumFrames
200	200	76	38	m	200	2	77
Frame#	Time	RASIS			LASIS			RPSIS			LPSIS			RThighRear1			RThighFront1			RThighRear2			RThighFront2			RKneeLat			RKneeMed			RShankRear1			RShankFront1			RShankRear2			RShankFront2			RAnkleLat			RAnkleMed			RM5			RM1			RMid			RHeel			LThighRear1			LThighFront1			LThighRear2			LThighFront2			LKneeLat			LKneeMed			LShankRear1			LShankFront1			LShankRear2			LShankFront2			LAnkleLat			LAnkleMed			LM5			LM1			LMid			LHeel			RShoulder			LShoulder			
		X1	Y1	Z1	X2	Y2	Z2	X3	Y3	Z3	X4	Y4	Z4	X5	Y5	Z5	X6	Y6	Z6	X7	Y7	Z7	X8	Y8	Z8	X9	Y9	Z9	X10	Y10	Z10	X11	Y11	Z11	X12	Y12	Z12	X13	Y13	Z13	X14	Y14	Z14	X15	Y15	Z15	X16	Y16	Z16	X17	Y17	Z17	X18	Y18	Z18	X19	Y19	Z19	X20	Y20	Z20	X21	Y21	Z21	X22	Y22	Z22	X23	Y23	Z23	X24	Y24	Z24	X25	Y25	Z25	X26	Y26	Z26	X27	Y27	Z27	X28	Y28	Z28	X29	Y29	Z29	X30	Y30	Z30	X31	Y31	Z31	X32	Y32	Z32	X33	Y33	Z33	X34	Y34	Z34	X35	Y35	Z35	X36	Y36	Z36	X37	Y37	Z37	X38	Y38	Z38	
1	0.0000	-1.570403	0.936279	-0.183336	-1.579409	0.943753	-0.407663	-1.761978	0.940370	-0.227622	-1.757750	0.946010	-0.318906	-1.678869	0.672481	-0.131643	-1.622504	0.671138	-0.142791	-1.672017	0.623712	-0.140919	-1.618733	0.619985	-0.149111	-1.644076	0.424322	-0.187031	-1.633842	0.423720	-0.298953	-1.793802	0.441173	-0.175431	-1.782401	0.394203	-0.181748	-1.842229	0.427795	-0.183101	-1.832989	0.388879	-0.188084	-2.039648	0.374771	-0.212692	-2.027915	0.359728	-0.305386	-2.094863	0.241608	-0.166416	-2.086037	0.199796	-0.284672	-2.057561	0.187962	-0.229584	-2.092735	0.431606	-0.287975	-1.559181	0.697237	-0.478245	-1.516091	0.723904	-0.471784	-1.545279	0.657782	-0.472365	-1.502217	0.681589	-0.471795	-1.421146	0.532231	-0.443351	-1.432388	0.520147	-0.345622	-1.470542	0.409626	-0.496343	-1.421400	0.412824	-0.477888	-1.468357	0.352589	-0.501404	-1.420537	0.359032	-0.484673	-1.442277	0.119677	-0.494868	-1.428660	0.131379	-0.410549	-1.314894	0.049918	-0.522728	-1.309333	0.076834	-0.407405	-1.265919	0.100045	-0.464430	-1.513798	0.076840	-0.453167	-1.561942	1.395500	-0.157805	-1.589867	1.384351	-0.481991	
2	0.0050	-1.555534	0.933857	-0.182568	-1.565086	0.942076	-0.407196	-1.747173	0.937134	-0.226987	-1.742977	0.943122	-0.318307	-1.658175	0.670711	-0.129803	-1.601766	0.670783	-0.140101	-1.649711	0.622412	-0.138471	-1.596428	0.619932	-0.145965	-1.615562	0.425211	-0.183157	-1.605204	0.424607	-0.295213	-1.764908	0.440267	-0.171848	-1.753012	0.393406	-0.177943	-1.813263	0.426495	-0.179439	-1.803584	0.387437	-0.184330	-2.010400	0.371127	-0.209338	-1.998189	0.355875	-0.301696	-2.062667	0.237513	-0.162375	-2.052702	0.195270	-0.279927	-2.023960	0.184507	-0.224777	-2.064607	0.426658	-0.284913	-1.546326	0.695330	-0.477274	-1.503185	0.721763	-0.471328	-1.532727	0.655810	-0.471329	-1.489621	0.679416	-0.471305	-1.408906	0.529290	-0.442726	-1.419507	0.517625	-0.344811	-1.460156	0.408149	-0.495108	-1.410968	0.410083	-0.476710	-1.459413	0.351239	-0.500211	-1.411621	0.356445	-0.483416	-1.440215	0.119095	-0.493569	-1.426789	0.129860	-0.409094	-1.314376	0.048674	-0.522682	-1.308283	0.074222	-0.406717	-1.264360	0.096384	-0.463510	-1.513313	0.077062	-0.452295	-1.547900	1.393634	-0.156218	-1.572820	1.381814	-0.481350	
3	0.0100	-1.540492	0.931459	-0.181763	-1.550547	0.940407	-0.406697	-1.732182	0.933937	-0.226350	-1.728019	0.940281	-0.317709	-1.637227	0.669054	-0.127933	-1.580790	0.670588	-0.137366	-1.627125	0.621259	-0.135989	-1.573855	0.620066	-0.142772	-1.586679	0.426328	-0.179227	-1.576193	0.425729	-0.291415	-1.735629	0.439456	-0.168210	-1.723198	0.392721	-0.174079	-1.783900	0.425238	-0.175713	-1.773744	0.386056	-0.180509	-1.980701	0.367272	-0.205925	-1.967981	0.351850	-0.297930	-2.029882	0.233160	-0.158289	-2.018717	0.190542	-0.275122	-1.989712	0.180866	-0.219914	-2.036059	0.421431	-0.281764	-1.533313	0.693410	-0.476272	-1.490112	0.719594	-0.470836	-1.520031	0.653822	-0.470263	-1.476875	0.677214	-0.470784	-1.396594	0.526291	-0.442087	-1.406552	0.515031	-0.343980	-1.449771	0.406654	-0.493863	-1.400543	0.407303	-0.475537	-1.450489	0.349882	-0.499002	-1.402727	0.353830	-0.482160	-1.438226	0.118548	-0.492282	-1.424985	0.128375	-0.407649	-1.313892	0.047418	-0.522646	-1.307271	0.071636	-0.406059	-1.262840	0.092784	-0.462621	-1.512913	0.077280	-0.451427	-1.533715	1.391814	-0.154580	-1.555564	1.379328	-0.480644	
4	0.0150	-1.525286	0.929120	-0.180907	-1.535780	0.938760	-0.406149	-1.717011	0.930816	-0.225708	-1.712878	0.937522	-0.317107	-1.616048	0.667560	-0.126030	-1.559604	0.670606	-0.134584	-1.604286	0.620307	-0.133474	-1.551045	0.620447	-0.139532	-1.557470	0.427738	-0.175246	-1.546853	0.427150	-0.287561	-1.705989	0.438766	-0.164513	-1.692976	0.392186	-0.170154	-1.754155	0.424036	-0.171919	-1.743473	0.384760	-0.176618	-1.950518	0.363160	-0.202447	-1.937256	0.347621	-0.294077	-1.996443	0.228510	-0.154159	-1.984011	0.185599	-0.270260	-1.954750	0.177027	-0.214999	-2.007058	0.415859	-0.278509	-1.520139	0.691493	-0.475232	-1.476869	0.717409	-0.470292	-1.507190	0.651830	-0.469162	-1.463977	0.674994	-0.470216	-1.384230	0.523242	-0.441427	-1.393552	0.512363	-0.343122	-1.439418	0.405157	-0.492611	-1.390157	0.404502	-0.474374	-1.441613	0.348535	-0.497780	-1.393885	0.351208	-0.480914	-1.436320	0.118066	-0.491021	-1.423254	0.126956	-0.406227	-1.313460	0.046160	-0.522624	-1.306318	0.069102	-0.405443	-1.261385	0.089280	-0.461776	-1.512598	0.077523	-0.450571	-1.519407	1.390072	-0.152880	-1.538114	1.376929	-0.479852	
5	0.0200	-1.509917	0.926875	-0.179986	-1.520770	0.937156	-0.405535	-1.701657	0.927808	-0.225059	-1.697551	0.934882	-0.316501	-1.594655	0.666281	-0.124090	-1.538234	0.670891	-0.131754	-1.581215	0.619614	-0.130924	-1.528025	0.621134	-0.136247	-1.527969	0.429501	-0.171217	-1.517222	0.428933	-0.283650	-1.676008	0.438219	-0.160755	-1.662356	0.391836	-0.166167	-1.724032	0.422900	-0.168053	-1.712771	0.383573	-0.172653	-1.919807	0.358746	-0.198893	-1.905969	0.343156	-0.290126	-1.962270	0.223528	-0.149985	-1.948498	0.180430	-0.265343	-1.918995	0.172980	-0.210034	-1.977555	0.409876	-0.275130	-1.506794	0.689595	-0.474143	-1.463442	0.715221	-0.469677	-1.494198	0.649852	-0.468018	-1.450919	0.672768	-0.469586	-1.371829	0.520152	-0.440740	-1.380529	0.509626	-0.342232	-1.429121	0.403676	-0.491353	-1.379840	0.401695	-0.473226	-1.432808	0.347220	-0.496547	-1.385120	0.348599	-0.479682	-1.434499	0.117680	-0.489798	-1.421594	0.125636	-0.404844	-1.313094	0.044909	-0.522617	-1.305443	0.066642	-0.404879	-1.260019	0.085903	-0.460986	-1.512360	0.077825	-0.449737	-1.504987	1.388435	-0.151107	-1.520479	1.374653	-0.478953	
6	0.0250	-1.494384	0.924759	-0.178985	-1.505497	0.935613	-0.404837	-1.686112	0.924949	-0.224399	-1.682028	0.932393	-0.315886	-1.573064	0.665264	-0.122107	-1.516698	0.671495	-0.128874	-1.557931	0.619230	-0.128339	-1.504817	0.622183	-0.132919	-1.498213	0.431673	-0.167142	-1.487339	0.431135	-0.279684	-1.645699	0.437836	-0.156930	-1.631342	0.391703	-0.162116	-1.693534	0.421837	-0.164107	-1.681629	0.382515	-0.168608	-1.888511	0.353989	-0.195250	-1.874066	0.338426	-0.286063	-1.927274	0.218188	-0.145763	-1.912088	0.175034	-0.260370	-1.882359	0.168724	-0.205020	-1.947493	0.403418	-0.271604	-1.493264	0.687734	-0.472996	-1.449816	0.713044	-0.468973	-1.481042	0.647905	-0.466824	-1.437685	0.670551	-0.468876	-1.359399	0.517031	-0.440019	-1.367503	0.506821	-0.341301	-1.418895	0.402230	-0.490092	-1.369610	0.398902	-0.472095	-1.424087	0.345959	-0.495305	-1.376449	0.346026	-0.478470	-1.432762	0.117421	-0.488627	-1.420001	0.124450	-0.403513	-1.312811	0.043676	-0.522629	-1.304664	0.064277	-0.404378	-1.258767	0.082683	-0.460261	-1.512185	0.078226	-0.448932	-1.490462	1.386936	-0.149253	-1.502666	1.372537	-0.477925	
7	0.0300	-1.478682	0.922810	-0.177887	-1.489939	0.934149	-0.404035	-1.670367	0.922274	-0.223722	-1.666299	0.930088	-0.315258	-1.551288	0.664556	-0.120076	-1.495015	0.672464	-0.125942	-1.534454	0.619206	-0.125718	-1.481445	0.623645	-0.129547	-1.468238	0.434305	-0.163027	-1.457244	0.433806	-0.275665	-1.615076	0.437631	-0.153034	-1.599943	0.391816	-0.158000	-1.662661	0.420852	-0.160076	-1.650042	0.381604	-0.164478	-1.856571	0.348851	-0.191508	-1.841487	0.333405	-0.281876	-1.891363	0.212473	-0.141489	-1.874688	0.169416	-0.255342	-1.844757	0.164265	-0.199956	-1.916806	0.396427	-0.267913	-1.479530	0.685927	-0.471781	-1.435970	0.710894	-0.468160	-1.467707	0.646006	-0.465572	-1.424259	0.668356	-0.468071	-1.346943	0.513891	-0.439257	-1.354486	0.503955	-0.340321	-1.408748	0.400838	-0.488829	-1.359480	0.396144	-0.470986	-1.415459	0.344776	-0.494055	-1.367882	0.343514	-0.477281	-1.431099	0.117323	-0.487521	-1.418459	0.123433	-0.402248	-1.312624	0.042471	-0.522661	-1.303999	0.062028	-0.403946	-1.257653	0.079642	-0.459609	-1.512050	0.078771	-0.448166	-1.475838	1.385601	-0.147306	-1.484676	1.370616	-0.476749	
8	0.0350	-1.462805	0.921065	-0.176677	-1.474072	0.932783	-0.403111	-1.654411	0.919815	-0.223024	-1.650350	0.927998	-0.314610	-1.529340	0.664199	-0.117993	-1.473203	0.673838	-0.122957	-1.510804	0.619583	-0.123060	-1.457931	0.625561	-0.126136	-1.438083	0.437435	-0.158875	-1.426980	0.436986	-0.271592	-1.584157	0.437615	-0.149062	-1.568170	0.392197	-0.153818	-1.631415	0.419947	-0.155953	-1.618007	0.380856	-0.160258	-1.823929	0.343303	-0.187654	-1.808179	0.328075	-0.277553	-1.854451	0.206376	-0.137158	-1.836215	0.163591	-0.250257	-1.806111	0.159620	-0.194842	-1.885429	0.388854	-0.264037	-1.465572	0.684193	-0.470486	-1.421884	0.708786	-0.467219	-1.454173	0.644176	-0.464256	-1.410620	0.666199	-0.467152	-1.334460	0.510746	-0.438445	-1.341485	0.501036	-0.339284	-1.398682	0.399525	-0.487564	-1.349456	0.393441	-0.469897	-1.406922	0.343698	-0.492799	-1.359419	0.341088	-0.476120	-1.429491	0.117419	-0.486491	-1.416950	0.122619	-0.401062	-1.312544	0.041305	-0.522714	-1.303461	0.059912	-0.403592	-1.256696	0.076801	-0.459037	-1.511925	0.079511	-0.447444	-1.461117	1.384458	-0.145259	-1.466516	1.368922	-0.475403	
9	0.0400	-1.446744	0.919561	-0.175341	-1.457878	0.931534	-0.402046	-1.638231	0.917603	-0.222297	-1.634167	0.926149	-0.313938	-1.507236	0.664229	-0.115852	-1.451282	0.675650	-0.119917	-1.487004	0.620396	-0.120364	-1.434303	0.627965	-0.122686	-1.407796	0.441092	-0.154692	-1.396598	0.440702	-0.267470	-1.552963	0.437791	-0.145010	-1.536040	0.392863	-0.149568	-1.599803	0.419119	-0.151733	-1.585527	0.380281	-0.155946	-1.790528	0.337324	-0.183676	-1.774091	0.322422	-0.273082	-1.816458	0.199906	-0.132763	-1.796595	0.157586	-0.245115	-1.766353	0.154816	-0.189677	-1.853296	0.380659	-0.259961	-1.451369	0.682552	-0.469104	-1.407536	0.706738	-0.466132	-1.440422	0.642433	-0.462870	-1.396746	0.664099	-0.466104	-1.321942	0.507611	-0.437577	-1.328505	0.498074	-0.338181	-1.388690	0.398311	-0.486299	-1.339533	0.390819	-0.468831	-1.398466	0.342749	-0.491538	-1.351055	0.338775	-0.474988	-1.427915	0.117742	-0.485547	-1.415444	0.122042	-0.399966	-1.312578	0.040190	-0.522788	-1.303061	0.057943	-0.403317	-1.255912	0.074173	-0.458547	-1.511770	0.080498	-0.446775	-1.446301	1.383531	-0.143104	-1.448189	1.367486	-0.473874	
10	0.0450	-1.430493	0.918332	-0.173864	-1.441338	0.930421	-0.400820	-1.621819	0.915665	-0.221536	-1.617739	0.924567	-0.313232	-1.484997	0.664673	-0.113648	-1.429275	0.677923	-0.116825	-1.463082	0.621671	-0.117630	-1.410590	0.630881	-0.119202	-1.377430	0.445291	-0.150485	-1.366155	0.444968	-0.263303	-1.521523	0.438157	-0.140876	-1.503581	0.393824	-0.145251	-1.567841	0.418365	-0.147413	-1.552616	0.379886	-0.151538	-1.756322	0.330904	-0.179565	-1.739183	0.316441	-0.268455	-1.777321	0.193085	-0.128300	-1.755773	0.151439	-0.239916	-1.725435	0.149891	-0.184461	-1.820351	0.371819	-0.255672	-1.436901	0.681024	-0.467624	-1.392905	0.704770	-0.464883	-1.426434	0.640799	-0.461407	-1.382618	0.662072	-0.464911	-1.309379	0.504504	-0.436645	-1.315545	0.495083	-0.337004	-1.378758	0.397221	-0.485033	-1.329702	0.388302	-0.467786	-1.390077	0.341956	-0.490273	-1.342777	0.336603	-0.473888	-1.426336	0.118324	-0.484698	-1.413905	0.121735	-0.398970	-1.312732	0.039142	-0.522882	-1.302805	0.056137	-0.403125	-1.255314	0.071769	-0.458141	-1.511539	0.081787	-0.446164	-1.431391	1.382841	-0.140836	-1.429703	1.366335	-0.472144	
11	0.0500	-1.414047	0.917411	-0.172236	-1.424441	0.929460	-0.399420	-1.605167	0.914026	-0.220732	-1.601056	0.923270	-0.312485	-1.462645	0.665554	-0.111376	-1.407205	0.680669	-0.113680	-1.439071	0.623424	-0.114858	-1.386826	0.634319	-0.115689	-1.347047	0.450034	-0.146260	-1.335719	0.449784	-0.259095	-1.489875	0.438704	-0.136657	-1.470831	0.395081	-0.140872	-1.535552	0.417673	-0.142992	-1.519298	0.379672	-0.147035	-1.721273	0.324043	-0.175312	-1.703428	0.310138	-0.263666	-1.736992	0.185948	-0.123763	-1.713715	0.145198	-0.234662	-1.683327	0.144894	-0.179195	-1.786545	0.362323	-0.251160	-1.422149	0.679629	-0.466040	-1.377973	0.702900	-0.463455	-1.412190	0.639296	-0.459863	-1.368216	0.660140	-0.463558	-1.296758	0.501446	-0.435641	-1.302601	0.492082	-0.335745	-1.368864	0.396280	-0.483767	-1.319945	0.385917	-0.466760	-1.381729	0.341348	-0.489005	-1.334563	0.334601	-0.472818	-1.424715	0.119196	-0.483951	-1.412291	0.121727	-0.398083	-1.313004	0.038174	-0.522995	-1.302694	0.054504	-0.403015	-1.254908	0.069595	-0.457819	-1.511176	0.083437	-0.445617	-1.416390	1.382407	-0.138452	-1.411070	1.365492	-0.470205	
12	0.0550	-1.397403	0.916825	-0.170446	-1.407180	0.928669	-0.397829	-1.588270	0.912706	-0.219876	-1.584113	0.922276	-0.311689	-1.440209	0.666883	-0.109033	-1.385100	0.683891	-0.110486	-1.415010	0.625662	-0.112048	-1.363048	0.638276	-0.112152	-1.316716	0.455306	-0.142028	-1.305363	0.455133	-0.254855	-1.458066	0.439415	-0.132355	-1.437839	0.396630	-0.136432	-1.502969	0.417033	-0.138470	-1.485609	0.379638	-0.142440	-1.685358	0.316754	-0.170911	-1.666813	0.303526	-0.258713	-1.695445	0.178549	-0.119148	-1.670410	0.138923	-0.229356	-1.640025	0.139885	-0.173881	-1.751840	0.352177	-0.246418	-1.407098	0.678386	-0.464344	-1.362726	0.701151	-0.461835	-1.397675	0.637944	-0.458235	-1.353524	0.658323	-0.462035	-1.284061	0.498459	-0.434560	-1.289664	0.489089	-0.334398	-1.358981	0.395512	-0.482498	-1.310236	0.383690	-0.465750	-1.373391	0.340949	-0.487737	-1.326384	0.332799	-0.471779	-1.423002	0.120385	-0.483311	-1.410553	0.122047	-0.397311	-1.313389	0.037305	-0.523123	-1.302723	0.053057	-0.402982	-1.254695	0.067651	-0.457575	-1.510619	0.085503	-0.445135	-1.401301	1.382241	-0.135951	-1.392304	1.364974	-0.468048	
13	0.0600	-1.380560	0.916598	-0.168487	-1.389555	0.928062	-0.396037	-1.571126	0.911719	-0.218959	-1.566906	0.921595	-0.310832	-1.417720	0.668663	-0.106614	-1.362992	0.687578	-0.107246	-1.390940	0.628378	-0.109200	-1.339299	0.642737	-0.108598	-1.286515	0.461078	-0.137799	-1.275169	0.460983	-0.250590	-1.426149	0.440267	-0.127971	-1.404665	0.398455	-0.131938	-1.470135	0.416427	-0.133849	-1.451598	0.379774	-0.137757	-1.648570	0.309061	-0.166358	-1.629342	0.296627	-0.253595	-1.652676	0.170950	-0.114454	-1.625874	0.132684	-0.224003	-1.595551	0.134932	-0.168522	-1.716214	0.341405	-0.241446	-1.391736	0.677315	-0.462533	-1.347152	0.699543	-0.460014	-1.382873	0.636763	-0.456519	-1.338526	0.656641	-0.460331	-1.271269	0.495567	-0.433395	-1.276722	0.486129	-0.332956	-1.349074	0.394941	-0.481228	-1.300546	0.381650	-0.464750	-1.365025	0.340785	-0.486468	-1.318206	0.331224	-0.470767	-1.421145	0.121918	-0.482779	-1.408634	0.122720	-0.396657	-1.313875	0.036553	-0.523262	-1.302882	0.051806	-0.403022	-1.254669	0.065936	-0.457405	-1.509798	0.088040	-0.444721	-1.386128	1.382353	-0.133335	-1.373423	1.364796	-0.465669	
14	0.0650	-1.363521	0.916748	-0.166354	-1.371572	0.927654	-0.394035	-1.553740	0.911076	-0.217973	-1.549438	0.921234	-0.309905	-1.395213	0.670888	-0.104118	-1.340910	0.691710	-0.103964	-1.366909	0.631556	-0.106315	-1.315622	0.647674	-0.105034	-1.256524	0.467306	-0.133584	-1.245224	0.467286	-0.246312	-1.394187	0.441233	-0.123510	-1.371379	0.400536	-0.127398	-1.437103	0.415837	-0.129135	-1.417324	0.380069	-0.132991	-1.610916	0.300999	-0.161650	-1.591035	0.289474	-0.248317	-1.608708	0.163232	-0.109677	-1.580149	0.126558	-0.218610	-1.549951	0.130111	-0.163124	-1.679658	0.330045	-0.236245	-1.376054	0.676435	-0.460603	-1.331244	0.698097	-0.457985	-1.367774	0.635775	-0.454714	-1.323212	0.655116	-0.458440	-1.258358	0.492797	-0.432142	-1.263758	0.483226	-0.331416	-1.339104	0.394589	-0.479953	-1.290835	0.379822	-0.463757	-1.356587	0.340881	-0.485199	-1.309985	0.329904	-0.469779	-1.419084	0.123816	-0.482356	-1.406476	0.123768	-0.396124	-1.314443	0.035942	-0.523408	-1.303152	0.050761	-0.403126	-1.254816	0.064442	-0.457299	-1.508641	0.091102	-0.444373	-1.370875	1.382750	-0.130605	-1.354449	1.364966	-0.463067	
15	0.0700	-1.346289	0.917286	-0.164046	-1.353245	0.927457	-0.391817	-1.536115	0.910785	-0.216906	-1.531713	0.921197	-0.308897	-1.372727	0.673542	-0.101542	-1.318889	0.696252	-0.100647	-1.342965	0.635168	-0.103394	-1.292062	0.653043	-0.101468	-1.226831	0.473932	-0.129396	-1.215621	0.473980	-0.242031	-1.362251	0.442278	-0.118977	-1.338060	0.402841	-0.122820	-1.403933	0.415242	-0.124335	-1.382859	0.380504	-0.128153	-1.572420	0.292616	-0.156791	-1.551933	0.282106	-0.242885	-1.563586	0.155481	-0.104820	-1.533303	0.120631	-0.213183	-1.503299	0.125505	-0.157694	-1.642182	0.318154	-0.230824	-1.360047	0.675762	-0.458553	-1.315000	0.696834	-0.455743	-1.352369	0.634997	-0.452820	-1.307577	0.653769	-0.456358	-1.245306	0.490175	-0.430796	-1.250751	0.480409	-0.329772	-1.329026	0.394478	-0.478672	-1.281061	0.378233	-0.462762	-1.348029	0.341257	-0.483931	-1.301676	0.328865	-0.468811	-1.416753	0.126099	-0.482037	-1.404013	0.125209	-0.395708	-1.315066	0.035495	-0.523554	-1.303506	0.049932	-0.403284	-1.255115	0.063163	-0.457248	-1.507068	0.094734	-0.444089	-1.355549	1.383430	-0.127768	-1.335405	1.365486	-0.460245	
16	0.0750	-1.328871	0.918219	-0.161565	-1.334592	0.927479	-0.389383	-1.518263	0.910844	-0.215749	-1.513741	0.921479	-0.307797	-1.350301	0.676599	-0.098883	-1.296961	0.701161	-0.097301	-1.319159	0.639176	-0.100435	-1.268665	0.658790	-0.097908	-1.197523	0.480886	-0.125247	-1.186451	0.480988	-0.237759	-1.330413	0.443364	-0.114380	-1.304794	0.405335	-0.118214	-1.370695	0.414619	-0.119459	-1.348282	0.381058	-0.123251	-1.533124	0.283968	-0.151784	-1.512089	0.274571	-0.237309	-1.517379	0.147795	-0.099885	-1.485431	0.114991	-0.207734	-1.455693	0.121200	-0.152241	-1.603809	0.305801	-0.225193	-1.343715	0.675312	-0.456383	-1.298423	0.695774	-0.453289	-1.336654	0.634446	-0.450838	-1.291616	0.652620	-0.454084	-1.232086	0.487728	-0.429355	-1.237675	0.477706	-0.328023	-1.318791	0.394627	-0.477383	-1.271177	0.376906	-0.461759	-1.339296	0.341932	-0.482662	-1.293226	0.328131	-0.467856	-1.414087	0.128780	-0.481817	-1.401180	0.127058	-0.395406	-1.315713	0.035238	-0.523692	-1.303912	0.049330	-0.403484	-1.255536	0.062088	-0.457240	-1.505001	0.098978	-0.443862	-1.340157	1.384391	-0.124831	-1.316319	1.366352	-0.457211	
17	0.0800	-1.311274	0.919543	-0.158914	-1.315640	0.927728	-0.386735	-1.500194	0.911251	-0.214492	-1.495534	0.922074	-0.306592	-1.327974	0.680024	-0.096142	-1.275158	0.706383	-0.093931	-1.295543	0.643532	-0.097440	-1.245477	0.664851	-0.094361	-1.168687	0.488085	-0.121151	-1.157806	0.488222	-0.233510	-1.298751	0.444449	-0.109728	-1.271671	0.407976	-0.113591	-1.337461	0.413943	-0.114517	-1.313681	0.381707	-0.118299	-1.493085	0.275117	-0.146636	-1.471576	0.266922	-0.231604	-1.470180	0.140276	-0.094877	-1.436649	0.109728	-0.202273	-1.407254	0.117284	-0.146775	-1.564581	0.293071	-0.219367	-1.327061	0.675097	-0.454095	-1.281518	0.694934	-0.450626	-1.320626	0.634136	-0.448770	-1.275330	0.651688	-0.451621	-1.218669	0.485484	-0.427816	-1.224502	0.475145	-0.326168	-1.308347	0.395051	-0.476083	-1.261130	0.375864	-0.460738	-1.330334	0.342923	-0.481392	-1.284582	0.327721	-0.466906	-1.411017	0.131871	-0.481686	-1.397908	0.129325	-0.395210	-1.316341	0.035199	-0.523816	-1.304327	0.048965	-0.403711	-1.256040	0.061207	-0.457260	-1.502359	0.103868	-0.443685	-1.324707	1.385624	-0.121800	-1.297220	1.367555	-0.453973	
18	0.0850	-1.293510	0.921249	-0.156101	-1.296417	0.928210	-0.383877	-1.481923	0.911995	-0.213123	-1.477109	0.922971	-0.305272	-1.305786	0.683774	-0.093316	-1.253509	0.711856	-0.090544	-1.272164	0.648179	-0.094409	-1.222537	0.671150	-0.090835	-1.140408	0.495438	-0.117120	-1.129777	0.495587	-0.229295	-1.267345	0.445488	-0.105032	-1.238786	0.410716	-0.108963	-1.304311	0.413190	-0.109523	-1.279147	0.382421	-0.113308	-1.452376	0.266134	-0.141358	-1.430479	0.259218	-0.225785	-1.422103	0.133029	-0.089801	-1.387096	0.104931	-0.196812	-1.358123	0.113841	-0.141308	-1.524557	0.280059	-0.213365	-1.310092	0.675128	-0.451693	-1.264298	0.694332	-0.447762	-1.304288	0.634078	-0.446618	-1.258724	0.650990	-0.448975	-1.205028	0.483467	-0.426179	-1.211199	0.472755	-0.324207	-1.297641	0.395763	-0.474766	-1.250870	0.375124	-0.459692	-1.321084	0.344239	-0.480118	-1.275685	0.327652	-0.465954	-1.407473	0.135377	-0.481631	-1.394132	0.132014	-0.395107	-1.316903	0.035407	-0.523915	-1.304702	0.048848	-0.403950	-1.256579	0.060510	-0.457296	-1.499063	0.109427	-0.443545	-1.309205	1.387115	-0.118687	-1.278135	1.369082	-0.450543	
19	0.0900	-1.275587	0.923319	-0.153136	-1.276958	0.928925	-0.380821	-1.463468	0.913063	-0.211635	-1.458484	0.924152	-0.303825	-1.283773	0.687800	-0.090407	-1.232043	0.717510	-0.087147	-1.249069	0.653052	-0.091340	-1.199886	0.677605	-0.087336	-1.112764	0.502848	-0.113166	-1.102444	0.502978	-0.225128	-1.236270	0.446437	-0.100305	-1.206232	0.413504	-0.104341	-1.271324	0.412333	-0.104492	-1.244776	0.383170	-0.108294	-1.411082	0.257094	-0.135963	-1.388897	0.251519	-0.219872	-1.373283	0.126156	-0.084668	-1.336929	0.100684	-0.191364	-1.308459	0.110953	-0.135852	-1.483808	0.266868	-0.207210	-1.292820	0.675409	-0.449182	-1.246776	0.693980	-0.444707	-1.287644	0.634280	-0.444387	-1.241806	0.650539	-0.446154	-1.191134	0.481700	-0.424445	-1.197731	0.470560	-0.322140	-1.286620	0.396770	-0.473430	-1.240339	0.374701	-0.458609	-1.311488	0.345887	-0.478837	-1.266478	0.327936	-0.464990	-1.403388	0.139297	-0.481636	-1.389786	0.135127	-0.395085	-1.317344	0.035893	-0.523980	-1.304981	0.048993	-0.404186	-1.257099	0.059985	-0.457331	-1.495040	0.115669	-0.443429	-1.293661	1.388847	-0.115500	-1.259095	1.370912	-0.446937	
20	0.0950	-1.257519	0.925729	-0.150032	-1.257301	0.929873	-0.377578	-1.444846	0.914434	-0.210016	-1.439679	0.925598	-0.302241	-1.261971	0.692045	-0.087413	-1.210781	0.723268	-0.083745	-1.226301	0.658083	-0.088232	-1.177556	0.684127	-0.083869	-1.085827	0.510213	-0.109300	-1.075882	0.510287	-0.221020	-1.205603	0.447250	-0.095558	-1.174098	0.416287	-0.099737	-1.238579	0.411351	-0.099438	-1.210663	0.383923	-0.103272	-1.369303	0.248074	-0.130466	-1.346941	0.243887	-0.213886	-1.323870	0.119758	-0.079487	-1.286319	0.097064	-0.185944	-1.258435	0.108693	-0.130421	-1.442421	0.253608	-0.200928	-1.275257	0.675945	-0.446570	-1.228970	0.693889	-0.441476	-1.270702	0.634744	-0.442079	-1.224587	0.650346	-0.443171	-1.176957	0.480204	-0.422614	-1.184058	0.468586	-0.319972	-1.275231	0.398078	-0.472067	-1.229485	0.374604	-0.457481	-1.301489	0.347870	-0.477545	-1.256904	0.328581	-0.464003	-1.398699	0.143629	-0.481683	-1.384809	0.138659	-0.395126	-1.317600	0.036687	-0.524000	-1.305099	0.049412	-0.404399	-1.257536	0.059625	-0.457352	-1.490219	0.122596	-0.443319	-1.278081	1.390799	-0.112251	-1.240127	1.373021	-0.443171	
21	0.1000	-1.239316	0.928447	-0.146804	-1.237486	0.931048	-0.374166	-1.426076	0.916086	-0.208260	-1.420717	0.927285	-0.300511	-1.240408	0.696447	-0.084336	-1.189741	0.729051	-0.080344	-1.203894	0.663196	-0.085083	-1.155574	0.690623	-0.080440	-1.059658	0.517430	-0.105532	-1.050155	0.517405	-0.216983	-1.175414	0.447883	-0.090807	-1.142474	0.419012	-0.095163	-1.206157	0.410220	-0.094378	-1.176902	0.384646	-0.098256	-1.327150	0.239149	-0.124886	-1.304728	0.236385	-0.207851	-1.274028	0.113926	-0.074271	-1.235450	0.094140	-0.180566	-1.208235	0.107125	-0.125030	-1.400498	0.240392	-0.194545	-1.257421	0.676734	-0.443864	-1.210900	0.694063	-0.438085	-1.253471	0.635471	-0.439701	-1.207081	0.650419	-0.440041	-1.162470	0.478994	-0.420689	-1.170141	0.466852	-0.317705	-1.263422	0.399684	-0.470673	-1.218255	0.374837	-0.456298	-1.291034	0.350184	-0.476234	-1.246907	0.329586	-0.462981	-1.393345	0.148362	-0.481750	-1.379144	0.142602	-0.395208	-1.317604	0.037818	-0.523965	-1.304986	0.050116	-0.404575	-1.257818	0.059423	-0.457343	-1.484539	0.130200	-0.443196	-1.262473	1.392945	-0.108951	-1.221260	1.375380	-0.439263	
22	0.1050	-1.220991	0.931437	-0.143468	-1.217552	0.932444	-0.370603	-1.407178	0.917989	-0.206358	-1.401620	0.929185	-0.298625	-1.219111	0.700940	-0.081177	-1.168938	0.734777	-0.076949	-1.181880	0.668315	-0.081893	-1.133961	0.697000	-0.077051	-1.034307	0.524399	-0.101868	-1.025315	0.524226	-0.213025	-1.145766	0.448297	-0.086064	-1.111437	0.421624	-0.090631	-1.174131	0.408920	-0.089329	-1.143584	0.385307	-0.093262	-1.284741	0.230396	-0.119242	-1.262384	0.229071	-0.201791	-1.223935	0.108741	-0.069033	-1.184513	0.091966	-0.175243	-1.158048	0.106298	-0.119694	-1.358150	0.227334	-0.188092	-1.239331	0.677770	-0.441072	-1.192590	0.694505	-0.434555	-1.235964	0.636453	-0.437257	-1.189304	0.650759	-0.436779	-1.147643	0.478083	-0.418674	-1.155939	0.465373	-0.315344	-1.251146	0.401582	-0.469239	-1.206598	0.375402	-0.455049	-1.280070	0.352820	-0.474899	-1.236436	0.330949	-0.461914	-1.387273	0.153483	-0.481813	-1.372741	0.146941	-0.395309	-1.317281	0.039317	-0.523863	-1.304565	0.051119	-0.404695	-1.257866	0.059376	-0.457291	-1.477947	0.138457	-0.443038	-1.246843	1.395258	-0.105609	-1.202519	1.377956	-0.435232	
23	0.1100	-1.202555	0.934654	-0.140042	-1.197542	0.934048	-0.366910	-1.388172	0.920111	-0.204306	-1.382413	0.931269	-0.296578	-1.198098	0.705456	-0.077938	-1.148379	0.740364	-0.073563	-1.160280	0.673362	-0.078658	-1.112731	0.703164	-0.073704	-1.009813	0.531020	-0.098315	-1.001398	0.530648	-0.209156	-1.116716	0.448454	-0.081345	-1.081059	0.424072	-0.086152	-1.142572	0.407434	-0.084307	-1.110792	0.385875	-0.088306	-1.242203	0.221884	-0.113556	-1.220041	0.222001	-0.195732	-1.173775	0.104270	-0.063789	-1.133704	0.090580	-0.169991	-1.108069	0.106248	-0.114426	-1.315500	0.214542	-0.181601	-1.221006	0.679043	-0.438206	-1.174063	0.695211	-0.430907	-1.218194	0.637681	-0.434752	-1.171274	0.651365	-0.433405	-1.132453	0.477477	-0.416572	-1.141410	0.464160	-0.312893	-1.238359	0.403762	-0.467757	-1.194467	0.376290	-0.453725	-1.268552	0.355765	-0.473531	-1.225442	0.332661	-0.460789	-1.380436	0.158972	-0.481847	-1.365557	0.151658	-0.395404	-1.316555	0.041207	-0.523684	-1.303758	0.052431	-0.404745	-1.257599	0.059481	-0.457182	-1.470400	0.147335	-0.442819	-1.231198	1.397707	-0.102235	-1.183926	1.380713	-0.431097	
24	0.1150	-1.184020	0.938052	-0.136545	-1.177495	0.935846	-0.363111	-1.369076	0.922417	-0.202098	-1.363120	0.933504	-0.294364	-1.177386	0.709927	-0.074622	-1.128069	0.745732	-0.070189	-1.139111	0.678259	-0.075377	-1.091889	0.709026	-0.070400	-0.986199	0.537205	-0.094876	-0.978427	0.536574	-0.205381	-1.088311	0.448323	-0.076664	-1.051403	0.426308	-0.081735	-1.111544	0.405749	-0.079330	-1.078604	0.386319	-0.083401	-1.199670	0.213679	-0.107853	-1.177830	0.215224	-0.189701	-1.123739	0.100566	-0.058554	-1.083218	0.090005	-0.164823	-1.058491	0.106994	-0.109241	-1.272679	0.202123	-0.175104	-1.202469	0.680538	-0.435274	-1.155343	0.696175	-0.427163	-1.200177	0.639140	-0.432190	-1.153010	0.652230	-0.429939	-1.116873	0.477176	-0.414389	-1.126512	0.463218	-0.310360	-1.225025	0.406208	-0.466218	-1.181821	0.377492	-0.452317	-1.256441	0.358999	-0.472119	-1.213883	0.334704	-0.459593	-1.372796	0.164807	-0.481824	-1.357558	0.156729	-0.395466	-1.315344	0.043512	-0.523417	-1.302479	0.054061	-0.404708	-1.256926	0.059741	-0.457006	-1.461867	0.156785	-0.442514	-1.215543	1.400259	-0.098838	-1.165502	1.383615	-0.426879	
25	0.1200	-1.165398	0.941579	-0.132996	-1.157450	0.937821	-0.359229	-1.349910	0.924867	-0.199733	-1.343763	0.935853	-0.291980	-1.156982	0.714283	-0.071231	-1.108005	0.750803	-0.066830	-1.118379	0.682933	-0.072048	-1.071437	0.714500	-0.067136	-0.963476	0.542869	-0.091554	-0.956410	0.541921	-0.201706	-1.060590	0.447877	-0.072034	-1.022517	0.428287	-0.077390	-1.081105	0.403854	-0.074414	-1.047089	0.386613	-0.078563	-1.157277	0.205836	-0.102158	-1.135885	0.208783	-0.183724	-1.074019	0.097660	-0.053347	-1.033250	0.090245	-0.159752	-1.009503	0.108534	-0.104153	-1.229823	0.190171	-0.168634	-1.183741	0.682235	-0.432288	-1.136455	0.697381	-0.423348	-1.181928	0.640808	-0.429578	-1.134532	0.653341	-0.426401	-1.100883	0.477176	-0.412130	-1.111208	0.462549	-0.307749	-1.211111	0.408899	-0.464614	-1.168623	0.378989	-0.450817	-1.243701	0.362501	-0.470652	-1.201721	0.337061	-0.458315	-1.364322	0.170960	-0.481714	-1.348716	0.162127	-0.395465	-1.313566	0.046250	-0.523051	-1.300645	0.056017	-0.404572	-1.255757	0.060161	-0.456751	-1.452330	0.166750	-0.442094	-1.199882	1.402879	-0.095426	-1.147264	1.386619	-0.422596	
26	0.1250	-1.146698	0.945182	-0.129415	-1.137444	0.939949	-0.355288	-1.330692	0.927419	-0.197210	-1.324366	0.938280	-0.289425	-1.136890	0.718457	-0.067769	-1.088182	0.755506	-0.063485	-1.098084	0.687314	-0.068671	-1.051367	0.719507	-0.063911	-0.941640	0.547943	-0.088347	-0.935339	0.546615	-0.198133	-1.033580	0.447098	-0.067469	-0.994442	0.429971	-0.073125	-1.051304	0.401743	-0.069574	-1.016304	0.386731	-0.073805	-1.115163	0.198404	-0.096494	-1.094339	0.202712	-0.177829	-1.024808	0.095567	-0.048183	-0.983990	0.091283	-0.154790	-0.961290	0.110848	-0.099176	-1.187078	0.178772	-0.162225	-1.164844	0.684110	-0.429257	-1.117424	0.698813	-0.419487	-1.163465	0.642661	-0.426919	-1.115858	0.654682	-0.422813	-1.084463	0.477466	-0.409801	-1.095460	0.462145	-0.305068	-1.196591	0.411811	-0.462932	-1.154842	0.380762	-0.449216	-1.230306	0.366241	-0.469119	-1.188927	0.339703	-0.456943	-1.354994	0.177400	-0.481490	-1.339013	0.167819	-0.395374	-1.311138	0.049434	-0.522576	-1.298169	0.058301	-0.404325	-1.253999	0.060745	-0.456411	-1.441782	0.177162	-0.441531	-1.184219	1.405530	-0.092006	-1.129228	1.389686	-0.418268	
27	0.1300	-1.127931	0.948806	-0.125819	-1.117508	0.942207	-0.351313	-1.311438	0.930031	-0.194529	-1.304950	0.940747	-0.286700	-1.117106	0.722386	-0.064241	-1.068590	0.759775	-0.060156	-1.078219	0.691336	-0.065246	-1.031665	0.723979	-0.060722	-0.920675	0.552366	-0.085254	-0.915191	0.550597	-0.194664	-1.007301	0.445973	-0.062982	-0.967202	0.431327	-0.068947	-1.022181	0.399415	-0.064825	-0.986297	0.386653	-0.069141	-1.073464	0.191420	-0.090890	-1.053320	0.197036	-0.172040	-0.976295	0.094279	-0.043082	-0.935618	0.093083	-0.149950	-0.914025	0.113897	-0.094321	-1.144587	0.168000	-0.155909	-1.145797	0.686136	-0.426192	-1.098270	0.700448	-0.415601	-1.144801	0.644670	-0.424218	-1.097007	0.656232	-0.419195	-1.067596	0.478032	-0.407408	-1.079233	0.461997	-0.302322	-1.181448	0.414916	-0.461164	-1.140454	0.382782	-0.447509	-1.216238	0.370188	-0.467506	-1.175478	0.342603	-0.455465	-1.344799	0.184091	-0.481122	-1.328442	0.173771	-0.395161	-1.307977	0.053069	-0.521983	-1.294966	0.060914	-0.403957	-1.251558	0.061504	-0.455978	-1.430227	0.187940	-0.440794	-1.168558	1.408177	-0.088582	-1.111403	1.392774	-0.413911	
28	0.1350	-1.109108	0.952396	-0.122227	-1.097672	0.944567	-0.347329	-1.292165	0.932656	-0.191695	-1.285536	0.943212	-0.283809	-1.097624	0.726010	-0.060654	-1.049216	0.763552	-0.056842	-1.058769	0.694941	-0.061772	-1.012314	0.727856	-0.057564	-0.900548	0.556094	-0.082269	-0.895929	0.553826	-0.191298	-0.981759	0.444497	-0.058585	-0.940813	0.432329	-0.064865	-0.993769	0.396872	-0.060180	-0.957106	0.386362	-0.064581	-1.032318	0.184911	-0.085369	-1.012953	0.191771	-0.166383	-0.928663	0.093769	-0.038060	-0.888304	0.095588	-0.145240	-0.867869	0.117619	-0.089600	-1.102500	0.157911	-0.149717	-1.126621	0.688280	-0.423103	-1.079015	0.702258	-0.411716	-1.125951	0.646801	-0.421480	-1.077997	0.657963	-0.415568	-1.050269	0.478850	-0.404956	-1.062497	0.462088	-0.299518	-1.165668	0.418184	-0.459298	-1.125441	0.385022	-0.445690	-1.201484	0.374309	-0.465799	-1.161356	0.345726	-0.453872	-1.333733	0.190996	-0.480582	-1.317001	0.179942	-0.394799	-1.304006	0.057155	-0.521265	-1.290953	0.063851	-0.403461	-1.248342	0.062447	-0.455450	-1.417683	0.198999	-0.439855	-1.152899	1.410781	-0.085158	-1.093799	1.395842	-0.409542	
29	0.1400	-1.090237	0.955898	-0.118653	-1.077962	0.946997	-0.343356	-1.272885	0.935247	-0.188713	-1.266142	0.945637	-0.280758	-1.078430	0.729276	-0.057013	-1.030045	0.766790	-0.053540	-1.039713	0.698080	-0.058254	-0.993290	0.731090	-0.054433	-0.881219	0.559096	-0.079388	-0.877502	0.556272	-0.188034	-0.956954	0.442671	-0.054289	-0.915274	0.432959	-0.060883	-0.966091	0.394119	-0.055654	-0.928757	0.385844	-0.060138	-0.991856	0.178892	-0.079959	-0.973356	0.186924	-0.160882	-0.882087	0.093988	-0.033138	-0.842207	0.098722	-0.140672	-0.822972	0.121935	-0.085023	-1.060963	0.148548	-0.143679	-1.107331	0.690508	-0.419997	-1.059675	0.704212	-0.407850	-1.106929	0.649018	-0.418708	-1.058840	0.659846	-0.411950	-1.032470	0.479897	-0.402453	-1.045226	0.462398	-0.296662	-1.149247	0.421581	-0.457323	-1.109791	0.387448	-0.443754	-1.186038	0.378567	-0.463985	-1.146552	0.349036	-0.452153	-1.321801	0.198075	-0.479842	-1.304698	0.186292	-0.394258	-1.299148	0.061683	-0.520414	-1.286053	0.067101	-0.402832	-1.244262	0.063585	-0.454823	-1.404178	0.210245	-0.438685	-1.137244	1.413306	-0.081735	-1.076419	1.398849	-0.405175	
30	0.1450	-1.071328	0.959261	-0.115112	-1.058396	0.949465	-0.339416	-1.253613	0.937759	-0.185589	-1.246785	0.947979	-0.277554	-1.059508	0.732135	-0.053327	-1.011059	0.769449	-0.050251	-1.021024	0.700711	-0.054693	-0.974566	0.733644	-0.051324	-0.862632	0.561355	-0.076604	-0.859850	0.557927	-0.184869	-0.932873	0.440505	-0.050105	-0.890576	0.433204	-0.057007	-0.939160	0.391168	-0.051257	-0.901263	0.385090	-0.055822	-0.952205	0.173366	-0.074683	-0.934641	0.182489	-0.155559	-0.836730	0.094870	-0.028331	-0.797471	0.102393	-0.136255	-0.779465	0.126748	-0.080601	-1.020121	0.139938	-0.137824	-1.087941	0.692782	-0.416883	-1.040264	0.706275	-0.404024	-1.087745	0.651284	-0.415906	-1.039550	0.661848	-0.408357	-1.014191	0.481144	-0.399904	-1.027398	0.462904	-0.293760	-1.132185	0.425072	-0.455230	-1.093498	0.390025	-0.441700	-1.169903	0.382924	-0.462050	-1.131063	0.352495	-0.450302	-1.309014	0.205283	-0.478878	-1.291545	0.192774	-0.393514	-1.293332	0.066637	-0.519426	-1.280189	0.070647	-0.402066	-1.239233	0.064928	-0.454097	-1.389748	0.221580	-0.437256	-1.121594	1.415716	-0.078314	-1.059266	1.401755	-0.400824	
31	0.1500	-1.052389	0.962436	-0.111615	-1.038992	0.951937	-0.335526	-1.234360	0.940145	-0.182332	-1.227479	0.950199	-0.274209	-1.040838	0.734548	-0.049603	-0.992239	0.771502	-0.046971	-1.002672	0.702804	-0.051095	-0.956112	0.735497	-0.048232	-0.844725	0.562870	-0.073908	-0.842898	0.558795	-0.181798	-0.909498	0.438012	-0.046040	-0.866698	0.433061	-0.053243	-0.912983	0.388030	-0.046999	-0.874628	0.384095	-0.051642	-0.913487	0.168328	-0.069566	-0.896911	0.178453	-0.150434	-0.792746	0.096328	-0.023659	-0.754225	0.106490	-0.131996	-0.737463	0.131945	-0.076343	-0.980115	0.132092	-0.132177	-1.068462	0.695063	-0.413768	-1.020793	0.708412	-0.400253	-1.068407	0.653556	-0.413077	-1.020136	0.663931	-0.404805	-0.995425	0.482557	-0.397313	-1.008994	0.463579	-0.290817	-1.114489	0.428624	-0.453007	-1.076561	0.392717	-0.439524	-1.153085	0.387340	-0.459981	-1.114888	0.356061	-0.448312	-1.295389	0.212577	-0.477666	-1.277561	0.199341	-0.392542	-1.286495	0.071991	-0.518294	-1.273295	0.074468	-0.401163	-1.233175	0.066484	-0.453273	-1.374437	0.232904	-0.435543	-1.105948	1.417975	-0.074894	-1.042339	1.404524	-0.396499	
32	0.1550	-1.033429	0.965376	-0.108173	-1.019758	0.954374	-0.331703	-1.215135	0.942359	-0.178953	-1.208238	0.952256	-0.270732	-1.022395	0.736484	-0.045851	-0.973566	0.772933	-0.043699	-0.984620	0.704336	-0.047468	-0.937897	0.736637	-0.045152	-0.827425	0.563654	-0.071293	-0.826567	0.558898	-0.178818	-0.886802	0.435216	-0.042105	-0.843609	0.432532	-0.049594	-0.887557	0.384724	-0.042890	-0.848847	0.382858	-0.047608	-0.875813	0.163759	-0.064628	-0.860259	0.174794	-0.145525	-0.750270	0.098265	-0.019138	-0.712581	0.110891	-0.127903	-0.697065	0.137399	-0.072256	-0.941080	0.125003	-0.126760	-1.048898	0.697311	-0.410658	-1.001268	0.710583	-0.396551	-1.048920	0.655795	-0.410223	-1.000602	0.666059	-0.401306	-0.976170	0.484104	-0.394686	-0.990002	0.464396	-0.287838	-1.096170	0.432200	-0.450646	-1.058985	0.395488	-0.437227	-1.135596	0.391778	-0.457764	-1.098036	0.359696	-0.446179	-1.280947	0.219910	-0.476187	-1.262769	0.205946	-0.391320	-1.278578	0.077714	-0.517016	-1.265306	0.078535	-0.400124	-1.226015	0.068260	-0.452355	-1.358293	0.244114	-0.433522	-1.090303	1.420050	-0.071472	-1.025634	1.407121	-0.392209	
33	0.1600	-1.014456	0.968042	-0.104791	-1.000700	0.956739	-0.327958	-1.195947	0.944357	-0.175462	-1.189069	0.954110	-0.267139	-1.004154	0.737917	-0.042082	-0.955019	0.773734	-0.040433	-0.966829	0.705296	-0.043818	-0.919886	0.737068	-0.042080	-0.810654	0.563732	-0.068749	-0.810768	0.558275	-0.175922	-0.864748	0.432142	-0.038305	-0.821266	0.431626	-0.046066	-0.862870	0.381269	-0.038937	-0.823901	0.381382	-0.043729	-0.839286	0.159633	-0.059890	-0.824770	0.171482	-0.140848	-0.709424	0.100565	-0.014784	-0.672636	0.115464	-0.123985	-0.658350	0.142974	-0.068349	-0.903146	0.118652	-0.121593	-1.029254	0.699485	-0.407557	-0.981689	0.712748	-0.392928	-1.029284	0.657960	-0.407346	-0.980949	0.668192	-0.397868	-0.956423	0.485750	-0.392026	-0.970414	0.465326	-0.284827	-1.077240	0.435766	-0.448139	-1.040777	0.398302	-0.434810	-1.117452	0.396198	-0.455388	-1.080516	0.363358	-0.443898	-1.265714	0.227234	-0.474424	-1.247195	0.212538	-0.389830	-1.269530	0.083762	-0.515591	-1.256170	0.082812	-0.398950	-1.217686	0.070260	-0.451344	-1.341370	0.255111	-0.431174	-1.074657	1.421910	-0.068043	-1.009142	1.409513	-0.387961	
34	0.1650	-0.995476	0.970396	-0.101473	-0.981819	0.958995	-0.324301	-1.176801	0.946099	-0.171872	-1.169982	0.955725	-0.263442	-0.986086	0.738834	-0.038305	-0.936577	0.773912	-0.037170	-0.949258	0.705682	-0.040157	-0.902045	0.736806	-0.039012	-0.794327	0.563142	-0.066270	-0.795410	0.556973	-0.173106	-0.843299	0.428821	-0.034646	-0.799623	0.430359	-0.042662	-0.838907	0.377686	-0.035147	-0.799768	0.379674	-0.040010	-0.803998	0.155915	-0.055370	-0.790519	0.168479	-0.136417	-0.670314	0.103109	-0.010615	-0.634466	0.120069	-0.120247	-0.621379	0.148524	-0.064629	-0.866430	0.113006	-0.116694	-1.009527	0.701546	-0.404468	-0.962056	0.714868	-0.389391	-1.009498	0.660012	-0.404449	-0.961176	0.670293	-0.394499	-0.936185	0.487461	-0.389337	-0.950223	0.466340	-0.281788	-1.057718	0.439290	-0.445478	-1.021947	0.401122	-0.432273	-1.098671	0.400563	-0.452843	-1.062340	0.367010	-0.441468	-1.249713	0.234501	-0.472364	-1.230864	0.219065	-0.388058	-1.259308	0.090087	-0.514017	-1.245837	0.087260	-0.397646	-1.208132	0.072483	-0.450247	-1.323719	0.265794	-0.428484	-1.059004	1.423524	-0.064603	-0.992854	1.411672	-0.383760	
35	0.1700	-0.976496	0.972409	-0.098220	-0.963108	0.961103	-0.320738	-1.157704	0.947546	-0.168197	-1.150979	0.957065	-0.259658	-0.968160	0.739230	-0.034532	-0.918222	0.773481	-0.033909	-0.931864	0.705503	-0.036495	-0.884338	0.735878	-0.035946	-0.778358	0.561932	-0.063847	-0.780398	0.555055	-0.170365	-0.822407	0.425288	-0.031134	-0.778625	0.428749	-0.039387	-0.815642	0.373998	-0.031525	-0.776414	0.377742	-0.036459	-0.770031	0.152566	-0.051085	-0.757568	0.165744	-0.132243	-0.633026	0.105769	-0.006644	-0.598136	0.124564	-0.116696	-0.586196	0.153904	-0.061104	-0.831043	0.108020	-0.112074	-0.989711	0.703457	-0.401393	-0.942360	0.716905	-0.385943	-0.989555	0.661911	-0.401531	-0.941275	0.672324	-0.391201	-0.915458	0.489203	-0.386620	-0.929431	0.467412	-0.278724	-1.037623	0.442742	-0.442659	-1.002507	0.403917	-0.429621	-1.079274	0.404839	-0.450120	-1.043522	0.370613	-0.438890	-1.232972	0.241661	-0.469997	-1.213802	0.225477	-0.385993	-1.247877	0.096634	-0.512293	-1.234268	0.091832	-0.396216	-1.197302	0.074923	-0.449066	-1.305391	0.276071	-0.425437	-1.043339	1.424867	-0.061145	-0.976757	1.413571	-0.379610	
36	0.1750	-0.957523	0.974055	-0.095031	-0.944560	0.963025	-0.317271	-1.138657	0.948663	-0.164448	-1.132061	0.958096	-0.255801	-0.950345	0.739105	-0.030773	-0.899932	0.772468	-0.030649	-0.914601	0.704776	-0.032845	-0.866731	0.734322	-0.032879	-0.762657	0.560161	-0.061473	-0.765634	0.552593	-0.167694	-0.802025	0.421581	-0.027772	-0.758213	0.426822	-0.036244	-0.793047	0.370232	-0.028075	-0.753801	0.375599	-0.033083	-0.737455	0.149538	-0.047046	-0.725971	0.163231	-0.128335	-0.597630	0.108416	-0.002887	-0.563690	0.128806	-0.113341	-0.552826	0.158965	-0.057780	-0.797082	0.103641	-0.107744	-0.969795	0.705182	-0.398331	-0.922591	0.718823	-0.382584	-0.969446	0.663625	-0.398594	-0.921236	0.674249	-0.387976	-0.894244	0.490947	-0.383878	-0.908038	0.468517	-0.275637	-1.016973	0.446093	-0.439677	-0.982471	0.406656	-0.426855	-1.059281	0.408993	-0.447212	-1.024078	0.374133	-0.436165	-1.215512	0.248665	-0.467318	-1.196031	0.231721	-0.383627	-1.235209	0.103338	-0.510422	-1.221429	0.096477	-0.394665	-1.185155	0.077569	-0.447804	-1.286434	0.285853	-0.422027	-1.027652	1.425915	-0.057663	-0.960835	1.415188	-0.375512	
37	0.1800	-0.938559	0.975316	-0.091902	-0.926158	0.964727	-0.313900	-1.119662	0.949421	-0.160640	-1.113228	0.958791	-0.251888	-0.932609	0.738474	-0.027040	-0.881688	0.770906	-0.027390	-0.897425	0.703529	-0.029218	-0.849188	0.732186	-0.029812	-0.747135	0.557892	-0.059142	-0.751024	0.549664	-0.165089	-0.782100	0.417740	-0.024564	-0.738322	0.424607	-0.033237	-0.771088	0.366412	-0.024801	-0.731883	0.373261	-0.029885	-0.706326	0.146785	-0.043265	-0.695770	0.160894	-0.124700	-0.564178	0.110923	0.000643	-0.531157	0.132660	-0.110187	-0.521281	0.163567	-0.054666	-0.764636	0.099809	-0.103710	-0.949766	0.706689	-0.395283	-0.902733	0.720589	-0.379311	-0.949158	0.665123	-0.395638	-0.901046	0.676037	-0.384820	-0.872549	0.492665	-0.381109	-0.886052	0.469632	-0.272529	-0.995788	0.449317	-0.436529	-0.961852	0.409312	-0.423980	-1.038712	0.412994	-0.444116	-1.004020	0.377539	-0.433294	-1.197356	0.255464	-0.464327	-1.177571	0.237748	-0.380958	-1.221281	0.110134	-0.508402	-1.207295	0.101140	-0.392995	-1.171657	0.080404	-0.446466	-1.266891	0.295058	-0.418251	-1.011934	1.426647	-0.054150	-0.945070	1.416505	-0.371466	
38	0.1850	-0.919610	0.976178	-0.088825	-0.907885	0.966174	-0.310620	-1.100717	0.949795	-0.156786	-1.094475	0.959122	-0.247935	-0.914918	0.737354	-0.023344	-0.863471	0.768838	-0.024130	-0.880291	0.701794	-0.025628	-0.831677	0.729527	-0.026745	-0.731704	0.555194	-0.056850	-0.736475	0.546351	-0.162546	-0.762580	0.413804	-0.021511	-0.718890	0.422134	-0.030371	-0.749726	0.362564	-0.021703	-0.710615	0.370744	-0.026872	-0.676690	0.144258	-0.039751	-0.666997	0.158685	-0.121341	-0.532702	0.113168	0.003934	-0.500552	0.135996	-0.107241	-0.491554	0.167573	-0.051767	-0.733775	0.096461	-0.099975	-0.929607	0.707953	-0.392244	-0.882770	0.722173	-0.376117	-0.928676	0.666377	-0.392661	-0.880688	0.677659	-0.381729	-0.850377	0.494332	-0.378312	-0.863482	0.470741	-0.269401	-0.974086	0.452393	-0.433215	-0.940662	0.411861	-0.421001	-1.017586	0.416814	-0.440828	-0.983364	0.380802	-0.430283	-1.178518	0.262006	-0.461026	-1.158437	0.243506	-0.377987	-1.206079	0.116947	-0.506237	-1.191846	0.105766	-0.391213	-1.156782	0.083406	-0.445051	-1.246795	0.303612	-0.414111	-0.996172	1.427049	-0.050597	-0.929441	1.417507	-0.367470	
39	0.1900	-0.900676	0.976633	-0.085792	-0.889719	0.967337	-0.307425	-1.081821	0.949766	-0.152898	-1.075793	0.959068	-0.243957	-0.897242	0.735772	-0.019694	-0.845261	0.766312	-0.020870	-0.863155	0.699614	-0.022088	-0.814164	0.726407	-0.023678	-0.716279	0.552139	-0.054592	-0.721896	0.542740	-0.160063	-0.743411	0.409816	-0.018614	-0.699849	0.419436	-0.027647	-0.728923	0.358716	-0.018784	-0.689944	0.368067	-0.024045	-0.648579	0.141907	-0.036508	-0.639675	0.156559	-0.118260	-0.503220	0.115040	0.006976	-0.471876	0.138699	-0.104509	-0.463627	0.170863	-0.049091	-0.704562	0.093530	-0.096539	-0.909298	0.708949	-0.389212	-0.862681	0.723551	-0.372995	-0.907980	0.667369	-0.389662	-0.860144	0.679091	-0.378696	-0.827735	0.495931	-0.375486	-0.840339	0.471829	-0.266252	-0.951885	0.455302	-0.429736	-0.918916	0.414284	-0.417921	-0.995920	0.420430	-0.437348	-0.962119	0.383898	-0.427136	-1.159011	0.268245	-0.457422	-1.138639	0.248948	-0.374719	-1.189593	0.123704	-0.503926	-1.175068	0.110294	-0.389319	-1.140514	0.086544	-0.443560	-1.226172	0.311451	-0.409613	-0.980353	1.427106	-0.046999	-0.913925	1.418184	-0.363522	
40	0.1950	-0.881760	0.976680	-0.082791	-0.871636	0.968189	-0.304306	-1.062967	0.949320	-0.148991	-1.057175	0.958613	-0.239968	-0.879547	0.733763	-0.016101	-0.827041	0.763385	-0.017611	-0.845974	0.697035	-0.018609	-0.796617	0.722896	-0.020615	-0.700780	0.548801	-0.052367	-0.707205	0.538917	-0.157638	-0.724540	0.405814	-0.015874	-0.681137	0.416549	-0.025069	-0.708636	0.354893	-0.016041	-0.669819	0.365251	-0.021408	-0.622013	0.139689	-0.033540	-0.613815	0.154474	-0.115458	-0.475730	0.116439	0.009759	-0.445114	0.140667	-0.101997	-0.437470	0.173330	-0.046642	-0.677041	0.090953	-0.093399	-0.888817	0.709661	-0.386181	-0.842444	0.724703	-0.369932	-0.887053	0.668081	-0.386639	-0.839394	0.680314	-0.375709	-0.804631	0.497447	-0.372627	-0.816636	0.472887	-0.263082	-0.929201	0.458029	-0.426095	-0.896622	0.416566	-0.414744	-0.973729	0.423819	-0.433678	-0.940297	0.386807	-0.423857	-1.138839	0.274133	-0.453525	-1.118180	0.254028	-0.371161	-1.171820	0.130328	-0.501471	-1.156953	0.114666	-0.387314	-1.122839	0.089786	-0.441989	-1.205040	0.318518	-0.404770	-0.964461	1.426812	-0.043347	-0.898495	1.418530	-0.359618	
41	0.2000	-0.862861	0.976324	-0.079809	-0.853607	0.968706	-0.301250	-1.044151	0.948451	-0.145074	-1.038606	0.957745	-0.235982	-0.861802	0.731364	-0.012571	-0.808791	0.760113	-0.014355	-0.828709	0.694107	-0.015204	-0.779007	0.719064	-0.017558	-0.685130	0.545253	-0.050173	-0.692324	0.534966	-0.155269	-0.705918	0.401839	-0.013290	-0.662692	0.413508	-0.022640	-0.688822	0.351122	-0.013475	-0.650189	0.362318	-0.018962	-0.597002	0.137561	-0.030848	-0.589422	0.152393	-0.112931	-0.450219	0.117281	0.012277	-0.420244	0.141820	-0.099712	-0.413041	0.174885	-0.044427	-0.651245	0.088669	-0.090549	-0.868143	0.710078	-0.383145	-0.822037	0.725615	-0.366916	-0.865875	0.668506	-0.383589	-0.818418	0.681315	-0.372760	-0.781074	0.498871	-0.369730	-0.792392	0.473911	-0.259888	-0.906048	0.460563	-0.422295	-0.873792	0.418695	-0.411473	-0.951026	0.426966	-0.429822	-0.917906	0.389512	-0.420453	-1.118003	0.279622	-0.449349	-1.097058	0.258702	-0.367325	-1.152758	0.136741	-0.498872	-1.137497	0.118824	-0.385199	-1.103753	0.093090	-0.440333	-1.183407	0.324765	-0.399598	-0.948480	1.426162	-0.039636	-0.883127	1.418542	-0.355754	
42	0.2050	-0.843978	0.975573	-0.076834	-0.835604	0.968871	-0.298244	-1.025364	0.947158	-0.141160	-1.020074	0.956459	-0.232012	-0.843977	0.728621	-0.009111	-0.790495	0.756558	-0.011102	-0.811321	0.690885	-0.011882	-0.761305	0.714984	-0.014510	-0.669262	0.541563	-0.048010	-0.677183	0.530965	-0.152956	-0.687496	0.397927	-0.010861	-0.644457	0.410345	-0.020362	-0.669442	0.347426	-0.011082	-0.631004	0.359289	-0.016707	-0.573541	0.135488	-0.028429	-0.566488	0.150285	-0.110676	-0.426654	0.117501	0.014523	-0.397229	0.142096	-0.097656	-0.390292	0.175462	-0.042450	-0.627191	0.086624	-0.087982	-0.847254	0.710195	-0.380097	-0.801437	0.726278	-0.363933	-0.844426	0.668640	-0.380508	-0.797196	0.682087	-0.369833	-0.757075	0.500201	-0.366789	-0.767626	0.474903	-0.256668	-0.882439	0.462895	-0.418341	-0.850436	0.420666	-0.408113	-0.927821	0.429854	-0.425787	-0.894951	0.392000	-0.416928	-1.096498	0.284668	-0.444910	-1.075268	0.262929	-0.363225	-1.132411	0.142868	-0.496128	-1.116702	0.122711	-0.382970	-1.083257	0.096413	-0.438585	-1.161270	0.330154	-0.394120	-0.932390	1.425158	-0.035861	-0.867790	1.418221	-0.351925	
43	0.2100	-0.825109	0.974442	-0.073850	-0.817598	0.968672	-0.295273	-1.006599	0.945447	-0.137259	-1.001564	0.954756	-0.228070	-0.826046	0.725580	-0.005727	-0.772134	0.752782	-0.007857	-0.793777	0.687426	-0.008651	-0.743485	0.710730	-0.011476	-0.653115	0.537796	-0.045880	-0.661723	0.526987	-0.150700	-0.669231	0.394113	-0.008584	-0.626380	0.407097	-0.018235	-0.650455	0.343830	-0.008860	-0.612217	0.356188	-0.014642	-0.551619	0.133442	-0.026280	-0.545001	0.148126	-0.108687	-0.404995	0.117052	0.016495	-0.376024	0.141457	-0.095834	-0.369165	0.175017	-0.040713	-0.604885	0.084768	-0.085688	-0.826129	0.710012	-0.377030	-0.780625	0.726690	-0.360966	-0.822691	0.668486	-0.377392	-0.775711	0.682629	-0.366916	-0.732650	0.501438	-0.363798	-0.742360	0.475867	-0.253417	-0.858385	0.465020	-0.414242	-0.826561	0.422475	-0.404664	-0.904125	0.432473	-0.421581	-0.871440	0.394264	-0.413290	-1.074314	0.289229	-0.440229	-1.052795	0.266673	-0.358879	-1.110787	0.148635	-0.493239	-1.094571	0.126276	-0.380622	-1.061356	0.099709	-0.436734	-1.138621	0.334657	-0.388361	-0.916175	1.423804	-0.032017	-0.852458	1.417575	-0.348127	
44	0.2150	-0.806252	0.972950	-0.070841	-0.799559	0.968102	-0.292321	-0.987846	0.943333	-0.133380	-0.983058	0.952642	-0.224165	-0.807983	0.722290	-0.002423	-0.753694	0.748847	-0.004620	-0.776046	0.683784	-0.005517	-0.725525	0.706371	-0.008460	-0.636641	0.534014	-0.043783	-0.645892	0.523100	-0.148501	-0.651086	0.390429	-0.006456	-0.608415	0.403795	-0.016259	-0.631825	0.340357	-0.006804	-0.593784	0.353038	-0.012765	-0.531213	0.131402	-0.024394	-0.524939	0.145901	-0.106956	-0.385185	0.115909	0.018192	-0.356577	0.139887	-0.094246	-0.349601	0.173530	-0.039218	-0.584316	0.083064	-0.083656	-0.804751	0.709537	-0.373934	-0.759582	0.726856	-0.358002	-0.800654	0.668055	-0.374236	-0.753950	0.682943	-0.363995	-0.707813	0.502589	-0.360749	-0.716620	0.476812	-0.250131	-0.833899	0.466936	-0.410003	-0.802179	0.424124	-0.401129	-0.879945	0.434815	-0.417212	-0.847376	0.396301	-0.409544	-1.051438	0.293266	-0.435326	-1.029626	0.269902	-0.354306	-1.087894	0.153972	-0.490203	-1.071115	0.129470	-0.378148	-1.038063	0.102928	-0.434768	-1.115443	0.338252	-0.382352	-0.899816	1.422112	-0.028102	-0.837100	1.416613	-0.344354	
45	0.2200	-0.787404	0.971118	-0.067794	-0.781461	0.967162	-0.289373	-0.969096	0.940834	-0.129533	-0.964542	0.950130	-0.220308	-0.789766	0.718803	0.000800	-0.735161	0.744813	-0.001395	-0.758106	0.680016	-0.002486	-0.707406	0.701977	-0.005467	-0.619797	0.530270	-0.041723	-0.629650	0.519360	-0.146360	-0.633028	0.386904	-0.004473	-0.590526	0.400470	-0.014434	-0.613519	0.337027	-0.004909	-0.575669	0.349862	-0.011072	-0.512292	0.129353	-0.022765	-0.506274	0.143602	-0.105475	-0.367162	0.114068	0.019617	-0.338828	0.137396	-0.092893	-0.331534	0.171005	-0.037963	-0.565462	0.081480	-0.081874	-0.783106	0.708783	-0.370801	-0.738296	0.726784	-0.355024	-0.778306	0.667361	-0.371034	-0.731902	0.683040	-0.361054	-0.682586	0.503666	-0.357635	-0.690436	0.477754	-0.246805	-0.808994	0.468644	-0.405635	-0.777299	0.425618	-0.397508	-0.855291	0.436875	-0.412693	-0.822766	0.398108	-0.405695	-1.027854	0.296742	-0.430225	-1.005743	0.272588	-0.349526	-1.063748	0.158813	-0.487017	-1.046348	0.132252	-0.375540	-1.013393	0.106021	-0.432672	-1.091714	0.340929	-0.376124	-0.883296	1.420095	-0.024115	-0.821689	1.415348	-0.340604	
46	0.2250	-0.768563	0.968975	-0.064693	-0.763278	0.965856	-0.286411	-0.950342	0.937977	-0.125724	-0.946001	0.947240	-0.216507	-0.771380	0.715171	0.003942	-0.716522	0.740737	0.001815	-0.739936	0.676176	0.000443	-0.689111	0.697609	-0.002501	-0.602556	0.526608	-0.039703	-0.612971	0.515815	-0.144278	-0.615034	0.383563	-0.002631	-0.572684	0.397151	-0.012758	-0.595510	0.333859	-0.003170	-0.557840	0.346683	-0.009558	-0.494816	0.127289	-0.021381	-0.488972	0.141229	-0.104233	-0.350853	0.111544	0.020776	-0.322710	0.134015	-0.091772	-0.314897	0.167473	-0.036946	-0.548289	0.079995	-0.080327	-0.761188	0.707770	-0.367623	-0.716757	0.726489	-0.352017	-0.755644	0.666426	-0.367781	-0.709562	0.682936	-0.358081	-0.656994	0.504684	-0.354447	-0.663844	0.478708	-0.243432	-0.783684	0.470147	-0.401147	-0.751937	0.426966	-0.393802	-0.830173	0.438650	-0.408036	-0.797620	0.399689	-0.401747	-1.003547	0.299627	-0.424950	-0.981129	0.274708	-0.344561	-1.038366	0.163102	-0.483680	-1.020288	0.134587	-0.372789	-0.987370	0.108938	-0.430431	-1.067411	0.342685	-0.369715	-0.866601	1.417773	-0.020056	-0.806201	1.413798	-0.336872	
47	0.2300	-0.749728	0.966550	-0.061526	-0.744989	0.964197	-0.283420	-0.931576	0.934792	-0.121963	-0.927422	0.943997	-0.212767	-0.752813	0.711441	0.007003	-0.697771	0.736672	0.005005	-0.721525	0.672315	0.003268	-0.670632	0.693324	0.000433	-0.584902	0.523068	-0.037726	-0.595837	0.512502	-0.142257	-0.597087	0.380426	-0.000925	-0.554869	0.393863	-0.011226	-0.577777	0.330871	-0.001579	-0.540273	0.343523	-0.008216	-0.478739	0.125214	-0.020232	-0.472993	0.138791	-0.103218	-0.336177	0.108374	0.021675	-0.308151	0.129800	-0.090878	-0.299623	0.162987	-0.036160	-0.532751	0.078599	-0.079001	-0.738993	0.706520	-0.364392	-0.694964	0.725991	-0.348968	-0.732672	0.665275	-0.364471	-0.686935	0.682650	-0.355062	-0.631067	0.505662	-0.351177	-0.636883	0.479693	-0.240007	-0.757989	0.471452	-0.396549	-0.726109	0.428177	-0.390011	-0.804604	0.440141	-0.403255	-0.771949	0.401051	-0.397707	-0.978504	0.301893	-0.419528	-0.955770	0.276248	-0.339435	-1.011770	0.166786	-0.480187	-0.992961	0.136446	-0.369883	-0.960025	0.111633	-0.428027	-1.042508	0.343522	-0.363163	-0.849718	1.415171	-0.015928	-0.790611	1.411983	-0.333157	
48	0.2350	-0.730901	0.963876	-0.058281	-0.726578	0.962204	-0.280387	-0.912794	0.931317	-0.118254	-0.908795	0.940434	-0.209096	-0.734059	0.707664	0.009987	-0.678902	0.732668	0.008173	-0.702869	0.668478	0.005992	-0.651964	0.689172	0.003332	-0.566831	0.519679	-0.035794	-0.578245	0.509450	-0.140299	-0.579180	0.377510	0.000652	-0.537073	0.390629	-0.009835	-0.560304	0.328076	-0.000130	-0.522950	0.340402	-0.007038	-0.464011	0.123136	-0.019304	-0.458293	0.136303	-0.102419	-0.323051	0.104612	0.022326	-0.295078	0.124826	-0.090204	-0.285644	0.157622	-0.035596	-0.518790	0.077286	-0.077882	-0.716530	0.705062	-0.361100	-0.672923	0.725315	-0.345866	-0.709399	0.663937	-0.361098	-0.664030	0.682205	-0.351985	-0.604841	0.506621	-0.347818	-0.609599	0.480731	-0.236524	-0.731931	0.472565	-0.391852	-0.699840	0.429266	-0.386134	-0.778602	0.441351	-0.398364	-0.745771	0.402202	-0.393579	-0.952716	0.303519	-0.413985	-0.929656	0.277197	-0.334171	-0.983990	0.169823	-0.476538	-0.964401	0.137809	-0.366812	-0.931395	0.114062	-0.425444	-1.016985	0.343454	-0.356507	-0.832641	1.412315	-0.011737	-0.774902	1.409927	-0.329457	
49	0.2400	-0.712085	0.960988	-0.054948	-0.708035	0.959900	-0.277300	-0.893996	0.927592	-0.114606	-0.890116	0.936586	-0.205499	-0.715119	0.703884	0.012897	-0.659918	0.728765	0.011314	-0.683972	0.664709	0.008619	-0.633109	0.685196	0.006191	-0.548354	0.516462	-0.033910	-0.560205	0.506674	-0.138403	-0.561315	0.374828	0.002105	-0.519299	0.387470	-0.008577	-0.543086	0.325487	0.001186	-0.505865	0.337340	-0.006015	-0.450574	0.121069	-0.018585	-0.444822	0.133789	-0.101821	-0.311384	0.100329	0.022744	-0.283410	0.119185	-0.089739	-0.272892	0.151473	-0.035244	-0.506341	0.076063	-0.076955	-0.693813	0.703427	-0.357741	-0.650647	0.724487	-0.342700	-0.685848	0.662446	-0.357658	-0.640867	0.681629	-0.348841	-0.578360	0.507583	-0.344362	-0.582045	0.481842	-0.232976	-0.705540	0.473496	-0.387068	-0.673159	0.430247	-0.382172	-0.752192	0.442285	-0.393380	-0.719110	0.403153	-0.389367	-0.926182	0.304490	-0.408347	-0.902784	0.277551	-0.328792	-0.955064	0.172180	-0.472730	-0.934649	0.138666	-0.363565	-0.901527	0.116188	-0.422665	-0.990826	0.342498	-0.349788	-0.815367	1.409236	-0.007489	-0.759060	1.407657	-0.325773	
50	0.2450	-0.693288	0.957923	-0.051521	-0.689358	0.957317	-0.274147	-0.875185	0.923662	-0.111022	-0.871385	0.932495	-0.201978	-0.696004	0.700143	0.015737	-0.640823	0.725002	0.014423	-0.664848	0.661044	0.011155	-0.614077	0.681429	0.009007	-0.529495	0.513431	-0.032078	-0.541741	0.504184	-0.136571	-0.543505	0.372387	0.003442	-0.501558	0.384402	-0.007446	-0.526121	0.323112	0.002376	-0.489017	0.334356	-0.005136	-0.438369	0.119035	-0.018059	-0.432528	0.131274	-0.101410	-0.301085	0.095607	0.022944	-0.273067	0.112984	-0.089471	-0.261303	0.144652	-0.035088	-0.495328	0.074939	-0.076204	-0.670867	0.701652	-0.354311	-0.628160	0.723538	-0.339464	-0.662047	0.660837	-0.354147	-0.617475	0.680951	-0.345622	-0.551675	0.508571	-0.340806	-0.554281	0.483048	-0.229359	-0.678852	0.474255	-0.382210	-0.646105	0.431136	-0.378123	-0.725406	0.442952	-0.388319	-0.692001	0.403918	-0.385076	-0.898910	0.304797	-0.402640	-0.875162	0.277314	-0.323323	-0.925037	0.173834	-0.468762	-0.903759	0.139012	-0.360133	-0.870481	0.117977	-0.419675	-0.964023	0.340682	-0.343047	-0.797901	1.405970	-0.003193	-0.743076	1.405201	-0.322106	
51	0.2500	-0.674521	0.954718	-0.047995	-0.670553	0.954488	-0.270923	-0.856368	0.919573	-0.107509	-0.852607	0.928208	-0.198539	-0.676730	0.696477	0.018511	-0.621634	0.721408	0.017495	-0.645519	0.657513	0.013607	-0.594888	0.677897	0.011776	-0.510292	0.510591	-0.030299	-0.522888	0.501976	-0.134802	-0.525771	0.370193	0.004670	-0.483874	0.381439	-0.006433	-0.509418	0.320958	0.003451	-0.472416	0.331466	-0.004389	-0.427331	0.117056	-0.017709	-0.421354	0.128790	-0.101171	-0.292061	0.090540	0.022945	-0.263965	0.106342	-0.089385	-0.250813	0.137284	-0.035111	-0.485669	0.073929	-0.075615	-0.647729	0.699772	-0.350806	-0.605497	0.722500	-0.336152	-0.638040	0.659147	-0.350562	-0.593894	0.680202	-0.342322	-0.524846	0.509608	-0.337145	-0.526377	0.484368	-0.225670	-0.651914	0.474853	-0.377290	-0.618726	0.431949	-0.373991	-0.698284	0.443361	-0.383197	-0.664486	0.404512	-0.380714	-0.870920	0.304440	-0.396893	-0.846811	0.276498	-0.317789	-0.893969	0.174773	-0.464637	-0.871796	0.138855	-0.356509	-0.838326	0.119404	-0.416463	-0.936581	0.338039	-0.336322	-0.780254	1.402553	0.001139	-0.726952	1.402591	-0.318460	
52	0.2550	-0.655803	0.951413	-0.044371	-0.651634	0.951454	-0.267623	-0.837562	0.915374	-0.104071	-0.833796	0.923773	-0.195184	-0.657326	0.692921	0.021226	-0.602371	0.718005	0.020525	-0.626020	0.654142	0.015981	-0.575569	0.674619	0.014496	-0.490798	0.507942	-0.028574	-0.503697	0.500042	-0.133097	-0.508145	0.368243	0.005797	-0.466282	0.378592	-0.005528	-0.492993	0.319027	0.004419	-0.456079	0.328682	-0.003761	-0.417394	0.115159	-0.017520	-0.411243	0.126371	-0.101087	-0.284216	0.085229	0.022769	-0.256021	0.099385	-0.089463	-0.241359	0.129502	-0.035295	-0.477276	0.073051	-0.075173	-0.624444	0.697825	-0.347226	-0.582701	0.721406	-0.332764	-0.613878	0.657413	-0.346902	-0.570175	0.679412	-0.338939	-0.497939	0.510715	-0.333377	-0.498408	0.485819	-0.221907	-0.624780	0.475303	-0.372322	-0.591081	0.432702	-0.369776	-0.670879	0.443523	-0.378034	-0.636619	0.404949	-0.376285	-0.842247	0.303425	-0.391129	-0.817766	0.275120	-0.312212	-0.861933	0.174997	-0.460358	-0.838840	0.138208	-0.352689	-0.805150	0.120452	-0.413019	-0.908520	0.334606	-0.329653	-0.762447	1.399024	0.005493	-0.710695	1.399858	-0.314839	
53	0.2600	-0.637156	0.948045	-0.040650	-0.632627	0.948257	-0.264247	-0.818786	0.911115	-0.100713	-0.814974	0.919241	-0.191916	-0.637829	0.689500	0.023885	-0.583066	0.714812	0.023508	-0.606393	0.650950	0.018285	-0.556157	0.671604	0.017162	-0.471076	0.505477	-0.026905	-0.484229	0.498364	-0.131455	-0.490667	0.366533	0.006831	-0.448825	0.375868	-0.004720	-0.476871	0.317318	0.005290	-0.440033	0.326018	-0.003239	-0.408492	0.113372	-0.017474	-0.402134	0.124050	-0.101142	-0.277457	0.079777	0.022437	-0.249149	0.092243	-0.089687	-0.232881	0.121447	-0.035617	-0.470056	0.072325	-0.074863	-0.601072	0.695849	-0.343572	-0.559827	0.720290	-0.329301	-0.589625	0.655671	-0.343170	-0.546379	0.678614	-0.335475	-0.471033	0.511911	-0.329506	-0.470460	0.487416	-0.218069	-0.597518	0.475616	-0.367322	-0.563240	0.433411	-0.365484	-0.643255	0.443452	-0.372847	-0.608469	0.405248	-0.371798	-0.812943	0.301768	-0.385376	-0.788080	0.273206	-0.306617	-0.829016	0.174514	-0.455931	-0.804989	0.137093	-0.348672	-0.771052	0.121111	-0.409341	-0.879875	0.330432	-0.323078	-0.744509	1.395423	0.009855	-0.694321	1.397037	-0.311250	
54	0.2650	-0.618610	0.944655	-0.036841	-0.613568	0.944943	-0.260797	-0.800070	0.906843	-0.097441	-0.796171	0.914664	-0.188738	-0.618285	0.686238	0.026492	-0.563757	0.711838	0.026437	-0.586694	0.647951	0.020526	-0.536699	0.668855	0.019773	-0.451206	0.503183	-0.025291	-0.464558	0.496920	-0.129874	-0.473388	0.365055	0.007780	-0.431556	0.373271	-0.003999	-0.461082	0.315828	0.006073	-0.424311	0.323481	-0.002808	-0.400555	0.111720	-0.017554	-0.393965	0.121862	-0.101320	-0.271692	0.074286	0.021974	-0.243265	0.085044	-0.090035	-0.225322	0.113260	-0.036056	-0.463913	0.071770	-0.074671	-0.577680	0.693880	-0.339850	-0.536942	0.719183	-0.325768	-0.565355	0.653958	-0.339369	-0.522579	0.677836	-0.331932	-0.444211	0.513211	-0.325535	-0.442626	0.489169	-0.214160	-0.570204	0.475806	-0.362304	-0.535286	0.434091	-0.361121	-0.615488	0.443163	-0.367656	-0.580117	0.405423	-0.367263	-0.783078	0.299492	-0.379657	-0.757824	0.270788	-0.301028	-0.795323	0.173348	-0.451365	-0.770355	0.135540	-0.344461	-0.736153	0.121381	-0.405427	-0.850702	0.325568	-0.316631	-0.726479	1.391790	0.014206	-0.677859	1.394160	-0.307701	
55	0.2700	-0.600202	0.941277	-0.032953	-0.594503	0.941557	-0.257280	-0.781451	0.902607	-0.094257	-0.777427	0.910093	-0.185651	-0.598751	0.683152	0.029049	-0.544494	0.709089	0.029305	-0.566987	0.645152	0.022710	-0.517253	0.666367	0.022324	-0.431275	0.501045	-0.023733	-0.444772	0.495682	-0.128354	-0.456364	0.363796	0.008652	-0.414534	0.370804	-0.003351	-0.445663	0.314549	0.006778	-0.408952	0.321079	-0.002456	-0.393515	0.110228	-0.017742	-0.386672	0.119838	-0.101603	-0.266828	0.068857	0.021404	-0.238284	0.077912	-0.090486	-0.218623	0.105079	-0.036587	-0.458748	0.071402	-0.074584	-0.554347	0.691953	-0.336066	-0.514121	0.718115	-0.322174	-0.541154	0.652306	-0.335505	-0.498856	0.677107	-0.328320	-0.417568	0.514627	-0.321471	-0.415008	0.491083	-0.210185	-0.542927	0.475885	-0.357286	-0.507312	0.434754	-0.356695	-0.587665	0.442673	-0.362481	-0.551655	0.405493	-0.362690	-0.752741	0.296631	-0.373999	-0.727089	0.267906	-0.295469	-0.760979	0.171531	-0.446674	-0.735073	0.133586	-0.340066	-0.700590	0.121270	-0.401286	-0.821076	0.320074	-0.310343	-0.708405	1.388167	0.018529	-0.661344	1.391260	-0.304201	
56	0.2750	-0.581977	0.937949	-0.029000	-0.575491	0.938148	-0.253707	-0.762975	0.898450	-0.091167	-0.758790	0.905580	-0.182658	-0.579295	0.680255	0.031557	-0.525334	0.706562	0.032106	-0.547346	0.642555	0.024841	-0.497884	0.664131	0.024811	-0.411382	0.499045	-0.022229	-0.424963	0.494620	-0.126892	-0.439659	0.362741	0.009455	-0.397828	0.368466	-0.002766	-0.430658	0.313470	0.007413	-0.394002	0.318816	-0.002168	-0.387303	0.108917	-0.018020	-0.380193	0.118004	-0.101974	-0.262777	0.063582	0.020751	-0.234124	0.070965	-0.091019	-0.212731	0.097035	-0.037187	-0.454463	0.071235	-0.074587	-0.531164	0.690101	-0.332232	-0.491450	0.717114	-0.318531	-0.517117	0.650744	-0.331589	-0.475302	0.676450	-0.324647	-0.391206	0.516167	-0.317328	-0.387714	0.493161	-0.206153	-0.515788	0.475865	-0.352287	-0.479425	0.435411	-0.352219	-0.559888	0.441999	-0.357341	-0.523191	0.405473	-0.358094	-0.722041	0.293224	-0.368423	-0.695988	0.264604	-0.289962	-0.726127	0.169106	-0.441874	-0.699295	0.131273	-0.335499	-0.664519	0.120794	-0.396929	-0.791094	0.314014	-0.304246	-0.690347	1.384592	0.022802	-0.644824	1.388372	-0.300761	
57	0.2800	-0.563984	0.934704	-0.025002	-0.556596	0.934761	-0.250092	-0.744693	0.894415	-0.088175	-0.740317	0.901173	-0.179762	-0.559990	0.677553	0.034016	-0.506345	0.704254	0.034832	-0.527855	0.640160	0.026924	-0.478670	0.662133	0.027232	-0.391633	0.497163	-0.020779	-0.405237	0.493702	-0.125487	-0.423342	0.361873	0.010196	-0.381507	0.366256	-0.002231	-0.416112	0.312579	0.007988	-0.379508	0.316693	-0.001931	-0.381853	0.107805	-0.018373	-0.374463	0.116385	-0.102416	-0.259454	0.058546	0.020040	-0.230701	0.064308	-0.091610	-0.207589	0.089250	-0.037832	-0.450960	0.071279	-0.074669	-0.508228	0.688352	-0.328361	-0.469023	0.716204	-0.314854	-0.493346	0.649300	-0.327634	-0.452017	0.675887	-0.320930	-0.365231	0.517833	-0.313119	-0.360858	0.495396	-0.202076	-0.488894	0.475758	-0.347324	-0.451742	0.436072	-0.347708	-0.532271	0.441160	-0.352260	-0.494846	0.405379	-0.353489	-0.691108	0.289322	-0.362955	-0.664651	0.260933	-0.284531	-0.690929	0.166126	-0.436985	-0.663191	0.128649	-0.330779	-0.628115	0.119976	-0.392374	-0.760874	0.307459	-0.298366	-0.672372	1.381102	0.027005	-0.628353	1.385525	-0.297392	
58	0.2850	-0.546283	0.931571	-0.020978	-0.537897	0.931440	-0.246451	-0.726667	0.890540	-0.085286	-0.722076	0.896917	-0.176966	-0.540921	0.675051	0.036424	-0.487602	0.702155	0.037475	-0.508603	0.637962	0.028960	-0.459693	0.660353	0.029581	-0.372141	0.495378	-0.019383	-0.385702	0.492895	-0.124137	-0.407483	0.361171	0.010883	-0.365646	0.364169	-0.001736	-0.402075	0.311859	0.008510	-0.365524	0.314710	-0.001732	-0.377096	0.106903	-0.018782	-0.369421	0.114998	-0.102913	-0.256775	0.053821	0.019293	-0.227937	0.058032	-0.092239	-0.203144	0.081833	-0.038500	-0.448143	0.071537	-0.074818	-0.485643	0.686730	-0.324470	-0.446941	0.715405	-0.311162	-0.469953	0.647994	-0.323655	-0.429108	0.675436	-0.317184	-0.339758	0.519624	-0.308863	-0.334558	0.497780	-0.197969	-0.462366	0.475577	-0.342419	-0.424389	0.436742	-0.343179	-0.504935	0.440177	-0.347257	-0.466751	0.405226	-0.348893	-0.660090	0.284979	-0.357616	-0.633231	0.256948	-0.279199	-0.655565	0.162652	-0.432033	-0.626950	0.125764	-0.325931	-0.591572	0.118848	-0.387648	-0.730553	0.300486	-0.292725	-0.654557	1.377732	0.031116	-0.611998	1.382750	-0.294108	
59	0.2900	-0.528936	0.928580	-0.016954	-0.519477	0.928227	-0.242806	-0.708964	0.886856	-0.082504	-0.704139	0.892852	-0.174272	-0.522178	0.672748	0.038777	-0.469186	0.700253	0.040027	-0.489687	0.635950	0.030949	-0.441043	0.658770	0.031854	-0.353020	0.493672	-0.018038	-0.366473	0.492169	-0.122841	-0.392156	0.360615	0.011521	-0.350318	0.362201	-0.001271	-0.388596	0.311294	0.008987	-0.352099	0.312865	-0.001560	-0.372970	0.106220	-0.019232	-0.365005	0.113853	-0.103449	-0.254663	0.049467	0.018530	-0.225755	0.052215	-0.092885	-0.199343	0.074876	-0.039169	-0.445919	0.072008	-0.075020	-0.463519	0.685257	-0.320578	-0.425309	0.714732	-0.307473	-0.447050	0.646843	-0.319671	-0.406684	0.675107	-0.313430	-0.314902	0.521532	-0.304583	-0.308937	0.500297	-0.193850	-0.436328	0.475333	-0.337592	-0.397499	0.437426	-0.338652	-0.478015	0.439070	-0.342357	-0.439045	0.405028	-0.344328	-0.629153	0.280261	-0.352428	-0.601894	0.252710	-0.273990	-0.620235	0.158753	-0.427045	-0.590779	0.122673	-0.320985	-0.555098	0.117445	-0.382781	-0.700288	0.293176	-0.287344	-0.636984	1.374513	0.035114	-0.595832	1.380073	-0.290919	
60	0.2950	-0.512014	0.925752	-0.012955	-0.501426	0.925160	-0.239179	-0.691658	0.883391	-0.079834	-0.686586	0.889013	-0.171684	-0.503853	0.670640	0.041069	-0.451184	0.698534	0.042481	-0.471207	0.634117	0.032888	-0.422814	0.657364	0.034046	-0.334388	0.492027	-0.016745	-0.347666	0.491494	-0.121598	-0.377431	0.360182	0.012118	-0.335598	0.360347	-0.000827	-0.375727	0.310865	0.009424	-0.339286	0.311154	-0.001405	-0.369411	0.105755	-0.019708	-0.361156	0.112957	-0.104008	-0.253042	0.045529	0.017773	-0.224081	0.046915	-0.093531	-0.196132	0.068453	-0.039822	-0.444200	0.072685	-0.075265	-0.441969	0.683946	-0.316708	-0.404238	0.714197	-0.303812	-0.424756	0.645859	-0.315705	-0.384860	0.674910	-0.309690	-0.290782	0.523544	-0.300303	-0.284114	0.502927	-0.189742	-0.410911	0.475035	-0.332867	-0.371212	0.438126	-0.334152	-0.451648	0.437862	-0.337580	-0.411876	0.404796	-0.339814	-0.598474	0.275234	-0.347413	-0.570824	0.248280	-0.268926	-0.585149	0.154502	-0.422052	-0.554896	0.119432	-0.315973	-0.518916	0.115810	-0.377810	-0.670249	0.285613	-0.282240	-0.619743	1.371473	0.038977	-0.579935	1.377518	-0.287841	
61	0.3000	-0.495588	0.923108	-0.009011	-0.483839	0.922271	-0.235594	-0.674827	0.880167	-0.077280	-0.669501	0.885431	-0.169206	-0.486045	0.668721	0.043293	-0.433687	0.696982	0.044829	-0.453264	0.632448	0.034774	-0.405103	0.656109	0.036150	-0.316359	0.490429	-0.015503	-0.329396	0.490844	-0.120406	-0.363379	0.359852	0.012676	-0.321554	0.358601	-0.000396	-0.363512	0.310553	0.009829	-0.327132	0.309573	-0.001257	-0.366360	0.105504	-0.020197	-0.357815	0.112308	-0.104578	-0.251844	0.042039	0.017037	-0.222844	0.042173	-0.094161	-0.193458	0.062622	-0.040442	-0.442905	0.073554	-0.075543	-0.421105	0.682809	-0.312884	-0.383836	0.713806	-0.300202	-0.403188	0.645049	-0.311779	-0.363750	0.674847	-0.305990	-0.267514	0.525645	-0.296052	-0.260210	0.505646	-0.185668	-0.386247	0.474695	-0.328267	-0.345669	0.438842	-0.329704	-0.425978	0.436573	-0.332950	-0.385396	0.404543	-0.335376	-0.568245	0.269973	-0.342590	-0.540214	0.243720	-0.264030	-0.550532	0.149980	-0.417087	-0.519531	0.116095	-0.310934	-0.483258	0.113986	-0.372776	-0.640622	0.277885	-0.277426	-0.602928	1.368634	0.042686	-0.564391	1.375106	-0.284885	
62	0.3050	-0.479733	0.920664	-0.005149	-0.466812	0.919587	-0.232078	-0.658551	0.877202	-0.074847	-0.652970	0.882128	-0.166841	-0.468850	0.666982	0.045441	-0.416786	0.695582	0.047063	-0.435960	0.630931	0.036601	-0.388007	0.654985	0.038162	-0.299041	0.488866	-0.014312	-0.311777	0.490199	-0.119267	-0.350061	0.359604	0.013202	-0.308250	0.356958	0.000027	-0.351996	0.310337	0.010205	-0.315682	0.308114	-0.001111	-0.363760	0.105457	-0.020686	-0.354929	0.111896	-0.105144	-0.251002	0.039012	0.016336	-0.221978	0.038015	-0.094759	-0.191269	0.057419	-0.041015	-0.441957	0.074598	-0.075844	-0.401039	0.681849	-0.309130	-0.364211	0.713560	-0.296668	-0.382458	0.644414	-0.307919	-0.343462	0.674917	-0.302354	-0.245210	0.527815	-0.291859	-0.237338	0.508427	-0.181654	-0.362467	0.474322	-0.323814	-0.321011	0.439569	-0.325335	-0.401147	0.435226	-0.328488	-0.359757	0.404277	-0.331039	-0.538663	0.264554	-0.337978	-0.510265	0.239096	-0.259323	-0.516614	0.145266	-0.412187	-0.484919	0.112717	-0.305910	-0.448361	0.112020	-0.367723	-0.611600	0.270080	-0.272912	-0.586632	1.366013	0.046220	-0.549288	1.372855	-0.282064	
63	0.3100	-0.464525	0.918431	-0.001400	-0.450441	0.917129	-0.228657	-0.642911	0.874504	-0.072540	-0.637079	0.879121	-0.164594	-0.452363	0.665415	0.047504	-0.400573	0.694317	0.049175	-0.419391	0.629554	0.038362	-0.371621	0.653970	0.040074	-0.282538	0.487331	-0.013174	-0.294914	0.489540	-0.118180	-0.337535	0.359417	0.013697	-0.295743	0.355413	0.000447	-0.341217	0.310200	0.010557	-0.304972	0.306773	-0.000960	-0.361559	0.105598	-0.021164	-0.352446	0.111709	-0.105697	-0.250458	0.036451	0.015684	-0.221422	0.034445	-0.095315	-0.189514	0.052863	-0.041532	-0.441288	0.075794	-0.076159	-0.381877	0.681067	-0.305473	-0.345467	0.713456	-0.293236	-0.362676	0.643949	-0.304152	-0.324104	0.675114	-0.298809	-0.223979	0.530030	-0.287754	-0.215606	0.511238	-0.177728	-0.339698	0.473925	-0.319531	-0.297375	0.440304	-0.321074	-0.377296	0.433843	-0.324216	-0.335107	0.404007	-0.326830	-0.509928	0.259053	-0.333595	-0.481178	0.234470	-0.254827	-0.483627	0.140443	-0.407389	-0.451295	0.109351	-0.300944	-0.414464	0.109960	-0.362699	-0.583378	0.262289	-0.268707	-0.570950	1.363625	0.049563	-0.534714	1.370776	-0.279389	
64	0.3150	-0.450034	0.916415	0.002209	-0.434817	0.914912	-0.225357	-0.627986	0.872079	-0.070363	-0.621913	0.876418	-0.162470	-0.436674	0.664008	0.049473	-0.385132	0.693173	0.051160	-0.403649	0.628303	0.040051	-0.356035	0.653046	0.041882	-0.266940	0.485820	-0.012089	-0.278906	0.488857	-0.117147	-0.325849	0.359276	0.014165	-0.284080	0.353962	0.000866	-0.331203	0.310122	0.010887	-0.295033	0.305541	-0.000802	-0.359706	0.105909	-0.021623	-0.350318	0.111727	-0.106226	-0.250155	0.034346	0.015087	-0.221118	0.031456	-0.095821	-0.188142	0.048955	-0.041985	-0.440836	0.077114	-0.076479	-0.363716	0.680458	-0.301939	-0.327698	0.713485	-0.289929	-0.343942	0.643648	-0.300504	-0.305772	0.675427	-0.295381	-0.203917	0.532264	-0.283769	-0.195110	0.514046	-0.173918	-0.318061	0.473513	-0.315442	-0.274889	0.441042	-0.316951	-0.354558	0.432445	-0.320154	-0.311589	0.403741	-0.322773	-0.482237	0.253549	-0.329456	-0.453154	0.229902	-0.250559	-0.451800	0.135589	-0.402728	-0.418891	0.106046	-0.296079	-0.381800	0.107851	-0.357753	-0.556151	0.254598	-0.264815	-0.555972	1.361476	0.052699	-0.520755	1.368881	-0.276872	
65	0.3200	-0.436331	0.914619	0.005650	-0.420026	0.912944	-0.222203	-0.613850	0.869927	-0.068321	-0.607552	0.874023	-0.160472	-0.421865	0.662749	0.051338	-0.370546	0.692135	0.053012	-0.388816	0.627167	0.041658	-0.341331	0.652195	0.043580	-0.252329	0.484333	-0.011058	-0.263839	0.488143	-0.116168	-0.315040	0.359163	0.014606	-0.273298	0.352602	0.001285	-0.321979	0.310088	0.011197	-0.285886	0.304414	-0.000634	-0.358156	0.106367	-0.022055	-0.348501	0.111927	-0.106724	-0.250044	0.032675	0.014553	-0.221015	0.029023	-0.096271	-0.187104	0.045678	-0.042370	-0.440548	0.078529	-0.076798	-0.346644	0.680013	-0.298553	-0.310992	0.713637	-0.286772	-0.326344	0.643498	-0.297003	-0.288552	0.675844	-0.292095	-0.185110	0.534489	-0.279934	-0.175935	0.516820	-0.170252	-0.297665	0.473093	-0.311566	-0.253671	0.441773	-0.312993	-0.333057	0.431053	-0.316321	-0.289335	0.403482	-0.318894	-0.455776	0.248114	-0.325576	-0.426383	0.225449	-0.246539	-0.421353	0.130782	-0.398242	-0.387928	0.102846	-0.291360	-0.350591	0.105738	-0.352933	-0.530106	0.247092	-0.261236	-0.541783	1.359569	0.055617	-0.507494	1.367172	-0.274520	
66	0.3250	-0.423477	0.913041	0.008899	-0.406146	0.911227	-0.219217	-0.600573	0.868040	-0.066416	-0.594065	0.871933	-0.158604	-0.408010	0.661629	0.053090	-0.356884	0.691192	0.054727	-0.374963	0.626136	0.043176	-0.327580	0.651406	0.045162	-0.238767	0.482875	-0.010085	-0.249788	0.487397	-0.115246	-0.305133	0.359067	0.015022	-0.263421	0.351331	0.001703	-0.313556	0.310082	0.011489	-0.277545	0.303385	-0.000456	-0.356867	0.106944	-0.022455	-0.346955	0.112282	-0.107185	-0.250081	0.031407	0.014084	-0.221067	0.027111	-0.096660	-0.186352	0.043003	-0.042686	-0.440378	0.080008	-0.077108	-0.330735	0.679719	-0.295339	-0.295419	0.713897	-0.283785	-0.309958	0.643483	-0.293672	-0.272518	0.676348	-0.288975	-0.167629	0.536679	-0.276278	-0.158148	0.519525	-0.166757	-0.278603	0.472673	-0.307922	-0.233825	0.442492	-0.309228	-0.312902	0.429687	-0.312732	-0.268461	0.403237	-0.315219	-0.430722	0.242821	-0.321966	-0.401042	0.221164	-0.242781	-0.392490	0.126092	-0.393965	-0.358608	0.099790	-0.286828	-0.321042	0.103661	-0.348286	-0.505419	0.239850	-0.257970	-0.528457	1.357900	0.058307	-0.495004	1.365653	-0.272342	
67	0.3300	-0.411525	0.911674	0.011935	-0.393242	0.909757	-0.216419	-0.588212	0.866410	-0.064652	-0.581516	0.870136	-0.156870	-0.395168	0.660635	0.054722	-0.344207	0.690334	0.056300	-0.362149	0.625200	0.044597	-0.314841	0.650668	0.046625	-0.226305	0.481451	-0.009172	-0.236812	0.486621	-0.114383	-0.296142	0.358978	0.015413	-0.254463	0.350147	0.002119	-0.305939	0.310094	0.011763	-0.270010	0.302448	-0.000269	-0.355801	0.107616	-0.022817	-0.345644	0.112764	-0.107604	-0.250228	0.030503	0.013682	-0.221232	0.025674	-0.096990	-0.185840	0.040887	-0.042935	-0.440289	0.081519	-0.077406	-0.316049	0.679561	-0.292318	-0.281039	0.714247	-0.280989	-0.294842	0.643586	-0.290536	-0.257726	0.676921	-0.286042	-0.151531	0.538805	-0.272828	-0.141801	0.522131	-0.163458	-0.260954	0.472260	-0.304528	-0.215433	0.443189	-0.305681	-0.294186	0.428364	-0.309403	-0.249065	0.403008	-0.311767	-0.407229	0.237734	-0.318635	-0.377285	0.217092	-0.239299	-0.365393	0.121585	-0.389927	-0.331114	0.096912	-0.282524	-0.293337	0.101657	-0.343856	-0.482245	0.232944	-0.255012	-0.516060	1.356464	0.060763	-0.483350	1.364320	-0.270342	
68	0.3350	-0.400519	0.910509	0.014741	-0.381366	0.908523	-0.213828	-0.576817	0.865023	-0.063032	-0.569954	0.868619	-0.155273	-0.383385	0.659757	0.056226	-0.332560	0.689551	0.057732	-0.350417	0.624351	0.045914	-0.303160	0.649973	0.047966	-0.214973	0.480071	-0.008320	-0.224952	0.485823	-0.113580	-0.288068	0.358888	0.015778	-0.246422	0.349051	0.002527	-0.299120	0.310112	0.012020	-0.263275	0.301599	-0.000075	-0.354925	0.108353	-0.023140	-0.344535	0.113342	-0.107978	-0.250450	0.029920	0.013344	-0.221475	0.024660	-0.097260	-0.185527	0.039277	-0.043120	-0.440251	0.083031	-0.077685	-0.302627	0.679520	-0.289510	-0.267893	0.714668	-0.278399	-0.281037	0.643786	-0.287613	-0.244217	0.677543	-0.283315	-0.136851	0.540843	-0.269608	-0.126925	0.524608	-0.160375	-0.244776	0.471859	-0.301397	-0.198562	0.443857	-0.302374	-0.276979	0.427101	-0.306343	-0.231225	0.402798	-0.308558	-0.385429	0.232912	-0.315590	-0.355247	0.213273	-0.236101	-0.340217	0.117316	-0.386156	-0.305599	0.094240	-0.278481	-0.267628	0.099757	-0.339683	-0.460717	0.226437	-0.252357	-0.504643	1.355249	0.062983	-0.472587	1.363167	-0.268524	
69	0.3400	-0.390488	0.909533	0.017302	-0.370554	0.907512	-0.211455	-0.566421	0.863861	-0.061556	-0.559415	0.867362	-0.153816	-0.372691	0.658986	0.057598	-0.321976	0.688839	0.059021	-0.339792	0.623584	0.047122	-0.292564	0.649319	0.049182	-0.204784	0.478747	-0.007533	-0.214231	0.485014	-0.112841	-0.280899	0.358792	0.016117	-0.239285	0.348041	0.002926	-0.293082	0.310130	0.012258	-0.257320	0.300832	0.000123	-0.354208	0.109129	-0.023422	-0.343600	0.113987	-0.108307	-0.250719	0.029608	0.013069	-0.221766	0.024010	-0.097474	-0.185373	0.038114	-0.043247	-0.440240	0.084512	-0.077943	-0.290492	0.679577	-0.286928	-0.256005	0.715142	-0.276026	-0.268565	0.644064	-0.284920	-0.232011	0.678196	-0.280807	-0.123606	0.542768	-0.266636	-0.113532	0.526932	-0.157529	-0.230106	0.471476	-0.298539	-0.183251	0.444489	-0.299325	-0.261331	0.425911	-0.303559	-0.214994	0.402607	-0.305608	-0.365425	0.228402	-0.312832	-0.335030	0.209739	-0.233194	-0.317087	0.113333	-0.382676	-0.282181	0.091793	-0.274730	-0.244036	0.097986	-0.335799	-0.440943	0.220384	-0.249995	-0.494243	1.354240	0.064966	-0.462754	1.362186	-0.266888	
70	0.3450	-0.381449	0.908731	0.019612	-0.360827	0.906705	-0.209309	-0.557045	0.862904	-0.060225	-0.549918	0.866342	-0.152498	-0.363098	0.658312	0.058835	-0.312469	0.688190	0.060170	-0.330283	0.622892	0.048217	-0.283066	0.648702	0.050274	-0.195732	0.477490	-0.006813	-0.204656	0.484205	-0.112166	-0.274609	0.358689	0.016429	-0.233027	0.347119	0.003310	-0.287800	0.310142	0.012478	-0.252119	0.300145	0.000321	-0.353625	0.109918	-0.023664	-0.342814	0.114670	-0.108591	-0.251012	0.029519	0.012850	-0.222080	0.023665	-0.097637	-0.185342	0.037335	-0.043323	-0.440239	0.085937	-0.078177	-0.279648	0.679711	-0.284583	-0.245377	0.715648	-0.273880	-0.257428	0.644398	-0.282469	-0.221111	0.678859	-0.278530	-0.111793	0.544561	-0.263926	-0.101612	0.529080	-0.154933	-0.216957	0.471115	-0.295959	-0.169520	0.445077	-0.296548	-0.247267	0.424806	-0.301055	-0.200399	0.402437	-0.302927	-0.347287	0.224246	-0.310362	-0.316706	0.206514	-0.230580	-0.296089	0.109673	-0.379502	-0.260946	0.089584	-0.271294	-0.222645	0.096365	-0.332233	-0.422996	0.214828	-0.247914	-0.484880	1.353419	0.066717	-0.453876	1.361365	-0.265432	
71	0.3500	-0.373404	0.908087	0.021667	-0.352184	0.906081	-0.207394	-0.548694	0.862131	-0.059038	-0.541468	0.865535	-0.151320	-0.354602	0.657727	0.059936	-0.304036	0.687604	0.061181	-0.321880	0.622273	0.049196	-0.274660	0.648125	0.051241	-0.187795	0.476311	-0.006161	-0.196212	0.483412	-0.111557	-0.269162	0.358578	0.016714	-0.227610	0.346284	0.003674	-0.283237	0.310144	0.012678	-0.247633	0.299533	0.000515	-0.353153	0.110696	-0.023868	-0.342156	0.115365	-0.108831	-0.251310	0.029605	0.012683	-0.222397	0.023564	-0.097754	-0.185402	0.036874	-0.043356	-0.440237	0.087282	-0.078386	-0.270080	0.679904	-0.282482	-0.235997	0.716167	-0.271964	-0.247608	0.644767	-0.280268	-0.211499	0.679515	-0.276489	-0.101388	0.546206	-0.261489	-0.091136	0.531037	-0.152595	-0.205318	0.470781	-0.293659	-0.157358	0.445617	-0.294051	-0.234784	0.423795	-0.298830	-0.187442	0.402288	-0.300522	-0.331055	0.220471	-0.308176	-0.300311	0.203613	-0.228258	-0.277272	0.106361	-0.376646	-0.241936	0.087622	-0.268190	-0.203499	0.094906	-0.329004	-0.406918	0.209798	-0.246101	-0.476556	1.352767	0.068244	-0.445961	1.360689	-0.264152	
72	0.3550	-0.366339	0.907581	0.023469	-0.344612	0.905616	-0.205711	-0.541355	0.861520	-0.057992	-0.534051	0.864912	-0.150279	-0.347181	0.657223	0.060902	-0.296658	0.687076	0.062059	-0.314558	0.621722	0.050060	-0.267323	0.647587	0.052088	-0.180931	0.475222	-0.005578	-0.188870	0.482647	-0.111013	-0.264511	0.358460	0.016970	-0.222987	0.345537	0.004015	-0.279350	0.310136	0.012859	-0.243819	0.298993	0.000702	-0.352772	0.111442	-0.024036	-0.341607	0.116047	-0.109029	-0.251598	0.029820	0.012560	-0.222703	0.023650	-0.097833	-0.185524	0.036669	-0.043354	-0.440226	0.088525	-0.078570	-0.261751	0.680136	-0.280625	-0.227830	0.716682	-0.270277	-0.239066	0.645153	-0.278320	-0.203138	0.680146	-0.274686	-0.092346	0.547691	-0.259328	-0.082051	0.532793	-0.150521	-0.195157	0.470475	-0.291636	-0.146735	0.446104	-0.291837	-0.223856	0.422886	-0.296879	-0.176095	0.402158	-0.298394	-0.316730	0.217098	-0.306265	-0.285848	0.201045	-0.226222	-0.260645	0.103414	-0.374113	-0.225156	0.085906	-0.265426	-0.186601	0.093616	-0.326123	-0.392715	0.205313	-0.244540	-0.469259	1.352263	0.069556	-0.439002	1.360146	-0.263043	
73	0.3600	-0.360226	0.907194	0.025024	-0.338076	0.905285	-0.204254	-0.535002	0.861048	-0.057082	-0.527637	0.864448	-0.149373	-0.340794	0.656792	0.061736	-0.290300	0.686605	0.062811	-0.308273	0.621237	0.050810	-0.261013	0.647093	0.052819	-0.175086	0.474232	-0.005064	-0.182581	0.481926	-0.110535	-0.260601	0.358339	0.017198	-0.219101	0.344876	0.004327	-0.276089	0.310118	0.013021	-0.240625	0.298522	0.000878	-0.352468	0.112141	-0.024171	-0.341152	0.116697	-0.109190	-0.251865	0.030120	0.012474	-0.222985	0.023870	-0.097879	-0.185685	0.036657	-0.043326	-0.440205	0.089654	-0.078727	-0.254610	0.680389	-0.279010	-0.220824	0.717177	-0.268815	-0.231747	0.645539	-0.276621	-0.195972	0.680739	-0.273117	-0.084604	0.549008	-0.257442	-0.074291	0.534340	-0.148708	-0.186417	0.470201	-0.289884	-0.137593	0.446536	-0.289905	-0.214433	0.422080	-0.295193	-0.166309	0.402048	-0.296539	-0.304280	0.214133	-0.304618	-0.273282	0.198807	-0.224462	-0.246175	0.100836	-0.371901	-0.210569	0.084431	-0.263004	-0.171913	0.092498	-0.323595	-0.380361	0.201377	-0.243214	-0.462958	1.351885	0.070668	-0.432976	1.359717	-0.262094	
74	0.3650	-0.355022	0.906909	0.026342	-0.332528	0.905066	-0.203015	-0.529591	0.860693	-0.056303	-0.522182	0.864115	-0.148595	-0.335389	0.656429	0.062445	-0.284911	0.686191	0.063445	-0.302967	0.620814	0.051451	-0.255678	0.646645	0.053439	-0.170191	0.473348	-0.004617	-0.177283	0.481260	-0.110122	-0.257368	0.358217	0.017397	-0.215890	0.344301	0.004609	-0.273398	0.310091	0.013162	-0.237995	0.298115	0.001040	-0.352225	0.112777	-0.024276	-0.340778	0.117299	-0.109318	-0.252105	0.030469	0.012419	-0.223237	0.024175	-0.097900	-0.185864	0.036784	-0.043279	-0.440172	0.090656	-0.078861	-0.248586	0.680647	-0.277629	-0.214913	0.717640	-0.267570	-0.225577	0.645910	-0.275165	-0.189931	0.681282	-0.271775	-0.078083	0.550155	-0.255823	-0.067769	0.535679	-0.147151	-0.179023	0.469960	-0.288390	-0.129855	0.446912	-0.288246	-0.206440	0.421379	-0.293760	-0.158005	0.401956	-0.294949	-0.293640	0.211574	-0.303221	-0.262547	0.196892	-0.222966	-0.233793	0.098622	-0.370001	-0.198097	0.083185	-0.260918	-0.159357	0.091548	-0.321414	-0.369792	0.197983	-0.242105	-0.457605	1.351613	0.071594	-0.427843	1.359388	-0.261296	
75	0.3700	-0.350671	0.906705	0.027440	-0.327904	0.904933	-0.201980	-0.525065	0.860435	-0.055647	-0.517625	0.863887	-0.147938	-0.330898	0.656126	0.063037	-0.280425	0.685831	0.063970	-0.298568	0.620452	0.051988	-0.251247	0.646246	0.053956	-0.166167	0.472573	-0.004236	-0.172901	0.480659	-0.109770	-0.254744	0.358098	0.017568	-0.213284	0.343808	0.004858	-0.271218	0.310057	0.013283	-0.235868	0.297770	0.001186	-0.352033	0.113342	-0.024356	-0.340472	0.117841	-0.109416	-0.252314	0.030835	0.012388	-0.223455	0.024524	-0.097902	-0.186046	0.036999	-0.043222	-0.440129	0.091527	-0.078971	-0.243597	0.680899	-0.276469	-0.210016	0.718060	-0.266528	-0.220470	0.646255	-0.273940	-0.184930	0.681768	-0.270649	-0.072689	0.551134	-0.254460	-0.062386	0.536816	-0.145838	-0.172879	0.469751	-0.287140	-0.123424	0.447233	-0.286849	-0.199783	0.420781	-0.292564	-0.151088	0.401880	-0.293612	-0.284714	0.209409	-0.302057	-0.253543	0.195285	-0.221715	-0.223391	0.096760	-0.368400	-0.187631	0.082154	-0.259156	-0.148821	0.090757	-0.319569	-0.360918	0.195112	-0.241192	-0.453141	1.351426	0.072350	-0.423550	1.359142	-0.260637	
76	0.3750	-0.347106	0.906568	0.028334	-0.324127	0.904866	-0.201135	-0.521356	0.860253	-0.055105	-0.513896	0.863741	-0.147396	-0.327240	0.655877	0.063520	-0.276766	0.685524	0.064397	-0.294996	0.620146	0.052429	-0.247643	0.645898	0.054379	-0.162925	0.471910	-0.003918	-0.169350	0.480130	-0.109477	-0.252659	0.357986	0.017712	-0.211213	0.343394	0.005073	-0.269487	0.310020	0.013386	-0.234184	0.297482	0.001313	-0.351883	0.113831	-0.024416	-0.340226	0.118313	-0.109489	-0.252490	0.031192	0.012374	-0.223637	0.024883	-0.097892	-0.186220	0.037262	-0.043160	-0.440080	0.092267	-0.079059	-0.239547	0.681133	-0.275516	-0.206039	0.718431	-0.265674	-0.216327	0.646564	-0.272931	-0.180874	0.682190	-0.269723	-0.068317	0.551951	-0.253335	-0.058032	0.537760	-0.144754	-0.167879	0.469574	-0.286114	-0.118186	0.447501	-0.285696	-0.194350	0.420282	-0.291584	-0.145443	0.401818	-0.292510	-0.277378	0.207615	-0.301106	-0.246146	0.193964	-0.220691	-0.214832	0.095227	-0.367079	-0.179026	0.081320	-0.257699	-0.140160	0.090115	-0.318041	-0.353619	0.192734	-0.240454	-0.449494	1.351305	0.072957	-0.420033	1.358964	-0.260103	
