PathFileType	4	(X/Y/Z)	 P11 -65r1 05.trc
DataRate	CameraRate	NumFrames	NumMarkers	Units	OrigDataRate	OrigDataStartFrame	OrigNumFrames
200	200	83	38	m	200	2	84
Frame#	Time	RASIS			LASIS			RPSIS			LPSIS			RThighRear1			RThighFront1			RThighRear2			RThighFront2			RKneeLat			RKneeMed			RShankRear1			RShankFront1			RShankRear2			RShankFront2			RAnkleLat			RAnkleMed			RM5			RM1			RMid			RHeel			LThighRear1			LThighFront1			LThighRear2			LThighFront2			LKneeLat			LKneeMed			LShankRear1			LShankFront1			LShankRear2			LShankFront2			LAnkleLat			LAnkleMed			LM5			LM1			LMid			LHeel			RShoulder			LShoulder			
		X1	Y1	Z1	X2	Y2	Z2	X3	Y3	Z3	X4	Y4	Z4	X5	Y5	Z5	X6	Y6	Z6	X7	Y7	Z7	X8	Y8	Z8	X9	Y9	Z9	X10	Y10	Z10	X11	Y11	Z11	X12	Y12	Z12	X13	Y13	Z13	X14	Y14	Z14	X15	Y15	Z15	X16	Y16	Z16	X17	Y17	Z17	X18	Y18	Z18	X19	Y19	Z19	X20	Y20	Z20	X21	Y21	Z21	X22	Y22	Z22	X23	Y23	Z23	X24	Y24	Z24	X25	Y25	Z25	X26	Y26	Z26	X27	Y27	Z27	X28	Y28	Z28	X29	Y29	Z29	X30	Y30	Z30	X31	Y31	Z31	X32	Y32	Z32	X33	Y33	Z33	X34	Y34	Z34	X35	Y35	Z35	X36	Y36	Z36	X37	Y37	Z37	X38	Y38	Z38	
1	0.0000	-1.459100	0.969950	-0.234589	-1.470059	0.971691	-0.458368	-1.650384	0.986625	-0.283582	-1.653289	0.993328	-0.375565	-1.551042	0.712855	-0.177117	-1.495365	0.715084	-0.189146	-1.541432	0.665903	-0.186278	-1.486453	0.661757	-0.196273	-1.499598	0.465377	-0.233515	-1.495070	0.467071	-0.344734	-1.648145	0.456044	-0.217296	-1.630897	0.414215	-0.225024	-1.694341	0.436096	-0.222505	-1.679735	0.400851	-0.229839	-1.886062	0.346329	-0.259391	-1.867113	0.343292	-0.342252	-1.913888	0.198560	-0.232018	-1.890865	0.177010	-0.343820	-1.860968	0.163673	-0.286282	-1.943747	0.400190	-0.317571	-1.482636	0.718167	-0.516002	-1.435179	0.739625	-0.514660	-1.473296	0.676677	-0.508770	-1.428106	0.696167	-0.512267	-1.367979	0.532760	-0.477270	-1.374168	0.528712	-0.378628	-1.427996	0.406207	-0.514178	-1.377017	0.409766	-0.502685	-1.426582	0.348822	-0.513943	-1.377397	0.355518	-0.503947	-1.400325	0.119139	-0.488671	-1.375415	0.135767	-0.408109	-1.276732	0.053156	-0.531590	-1.254392	0.079091	-0.417929	-1.217523	0.103774	-0.475698	-1.462899	0.077008	-0.432621	-1.457981	1.420475	-0.163925	-1.470836	1.444262	-0.488686	
2	0.0050	-1.445174	0.966864	-0.234235	-1.456675	0.969354	-0.458318	-1.636648	0.983712	-0.283267	-1.639738	0.990664	-0.375302	-1.532520	0.710454	-0.176695	-1.476795	0.713746	-0.188139	-1.521684	0.663876	-0.185624	-1.466540	0.660835	-0.195126	-1.474991	0.465428	-0.232651	-1.470662	0.467508	-0.343869	-1.623058	0.454429	-0.216112	-1.605336	0.412762	-0.224149	-1.669122	0.434098	-0.221299	-1.654063	0.398807	-0.228988	-1.860261	0.342450	-0.258470	-1.841241	0.339903	-0.341342	-1.884747	0.194549	-0.230931	-1.861283	0.173448	-0.342663	-1.831043	0.160893	-0.285103	-1.919201	0.395175	-0.316605	-1.470942	0.715883	-0.515566	-1.423521	0.737087	-0.514674	-1.461836	0.674338	-0.508367	-1.416652	0.693658	-0.512131	-1.356761	0.529797	-0.476887	-1.362518	0.526062	-0.378279	-1.418081	0.404653	-0.513509	-1.367172	0.407151	-0.501688	-1.417932	0.347396	-0.513200	-1.368831	0.353061	-0.502804	-1.397815	0.118497	-0.487466	-1.373093	0.134176	-0.406591	-1.276017	0.052035	-0.531306	-1.253135	0.076207	-0.417051	-1.215659	0.100062	-0.474592	-1.461986	0.077304	-0.431969	-1.444840	1.418116	-0.163512	-1.456158	1.441342	-0.489204	
3	0.0100	-1.431061	0.963790	-0.233883	-1.443120	0.967024	-0.458277	-1.622734	0.980792	-0.282955	-1.626015	0.987999	-0.375046	-1.513739	0.708125	-0.176258	-1.457973	0.712510	-0.187121	-1.501658	0.661940	-0.184952	-1.446351	0.660034	-0.193972	-1.450054	0.465615	-0.231780	-1.445931	0.468082	-0.342998	-1.597625	0.452845	-0.214927	-1.579404	0.411355	-0.223266	-1.643545	0.432095	-0.220087	-1.628008	0.396772	-0.228127	-1.834030	0.338385	-0.257531	-1.814943	0.336344	-0.340410	-1.855060	0.190356	-0.229822	-1.831143	0.169725	-0.341482	-1.800554	0.157979	-0.283901	-1.894265	0.389922	-0.315622	-1.459119	0.713593	-0.515118	-1.411729	0.734529	-0.514675	-1.450258	0.671993	-0.507951	-1.405079	0.691128	-0.511984	-1.345495	0.526795	-0.476497	-1.350805	0.523366	-0.377922	-1.408169	0.403088	-0.512829	-1.357334	0.404507	-0.500692	-1.409299	0.345965	-0.512444	-1.360282	0.350582	-0.501660	-1.395365	0.117867	-0.486263	-1.370822	0.132602	-0.405078	-1.275315	0.050911	-0.531032	-1.251897	0.073367	-0.416200	-1.213815	0.096414	-0.473521	-1.461141	0.077568	-0.431316	-1.431544	1.415774	-0.163070	-1.441273	1.438448	-0.489685	
4	0.0150	-1.416764	0.960758	-0.233532	-1.429396	0.964721	-0.458242	-1.608645	0.977885	-0.282642	-1.612120	0.985354	-0.374791	-1.494708	0.705908	-0.175803	-1.438914	0.711419	-0.186093	-1.481367	0.660139	-0.184261	-1.425902	0.659401	-0.192815	-1.424819	0.465982	-0.230905	-1.420908	0.468836	-0.342122	-1.571862	0.451310	-0.213745	-1.553108	0.410020	-0.222378	-1.617615	0.430091	-0.218872	-1.601569	0.394761	-0.227254	-1.807331	0.334098	-0.256573	-1.788183	0.332583	-0.339456	-1.824766	0.185963	-0.228688	-1.800383	0.165831	-0.340276	-1.769444	0.154927	-0.282676	-1.868896	0.384377	-0.314621	-1.447170	0.711316	-0.514653	-1.399805	0.731966	-0.514653	-1.438574	0.669661	-0.507516	-1.393394	0.688590	-0.511817	-1.334213	0.523768	-0.476096	-1.339063	0.520631	-0.377552	-1.398299	0.401531	-0.512141	-1.347542	0.401851	-0.499703	-1.400719	0.344548	-0.511679	-1.351790	0.348101	-0.500523	-1.392997	0.117269	-0.485075	-1.368619	0.131069	-0.403585	-1.274641	0.049792	-0.530776	-1.250696	0.070598	-0.415387	-1.212012	0.092864	-0.472503	-1.460377	0.077810	-0.430667	-1.418106	1.413474	-0.162590	-1.426184	1.435611	-0.490113	
5	0.0200	-1.402280	0.957802	-0.233180	-1.415497	0.962465	-0.458209	-1.594377	0.975014	-0.282325	-1.598050	0.982752	-0.374535	-1.475435	0.703846	-0.175326	-1.419627	0.710517	-0.185056	-1.460821	0.658517	-0.183551	-1.405207	0.658982	-0.191657	-1.399309	0.466572	-0.230028	-1.395619	0.469810	-0.341245	-1.545776	0.449837	-0.212571	-1.526453	0.408781	-0.221486	-1.591329	0.428094	-0.217659	-1.574737	0.392791	-0.226371	-1.780111	0.329554	-0.255595	-1.760909	0.328588	-0.338477	-1.793791	0.181357	-0.227527	-1.768930	0.161758	-0.339042	-1.737644	0.151736	-0.281426	-1.843041	0.378487	-0.313603	-1.435097	0.709070	-0.514167	-1.387747	0.729412	-0.514599	-1.426784	0.667359	-0.507060	-1.381598	0.686059	-0.511622	-1.322936	0.520725	-0.475685	-1.327318	0.517864	-0.377166	-1.388504	0.399999	-0.511446	-1.337832	0.399200	-0.498727	-1.392226	0.343165	-0.510905	-1.343389	0.345638	-0.499401	-1.390730	0.116728	-0.483912	-1.366500	0.129603	-0.402127	-1.274008	0.048682	-0.530542	-1.249552	0.067922	-0.414625	-1.210277	0.089444	-0.471550	-1.459704	0.078049	-0.430029	-1.404532	1.411243	-0.162063	-1.410890	1.432863	-0.490469	
6	0.0250	-1.387600	0.954955	-0.232825	-1.401414	0.960277	-0.458174	-1.579921	0.972202	-0.281999	-1.583794	0.980214	-0.374272	-1.455924	0.701978	-0.174826	-1.400120	0.709846	-0.184010	-1.440027	0.657117	-0.182821	-1.384277	0.658821	-0.190500	-1.373547	0.467427	-0.229152	-1.370089	0.471045	-0.340368	-1.519374	0.448441	-0.211410	-1.499436	0.407662	-0.220592	-1.564682	0.426107	-0.216451	-1.547503	0.390877	-0.225476	-1.752310	0.324722	-0.254596	-1.733067	0.324331	-0.337471	-1.762053	0.176530	-0.226337	-1.736702	0.157507	-0.337779	-1.705079	0.148411	-0.280149	-1.816633	0.372201	-0.312567	-1.422893	0.706873	-0.513656	-1.375547	0.726882	-0.514501	-1.414888	0.665107	-0.506578	-1.369687	0.683548	-0.511391	-1.311684	0.517681	-0.475259	-1.315594	0.515073	-0.376759	-1.378813	0.398512	-0.510744	-1.328235	0.396571	-0.497769	-1.383847	0.341837	-0.510125	-1.335106	0.343211	-0.498301	-1.388576	0.116267	-0.482787	-1.364475	0.128229	-0.400718	-1.273432	0.047587	-0.530333	-1.248485	0.065361	-0.413925	-1.208632	0.086181	-0.470676	-1.459128	0.078306	-0.429407	-1.390825	1.409105	-0.161482	-1.395390	1.430234	-0.490737	
7	0.0300	-1.372715	0.952253	-0.232461	-1.387134	0.958178	-0.458128	-1.565266	0.969470	-0.281656	-1.569340	0.977761	-0.373994	-1.436179	0.700345	-0.174299	-1.380399	0.709446	-0.182957	-1.418995	0.655979	-0.182072	-1.363121	0.658959	-0.189348	-1.347557	0.468583	-0.228279	-1.344343	0.472575	-0.339493	-1.492658	0.447133	-0.210264	-1.472058	0.406685	-0.219695	-1.537664	0.424135	-0.215251	-1.519852	0.389033	-0.224569	-1.723866	0.319574	-0.253575	-1.704596	0.319786	-0.336437	-1.729469	0.171481	-0.225114	-1.703619	0.153083	-0.336485	-1.671673	0.144963	-0.278842	-1.789604	0.365471	-0.311512	-1.410552	0.704745	-0.513114	-1.363195	0.724392	-0.514348	-1.402881	0.662926	-0.506066	-1.357653	0.681073	-0.511114	-1.300471	0.514647	-0.474818	-1.303908	0.512267	-0.376326	-1.369249	0.397088	-0.510038	-1.318775	0.393983	-0.496836	-1.375603	0.340587	-0.509342	-1.326966	0.340845	-0.497231	-1.386546	0.115912	-0.481712	-1.362548	0.126973	-0.399372	-1.272929	0.046512	-0.530155	-1.247513	0.062934	-0.413298	-1.207101	0.083100	-0.469893	-1.458651	0.078607	-0.428808	-1.376988	1.407086	-0.160839	-1.379681	1.427757	-0.490898	
8	0.0350	-1.357614	0.949730	-0.232084	-1.372644	0.956189	-0.458065	-1.550399	0.966842	-0.281291	-1.554676	0.975415	-0.373695	-1.416205	0.698981	-0.173743	-1.360473	0.709351	-0.181895	-1.397734	0.655139	-0.181304	-1.341754	0.659432	-0.188200	-1.321367	0.470073	-0.227413	-1.318409	0.474429	-0.338623	-1.465636	0.445922	-0.209137	-1.444320	0.405871	-0.218797	-1.510269	0.422181	-0.214062	-1.491775	0.387274	-0.223648	-1.694716	0.314089	-0.252531	-1.675437	0.314934	-0.335374	-1.695962	0.166217	-0.223858	-1.669603	0.148501	-0.335157	-1.637355	0.141411	-0.277505	-1.761883	0.358257	-0.310440	-1.398062	0.702706	-0.512536	-1.350679	0.721958	-0.514127	-1.390755	0.660834	-0.505519	-1.345487	0.678651	-0.510782	-1.289306	0.511637	-0.474360	-1.292277	0.509455	-0.375862	-1.359828	0.395750	-0.509329	-1.309471	0.391457	-0.495931	-1.367509	0.339439	-0.508558	-1.318984	0.338560	-0.496198	-1.384641	0.115690	-0.480697	-1.360721	0.125863	-0.398103	-1.272510	0.045460	-0.530009	-1.246656	0.060654	-0.412750	-1.205706	0.080218	-0.469208	-1.458265	0.078986	-0.428239	-1.363020	1.405209	-0.160126	-1.363759	1.425461	-0.490937	
9	0.0400	-1.342289	0.947420	-0.231689	-1.357931	0.954330	-0.457975	-1.535308	0.964342	-0.280893	-1.539787	0.973199	-0.373365	-1.396013	0.697918	-0.173155	-1.340354	0.709594	-0.180825	-1.376259	0.654628	-0.180518	-1.320191	0.660270	-0.187057	-1.295008	0.471922	-0.226556	-1.292320	0.476631	-0.337759	-1.438318	0.444814	-0.208031	-1.416231	0.405236	-0.217898	-1.482496	0.420246	-0.212886	-1.463267	0.385613	-0.222713	-1.664803	0.308254	-0.251463	-1.645535	0.309764	-0.334281	-1.661461	0.160755	-0.222567	-1.634586	0.143784	-0.333796	-1.602066	0.137781	-0.276137	-1.733400	0.350530	-0.309350	-1.385413	0.700775	-0.511918	-1.337986	0.719596	-0.513826	-1.378501	0.658853	-0.504934	-1.333179	0.676297	-0.510386	-1.278195	0.508665	-0.473883	-1.280711	0.506649	-0.375364	-1.350559	0.394519	-0.508619	-1.300334	0.389013	-0.495060	-1.359575	0.338415	-0.507776	-1.311172	0.336381	-0.495207	-1.382859	0.115629	-0.479755	-1.358988	0.124923	-0.396925	-1.272189	0.044436	-0.529897	-1.245928	0.058534	-0.412289	-1.204466	0.077550	-0.468628	-1.457961	0.079477	-0.427705	-1.348923	1.403498	-0.159337	-1.347625	1.423375	-0.490838	
10	0.0450	-1.326731	0.945357	-0.231269	-1.342981	0.952619	-0.457849	-1.519983	0.961993	-0.280456	-1.524661	0.971132	-0.372994	-1.375616	0.697185	-0.172534	-1.320056	0.710197	-0.179748	-1.354591	0.654474	-0.179715	-1.298456	0.661498	-0.185922	-1.268519	0.474146	-0.225710	-1.266118	0.479196	-0.336902	-1.410720	0.443815	-0.206947	-1.387807	0.404794	-0.216998	-1.454349	0.418333	-0.211725	-1.434333	0.384060	-0.221762	-1.634077	0.302064	-0.250371	-1.614844	0.304272	-0.333159	-1.625908	0.155123	-0.221240	-1.598515	0.138964	-0.332401	-1.565759	0.134109	-0.274736	-1.704093	0.342268	-0.308244	-1.372593	0.698972	-0.511257	-1.325101	0.717325	-0.513434	-1.366109	0.657002	-0.504308	-1.320714	0.674030	-0.509916	-1.267137	0.505747	-0.473387	-1.269215	0.503860	-0.374827	-1.341447	0.393416	-0.507911	-1.291369	0.386675	-0.494228	-1.351801	0.337540	-0.507001	-1.303531	0.334331	-0.494267	-1.381189	0.115757	-0.478895	-1.357336	0.124180	-0.395849	-1.271977	0.043447	-0.529822	-1.245342	0.056581	-0.411920	-1.203398	0.075105	-0.468157	-1.457719	0.080121	-0.427213	-1.334699	1.401976	-0.158469	-1.331283	1.421525	-0.490589	
11	0.0500	-1.310935	0.943570	-0.230818	-1.327784	0.951076	-0.457676	-1.504414	0.959817	-0.279969	-1.509288	0.969234	-0.372572	-1.355032	0.696803	-0.171878	-1.299599	0.711178	-0.178662	-1.332754	0.654695	-0.178898	-1.276575	0.663130	-0.184793	-1.241947	0.476755	-0.224877	-1.239850	0.482129	-0.336054	-1.382868	0.442923	-0.205887	-1.359071	0.404557	-0.216097	-1.425840	0.416441	-0.210581	-1.404984	0.382627	-0.220796	-1.602500	0.295527	-0.249256	-1.583328	0.298464	-0.332007	-1.589263	0.149357	-0.219878	-1.561353	0.134083	-0.330973	-1.528405	0.130438	-0.273303	-1.673908	0.333464	-0.307122	-1.359590	0.697317	-0.510547	-1.312012	0.715162	-0.512941	-1.353569	0.655300	-0.503639	-1.308081	0.671867	-0.509365	-1.256128	0.502899	-0.472870	-1.257793	0.501102	-0.374246	-1.332486	0.392464	-0.507207	-1.282575	0.384464	-0.493438	-1.344183	0.336838	-0.506234	-1.296059	0.332436	-0.493383	-1.379614	0.116101	-0.478128	-1.355750	0.123658	-0.394886	-1.271881	0.042499	-0.529782	-1.244910	0.054803	-0.411644	-1.202517	0.072886	-0.467796	-1.457515	0.080963	-0.426768	-1.320350	1.400661	-0.157516	-1.314741	1.419936	-0.490177	
12	0.0550	-1.294901	0.942089	-0.230329	-1.312333	0.949716	-0.457444	-1.488598	0.957834	-0.279422	-1.493661	0.967525	-0.372088	-1.334288	0.696787	-0.171186	-1.279010	0.712546	-0.177570	-1.310781	0.655302	-0.178068	-1.254584	0.665172	-0.183672	-1.215345	0.479748	-0.224060	-1.213570	0.485426	-0.335216	-1.354794	0.442138	-0.204850	-1.330058	0.404529	-0.215194	-1.396991	0.414571	-0.209455	-1.375243	0.381322	-0.219813	-1.570046	0.288657	-0.248118	-1.550967	0.292354	-0.330828	-1.551505	0.143505	-0.218481	-1.523082	0.129192	-0.329514	-1.489997	0.126818	-0.271840	-1.642802	0.324122	-0.305987	-1.346394	0.695827	-0.509786	-1.298708	0.713125	-0.512336	-1.340868	0.653768	-0.502923	-1.295268	0.669827	-0.508725	-1.245159	0.500139	-0.472332	-1.246440	0.498391	-0.373621	-1.323667	0.391684	-0.506510	-1.273942	0.382404	-0.492693	-1.336706	0.336333	-0.505481	-1.288743	0.330721	-0.492560	-1.378110	0.116689	-0.477463	-1.354204	0.123382	-0.394047	-1.271905	0.041600	-0.529777	-1.244638	0.053202	-0.411462	-1.201832	0.070892	-0.467543	-1.457313	0.082050	-0.426376	-1.305883	1.399572	-0.156479	-1.298010	1.418628	-0.489595	
13	0.0600	-1.278630	0.940936	-0.229795	-1.296626	0.948555	-0.457143	-1.472531	0.956065	-0.278807	-1.477777	0.966020	-0.371532	-1.313414	0.697146	-0.170457	-1.258316	0.714303	-0.176470	-1.288711	0.656300	-0.177227	-1.232520	0.667620	-0.182559	-1.188772	0.483114	-0.223261	-1.187340	0.489075	-0.334389	-1.326537	0.441453	-0.203836	-1.300811	0.404713	-0.214290	-1.367831	0.412721	-0.208348	-1.345143	0.380149	-0.218813	-1.536704	0.281481	-0.246958	-1.517751	0.285967	-0.329623	-1.512631	0.137623	-0.217051	-1.483708	0.124349	-0.328027	-1.450547	0.123308	-0.270349	-1.610746	0.314261	-0.304839	-1.332995	0.694521	-0.508973	-1.285178	0.711231	-0.511613	-1.327997	0.652421	-0.502161	-1.282262	0.667928	-0.507991	-1.234214	0.497485	-0.471776	-1.235150	0.495743	-0.372949	-1.314969	0.391098	-0.505824	-1.265452	0.380519	-0.491998	-1.329350	0.336049	-0.504746	-1.281565	0.329210	-0.491804	-1.376645	0.117549	-0.476907	-1.352668	0.123375	-0.393341	-1.272053	0.040760	-0.529804	-1.244526	0.051780	-0.411372	-1.201350	0.069119	-0.467393	-1.457073	0.083431	-0.426042	-1.291304	1.398723	-0.155355	-1.281108	1.417617	-0.488835	
14	0.0650	-1.262129	0.940131	-0.229210	-1.280661	0.947606	-0.456762	-1.456216	0.954528	-0.278115	-1.461636	0.964735	-0.370893	-1.292445	0.697881	-0.169691	-1.237553	0.716439	-0.175363	-1.266588	0.657684	-0.176378	-1.210429	0.670461	-0.181453	-1.162295	0.486834	-0.222482	-1.161228	0.493051	-0.333572	-1.298145	0.440860	-0.202844	-1.271382	0.405106	-0.213383	-1.338399	0.410890	-0.207259	-1.314729	0.379114	-0.217795	-1.502480	0.274034	-0.245779	-1.483689	0.279335	-0.328397	-1.472663	0.131778	-0.215593	-1.443257	0.119622	-0.326516	-1.410090	0.119970	-0.268834	-1.577724	0.303911	-0.303682	-1.319384	0.693413	-0.508105	-1.271415	0.709500	-0.510764	-1.314945	0.651276	-0.501353	-1.269052	0.666189	-0.507158	-1.223275	0.494958	-0.471202	-1.223907	0.493176	-0.372229	-1.306366	0.390727	-0.505153	-1.257081	0.378831	-0.491356	-1.322086	0.336007	-0.504034	-1.274496	0.327927	-0.491119	-1.375180	0.118706	-0.476466	-1.351105	0.123657	-0.392773	-1.272319	0.039993	-0.529862	-1.244573	0.050541	-0.411369	-1.201071	0.067557	-0.467340	-1.456747	0.085158	-0.425770	-1.276622	1.398125	-0.154146	-1.264054	1.416915	-0.487895	
15	0.0700	-1.245406	0.939688	-0.228566	-1.264442	0.946879	-0.456290	-1.439658	0.953238	-0.277337	-1.445241	0.963681	-0.370161	-1.271421	0.698987	-0.168888	-1.216759	0.718939	-0.174249	-1.244457	0.659442	-0.175522	-1.188358	0.673673	-0.180354	-1.135984	0.490878	-0.221725	-1.135307	0.497321	-0.332766	-1.269671	0.440347	-0.201871	-1.241832	0.405701	-0.212474	-1.308741	0.409076	-0.206189	-1.284053	0.378218	-0.216759	-1.467392	0.266361	-0.244582	-1.448804	0.272499	-0.327152	-1.431641	0.126041	-0.214110	-1.401777	0.115082	-0.324986	-1.368683	0.116872	-0.267299	-1.543735	0.293116	-0.302517	-1.305554	0.692520	-0.507184	-1.257411	0.707948	-0.509787	-1.301701	0.650348	-0.500500	-1.255628	0.664627	-0.506224	-1.212318	0.492576	-0.470613	-1.212693	0.490707	-0.371463	-1.297824	0.390588	-0.504501	-1.248796	0.377364	-0.490768	-1.314878	0.336227	-0.503350	-1.267503	0.326895	-0.490508	-1.373669	0.120183	-0.476146	-1.349472	0.124250	-0.392348	-1.272696	0.039313	-0.529945	-1.244768	0.049484	-0.411449	-1.200989	0.066194	-0.467376	-1.456280	0.087280	-0.425564	-1.261847	1.397787	-0.152855	-1.246873	1.416532	-0.486771	
16	0.0750	-1.228474	0.939615	-0.227858	-1.247978	0.946383	-0.455717	-1.422867	0.952207	-0.276465	-1.428599	0.962869	-0.369327	-1.250385	0.700449	-0.168047	-1.195971	0.721777	-0.173129	-1.222372	0.661554	-0.174661	-1.166359	0.677223	-0.179262	-1.109911	0.495208	-0.220991	-1.109651	0.501843	-0.331971	-1.241173	0.439899	-0.200917	-1.212227	0.406486	-0.211562	-1.278912	0.407274	-0.205136	-1.253176	0.377459	-0.215705	-1.431477	0.258517	-0.243370	-1.413136	0.265509	-0.325892	-1.389629	0.120489	-0.212607	-1.359340	0.110803	-0.323444	-1.326404	0.114084	-0.265751	-1.508796	0.281931	-0.301345	-1.291500	0.691851	-0.506209	-1.243161	0.706591	-0.508682	-1.288256	0.649649	-0.499604	-1.241980	0.663259	-0.505191	-1.201313	0.490359	-0.470013	-1.201483	0.488357	-0.370654	-1.289303	0.390698	-0.503872	-1.240556	0.376136	-0.490238	-1.307683	0.336727	-0.502699	-1.260542	0.326134	-0.489974	-1.372062	0.122002	-0.475949	-1.347723	0.125171	-0.392070	-1.273170	0.038739	-0.530050	-1.245097	0.048611	-0.411603	-1.201095	0.065016	-0.467489	-1.455610	0.089848	-0.425426	-1.246989	1.397712	-0.151485	-1.229592	1.416470	-0.485467	
17	0.0800	-1.211349	0.939914	-0.227080	-1.231279	0.946124	-0.455035	-1.405853	0.951444	-0.275495	-1.411722	0.962303	-0.368384	-1.229380	0.702247	-0.167169	-1.175231	0.724921	-0.172002	-1.200383	0.663989	-0.173795	-1.144482	0.681070	-0.178178	-1.084148	0.499776	-0.220282	-1.084336	0.506566	-0.331186	-1.212714	0.439500	-0.199976	-1.182638	0.407445	-0.210645	-1.248970	0.405481	-0.204098	-1.222167	0.376834	-0.214634	-1.394785	0.250559	-0.242146	-1.376738	0.258417	-0.324622	-1.346708	0.115202	-0.211090	-1.316036	0.106863	-0.321896	-1.283350	0.111676	-0.264197	-1.472935	0.270422	-0.300169	-1.277216	0.691417	-0.505183	-1.228664	0.705445	-0.507449	-1.274598	0.649187	-0.498669	-1.228099	0.662099	-0.504059	-1.190227	0.488327	-0.469407	-1.190244	0.486144	-0.369806	-1.280754	0.391073	-0.503270	-1.232317	0.375168	-0.489767	-1.300451	0.337523	-0.502085	-1.253567	0.325664	-0.489520	-1.370302	0.124182	-0.475876	-1.345805	0.126437	-0.391939	-1.273724	0.038292	-0.530170	-1.245538	0.047927	-0.411822	-1.201370	0.064009	-0.467669	-1.454670	0.092908	-0.425359	-1.232062	1.397902	-0.150041	-1.212241	1.416726	-0.483985	
18	0.0850	-1.194047	0.940580	-0.226228	-1.214358	0.946102	-0.454237	-1.388633	0.950954	-0.274421	-1.394623	0.961987	-0.367325	-1.208452	0.704354	-0.166254	-1.154578	0.728328	-0.170870	-1.178542	0.666714	-0.172925	-1.122778	0.685165	-0.177100	-1.058769	0.504531	-0.219599	-1.059437	0.511433	-0.330409	-1.184357	0.439130	-0.199045	-1.153139	0.408557	-0.209724	-1.218978	0.403691	-0.203073	-1.191098	0.376338	-0.213545	-1.357382	0.242554	-0.240912	-1.339679	0.251283	-0.323346	-1.302980	0.110258	-0.209566	-1.271975	0.103336	-0.320351	-1.239635	0.109717	-0.262643	-1.436201	0.258663	-0.298989	-1.262697	0.691224	-0.504109	-1.213917	0.704522	-0.506094	-1.260718	0.648970	-0.497698	-1.213977	0.661162	-0.502834	-1.179021	0.486496	-0.468800	-1.178941	0.484084	-0.368924	-1.272124	0.391722	-0.502701	-1.224026	0.374475	-0.489356	-1.293126	0.338627	-0.501513	-1.246523	0.325500	-0.489146	-1.368327	0.126740	-0.475925	-1.343662	0.128060	-0.391952	-1.274330	0.037997	-0.530299	-1.246061	0.047435	-0.412095	-1.201790	0.063155	-0.467902	-1.453390	0.096504	-0.425362	-1.217076	1.398353	-0.148530	-1.194848	1.417295	-0.482332	
19	0.0900	-1.176588	0.941601	-0.225298	-1.197233	0.946320	-0.453317	-1.371221	0.950739	-0.273241	-1.377317	0.961919	-0.366145	-1.187643	0.706735	-0.165301	-1.134051	0.731952	-0.169731	-1.156899	0.669685	-0.172048	-1.101295	0.689452	-0.176028	-1.033840	0.509412	-0.218940	-1.035025	0.516380	-0.329639	-1.156165	0.438770	-0.198121	-1.123806	0.409799	-0.208796	-1.189001	0.401901	-0.202057	-1.160046	0.375960	-0.212438	-1.319346	0.234569	-0.239671	-1.302039	0.244167	-0.322069	-1.258561	0.105738	-0.208043	-1.227281	0.100296	-0.318816	-1.195389	0.108271	-0.261099	-1.398652	0.246733	-0.297806	-1.247942	0.691276	-0.502992	-1.198919	0.703832	-0.504624	-1.246606	0.649000	-0.496698	-1.199607	0.660459	-0.501522	-1.167655	0.484883	-0.468198	-1.167531	0.482193	-0.368016	-1.263356	0.392654	-0.502170	-1.215626	0.374070	-0.489006	-1.285651	0.340047	-0.500988	-1.239351	0.325654	-0.488853	-1.366074	0.129687	-0.476095	-1.341236	0.130053	-0.392107	-1.274958	0.037879	-0.530432	-1.246630	0.047141	-0.412411	-1.202323	0.062441	-0.468175	-1.451694	0.100673	-0.425435	-1.202043	1.399056	-0.146957	-1.177443	1.418164	-0.480516	
20	0.0950	-1.158990	0.942958	-0.224289	-1.179921	0.946772	-0.452272	-1.353637	0.950794	-0.271952	-1.359822	0.962095	-0.364843	-1.166993	0.709351	-0.164310	-1.113683	0.735739	-0.168587	-1.135500	0.672855	-0.171163	-1.080077	0.693871	-0.174962	-1.009423	0.514355	-0.218307	-1.011166	0.521339	-0.328874	-1.128200	0.438396	-0.197198	-1.094712	0.411143	-0.207862	-1.159106	0.400104	-0.201048	-1.129089	0.375690	-0.211316	-1.280765	0.226674	-0.238427	-1.263912	0.237132	-0.320796	-1.213582	0.101712	-0.206527	-1.182094	0.097809	-0.317301	-1.150754	0.107396	-0.259574	-1.360364	0.234719	-0.296622	-1.232946	0.691571	-0.501836	-1.183673	0.703385	-0.503049	-1.232252	0.649276	-0.495674	-1.184982	0.659997	-0.500132	-1.156086	0.483502	-0.467609	-1.155966	0.480486	-0.367092	-1.254388	0.393873	-0.501679	-1.207056	0.373961	-0.488719	-1.277960	0.341787	-0.500512	-1.231989	0.326134	-0.488640	-1.363476	0.133032	-0.476378	-1.338467	0.132423	-0.392395	-1.275569	0.037968	-0.530560	-1.247202	0.047056	-0.412757	-1.202930	0.061851	-0.468475	-1.449508	0.105446	-0.425575	-1.186974	1.400000	-0.145330	-1.160057	1.419316	-0.478546	
21	0.1000	-1.141273	0.944627	-0.223198	-1.162443	0.947452	-0.451100	-1.335900	0.951114	-0.270556	-1.342157	0.962506	-0.363416	-1.146540	0.712156	-0.163280	-1.093507	0.739633	-0.167437	-1.114385	0.676171	-0.170266	-1.059163	0.698355	-0.173901	-0.985574	0.519295	-0.217698	-0.987918	0.526239	-0.328109	-1.100521	0.437988	-0.196271	-1.065928	0.412560	-0.206919	-1.129358	0.398295	-0.200041	-1.098303	0.375515	-0.210176	-1.241739	0.218936	-0.237181	-1.225398	0.230239	-0.319530	-1.168185	0.098247	-0.205028	-1.136564	0.095933	-0.315814	-1.105881	0.107141	-0.258077	-1.321424	0.222708	-0.295435	-1.217709	0.692107	-0.500648	-1.168180	0.703183	-0.501382	-1.217648	0.649794	-0.494633	-1.170096	0.659781	-0.498676	-1.144268	0.482363	-0.467040	-1.144197	0.478973	-0.366160	-1.245157	0.395378	-0.501233	-1.198254	0.374154	-0.488494	-1.269990	0.343847	-0.500088	-1.224372	0.326944	-0.488504	-1.360467	0.136780	-0.476768	-1.335292	0.135176	-0.392809	-1.276119	0.038295	-0.530676	-1.247727	0.047190	-0.413120	-1.203566	0.061376	-0.468788	-1.446756	0.110848	-0.425779	-1.171877	1.401169	-0.143656	-1.142717	1.420731	-0.476434	
22	0.1050	-1.123456	0.946577	-0.222028	-1.144821	0.948351	-0.449803	-1.318028	0.951683	-0.269054	-1.324343	0.963139	-0.361868	-1.126314	0.715102	-0.162210	-1.073546	0.743572	-0.166280	-1.093591	0.679578	-0.169354	-1.038584	0.702837	-0.172844	-0.962338	0.524164	-0.217111	-0.965331	0.531009	-0.327343	-1.073181	0.437524	-0.195335	-1.037519	0.414019	-0.205966	-1.099821	0.396467	-0.199031	-1.067764	0.375418	-0.209022	-1.202376	0.211421	-0.235936	-1.186607	0.223548	-0.318275	-1.122521	0.095400	-0.203552	-1.090849	0.094714	-0.314366	-1.060927	0.107544	-0.256616	-1.281933	0.210788	-0.294246	-1.202230	0.692875	-0.499435	-1.152445	0.703230	-0.499637	-1.202785	0.650545	-0.493583	-1.154946	0.659813	-0.497167	-1.132154	0.481472	-0.466500	-1.132171	0.477660	-0.365232	-1.235600	0.397165	-0.500836	-1.189157	0.374648	-0.488331	-1.261675	0.346222	-0.499717	-1.216435	0.328082	-0.488444	-1.356980	0.140931	-0.477255	-1.331653	0.138313	-0.393338	-1.276557	0.038891	-0.530773	-1.248149	0.047557	-0.413488	-1.204176	0.061004	-0.469102	-1.443364	0.116892	-0.426042	-1.156762	1.402543	-0.141941	-1.125448	1.422381	-0.474193	
23	0.1100	-1.105557	0.948772	-0.220778	-1.127075	0.949455	-0.448383	-1.300043	0.952486	-0.267451	-1.306400	0.963976	-0.360200	-1.106342	0.718138	-0.161099	-1.053822	0.747494	-0.165116	-1.073145	0.683018	-0.168421	-1.018365	0.707249	-0.171791	-0.939750	0.528894	-0.216543	-0.943444	0.535577	-0.326571	-1.046229	0.436981	-0.194385	-1.009547	0.415486	-0.205002	-1.070555	0.394614	-0.198014	-1.037542	0.375384	-0.207852	-1.162791	0.204192	-0.234694	-1.147657	0.217111	-0.317035	-1.076748	0.093213	-0.202109	-1.045114	0.094189	-0.312964	-1.016055	0.108632	-0.255202	-1.242001	0.199046	-0.293053	-1.186509	0.693864	-0.498204	-1.136470	0.703522	-0.497831	-1.187655	0.651517	-0.492530	-1.139527	0.660090	-0.495617	-1.119700	0.480832	-0.465997	-1.119832	0.476551	-0.364321	-1.225652	0.399224	-0.500489	-1.179701	0.375439	-0.488231	-1.252950	0.348903	-0.499402	-1.208114	0.329544	-0.488456	-1.352951	0.145480	-0.477826	-1.327489	0.141833	-0.393967	-1.276827	0.039789	-0.530844	-1.248403	0.048171	-0.413847	-1.204702	0.060733	-0.469404	-1.439260	0.123585	-0.426356	-1.141634	1.404099	-0.140193	-1.108273	1.424238	-0.471836	
24	0.1150	-1.087594	0.951171	-0.219454	-1.109228	0.950749	-0.446847	-1.281962	0.953500	-0.265752	-1.288348	0.964998	-0.358418	-1.086643	0.721209	-0.159945	-1.034348	0.751337	-0.163945	-1.053067	0.686432	-0.167460	-0.998523	0.711521	-0.170742	-0.917836	0.533421	-0.215993	-0.922286	0.539874	-0.325790	-1.019707	0.436339	-0.193415	-0.982064	0.416929	-0.204026	-1.041616	0.392729	-0.196984	-1.007705	0.375392	-0.206669	-1.123103	0.197303	-0.233458	-1.108667	0.210977	-0.315812	-1.031028	0.091717	-0.200706	-0.999524	0.094376	-0.311616	-0.971426	0.110417	-0.253843	-1.201748	0.187565	-0.291856	-1.170547	0.695057	-0.496964	-1.120261	0.704053	-0.495981	-1.172252	0.652694	-0.491483	-1.123838	0.660606	-0.494044	-1.106861	0.480442	-0.465541	-1.107125	0.475645	-0.363438	-1.215253	0.401541	-0.500194	-1.169825	0.376517	-0.488191	-1.243753	0.351875	-0.499140	-1.199347	0.331317	-0.488534	-1.348318	0.150417	-0.478469	-1.322746	0.145730	-0.394682	-1.276867	0.041019	-0.530882	-1.248422	0.049049	-0.414186	-1.205077	0.060558	-0.469684	-1.434379	0.130920	-0.426713	-1.126499	1.405811	-0.138418	-1.091212	1.426270	-0.469377	
25	0.1200	-1.069583	0.953729	-0.218058	-1.091302	0.952215	-0.445200	-1.263804	0.954698	-0.263964	-1.270209	0.966178	-0.356529	-1.067230	0.724262	-0.158747	-1.015130	0.755040	-0.162767	-1.033368	0.689762	-0.166466	-0.979064	0.715587	-0.169695	-0.896609	0.537682	-0.215455	-0.901872	0.543837	-0.324994	-0.993650	0.435581	-0.192420	-0.955114	0.418314	-0.203036	-1.013056	0.390808	-0.195937	-0.978313	0.375422	-0.205474	-1.083438	0.190801	-0.232228	-1.069761	0.205188	-0.314609	-0.985525	0.090928	-0.199350	-0.954249	0.095280	-0.310332	-0.927201	0.112893	-0.252548	-1.161302	0.176421	-0.290651	-1.154344	0.696436	-0.495724	-1.103823	0.704811	-0.494108	-1.156571	0.654055	-0.490449	-1.107878	0.661348	-0.492462	-1.093595	0.480295	-0.465140	-1.093998	0.474935	-0.362597	-1.204345	0.404098	-0.499953	-1.159471	0.377868	-0.488211	-1.234026	0.355120	-0.498932	-1.190074	0.333386	-0.488674	-1.343025	0.155729	-0.479170	-1.317369	0.149995	-0.395467	-1.276612	0.042610	-0.530880	-1.248134	0.050208	-0.414494	-1.205230	0.060484	-0.469934	-1.428661	0.138881	-0.427103	-1.111362	1.407650	-0.136621	-1.074282	1.428439	-0.466830	
26	0.1250	-1.051538	0.956398	-0.216597	-1.073318	0.953831	-0.443453	-1.245588	0.956050	-0.262094	-1.252002	0.967490	-0.354542	-1.048107	0.727242	-0.157502	-0.996170	0.758541	-0.161579	-1.014053	0.692951	-0.165431	-0.959988	0.719385	-0.168650	-0.876070	0.541621	-0.214926	-0.882205	0.547407	-0.324180	-0.968084	0.434689	-0.191397	-0.928735	0.419609	-0.202032	-0.984919	0.388844	-0.194868	-0.949420	0.375454	-0.204267	-1.043921	0.184725	-0.231006	-1.031065	0.199776	-0.313426	-0.940401	0.090842	-0.198049	-0.909451	0.096888	-0.309117	-0.883537	0.116041	-0.251324	-1.120799	0.165686	-0.289439	-1.137905	0.697977	-0.494491	-1.087164	0.705781	-0.492230	-1.140608	0.655576	-0.489437	-1.091647	0.662303	-0.490889	-1.079864	0.480381	-0.464802	-1.080399	0.474412	-0.361809	-1.192877	0.406873	-0.499766	-1.148585	0.379472	-0.488289	-1.223714	0.358613	-0.498773	-1.180241	0.335730	-0.488869	-1.337021	0.161396	-0.479911	-1.311312	0.154615	-0.396303	-1.275990	0.044588	-0.530832	-1.247462	0.051664	-0.414761	-1.205084	0.060515	-0.470145	-1.422053	0.147441	-0.427517	-1.096223	1.409582	-0.134807	-1.057496	1.430710	-0.464209	
27	0.1300	-1.033472	0.959130	-0.215078	-1.055298	0.955573	-0.441616	-1.227330	0.957520	-0.260153	-1.233747	0.968902	-0.352467	-1.029273	0.730097	-0.156209	-0.977462	0.761787	-0.160383	-0.995116	0.695944	-0.164348	-0.941287	0.722858	-0.167606	-0.856209	0.545187	-0.214401	-0.863278	0.550531	-0.323343	-0.943031	0.433648	-0.190341	-0.902954	0.420783	-0.201013	-0.957247	0.386832	-0.193774	-0.921072	0.375466	-0.203052	-1.004678	0.179102	-0.229794	-0.992702	0.194763	-0.312267	-0.895818	0.091442	-0.196809	-0.865293	0.099168	-0.307979	-0.840584	0.119822	-0.250178	-1.080379	0.155421	-0.288216	-1.121232	0.699652	-0.493274	-1.070291	0.706944	-0.490367	-1.124360	0.657229	-0.488452	-1.075148	0.663449	-0.489340	-1.065633	0.480684	-0.464536	-1.066281	0.474061	-0.361086	-1.180802	0.409840	-0.499630	-1.137121	0.381306	-0.488423	-1.212769	0.362328	-0.498660	-1.169800	0.338325	-0.489113	-1.330260	0.167396	-0.480676	-1.304531	0.159573	-0.397173	-1.274930	0.046974	-0.530733	-1.246327	0.053434	-0.414978	-1.204561	0.060662	-0.470312	-1.414513	0.156562	-0.427941	-1.081085	1.411574	-0.132980	-1.040863	1.433041	-0.461527	
28	0.1350	-1.015397	0.961872	-0.213507	-1.037260	0.957415	-0.439702	-1.209045	0.959070	-0.258149	-1.215463	0.970378	-0.350313	-1.010723	0.732775	-0.154867	-0.958997	0.764725	-0.159177	-0.976546	0.698692	-0.163211	-0.922944	0.725952	-0.166562	-0.837006	0.548335	-0.213876	-0.845069	0.553168	-0.322480	-0.918502	0.432449	-0.189249	-0.877789	0.421806	-0.199979	-0.930071	0.384768	-0.192651	-0.893309	0.375436	-0.201829	-0.965835	0.173951	-0.228592	-0.954795	0.190164	-0.311130	-0.851931	0.092691	-0.195636	-0.821928	0.102073	-0.306922	-0.798484	0.124182	-0.249115	-1.040186	0.145678	-0.286981	-1.104331	0.701433	-0.492083	-1.053211	0.708277	-0.488536	-1.107827	0.658984	-0.487502	-1.058382	0.664764	-0.487832	-1.050873	0.481183	-0.464347	-1.051600	0.473864	-0.360438	-1.168079	0.412969	-0.499545	-1.125036	0.383343	-0.488612	-1.201151	0.366234	-0.498589	-1.158708	0.341142	-0.489400	-1.322706	0.173700	-0.481447	-1.296990	0.164847	-0.398057	-1.273358	0.049786	-0.530580	-1.244651	0.055529	-0.415139	-1.203578	0.060936	-0.470430	-1.406006	0.166197	-0.428364	-1.065949	1.413590	-0.131142	-1.024391	1.435394	-0.458798	
29	0.1400	-0.997323	0.964576	-0.211894	-1.019226	0.959330	-0.437724	-1.190749	0.960660	-0.256092	-1.197168	0.971883	-0.348094	-0.992441	0.735229	-0.153474	-0.940759	0.767311	-0.157961	-0.958324	0.701148	-0.162014	-0.904936	0.728623	-0.165519	-0.818429	0.551030	-0.213345	-0.827545	0.555283	-0.321587	-0.894504	0.431082	-0.188121	-0.853249	0.422653	-0.198931	-0.903421	0.382646	-0.191496	-0.866162	0.375343	-0.200603	-0.927516	0.169277	-0.227402	-0.917463	0.185980	-0.310016	-0.808890	0.094536	-0.194536	-0.779502	0.105536	-0.305951	-0.757368	0.129049	-0.248141	-1.000367	0.136499	-0.285733	-1.087206	0.703287	-0.490923	-1.035932	0.709752	-0.486757	-1.091011	0.660807	-0.486593	-1.041356	0.666220	-0.486379	-1.035559	0.481857	-0.464244	-1.036322	0.473801	-0.359877	-1.154677	0.416229	-0.499508	-1.112297	0.385551	-0.488851	-1.188827	0.370298	-0.498555	-1.146931	0.344149	-0.489721	-1.314328	0.180278	-0.482209	-1.288659	0.170412	-0.398937	-1.271199	0.053032	-0.530370	-1.242355	0.057962	-0.415240	-1.202054	0.061352	-0.470499	-1.396510	0.176286	-0.428772	-1.050814	1.415592	-0.129294	-1.008084	1.437727	-0.456035	
30	0.1450	-0.979260	0.967190	-0.210247	-1.001211	0.961286	-0.435695	-1.172455	0.962245	-0.253993	-1.178879	0.973377	-0.345820	-0.974410	0.737416	-0.152030	-0.922728	0.769504	-0.156735	-0.940425	0.703271	-0.160753	-0.887234	0.730833	-0.164475	-0.800440	0.553246	-0.212804	-0.810665	0.556853	-0.320663	-0.871036	0.429543	-0.186954	-0.829336	0.423299	-0.197870	-0.877317	0.380464	-0.190310	-0.839655	0.375165	-0.199376	-0.889841	0.165076	-0.226225	-0.880821	0.182205	-0.308924	-0.766836	0.096907	-0.193511	-0.738151	0.109477	-0.305069	-0.717356	0.134338	-0.247260	-0.961067	0.127916	-0.284470	-1.069864	0.705178	-0.489804	-1.018462	0.711338	-0.485044	-1.073914	0.662662	-0.485729	-1.024075	0.667786	-0.484995	-1.019674	0.482677	-0.464229	-1.020415	0.473845	-0.359408	-1.140571	0.419585	-0.499515	-1.098876	0.387899	-0.489139	-1.175769	0.374484	-0.498551	-1.134441	0.347310	-0.490071	-1.305104	0.187092	-0.482943	-1.279513	0.176239	-0.399794	-1.268382	0.056717	-0.530101	-1.239361	0.060737	-0.415277	-1.199905	0.061927	-0.470519	-1.386014	0.186762	-0.429151	-1.035679	1.417541	-0.127437	-0.991943	1.440000	-0.453249	
31	0.1500	-0.961216	0.969668	-0.208575	-0.983234	0.963253	-0.433631	-1.154177	0.963780	-0.251861	-1.160612	0.974821	-0.343505	-0.956608	0.739297	-0.150536	-0.904884	0.771272	-0.155497	-0.922819	0.705027	-0.159425	-0.869805	0.732554	-0.163430	-0.782989	0.554963	-0.212248	-0.794375	0.557865	-0.319706	-0.848092	0.427828	-0.185751	-0.806044	0.423725	-0.196799	-0.851777	0.378219	-0.189092	-0.813804	0.374884	-0.198152	-0.852926	0.161333	-0.225063	-0.844978	0.178823	-0.307856	-0.725903	0.099722	-0.192568	-0.698001	0.113798	-0.304279	-0.678558	0.139947	-0.246475	-0.922434	0.119950	-0.283193	-1.052312	0.707071	-0.488731	-1.000811	0.713003	-0.483413	-1.056540	0.664514	-0.484916	-1.006545	0.669429	-0.483691	-1.003203	0.483614	-0.464307	-1.003857	0.473972	-0.359040	-1.125746	0.423004	-0.499563	-1.084755	0.390351	-0.489473	-1.161962	0.378755	-0.498572	-1.121220	0.350590	-0.490442	-1.295021	0.194106	-0.483634	-1.269537	0.182297	-0.400613	-1.264834	0.060836	-0.529774	-1.235596	0.063856	-0.415251	-1.197051	0.062679	-0.470491	-1.374516	0.197553	-0.429488	-1.020543	1.419401	-0.125569	-0.975968	1.442173	-0.450450	
32	0.1550	-0.943200	0.971963	-0.206886	-0.965309	0.965198	-0.431546	-1.135927	0.965220	-0.249706	-1.142382	0.976172	-0.341160	-0.939009	0.740838	-0.148993	-0.887202	0.772592	-0.154249	-0.905471	0.706389	-0.158028	-0.852613	0.733764	-0.162383	-0.766023	0.556173	-0.211674	-0.778616	0.558318	-0.318714	-0.825661	0.425940	-0.184514	-0.783359	0.423914	-0.195721	-0.826810	0.375909	-0.187844	-0.788618	0.374480	-0.196936	-0.816880	0.158023	-0.223917	-0.810036	0.175806	-0.306810	-0.686212	0.102883	-0.191707	-0.659164	0.118391	-0.303582	-0.641065	0.145764	-0.245787	-0.884607	0.112612	-0.281900	-1.034557	0.708927	-0.487708	-0.982985	0.714710	-0.481875	-1.038896	0.666323	-0.484156	-0.988773	0.671114	-0.482478	-0.986139	0.484638	-0.464481	-0.986633	0.474154	-0.358777	-1.110193	0.426449	-0.499647	-1.069923	0.392872	-0.489848	-1.147394	0.383073	-0.498612	-1.107255	0.353950	-0.490828	-1.284073	0.201278	-0.484268	-1.258719	0.188548	-0.401375	-1.260488	0.065374	-0.529390	-1.230989	0.067313	-0.415164	-1.193415	0.063622	-0.470419	-1.362026	0.208577	-0.429770	-1.005405	1.421131	-0.123687	-0.960156	1.444207	-0.447649	
33	0.1600	-0.925218	0.974036	-0.205190	-0.947450	0.967086	-0.429453	-1.117716	0.966520	-0.247536	-1.124204	0.977390	-0.338796	-0.921586	0.742012	-0.147403	-0.869658	0.773445	-0.152990	-0.888347	0.707334	-0.156563	-0.835617	0.734452	-0.161335	-0.749483	0.556875	-0.211078	-0.763321	0.558219	-0.317690	-0.803727	0.423882	-0.183247	-0.761263	0.423853	-0.194640	-0.802425	0.373533	-0.186570	-0.764101	0.373936	-0.195735	-0.781806	0.155112	-0.222789	-0.776089	0.173123	-0.305787	-0.647873	0.106284	-0.190933	-0.621742	0.123138	-0.302979	-0.604961	0.151666	-0.245198	-0.847726	0.105902	-0.280594	-1.016606	0.710709	-0.486742	-0.964994	0.716424	-0.480441	-1.020987	0.668053	-0.483451	-0.970768	0.672803	-0.481364	-0.968480	0.485714	-0.464749	-0.968735	0.474363	-0.358620	-1.093912	0.429886	-0.499762	-1.054374	0.395424	-0.490262	-1.132066	0.387400	-0.498664	-1.092542	0.357353	-0.491223	-1.272261	0.208563	-0.484831	-1.247057	0.194955	-0.402069	-1.255282	0.070312	-0.528954	-1.225478	0.071097	-0.415019	-1.188922	0.064774	-0.470309	-1.348564	0.219748	-0.429986	-0.990264	1.422695	-0.121790	-0.944502	1.446068	-0.444854	
34	0.1650	-0.907277	0.975846	-0.203494	-0.929670	0.968885	-0.427366	-1.099555	0.967634	-0.245359	-1.106091	0.978434	-0.336425	-0.904311	0.742797	-0.145770	-0.852226	0.773824	-0.151721	-0.871407	0.707848	-0.155034	-0.818781	0.734615	-0.160286	-0.733305	0.557077	-0.210460	-0.748418	0.557588	-0.316636	-0.782272	0.421663	-0.181955	-0.739730	0.423534	-0.193562	-0.778622	0.371092	-0.185276	-0.740248	0.373239	-0.194553	-0.747799	0.152559	-0.221683	-0.743223	0.170732	-0.304787	-0.610984	0.109811	-0.190247	-0.585820	0.127911	-0.302469	-0.570309	0.157523	-0.244709	-0.811921	0.099813	-0.279276	-0.998467	0.712380	-0.485834	-0.946845	0.718106	-0.479116	-1.002820	0.669665	-0.482804	-0.952536	0.674461	-0.480354	-0.950230	0.486813	-0.465110	-0.950162	0.474575	-0.358571	-1.076908	0.433282	-0.499903	-1.038112	0.397974	-0.490712	-1.115980	0.391700	-0.498723	-1.077084	0.360762	-0.491622	-1.259592	0.215918	-0.485313	-1.234552	0.201476	-0.402683	-1.249157	0.075617	-0.528470	-1.219003	0.075190	-0.414823	-1.183504	0.066146	-0.470169	-1.334159	0.230978	-0.430125	-0.975118	1.424055	-0.119873	-0.929000	1.447719	-0.442074	
35	0.1700	-0.889386	0.977362	-0.201806	-0.911980	0.970559	-0.425298	-1.081454	0.968521	-0.243183	-1.088056	0.979264	-0.334057	-0.887153	0.743177	-0.144100	-0.834883	0.773725	-0.150441	-0.854615	0.707924	-0.153445	-0.802064	0.734258	-0.159234	-0.717425	0.556797	-0.209817	-0.733831	0.556455	-0.315556	-0.761274	0.419291	-0.180646	-0.718732	0.422952	-0.192493	-0.755400	0.368588	-0.183967	-0.717052	0.372374	-0.193399	-0.714944	0.150316	-0.220602	-0.711514	0.168587	-0.303812	-0.575631	0.113345	-0.189650	-0.551472	0.132582	-0.302053	-0.537164	0.163203	-0.244321	-0.777314	0.094327	-0.277948	-0.980147	0.713903	-0.484987	-0.928543	0.719720	-0.477905	-0.984402	0.671125	-0.482214	-0.934085	0.676050	-0.479450	-0.931396	0.487901	-0.465563	-0.930923	0.474762	-0.358627	-1.059195	0.436603	-0.500066	-1.021144	0.400488	-0.491192	-1.099150	0.395937	-0.498784	-1.060888	0.364139	-0.492021	-1.246081	0.223296	-0.485704	-1.221210	0.208067	-0.403207	-1.242062	0.081253	-0.527945	-1.211514	0.079567	-0.414583	-1.177101	0.067748	-0.470005	-1.318847	0.242178	-0.430176	-0.959966	1.425178	-0.117932	-0.913644	1.449131	-0.439316	
36	0.1750	-0.871549	0.978555	-0.200130	-0.894387	0.972076	-0.423258	-1.063424	0.969140	-0.241013	-1.070108	0.979842	-0.331701	-0.870085	0.743144	-0.142397	-0.817606	0.773156	-0.149151	-0.837931	0.707563	-0.151805	-0.785429	0.733394	-0.158181	-0.701777	0.556057	-0.209151	-0.719484	0.554856	-0.314454	-0.740710	0.416780	-0.179328	-0.698238	0.422106	-0.191441	-0.732754	0.366022	-0.182654	-0.694499	0.371333	-0.192280	-0.683319	0.148332	-0.219550	-0.681028	0.166640	-0.302863	-0.541884	0.116767	-0.189144	-0.518757	0.137020	-0.301728	-0.505561	0.168571	-0.244033	-0.744019	0.089421	-0.276616	-0.961651	0.715244	-0.484200	-0.910094	0.721229	-0.476808	-0.965742	0.672398	-0.481680	-0.915422	0.677535	-0.478655	-0.911990	0.488950	-0.466100	-0.911028	0.474904	-0.358785	-1.040789	0.439821	-0.500245	-1.003483	0.402933	-0.491699	-1.081591	0.400077	-0.498841	-1.043968	0.367451	-0.492416	-1.231746	0.230648	-0.485999	-1.207044	0.214683	-0.403634	-1.233951	0.087172	-0.527387	-1.202968	0.084194	-0.414310	-1.169655	0.069584	-0.469828	-1.302672	0.253256	-0.430132	-0.944804	1.426030	-0.115960	-0.898424	1.450274	-0.436584	
37	0.1800	-0.853776	0.979402	-0.198473	-0.876900	0.973402	-0.421256	-1.045474	0.969455	-0.238853	-1.052258	0.980133	-0.329364	-0.853081	0.742694	-0.140670	-0.800374	0.772129	-0.147851	-0.821320	0.706770	-0.150123	-0.768842	0.732045	-0.157125	-0.686295	0.554889	-0.208463	-0.705299	0.552836	-0.313338	-0.720555	0.414144	-0.178013	-0.678214	0.420999	-0.190416	-0.710675	0.363398	-0.181346	-0.672574	0.370109	-0.191204	-0.652991	0.146554	-0.218532	-0.651822	0.164840	-0.301943	-0.509803	0.119959	-0.188729	-0.487719	0.141096	-0.301495	-0.475527	0.173496	-0.243845	-0.712138	0.085068	-0.275284	-0.942985	0.716371	-0.483473	-0.891503	0.722599	-0.475825	-0.946843	0.673454	-0.481199	-0.896552	0.678883	-0.477964	-0.892027	0.489934	-0.466717	-0.890497	0.474982	-0.359038	-1.021715	0.442910	-0.500434	-0.985147	0.405281	-0.492229	-1.063326	0.404091	-0.498891	-1.026342	0.370665	-0.492804	-1.216609	0.237929	-0.486193	-1.192068	0.221276	-0.403962	-1.224786	0.093321	-0.526806	-1.193328	0.089033	-0.414013	-1.161121	0.071654	-0.469647	-1.285682	0.264126	-0.429989	-0.929632	1.426583	-0.113954	-0.883330	1.451126	-0.433886	
38	0.1850	-0.836071	0.979885	-0.196836	-0.859523	0.974506	-0.419299	-1.027612	0.969434	-0.236710	-1.034513	0.980106	-0.327055	-0.836115	0.741832	-0.138926	-0.783171	0.770664	-0.146543	-0.804749	0.705559	-0.148411	-0.752271	0.730237	-0.156067	-0.670918	0.553328	-0.207757	-0.691200	0.550449	-0.312216	-0.700786	0.411401	-0.176712	-0.658625	0.419638	-0.189425	-0.689154	0.360723	-0.180054	-0.651254	0.368697	-0.190182	-0.624015	0.144927	-0.217555	-0.623941	0.163135	-0.301056	-0.479430	0.122807	-0.188406	-0.458391	0.144690	-0.301350	-0.447073	0.177853	-0.243757	-0.681760	0.081233	-0.273958	-0.924152	0.717256	-0.482801	-0.872772	0.723798	-0.474950	-0.927713	0.674266	-0.480768	-0.877479	0.680063	-0.477375	-0.871523	0.490829	-0.467402	-0.869353	0.474980	-0.359378	-1.001997	0.445847	-0.500630	-0.966157	0.407508	-0.492776	-1.044379	0.407950	-0.498930	-1.008030	0.373754	-0.493182	-1.200695	0.245089	-0.486286	-1.176299	0.227800	-0.404190	-1.214536	0.099639	-0.526212	-1.182568	0.094038	-0.413706	-1.151456	0.073952	-0.469473	-1.267927	0.274701	-0.429741	-0.914445	1.426811	-0.111908	-0.868353	1.451664	-0.431224	
39	0.1900	-0.818443	0.979991	-0.195221	-0.842258	0.975360	-0.417393	-1.009845	0.969052	-0.234584	-1.016881	0.979733	-0.324777	-0.819165	0.740566	-0.137173	-0.765981	0.768787	-0.145225	-0.788188	0.703947	-0.146682	-0.735688	0.728005	-0.155006	-0.655584	0.551415	-0.207036	-0.677113	0.547750	-0.311097	-0.681377	0.408568	-0.175437	-0.639435	0.418034	-0.188481	-0.668178	0.358002	-0.178792	-0.630519	0.367095	-0.189221	-0.596437	0.143398	-0.216625	-0.597422	0.161478	-0.300207	-0.450797	0.125209	-0.188175	-0.430791	0.147690	-0.301293	-0.420199	0.181525	-0.243768	-0.652962	0.077880	-0.272646	-0.905154	0.717875	-0.482182	-0.853901	0.724801	-0.474175	-0.908355	0.674812	-0.480383	-0.858207	0.681050	-0.476879	-0.850500	0.491616	-0.468147	-0.847623	0.474888	-0.359796	-0.981663	0.448612	-0.500827	-0.946534	0.409591	-0.493334	-1.024778	0.411631	-0.498955	-0.989055	0.376691	-0.493548	-1.184029	0.252084	-0.486279	-1.159756	0.234205	-0.404318	-1.203176	0.106062	-0.525618	-1.170665	0.099157	-0.413401	-1.140627	0.076464	-0.469315	-1.249459	0.284900	-0.429389	-0.899241	1.426691	-0.109817	-0.853480	1.451872	-0.428604	
40	0.1950	-0.800896	0.979716	-0.193627	-0.825105	0.975937	-0.415539	-0.992181	0.968288	-0.232479	-0.999365	0.978993	-0.322537	-0.802213	0.738911	-0.135423	-0.748792	0.766529	-0.143899	-0.771609	0.701959	-0.144949	-0.719070	0.725388	-0.153943	-0.640239	0.549193	-0.206307	-0.662970	0.544799	-0.309991	-0.662304	0.405666	-0.174202	-0.620610	0.416200	-0.187593	-0.647734	0.355244	-0.177574	-0.610344	0.365308	-0.188333	-0.570291	0.141917	-0.215750	-0.572287	0.159821	-0.299401	-0.423920	0.127070	-0.188037	-0.404924	0.149997	-0.301322	-0.394893	0.184410	-0.243878	-0.625805	0.074973	-0.271356	-0.885992	0.718210	-0.481610	-0.834891	0.725583	-0.473492	-0.888772	0.675074	-0.480037	-0.838737	0.681822	-0.476468	-0.828978	0.492283	-0.468937	-0.825336	0.474702	-0.360277	-0.960742	0.451191	-0.501020	-0.926301	0.411515	-0.493898	-1.004550	0.415112	-0.498965	-0.969440	0.379457	-0.493901	-1.166635	0.258865	-0.486175	-1.142457	0.240445	-0.404351	-1.190686	0.112521	-0.525035	-1.157607	0.104334	-0.413110	-1.128609	0.079174	-0.469186	-1.230329	0.294647	-0.428932	-0.884014	1.426207	-0.107677	-0.838698	1.451740	-0.426027	
41	0.2000	-0.783436	0.979057	-0.192053	-0.808060	0.976214	-0.413740	-0.974625	0.967127	-0.230396	-0.981968	0.977866	-0.320339	-0.785242	0.736889	-0.133683	-0.731595	0.763924	-0.142565	-0.754989	0.699625	-0.143229	-0.702397	0.722429	-0.152875	-0.624831	0.546709	-0.205576	-0.648705	0.541658	-0.308908	-0.643544	0.402715	-0.173021	-0.602116	0.414152	-0.186773	-0.627806	0.352458	-0.176412	-0.590704	0.363338	-0.187526	-0.545603	0.140440	-0.214937	-0.548554	0.158124	-0.298645	-0.398805	0.128313	-0.187991	-0.380785	0.151528	-0.301435	-0.371135	0.186420	-0.244087	-0.600335	0.072473	-0.270097	-0.866666	0.718245	-0.481076	-0.815739	0.726126	-0.472888	-0.868966	0.675042	-0.479724	-0.819069	0.682363	-0.476130	-0.806978	0.492822	-0.469760	-0.802525	0.474422	-0.360810	-0.939263	0.453572	-0.501204	-0.905483	0.413268	-0.494460	-0.983726	0.418377	-0.498957	-0.949208	0.382033	-0.494237	-1.148538	0.265390	-0.485980	-1.124421	0.246472	-0.404294	-1.177053	0.118945	-0.524475	-1.143384	0.109511	-0.412847	-1.115382	0.082054	-0.469092	-1.210586	0.303872	-0.428376	-0.868757	1.425346	-0.105482	-0.823992	1.451258	-0.423497	
42	0.2050	-0.766067	0.978020	-0.190494	-0.791119	0.976171	-0.411992	-0.957179	0.965563	-0.228336	-0.964690	0.976343	-0.318184	-0.768240	0.734523	-0.131964	-0.714384	0.761012	-0.141223	-0.738310	0.696975	-0.141536	-0.685656	0.719173	-0.151803	-0.609315	0.544009	-0.204851	-0.634261	0.538390	-0.307861	-0.625077	0.399737	-0.171907	-0.583922	0.411908	-0.186031	-0.608379	0.349655	-0.175322	-0.571573	0.361196	-0.186809	-0.522384	0.138927	-0.214195	-0.526225	0.156353	-0.297946	-0.375443	0.128875	-0.188037	-0.358357	0.152217	-0.301631	-0.348895	0.187483	-0.244394	-0.576586	0.070344	-0.268879	-0.847171	0.717973	-0.480573	-0.796442	0.726418	-0.472348	-0.848936	0.674708	-0.479433	-0.799203	0.682662	-0.475852	-0.784524	0.493230	-0.470597	-0.779222	0.474053	-0.361376	-0.917256	0.455750	-0.501374	-0.884102	0.414842	-0.495012	-0.962331	0.421413	-0.498929	-0.928382	0.384408	-0.494555	-1.129760	0.271615	-0.485701	-1.105665	0.252241	-0.404157	-1.162266	0.125260	-0.523950	-1.127994	0.114625	-0.412621	-1.100929	0.085076	-0.469044	-1.190273	0.312511	-0.427725	-0.853465	1.424102	-0.103232	-0.809346	1.450426	-0.421016	
43	0.2100	-0.748794	0.976614	-0.188944	-0.774272	0.975794	-0.410293	-0.939847	0.963595	-0.226300	-0.947528	0.974419	-0.316074	-0.751195	0.731844	-0.130275	-0.697155	0.757833	-0.139873	-0.721556	0.694046	-0.139885	-0.668836	0.715670	-0.150726	-0.593653	0.541139	-0.204140	-0.619588	0.535055	-0.306861	-0.606882	0.396752	-0.170875	-0.566000	0.409490	-0.185379	-0.589436	0.346847	-0.174318	-0.552926	0.358893	-0.186193	-0.500637	0.137348	-0.213532	-0.505296	0.154480	-0.297314	-0.353815	0.128713	-0.188176	-0.337610	0.152018	-0.301908	-0.328137	0.187550	-0.244800	-0.554572	0.068549	-0.267713	-0.827506	0.717393	-0.480090	-0.776994	0.726454	-0.471858	-0.828681	0.674074	-0.479156	-0.779134	0.682714	-0.475618	-0.761637	0.493510	-0.471432	-0.755461	0.473608	-0.361959	-0.894747	0.457722	-0.501523	-0.862180	0.416235	-0.495545	-0.940394	0.424211	-0.498879	-0.906983	0.386574	-0.494851	-1.110317	0.277499	-0.485348	-1.086204	0.257708	-0.403947	-1.146321	0.131395	-0.523472	-1.111437	0.119614	-0.412446	-1.085243	0.088204	-0.469047	-1.169429	0.320508	-0.426988	-0.838128	1.422473	-0.100922	-0.794745	1.449244	-0.418585	
44	0.2150	-0.731617	0.974854	-0.187394	-0.757507	0.975073	-0.408637	-0.922628	0.961231	-0.224289	-0.930478	0.972095	-0.314012	-0.734103	0.728883	-0.128624	-0.679908	0.754429	-0.138514	-0.704718	0.690877	-0.138290	-0.651930	0.711968	-0.149643	-0.577813	0.538146	-0.203451	-0.604643	0.531710	-0.305918	-0.588943	0.393783	-0.169937	-0.548324	0.406920	-0.184825	-0.570963	0.344047	-0.173413	-0.534738	0.356441	-0.185684	-0.480355	0.135679	-0.212959	-0.485755	0.152487	-0.296755	-0.333890	0.127801	-0.188405	-0.318510	0.150908	-0.302264	-0.308817	0.186593	-0.245304	-0.534295	0.067056	-0.266610	-0.807663	0.716508	-0.479615	-0.757390	0.726233	-0.471399	-0.808199	0.673146	-0.478882	-0.758860	0.682523	-0.475413	-0.738340	0.493673	-0.472246	-0.731275	0.473102	-0.362540	-0.871763	0.459489	-0.501646	-0.839737	0.417449	-0.496048	-0.917940	0.426766	-0.498806	-0.885030	0.388526	-0.495122	-1.090223	0.283003	-0.484929	-1.066048	0.262831	-0.403676	-1.129214	0.137279	-0.523050	-1.093717	0.124416	-0.412328	-1.068316	0.091397	-0.469106	-1.148086	0.327813	-0.426174	-0.822736	1.420465	-0.098554	-0.780169	1.447722	-0.416205	
45	0.2200	-0.714537	0.972761	-0.185835	-0.740811	0.974005	-0.407014	-0.905518	0.958486	-0.222302	-0.913532	0.969380	-0.311999	-0.716959	0.725676	-0.127019	-0.662641	0.750846	-0.137146	-0.687787	0.687506	-0.136763	-0.634937	0.708119	-0.148552	-0.561770	0.535072	-0.202793	-0.589392	0.528410	-0.305042	-0.571246	0.390850	-0.169104	-0.530872	0.404220	-0.184378	-0.552944	0.341268	-0.172618	-0.516988	0.353859	-0.185290	-0.461520	0.133906	-0.212481	-0.467578	0.150363	-0.296280	-0.315628	0.126134	-0.188724	-0.301010	0.148884	-0.302697	-0.290887	0.184603	-0.245904	-0.515738	0.065836	-0.265579	-0.787637	0.715329	-0.479136	-0.737622	0.725763	-0.470954	-0.787487	0.671939	-0.478598	-0.738377	0.682097	-0.475218	-0.714654	0.493735	-0.473016	-0.706696	0.472557	-0.363098	-0.848327	0.461058	-0.501735	-0.816792	0.418493	-0.496510	-0.894990	0.429075	-0.498706	-0.862540	0.390267	-0.495363	-1.069489	0.288089	-0.484456	-1.045206	0.267572	-0.403352	-1.110944	0.142844	-0.522694	-1.074839	0.128970	-0.412275	-1.050144	0.094612	-0.469226	-1.126268	0.334384	-0.425295	-0.807279	1.418088	-0.096126	-0.765600	1.445870	-0.413877	
46	0.2250	-0.697551	0.970360	-0.184257	-0.724166	0.972590	-0.405416	-0.888515	0.955382	-0.220341	-0.896679	0.966290	-0.310033	-0.699761	0.722260	-0.125466	-0.645358	0.747125	-0.135769	-0.670761	0.683976	-0.135314	-0.617856	0.704169	-0.147451	-0.545506	0.531957	-0.202175	-0.573810	0.525203	-0.304243	-0.553777	0.387972	-0.168387	-0.513628	0.401416	-0.184045	-0.535365	0.338525	-0.171945	-0.499654	0.351164	-0.185017	-0.444106	0.132022	-0.212108	-0.450735	0.148107	-0.295895	-0.298980	0.123728	-0.189132	-0.285058	0.145964	-0.303205	-0.274296	0.181596	-0.246600	-0.498874	0.064862	-0.264632	-0.767422	0.713875	-0.478640	-0.717684	0.725056	-0.470503	-0.766539	0.670471	-0.478292	-0.717679	0.681450	-0.475015	-0.690601	0.493715	-0.473723	-0.681758	0.471999	-0.363611	-0.824461	0.462436	-0.501782	-0.793360	0.419378	-0.496919	-0.871565	0.431141	-0.498576	-0.839527	0.391800	-0.495567	-1.048117	0.292725	-0.483939	-1.023683	0.271896	-0.402987	-1.091508	0.148027	-0.522409	-1.054808	0.133219	-0.412291	-1.030727	0.097805	-0.469407	-1.103993	0.340185	-0.424362	-0.791744	1.415362	-0.093641	-0.751017	1.443706	-0.411602	
47	0.2300	-0.680658	0.967678	-0.182646	-0.707552	0.970836	-0.403831	-0.871611	0.951946	-0.218406	-0.879908	0.962849	-0.308115	-0.682510	0.718675	-0.123969	-0.628060	0.743309	-0.134382	-0.653640	0.680326	-0.133952	-0.600693	0.700167	-0.146340	-0.529014	0.528838	-0.201603	-0.557883	0.522130	-0.303529	-0.536531	0.385169	-0.167793	-0.496579	0.398530	-0.183832	-0.518211	0.335832	-0.171403	-0.482718	0.348377	-0.184869	-0.428079	0.130032	-0.211846	-0.435191	0.145725	-0.295610	-0.283889	0.120616	-0.189624	-0.270594	0.142190	-0.303786	-0.258988	0.177612	-0.247388	-0.483660	0.064113	-0.263778	-0.747011	0.712167	-0.478112	-0.697569	0.724132	-0.470027	-0.745355	0.668770	-0.477948	-0.696764	0.680604	-0.474784	-0.666203	0.493640	-0.474342	-0.656492	0.471459	-0.364058	-0.800186	0.463636	-0.501777	-0.769457	0.420118	-0.497259	-0.847683	0.432968	-0.498412	-0.816003	0.393134	-0.495727	-1.026107	0.296878	-0.483388	-1.001480	0.275770	-0.402589	-1.070907	0.152769	-0.522201	-1.033632	0.137111	-0.412379	-1.010063	0.100929	-0.469647	-1.081268	0.345188	-0.423390	-0.776118	1.412309	-0.091103	-0.736399	1.441252	-0.409379	
48	0.2350	-0.663849	0.964749	-0.180989	-0.690950	0.968758	-0.402247	-0.854796	0.948213	-0.216498	-0.863202	0.959085	-0.306244	-0.665209	0.714961	-0.122533	-0.610752	0.739440	-0.132985	-0.636427	0.676597	-0.132682	-0.583452	0.696156	-0.145217	-0.512290	0.525745	-0.201085	-0.541604	0.519226	-0.302906	-0.519500	0.382458	-0.167330	-0.479716	0.395587	-0.183743	-0.501472	0.333205	-0.170998	-0.466166	0.345518	-0.184849	-0.413397	0.127946	-0.211700	-0.420901	0.143232	-0.295431	-0.270290	0.116851	-0.190199	-0.257553	0.137620	-0.304435	-0.244909	0.172708	-0.248266	-0.470039	0.063568	-0.263027	-0.726398	0.710236	-0.477538	-0.677270	0.723018	-0.469508	-0.723930	0.666865	-0.477552	-0.675629	0.679586	-0.474506	-0.641481	0.493541	-0.474851	-0.630929	0.470968	-0.364414	-0.775520	0.464672	-0.501712	-0.745097	0.420734	-0.497516	-0.823361	0.434562	-0.498207	-0.791979	0.394281	-0.495834	-1.003457	0.300521	-0.482812	-0.978596	0.279166	-0.402168	-1.049140	0.157019	-0.522072	-1.011317	0.140598	-0.412536	-0.988154	0.103939	-0.469942	-1.058095	0.349370	-0.422390	-0.760390	1.408961	-0.088515	-0.721727	1.438534	-0.407209	
49	0.2400	-0.647119	0.961609	-0.179275	-0.674337	0.966375	-0.400649	-0.838060	0.944223	-0.214616	-0.846547	0.955034	-0.304420	-0.647862	0.711158	-0.121158	-0.593438	0.735555	-0.131577	-0.619130	0.672827	-0.131508	-0.566144	0.692178	-0.144080	-0.495341	0.522707	-0.200627	-0.524977	0.516519	-0.302377	-0.502685	0.379852	-0.167001	-0.463037	0.392610	-0.183777	-0.485137	0.330657	-0.170734	-0.449985	0.342611	-0.184956	-0.400010	0.125784	-0.211674	-0.407818	0.140651	-0.295364	-0.258114	0.112500	-0.190851	-0.245866	0.132334	-0.305148	-0.232000	0.166963	-0.249228	-0.457944	0.063214	-0.262385	-0.705580	0.708117	-0.476902	-0.656784	0.721743	-0.468925	-0.702265	0.664794	-0.477088	-0.654272	0.678428	-0.474162	-0.616459	0.493449	-0.475226	-0.605101	0.470563	-0.364657	-0.750481	0.465559	-0.501574	-0.720295	0.421247	-0.497674	-0.798614	0.435933	-0.497956	-0.767465	0.395255	-0.495877	-0.980157	0.303629	-0.482219	-0.955027	0.282060	-0.401729	-1.026207	0.160733	-0.522022	-0.987868	0.143640	-0.412761	-0.965000	0.106791	-0.470287	-1.034469	0.352713	-0.421376	-0.744545	1.405351	-0.085885	-0.706979	1.435582	-0.405092	
50	0.2450	-0.630459	0.958296	-0.177488	-0.657690	0.963716	-0.399024	-0.821389	0.940022	-0.212762	-0.829923	0.950738	-0.302640	-0.630476	0.707304	-0.119843	-0.576123	0.731691	-0.130157	-0.601755	0.669054	-0.130428	-0.548779	0.688268	-0.142929	-0.478180	0.519743	-0.200232	-0.508017	0.514026	-0.301946	-0.486086	0.377366	-0.166806	-0.446544	0.389621	-0.183935	-0.469199	0.328201	-0.170614	-0.434167	0.339676	-0.185190	-0.387863	0.123572	-0.211771	-0.395888	0.138011	-0.295413	-0.247285	0.107645	-0.191576	-0.235460	0.126425	-0.305921	-0.220204	0.160474	-0.250269	-0.447298	0.063039	-0.261859	-0.684553	0.705847	-0.476189	-0.636107	0.720343	-0.468261	-0.680361	0.662598	-0.476542	-0.632695	0.677166	-0.473732	-0.591160	0.493401	-0.475445	-0.579039	0.470278	-0.364764	-0.725087	0.466317	-0.501351	-0.695063	0.421682	-0.497717	-0.773456	0.437092	-0.497649	-0.742471	0.396075	-0.495845	-0.956198	0.306179	-0.481615	-0.930767	0.284434	-0.401279	-1.002108	0.163874	-0.522047	-0.963293	0.146203	-0.413045	-0.940606	0.109445	-0.470671	-1.010380	0.355207	-0.420361	-0.728573	1.401523	-0.083219	-0.692136	1.432431	-0.403026	
51	0.2500	-0.613858	0.954853	-0.175617	-0.640988	0.960811	-0.397359	-0.804771	0.935658	-0.210937	-0.813314	0.946242	-0.300903	-0.613059	0.703439	-0.118587	-0.558812	0.727879	-0.128727	-0.584317	0.665312	-0.129442	-0.531369	0.684459	-0.141763	-0.460827	0.516870	-0.199904	-0.490748	0.511760	-0.301612	-0.469711	0.375009	-0.166744	-0.430245	0.386638	-0.184211	-0.453653	0.325851	-0.170636	-0.418707	0.336735	-0.185546	-0.376896	0.121339	-0.211989	-0.385054	0.135345	-0.295580	-0.237724	0.102380	-0.192366	-0.226257	0.119999	-0.306748	-0.209465	0.153350	-0.251381	-0.438015	0.063033	-0.261454	-0.663320	0.703470	-0.475384	-0.615241	0.718859	-0.467498	-0.658223	0.660320	-0.475896	-0.610903	0.675840	-0.473198	-0.565611	0.493435	-0.475484	-0.552777	0.470151	-0.364713	-0.699358	0.466963	-0.501030	-0.669419	0.422064	-0.497627	-0.747903	0.438050	-0.497278	-0.717010	0.396757	-0.495724	-0.931569	0.308156	-0.481006	-0.905812	0.286272	-0.400820	-0.976844	0.166414	-0.522143	-0.937598	0.148263	-0.413381	-0.914976	0.111863	-0.471085	-0.985811	0.356846	-0.419355	-0.712465	1.397521	-0.080525	-0.677182	1.429118	-0.401011	
52	0.2550	-0.597306	0.951320	-0.173650	-0.624211	0.957700	-0.395639	-0.788190	0.931183	-0.209140	-0.796701	0.941599	-0.299207	-0.595620	0.699599	-0.117386	-0.541511	0.724148	-0.127286	-0.566829	0.661632	-0.128543	-0.513929	0.680779	-0.140580	-0.443311	0.514099	-0.199642	-0.473200	0.509722	-0.301372	-0.453569	0.372790	-0.166811	-0.414150	0.383682	-0.184601	-0.438494	0.323616	-0.170796	-0.403604	0.333811	-0.186019	-0.367045	0.119120	-0.212326	-0.375254	0.132691	-0.295866	-0.229350	0.096806	-0.193213	-0.218179	0.113172	-0.307620	-0.199725	0.145715	-0.252556	-0.429999	0.063191	-0.261171	-0.641886	0.701032	-0.474474	-0.594189	0.717331	-0.466620	-0.635862	0.658008	-0.475137	-0.588905	0.674492	-0.472542	-0.539842	0.493587	-0.475323	-0.526350	0.470216	-0.364481	-0.673316	0.467517	-0.500598	-0.643382	0.422419	-0.497387	-0.721972	0.438821	-0.496832	-0.691093	0.397324	-0.495501	-0.906261	0.309545	-0.480394	-0.880157	0.287565	-0.400353	-0.950419	0.168334	-0.522299	-0.910793	0.149803	-0.413755	-0.888119	0.114015	-0.471515	-0.960748	0.357629	-0.418368	-0.696213	1.393395	-0.077815	-0.662102	1.425683	-0.399047	
53	0.2600	-0.580792	0.947743	-0.171576	-0.607341	0.954426	-0.393853	-0.771633	0.926651	-0.207371	-0.780068	0.936861	-0.297549	-0.578171	0.695819	-0.116234	-0.524228	0.720523	-0.125835	-0.549309	0.658043	-0.127724	-0.496475	0.677249	-0.139382	-0.425667	0.511435	-0.199447	-0.455415	0.507908	-0.301223	-0.437674	0.370712	-0.167000	-0.398277	0.380768	-0.185094	-0.423724	0.321505	-0.171087	-0.388863	0.330921	-0.186600	-0.358240	0.116953	-0.212778	-0.366424	0.130090	-0.296268	-0.222079	0.091028	-0.194109	-0.211147	0.106065	-0.308531	-0.190929	0.137699	-0.253782	-0.423153	0.063509	-0.261012	-0.620261	0.698580	-0.473445	-0.572962	0.715806	-0.465614	-0.613290	0.655709	-0.474249	-0.566714	0.673167	-0.471749	-0.513885	0.493895	-0.474943	-0.499796	0.470508	-0.364050	-0.646985	0.467997	-0.500041	-0.616976	0.422776	-0.496982	-0.695685	0.439418	-0.496301	-0.664740	0.397796	-0.495162	-0.880267	0.310339	-0.479780	-0.853803	0.288308	-0.399878	-0.922844	0.169623	-0.522507	-0.882892	0.150814	-0.414155	-0.860048	0.115874	-0.471946	-0.935173	0.357561	-0.417408	-0.679813	1.389197	-0.075097	-0.646883	1.422168	-0.397132	
54	0.2650	-0.564307	0.944166	-0.169388	-0.590364	0.951035	-0.391988	-0.755087	0.922114	-0.205631	-0.763401	0.932084	-0.295925	-0.560726	0.692130	-0.115126	-0.506970	0.717025	-0.124376	-0.531777	0.654570	-0.126976	-0.479025	0.673886	-0.138168	-0.407934	0.508880	-0.199314	-0.437442	0.506308	-0.301158	-0.422043	0.368779	-0.167299	-0.382646	0.377909	-0.185680	-0.409343	0.319526	-0.171500	-0.374488	0.328084	-0.187280	-0.350411	0.114874	-0.213338	-0.358501	0.127582	-0.296782	-0.215826	0.085153	-0.195045	-0.205080	0.098804	-0.309472	-0.183023	0.129436	-0.255048	-0.417372	0.063984	-0.260973	-0.598460	0.696162	-0.472286	-0.551574	0.714326	-0.464467	-0.590528	0.653471	-0.473220	-0.544350	0.671909	-0.470805	-0.487779	0.494392	-0.474325	-0.473157	0.471055	-0.363401	-0.620396	0.468423	-0.499345	-0.590228	0.423158	-0.496397	-0.669066	0.439857	-0.495674	-0.637974	0.398193	-0.494693	-0.853587	0.310532	-0.479163	-0.826753	0.288503	-0.399391	-0.894133	0.170283	-0.522753	-0.853913	0.151298	-0.414564	-0.830784	0.117423	-0.472365	-0.909073	0.356650	-0.416481	-0.663268	1.384982	-0.072385	-0.631520	1.418615	-0.395265	
55	0.2700	-0.547843	0.940633	-0.167080	-0.573274	0.947578	-0.390037	-0.738542	0.917628	-0.203919	-0.746690	0.927325	-0.294331	-0.543300	0.688561	-0.114055	-0.489748	0.713670	-0.122910	-0.514256	0.651233	-0.126287	-0.461601	0.670702	-0.136941	-0.390159	0.506429	-0.199239	-0.419336	0.504904	-0.301167	-0.406696	0.366991	-0.167699	-0.367282	0.375117	-0.186346	-0.395358	0.317683	-0.172024	-0.360491	0.325316	-0.188047	-0.343484	0.112920	-0.213996	-0.351416	0.125207	-0.297402	-0.210506	0.079288	-0.196009	-0.199898	0.091511	-0.310432	-0.175954	0.121062	-0.256340	-0.412550	0.064615	-0.261051	-0.576506	0.693826	-0.470987	-0.530044	0.712938	-0.463170	-0.567605	0.651341	-0.472039	-0.521839	0.670761	-0.469697	-0.461566	0.495110	-0.473457	-0.446479	0.471885	-0.362521	-0.593584	0.468810	-0.498496	-0.563175	0.423592	-0.495617	-0.642146	0.440149	-0.494938	-0.610826	0.398537	-0.494081	-0.826225	0.310128	-0.478539	-0.799020	0.288154	-0.398887	-0.864309	0.170319	-0.523023	-0.823882	0.151264	-0.414967	-0.800357	0.118648	-0.472753	-0.882441	0.354910	-0.415589	-0.646582	1.380805	-0.069688	-0.616012	1.415068	-0.393446	
56	0.2750	-0.531395	0.937187	-0.164650	-0.556067	0.944107	-0.387991	-0.721990	0.913243	-0.202233	-0.729929	0.922642	-0.292764	-0.525912	0.685138	-0.113012	-0.472576	0.710472	-0.121439	-0.496773	0.648051	-0.125646	-0.444225	0.667702	-0.135702	-0.372393	0.504078	-0.199217	-0.401161	0.503674	-0.301241	-0.391658	0.365344	-0.168183	-0.352214	0.372402	-0.187076	-0.381775	0.315979	-0.172643	-0.346884	0.322630	-0.188886	-0.337386	0.111127	-0.214741	-0.345103	0.123003	-0.298117	-0.206034	0.073534	-0.196990	-0.195521	0.084304	-0.311402	-0.169670	0.112710	-0.257645	-0.408581	0.065400	-0.261241	-0.554427	0.691618	-0.469541	-0.508403	0.711682	-0.461715	-0.544553	0.649365	-0.470697	-0.499215	0.669764	-0.468419	-0.435296	0.496077	-0.472327	-0.419813	0.473018	-0.361398	-0.566593	0.469176	-0.497484	-0.535860	0.424099	-0.494631	-0.614965	0.440310	-0.494084	-0.583333	0.398847	-0.493312	-0.798199	0.309133	-0.477905	-0.770625	0.287275	-0.398360	-0.833410	0.169750	-0.523301	-0.792837	0.150729	-0.415344	-0.768808	0.119545	-0.473095	-0.855275	0.352364	-0.414735	-0.629768	1.376719	-0.067021	-0.600362	1.411570	-0.391673	
57	0.2800	-0.514963	0.933868	-0.162098	-0.538748	0.940676	-0.385847	-0.705431	0.909010	-0.200571	-0.713118	0.918087	-0.291218	-0.508586	0.681882	-0.111991	-0.455469	0.707440	-0.119968	-0.479358	0.645038	-0.125041	-0.426924	0.664891	-0.134453	-0.354692	0.501816	-0.199238	-0.382983	0.502593	-0.301368	-0.376955	0.363835	-0.168738	-0.337473	0.369771	-0.187853	-0.368605	0.314414	-0.173344	-0.333684	0.320039	-0.189783	-0.332043	0.109524	-0.215559	-0.339494	0.121006	-0.298916	-0.202327	0.067983	-0.197977	-0.191870	0.077296	-0.312370	-0.164119	0.104508	-0.258947	-0.405360	0.066340	-0.261533	-0.532262	0.689582	-0.467943	-0.486683	0.710600	-0.460099	-0.521415	0.647584	-0.469188	-0.476517	0.668956	-0.466962	-0.409024	0.497314	-0.470929	-0.393217	0.474469	-0.360023	-0.539472	0.469532	-0.496298	-0.508336	0.424699	-0.493431	-0.587568	0.440352	-0.493102	-0.555545	0.399141	-0.492378	-0.769536	0.307559	-0.477254	-0.741600	0.285881	-0.397803	-0.801483	0.168600	-0.523571	-0.760827	0.149718	-0.415680	-0.736192	0.120117	-0.473375	-0.827586	0.349034	-0.413915	-0.612846	1.372780	-0.064395	-0.584582	1.408163	-0.389945	
58	0.2850	-0.498551	0.930715	-0.159429	-0.521333	0.937337	-0.383604	-0.688866	0.904974	-0.198931	-0.696264	0.913714	-0.289689	-0.491348	0.678812	-0.110984	-0.438448	0.704580	-0.118499	-0.462044	0.642203	-0.124458	-0.409728	0.662264	-0.133198	-0.337116	0.499632	-0.199293	-0.364874	0.501632	-0.301534	-0.362616	0.362455	-0.169345	-0.323090	0.367229	-0.188661	-0.355858	0.312987	-0.174108	-0.320907	0.317551	-0.190721	-0.327380	0.108140	-0.216437	-0.334522	0.119246	-0.299787	-0.199305	0.062719	-0.198958	-0.188870	0.070586	-0.313327	-0.159252	0.096571	-0.260231	-0.402783	0.067432	-0.261917	-0.510054	0.687757	-0.466192	-0.464928	0.709727	-0.458321	-0.498242	0.646036	-0.467508	-0.453795	0.668371	-0.465324	-0.382814	0.498837	-0.469260	-0.366753	0.476248	-0.358395	-0.512282	0.469892	-0.494931	-0.480666	0.425408	-0.492012	-0.560013	0.440287	-0.491984	-0.527520	0.399435	-0.491269	-0.740277	0.305426	-0.476578	-0.711992	0.283996	-0.397207	-0.768595	0.166902	-0.523815	-0.727915	0.148264	-0.415957	-0.702581	0.120373	-0.473578	-0.799397	0.344955	-0.413128	-0.595840	1.369035	-0.061821	-0.568693	1.404886	-0.388263	
59	0.2900	-0.482169	0.927763	-0.156650	-0.503843	0.934140	-0.381262	-0.672306	0.901176	-0.197310	-0.679381	0.909572	-0.288172	-0.474228	0.675943	-0.109984	-0.421537	0.701894	-0.117037	-0.444868	0.639554	-0.123886	-0.392671	0.659818	-0.131942	-0.319727	0.497515	-0.199374	-0.346910	0.500764	-0.301728	-0.348671	0.361197	-0.169986	-0.309101	0.364779	-0.189481	-0.343548	0.311693	-0.174917	-0.308573	0.315174	-0.191685	-0.323327	0.106995	-0.217357	-0.330124	0.117748	-0.300714	-0.196889	0.057812	-0.199922	-0.186446	0.064263	-0.314262	-0.155021	0.089005	-0.261483	-0.400751	0.068674	-0.262383	-0.487859	0.686178	-0.464288	-0.443190	0.709094	-0.456382	-0.475093	0.644753	-0.465658	-0.431105	0.668036	-0.463507	-0.356736	0.500656	-0.467321	-0.340493	0.478355	-0.356513	-0.485093	0.470263	-0.493379	-0.452922	0.426238	-0.490370	-0.532366	0.440126	-0.490723	-0.499329	0.399743	-0.489980	-0.710480	0.302759	-0.475872	-0.681861	0.281647	-0.396565	-0.734828	0.164698	-0.524018	-0.694184	0.146405	-0.416158	-0.668064	0.120327	-0.473691	-0.770746	0.340165	-0.412368	-0.578786	1.365532	-0.059313	-0.552721	1.401776	-0.386625	
60	0.2950	-0.465833	0.925042	-0.153773	-0.486310	0.931134	-0.378828	-0.655768	0.897652	-0.195704	-0.662493	0.905702	-0.286661	-0.457261	0.673285	-0.108985	-0.404767	0.699384	-0.115585	-0.427873	0.637096	-0.123313	-0.375789	0.657543	-0.130688	-0.302589	0.495453	-0.199468	-0.329167	0.499957	-0.301934	-0.335152	0.360052	-0.170645	-0.295541	0.362423	-0.190294	-0.331689	0.310527	-0.175754	-0.296703	0.312913	-0.192656	-0.319813	0.106106	-0.218303	-0.326234	0.116531	-0.301683	-0.195003	0.053322	-0.200857	-0.184528	0.058399	-0.315164	-0.151376	0.081901	-0.262688	-0.399171	0.070062	-0.262917	-0.465737	0.684872	-0.462238	-0.421527	0.708725	-0.454290	-0.452034	0.643760	-0.463641	-0.408511	0.667975	-0.461514	-0.330867	0.502772	-0.465122	-0.314511	0.480784	-0.354385	-0.457982	0.470654	-0.491639	-0.425187	0.427198	-0.488509	-0.504705	0.439881	-0.489317	-0.471054	0.400077	-0.488509	-0.680221	0.299591	-0.475127	-0.651286	0.278867	-0.395868	-0.700286	0.162033	-0.524163	-0.659732	0.144185	-0.416270	-0.632751	0.120003	-0.473703	-0.741688	0.334708	-0.411628	-0.561726	1.362311	-0.056881	-0.536701	1.398866	-0.385032	
61	0.3000	-0.449568	0.922579	-0.150813	-0.468778	0.928362	-0.376309	-0.639278	0.894430	-0.194112	-0.645631	0.902142	-0.285152	-0.440489	0.670847	-0.107982	-0.388172	0.697047	-0.114150	-0.411105	0.634829	-0.122731	-0.359126	0.655430	-0.129443	-0.285767	0.493433	-0.199565	-0.311724	0.499186	-0.302140	-0.322090	0.359009	-0.171302	-0.282443	0.360164	-0.191084	-0.320297	0.309484	-0.176601	-0.285316	0.310772	-0.193620	-0.316771	0.105480	-0.219258	-0.322794	0.115609	-0.302675	-0.193578	0.049292	-0.201753	-0.183048	0.053053	-0.316025	-0.148270	0.075333	-0.263833	-0.397954	0.071592	-0.263505	-0.443758	0.683864	-0.460048	-0.400007	0.708639	-0.452053	-0.429141	0.643077	-0.461465	-0.386086	0.668201	-0.459355	-0.305292	0.505179	-0.462672	-0.288890	0.483524	-0.352021	-0.431039	0.471067	-0.489715	-0.397556	0.428290	-0.486435	-0.477118	0.439561	-0.487765	-0.442789	0.400445	-0.486857	-0.649592	0.295957	-0.474337	-0.620361	0.275694	-0.395110	-0.665093	0.158960	-0.524237	-0.624680	0.141651	-0.416281	-0.596774	0.119426	-0.473605	-0.712295	0.328639	-0.410900	-0.544708	1.359406	-0.054536	-0.520679	1.396184	-0.383483	
62	0.3050	-0.433406	0.920394	-0.147788	-0.451298	0.925860	-0.373718	-0.622870	0.891535	-0.192529	-0.628836	0.898923	-0.283642	-0.423954	0.668631	-0.106972	-0.371792	0.694879	-0.112736	-0.394611	0.632753	-0.122130	-0.342725	0.653467	-0.128210	-0.269328	0.491448	-0.199655	-0.294657	0.498426	-0.302333	-0.309517	0.358059	-0.171942	-0.269843	0.358000	-0.191834	-0.309385	0.308555	-0.177439	-0.274433	0.308752	-0.194560	-0.314138	0.105122	-0.220205	-0.319747	0.114986	-0.303674	-0.192545	0.045750	-0.202602	-0.181944	0.048266	-0.316837	-0.145658	0.069358	-0.264906	-0.397019	0.073257	-0.264134	-0.422000	0.683167	-0.457731	-0.378704	0.708845	-0.449685	-0.406497	0.642715	-0.459142	-0.363909	0.668723	-0.457040	-0.280100	0.507866	-0.459991	-0.263718	0.486552	-0.349438	-0.404359	0.471505	-0.487613	-0.370132	0.429514	-0.484159	-0.449703	0.439175	-0.486071	-0.414641	0.400853	-0.485031	-0.618704	0.291904	-0.473495	-0.589197	0.272170	-0.394284	-0.629397	0.155535	-0.524228	-0.589170	0.138855	-0.416181	-0.560285	0.118626	-0.473390	-0.682659	0.322016	-0.410176	-0.527791	1.356846	-0.052287	-0.504706	1.393752	-0.381980	
63	0.3100	-0.417388	0.918502	-0.144719	-0.433932	0.923661	-0.371068	-0.606587	0.888981	-0.190953	-0.612158	0.896066	-0.282126	-0.407708	0.666640	-0.105953	-0.355675	0.692877	-0.111348	-0.378445	0.630864	-0.121505	-0.326637	0.651641	-0.126998	-0.253336	0.489489	-0.199728	-0.278044	0.497653	-0.302502	-0.297462	0.357191	-0.172549	-0.257771	0.355934	-0.192530	-0.298971	0.307732	-0.178252	-0.264072	0.306854	-0.195461	-0.311854	0.105026	-0.221130	-0.317038	0.114661	-0.304665	-0.191842	0.042711	-0.203395	-0.181155	0.044062	-0.317592	-0.143492	0.064016	-0.265897	-0.396296	0.075048	-0.264790	-0.400547	0.682789	-0.455303	-0.357698	0.709348	-0.447201	-0.384189	0.642677	-0.456686	-0.342065	0.669540	-0.454586	-0.255387	0.510811	-0.457100	-0.239085	0.489843	-0.346657	-0.378049	0.471967	-0.485346	-0.343028	0.430864	-0.481697	-0.422570	0.438731	-0.484240	-0.386726	0.401304	-0.483040	-0.587687	0.287479	-0.472597	-0.557926	0.268343	-0.393387	-0.593365	0.151818	-0.524126	-0.553361	0.135851	-0.415964	-0.523458	0.117638	-0.473056	-0.652889	0.314906	-0.409448	-0.511038	1.354650	-0.050143	-0.488843	1.391590	-0.380523	
64	0.3150	-0.401561	0.916913	-0.141630	-0.416749	0.921787	-0.368378	-0.590481	0.886778	-0.189382	-0.595657	0.893587	-0.280604	-0.391804	0.664870	-0.104925	-0.339869	0.691033	-0.109993	-0.362662	0.629158	-0.120851	-0.310915	0.649940	-0.125810	-0.237854	0.487550	-0.199774	-0.261956	0.496852	-0.302636	-0.285955	0.356396	-0.173109	-0.246259	0.353964	-0.193157	-0.289066	0.307006	-0.179026	-0.254250	0.305077	-0.196311	-0.309866	0.105184	-0.222015	-0.314618	0.114628	-0.305631	-0.191412	0.040176	-0.204126	-0.180627	0.040451	-0.318286	-0.141729	0.059329	-0.266799	-0.395720	0.076953	-0.265458	-0.379488	0.682729	-0.452780	-0.337077	0.710143	-0.444620	-0.362313	0.642960	-0.454117	-0.320646	0.670645	-0.452012	-0.231254	0.513987	-0.454025	-0.215088	0.493362	-0.343703	-0.352219	0.472452	-0.482927	-0.316363	0.432331	-0.479069	-0.395835	0.438237	-0.482283	-0.359169	0.401798	-0.480897	-0.556687	0.282737	-0.471640	-0.526691	0.264262	-0.392418	-0.557184	0.147871	-0.523924	-0.517435	0.132692	-0.415628	-0.486489	0.116498	-0.472602	-0.623115	0.307384	-0.408707	-0.494521	1.352829	-0.048111	-0.473156	1.389707	-0.379115	
65	0.3200	-0.385982	0.915628	-0.138545	-0.399827	0.920253	-0.365667	-0.574611	0.884926	-0.187817	-0.579398	0.891492	-0.279075	-0.376298	0.663316	-0.103888	-0.324432	0.689341	-0.108676	-0.347319	0.627627	-0.120167	-0.295614	0.648354	-0.124654	-0.222943	0.485631	-0.199786	-0.246464	0.496008	-0.302728	-0.275021	0.355666	-0.173610	-0.235331	0.352091	-0.193706	-0.279685	0.306370	-0.179746	-0.244982	0.303421	-0.197098	-0.308124	0.105580	-0.222850	-0.312445	0.114872	-0.306558	-0.191202	0.038133	-0.204790	-0.180311	0.037426	-0.318914	-0.140324	0.055301	-0.267605	-0.395237	0.078960	-0.266124	-0.358917	0.682980	-0.450185	-0.316931	0.711217	-0.441965	-0.340964	0.643551	-0.451456	-0.299744	0.672024	-0.449341	-0.207801	0.517362	-0.450799	-0.191822	0.497070	-0.340606	-0.326986	0.472953	-0.480378	-0.290264	0.433902	-0.476299	-0.369621	0.437701	-0.480213	-0.332103	0.402335	-0.478621	-0.525865	0.277739	-0.470625	-0.495655	0.259980	-0.391377	-0.521062	0.143758	-0.523618	-0.481591	0.129432	-0.415171	-0.449588	0.115242	-0.472033	-0.593481	0.299529	-0.407947	-0.478315	1.351389	-0.046197	-0.457717	1.388111	-0.377756	
66	0.3250	-0.370713	0.914645	-0.135492	-0.383248	0.919066	-0.362956	-0.559043	0.883422	-0.186257	-0.563455	0.889780	-0.277540	-0.361251	0.661972	-0.102846	-0.309422	0.687795	-0.107402	-0.332476	0.626265	-0.119452	-0.280792	0.646870	-0.123535	-0.208661	0.483730	-0.199758	-0.231632	0.495115	-0.302770	-0.264684	0.354992	-0.174044	-0.225012	0.350315	-0.194169	-0.270839	0.305815	-0.180404	-0.236279	0.301885	-0.197812	-0.306584	0.106193	-0.223622	-0.310478	0.115374	-0.307433	-0.191165	0.036559	-0.205385	-0.180162	0.034968	-0.319475	-0.139236	0.051923	-0.268313	-0.394801	0.081053	-0.266778	-0.338929	0.683527	-0.447540	-0.297352	0.712551	-0.439258	-0.320243	0.644432	-0.448728	-0.279456	0.673652	-0.446598	-0.185132	0.520896	-0.447456	-0.169385	0.500923	-0.337400	-0.302470	0.473467	-0.477721	-0.264858	0.435559	-0.473414	-0.344057	0.437129	-0.478049	-0.305666	0.402908	-0.476233	-0.495395	0.272546	-0.469552	-0.464990	0.255553	-0.390267	-0.485220	0.139541	-0.523209	-0.446043	0.126124	-0.414599	-0.412984	0.113907	-0.471354	-0.564146	0.291427	-0.407162	-0.462498	1.350322	-0.044406	-0.442605	1.386801	-0.376450	
67	0.3300	-0.355821	0.913953	-0.132497	-0.367100	0.918225	-0.360269	-0.543849	0.882251	-0.184704	-0.547906	0.888440	-0.276002	-0.346724	0.660826	-0.101803	-0.294901	0.686388	-0.106176	-0.318192	0.625062	-0.118710	-0.266508	0.645481	-0.122459	-0.195059	0.481854	-0.199685	-0.217518	0.494169	-0.302759	-0.254962	0.354370	-0.174404	-0.215320	0.348638	-0.194541	-0.262537	0.305333	-0.180989	-0.228150	0.300465	-0.198448	-0.305208	0.107000	-0.224323	-0.308684	0.116109	-0.308246	-0.191259	0.035421	-0.205908	-0.180140	0.033045	-0.319967	-0.138423	0.049169	-0.268921	-0.394376	0.083213	-0.267408	-0.319620	0.684347	-0.444872	-0.278434	0.714120	-0.436527	-0.300248	0.645577	-0.445961	-0.259878	0.675504	-0.443809	-0.163346	0.524546	-0.444033	-0.147869	0.504874	-0.334120	-0.278788	0.473986	-0.474984	-0.240274	0.437282	-0.470447	-0.319272	0.436528	-0.475809	-0.279999	0.403512	-0.473758	-0.465460	0.267222	-0.468426	-0.434876	0.251036	-0.389095	-0.449889	0.135283	-0.522698	-0.411015	0.122818	-0.413919	-0.376914	0.112529	-0.470576	-0.535280	0.283165	-0.406350	-0.447152	1.349618	-0.042741	-0.427898	1.385771	-0.375198	
68	0.3350	-0.341379	0.913538	-0.129586	-0.351471	0.917718	-0.357628	-0.529105	0.881398	-0.183163	-0.532830	0.887457	-0.274467	-0.332778	0.659867	-0.100764	-0.280930	0.685111	-0.105004	-0.304523	0.624010	-0.117944	-0.252818	0.644179	-0.121431	-0.182186	0.480006	-0.199566	-0.204174	0.493173	-0.302694	-0.245871	0.353793	-0.174685	-0.206270	0.347061	-0.194819	-0.254786	0.304917	-0.181497	-0.220600	0.299161	-0.199001	-0.303965	0.107971	-0.224946	-0.307033	0.117047	-0.308987	-0.191448	0.034680	-0.206360	-0.180211	0.031616	-0.320391	-0.137846	0.047003	-0.269431	-0.393936	0.085423	-0.268003	-0.301084	0.685412	-0.442205	-0.260269	0.715892	-0.433798	-0.281074	0.646954	-0.443182	-0.241102	0.677543	-0.441004	-0.142540	0.528266	-0.440569	-0.127365	0.508874	-0.330804	-0.256059	0.474503	-0.472195	-0.216641	0.439050	-0.467430	-0.295394	0.435905	-0.473519	-0.255241	0.404140	-0.471224	-0.436249	0.261836	-0.467254	-0.405501	0.246487	-0.387870	-0.415311	0.131042	-0.522093	-0.376739	0.119562	-0.413141	-0.341624	0.111141	-0.469711	-0.507060	0.274837	-0.405508	-0.432355	1.349255	-0.041204	-0.413677	1.385008	-0.374005	
69	0.3400	-0.327458	0.913379	-0.126785	-0.336448	0.917528	-0.355057	-0.514888	0.880839	-0.181640	-0.518310	0.886807	-0.272941	-0.319473	0.659083	-0.099736	-0.267573	0.683960	-0.103890	-0.291525	0.623098	-0.117160	-0.239780	0.642958	-0.120456	-0.170081	0.478198	-0.199399	-0.191644	0.492132	-0.302573	-0.237422	0.353259	-0.174888	-0.197870	0.345585	-0.195005	-0.247588	0.304561	-0.181923	-0.213630	0.297969	-0.199468	-0.302827	0.109076	-0.225486	-0.305503	0.118158	-0.309651	-0.191700	0.034288	-0.206742	-0.180346	0.030634	-0.320750	-0.137468	0.045376	-0.269846	-0.393461	0.087660	-0.268557	-0.283410	0.686689	-0.439568	-0.242943	0.717831	-0.431097	-0.262814	0.648528	-0.440422	-0.223218	0.679733	-0.438213	-0.122804	0.532010	-0.437105	-0.107955	0.512873	-0.327492	-0.234392	0.475011	-0.469388	-0.194078	0.440840	-0.464397	-0.272549	0.435268	-0.471202	-0.231525	0.404782	-0.468658	-0.407951	0.256451	-0.466044	-0.377051	0.241961	-0.386602	-0.381723	0.126874	-0.521403	-0.343449	0.116398	-0.412279	-0.307357	0.109774	-0.468773	-0.479668	0.266534	-0.404637	-0.418187	1.349206	-0.039794	-0.400021	1.384497	-0.372872	
70	0.3450	-0.314133	0.913451	-0.124115	-0.322115	0.917629	-0.352578	-0.501275	0.880545	-0.180140	-0.504426	0.886461	-0.271432	-0.306866	0.658457	-0.098727	-0.254888	0.682926	-0.102839	-0.279248	0.622317	-0.116365	-0.227445	0.641815	-0.119537	-0.158777	0.476438	-0.199188	-0.179962	0.491057	-0.302401	-0.229620	0.352765	-0.175013	-0.190126	0.344211	-0.195102	-0.240946	0.304258	-0.182268	-0.207237	0.296886	-0.199851	-0.301773	0.110285	-0.225944	-0.304075	0.119406	-0.310233	-0.191989	0.034198	-0.207058	-0.180518	0.030044	-0.321046	-0.137256	0.044236	-0.270171	-0.392939	0.089902	-0.269064	-0.266682	0.688141	-0.436987	-0.226539	0.719897	-0.428453	-0.245551	0.650259	-0.437708	-0.206306	0.682032	-0.435464	-0.104219	0.535728	-0.433680	-0.089714	0.516820	-0.324221	-0.213891	0.475501	-0.466593	-0.172698	0.442627	-0.461386	-0.250854	0.434622	-0.468885	-0.208980	0.405429	-0.466094	-0.380750	0.251135	-0.464809	-0.349711	0.237510	-0.385305	-0.349363	0.122830	-0.520638	-0.311372	0.113364	-0.411348	-0.274353	0.108455	-0.467778	-0.453283	0.258347	-0.403742	-0.404722	1.349439	-0.038512	-0.387005	1.384215	-0.371804	
71	0.3500	-0.301474	0.913726	-0.121597	-0.308553	0.917989	-0.350211	-0.488341	0.880486	-0.178673	-0.491254	0.886384	-0.269951	-0.295008	0.657974	-0.097744	-0.242931	0.682004	-0.101853	-0.267739	0.621655	-0.115569	-0.215860	0.640746	-0.118679	-0.148302	0.474739	-0.198934	-0.169154	0.489961	-0.302181	-0.222466	0.352309	-0.175064	-0.183037	0.342942	-0.195115	-0.234856	0.304002	-0.182533	-0.201413	0.295910	-0.200151	-0.300788	0.111564	-0.226318	-0.302735	0.120757	-0.310733	-0.192293	0.034357	-0.207312	-0.180709	0.029788	-0.321285	-0.137176	0.043521	-0.270415	-0.392367	0.092125	-0.269518	-0.250973	0.689728	-0.434488	-0.211129	0.722048	-0.425891	-0.229359	0.652104	-0.435070	-0.190439	0.684397	-0.432788	-0.086855	0.539374	-0.430335	-0.072703	0.520669	-0.321029	-0.194647	0.475969	-0.463844	-0.152602	0.444388	-0.458429	-0.230414	0.433976	-0.466595	-0.187720	0.406072	-0.463560	-0.354823	0.245947	-0.463562	-0.323654	0.233187	-0.383994	-0.318452	0.118956	-0.519814	-0.280728	0.110494	-0.410365	-0.242840	0.107206	-0.466746	-0.428078	0.250365	-0.402828	-0.392025	1.349916	-0.037354	-0.374699	1.384138	-0.370802	
72	0.3550	-0.289547	0.914172	-0.119249	-0.295829	0.918572	-0.347975	-0.476153	0.880628	-0.177247	-0.478863	0.886541	-0.268508	-0.283945	0.657619	-0.096795	-0.231750	0.681188	-0.100937	-0.257035	0.621103	-0.114780	-0.205068	0.639752	-0.117882	-0.138671	0.473113	-0.198645	-0.159237	0.488858	-0.301919	-0.215956	0.351889	-0.175047	-0.176595	0.341777	-0.195054	-0.229311	0.303790	-0.182723	-0.196148	0.295037	-0.200374	-0.299860	0.112883	-0.226613	-0.301475	0.122174	-0.311150	-0.192595	0.034714	-0.207509	-0.180903	0.029809	-0.321472	-0.137201	0.043168	-0.270584	-0.391747	0.094307	-0.269918	-0.236345	0.691408	-0.432094	-0.196774	0.724242	-0.423436	-0.214300	0.654021	-0.432535	-0.175678	0.686785	-0.430211	-0.070770	0.542903	-0.427106	-0.056973	0.524374	-0.317951	-0.176738	0.476407	-0.461173	-0.133876	0.446099	-0.455562	-0.211323	0.433336	-0.464358	-0.167847	0.406701	-0.461087	-0.330332	0.240947	-0.462315	-0.299040	0.229037	-0.382685	-0.289198	0.115292	-0.518947	-0.251719	0.107812	-0.409350	-0.213026	0.106047	-0.465693	-0.404213	0.242672	-0.401903	-0.380158	1.350597	-0.036318	-0.363166	1.384239	-0.369869	
73	0.3600	-0.278409	0.914756	-0.117085	-0.284006	0.919338	-0.345887	-0.464774	0.880937	-0.175874	-0.467315	0.886890	-0.267114	-0.273713	0.657375	-0.095888	-0.221387	0.680470	-0.100091	-0.247165	0.620649	-0.114008	-0.195099	0.638831	-0.117151	-0.129892	0.471572	-0.198325	-0.150216	0.487766	-0.301624	-0.210079	0.351507	-0.174971	-0.170790	0.340718	-0.194927	-0.224303	0.303616	-0.182842	-0.191426	0.294262	-0.200526	-0.298983	0.114211	-0.226833	-0.300289	0.123623	-0.311490	-0.192883	0.035221	-0.207654	-0.181088	0.030051	-0.321612	-0.137303	0.043116	-0.270689	-0.391085	0.096424	-0.270264	-0.222850	0.693140	-0.429828	-0.183524	0.726438	-0.421110	-0.200422	0.655967	-0.430127	-0.162071	0.689153	-0.427759	-0.056003	0.546275	-0.424027	-0.042558	0.527896	-0.315020	-0.160223	0.476811	-0.458609	-0.116588	0.447740	-0.452815	-0.193655	0.432709	-0.462201	-0.149442	0.407306	-0.458705	-0.307418	0.236185	-0.461086	-0.276012	0.225102	-0.381394	-0.261783	0.111868	-0.518053	-0.224523	0.105341	-0.408321	-0.185096	0.104991	-0.464640	-0.381832	0.235343	-0.400976	-0.369166	1.351440	-0.035399	-0.352457	1.384488	-0.369008	
74	0.3650	-0.268110	0.915446	-0.115113	-0.273129	0.920245	-0.343959	-0.454254	0.881376	-0.174564	-0.456658	0.887393	-0.265782	-0.264340	0.657224	-0.095032	-0.211874	0.679845	-0.099318	-0.238151	0.620282	-0.113262	-0.185978	0.637984	-0.116484	-0.121965	0.470128	-0.197983	-0.142088	0.486699	-0.301304	-0.204821	0.351160	-0.174845	-0.165604	0.339764	-0.194747	-0.219816	0.303476	-0.182899	-0.187227	0.293583	-0.200615	-0.298153	0.115521	-0.226985	-0.299175	0.125071	-0.311755	-0.193147	0.035831	-0.207755	-0.181255	0.030458	-0.321711	-0.137460	0.043300	-0.270739	-0.390392	0.098454	-0.270555	-0.210519	0.694884	-0.427708	-0.171414	0.728594	-0.418932	-0.187759	0.657901	-0.427868	-0.149650	0.691462	-0.425454	-0.042579	0.549454	-0.421127	-0.029476	0.531201	-0.312264	-0.145144	0.477177	-0.456179	-0.100787	0.449293	-0.450218	-0.177467	0.432103	-0.460147	-0.132568	0.407881	-0.456439	-0.286200	0.231708	-0.459889	-0.254687	0.221416	-0.380139	-0.236360	0.108712	-0.517150	-0.199293	0.103094	-0.407297	-0.159204	0.104047	-0.463603	-0.361059	0.228446	-0.400059	-0.359088	1.352402	-0.034591	-0.342613	1.384855	-0.368220	
75	0.3700	-0.258686	0.916206	-0.113339	-0.263231	0.921250	-0.342201	-0.444630	0.881911	-0.173326	-0.446930	0.888010	-0.264523	-0.255841	0.657151	-0.094231	-0.203231	0.679306	-0.098618	-0.230002	0.619993	-0.112550	-0.177717	0.637212	-0.115884	-0.114878	0.468790	-0.197628	-0.134837	0.485676	-0.300967	-0.200161	0.350850	-0.174678	-0.161015	0.338914	-0.194525	-0.215833	0.303367	-0.182903	-0.183528	0.292993	-0.200649	-0.297369	0.116786	-0.227077	-0.298132	0.126487	-0.311954	-0.193381	0.036503	-0.207818	-0.181400	0.030980	-0.321776	-0.137653	0.043663	-0.270743	-0.389680	0.100376	-0.270795	-0.199373	0.696601	-0.425749	-0.160462	0.730674	-0.416918	-0.176325	0.659786	-0.425774	-0.138430	0.693675	-0.423315	-0.030505	0.552409	-0.418432	-0.017727	0.534260	-0.309706	-0.131524	0.477503	-0.453907	-0.086498	0.450740	-0.447793	-0.162793	0.431523	-0.458217	-0.117263	0.408418	-0.454312	-0.266770	0.227553	-0.458738	-0.235155	0.218009	-0.378935	-0.213048	0.105840	-0.516256	-0.176146	0.101078	-0.406297	-0.135472	0.103219	-0.462600	-0.341988	0.222036	-0.399162	-0.349946	1.353441	-0.033888	-0.333661	1.385310	-0.367505	
76	0.3750	-0.250163	0.917007	-0.111766	-0.254329	0.922313	-0.340619	-0.435930	0.882508	-0.172171	-0.438151	0.888701	-0.263347	-0.248222	0.657141	-0.093493	-0.195466	0.678847	-0.097990	-0.222716	0.619770	-0.111881	-0.170318	0.636515	-0.115348	-0.108610	0.467567	-0.197268	-0.128439	0.484709	-0.300624	-0.196073	0.350575	-0.174481	-0.156996	0.338165	-0.194273	-0.212334	0.303285	-0.182862	-0.180304	0.292487	-0.200637	-0.296633	0.117986	-0.227118	-0.297163	0.127845	-0.312093	-0.193583	0.037199	-0.207850	-0.181519	0.031572	-0.321813	-0.137864	0.044150	-0.270713	-0.388965	0.102173	-0.270987	-0.189413	0.698257	-0.423964	-0.150670	0.732646	-0.415080	-0.166120	0.661588	-0.423861	-0.128412	0.695761	-0.421355	-0.019768	0.555118	-0.415962	-0.007297	0.537051	-0.307364	-0.119362	0.477787	-0.451813	-0.073728	0.452070	-0.445561	-0.149644	0.430977	-0.456429	-0.103544	0.408912	-0.452344	-0.249188	0.223749	-0.457649	-0.217477	0.214901	-0.377797	-0.191930	0.103262	-0.515387	-0.155165	0.099297	-0.405337	-0.113979	0.102509	-0.461646	-0.324689	0.216159	-0.398299	-0.341748	1.354516	-0.033283	-0.325616	1.385824	-0.366865	
77	0.3800	-0.242550	0.917818	-0.110389	-0.246424	0.923394	-0.339214	-0.428161	0.883138	-0.171106	-0.430330	0.889432	-0.262262	-0.241475	0.657178	-0.092821	-0.188575	0.678460	-0.097435	-0.216280	0.619604	-0.111262	-0.163771	0.635893	-0.114875	-0.103132	0.466464	-0.196911	-0.122861	0.483811	-0.300283	-0.192528	0.350335	-0.174265	-0.153516	0.337514	-0.194003	-0.209293	0.303225	-0.182787	-0.177524	0.292059	-0.200590	-0.295948	0.119103	-0.227117	-0.296271	0.129122	-0.312181	-0.193750	0.037890	-0.207857	-0.181613	0.032195	-0.321828	-0.138080	0.044712	-0.270656	-0.388262	0.103830	-0.271135	-0.180621	0.699823	-0.422360	-0.142024	0.734483	-0.413426	-0.157123	0.663278	-0.422137	-0.119577	0.697694	-0.419585	-0.010339	0.557565	-0.413730	0.001850	0.539562	-0.305252	-0.108637	0.478031	-0.449910	-0.062456	0.453272	-0.443536	-0.138010	0.430468	-0.454796	-0.091400	0.409358	-0.450550	-0.233481	0.220315	-0.456633	-0.201682	0.212107	-0.376737	-0.173046	0.100983	-0.514559	-0.136392	0.097747	-0.404433	-0.094767	0.101911	-0.460755	-0.309198	0.210845	-0.397479	-0.334490	1.355592	-0.032769	-0.318477	1.386371	-0.366297	
78	0.3850	-0.235841	0.918613	-0.109203	-0.239501	0.924458	-0.337985	-0.421320	0.883773	-0.170139	-0.423457	0.890170	-0.261277	-0.235578	0.657250	-0.092219	-0.182542	0.678139	-0.096949	-0.210670	0.619486	-0.110697	-0.158054	0.635346	-0.114463	-0.098406	0.465484	-0.196567	-0.118061	0.482993	-0.299953	-0.189491	0.350128	-0.174040	-0.150540	0.336955	-0.193727	-0.206682	0.303184	-0.182686	-0.175157	0.291703	-0.200517	-0.295317	0.120123	-0.227084	-0.295457	0.130299	-0.312226	-0.193886	0.038550	-0.207845	-0.181682	0.032817	-0.321826	-0.138290	0.045308	-0.270582	-0.387585	0.105334	-0.271246	-0.172967	0.701274	-0.420939	-0.134492	0.736162	-0.411960	-0.149299	0.664833	-0.420607	-0.111889	0.699452	-0.418011	-0.002170	0.559739	-0.411743	0.009764	0.541784	-0.303375	-0.099308	0.478234	-0.448208	-0.052643	0.454343	-0.441727	-0.127856	0.430002	-0.453328	-0.080797	0.409755	-0.448939	-0.219645	0.217264	-0.455700	-0.187763	0.209632	-0.375767	-0.156396	0.098998	-0.513784	-0.119829	0.096419	-0.403597	-0.077834	0.101421	-0.459936	-0.295517	0.206112	-0.396714	-0.328150	1.356636	-0.032337	-0.312227	1.386925	-0.365800	
79	0.3900	-0.230018	0.919369	-0.108198	-0.233529	0.925474	-0.336928	-0.415385	0.884390	-0.169274	-0.417506	0.890888	-0.260397	-0.230499	0.657344	-0.091687	-0.177337	0.677878	-0.096530	-0.205850	0.619405	-0.110192	-0.153134	0.634871	-0.114109	-0.094386	0.464628	-0.196241	-0.113987	0.482261	-0.299640	-0.186925	0.349954	-0.173815	-0.148029	0.336484	-0.193455	-0.204470	0.303160	-0.182571	-0.173169	0.291411	-0.200426	-0.294744	0.121036	-0.227027	-0.294726	0.131362	-0.312238	-0.193991	0.039160	-0.207820	-0.181730	0.033410	-0.321813	-0.138487	0.045904	-0.270498	-0.386948	0.106678	-0.271324	-0.166400	0.702591	-0.419702	-0.128028	0.737669	-0.410681	-0.142595	0.666236	-0.419271	-0.105299	0.701023	-0.416634	0.004804	0.561638	-0.410004	0.016511	0.543718	-0.301735	-0.091313	0.478401	-0.446710	-0.044226	0.455280	-0.440138	-0.119124	0.429582	-0.452031	-0.071677	0.410101	-0.447517	-0.207641	0.214596	-0.454858	-0.175683	0.207476	-0.374894	-0.141940	0.097298	-0.513073	-0.105437	0.095301	-0.402838	-0.063137	0.101029	-0.459198	-0.283618	0.201965	-0.396012	-0.322694	1.357621	-0.031979	-0.306839	1.387466	-0.365372	
80	0.3950	-0.225046	0.920069	-0.107361	-0.228461	0.926418	-0.336034	-0.410321	0.884969	-0.168514	-0.412439	0.891564	-0.259623	-0.226196	0.657450	-0.091225	-0.172918	0.677668	-0.096174	-0.201775	0.619356	-0.109747	-0.148967	0.634465	-0.113810	-0.091020	0.463893	-0.195941	-0.110585	0.481619	-0.299352	-0.184790	0.349810	-0.173599	-0.145942	0.336094	-0.193196	-0.202624	0.303148	-0.182447	-0.171523	0.291176	-0.200326	-0.294232	0.121838	-0.226955	-0.294080	0.132304	-0.312226	-0.194069	0.039707	-0.207787	-0.181758	0.033957	-0.321792	-0.138664	0.046472	-0.270411	-0.386362	0.107858	-0.271375	-0.160857	0.703762	-0.418642	-0.122569	0.738994	-0.409584	-0.136944	0.667475	-0.418125	-0.099740	0.702400	-0.415449	0.010662	0.563268	-0.408509	0.022171	0.545372	-0.300327	-0.084573	0.478534	-0.445417	-0.037125	0.456084	-0.438767	-0.111738	0.429210	-0.450905	-0.063960	0.410397	-0.446285	-0.197398	0.212303	-0.454113	-0.165373	0.205630	-0.374122	-0.129597	0.095867	-0.512435	-0.093141	0.094377	-0.402162	-0.050593	0.100724	-0.458546	-0.273441	0.198394	-0.395381	-0.318077	1.358526	-0.031688	-0.302268	1.387976	-0.365008	
81	0.4000	-0.220878	0.920699	-0.106679	-0.224239	0.927270	-0.335293	-0.406078	0.885496	-0.167858	-0.408203	0.892180	-0.258955	-0.222615	0.657559	-0.090833	-0.169235	0.677503	-0.095877	-0.198391	0.619329	-0.109364	-0.145500	0.634126	-0.113561	-0.088251	0.463274	-0.195671	-0.107793	0.481069	-0.299093	-0.183043	0.349692	-0.173397	-0.144238	0.335776	-0.192957	-0.201109	0.303146	-0.182324	-0.170183	0.290991	-0.200224	-0.293782	0.122526	-0.226876	-0.293517	0.133119	-0.312196	-0.194124	0.040183	-0.207750	-0.181772	0.034443	-0.321767	-0.138820	0.046991	-0.270325	-0.385837	0.108874	-0.271405	-0.156263	0.704779	-0.417752	-0.118042	0.740135	-0.408661	-0.132265	0.668547	-0.417161	-0.095136	0.703580	-0.414450	0.015493	0.564639	-0.407248	0.026834	0.546759	-0.299142	-0.078992	0.478637	-0.444321	-0.031241	0.456761	-0.437606	-0.105603	0.428887	-0.449946	-0.057550	0.410646	-0.445237	-0.188819	0.210372	-0.453466	-0.156733	0.204079	-0.373455	-0.119253	0.094686	-0.511875	-0.082827	0.093629	-0.401575	-0.040083	0.100494	-0.457982	-0.264895	0.195378	-0.394824	-0.314238	1.359336	-0.031454	-0.298462	1.388443	-0.364706	
82	0.4050	-0.217454	0.921251	-0.106133	-0.220793	0.928018	-0.334690	-0.402595	0.885962	-0.167304	-0.404734	0.892725	-0.258392	-0.219694	0.657664	-0.090505	-0.166225	0.677377	-0.095634	-0.195636	0.619319	-0.109041	-0.142674	0.633847	-0.113358	-0.086017	0.462765	-0.195434	-0.105545	0.480608	-0.298866	-0.181640	0.349600	-0.173215	-0.142871	0.335523	-0.192743	-0.199890	0.303150	-0.182207	-0.169113	0.290849	-0.200125	-0.293396	0.123103	-0.226796	-0.293038	0.133808	-0.312156	-0.194162	0.040585	-0.207712	-0.181775	0.034861	-0.321741	-0.138951	0.047449	-0.270246	-0.385377	0.109730	-0.271420	-0.152531	0.705642	-0.417021	-0.114363	0.741095	-0.407901	-0.128468	0.669452	-0.416367	-0.091398	0.704570	-0.413625	0.019399	0.565768	-0.406208	0.030598	0.547896	-0.298166	-0.074464	0.478714	-0.443413	-0.026465	0.457319	-0.436645	-0.100610	0.428613	-0.449148	-0.052331	0.410849	-0.444366	-0.181779	0.208778	-0.452917	-0.149640	0.202805	-0.372889	-0.110762	0.093732	-0.511394	-0.074353	0.093037	-0.401075	-0.031458	0.100327	-0.457505	-0.257866	0.192884	-0.394345	-0.311112	1.360040	-0.031271	-0.295357	1.388856	-0.364458	
83	0.4100	-0.214705	0.921719	-0.105708	-0.218044	0.928654	-0.334213	-0.399802	0.886359	-0.166847	-0.401956	0.893190	-0.257929	-0.217365	0.657761	-0.090239	-0.163822	0.677282	-0.095439	-0.193443	0.619320	-0.108776	-0.140420	0.633625	-0.113195	-0.084254	0.462355	-0.195232	-0.103776	0.480231	-0.298673	-0.180539	0.349528	-0.173057	-0.141799	0.335326	-0.192557	-0.198929	0.303159	-0.182101	-0.168277	0.290742	-0.200034	-0.293072	0.123576	-0.226719	-0.292639	0.134376	-0.312112	-0.194184	0.040915	-0.207676	-0.181769	0.035210	-0.321717	-0.139059	0.047838	-0.270175	-0.384986	0.110435	-0.271423	-0.149568	0.706356	-0.416434	-0.111440	0.741882	-0.407290	-0.125458	0.670196	-0.415728	-0.088432	0.705379	-0.412960	0.022485	0.566674	-0.405369	0.033570	0.548807	-0.297380	-0.070873	0.478770	-0.442678	-0.022674	0.457767	-0.435868	-0.096637	0.428385	-0.448499	-0.048180	0.411011	-0.443659	-0.176135	0.207495	-0.452463	-0.143951	0.201782	-0.372423	-0.103951	0.092980	-0.510992	-0.067551	0.092579	-0.400661	-0.024543	0.100211	-0.457112	-0.252217	0.190870	-0.393943	-0.308624	1.360634	-0.031130	-0.292880	1.389210	-0.364260	
