PathFileType	4	(X/Y/Z)	 P11 130r2 07.trc
DataRate	CameraRate	NumFrames	NumMarkers	Units	OrigDataRate	OrigDataStartFrame	OrigNumFrames
200	200	68	38	m	200	1	68
Frame#	Time	RASIS			LASIS			RPSIS			LPSIS			RThighRear1			RThighFront1			RThighRear2			RThighFront2			RKneeLat			RKneeMed			RShankRear1			RShankFront1			RShankRear2			RShankFront2			RAnkleLat			RAnkleMed			RM5			RM1			RMid			RHeel			LThighRear1			LThighFront1			LThighRear2			LThighFront2			LKneeLat			LKneeMed			LShankRear1			LShankFront1			LShankRear2			LShankFront2			LAnkleLat			LAnkleMed			LM5			LM1			LMid			LHeel			RShoulder			LShoulder			
		X1	Y1	Z1	X2	Y2	Z2	X3	Y3	Z3	X4	Y4	Z4	X5	Y5	Z5	X6	Y6	Z6	X7	Y7	Z7	X8	Y8	Z8	X9	Y9	Z9	X10	Y10	Z10	X11	Y11	Z11	X12	Y12	Z12	X13	Y13	Z13	X14	Y14	Z14	X15	Y15	Z15	X16	Y16	Z16	X17	Y17	Z17	X18	Y18	Z18	X19	Y19	Z19	X20	Y20	Z20	X21	Y21	Z21	X22	Y22	Z22	X23	Y23	Z23	X24	Y24	Z24	X25	Y25	Z25	X26	Y26	Z26	X27	Y27	Z27	X28	Y28	Z28	X29	Y29	Z29	X30	Y30	Z30	X31	Y31	Z31	X32	Y32	Z32	X33	Y33	Z33	X34	Y34	Z34	X35	Y35	Z35	X36	Y36	Z36	X37	Y37	Z37	X38	Y38	Z38	
1	0.0000	-1.527138	0.967901	-0.159741	-1.540878	0.971141	-0.383259	-1.717265	0.974518	-0.206838	-1.719373	0.980420	-0.298083	-1.619969	0.705467	-0.108776	-1.562498	0.707680	-0.118947	-1.608032	0.657638	-0.119774	-1.554322	0.657947	-0.127295	-1.558678	0.459805	-0.175405	-1.556886	0.467315	-0.288148	-1.709088	0.463573	-0.157009	-1.695001	0.419296	-0.166638	-1.757013	0.447313	-0.162911	-1.745866	0.410785	-0.170785	-1.954258	0.379164	-0.187545	-1.942178	0.379117	-0.280461	-1.995174	0.230851	-0.174469	-1.971446	0.213105	-0.287177	-1.942253	0.196222	-0.233704	-2.017135	0.438859	-0.252069	-1.557274	0.718346	-0.449704	-1.510794	0.739293	-0.447697	-1.549690	0.677249	-0.443813	-1.504266	0.695569	-0.447920	-1.447659	0.532983	-0.421870	-1.453345	0.523356	-0.324673	-1.499408	0.405997	-0.466459	-1.448553	0.412771	-0.454537	-1.493724	0.348540	-0.469467	-1.444925	0.358028	-0.458577	-1.450161	0.117917	-0.456137	-1.427133	0.132685	-0.374402	-1.322655	0.051375	-0.497086	-1.302706	0.080870	-0.383913	-1.269923	0.106890	-0.446618	-1.512273	0.072979	-0.402561	-1.523512	1.415350	-0.095601	-1.531201	1.437154	-0.420185	
2	0.0050	-1.512201	0.964742	-0.158868	-1.525910	0.968959	-0.382677	-1.702460	0.971392	-0.205993	-1.704627	0.977583	-0.297315	-1.598926	0.703722	-0.107657	-1.541589	0.707402	-0.117328	-1.585494	0.656522	-0.118255	-1.531915	0.658083	-0.125468	-1.530968	0.461498	-0.173554	-1.529289	0.469208	-0.286273	-1.680650	0.462195	-0.154972	-1.665757	0.418272	-0.164744	-1.728295	0.445090	-0.160830	-1.716378	0.408675	-0.168918	-1.924016	0.372861	-0.185579	-1.911886	0.372966	-0.278519	-1.960699	0.224153	-0.171939	-1.936390	0.206763	-0.284501	-1.906878	0.190951	-0.230987	-1.988543	0.430586	-0.250420	-1.543780	0.716432	-0.449142	-1.497287	0.737229	-0.447471	-1.536334	0.675287	-0.443294	-1.490890	0.693616	-0.447727	-1.434542	0.530638	-0.421316	-1.440020	0.521246	-0.324007	-1.488286	0.405124	-0.465629	-1.437484	0.410547	-0.453427	-1.484138	0.347749	-0.468557	-1.435382	0.355955	-0.457399	-1.447764	0.117541	-0.454850	-1.424948	0.131277	-0.372835	-1.322030	0.050060	-0.496895	-1.301517	0.077891	-0.383042	-1.268037	0.102948	-0.445467	-1.511709	0.073414	-0.401857	-1.509599	1.413065	-0.094170	-1.514028	1.434274	-0.419601	
3	0.0100	-1.497046	0.961584	-0.157984	-1.510732	0.966763	-0.382093	-1.687440	0.968266	-0.205131	-1.689667	0.974747	-0.296533	-1.577600	0.702057	-0.106521	-1.520410	0.707243	-0.115679	-1.562654	0.655511	-0.116720	-1.509215	0.658360	-0.123610	-1.502882	0.463351	-0.171671	-1.501316	0.471264	-0.284368	-1.651811	0.460861	-0.152907	-1.636077	0.417313	-0.162816	-1.699155	0.442871	-0.158716	-1.686436	0.406586	-0.167015	-1.893266	0.366383	-0.183586	-1.881074	0.366645	-0.276536	-1.925593	0.217285	-0.169346	-1.900680	0.200262	-0.281756	-1.870845	0.185552	-0.228199	-1.959468	0.422076	-0.248738	-1.530088	0.714496	-0.448560	-1.483578	0.735137	-0.447223	-1.522786	0.673303	-0.442754	-1.477321	0.691632	-0.447512	-1.421275	0.528247	-0.420759	-1.426530	0.519082	-0.323333	-1.477077	0.404251	-0.464787	-1.426332	0.408297	-0.452320	-1.474488	0.346965	-0.467636	-1.425778	0.353863	-0.456223	-1.445397	0.117195	-0.453571	-1.422779	0.129887	-0.371277	-1.321426	0.048711	-0.496712	-1.300353	0.074908	-0.382194	-1.266170	0.099036	-0.444333	-1.511198	0.073861	-0.401159	-1.495493	1.410787	-0.092697	-1.496611	1.431408	-0.418970	
4	0.0150	-1.481680	0.958462	-0.157086	-1.495352	0.964574	-0.381503	-1.672212	0.965169	-0.204250	-1.674500	0.971943	-0.295735	-1.556031	0.700519	-0.105364	-1.499004	0.707250	-0.113998	-1.539559	0.654654	-0.115171	-1.486269	0.658827	-0.121722	-1.474488	0.465405	-0.169756	-1.473035	0.473519	-0.282431	-1.622612	0.459591	-0.150814	-1.606000	0.416451	-0.160853	-1.669623	0.440670	-0.156568	-1.656065	0.404544	-0.165069	-1.861982	0.359712	-0.181563	-1.849718	0.360140	-0.274501	-1.889808	0.210264	-0.166684	-1.864271	0.193623	-0.278935	-1.834116	0.180050	-0.225330	-1.929872	0.413296	-0.247009	-1.516199	0.712553	-0.447951	-1.469666	0.733031	-0.446940	-1.509049	0.671311	-0.442187	-1.463559	0.689628	-0.447263	-1.407873	0.525819	-0.420196	-1.412894	0.516866	-0.322648	-1.465808	0.403394	-0.463938	-1.415125	0.406039	-0.451223	-1.464800	0.346210	-0.466705	-1.416140	0.351775	-0.455058	-1.443065	0.116909	-0.452314	-1.420627	0.128552	-0.369747	-1.320859	0.047340	-0.496543	-1.299233	0.071953	-0.381380	-1.264347	0.095194	-0.443234	-1.510732	0.074356	-0.400474	-1.481206	1.408540	-0.091176	-1.478968	1.428590	-0.418272	
5	0.0200	-1.466105	0.955416	-0.156168	-1.479770	0.962411	-0.380899	-1.656775	0.962135	-0.203345	-1.659124	0.969200	-0.294918	-1.534253	0.699155	-0.104184	-1.477407	0.707469	-0.112286	-1.516248	0.653999	-0.113607	-1.463121	0.659532	-0.119806	-1.445843	0.467704	-0.167810	-1.444509	0.476008	-0.280462	-1.593088	0.458403	-0.148689	-1.575554	0.415715	-0.158850	-1.639714	0.438497	-0.154378	-1.625277	0.402573	-0.163074	-1.830118	0.352833	-0.179501	-1.817774	0.353438	-0.272402	-1.853277	0.203109	-0.163940	-1.827100	0.186871	-0.276027	-1.796633	0.174479	-0.222373	-1.899697	0.404207	-0.245217	-1.502105	0.710617	-0.447307	-1.455545	0.730923	-0.446608	-1.495120	0.669327	-0.441587	-1.449601	0.687617	-0.446966	-1.394346	0.523363	-0.419628	-1.399122	0.514602	-0.321950	-1.454497	0.402575	-0.463082	-1.403884	0.403790	-0.450146	-1.455091	0.345506	-0.465768	-1.406488	0.349712	-0.453913	-1.440770	0.116720	-0.451095	-1.418489	0.127306	-0.368262	-1.320343	0.045961	-0.496390	-1.298178	0.069054	-0.380616	-1.262596	0.091460	-0.442183	-1.510296	0.074941	-0.399810	-1.466745	1.406352	-0.089597	-1.461112	1.425853	-0.417485	
6	0.0250	-1.450314	0.952485	-0.155225	-1.463979	0.960294	-0.380275	-1.641122	0.959196	-0.202413	-1.643530	0.966550	-0.294077	-1.512293	0.698010	-0.102976	-1.455650	0.707944	-0.110539	-1.492758	0.653591	-0.112029	-1.439807	0.660522	-0.117862	-1.417000	0.470282	-0.165835	-1.415797	0.478763	-0.278460	-1.563260	0.457310	-0.146529	-1.544758	0.415134	-0.156802	-1.609439	0.436362	-0.152141	-1.594077	0.400693	-0.161022	-1.797619	0.345732	-0.177394	-1.785190	0.346526	-0.270228	-1.815918	0.195843	-0.161106	-1.789092	0.180037	-0.273025	-1.758328	0.168873	-0.219318	-1.868870	0.394773	-0.243344	-1.487796	0.708705	-0.446619	-1.441201	0.728828	-0.446212	-1.480989	0.667368	-0.440946	-1.435433	0.685609	-0.446609	-1.380699	0.520888	-0.419054	-1.385218	0.512291	-0.321237	-1.443155	0.401813	-0.462221	-1.392626	0.401572	-0.449095	-1.445372	0.344878	-0.464828	-1.396835	0.347700	-0.452797	-1.438505	0.116664	-0.449928	-1.416356	0.126188	-0.366842	-1.319893	0.044587	-0.496256	-1.297207	0.066242	-0.379913	-1.260940	0.087868	-0.441195	-1.509871	0.075663	-0.399175	-1.452110	1.404249	-0.087952	-1.443048	1.423232	-0.416588	
7	0.0300	-1.434298	0.949707	-0.154249	-1.447967	0.958245	-0.379621	-1.625240	0.956383	-0.201452	-1.627706	0.964019	-0.293208	-1.490175	0.697124	-0.101736	-1.433758	0.708711	-0.108757	-1.469119	0.653470	-0.110437	-1.416362	0.661834	-0.115892	-1.388008	0.473174	-0.163830	-1.386955	0.481809	-0.276424	-1.533151	0.456326	-0.144329	-1.513632	0.414733	-0.154705	-1.578798	0.434270	-0.149850	-1.562466	0.398926	-0.158903	-1.764419	0.338398	-0.175231	-1.751904	0.339396	-0.267962	-1.777647	0.188495	-0.158170	-1.750169	0.173158	-0.269920	-1.719131	0.163278	-0.216160	-1.837312	0.384960	-0.241370	-1.473254	0.706831	-0.445880	-1.426616	0.726759	-0.445738	-1.466639	0.665449	-0.440259	-1.421039	0.683617	-0.446177	-1.366929	0.518404	-0.418472	-1.371183	0.509939	-0.320503	-1.431787	0.401129	-0.461356	-1.381357	0.399404	-0.448076	-1.435645	0.344353	-0.463887	-1.387186	0.345763	-0.451717	-1.436260	0.116780	-0.448827	-1.414215	0.125235	-0.365501	-1.319522	0.043235	-0.496142	-1.296337	0.063543	-0.379280	-1.259405	0.084448	-0.440281	-1.509430	0.076573	-0.398575	-1.437299	1.402256	-0.086233	-1.424779	1.420760	-0.415561	
8	0.0350	-1.418044	0.947124	-0.153231	-1.431720	0.956282	-0.378925	-1.609118	0.953726	-0.200456	-1.611638	0.961638	-0.292307	-1.467922	0.696535	-0.100460	-1.411757	0.709804	-0.106938	-1.445362	0.653672	-0.108830	-1.392817	0.663502	-0.113897	-1.358920	0.476402	-0.161797	-1.358038	0.485163	-0.274351	-1.502776	0.455456	-0.142082	-1.482191	0.414532	-0.152554	-1.547795	0.432227	-0.147497	-1.530445	0.397289	-0.156711	-1.730453	0.330824	-0.173003	-1.717855	0.332043	-0.265593	-1.738378	0.181101	-0.155125	-1.710255	0.166277	-0.266705	-1.678972	0.157741	-0.212892	-1.804938	0.374739	-0.239274	-1.458460	0.705012	-0.445082	-1.411769	0.724729	-0.445170	-1.452056	0.663586	-0.439518	-1.406403	0.681652	-0.445656	-1.353030	0.515921	-0.417880	-1.357014	0.507548	-0.319747	-1.420392	0.400542	-0.460489	-1.370081	0.397306	-0.447094	-1.425909	0.343953	-0.462947	-1.377542	0.343926	-0.450679	-1.434018	0.117105	-0.447805	-1.412045	0.124485	-0.364257	-1.319241	0.041924	-0.496051	-1.295583	0.060983	-0.378728	-1.258009	0.081227	-0.439451	-1.508936	0.077725	-0.398017	-1.422308	1.400398	-0.084434	-1.406306	1.418468	-0.414384	
9	0.0400	-1.401541	0.944771	-0.152163	-1.415223	0.954425	-0.378177	-1.592739	0.951253	-0.199423	-1.595310	0.959431	-0.291371	-1.445557	0.696270	-0.099143	-1.389671	0.711247	-0.105082	-1.421520	0.654223	-0.107206	-1.369205	0.665550	-0.111877	-1.329784	0.479982	-0.159736	-1.329106	0.488833	-0.272240	-1.472158	0.454704	-0.139783	-1.450457	0.414547	-0.150342	-1.516434	0.430233	-0.145075	-1.498018	0.395796	-0.154436	-1.695659	0.323010	-0.170699	-1.682988	0.324470	-0.263106	-1.698034	0.173704	-0.151961	-1.669281	0.159446	-0.263375	-1.637792	0.152318	-0.209510	-1.771669	0.364089	-0.237035	-1.443396	0.703262	-0.444215	-1.396640	0.722753	-0.444493	-1.437220	0.661796	-0.438717	-1.391503	0.679727	-0.445034	-1.338994	0.513449	-0.417276	-1.342706	0.505124	-0.318961	-1.408962	0.400074	-0.459621	-1.358793	0.395299	-0.446155	-1.416155	0.343705	-0.462009	-1.367898	0.342212	-0.449690	-1.431754	0.117678	-0.446871	-1.409822	0.123974	-0.363122	-1.319059	0.040672	-0.495983	-1.294957	0.058585	-0.378261	-1.256770	0.078226	-0.438712	-1.508351	0.079176	-0.397506	-1.407132	1.398698	-0.082547	-1.387631	1.416385	-0.413038	
10	0.0450	-1.384777	0.942686	-0.151036	-1.398459	0.952694	-0.377364	-1.576093	0.948991	-0.198350	-1.578707	0.957421	-0.290394	-1.423105	0.696354	-0.097780	-1.367524	0.713055	-0.103188	-1.397623	0.655143	-0.105564	-1.345559	0.667991	-0.109835	-1.300656	0.483919	-0.157650	-1.300220	0.492816	-0.270090	-1.441318	0.454067	-0.137425	-1.418455	0.414788	-0.148067	-1.484721	0.428288	-0.142574	-1.465195	0.394458	-0.152072	-1.659983	0.314962	-0.168309	-1.647254	0.316685	-0.260489	-1.656554	0.166352	-0.148675	-1.627196	0.152722	-0.259929	-1.595549	0.147068	-0.206014	-1.737432	0.353001	-0.234634	-1.428043	0.701599	-0.443274	-1.381211	0.720843	-0.443694	-1.422116	0.660096	-0.437851	-1.376323	0.677853	-0.444296	-1.324809	0.511001	-0.416658	-1.328252	0.502674	-0.318144	-1.397485	0.399744	-0.458752	-1.347486	0.393403	-0.445259	-1.406369	0.343632	-0.461076	-1.358243	0.340648	-0.448752	-1.429438	0.118534	-0.446035	-1.407516	0.123737	-0.362108	-1.318979	0.039503	-0.495937	-1.294464	0.056370	-0.377883	-1.255700	0.075460	-0.438071	-1.507624	0.080984	-0.397045	-1.391765	1.397175	-0.080570	-1.368759	1.414536	-0.411508	
11	0.0500	-1.367744	0.940900	-0.149841	-1.381417	0.951106	-0.376472	-1.559166	0.946962	-0.197232	-1.561818	0.955631	-0.289372	-1.400591	0.696800	-0.096368	-1.345341	0.715234	-0.101256	-1.373709	0.656439	-0.103901	-1.321914	0.670826	-0.107773	-1.271594	0.488205	-0.155541	-1.271446	0.497098	-0.267901	-1.410286	0.453538	-0.135003	-1.386218	0.415257	-0.145723	-1.452674	0.426387	-0.139990	-1.431995	0.393281	-0.149612	-1.623386	0.306697	-0.165824	-1.610621	0.308705	-0.257732	-1.613893	0.159102	-0.145262	-1.583968	0.146167	-0.256366	-1.552218	0.142056	-0.202406	-1.702167	0.341476	-0.232052	-1.412385	0.700035	-0.442252	-1.365465	0.719014	-0.442761	-1.406728	0.658499	-0.436916	-1.360846	0.676045	-0.443434	-1.310465	0.508587	-0.416024	-1.313645	0.500206	-0.317289	-1.385945	0.399570	-0.457884	-1.336147	0.391639	-0.444410	-1.396532	0.343755	-0.460148	-1.348559	0.339257	-0.447868	-1.427034	0.119708	-0.445305	-1.405093	0.123806	-0.361224	-1.319004	0.038440	-0.495911	-1.294109	0.054360	-0.377595	-1.254807	0.072940	-0.437530	-1.506704	0.083206	-0.396637	-1.376207	1.395847	-0.078499	-1.349695	1.412944	-0.409782	
12	0.0550	-1.350438	0.939442	-0.148570	-1.364087	0.949676	-0.375489	-1.541954	0.945186	-0.196068	-1.544634	0.954076	-0.288302	-1.378045	0.697614	-0.094902	-1.323152	0.717777	-0.099288	-1.349814	0.658111	-0.102215	-1.298308	0.674046	-0.105694	-1.242660	0.492821	-0.153412	-1.242852	0.501652	-0.265672	-1.379098	0.453105	-0.132511	-1.353788	0.415950	-0.143309	-1.420315	0.424523	-0.137316	-1.398450	0.392266	-0.147051	-1.585844	0.298238	-0.163234	-1.573073	0.300554	-0.254825	-1.570032	0.152013	-0.141724	-1.539590	0.139849	-0.252690	-1.507800	0.137350	-0.198692	-1.665832	0.329526	-0.229273	-1.396412	0.698587	-0.441145	-1.349390	0.717279	-0.441683	-1.391046	0.657022	-0.435909	-1.345060	0.674315	-0.442438	-1.295950	0.506221	-0.415372	-1.298877	0.497729	-0.316393	-1.374322	0.399569	-0.457017	-1.324759	0.390024	-0.443606	-1.386621	0.344095	-0.459227	-1.338828	0.338061	-0.447039	-1.424502	0.121230	-0.444685	-1.402515	0.124209	-0.360476	-1.319128	0.037509	-0.495902	-1.293886	0.052570	-0.377396	-1.254094	0.070671	-0.437088	-1.505530	0.085897	-0.396281	-1.360457	1.394728	-0.076335	-1.330452	1.411625	-0.407849	
13	0.0600	-1.332858	0.938333	-0.147215	-1.346465	0.948420	-0.374402	-1.524453	0.943676	-0.194856	-1.527153	0.952770	-0.287179	-1.355499	0.698790	-0.093379	-1.300983	0.720667	-0.097286	-1.325979	0.660146	-0.100503	-1.274780	0.677628	-0.103601	-1.213920	0.497736	-0.151266	-1.214513	0.506440	-0.263405	-1.347796	0.452751	-0.129945	-1.321217	0.416857	-0.140822	-1.387679	0.422687	-0.134548	-1.364599	0.391412	-0.144387	-1.547351	0.289614	-0.160532	-1.534611	0.292263	-0.251764	-1.524978	0.145152	-0.138062	-1.494082	0.133839	-0.248908	-1.462323	0.133017	-0.194879	-1.628400	0.317177	-0.226285	-1.380114	0.697267	-0.439948	-1.332978	0.715652	-0.440454	-1.375060	0.655677	-0.434829	-1.328957	0.672676	-0.441301	-1.281250	0.503917	-0.414699	-1.283942	0.495254	-0.315452	-1.362592	0.399755	-0.456151	-1.313301	0.388579	-0.442849	-1.376609	0.344670	-0.458315	-1.329023	0.337081	-0.446266	-1.421796	0.123129	-0.444177	-1.399739	0.124973	-0.359867	-1.319342	0.036740	-0.495907	-1.293788	0.051019	-0.377282	-1.253554	0.068654	-0.436743	-1.504039	0.089109	-0.395978	-1.344521	1.393830	-0.074078	-1.311046	1.410592	-0.405706	
14	0.0650	-1.315008	0.937590	-0.145768	-1.328549	0.947350	-0.373201	-1.506665	0.942444	-0.193591	-1.509374	0.951721	-0.286000	-1.332986	0.700314	-0.091794	-1.278865	0.723877	-0.095251	-1.302247	0.662520	-0.098763	-1.251369	0.681538	-0.101498	-1.185442	0.502906	-0.149106	-1.186501	0.511413	-0.261100	-1.316431	0.452453	-0.127301	-1.288565	0.417959	-0.138262	-1.354810	0.420868	-0.131682	-1.330496	0.390710	-0.141618	-1.507924	0.280865	-0.157713	-1.495259	0.283872	-0.248545	-1.478768	0.138584	-0.134283	-1.447490	0.128207	-0.245029	-1.415841	0.129125	-0.190979	-1.589871	0.304468	-0.223078	-1.363490	0.696088	-0.438661	-1.316226	0.714146	-0.439067	-1.358767	0.654479	-0.433674	-1.312531	0.671141	-0.440021	-1.266355	0.501688	-0.414005	-1.268832	0.492793	-0.314464	-1.350729	0.400140	-0.455288	-1.301750	0.387318	-0.442135	-1.366464	0.345492	-0.457413	-1.319116	0.336336	-0.445547	-1.418866	0.125426	-0.443780	-1.396721	0.126118	-0.359398	-1.319631	0.036163	-0.495922	-1.293798	0.049720	-0.377247	-1.253179	0.066888	-0.436492	-1.502166	0.092887	-0.395724	-1.328404	1.393158	-0.071732	-1.291499	1.409852	-0.403349	
15	0.0700	-1.296895	0.937222	-0.144224	-1.310346	0.946476	-0.371873	-1.488596	0.941493	-0.192272	-1.491303	0.950934	-0.284759	-1.310540	0.702164	-0.090144	-1.256829	0.727369	-0.093188	-1.278659	0.665201	-0.096989	-1.228117	0.685728	-0.099389	-1.157295	0.508278	-0.146938	-1.158894	0.516510	-0.258759	-1.285060	0.452185	-0.124578	-1.255898	0.419232	-0.135630	-1.321760	0.419051	-0.128718	-1.296205	0.390150	-0.138745	-1.467602	0.272035	-0.154773	-1.455064	0.275423	-0.245169	-1.431466	0.132377	-0.130395	-1.399893	0.123023	-0.241065	-1.368438	0.125737	-0.187005	-1.550266	0.291449	-0.219648	-1.346541	0.695061	-0.437282	-1.299137	0.712771	-0.437521	-1.342167	0.653437	-0.432445	-1.295785	0.669722	-0.438594	-1.251252	0.499549	-0.413288	-1.253540	0.490361	-0.313427	-1.338703	0.400734	-0.454427	-1.290078	0.386257	-0.441461	-1.356154	0.346575	-0.456521	-1.309076	0.335842	-0.444878	-1.415659	0.128141	-0.443493	-1.393414	0.127662	-0.359065	-1.319972	0.035810	-0.495940	-1.293894	0.048689	-0.377282	-1.252949	0.065366	-0.436328	-1.499841	0.097273	-0.395514	-1.312117	1.392716	-0.069302	-1.271836	1.409406	-0.400783	
16	0.0750	-1.278534	0.937230	-0.142579	-1.291865	0.945804	-0.370411	-1.470258	0.940824	-0.190897	-1.472952	0.950408	-0.283453	-1.288198	0.704305	-0.088426	-1.234903	0.731092	-0.091099	-1.255258	0.668145	-0.095179	-1.205061	0.690141	-0.097279	-1.129549	0.513786	-0.144764	-1.131765	0.521663	-0.256384	-1.253744	0.451919	-0.121774	-1.223293	0.420644	-0.132928	-1.288592	0.417221	-0.125656	-1.261800	0.389713	-0.135771	-1.426444	0.263175	-0.151710	-1.414090	0.266965	-0.241640	-1.383167	0.126595	-0.126410	-1.351394	0.118353	-0.237030	-1.320224	0.122913	-0.182972	-1.509629	0.278181	-0.215996	-1.329274	0.694194	-0.435813	-1.281720	0.711540	-0.435817	-1.325265	0.652561	-0.431145	-1.278721	0.668431	-0.437024	-1.235932	0.497514	-0.412548	-1.238058	0.487972	-0.312340	-1.326485	0.401544	-0.453570	-1.278257	0.385409	-0.440824	-1.345644	0.347925	-0.455639	-1.298869	0.335612	-0.444257	-1.412122	0.131287	-0.443307	-1.389771	0.129619	-0.358862	-1.320338	0.035713	-0.495957	-1.294044	0.047938	-0.377377	-1.252839	0.064080	-0.436242	-1.496996	0.102297	-0.395342	-1.295675	1.392500	-0.066796	-1.252088	1.409249	-0.398013	
17	0.0800	-1.259941	0.937608	-0.140831	-1.273121	0.945339	-0.368808	-1.451666	0.940429	-0.189463	-1.454335	0.950137	-0.282078	-1.265992	0.706697	-0.086637	-1.213115	0.734992	-0.088990	-1.232085	0.671301	-0.093327	-1.182238	0.694712	-0.095170	-1.102271	0.519359	-0.142588	-1.105184	0.526796	-0.253976	-1.222549	0.451621	-0.118890	-1.190827	0.422158	-0.130158	-1.255375	0.415361	-0.122498	-1.227362	0.389379	-0.132700	-1.384534	0.254338	-0.148526	-1.372426	0.258550	-0.237965	-1.333994	0.121299	-0.122341	-1.302125	0.114255	-0.232941	-1.271333	0.120703	-0.178899	-1.468029	0.264733	-0.212127	-1.311700	0.693495	-0.434257	-1.263987	0.710461	-0.433959	-1.308069	0.651857	-0.429777	-1.261351	0.667279	-0.435314	-1.220384	0.495596	-0.411784	-1.222377	0.485640	-0.311203	-1.314042	0.402572	-0.452715	-1.266255	0.384782	-0.440219	-1.334894	0.349546	-0.454769	-1.288458	0.335655	-0.443678	-1.408199	0.134871	-0.443216	-1.385743	0.131996	-0.358781	-1.320691	0.035908	-0.495966	-1.294210	0.047481	-0.377522	-1.252815	0.063020	-0.436225	-1.493564	0.107983	-0.395198	-1.279095	1.392504	-0.064221	-1.232288	1.409372	-0.395049	
18	0.0850	-1.241134	0.938338	-0.138977	-1.254134	0.945081	-0.367058	-1.432838	0.940297	-0.187966	-1.435471	0.950109	-0.280628	-1.243954	0.709291	-0.084773	-1.191489	0.739002	-0.086864	-1.209176	0.674609	-0.091428	-1.159680	0.699365	-0.093067	-1.075524	0.524920	-0.140413	-1.079217	0.531828	-0.251538	-1.191546	0.451257	-0.115927	-1.158584	0.423734	-0.127324	-1.222186	0.413453	-0.119249	-1.192980	0.389123	-0.129538	-1.341972	0.245579	-0.145223	-1.330177	0.250231	-0.234155	-1.284095	0.116541	-0.118204	-1.252240	0.110779	-0.228815	-1.221923	0.119146	-0.174802	-1.425560	0.251184	-0.208052	-1.293834	0.692968	-0.432617	-1.245954	0.709542	-0.431954	-1.290588	0.651330	-0.428346	-1.243685	0.666275	-0.433472	-1.204597	0.493808	-0.410998	-1.206488	0.483379	-0.310017	-1.301340	0.403819	-0.451863	-1.254040	0.384383	-0.439641	-1.323867	0.351437	-0.453909	-1.277806	0.335977	-0.443135	-1.403836	0.138896	-0.443207	-1.381281	0.134796	-0.358808	-1.320990	0.036428	-0.495960	-1.294348	0.047328	-0.377703	-1.252836	0.062176	-0.436266	-1.489481	0.114345	-0.395073	-1.262395	1.392716	-0.061586	-1.212474	1.409756	-0.391906	
19	0.0900	-1.222136	0.939397	-0.137020	-1.234927	0.945028	-0.365160	-1.413796	0.940408	-0.186404	-1.416383	0.950308	-0.279098	-1.222112	0.712033	-0.082833	-1.170046	0.743053	-0.084725	-1.186564	0.678006	-0.089476	-1.137416	0.704023	-0.090973	-1.049363	0.530385	-0.138241	-1.053919	0.536676	-0.249072	-1.160802	0.450795	-0.112889	-1.126647	0.425325	-0.124432	-1.189105	0.411477	-0.115915	-1.158748	0.388918	-0.126294	-1.298881	0.236955	-0.141810	-1.287467	0.242060	-0.230225	-1.233643	0.112365	-0.114016	-1.201916	0.107964	-0.224671	-1.172172	0.118269	-0.170701	-1.382335	0.237616	-0.203789	-1.275692	0.692613	-0.430901	-1.227642	0.708788	-0.429813	-1.272838	0.650979	-0.426856	-1.225739	0.665426	-0.431509	-1.188560	0.492162	-0.410190	-1.190379	0.481202	-0.308786	-1.288347	0.405279	-0.451013	-1.241579	0.384214	-0.439083	-1.312524	0.353593	-0.453059	-1.266875	0.336580	-0.442621	-1.398979	0.143358	-0.443267	-1.376340	0.138018	-0.358928	-1.321183	0.037306	-0.495932	-1.294403	0.047493	-0.377908	-1.252853	0.061539	-0.436354	-1.484684	0.121382	-0.394954	-1.245594	1.393122	-0.058902	-1.192683	1.410381	-0.388600	
20	0.0950	-1.202971	0.940754	-0.134962	-1.215527	0.945171	-0.363115	-1.394563	0.940740	-0.184772	-1.397094	0.950712	-0.277484	-1.200489	0.714863	-0.080812	-1.148802	0.747072	-0.082576	-1.164276	0.681422	-0.087466	-1.115466	0.708601	-0.088890	-1.023837	0.535672	-0.136074	-1.029337	0.541257	-0.246580	-1.130387	0.450197	-0.109781	-1.095096	0.426884	-0.121488	-1.156213	0.409416	-0.112505	-1.124759	0.388732	-0.122978	-1.255397	0.228519	-0.138294	-1.244433	0.234087	-0.226192	-1.182830	0.108802	-0.109796	-1.151346	0.105832	-0.220528	-1.122270	0.118085	-0.166614	-1.338490	0.224115	-0.199359	-1.257297	0.692429	-0.429113	-1.209073	0.708202	-0.427548	-1.254833	0.650804	-0.425314	-1.207531	0.664737	-0.429437	-1.172263	0.490665	-0.409362	-1.174037	0.479121	-0.307512	-1.275028	0.406946	-0.450164	-1.228835	0.384276	-0.438539	-1.300826	0.356006	-0.452216	-1.255623	0.337461	-0.442129	-1.393575	0.148247	-0.443380	-1.370873	0.141654	-0.359124	-1.321213	0.038574	-0.495876	-1.294315	0.047985	-0.378124	-1.252808	0.061099	-0.436478	-1.479117	0.129087	-0.394828	-1.228715	1.393699	-0.056178	-1.172954	1.411220	-0.385150	
21	0.1000	-1.183662	0.942367	-0.132807	-1.195962	0.945502	-0.360924	-1.375165	0.941263	-0.183067	-1.377630	0.951296	-0.275781	-1.179103	0.717717	-0.078710	-1.127767	0.750983	-0.080420	-1.142329	0.684786	-0.085392	-1.093845	0.713016	-0.086818	-0.998984	0.540696	-0.133912	-1.005506	0.545490	-0.244063	-1.100366	0.449433	-0.106609	-1.064009	0.428362	-0.118498	-1.123594	0.407251	-0.109028	-1.091108	0.388533	-0.119600	-1.211672	0.220322	-0.134688	-1.201226	0.226358	-0.222076	-1.131865	0.105870	-0.105563	-1.100735	0.104394	-0.216405	-1.072422	0.118589	-0.162558	-1.294179	0.210770	-0.194789	-1.238667	0.692411	-0.427262	-1.190272	0.707783	-0.425175	-1.236588	0.650797	-0.423726	-1.189079	0.664208	-0.427270	-1.155694	0.489323	-0.408516	-1.157446	0.477147	-0.306200	-1.261349	0.408807	-0.449314	-1.215774	0.384562	-0.438003	-1.288734	0.358662	-0.451379	-1.244014	0.338613	-0.441650	-1.387575	0.153550	-0.443528	-1.364837	0.145694	-0.359377	-1.321015	0.040260	-0.495785	-1.294015	0.048814	-0.378337	-1.252635	0.060850	-0.436626	-1.472731	0.137437	-0.394678	-1.211777	1.394425	-0.053424	-1.153326	1.412239	-0.381577	
22	0.1050	-1.164232	0.944190	-0.130562	-1.176261	0.946005	-0.358593	-1.355624	0.941943	-0.181284	-1.358019	0.952029	-0.273983	-1.157965	0.720531	-0.076525	-1.106946	0.754710	-0.078259	-1.120737	0.688027	-0.083248	-1.072558	0.717185	-0.084758	-0.974830	0.545379	-0.131754	-0.982446	0.549299	-0.241522	-1.070799	0.448470	-0.103382	-1.033456	0.429712	-0.115470	-1.091328	0.404966	-0.105496	-1.057885	0.388288	-0.116175	-1.167869	0.212410	-0.131007	-1.158005	0.218914	-0.217901	-1.080968	0.103572	-0.101337	-1.050300	0.103639	-0.212319	-1.022838	0.119759	-0.158552	-1.249569	0.197667	-0.190112	-1.219824	0.692549	-0.425355	-1.171261	0.707527	-0.422709	-1.218119	0.650948	-0.422098	-1.170401	0.663840	-0.425024	-1.138839	0.488141	-0.407655	-1.140588	0.475285	-0.304855	-1.247278	0.410848	-0.448461	-1.202361	0.385064	-0.437467	-1.276209	0.361542	-0.450544	-1.232007	0.340023	-0.441176	-1.380933	0.159245	-0.443692	-1.358191	0.150119	-0.359663	-1.320517	0.042389	-0.495652	-1.293430	0.049987	-0.378537	-1.252262	0.060786	-0.436787	-1.465481	0.146398	-0.394489	-1.194800	1.395272	-0.050649	-1.133834	1.413405	-0.377904	
23	0.1100	-1.144703	0.946172	-0.128233	-1.156454	0.946662	-0.356130	-1.335966	0.942741	-0.179419	-1.338285	0.952877	-0.272085	-1.137081	0.723238	-0.074254	-1.086337	0.758180	-0.076094	-1.099502	0.691075	-0.081029	-1.051605	0.721028	-0.082709	-0.951389	0.549645	-0.129599	-0.960166	0.552616	-0.238960	-1.041741	0.447281	-0.100110	-1.003502	0.430884	-0.112412	-1.059493	0.402545	-0.101924	-1.025178	0.387963	-0.112716	-1.124157	0.204821	-0.127270	-1.114934	0.211790	-0.213692	-1.030367	0.101896	-0.097139	-1.000259	0.103542	-0.208289	-0.973730	0.121556	-0.154610	-1.204844	0.184890	-0.185362	-1.200788	0.692830	-0.423402	-1.152064	0.707428	-0.420171	-1.199441	0.651245	-0.420436	-1.151513	0.663627	-0.422716	-1.121684	0.487119	-0.406781	-1.123444	0.473541	-0.303481	-1.232782	0.413050	-0.447601	-1.188560	0.385770	-0.436925	-1.263216	0.364627	-0.449706	-1.219564	0.341676	-0.440696	-1.373606	0.165306	-0.443849	-1.350897	0.154910	-0.359960	-1.319641	0.044982	-0.495472	-1.292478	0.051511	-0.378711	-1.251608	0.060907	-0.436950	-1.457332	0.155924	-0.394243	-1.177801	1.396210	-0.047862	-1.114511	1.414678	-0.374154	
24	0.1150	-1.125097	0.948255	-0.125830	-1.136569	0.947451	-0.353545	-1.316213	0.943617	-0.177466	-1.318455	0.953802	-0.270082	-1.116448	0.725776	-0.071897	-1.065933	0.761324	-0.073923	-1.078618	0.693862	-0.078731	-1.030975	0.724471	-0.080667	-0.928664	0.553428	-0.127445	-0.938656	0.555382	-0.236376	-1.013240	0.445843	-0.096802	-0.974201	0.431836	-0.109334	-1.028163	0.399975	-0.098326	-0.993065	0.387526	-0.109237	-1.080714	0.197589	-0.123495	-1.072181	0.205012	-0.209475	-0.980296	0.100812	-0.092988	-0.950835	0.104058	-0.204332	-0.925308	0.123921	-0.150746	-1.160194	0.172518	-0.180580	-1.181577	0.693238	-0.421410	-1.132703	0.707474	-0.417577	-1.180566	0.651668	-0.418747	-1.132433	0.663561	-0.420364	-1.104214	0.486252	-0.405896	-1.105988	0.471916	-0.302086	-1.217830	0.415392	-0.446729	-1.174336	0.386664	-0.436369	-1.249717	0.367891	-0.448860	-1.206648	0.343552	-0.440202	-1.365556	0.171703	-0.443979	-1.342917	0.160038	-0.360244	-1.318304	0.048053	-0.495239	-1.291074	0.053388	-0.378849	-1.250587	0.061211	-0.437107	-1.448256	0.165960	-0.393921	-1.160797	1.397204	-0.045070	-1.095389	1.416018	-0.370350	
25	0.1200	-1.105431	0.950379	-0.123361	-1.116634	0.948347	-0.350850	-1.296385	0.944526	-0.175421	-1.298551	0.954763	-0.267970	-1.096058	0.728083	-0.069455	-1.045720	0.764079	-0.071747	-1.058073	0.696328	-0.076350	-1.010652	0.727447	-0.078628	-0.906643	0.556668	-0.125287	-0.917894	0.557549	-0.233773	-0.985335	0.444137	-0.093473	-0.945597	0.432527	-0.106245	-0.997402	0.397246	-0.094719	-0.961617	0.386944	-0.105756	-1.037716	0.190737	-0.119707	-1.029916	0.198599	-0.205281	-0.930986	0.100275	-0.088905	-0.902244	0.105126	-0.200463	-0.877779	0.126780	-0.146975	-1.115819	0.160624	-0.175805	-1.162206	0.693752	-0.419387	-1.113196	0.707651	-0.414947	-1.161504	0.652197	-0.417035	-1.113173	0.663629	-0.417983	-1.086411	0.485534	-0.405002	-1.088197	0.470409	-0.300673	-1.202390	0.417850	-0.445840	-1.159655	0.387725	-0.435791	-1.235680	0.371308	-0.447999	-1.193223	0.345627	-0.439684	-1.356747	0.178400	-0.444059	-1.334219	0.165473	-0.360491	-1.316417	0.051609	-0.494948	-1.289125	0.055618	-0.378942	-1.249105	0.061703	-0.437248	-1.438232	0.176436	-0.393505	-1.143799	1.398221	-0.042278	-1.076492	1.417381	-0.366515	
26	0.1250	-1.085721	0.952482	-0.120836	-1.096674	0.949320	-0.348057	-1.276501	0.945420	-0.173280	-1.278594	0.955719	-0.265746	-1.075894	0.730102	-0.066927	-1.025679	0.766389	-0.069561	-1.037844	0.698416	-0.073884	-0.990612	0.729899	-0.076588	-0.885301	0.559319	-0.123123	-0.897841	0.559082	-0.231149	-0.958056	0.442151	-0.090134	-0.917721	0.432919	-0.103156	-0.967270	0.394351	-0.091120	-0.930896	0.386189	-0.102288	-0.995341	0.184280	-0.115929	-0.988303	0.192562	-0.201136	-0.882664	0.100225	-0.084908	-0.854697	0.106667	-0.196697	-0.831338	0.130041	-0.143307	-1.071919	0.149274	-0.171082	-1.142687	0.694348	-0.417342	-1.093556	0.707940	-0.412299	-1.142260	0.652808	-0.415305	-1.093742	0.663816	-0.415591	-1.068256	0.484955	-0.404099	-1.070041	0.469015	-0.299249	-1.186433	0.420398	-0.444928	-1.144482	0.388933	-0.435185	-1.221072	0.374846	-0.447115	-1.179253	0.347874	-0.439133	-1.347147	0.185359	-0.444065	-1.324769	0.171181	-0.360674	-1.313886	0.055650	-0.494596	-1.286538	0.058197	-0.378982	-1.247064	0.062386	-0.437366	-1.427245	0.187277	-0.392976	-1.126817	1.399223	-0.039492	-1.057839	1.418726	-0.362671	
27	0.1300	-1.065978	0.954504	-0.118266	-1.076709	0.950339	-0.345181	-1.256577	0.946254	-0.171037	-1.258604	0.956626	-0.263406	-1.055935	0.731782	-0.064317	-1.005788	0.768205	-0.067362	-1.017904	0.700077	-0.071333	-0.970822	0.731779	-0.074540	-0.864602	0.561346	-0.120949	-0.878446	0.559960	-0.228508	-0.931424	0.439878	-0.086801	-0.890595	0.432985	-0.100077	-0.937816	0.391286	-0.087547	-0.900951	0.385234	-0.098850	-0.953763	0.178225	-0.112187	-0.947505	0.186902	-0.197072	-0.835549	0.100589	-0.081016	-0.808395	0.108589	-0.193047	-0.786170	0.133599	-0.139753	-1.028698	0.138525	-0.166451	-1.123027	0.695000	-0.415280	-1.073795	0.708321	-0.409649	-1.122839	0.653473	-0.413561	-1.074145	0.664102	-0.413202	-1.049726	0.484503	-0.403190	-1.051490	0.467728	-0.297816	-1.169931	0.423009	-0.443986	-1.128784	0.390263	-0.434543	-1.205863	0.378474	-0.446200	-1.164704	0.350264	-0.438537	-1.336728	0.192534	-0.443977	-1.314539	0.177121	-0.360772	-1.310616	0.060167	-0.494178	-1.283215	0.061117	-0.378964	-1.244362	0.063268	-0.437455	-1.415290	0.198398	-0.392315	-1.109856	1.400176	-0.036714	-1.039446	1.420009	-0.358839	
28	0.1350	-1.046210	0.956385	-0.115659	-1.056757	0.951372	-0.342236	-1.236624	0.946980	-0.168690	-1.238594	0.957440	-0.260950	-1.036157	0.733077	-0.061626	-0.986020	0.769491	-0.065145	-0.998218	0.701274	-0.068697	-0.951249	0.733052	-0.072477	-0.844498	0.562725	-0.118759	-0.859646	0.560177	-0.225850	-0.905451	0.437317	-0.083488	-0.864227	0.432700	-0.097020	-0.909081	0.388051	-0.084020	-0.871822	0.384059	-0.095461	-0.913147	0.172571	-0.108508	-0.907673	0.181613	-0.193116	-0.789847	0.101281	-0.077247	-0.763525	0.110786	-0.189525	-0.742443	0.137335	-0.136321	-0.986354	0.128425	-0.161956	-1.103228	0.695680	-0.413207	-1.053916	0.708769	-0.407013	-1.103236	0.654162	-0.411804	-1.054383	0.664465	-0.410830	-1.030798	0.484163	-0.402272	-1.032513	0.466539	-0.296378	-1.152857	0.425656	-0.443005	-1.112528	0.391689	-0.433857	-1.190023	0.382161	-0.445244	-1.149544	0.352766	-0.437887	-1.325464	0.199881	-0.443772	-1.303498	0.183252	-0.360759	-1.306509	0.065144	-0.493692	-1.279057	0.064364	-0.378883	-1.240891	0.064357	-0.437509	-1.402365	0.209705	-0.391505	-1.092916	1.401043	-0.033945	-1.021319	1.421189	-0.355037	
29	0.1400	-1.026423	0.958067	-0.113025	-1.036831	0.952382	-0.339238	-1.216651	0.947553	-0.166236	-1.218577	0.958117	-0.258375	-1.016527	0.733952	-0.058858	-0.966346	0.770219	-0.062902	-0.978746	0.701975	-0.065979	-0.931851	0.733694	-0.070390	-0.824932	0.563447	-0.116551	-0.841366	0.559740	-0.223177	-0.880139	0.434474	-0.080212	-0.838617	0.432048	-0.093997	-0.881096	0.384651	-0.080558	-0.843536	0.382646	-0.092136	-0.873652	0.167308	-0.104921	-0.868953	0.176680	-0.189297	-0.745749	0.102207	-0.073617	-0.720259	0.113143	-0.186142	-0.700309	0.141124	-0.133021	-0.945082	0.119013	-0.157637	-1.083288	0.696355	-0.411128	-1.033919	0.709258	-0.404404	-1.083445	0.654845	-0.410035	-1.034451	0.664881	-0.408486	-1.011448	0.483918	-0.401343	-1.013078	0.465439	-0.294937	-1.135186	0.428310	-0.441976	-1.095684	0.393186	-0.433120	-1.173525	0.385872	-0.444236	-1.133742	0.355349	-0.437175	-1.313331	0.207348	-0.443430	-1.291619	0.189526	-0.360614	-1.301465	0.070554	-0.493134	-1.273964	0.067917	-0.378736	-1.236544	0.065658	-0.437524	-1.388473	0.221102	-0.390528	-1.075995	1.401788	-0.031185	-1.003461	1.422228	-0.351283	
30	0.1450	-1.006619	0.959498	-0.110370	-1.016940	0.953334	-0.336199	-1.196664	0.947930	-0.163672	-1.198560	0.958616	-0.255683	-0.997012	0.734377	-0.056020	-0.946734	0.770373	-0.060628	-0.959445	0.702162	-0.063184	-0.912588	0.733695	-0.068271	-0.805837	0.563513	-0.114320	-0.823523	0.558671	-0.220493	-0.855483	0.431362	-0.076988	-0.813750	0.431020	-0.091021	-0.853884	0.381093	-0.077180	-0.816111	0.380983	-0.088895	-0.835425	0.162420	-0.101451	-0.831478	0.172085	-0.185642	-0.703430	0.103265	-0.070143	-0.678749	0.115541	-0.182909	-0.659900	0.144836	-0.129859	-0.905065	0.110317	-0.153529	-1.063198	0.696996	-0.409044	-1.013797	0.709761	-0.401831	-1.063454	0.655488	-0.408255	-1.014339	0.665324	-0.406177	-0.991649	0.483752	-0.400399	-0.993152	0.464416	-0.293492	-1.116892	0.430944	-0.440890	-1.078220	0.394727	-0.432323	-1.156343	0.389574	-0.443165	-1.117266	0.357980	-0.436389	-1.300308	0.214884	-0.442931	-1.278873	0.195895	-0.360318	-1.295386	0.076361	-0.492505	-1.267838	0.071753	-0.378520	-1.231212	0.067180	-0.437497	-1.373624	0.232487	-0.389370	-1.059085	1.402378	-0.028430	-0.985866	1.423089	-0.347590	
31	0.1500	-0.986796	0.960633	-0.107701	-0.997086	0.954191	-0.333134	-1.176665	0.948070	-0.160998	-1.178547	0.958896	-0.252877	-0.977579	0.734332	-0.053118	-0.927154	0.769947	-0.058313	-0.940270	0.701823	-0.060319	-0.893415	0.733055	-0.066111	-0.787143	0.562941	-0.112066	-0.806028	0.557007	-0.217800	-0.831467	0.427998	-0.073833	-0.789604	0.429614	-0.088103	-0.827456	0.377389	-0.073904	-0.789550	0.379062	-0.085753	-0.798598	0.157886	-0.098126	-0.795367	0.167802	-0.182175	-0.663041	0.104352	-0.066838	-0.639132	0.117857	-0.179834	-0.621328	0.148336	-0.126842	-0.866475	0.102356	-0.149668	-1.042945	0.697570	-0.406958	-0.993540	0.710248	-0.399302	-1.043246	0.656062	-0.406462	-0.994035	0.665767	-0.403909	-0.971374	0.483646	-0.399436	-0.972702	0.463460	-0.292042	-1.097953	0.433533	-0.439735	-1.060107	0.396287	-0.431459	-1.138455	0.393237	-0.442020	-1.100088	0.360627	-0.435520	-1.286375	0.222435	-0.442260	-1.265233	0.202307	-0.359853	-1.288174	0.082520	-0.491801	-1.260579	0.075839	-0.378234	-1.224784	0.068925	-0.437424	-1.357826	0.243759	-0.388015	-1.042175	1.402783	-0.025678	-0.968523	1.423740	-0.343970	
32	0.1550	-0.966951	0.961431	-0.105021	-0.977270	0.954918	-0.330054	-1.156654	0.947938	-0.158214	-1.158540	0.958922	-0.249959	-0.958189	0.733809	-0.050158	-0.907576	0.768949	-0.055952	-0.921176	0.700962	-0.057392	-0.874289	0.731791	-0.063903	-0.768771	0.561757	-0.109786	-0.788787	0.554793	-0.215102	-0.808071	0.424408	-0.070763	-0.766150	0.427838	-0.085259	-0.801817	0.373556	-0.070748	-0.763850	0.376882	-0.082727	-0.763292	0.153680	-0.094971	-0.760727	0.163802	-0.178919	-0.624713	0.105366	-0.063717	-0.601519	0.119969	-0.176927	-0.584684	0.151495	-0.123978	-0.829470	0.095140	-0.146083	-1.022511	0.698046	-0.404869	-0.973129	0.710693	-0.396820	-1.022801	0.656535	-0.404652	-0.973518	0.666183	-0.401684	-0.950595	0.483584	-0.398446	-0.951697	0.462564	-0.290583	-1.078348	0.436053	-0.438500	-1.041316	0.397844	-0.430518	-1.119838	0.396829	-0.440787	-1.082181	0.363261	-0.434560	-1.271511	0.229946	-0.441400	-1.250672	0.208709	-0.359202	-1.279736	0.088980	-0.491021	-1.252096	0.080139	-0.377877	-1.217154	0.070896	-0.437304	-1.341092	0.254813	-0.386452	-1.025251	1.402975	-0.022923	-0.951414	1.424152	-0.340433	
33	0.1600	-0.947077	0.961862	-0.102334	-0.957487	0.955481	-0.326970	-1.136628	0.947505	-0.155323	-1.138536	0.958660	-0.246936	-0.938809	0.732806	-0.047149	-0.887970	0.767395	-0.053535	-0.902117	0.699587	-0.054414	-0.855170	0.729926	-0.061637	-0.750645	0.559999	-0.107482	-0.771708	0.552089	-0.212406	-0.785269	0.420620	-0.067793	-0.743350	0.425703	-0.082499	-0.776961	0.369614	-0.067729	-0.738998	0.374447	-0.079833	-0.729610	0.149773	-0.092009	-0.727650	0.160054	-0.175895	-0.588554	0.106206	-0.060792	-0.566004	0.121762	-0.174194	-0.550040	0.154189	-0.121272	-0.794192	0.088670	-0.142796	-1.001874	0.698395	-0.402775	-0.952546	0.711069	-0.394385	-1.002095	0.656880	-0.402821	-0.952766	0.666547	-0.399501	-0.929285	0.483551	-0.397420	-0.930108	0.461719	-0.289110	-1.058058	0.438483	-0.437174	-1.021822	0.399375	-0.429493	-1.100473	0.400323	-0.439456	-1.063519	0.365852	-0.433500	-1.255697	0.237360	-0.440339	-1.235161	0.215046	-0.358354	-1.269981	0.095678	-0.490166	-1.242298	0.084609	-0.377450	-1.208220	0.073090	-0.437133	-1.323435	0.265548	-0.384671	-1.008294	1.402930	-0.020160	-0.934515	1.424303	-0.336986	
34	0.1650	-0.927169	0.961904	-0.099639	-0.937727	0.955848	-0.323890	-1.116582	0.946747	-0.152329	-1.118532	0.958083	-0.243815	-0.919405	0.731333	-0.044101	-0.868311	0.765311	-0.051055	-0.883051	0.697720	-0.051396	-0.836018	0.727499	-0.059308	-0.732685	0.557714	-0.105154	-0.754696	0.548961	-0.209718	-0.763029	0.416669	-0.064938	-0.721161	0.423231	-0.079837	-0.752879	0.365585	-0.064863	-0.714973	0.371768	-0.077084	-0.697636	0.146134	-0.089262	-0.696212	0.156525	-0.173118	-0.554645	0.106780	-0.058072	-0.532657	0.123128	-0.171642	-0.517443	0.156304	-0.118731	-0.760764	0.082938	-0.139826	-0.981009	0.698592	-0.400672	-0.931764	0.711351	-0.391996	-0.981102	0.657070	-0.400964	-0.931755	0.666834	-0.397356	-0.907420	0.483536	-0.396348	-0.907909	0.460922	-0.287615	-1.037066	0.440805	-0.435746	-1.001602	0.400862	-0.428375	-1.080343	0.403692	-0.438013	-1.044079	0.368376	-0.432331	-1.238917	0.244620	-0.439068	-1.218673	0.221263	-0.357300	-1.258829	0.102549	-0.489233	-1.231101	0.089202	-0.376953	-1.197882	0.075499	-0.436909	-1.304867	0.275866	-0.382665	-0.991284	1.402628	-0.017381	-0.917801	1.424174	-0.333634	
35	0.1700	-0.907217	0.961542	-0.096935	-0.917978	0.955991	-0.320821	-1.096510	0.945645	-0.149236	-1.098520	0.957169	-0.240604	-0.899946	0.729406	-0.041023	-0.848576	0.762734	-0.048506	-0.863938	0.695391	-0.048352	-0.816799	0.724555	-0.056908	-0.714816	0.554957	-0.102807	-0.737665	0.545482	-0.207045	-0.741316	0.412591	-0.062210	-0.699538	0.420446	-0.077285	-0.729553	0.361496	-0.062162	-0.691747	0.368858	-0.074495	-0.667440	0.142734	-0.086747	-0.666474	0.153184	-0.170602	-0.523046	0.107008	-0.055567	-0.501525	0.123973	-0.169277	-0.486924	0.157743	-0.116362	-0.729287	0.077931	-0.137187	-0.959891	0.698615	-0.398556	-0.910759	0.711518	-0.389645	-0.959792	0.657085	-0.399074	-0.910457	0.667026	-0.395242	-0.884977	0.483530	-0.395217	-0.885079	0.460171	-0.286089	-1.015360	0.443004	-0.434204	-0.980635	0.402291	-0.427155	-1.059434	0.406914	-0.436449	-1.023840	0.370809	-0.431045	-1.221152	0.251669	-0.437578	-1.201182	0.227305	-0.356031	-1.246202	0.109518	-0.488221	-1.218431	0.093865	-0.376384	-1.186052	0.078109	-0.436629	-1.285401	0.285673	-0.380430	-0.974200	1.402057	-0.014580	-0.901237	1.423753	-0.330379	
36	0.1750	-0.887215	0.960774	-0.094217	-0.898227	0.955886	-0.317768	-1.076407	0.944192	-0.146053	-1.078494	0.955902	-0.237314	-0.880405	0.727052	-0.037926	-0.828747	0.759708	-0.045882	-0.844745	0.692637	-0.045296	-0.797483	0.721149	-0.054435	-0.696967	0.551789	-0.100445	-0.720532	0.541730	-0.204395	-0.720095	0.408428	-0.059623	-0.678434	0.417381	-0.074855	-0.706961	0.357375	-0.059638	-0.669289	0.365738	-0.072075	-0.639071	0.139544	-0.084480	-0.638480	0.150002	-0.168357	-0.493789	0.106819	-0.053284	-0.472637	0.124218	-0.167105	-0.458492	0.158422	-0.114169	-0.699842	0.073625	-0.134884	-0.938491	0.698444	-0.396419	-0.889504	0.711553	-0.387325	-0.938140	0.656908	-0.397143	-0.888846	0.667104	-0.393149	-0.861939	0.483526	-0.394016	-0.861601	0.459469	-0.284521	-0.992931	0.445069	-0.432538	-0.958905	0.403651	-0.425825	-1.037737	0.409970	-0.434752	-1.002785	0.373134	-0.429634	-1.202389	0.258454	-0.435866	-1.182663	0.233117	-0.354545	-1.232037	0.116510	-0.487130	-1.204222	0.098543	-0.375744	-1.172649	0.080904	-0.436290	-1.265048	0.294883	-0.377963	-0.957017	1.401205	-0.011749	-0.884791	1.423033	-0.327220	
37	0.1800	-0.867156	0.959605	-0.091481	-0.878457	0.955512	-0.314731	-1.056265	0.942385	-0.142787	-1.058444	0.954274	-0.233956	-0.860763	0.724305	-0.034821	-0.808812	0.756284	-0.043180	-0.825442	0.689502	-0.042241	-0.778048	0.717343	-0.051884	-0.679071	0.548275	-0.098074	-0.703226	0.537783	-0.201777	-0.699331	0.404221	-0.057187	-0.657804	0.414070	-0.072557	-0.685078	0.353253	-0.057301	-0.647564	0.362432	-0.069835	-0.612563	0.136538	-0.082471	-0.612259	0.146954	-0.166389	-0.466884	0.106162	-0.051229	-0.445997	0.123804	-0.165129	-0.432138	0.158279	-0.112158	-0.672486	0.069996	-0.132919	-0.916785	0.698069	-0.394255	-0.867973	0.711444	-0.385024	-0.916119	0.656529	-0.395165	-0.866898	0.667059	-0.391066	-0.838291	0.483526	-0.392730	-0.837465	0.458823	-0.282900	-0.969774	0.446994	-0.430738	-0.936401	0.404935	-0.424374	-1.015247	0.412844	-0.432912	-0.980903	0.375334	-0.428092	-1.182615	0.264919	-0.433931	-1.163094	0.238647	-0.352841	-1.216279	0.123443	-0.485958	-1.188417	0.103178	-0.375032	-1.157603	0.083858	-0.435887	-1.243820	0.303417	-0.375268	-0.939715	1.400069	-0.008882	-0.868425	1.422015	-0.324158	
38	0.1850	-0.847035	0.958049	-0.088719	-0.858653	0.954857	-0.311711	-1.036080	0.940229	-0.139450	-1.038365	0.952281	-0.230543	-0.841002	0.721206	-0.031717	-0.788764	0.752520	-0.040396	-0.806008	0.686037	-0.039201	-0.758478	0.713204	-0.049255	-0.661073	0.544483	-0.095705	-0.685685	0.533721	-0.199201	-0.678990	0.400013	-0.054909	-0.637604	0.410553	-0.070400	-0.663878	0.349162	-0.055157	-0.626537	0.358968	-0.067782	-0.587930	0.133694	-0.080728	-0.587824	0.144017	-0.164701	-0.442315	0.104998	-0.049403	-0.421592	0.122689	-0.163352	-0.407837	0.157274	-0.110333	-0.647256	0.067010	-0.131287	-0.894749	0.697482	-0.392056	-0.846143	0.711184	-0.382729	-0.893707	0.655944	-0.393130	-0.844592	0.666882	-0.388980	-0.814028	0.483531	-0.391344	-0.812671	0.458243	-0.281213	-0.945892	0.448774	-0.428795	-0.913118	0.406140	-0.422795	-0.991967	0.415523	-0.430921	-0.958188	0.377399	-0.426413	-1.161821	0.271013	-0.431774	-1.142459	0.243845	-0.350922	-1.198888	0.130238	-0.484704	-1.170975	0.107709	-0.374245	-1.140860	0.086940	-0.435417	-1.221730	0.311202	-0.372348	-0.922272	1.398653	-0.005973	-0.852104	1.420703	-0.321190	
39	0.1900	-0.826852	0.956130	-0.085923	-0.838802	0.953913	-0.308708	-1.015849	0.937740	-0.136053	-1.018250	0.949931	-0.227089	-0.821115	0.717801	-0.028625	-0.768601	0.748475	-0.037531	-0.786431	0.682295	-0.036192	-0.738763	0.708800	-0.046550	-0.642927	0.540480	-0.093344	-0.667862	0.529620	-0.196676	-0.659040	0.395846	-0.052797	-0.617795	0.406871	-0.068393	-0.643333	0.345134	-0.053210	-0.606173	0.355377	-0.065921	-0.565169	0.130994	-0.079253	-0.565175	0.141176	-0.163292	-0.420048	0.103309	-0.047808	-0.399389	0.120856	-0.161775	-0.385549	0.155390	-0.108698	-0.624164	0.064633	-0.129977	-0.872367	0.696683	-0.389813	-0.823998	0.710771	-0.380427	-0.870887	0.655152	-0.391030	-0.821910	0.666573	-0.386875	-0.789152	0.483550	-0.389844	-0.787224	0.457744	-0.279447	-0.921296	0.450411	-0.426701	-0.889060	0.407267	-0.421081	-0.967904	0.418000	-0.428773	-0.934641	0.379322	-0.424591	-1.140005	0.276688	-0.429399	-1.120746	0.248664	-0.348792	-1.179839	0.136815	-0.483365	-1.151869	0.112078	-0.373382	-1.122380	0.090116	-0.434873	-1.198791	0.318179	-0.369211	-0.904670	1.396962	-0.003017	-0.835793	1.419109	-0.318311	
40	0.1950	-0.806610	0.953880	-0.083084	-0.818892	0.952677	-0.305716	-0.995574	0.934938	-0.132609	-0.998097	0.947235	-0.223608	-0.801100	0.714141	-0.025556	-0.748331	0.744213	-0.034587	-0.766707	0.678335	-0.033227	-0.718906	0.704204	-0.043773	-0.624599	0.536333	-0.091004	-0.649724	0.525551	-0.194212	-0.639456	0.391762	-0.050854	-0.598343	0.403066	-0.066540	-0.623417	0.341200	-0.051461	-0.586439	0.351693	-0.064254	-0.544262	0.128424	-0.078045	-0.544294	0.138419	-0.162156	-0.400025	0.101096	-0.046442	-0.379335	0.118307	-0.160398	-0.365220	0.152635	-0.107256	-0.603197	0.062826	-0.128976	-0.849628	0.695678	-0.387517	-0.801526	0.710212	-0.378102	-0.847652	0.654164	-0.388857	-0.798845	0.666137	-0.384737	-0.763676	0.483597	-0.388216	-0.761145	0.457343	-0.277588	-0.896003	0.451908	-0.424450	-0.864238	0.408321	-0.419223	-0.943076	0.420269	-0.426463	-0.910274	0.381100	-0.422623	-1.117171	0.281899	-0.426815	-1.097953	0.253061	-0.346460	-1.159124	0.143096	-0.481939	-1.131086	0.116227	-0.372438	-1.102144	0.093347	-0.434249	-1.175020	0.324297	-0.365869	-0.886896	1.395012	-0.000010	-0.819460	1.417249	-0.315517	
41	0.2000	-0.786315	0.951336	-0.080195	-0.798914	0.951154	-0.302734	-0.975259	0.931851	-0.129132	-0.977906	0.944216	-0.220117	-0.780964	0.710280	-0.022519	-0.727966	0.739799	-0.031569	-0.746839	0.674216	-0.030317	-0.698913	0.699486	-0.040929	-0.606068	0.532105	-0.088695	-0.631253	0.521580	-0.191818	-0.620217	0.387799	-0.049083	-0.579224	0.399182	-0.064846	-0.604107	0.337392	-0.049909	-0.567304	0.347950	-0.062782	-0.525174	0.125976	-0.077099	-0.525153	0.135742	-0.161285	-0.382171	0.098376	-0.045300	-0.361365	0.115068	-0.159219	-0.346785	0.149037	-0.106005	-0.584326	0.061547	-0.128264	-0.826531	0.694478	-0.385160	-0.778725	0.709516	-0.375740	-0.824000	0.652992	-0.386603	-0.775396	0.665584	-0.382551	-0.737622	0.483685	-0.386446	-0.734460	0.457062	-0.275624	-0.870042	0.453273	-0.422038	-0.838677	0.409311	-0.417216	-0.917510	0.422330	-0.423988	-0.885106	0.382734	-0.420505	-1.093333	0.286605	-0.424030	-1.074088	0.257000	-0.343937	-1.136753	0.149009	-0.480426	-1.108635	0.120101	-0.371411	-1.080150	0.096588	-0.433538	-1.150440	0.329516	-0.362336	-0.868941	1.392820	0.003049	-0.803077	1.415146	-0.312803	
42	0.2050	-0.765981	0.948543	-0.077246	-0.778869	0.949356	-0.299754	-0.954913	0.928516	-0.125639	-0.957684	0.940899	-0.216630	-0.760724	0.706275	-0.019522	-0.707527	0.735296	-0.028483	-0.726842	0.669996	-0.027474	-0.678804	0.694716	-0.038026	-0.587326	0.527857	-0.086428	-0.612448	0.517763	-0.189505	-0.601310	0.383992	-0.047481	-0.560419	0.395260	-0.063312	-0.585381	0.333737	-0.048549	-0.548744	0.344183	-0.061502	-0.507858	0.123647	-0.076407	-0.507711	0.133146	-0.160667	-0.366394	0.095183	-0.044376	-0.345397	0.111181	-0.158232	-0.330168	0.144650	-0.104945	-0.567496	0.060755	-0.127819	-0.803083	0.693102	-0.382736	-0.755602	0.708699	-0.373327	-0.799945	0.651657	-0.384262	-0.751577	0.664930	-0.380303	-0.711027	0.483836	-0.384525	-0.707214	0.456922	-0.273544	-0.843453	0.454515	-0.419463	-0.812410	0.410248	-0.415055	-0.891246	0.424184	-0.421348	-0.859170	0.384229	-0.418237	-1.068516	0.290772	-0.421060	-1.049170	0.260449	-0.341235	-1.112759	0.154486	-0.478823	-1.084542	0.123651	-0.370295	-1.056420	0.099795	-0.432733	-1.125079	0.333811	-0.358630	-0.850803	1.390411	0.006159	-0.786622	1.412826	-0.310164	
43	0.2100	-0.745628	0.945548	-0.074231	-0.758759	0.947302	-0.296773	-0.934554	0.924971	-0.122145	-0.937442	0.937320	-0.213164	-0.740402	0.702182	-0.016574	-0.687043	0.730766	-0.025339	-0.706741	0.665734	-0.024707	-0.658605	0.689959	-0.035074	-0.568381	0.523642	-0.084215	-0.593326	0.514150	-0.187280	-0.582731	0.380374	-0.046047	-0.541921	0.391341	-0.061938	-0.567225	0.330263	-0.047375	-0.530740	0.340428	-0.060408	-0.492252	0.121438	-0.075954	-0.491913	0.130635	-0.160287	-0.352589	0.091566	-0.043661	-0.331337	0.106712	-0.157433	-0.315285	0.139546	-0.104071	-0.552636	0.060406	-0.127615	-0.779307	0.691574	-0.380236	-0.732178	0.707782	-0.370851	-0.775509	0.650186	-0.381829	-0.727409	0.664197	-0.377981	-0.683939	0.484069	-0.382442	-0.679461	0.456948	-0.271338	-0.816288	0.455647	-0.416725	-0.785487	0.411145	-0.412738	-0.864334	0.425836	-0.418545	-0.832513	0.385591	-0.415820	-1.042757	0.294372	-0.417918	-1.023235	0.263384	-0.338369	-1.087194	0.159467	-0.477128	-1.058859	0.126832	-0.369086	-1.031002	0.102922	-0.431828	-1.098974	0.337165	-0.354770	-0.832489	1.387814	0.009318	-0.770081	1.410319	-0.307595	
44	0.2150	-0.725284	0.942405	-0.071144	-0.738599	0.945014	-0.293786	-0.914204	0.921261	-0.118666	-0.917199	0.933518	-0.209733	-0.720034	0.698057	-0.013682	-0.666551	0.726268	-0.022149	-0.686571	0.661485	-0.022026	-0.638352	0.685279	-0.032087	-0.549256	0.519508	-0.082067	-0.573920	0.510778	-0.185151	-0.564481	0.376971	-0.044775	-0.523731	0.387463	-0.060720	-0.549627	0.326991	-0.046378	-0.513280	0.336717	-0.059492	-0.478284	0.119354	-0.075725	-0.477695	0.128221	-0.160128	-0.340638	0.087588	-0.043142	-0.319079	0.101739	-0.156812	-0.302045	0.133816	-0.103378	-0.539657	0.060457	-0.127627	-0.755236	0.689922	-0.377658	-0.708486	0.706792	-0.368302	-0.750732	0.648607	-0.379300	-0.702930	0.663407	-0.375574	-0.656422	0.484408	-0.380190	-0.651272	0.457163	-0.268998	-0.788613	0.456682	-0.413826	-0.757968	0.412018	-0.410263	-0.836840	0.427294	-0.415584	-0.805195	0.386831	-0.413255	-1.016109	0.297383	-0.414622	-0.996333	0.265786	-0.335356	-1.060136	0.163902	-0.475342	-1.031657	0.129606	-0.367782	-1.003965	0.105922	-0.430814	-1.072176	0.339575	-0.350779	-0.814013	1.385061	0.012521	-0.753449	1.407660	-0.305091	
45	0.2200	-0.704983	0.939165	-0.067984	-0.718411	0.942523	-0.290789	-0.893893	0.917436	-0.115219	-0.896982	0.929538	-0.206355	-0.699660	0.693954	-0.010853	-0.646093	0.721855	-0.018927	-0.666375	0.657301	-0.019437	-0.618091	0.680728	-0.029078	-0.529989	0.515496	-0.079994	-0.554280	0.507676	-0.183124	-0.546573	0.373804	-0.043659	-0.505861	0.383660	-0.059652	-0.532584	0.323942	-0.045547	-0.496357	0.333083	-0.058746	-0.465871	0.117402	-0.075700	-0.464986	0.125916	-0.160169	-0.330414	0.083322	-0.042806	-0.308508	0.096355	-0.156360	-0.290351	0.127565	-0.102858	-0.528454	0.060863	-0.127826	-0.730919	0.688178	-0.374998	-0.684571	0.705756	-0.365672	-0.725666	0.646955	-0.376673	-0.678193	0.662590	-0.373075	-0.628555	0.484875	-0.377768	-0.622730	0.457589	-0.266520	-0.760509	0.457636	-0.410773	-0.729933	0.412882	-0.407633	-0.808842	0.428569	-0.412472	-0.777292	0.387961	-0.410547	-0.988641	0.299791	-0.411193	-0.968534	0.267646	-0.332216	-1.031684	0.167749	-0.473465	-1.003033	0.131943	-0.366377	-0.975409	0.108753	-0.429686	-1.044744	0.341053	-0.346682	-0.795401	1.382188	0.015760	-0.736730	1.404885	-0.302650	
46	0.2250	-0.684768	0.935883	-0.064748	-0.698225	0.939863	-0.287780	-0.873660	0.913544	-0.111820	-0.876827	0.925428	-0.203042	-0.679333	0.689923	-0.008094	-0.625722	0.717578	-0.015689	-0.646208	0.653229	-0.016944	-0.597877	0.676358	-0.026062	-0.510632	0.511639	-0.078006	-0.534471	0.504862	-0.181206	-0.529028	0.370890	-0.042688	-0.488332	0.379963	-0.058728	-0.516095	0.321130	-0.044868	-0.479973	0.329554	-0.058156	-0.454925	0.115594	-0.075857	-0.453705	0.123738	-0.160389	-0.321783	0.078849	-0.042638	-0.299505	0.090660	-0.156063	-0.280103	0.120910	-0.102499	-0.518913	0.061582	-0.128183	-0.706418	0.686377	-0.372256	-0.660496	0.704706	-0.362958	-0.700379	0.645266	-0.373950	-0.653263	0.661774	-0.370479	-0.600429	0.485492	-0.375174	-0.593934	0.458244	-0.263903	-0.732069	0.458524	-0.407574	-0.701475	0.413753	-0.404852	-0.780436	0.429671	-0.409221	-0.748898	0.388994	-0.407705	-0.960442	0.301590	-0.407652	-0.939928	0.268962	-0.328968	-1.001965	0.170978	-0.471499	-0.973111	0.133822	-0.364869	-0.945458	0.111375	-0.428438	-1.016756	0.341619	-0.342506	-0.776688	1.379233	0.019025	-0.719940	1.402031	-0.300267	
47	0.2300	-0.664689	0.932612	-0.061441	-0.678085	0.937072	-0.284758	-0.853551	0.909637	-0.108487	-0.856776	0.921239	-0.199810	-0.659112	0.686011	-0.005409	-0.605496	0.713479	-0.012453	-0.626132	0.649312	-0.014553	-0.577772	0.672207	-0.023057	-0.491249	0.507965	-0.076111	-0.514572	0.502344	-0.179398	-0.511875	0.368238	-0.041852	-0.471176	0.376400	-0.057936	-0.500170	0.318565	-0.044329	-0.464136	0.326157	-0.057708	-0.445347	0.113940	-0.076175	-0.443765	0.121703	-0.160765	-0.314606	0.074251	-0.042619	-0.291942	0.084763	-0.155909	-0.271199	0.113973	-0.102290	-0.510905	0.062571	-0.128669	-0.681812	0.684555	-0.369435	-0.636334	0.703672	-0.360159	-0.674956	0.643576	-0.371134	-0.628223	0.660990	-0.367786	-0.572153	0.486279	-0.372413	-0.564996	0.459146	-0.261147	-0.703402	0.459361	-0.404239	-0.672703	0.414648	-0.401928	-0.751731	0.430615	-0.405844	-0.720120	0.389944	-0.404738	-0.931616	0.302783	-0.404022	-0.910623	0.269742	-0.325635	-0.971129	0.173571	-0.469446	-0.942036	0.135231	-0.363259	-0.914266	0.113751	-0.427069	-0.988302	0.341307	-0.338279	-0.757921	1.376234	0.022303	-0.703106	1.399139	-0.297941	
48	0.2350	-0.644806	0.929402	-0.058069	-0.658043	0.934190	-0.281724	-0.833621	0.905765	-0.105233	-0.836882	0.917023	-0.196670	-0.639065	0.682260	-0.002803	-0.585481	0.709594	-0.009239	-0.606219	0.645585	-0.012264	-0.557845	0.668311	-0.020080	-0.471920	0.504491	-0.074315	-0.494675	0.500121	-0.177705	-0.495151	0.365854	-0.041139	-0.454431	0.372992	-0.057266	-0.484820	0.316253	-0.043914	-0.448860	0.322913	-0.057387	-0.437039	0.112451	-0.076626	-0.435074	0.119830	-0.161272	-0.308742	0.069616	-0.042732	-0.285690	0.078772	-0.155882	-0.263534	0.106882	-0.102215	-0.504297	0.063791	-0.129256	-0.657193	0.682750	-0.366540	-0.612176	0.702687	-0.357279	-0.649493	0.641923	-0.368233	-0.603167	0.660268	-0.364999	-0.543848	0.487250	-0.369494	-0.536043	0.460304	-0.258260	-0.674630	0.460161	-0.400785	-0.643742	0.415578	-0.398872	-0.722850	0.431415	-0.402357	-0.691083	0.390826	-0.401658	-0.902288	0.303382	-0.400329	-0.880750	0.269999	-0.322237	-0.939350	0.175521	-0.467312	-0.909983	0.136168	-0.361545	-0.882011	0.115854	-0.425577	-0.959493	0.340163	-0.334031	-0.739156	1.373233	0.025581	-0.686266	1.396246	-0.295672	
49	0.2400	-0.625184	0.926299	-0.054642	-0.638161	0.931261	-0.278682	-0.813932	0.901975	-0.102073	-0.817206	0.912833	-0.193636	-0.619266	0.678704	-0.000282	-0.565748	0.705952	-0.006065	-0.586547	0.642078	-0.010081	-0.538175	0.664693	-0.017150	-0.452732	0.501231	-0.072625	-0.474882	0.498185	-0.176127	-0.478899	0.363736	-0.040537	-0.438144	0.369756	-0.056705	-0.470065	0.314194	-0.043607	-0.434167	0.319841	-0.057177	-0.429894	0.111137	-0.077188	-0.427537	0.118134	-0.161887	-0.304050	0.065026	-0.042956	-0.280618	0.072796	-0.155966	-0.257003	0.099760	-0.102258	-0.498952	0.065201	-0.129919	-0.632665	0.680996	-0.363579	-0.588123	0.701780	-0.354324	-0.624103	0.640342	-0.365255	-0.578204	0.659635	-0.362125	-0.515646	0.488418	-0.366431	-0.507212	0.461725	-0.255251	-0.645890	0.460938	-0.397228	-0.614730	0.416557	-0.395697	-0.693933	0.432085	-0.398779	-0.661929	0.391653	-0.398481	-0.872603	0.303407	-0.396598	-0.850458	0.269757	-0.318800	-0.906824	0.176833	-0.465104	-0.877146	0.136640	-0.359733	-0.848897	0.117659	-0.423962	-0.930451	0.338243	-0.329791	-0.720460	1.370267	0.028841	-0.669471	1.393389	-0.293460	
50	0.2450	-0.605894	0.923346	-0.051173	-0.618512	0.928327	-0.275639	-0.794553	0.898313	-0.099022	-0.797817	0.908718	-0.190717	-0.599797	0.675373	0.002150	-0.546375	0.702575	-0.002953	-0.567200	0.638813	-0.008004	-0.518842	0.661371	-0.014283	-0.433782	0.498189	-0.071044	-0.455303	0.496520	-0.174663	-0.463167	0.361879	-0.040033	-0.422366	0.366706	-0.056240	-0.455927	0.312385	-0.043392	-0.420080	0.316955	-0.057061	-0.423809	0.110007	-0.077833	-0.421056	0.116629	-0.162584	-0.300391	0.060560	-0.043272	-0.276597	0.066936	-0.156143	-0.251504	0.092728	-0.102402	-0.494728	0.066764	-0.130631	-0.608345	0.679327	-0.360564	-0.564287	0.700979	-0.351306	-0.598909	0.638865	-0.362213	-0.553454	0.659116	-0.359176	-0.487691	0.489788	-0.363239	-0.478651	0.463406	-0.252135	-0.617329	0.461704	-0.393588	-0.585819	0.417592	-0.392422	-0.665128	0.432641	-0.395133	-0.632811	0.392438	-0.395226	-0.842722	0.302886	-0.392856	-0.819916	0.269048	-0.315347	-0.873770	0.177526	-0.462832	-0.843743	0.136664	-0.357827	-0.815151	0.119152	-0.422231	-0.901320	0.335614	-0.325591	-0.701912	1.367374	0.032066	-0.652781	1.390605	-0.291306	
51	0.2500	-0.587015	0.920579	-0.047680	-0.599177	0.925430	-0.272604	-0.775561	0.894819	-0.096092	-0.778791	0.904728	-0.187924	-0.580742	0.672290	0.004488	-0.527441	0.699477	0.000077	-0.548268	0.635807	-0.006033	-0.499933	0.658354	-0.011499	-0.415172	0.495368	-0.069573	-0.436054	0.495104	-0.173313	-0.448009	0.360271	-0.039613	-0.407152	0.363852	-0.055856	-0.442431	0.310817	-0.043253	-0.406628	0.314264	-0.057021	-0.418677	0.109065	-0.078538	-0.415535	0.115328	-0.163340	-0.297630	0.056289	-0.043660	-0.273499	0.061286	-0.156397	-0.246933	0.085897	-0.102630	-0.491487	0.068445	-0.131370	-0.584358	0.677774	-0.357509	-0.540791	0.700307	-0.348241	-0.574044	0.637522	-0.359123	-0.529047	0.658733	-0.356166	-0.460134	0.491362	-0.359942	-0.450513	0.465339	-0.248930	-0.589101	0.462467	-0.389890	-0.557171	0.418689	-0.389067	-0.636596	0.433097	-0.391443	-0.603895	0.393192	-0.391913	-0.812821	0.301857	-0.389130	-0.789309	0.267908	-0.311903	-0.840422	0.177628	-0.460507	-0.810012	0.136264	-0.355836	-0.781020	0.120327	-0.420390	-0.872255	0.332350	-0.321459	-0.683594	1.364589	0.035237	-0.636266	1.387927	-0.289215	
52	0.2550	-0.568628	0.918027	-0.044182	-0.580243	0.922610	-0.269589	-0.757035	0.891529	-0.093292	-0.760209	0.900905	-0.185264	-0.562189	0.669471	0.006729	-0.509031	0.696668	0.003005	-0.529840	0.633069	-0.004168	-0.481537	0.655645	-0.008814	-0.397009	0.492763	-0.068214	-0.417251	0.493913	-0.172074	-0.433478	0.358898	-0.039264	-0.392560	0.361197	-0.055539	-0.429604	0.309478	-0.043177	-0.393840	0.311775	-0.057041	-0.414397	0.108315	-0.079279	-0.410877	0.114237	-0.164133	-0.295639	0.052275	-0.044101	-0.271199	0.055929	-0.156710	-0.243192	0.079367	-0.102924	-0.489091	0.070208	-0.132116	-0.560838	0.676362	-0.354432	-0.517762	0.699782	-0.345147	-0.549649	0.636337	-0.356003	-0.505117	0.658502	-0.353114	-0.433133	0.493132	-0.356563	-0.422959	0.467510	-0.245658	-0.561370	0.463234	-0.386158	-0.528956	0.419850	-0.385656	-0.608505	0.433468	-0.387735	-0.575355	0.393925	-0.388565	-0.783089	0.300366	-0.385447	-0.758837	0.266382	-0.308492	-0.807032	0.177178	-0.458142	-0.776203	0.135474	-0.353771	-0.746768	0.121183	-0.418450	-0.843425	0.328533	-0.317426	-0.665601	1.361943	0.038335	-0.620007	1.385382	-0.287190	
53	0.2600	-0.550816	0.915714	-0.040703	-0.561803	0.919905	-0.266607	-0.739059	0.888470	-0.090634	-0.742156	0.897288	-0.182744	-0.544228	0.666924	0.008868	-0.491228	0.694147	0.005814	-0.512010	0.630603	-0.002409	-0.463743	0.653238	-0.006243	-0.379399	0.490366	-0.066966	-0.399012	0.492917	-0.170942	-0.419627	0.357742	-0.038973	-0.378644	0.358743	-0.055276	-0.417475	0.308353	-0.043148	-0.381746	0.309490	-0.057105	-0.410867	0.107755	-0.080034	-0.406985	0.113358	-0.164941	-0.294294	0.048570	-0.044578	-0.269581	0.050936	-0.157065	-0.240184	0.073225	-0.103266	-0.487410	0.072023	-0.132850	-0.537920	0.675113	-0.351352	-0.495334	0.699418	-0.342045	-0.525866	0.635327	-0.352874	-0.481805	0.658432	-0.350041	-0.406845	0.495086	-0.353133	-0.396150	0.469896	-0.242343	-0.534301	0.464010	-0.382421	-0.501348	0.421074	-0.382216	-0.581026	0.433768	-0.384038	-0.547371	0.394644	-0.385208	-0.753727	0.298464	-0.381835	-0.728709	0.264520	-0.305138	-0.773858	0.176227	-0.455753	-0.742581	0.134334	-0.351647	-0.712669	0.121729	-0.416425	-0.815008	0.324253	-0.313518	-0.648029	1.359464	0.041339	-0.604088	1.382996	-0.285235	
54	0.2650	-0.533663	0.913654	-0.037268	-0.543951	0.917347	-0.263675	-0.721719	0.885666	-0.088124	-0.724720	0.893911	-0.180370	-0.526948	0.664654	0.010901	-0.474115	0.691912	0.008486	-0.494867	0.628407	-0.000755	-0.446640	0.651124	-0.003802	-0.362449	0.488169	-0.065827	-0.381451	0.492088	-0.169912	-0.406509	0.356783	-0.038730	-0.365460	0.356488	-0.055054	-0.406070	0.307425	-0.043154	-0.370375	0.307407	-0.057199	-0.407992	0.107378	-0.080784	-0.403769	0.112691	-0.165746	-0.293483	0.045212	-0.045073	-0.268533	0.046360	-0.157448	-0.237817	0.067539	-0.103639	-0.486321	0.073861	-0.133559	-0.515741	0.674040	-0.348292	-0.473638	0.699222	-0.338959	-0.502839	0.634505	-0.349760	-0.459249	0.658529	-0.346973	-0.381428	0.497206	-0.349681	-0.370244	0.472468	-0.239015	-0.508060	0.464796	-0.378708	-0.474522	0.422355	-0.378775	-0.554332	0.434007	-0.380378	-0.520124	0.395355	-0.381868	-0.724938	0.296208	-0.378318	-0.699140	0.262376	-0.301865	-0.741165	0.174830	-0.453358	-0.709415	0.132890	-0.349479	-0.679002	0.121982	-0.414334	-0.787190	0.319602	-0.309762	-0.630976	1.357172	0.044230	-0.588599	1.380790	-0.283357	
55	0.2700	-0.517251	0.911857	-0.033901	-0.526784	0.914963	-0.260809	-0.705098	0.883132	-0.085770	-0.707987	0.890799	-0.178146	-0.510433	0.662657	0.012822	-0.457774	0.689952	0.011006	-0.478499	0.626473	0.000794	-0.430311	0.649288	-0.001502	-0.346256	0.486160	-0.064792	-0.364674	0.491398	-0.168981	-0.394169	0.355999	-0.038523	-0.353056	0.354429	-0.054862	-0.395412	0.306673	-0.043184	-0.359752	0.305523	-0.057309	-0.405682	0.107176	-0.081512	-0.401141	0.112227	-0.166530	-0.293101	0.042226	-0.045571	-0.267950	0.042241	-0.157843	-0.236004	0.062363	-0.104028	-0.485709	0.075693	-0.134230	-0.494434	0.673153	-0.345275	-0.452803	0.699196	-0.335915	-0.480710	0.633877	-0.346684	-0.437585	0.658791	-0.343934	-0.357034	0.499466	-0.346242	-0.345395	0.475193	-0.235703	-0.482808	0.465592	-0.375048	-0.448649	0.423683	-0.375363	-0.528593	0.434199	-0.376787	-0.493795	0.396061	-0.378573	-0.696930	0.293662	-0.374922	-0.670347	0.260007	-0.298696	-0.709217	0.173051	-0.450976	-0.676975	0.131193	-0.347288	-0.646048	0.121964	-0.412195	-0.760157	0.314676	-0.306180	-0.614542	1.355086	0.046991	-0.573632	1.378778	-0.281563	
56	0.2750	-0.501658	0.910323	-0.030631	-0.510395	0.912776	-0.258029	-0.689277	0.880877	-0.083575	-0.692042	0.887972	-0.176074	-0.494765	0.660925	0.014630	-0.442280	0.688255	0.013362	-0.462986	0.624792	0.002240	-0.414835	0.647711	0.000645	-0.330913	0.484326	-0.063860	-0.348778	0.490818	-0.168142	-0.382650	0.355369	-0.038344	-0.341475	0.352558	-0.054690	-0.385521	0.306078	-0.043227	-0.349897	0.303832	-0.057424	-0.403851	0.107136	-0.082203	-0.399019	0.111957	-0.167280	-0.293053	0.039628	-0.046059	-0.267740	0.038605	-0.158239	-0.234663	0.057731	-0.104419	-0.485470	0.077496	-0.134853	-0.474125	0.672455	-0.342324	-0.432951	0.699335	-0.332939	-0.459610	0.633441	-0.343672	-0.416942	0.659211	-0.340953	-0.333806	0.501836	-0.342849	-0.321746	0.478032	-0.232438	-0.458699	0.466395	-0.371473	-0.423894	0.425048	-0.372011	-0.503969	0.434352	-0.373294	-0.468556	0.396761	-0.375351	-0.669903	0.290889	-0.371671	-0.642542	0.257472	-0.295653	-0.678273	0.170959	-0.448628	-0.645523	0.129297	-0.345093	-0.614082	0.121702	-0.410032	-0.734093	0.309572	-0.302794	-0.598823	1.353216	0.049605	-0.559277	1.376971	-0.279857	
57	0.2800	-0.486956	0.909047	-0.027483	-0.494871	0.910801	-0.255353	-0.674331	0.878903	-0.081543	-0.676964	0.885439	-0.174157	-0.480015	0.659445	0.016319	-0.427700	0.686802	0.015544	-0.448400	0.623347	0.003581	-0.400282	0.646373	0.002633	-0.316500	0.482656	-0.063024	-0.333850	0.490323	-0.167390	-0.371984	0.354870	-0.038185	-0.330750	0.350869	-0.054529	-0.376411	0.305619	-0.043276	-0.340826	0.302323	-0.057536	-0.402424	0.107241	-0.082846	-0.397327	0.111863	-0.167984	-0.293257	0.037418	-0.046527	-0.267816	0.035458	-0.158624	-0.233717	0.053662	-0.104800	-0.485510	0.079247	-0.135421	-0.454931	0.671943	-0.339465	-0.414195	0.699627	-0.330056	-0.439662	0.633192	-0.340749	-0.397436	0.659775	-0.338055	-0.311871	0.504283	-0.339536	-0.299427	0.480940	-0.229251	-0.435873	0.467199	-0.368012	-0.400409	0.426435	-0.368750	-0.480611	0.434475	-0.369926	-0.444566	0.397455	-0.372229	-0.644050	0.287957	-0.368584	-0.615929	0.254828	-0.292754	-0.648576	0.168624	-0.446332	-0.615313	0.127255	-0.342917	-0.583365	0.121230	-0.407868	-0.709177	0.304383	-0.299620	-0.583911	1.351568	0.052057	-0.545620	1.375373	-0.278246	
58	0.2850	-0.473209	0.908017	-0.024482	-0.480290	0.909049	-0.252799	-0.660329	0.877204	-0.079676	-0.662823	0.883207	-0.172396	-0.466247	0.658202	0.017887	-0.414095	0.685576	0.017545	-0.434803	0.622123	0.004819	-0.386714	0.645249	0.004455	-0.303087	0.481138	-0.062279	-0.319961	0.489893	-0.166719	-0.362195	0.354481	-0.038040	-0.320907	0.349352	-0.054374	-0.368089	0.305274	-0.043324	-0.332546	0.300988	-0.057636	-0.401330	0.107473	-0.083432	-0.395997	0.111927	-0.168632	-0.293640	0.035588	-0.046964	-0.268103	0.032795	-0.158989	-0.233096	0.050156	-0.105162	-0.485750	0.080928	-0.135931	-0.436953	0.671607	-0.336721	-0.396633	0.700059	-0.327293	-0.420973	0.633116	-0.337939	-0.379171	0.660466	-0.335267	-0.291345	0.506769	-0.336336	-0.278552	0.483875	-0.226174	-0.414456	0.467998	-0.364694	-0.378331	0.427827	-0.365608	-0.458654	0.434574	-0.366710	-0.421973	0.398140	-0.369235	-0.619549	0.284932	-0.365681	-0.590692	0.252135	-0.290019	-0.620354	0.166119	-0.444111	-0.586577	0.125123	-0.340784	-0.554137	0.120583	-0.405728	-0.685571	0.299200	-0.296674	-0.569886	1.350142	0.054335	-0.532741	1.373984	-0.276737	
59	0.2900	-0.460468	0.907218	-0.021651	-0.466723	0.907521	-0.250386	-0.647326	0.875771	-0.077973	-0.649680	0.881271	-0.170788	-0.453512	0.657176	0.019331	-0.401512	0.684554	0.019360	-0.422244	0.621098	0.005954	-0.374178	0.644317	0.006108	-0.290725	0.479760	-0.061619	-0.307165	0.489509	-0.166124	-0.353295	0.354182	-0.037904	-0.311958	0.347997	-0.054220	-0.360555	0.305023	-0.043366	-0.325057	0.299815	-0.057720	-0.400506	0.107810	-0.083955	-0.394964	0.112128	-0.169219	-0.294138	0.034118	-0.047366	-0.268536	0.030599	-0.159328	-0.232736	0.047199	-0.105496	-0.486119	0.082521	-0.136381	-0.420275	0.671433	-0.334114	-0.380345	0.700610	-0.324671	-0.403633	0.633197	-0.335268	-0.362232	0.661263	-0.332615	-0.272320	0.509256	-0.333281	-0.259213	0.486790	-0.223235	-0.394553	0.468784	-0.361545	-0.357774	0.429206	-0.362615	-0.438210	0.434657	-0.363670	-0.400900	0.398811	-0.366393	-0.596558	0.281879	-0.362978	-0.567001	0.249446	-0.287461	-0.593807	0.163514	-0.441984	-0.559523	0.122952	-0.338714	-0.526616	0.119798	-0.403637	-0.663424	0.294111	-0.293966	-0.556820	1.348933	0.056430	-0.520711	1.372798	-0.275335	
60	0.2950	-0.448774	0.906629	-0.019010	-0.454222	0.906215	-0.248129	-0.635369	0.874586	-0.076434	-0.637584	0.879622	-0.169333	-0.441848	0.656346	0.020650	-0.389987	0.683714	0.020990	-0.410760	0.620254	0.006988	-0.362710	0.643552	0.007593	-0.279451	0.478514	-0.061039	-0.295499	0.489157	-0.165598	-0.345285	0.353955	-0.037775	-0.303906	0.346795	-0.054064	-0.353800	0.304850	-0.043400	-0.318350	0.298793	-0.057785	-0.399898	0.108230	-0.084414	-0.394174	0.112440	-0.169740	-0.294702	0.032981	-0.047726	-0.269058	0.028840	-0.159635	-0.232581	0.044764	-0.105797	-0.486561	0.084013	-0.136770	-0.404964	0.671405	-0.331665	-0.365396	0.701257	-0.322214	-0.387709	0.633413	-0.332754	-0.346684	0.662139	-0.330120	-0.254866	0.511705	-0.330397	-0.241479	0.489642	-0.220460	-0.376245	0.469549	-0.358589	-0.338831	0.430555	-0.359795	-0.419371	0.434727	-0.360828	-0.381448	0.399463	-0.363724	-0.575211	0.278859	-0.360485	-0.544995	0.246813	-0.285094	-0.569106	0.160875	-0.439970	-0.534330	0.120794	-0.336731	-0.500983	0.118913	-0.401621	-0.642859	0.289193	-0.291501	-0.544769	1.347930	0.058336	-0.509587	1.371807	-0.274043	
61	0.3000	-0.438152	0.906224	-0.016576	-0.442828	0.905123	-0.246041	-0.624487	0.873632	-0.075054	-0.626568	0.878245	-0.168027	-0.431277	0.655690	0.021843	-0.379540	0.683035	0.022436	-0.400370	0.619568	0.007921	-0.352330	0.642932	0.008911	-0.269285	0.477391	-0.060533	-0.284984	0.488826	-0.165138	-0.338156	0.353784	-0.037650	-0.296739	0.345736	-0.053907	-0.347807	0.304735	-0.043423	-0.312407	0.297908	-0.057829	-0.399460	0.108711	-0.084806	-0.393578	0.112839	-0.170195	-0.295289	0.032143	-0.048044	-0.269626	0.027479	-0.159907	-0.232580	0.042813	-0.106061	-0.487031	0.085392	-0.137100	-0.391062	0.671500	-0.329391	-0.351825	0.701975	-0.319937	-0.373248	0.633740	-0.330417	-0.332571	0.663069	-0.327801	-0.239028	0.514079	-0.327710	-0.225396	0.492387	-0.217873	-0.359590	0.470284	-0.355847	-0.321569	0.431855	-0.357170	-0.402203	0.434787	-0.358202	-0.363692	0.400088	-0.361248	-0.555614	0.275928	-0.358212	-0.524785	0.244281	-0.282927	-0.546387	0.158267	-0.438084	-0.511140	0.118692	-0.334855	-0.477388	0.117967	-0.399701	-0.623975	0.284515	-0.289283	-0.533777	1.347121	0.060049	-0.499414	1.370998	-0.272865	
62	0.3050	-0.428613	0.905978	-0.014361	-0.432563	0.904232	-0.244134	-0.614696	0.872885	-0.073829	-0.616650	0.877120	-0.166866	-0.421807	0.655184	0.022911	-0.370178	0.682493	0.023702	-0.391078	0.619021	0.008756	-0.343041	0.642434	0.010066	-0.260227	0.476383	-0.060095	-0.275618	0.488510	-0.164737	-0.331886	0.353655	-0.037530	-0.290437	0.344809	-0.053747	-0.342551	0.304666	-0.043435	-0.307202	0.297150	-0.057853	-0.399150	0.109230	-0.085135	-0.393135	0.113299	-0.170584	-0.295866	0.031567	-0.048317	-0.270200	0.026473	-0.160142	-0.232689	0.041300	-0.106288	-0.487494	0.086652	-0.137375	-0.378589	0.671697	-0.327305	-0.339652	0.702738	-0.317854	-0.360271	0.634153	-0.328271	-0.319911	0.664025	-0.325674	-0.224827	0.516343	-0.325239	-0.210981	0.494989	-0.215493	-0.344618	0.470980	-0.353334	-0.306024	0.433090	-0.354758	-0.386741	0.434840	-0.355804	-0.347677	0.400682	-0.358979	-0.537838	0.273134	-0.356164	-0.506450	0.241889	-0.280966	-0.525748	0.155743	-0.436341	-0.490055	0.116686	-0.333103	-0.455936	0.116994	-0.397899	-0.606842	0.280137	-0.287310	-0.523866	1.346486	0.061571	-0.490220	1.370354	-0.271802	
63	0.3100	-0.420152	0.905863	-0.012372	-0.423430	0.903525	-0.242413	-0.605995	0.872319	-0.072754	-0.607831	0.876223	-0.165845	-0.413427	0.654806	0.023857	-0.361891	0.682069	0.024797	-0.382871	0.618592	0.009494	-0.334833	0.642039	0.011066	-0.252260	0.475485	-0.059719	-0.267383	0.488207	-0.164390	-0.326441	0.353558	-0.037413	-0.284965	0.344005	-0.053588	-0.337998	0.304630	-0.043436	-0.302701	0.296505	-0.057859	-0.398937	0.109766	-0.085404	-0.392809	0.113797	-0.170910	-0.296410	0.031212	-0.048548	-0.270755	0.025773	-0.160342	-0.232872	0.040170	-0.106478	-0.487925	0.087787	-0.137599	-0.367541	0.671970	-0.325418	-0.328872	0.703521	-0.315976	-0.348776	0.634626	-0.326328	-0.308701	0.664980	-0.323750	-0.212255	0.518466	-0.322999	-0.198224	0.497414	-0.213332	-0.331329	0.471629	-0.351062	-0.292205	0.434244	-0.352571	-0.372995	0.434888	-0.353643	-0.333418	0.401238	-0.356928	-0.521925	0.270521	-0.354342	-0.490033	0.239669	-0.279213	-0.507244	0.153354	-0.434751	-0.471139	0.114809	-0.331490	-0.436691	0.116025	-0.396233	-0.591497	0.276105	-0.285578	-0.515044	1.346007	0.062904	-0.482018	1.369857	-0.270855	
64	0.3150	-0.412747	0.905853	-0.010612	-0.415416	0.902981	-0.240883	-0.598366	0.871908	-0.071822	-0.600095	0.875527	-0.164958	-0.406112	0.654534	0.024683	-0.354653	0.681743	0.025730	-0.375721	0.618261	0.010140	-0.327676	0.641729	0.011920	-0.245350	0.474691	-0.059399	-0.260243	0.487914	-0.164093	-0.321778	0.353483	-0.037300	-0.280279	0.343314	-0.053431	-0.334108	0.304615	-0.043428	-0.298861	0.295962	-0.057848	-0.398793	0.110300	-0.085617	-0.392573	0.114310	-0.171178	-0.296904	0.031036	-0.048738	-0.271269	0.025327	-0.160507	-0.233098	0.039370	-0.106631	-0.488307	0.088794	-0.137777	-0.357890	0.672296	-0.323736	-0.319457	0.704297	-0.314306	-0.338733	0.635132	-0.324593	-0.298911	0.665911	-0.322035	-0.201279	0.520423	-0.320997	-0.187091	0.499636	-0.211401	-0.319697	0.472226	-0.349036	-0.280091	0.435305	-0.350618	-0.360942	0.434932	-0.351724	-0.320898	0.401750	-0.355100	-0.507878	0.268121	-0.352743	-0.475538	0.237646	-0.277668	-0.490890	0.151138	-0.433323	-0.454408	0.113087	-0.330028	-0.419671	0.115090	-0.394716	-0.577945	0.272454	-0.284077	-0.507300	1.345662	0.064056	-0.474801	1.369489	-0.270022	
65	0.3200	-0.406361	0.905921	-0.009080	-0.408489	0.902579	-0.239543	-0.591776	0.871626	-0.071023	-0.593409	0.875006	-0.164196	-0.399820	0.654347	0.025395	-0.348424	0.681497	0.026513	-0.369583	0.618013	0.010697	-0.321528	0.641488	0.012637	-0.239449	0.473995	-0.059129	-0.254146	0.487635	-0.163841	-0.317846	0.353424	-0.037194	-0.276329	0.342727	-0.053278	-0.330833	0.304614	-0.043412	-0.295635	0.295510	-0.057824	-0.398698	0.110814	-0.085781	-0.392404	0.114816	-0.171392	-0.297338	0.031000	-0.048891	-0.271729	0.025086	-0.160640	-0.233342	0.038840	-0.106752	-0.488632	0.089675	-0.137916	-0.349588	0.672652	-0.322259	-0.311358	0.705047	-0.312846	-0.330092	0.635649	-0.323069	-0.290490	0.666794	-0.320531	-0.191839	0.522194	-0.319238	-0.177520	0.501635	-0.209702	-0.309668	0.472764	-0.347259	-0.269630	0.436264	-0.348901	-0.350533	0.434972	-0.350045	-0.310071	0.402214	-0.353497	-0.495667	0.265960	-0.351361	-0.462938	0.235838	-0.276326	-0.476659	0.149125	-0.432060	-0.439838	0.111539	-0.328725	-0.404853	0.114212	-0.393357	-0.566158	0.269207	-0.282796	-0.500603	1.345430	0.065035	-0.468547	1.369228	-0.269300	
66	0.3250	-0.400943	0.906043	-0.007769	-0.402599	0.902297	-0.238391	-0.586174	0.871448	-0.070350	-0.587724	0.874630	-0.163551	-0.394497	0.654227	0.025999	-0.343150	0.681316	0.027158	-0.364401	0.617830	0.011171	-0.316333	0.641301	0.013230	-0.234492	0.473392	-0.058905	-0.249026	0.487371	-0.163631	-0.314584	0.353375	-0.037094	-0.273053	0.342233	-0.053134	-0.328121	0.304621	-0.043391	-0.292968	0.295138	-0.057791	-0.398636	0.111295	-0.085903	-0.392282	0.115299	-0.171559	-0.297708	0.031066	-0.049010	-0.272127	0.025002	-0.160744	-0.233586	0.038527	-0.106843	-0.488898	0.090432	-0.138020	-0.342563	0.673018	-0.320985	-0.304507	0.705749	-0.311591	-0.322779	0.636155	-0.321752	-0.283367	0.667611	-0.319234	-0.183854	0.523765	-0.317719	-0.169428	0.503399	-0.208234	-0.301164	0.473241	-0.345726	-0.260748	0.437114	-0.347418	-0.341692	0.435008	-0.348602	-0.300864	0.402627	-0.352115	-0.485231	0.264051	-0.350186	-0.452167	0.234253	-0.275180	-0.464482	0.147335	-0.430962	-0.427363	0.110176	-0.327583	-0.392168	0.113408	-0.392163	-0.556076	0.266372	-0.281720	-0.494908	1.345288	0.065853	-0.463218	1.369055	-0.268684	
67	0.3300	-0.396429	0.906197	-0.006668	-0.397682	0.902111	-0.237417	-0.581498	0.871350	-0.069791	-0.582978	0.874372	-0.163015	-0.390074	0.654156	0.026502	-0.338765	0.681184	0.027680	-0.360104	0.617700	0.011567	-0.312021	0.641159	0.013710	-0.230404	0.472879	-0.058722	-0.244805	0.487126	-0.163456	-0.311928	0.353333	-0.037004	-0.270385	0.341824	-0.053001	-0.325915	0.304631	-0.043366	-0.290804	0.294836	-0.057751	-0.398596	0.111732	-0.085990	-0.392194	0.115746	-0.171685	-0.298014	0.031199	-0.049101	-0.272463	0.025030	-0.160822	-0.233815	0.038378	-0.106909	-0.489105	0.091070	-0.138095	-0.336727	0.673375	-0.319907	-0.298816	0.706389	-0.310532	-0.316704	0.636632	-0.320637	-0.277451	0.668348	-0.318138	-0.177223	0.525131	-0.316433	-0.162709	0.504924	-0.206989	-0.294084	0.473655	-0.344428	-0.253343	0.437852	-0.346160	-0.334320	0.435040	-0.347383	-0.293176	0.402987	-0.350945	-0.476474	0.262402	-0.349204	-0.443129	0.232892	-0.274218	-0.454256	0.145780	-0.430026	-0.416880	0.109001	-0.326603	-0.381511	0.112692	-0.391134	-0.547611	0.263948	-0.280833	-0.490152	1.345215	0.066525	-0.458759	1.368951	-0.268169	
68	0.3350	-0.392742	0.906365	-0.005763	-0.393660	0.902000	-0.236611	-0.577673	0.871309	-0.069336	-0.579095	0.874207	-0.162577	-0.386472	0.654122	0.026913	-0.335190	0.681092	0.028094	-0.356612	0.617609	0.011891	-0.308514	0.641051	0.014092	-0.227101	0.472448	-0.058573	-0.241395	0.486904	-0.163315	-0.309810	0.353298	-0.036923	-0.268258	0.341491	-0.052880	-0.324157	0.304641	-0.043339	-0.289083	0.294595	-0.057710	-0.398568	0.112118	-0.086048	-0.392131	0.116145	-0.171777	-0.298259	0.031370	-0.049167	-0.272736	0.025132	-0.160880	-0.234021	0.038347	-0.106955	-0.489260	0.091598	-0.138148	-0.331978	0.673710	-0.319014	-0.294186	0.706957	-0.309658	-0.311760	0.637067	-0.319711	-0.272638	0.668995	-0.317231	-0.171827	0.526290	-0.315366	-0.157244	0.506213	-0.205956	-0.288309	0.474006	-0.343351	-0.247294	0.438478	-0.345116	-0.328297	0.435068	-0.346377	-0.286889	0.403294	-0.349976	-0.469277	0.261009	-0.348401	-0.435702	0.231751	-0.273427	-0.445845	0.144461	-0.429244	-0.408252	0.108013	-0.325779	-0.372742	0.112072	-0.390267	-0.540649	0.261920	-0.280117	-0.486261	1.345194	0.067064	-0.455105	1.368899	-0.267745	
