PathFileType	4	(X/Y/Z)	 P11 pr2 07.trc
DataRate	CameraRate	NumFrames	NumMarkers	Units	OrigDataRate	OrigDataStartFrame	OrigNumFrames
200	200	72	38	m	200	1	72
Frame#	Time	RASIS			LASIS			RPSIS			LPSIS			RThighRear1			RThighFront1			RThighRear2			RThighFront2			RKneeLat			RKneeMed			RShankRear1			RShankFront1			RShankRear2			RShankFront2			RAnkleLat			RAnkleMed			RM5			RM1			RMid			RHeel			LThighRear1			LThighFront1			LThighRear2			LThighFront2			LKneeLat			LKneeMed			LShankRear1			LShankFront1			LShankRear2			LShankFront2			LAnkleLat			LAnkleMed			LM5			LM1			LMid			LHeel			RShoulder			LShoulder			
		X1	Y1	Z1	X2	Y2	Z2	X3	Y3	Z3	X4	Y4	Z4	X5	Y5	Z5	X6	Y6	Z6	X7	Y7	Z7	X8	Y8	Z8	X9	Y9	Z9	X10	Y10	Z10	X11	Y11	Z11	X12	Y12	Z12	X13	Y13	Z13	X14	Y14	Z14	X15	Y15	Z15	X16	Y16	Z16	X17	Y17	Z17	X18	Y18	Z18	X19	Y19	Z19	X20	Y20	Z20	X21	Y21	Z21	X22	Y22	Z22	X23	Y23	Z23	X24	Y24	Z24	X25	Y25	Z25	X26	Y26	Z26	X27	Y27	Z27	X28	Y28	Z28	X29	Y29	Z29	X30	Y30	Z30	X31	Y31	Z31	X32	Y32	Z32	X33	Y33	Z33	X34	Y34	Z34	X35	Y35	Z35	X36	Y36	Z36	X37	Y37	Z37	X38	Y38	Z38	
1	0.0000	-1.464114	0.925127	-0.154665	-1.432193	0.949216	-0.378517	-1.631323	0.971874	-0.228933	-1.621963	0.974212	-0.319324	-1.545769	0.686140	-0.088755	-1.489784	0.684463	-0.096810	-1.540119	0.637378	-0.093426	-1.483144	0.633765	-0.097713	-1.506824	0.436949	-0.110901	-1.487965	0.426567	-0.229876	-1.663492	0.444738	-0.129663	-1.649892	0.400148	-0.131386	-1.710068	0.428726	-0.143818	-1.697412	0.387402	-0.149957	-1.899701	0.364943	-0.200075	-1.875040	0.342246	-0.285961	-1.961455	0.233420	-0.154663	-1.931732	0.181338	-0.254399	-1.915673	0.176515	-0.193895	-1.941291	0.413397	-0.284069	-1.434870	0.698361	-0.433678	-1.388439	0.721797	-0.430237	-1.421102	0.656659	-0.425643	-1.377023	0.680261	-0.426280	-1.303414	0.515508	-0.385838	-1.306202	0.517317	-0.284082	-1.375703	0.403062	-0.422293	-1.325748	0.396107	-0.404934	-1.386356	0.346849	-0.421936	-1.337900	0.343384	-0.406914	-1.420206	0.116971	-0.391770	-1.403006	0.128883	-0.307538	-1.304442	0.043859	-0.421697	-1.291593	0.051311	-0.302728	-1.242618	0.065605	-0.355150	-1.500445	0.083726	-0.345289	-1.386796	1.386237	-0.105180	-1.356322	1.392316	-0.429652	
2	0.0050	-1.448268	0.924036	-0.154305	-1.416346	0.948159	-0.378101	-1.615493	0.969770	-0.228628	-1.606104	0.972238	-0.319001	-1.524346	0.685657	-0.087581	-1.468338	0.685553	-0.094557	-1.517062	0.637474	-0.091570	-1.460073	0.635398	-0.095072	-1.477330	0.439541	-0.108430	-1.457739	0.429709	-0.226852	-1.633184	0.444519	-0.127430	-1.618659	0.400255	-0.128634	-1.679319	0.427556	-0.141551	-1.665922	0.386661	-0.146944	-1.867270	0.359001	-0.198882	-1.841184	0.336451	-0.283586	-1.924062	0.227479	-0.150933	-1.892201	0.175418	-0.249748	-1.876221	0.172166	-0.189231	-1.909877	0.405003	-0.282934	-1.422897	0.697218	-0.433006	-1.376100	0.719599	-0.429679	-1.410090	0.655332	-0.424929	-1.365622	0.677984	-0.425705	-1.295325	0.512313	-0.384900	-1.298463	0.514366	-0.283043	-1.369560	0.401220	-0.421119	-1.319729	0.393278	-0.403871	-1.381261	0.345304	-0.420647	-1.332998	0.340902	-0.405622	-1.420009	0.117279	-0.390714	-1.402802	0.128548	-0.306301	-1.304799	0.043165	-0.421874	-1.291764	0.051027	-0.302926	-1.242447	0.065346	-0.355704	-1.501096	0.083865	-0.344386	-1.374382	1.386433	-0.104021	-1.340847	1.391768	-0.428972	
3	0.0100	-1.432164	0.922968	-0.153913	-1.400241	0.947125	-0.377654	-1.599405	0.967675	-0.228292	-1.589987	0.970274	-0.318649	-1.502628	0.685262	-0.086401	-1.446616	0.686776	-0.092278	-1.493682	0.637683	-0.089711	-1.436698	0.637191	-0.092409	-1.447425	0.442321	-0.105948	-1.427100	0.433069	-0.223809	-1.602418	0.444362	-0.125171	-1.586934	0.400449	-0.125859	-1.648090	0.426409	-0.139247	-1.633920	0.385964	-0.143896	-1.834260	0.352888	-0.197639	-1.806734	0.330524	-0.281165	-1.885976	0.221377	-0.147150	-1.851926	0.169387	-0.245045	-1.836038	0.167722	-0.184519	-1.877903	0.396383	-0.281748	-1.410706	0.696103	-0.432323	-1.363545	0.717415	-0.429078	-1.398878	0.654035	-0.424213	-1.354020	0.675721	-0.425095	-1.287142	0.509112	-0.383961	-1.290641	0.511396	-0.282002	-1.363358	0.399413	-0.419970	-1.313663	0.390465	-0.402830	-1.376125	0.343803	-0.419389	-1.328065	0.338444	-0.404359	-1.419827	0.117633	-0.389720	-1.402612	0.128253	-0.305125	-1.305236	0.042412	-0.422056	-1.292032	0.050690	-0.303129	-1.242375	0.065053	-0.356243	-1.501789	0.084082	-0.343537	-1.361773	1.386661	-0.102824	-1.325162	1.391269	-0.428245	
4	0.0150	-1.415802	0.921948	-0.153478	-1.383877	0.946139	-0.377161	-1.583059	0.965615	-0.227914	-1.573611	0.968346	-0.318252	-1.480649	0.684993	-0.085219	-1.424657	0.688173	-0.089983	-1.470019	0.638049	-0.087864	-1.413063	0.639187	-0.089741	-1.417176	0.445331	-0.103475	-1.396123	0.436694	-0.220766	-1.571236	0.444277	-0.122894	-1.554755	0.400755	-0.123074	-1.616412	0.425290	-0.136913	-1.601432	0.385329	-0.140825	-1.800645	0.346589	-0.196330	-1.771677	0.324465	-0.278693	-1.847158	0.215120	-0.143320	-1.810877	0.163279	-0.240307	-1.795100	0.163209	-0.179776	-1.845337	0.387514	-0.280494	-1.398275	0.695043	-0.431630	-1.350758	0.715276	-0.428421	-1.387439	0.652797	-0.423495	-1.342195	0.673503	-0.424439	-1.278845	0.505939	-0.383030	-1.282720	0.508432	-0.280966	-1.357077	0.397681	-0.418865	-1.307536	0.387708	-0.401825	-1.370928	0.342387	-0.418181	-1.323080	0.336052	-0.403145	-1.419622	0.118072	-0.388819	-1.402398	0.128037	-0.304044	-1.305763	0.041609	-0.422242	-1.292407	0.050306	-0.303337	-1.242422	0.064721	-0.356758	-1.502479	0.084441	-0.342774	-1.348966	1.386937	-0.101580	-1.309286	1.390849	-0.427453	
5	0.0200	-1.399173	0.921002	-0.152984	-1.367247	0.945227	-0.376610	-1.566446	0.963614	-0.227478	-1.556968	0.966479	-0.317799	-1.458433	0.684892	-0.084042	-1.402492	0.689783	-0.087683	-1.446104	0.638612	-0.086042	-1.389207	0.641430	-0.087083	-1.386642	0.448611	-0.101031	-1.364877	0.440628	-0.217744	-1.539671	0.444274	-0.120607	-1.522151	0.401194	-0.120293	-1.584303	0.424205	-0.134552	-1.568474	0.384769	-0.137741	-1.766383	0.340087	-0.194942	-1.735981	0.318277	-0.276169	-1.807551	0.208714	-0.139451	-1.769006	0.157133	-0.235550	-1.753365	0.158658	-0.175021	-1.812126	0.378372	-0.279155	-1.385575	0.694063	-0.430924	-1.337712	0.713214	-0.427694	-1.375742	0.651647	-0.422777	-1.330116	0.671364	-0.423727	-1.270408	0.502825	-0.382112	-1.274672	0.505496	-0.279941	-1.350688	0.396065	-0.417822	-1.301324	0.385047	-0.400872	-1.365639	0.341099	-0.417046	-1.318018	0.333770	-0.402002	-1.419353	0.118636	-0.388043	-1.402118	0.127942	-0.303089	-1.306385	0.040767	-0.422432	-1.292898	0.049885	-0.303549	-1.242606	0.064347	-0.357239	-1.503113	0.085013	-0.342126	-1.335952	1.387279	-0.100279	-1.293231	1.390539	-0.426577	
6	0.0250	-1.382262	0.920155	-0.152419	-1.350335	0.944416	-0.375986	-1.549551	0.961700	-0.226971	-1.540043	0.964701	-0.317274	-1.436001	0.684995	-0.082874	-1.380147	0.691643	-0.085386	-1.421963	0.639411	-0.084255	-1.365161	0.643957	-0.084452	-1.355878	0.452195	-0.098634	-1.333424	0.444910	-0.214761	-1.507749	0.444359	-0.118318	-1.489145	0.401787	-0.117528	-1.551776	0.423153	-0.132170	-1.535054	0.384299	-0.134655	-1.731419	0.333366	-0.193460	-1.699606	0.311962	-0.273588	-1.767089	0.202170	-0.135551	-1.726257	0.150993	-0.230792	-1.710784	0.154103	-0.170271	-1.778206	0.368934	-0.277715	-1.372570	0.693188	-0.430204	-1.324375	0.711259	-0.426883	-1.363746	0.650610	-0.422061	-1.317746	0.669333	-0.422950	-1.261794	0.499802	-0.381214	-1.266464	0.502612	-0.278932	-1.344153	0.394603	-0.416858	-1.294993	0.382522	-0.399985	-1.360221	0.339982	-0.416002	-1.312843	0.331638	-0.400947	-1.418967	0.119367	-0.387419	-1.401725	0.128013	-0.302290	-1.307104	0.039902	-0.422624	-1.293506	0.049441	-0.303764	-1.242940	0.063931	-0.357679	-1.503628	0.085874	-0.341622	-1.322717	1.387707	-0.098912	-1.277004	1.390369	-0.425598	
7	0.0300	-1.365053	0.919433	-0.151767	-1.333124	0.943729	-0.375276	-1.532358	0.959897	-0.226378	-1.522819	0.963035	-0.316663	-1.413370	0.685338	-0.081719	-1.357642	0.693785	-0.083105	-1.397622	0.640483	-0.082518	-1.340954	0.646804	-0.081862	-1.324937	0.456112	-0.096301	-1.301824	0.449571	-0.211837	-1.475493	0.444531	-0.116036	-1.455758	0.402548	-0.114792	-1.518840	0.422132	-0.129770	-1.501178	0.383927	-0.131577	-1.695695	0.326415	-0.191871	-1.662506	0.305526	-0.270946	-1.725700	0.195502	-0.131627	-1.682569	0.144907	-0.226048	-1.667305	0.149583	-0.165542	-1.743510	0.359180	-0.276156	-1.359221	0.692444	-0.429467	-1.310712	0.709441	-0.425978	-1.351409	0.649712	-0.421347	-1.305048	0.667440	-0.422099	-1.252961	0.496900	-0.380343	-1.258052	0.499801	-0.277944	-1.337426	0.393335	-0.415989	-1.288504	0.380171	-0.399177	-1.354627	0.339078	-0.415068	-1.307515	0.329699	-0.399997	-1.418408	0.120310	-0.386974	-1.401163	0.128293	-0.301676	-1.307916	0.039034	-0.422817	-1.294229	0.048990	-0.303980	-1.243431	0.063472	-0.358068	-1.503952	0.087101	-0.341287	-1.309245	1.388238	-0.097471	-1.260607	1.390367	-0.424498	
8	0.0350	-1.347526	0.918860	-0.151016	-1.315596	0.943193	-0.374465	-1.514849	0.958229	-0.225687	-1.505278	0.961507	-0.315953	-1.390553	0.685953	-0.080581	-1.334995	0.696237	-0.080850	-1.373101	0.641857	-0.080839	-1.316612	0.649996	-0.079329	-1.293871	0.460382	-0.094051	-1.270138	0.454633	-0.208988	-1.442927	0.444789	-0.113767	-1.422013	0.403489	-0.112097	-1.485505	0.421138	-0.127359	-1.466853	0.383659	-0.128518	-1.659154	0.319225	-0.190162	-1.624638	0.298978	-0.268241	-1.683314	0.188733	-0.127686	-1.637888	0.138928	-0.221336	-1.622879	0.145143	-0.160852	-1.707966	0.349096	-0.274467	-1.345489	0.691851	-0.428710	-1.296687	0.707786	-0.424969	-1.338687	0.648976	-0.420633	-1.291978	0.665712	-0.421165	-1.243860	0.494148	-0.379504	-1.249388	0.497086	-0.276982	-1.330455	0.392295	-0.415228	-1.281809	0.378030	-0.398459	-1.348805	0.338427	-0.414259	-1.301982	0.327991	-0.399168	-1.417614	0.121508	-0.386729	-1.400371	0.128827	-0.301269	-1.308813	0.038188	-0.423011	-1.295055	0.048555	-0.304197	-1.244078	0.062975	-0.358403	-1.504006	0.088772	-0.341144	-1.295516	1.388890	-0.095948	-1.244041	1.390561	-0.423258	
9	0.0400	-1.329666	0.918460	-0.150153	-1.297734	0.942829	-0.373541	-1.497005	0.956718	-0.224884	-1.487403	0.960137	-0.315132	-1.367565	0.686864	-0.079463	-1.312225	0.699017	-0.078630	-1.348425	0.643556	-0.079229	-1.292162	0.653552	-0.076868	-1.262736	0.465014	-0.091898	-1.238431	0.460105	-0.206233	-1.410080	0.445122	-0.111520	-1.387940	0.404614	-0.109454	-1.451785	0.420162	-0.124941	-1.432095	0.383497	-0.125488	-1.621746	0.311797	-0.188326	-1.585966	0.292331	-0.265470	-1.639874	0.181889	-0.123739	-1.592172	0.133114	-0.216671	-1.577471	0.140830	-0.156216	-1.671514	0.338675	-0.272633	-1.331335	0.691429	-0.427929	-1.282265	0.706319	-0.423847	-1.325537	0.648423	-0.419919	-1.278498	0.664173	-0.420143	-1.234440	0.491571	-0.378703	-1.240418	0.494486	-0.276049	-1.323183	0.391518	-0.414586	-1.274857	0.376132	-0.397841	-1.342698	0.338065	-0.413586	-1.296192	0.326552	-0.398471	-1.416516	0.123004	-0.386701	-1.399284	0.129657	-0.301087	-1.309777	0.037393	-0.423203	-1.295965	0.048165	-0.304412	-1.244872	0.062444	-0.358676	-1.503704	0.090962	-0.341212	-1.281513	1.389678	-0.094334	-1.227308	1.390974	-0.421864	
10	0.0450	-1.311458	0.918252	-0.149166	-1.279525	0.942659	-0.372493	-1.478815	0.955385	-0.223959	-1.469181	0.958947	-0.314187	-1.344425	0.688091	-0.078367	-1.289350	0.702136	-0.076457	-1.323622	0.645594	-0.077696	-1.267631	0.657480	-0.074492	-1.231592	0.470006	-0.089857	-1.206771	0.465982	-0.203587	-1.376986	0.445517	-0.109302	-1.353576	0.405921	-0.106875	-1.417703	0.419192	-0.122524	-1.396927	0.383440	-0.122498	-1.583431	0.304136	-0.186354	-1.546466	0.285604	-0.262634	-1.595338	0.175008	-0.119793	-1.545399	0.127526	-0.212070	-1.531062	0.136698	-0.151651	-1.634100	0.327921	-0.270647	-1.316726	0.691194	-0.427121	-1.267412	0.705061	-0.422608	-1.311920	0.648067	-0.419202	-1.264569	0.662845	-0.419030	-1.224644	0.489194	-0.377944	-1.231085	0.492020	-0.275147	-1.315550	0.391032	-0.414071	-1.267590	0.374508	-0.397328	-1.336243	0.338024	-0.413059	-1.290085	0.325414	-0.397914	-1.415041	0.124837	-0.386901	-1.397833	0.130823	-0.301144	-1.310783	0.036682	-0.423393	-1.296929	0.047848	-0.304625	-1.245795	0.061888	-0.358887	-1.502956	0.093742	-0.341505	-1.267219	1.390616	-0.092626	-1.210408	1.391625	-0.420302	
11	0.0500	-1.292895	0.918254	-0.148048	-1.260961	0.942699	-0.371312	-1.460269	0.954246	-0.222903	-1.450602	0.957954	-0.313112	-1.321152	0.689644	-0.077296	-1.266389	0.705593	-0.074342	-1.298722	0.647976	-0.076247	-1.243052	0.661774	-0.072215	-1.200506	0.475344	-0.087942	-1.175230	0.472246	-0.201066	-1.343690	0.445956	-0.107122	-1.318968	0.407401	-0.104370	-1.383291	0.418214	-0.120114	-1.361384	0.383481	-0.119558	-1.544189	0.296256	-0.184244	-1.506129	0.278819	-0.259733	-1.549686	0.168130	-0.115861	-1.497567	0.122229	-0.207550	-1.483657	0.132802	-0.147172	-1.595688	0.316845	-0.268503	-1.301631	0.691158	-0.426284	-1.252102	0.704029	-0.421249	-1.297802	0.647922	-0.418481	-1.250159	0.661746	-0.417822	-1.214417	0.487036	-0.377231	-1.221329	0.489705	-0.274278	-1.307492	0.390862	-0.413689	-1.259947	0.373184	-0.396926	-1.329374	0.338332	-0.412683	-1.283597	0.324607	-0.397503	-1.413116	0.127044	-0.387335	-1.395946	0.132362	-0.301445	-1.311798	0.036092	-0.423580	-1.297910	0.047641	-0.304834	-1.246818	0.061320	-0.359034	-1.501665	0.097177	-0.342028	-1.252622	1.391717	-0.090820	-1.193346	1.392531	-0.418562	
12	0.0550	-1.273976	0.918481	-0.146791	-1.242040	0.942964	-0.369992	-1.441367	0.953318	-0.221709	-1.431668	0.957173	-0.311898	-1.297771	0.691525	-0.076250	-1.243365	0.709377	-0.072294	-1.273761	0.650698	-0.074887	-1.218456	0.666418	-0.070050	-1.169548	0.480998	-0.086164	-1.143885	0.478863	-0.198683	-1.310244	0.446414	-0.104988	-1.284174	0.409038	-0.101949	-1.348591	0.417211	-0.117721	-1.325514	0.383609	-0.116680	-1.504017	0.288180	-0.181995	-1.464967	0.272004	-0.256772	-1.502922	0.161303	-0.111954	-1.448702	0.117288	-0.203128	-1.435286	0.129197	-0.142796	-1.556263	0.305473	-0.266199	-1.286027	0.691331	-0.425413	-1.236313	0.703240	-0.419771	-1.283151	0.647996	-0.417752	-1.235240	0.660890	-0.416522	-1.203701	0.485117	-0.376568	-1.211091	0.487557	-0.273444	-1.298945	0.391026	-0.413439	-1.251865	0.372180	-0.396635	-1.322026	0.339011	-0.412459	-1.276666	0.324153	-0.397240	-1.410664	0.129659	-0.388002	-1.393549	0.134305	-0.301990	-1.312780	0.035664	-0.423761	-1.298858	0.047580	-0.305037	-1.247900	0.060753	-0.359119	-1.499736	0.101323	-0.342786	-1.237714	1.392987	-0.088915	-1.176126	1.393702	-0.416638	
13	0.0600	-1.254705	0.918944	-0.145392	-1.222768	0.943466	-0.368529	-1.422115	0.952609	-0.220374	-1.412382	0.956613	-0.310544	-1.274312	0.693728	-0.075230	-1.220304	0.713468	-0.070323	-1.248779	0.653744	-0.073618	-1.193882	0.671384	-0.068007	-1.138796	0.486928	-0.084533	-1.112819	0.485783	-0.196452	-1.276710	0.446865	-0.102908	-1.249267	0.410811	-0.099622	-1.313660	0.416163	-0.115354	-1.289379	0.383811	-0.113874	-1.462936	0.279938	-0.179611	-1.423013	0.265192	-0.253755	-1.455078	0.154581	-0.108086	-1.398859	0.112769	-0.198820	-1.386005	0.125943	-0.138537	-1.515829	0.293838	-0.263739	-1.269899	0.691717	-0.424506	-1.220030	0.702703	-0.418178	-1.267947	0.648293	-0.417013	-1.219791	0.660287	-0.415133	-1.192441	0.483449	-0.375955	-1.200309	0.485589	-0.272644	-1.289844	0.391538	-0.413320	-1.243281	0.371513	-0.396454	-1.314131	0.340076	-0.412384	-1.269223	0.324070	-0.397120	-1.407609	0.132708	-0.388893	-1.390569	0.136680	-0.302774	-1.313677	0.035441	-0.423936	-1.299714	0.047705	-0.305234	-1.248988	0.060205	-0.359144	-1.497072	0.106224	-0.343771	-1.222492	1.394434	-0.086910	-1.158760	1.395142	-0.414527	
14	0.0650	-1.235098	0.919649	-0.143850	-1.203159	0.944210	-0.366922	-1.402526	0.952129	-0.218897	-1.392759	0.956284	-0.309047	-1.250808	0.696239	-0.074236	-1.197233	0.717833	-0.068439	-1.223822	0.657090	-0.072442	-1.169369	0.676631	-0.066096	-1.108329	0.493082	-0.083057	-1.082118	0.492944	-0.194382	-1.243162	0.447277	-0.100891	-1.214327	0.412691	-0.097398	-1.278565	0.415051	-0.113024	-1.253056	0.384067	-0.111152	-1.420988	0.271568	-0.177099	-1.380320	0.258419	-0.250692	-1.406218	0.148021	-0.104270	-1.348123	0.108736	-0.194642	-1.335901	0.123094	-0.134409	-1.474415	0.281986	-0.261128	-1.253239	0.692318	-0.423562	-1.203243	0.702425	-0.416475	-1.252174	0.648813	-0.416261	-1.203799	0.659945	-0.413659	-1.180584	0.482045	-0.375394	-1.188925	0.483813	-0.271877	-1.280128	0.392406	-0.413326	-1.234132	0.371195	-0.396379	-1.305624	0.341536	-0.412451	-1.261205	0.324373	-0.397139	-1.403874	0.136212	-0.389995	-1.386932	0.139507	-0.303782	-1.314425	0.035467	-0.424104	-1.300409	0.048057	-0.305424	-1.250018	0.059697	-0.359115	-1.493578	0.111914	-0.344974	-1.206958	1.396056	-0.084810	-1.141261	1.396850	-0.412229	
15	0.0700	-1.215176	0.920599	-0.142169	-1.183235	0.945200	-0.365176	-1.382622	0.951880	-0.217281	-1.372820	0.956188	-0.307411	-1.227294	0.699032	-0.073266	-1.174182	0.722430	-0.066650	-1.198937	0.660701	-0.071357	-1.144959	0.682106	-0.064325	-1.078231	0.499394	-0.081742	-1.051868	0.500272	-0.192484	-1.209680	0.447616	-0.098945	-1.179447	0.414645	-0.095283	-1.243384	0.413853	-0.110741	-1.216633	0.384357	-0.108523	-1.378241	0.263115	-0.174471	-1.336965	0.251726	-0.247592	-1.356431	0.141683	-0.100521	-1.296607	0.105249	-0.190608	-1.285087	0.120703	-0.130427	-1.432074	0.269973	-0.258377	-1.236046	0.693130	-0.422577	-1.185955	0.702409	-0.414673	-1.235826	0.649553	-0.415492	-1.187256	0.659866	-0.412108	-1.168079	0.480911	-0.374885	-1.176883	0.482237	-0.271141	-1.269734	0.393631	-0.413447	-1.224356	0.371230	-0.396401	-1.296439	0.343395	-0.412649	-1.252547	0.325066	-0.397287	-1.399389	0.140186	-0.391289	-1.382567	0.142801	-0.304996	-1.314955	0.035789	-0.424263	-1.300863	0.048675	-0.305606	-1.250914	0.059250	-0.359038	-1.489164	0.118413	-0.346375	-1.191121	1.397853	-0.082618	-1.123646	1.398821	-0.409749	
16	0.0750	-1.194967	0.921792	-0.140354	-1.163025	0.946433	-0.363294	-1.362431	0.951862	-0.215532	-1.352595	0.956324	-0.305641	-1.203812	0.702074	-0.072317	-1.151182	0.727207	-0.064964	-1.174176	0.664533	-0.070361	-1.120693	0.687747	-0.062700	-1.048586	0.505792	-0.080594	-1.022156	0.507680	-0.190766	-1.176351	0.447847	-0.097081	-1.144726	0.416633	-0.093286	-1.208206	0.412548	-0.108518	-1.180209	0.384656	-0.105999	-1.334784	0.254629	-0.171739	-1.293046	0.245153	-0.244467	-1.305839	0.135626	-0.096854	-1.244452	0.102362	-0.186734	-1.233703	0.118818	-0.126601	-1.388885	0.257860	-0.255501	-1.218329	0.694149	-0.421552	-1.168170	0.702656	-0.412783	-1.218903	0.650504	-0.414703	-1.170163	0.660049	-0.410489	-1.154880	0.480053	-0.374426	-1.164130	0.480870	-0.270434	-1.258608	0.395211	-0.413671	-1.213895	0.371620	-0.396513	-1.286517	0.345649	-0.412964	-1.243187	0.326150	-0.397549	-1.394083	0.144639	-0.392747	-1.377406	0.146567	-0.306391	-1.315185	0.036450	-0.424412	-1.300989	0.049600	-0.305779	-1.251590	0.058890	-0.358923	-1.483747	0.125726	-0.347952	-1.174994	1.399816	-0.080341	-1.105934	1.401040	-0.407094	
17	0.0800	-1.174507	0.923222	-0.138414	-1.142564	0.947903	-0.361287	-1.341990	0.952070	-0.213659	-1.332119	0.956688	-0.303747	-1.180403	0.705326	-0.071387	-1.128266	0.732105	-0.063386	-1.149592	0.668533	-0.069448	-1.096616	0.693482	-0.061227	-1.019478	0.512196	-0.079615	-0.993066	0.515076	-0.189233	-1.143268	0.447935	-0.095305	-1.110268	0.418614	-0.091412	-1.173126	0.411116	-0.106367	-1.143893	0.384938	-0.103589	-1.290729	0.246164	-0.168922	-1.248679	0.238742	-0.241332	-1.254586	0.129910	-0.093285	-1.191822	0.100120	-0.183032	-1.181910	0.117480	-0.122943	-1.344946	0.245717	-0.252520	-1.200102	0.695363	-0.420486	-1.149903	0.703161	-0.410818	-1.201411	0.651657	-0.413892	-1.152528	0.660491	-0.408814	-1.140947	0.479471	-0.374015	-1.150620	0.479716	-0.269752	-1.246699	0.397134	-0.413982	-1.202692	0.372358	-0.396700	-1.275804	0.348289	-0.413377	-1.233070	0.327620	-0.397911	-1.387893	0.149570	-0.394340	-1.371387	0.150807	-0.307935	-1.315027	0.037493	-0.424551	-1.300691	0.050865	-0.305945	-1.251949	0.058642	-0.358779	-1.477253	0.133840	-0.349674	-1.158596	1.401936	-0.077987	-1.088150	1.403492	-0.404276	
18	0.0850	-1.153838	0.924879	-0.136360	-1.121893	0.949601	-0.359167	-1.321340	0.952496	-0.211673	-1.311434	0.957270	-0.301741	-1.157109	0.708741	-0.070472	-1.105464	0.737056	-0.061921	-1.125234	0.672643	-0.068611	-1.072767	0.699232	-0.059905	-0.990986	0.518519	-0.078806	-0.964677	0.522360	-0.187890	-1.110525	0.447846	-0.093628	-1.076183	0.420545	-0.089666	-1.138245	0.409536	-0.104300	-1.107797	0.385178	-0.101302	-1.246206	0.237776	-0.166040	-1.203998	0.232536	-0.238201	-1.202842	0.124587	-0.089828	-1.138903	0.098560	-0.179513	-1.129891	0.116721	-0.119463	-1.300380	0.233620	-0.249454	-1.181387	0.696761	-0.419378	-1.131173	0.703916	-0.408794	-1.183366	0.652995	-0.413056	-1.134364	0.661183	-0.407094	-1.126243	0.479162	-0.373648	-1.136308	0.478776	-0.269090	-1.233960	0.399387	-0.414361	-1.190699	0.373435	-0.396949	-1.264248	0.351297	-0.413867	-1.222141	0.329463	-0.398352	-1.380764	0.154973	-0.396034	-1.364452	0.155513	-0.309596	-1.314387	0.038957	-0.424680	-1.299867	0.052504	-0.306105	-1.251885	0.058532	-0.358619	-1.469617	0.142731	-0.351507	-1.141951	1.404197	-0.075566	-1.070317	1.406152	-0.401310	
19	0.0900	-1.133004	0.926748	-0.134208	-1.101058	0.951510	-0.356947	-1.300526	0.953126	-0.209588	-1.290584	0.958057	-0.299635	-1.133971	0.712264	-0.069566	-1.082807	0.741990	-0.060572	-1.101153	0.676799	-0.067841	-1.049185	0.704915	-0.058737	-0.963182	0.524673	-0.078165	-0.937062	0.529431	-0.186738	-1.078216	0.447547	-0.092057	-1.042576	0.422381	-0.088052	-1.103668	0.407791	-0.102331	-1.072039	0.385346	-0.099146	-1.201363	0.229523	-0.163115	-1.159149	0.226572	-0.235093	-1.150796	0.119706	-0.086500	-1.085898	0.097703	-0.176188	-1.077842	0.116561	-0.116169	-1.255326	0.221645	-0.246330	-1.162210	0.698327	-0.418231	-1.112005	0.704911	-0.406727	-1.164787	0.654503	-0.412193	-1.115690	0.662115	-0.405342	-1.110739	0.479120	-0.373321	-1.121158	0.478052	-0.268445	-1.220353	0.401948	-0.414788	-1.177870	0.374834	-0.397243	-1.251807	0.354652	-0.414412	-1.210356	0.331663	-0.398853	-1.372645	0.160832	-0.397790	-1.356549	0.160669	-0.311335	-1.313163	0.040876	-0.424797	-1.298411	0.054541	-0.306261	-1.251286	0.058587	-0.358455	-1.460786	0.152355	-0.353411	-1.125085	1.406582	-0.073086	-1.052462	1.408993	-0.398212	
20	0.0950	-1.112056	0.928810	-0.131974	-1.080108	0.953614	-0.354645	-1.279596	0.953943	-0.207422	-1.269619	0.959034	-0.297448	-1.111029	0.715838	-0.068665	-1.060324	0.746833	-0.059339	-1.077396	0.680934	-0.067128	-1.025906	0.710444	-0.057718	-0.936131	0.530573	-0.077690	-0.910283	0.536190	-0.185779	-1.046433	0.447008	-0.090599	-1.009554	0.424078	-0.086573	-1.069497	0.405868	-0.100471	-1.036735	0.385418	-0.097128	-1.156358	0.221460	-0.160172	-1.114292	0.220887	-0.232025	-1.098652	0.115309	-0.083313	-1.033020	0.097562	-0.173064	-1.025971	0.117009	-0.113067	-1.209942	0.209868	-0.243175	-1.142602	0.700042	-0.417045	-1.092428	0.706133	-0.404634	-1.145698	0.656161	-0.411301	-1.096531	0.663273	-0.403571	-1.094413	0.479338	-0.373029	-1.105140	0.477541	-0.267810	-1.205847	0.404793	-0.415241	-1.164169	0.376536	-0.397566	-1.238445	0.358328	-0.414987	-1.197674	0.334198	-0.399391	-1.363495	0.167126	-0.399569	-1.347634	0.166252	-0.313113	-1.311249	0.043277	-0.424905	-1.296213	0.056994	-0.306415	-1.250034	0.058832	-0.358299	-1.450723	0.162655	-0.355346	-1.108027	1.409067	-0.070560	-1.034613	1.411984	-0.395002	
21	0.1000	-1.091042	0.931043	-0.129677	-1.059093	0.955888	-0.352279	-1.258601	0.954928	-0.205193	-1.248589	0.960178	-0.295198	-1.088321	0.719403	-0.067762	-1.038040	0.751509	-0.058221	-1.054002	0.684979	-0.066461	-1.002959	0.715735	-0.056844	-0.909887	0.536132	-0.077377	-0.884390	0.542539	-0.185010	-1.015262	0.446204	-0.089261	-0.977212	0.425593	-0.085230	-1.035834	0.403753	-0.098731	-1.001998	0.385367	-0.095255	-1.111363	0.213639	-0.157237	-1.069590	0.215510	-0.229016	-1.046625	0.111424	-0.080283	-0.980489	0.098129	-0.170150	-0.974492	0.118061	-0.110163	-1.164396	0.198366	-0.240018	-1.122597	0.701886	-0.415823	-1.072472	0.707565	-0.402532	-1.126127	0.657947	-0.410380	-1.076912	0.664640	-0.401795	-1.077246	0.479803	-0.372764	-1.088230	0.477237	-0.267180	-1.190418	0.407896	-0.415695	-1.149564	0.378518	-0.397901	-1.224135	0.362293	-0.415566	-1.184064	0.337039	-0.399944	-1.353281	0.173824	-0.401331	-1.337673	0.172232	-0.314890	-1.308538	0.046179	-0.425005	-1.293164	0.059876	-0.306571	-1.248007	0.059292	-0.358167	-1.439400	0.173558	-0.357266	-1.090810	1.411627	-0.067997	-1.016795	1.415089	-0.391700	
22	0.1050	-1.070013	0.933422	-0.127334	-1.038062	0.958309	-0.349868	-1.237591	0.956057	-0.202918	-1.227543	0.961466	-0.292902	-1.065877	0.722897	-0.066852	-1.015976	0.755944	-0.057213	-1.031008	0.688864	-0.065826	-0.980368	0.720703	-0.056107	-0.884493	0.541272	-0.077220	-0.859423	0.548389	-0.184428	-0.984780	0.445114	-0.088050	-0.945640	0.426888	-0.084025	-1.002774	0.401439	-0.097123	-0.967933	0.385171	-0.093532	-1.066552	0.206110	-0.154336	-1.025211	0.210466	-0.226088	-0.994937	0.108072	-0.077423	-0.928527	0.099385	-0.167449	-0.923617	0.119699	-0.107461	-1.118867	0.187210	-0.236890	-1.102230	0.703838	-0.414567	-1.052173	0.709188	-0.400437	-1.106105	0.659839	-0.409428	-1.056863	0.666199	-0.400026	-1.059230	0.480502	-0.372521	-1.070412	0.477135	-0.266549	-1.174051	0.411224	-0.416128	-1.134033	0.380751	-0.398228	-1.208858	0.366512	-0.416123	-1.169499	0.340158	-0.400489	-1.341982	0.180890	-0.403035	-1.326635	0.178571	-0.316624	-1.304921	0.049593	-0.425097	-1.289154	0.063185	-0.306733	-1.245084	0.059987	-0.358072	-1.426809	0.184978	-0.359127	-1.073465	1.414234	-0.065409	-0.999034	1.418271	-0.388328	
23	0.1100	-1.049017	0.935919	-0.124966	-1.017064	0.960846	-0.347432	-1.216614	0.957303	-0.200619	-1.206530	0.962871	-0.290582	-1.043727	0.726258	-0.065928	-0.994150	0.760068	-0.056311	-1.008441	0.692523	-0.065212	-0.958152	0.725270	-0.055499	-0.859977	0.545921	-0.077211	-0.835405	0.553661	-0.184029	-0.955055	0.443725	-0.086969	-0.914915	0.427927	-0.082958	-0.970404	0.398923	-0.095656	-0.934639	0.384808	-0.091963	-1.022104	0.198913	-0.151496	-0.981324	0.205772	-0.223259	-0.943810	0.105260	-0.074745	-0.877353	0.101292	-0.164967	-0.873556	0.121888	-0.104966	-1.073538	0.176465	-0.233823	-1.081538	0.705873	-0.413280	-1.031562	0.710982	-0.398363	-1.085663	0.661812	-0.408445	-1.036414	0.667929	-0.398277	-1.040361	0.481420	-0.372291	-1.051677	0.477227	-0.265912	-1.156737	0.414745	-0.416516	-1.117559	0.383207	-0.398532	-1.192603	0.370949	-0.416632	-1.153963	0.343519	-0.401004	-1.329580	0.188281	-0.404643	-1.314501	0.185226	-0.318278	-1.300291	0.053519	-0.425186	-1.284076	0.066914	-0.306907	-1.241143	0.060935	-0.358029	-1.412953	0.196818	-0.360883	-1.056026	1.416856	-0.062803	-0.981353	1.421491	-0.384907	
24	0.1150	-1.028099	0.938501	-0.122593	-0.996145	0.963470	-0.344991	-1.195716	0.958637	-0.198314	-1.185596	0.964363	-0.288255	-1.021891	0.729425	-0.064984	-0.972575	0.763814	-0.055506	-0.986321	0.695890	-0.064607	-0.936321	0.729363	-0.055007	-0.836354	0.550017	-0.077343	-0.812345	0.558285	-0.183806	-0.926144	0.442026	-0.086023	-0.885101	0.428680	-0.082027	-0.938802	0.396203	-0.094337	-0.902200	0.384261	-0.090551	-0.978195	0.192084	-0.148745	-0.938092	0.201438	-0.220551	-0.893465	0.102981	-0.072261	-0.827180	0.103795	-0.162708	-0.824510	0.124581	-0.102680	-1.028599	0.166190	-0.230848	-1.060555	0.707967	-0.411967	-1.010673	0.712925	-0.396325	-1.064834	0.663843	-0.407432	-1.015596	0.669807	-0.396556	-1.020642	0.482540	-0.372069	-1.032022	0.477503	-0.265261	-1.138478	0.418424	-0.416835	-1.100134	0.385854	-0.398794	-1.175366	0.375562	-0.417068	-1.137446	0.347086	-0.401467	-1.316072	0.195946	-0.406119	-1.301259	0.192146	-0.319813	-1.294545	0.057946	-0.425273	-1.277831	0.071043	-0.307098	-1.236067	0.062150	-0.358050	-1.397848	0.208969	-0.362492	-1.038523	1.419462	-0.060191	-0.963773	1.424708	-0.381460	
25	0.1200	-1.007301	0.941137	-0.120232	-0.975345	0.966147	-0.342562	-1.174937	0.960027	-0.196021	-1.164781	0.965912	-0.285942	-1.000386	0.732340	-0.064015	-0.951261	0.767121	-0.054788	-0.964659	0.698909	-0.063998	-0.914881	0.732918	-0.054617	-0.813622	0.553510	-0.077606	-0.790238	0.562207	-0.183751	-0.898091	0.440016	-0.085214	-0.856246	0.429124	-0.081232	-0.908034	0.393284	-0.093173	-0.870688	0.383515	-0.089299	-0.934998	0.185649	-0.146110	-0.895675	0.197463	-0.217984	-0.844114	0.101217	-0.069982	-0.778205	0.106827	-0.160674	-0.776667	0.127716	-0.100607	-0.984233	0.156434	-0.227996	-1.039314	0.710095	-0.410629	-0.989538	0.714991	-0.394335	-1.043646	0.665905	-0.406389	-0.994439	0.671812	-0.394875	-1.000081	0.483844	-0.371845	-1.011453	0.477952	-0.264593	-1.119280	0.422226	-0.417064	-1.081757	0.388660	-0.399001	-1.157153	0.380312	-0.417409	-1.119947	0.350822	-0.401860	-1.301457	0.203832	-0.407428	-1.286904	0.199276	-0.321196	-1.287583	0.062853	-0.425364	-1.270323	0.075543	-0.307312	-1.229741	0.063640	-0.358148	-1.381524	0.221317	-0.363911	-1.020987	1.422016	-0.057579	-0.946313	1.427882	-0.378006	
26	0.1250	-0.986658	0.943791	-0.117902	-0.954701	0.968842	-0.340164	-1.154313	0.961439	-0.193759	-1.144122	0.967482	-0.283658	-0.979220	0.734951	-0.063015	-0.930211	0.769939	-0.054145	-0.943460	0.701527	-0.063374	-0.893830	0.735882	-0.054316	-0.791767	0.556362	-0.077990	-0.769063	0.565389	-0.183854	-0.870923	0.437699	-0.084542	-0.828382	0.429239	-0.080570	-0.878152	0.390174	-0.092168	-0.840159	0.382560	-0.088207	-0.892676	0.179625	-0.143615	-0.854219	0.193841	-0.215578	-0.795958	0.099934	-0.067920	-0.730614	0.110301	-0.158870	-0.730198	0.131215	-0.098751	-0.940624	0.147237	-0.225295	-1.017846	0.712231	-0.409270	-0.968184	0.717157	-0.392401	-1.022130	0.667975	-0.405316	-0.972970	0.673918	-0.393240	-0.978693	0.485313	-0.371613	-0.989979	0.478565	-0.263902	-1.099159	0.426118	-0.417184	-1.062434	0.391592	-0.399139	-1.137975	0.385157	-0.417632	-1.101469	0.354687	-0.402166	-1.285745	0.211877	-0.408543	-1.271436	0.206555	-0.322399	-1.279312	0.068206	-0.425462	-1.261466	0.080373	-0.307555	-1.222061	0.065408	-0.358335	-1.364023	0.233737	-0.365103	-1.003445	1.424484	-0.054974	-0.928985	1.430972	-0.374566	
27	0.1300	-0.966200	0.946428	-0.115617	-0.934241	0.971520	-0.337811	-1.133874	0.962839	-0.191541	-1.123648	0.969040	-0.281420	-0.958396	0.737209	-0.061980	-0.909426	0.772224	-0.053564	-0.922716	0.703699	-0.062726	-0.873158	0.738213	-0.054087	-0.770758	0.558548	-0.078484	-0.748784	0.567806	-0.184105	-0.844657	0.435084	-0.084009	-0.801524	0.429015	-0.080041	-0.849193	0.386884	-0.091327	-0.810653	0.381389	-0.087278	-0.851383	0.174021	-0.141285	-0.813862	0.190556	-0.213353	-0.749183	0.099088	-0.066084	-0.684571	0.114121	-0.157299	-0.685256	0.134992	-0.097118	-0.897945	0.138629	-0.222774	-0.996176	0.714349	-0.407893	-0.946639	0.719396	-0.390532	-1.000311	0.670027	-0.404216	-0.951214	0.676101	-0.391656	-0.956498	0.486929	-0.371365	-0.967618	0.479330	-0.263183	-1.078133	0.430064	-0.417176	-1.042177	0.394619	-0.399196	-1.117851	0.390055	-0.417720	-1.082024	0.358643	-0.402370	-1.268951	0.220018	-0.409438	-1.254863	0.213919	-0.323395	-1.269647	0.073961	-0.425573	-1.251183	0.085485	-0.307834	-1.212930	0.067450	-0.358622	-1.345392	0.246107	-0.366034	-0.985920	1.426829	-0.052380	-0.911801	1.433940	-0.371157	
28	0.1350	-0.945949	0.949012	-0.113390	-0.913989	0.974144	-0.335517	-1.113641	0.964192	-0.189381	-1.103380	0.970549	-0.279239	-0.937910	0.739072	-0.060907	-0.888899	0.773944	-0.053031	-0.902414	0.705390	-0.062046	-0.852851	0.739880	-0.053912	-0.750551	0.560058	-0.079077	-0.729352	0.569452	-0.184493	-0.819291	0.432189	-0.083611	-0.775670	0.428446	-0.079641	-0.821183	0.383429	-0.090648	-0.782193	0.379999	-0.086510	-0.811258	0.168836	-0.139142	-0.774727	0.187584	-0.211327	-0.703958	0.098624	-0.064485	-0.640224	0.118177	-0.155966	-0.641973	0.138948	-0.095713	-0.856363	0.130630	-0.220456	-0.974326	0.716424	-0.406502	-0.924922	0.721683	-0.388731	-0.978212	0.672038	-0.403089	-0.929195	0.678338	-0.390128	-0.933518	0.488676	-0.371093	-0.944393	0.480237	-0.262431	-1.056228	0.434033	-0.417026	-1.021002	0.397710	-0.399162	-1.096805	0.394966	-0.417657	-1.061628	0.362651	-0.402461	-1.251092	0.228187	-0.410094	-1.237196	0.221301	-0.324165	-1.258513	0.080063	-0.425701	-1.239406	0.090819	-0.308155	-1.202260	0.069758	-0.359017	-1.325689	0.258298	-0.366677	-0.968434	1.429016	-0.049801	-0.894764	1.436748	-0.367795	
29	0.1400	-0.925919	0.951505	-0.111230	-0.893957	0.976678	-0.333290	-1.093630	0.965460	-0.187289	-1.083334	0.971974	-0.277126	-0.917751	0.740507	-0.059793	-0.868622	0.775076	-0.052530	-0.882532	0.706572	-0.061327	-0.832888	0.740867	-0.053776	-0.731090	0.560893	-0.079757	-0.710705	0.570336	-0.185005	-0.794811	0.429034	-0.083346	-0.750801	0.427534	-0.079368	-0.794130	0.379828	-0.090132	-0.754786	0.378390	-0.085904	-0.772428	0.164061	-0.137208	-0.736922	0.184893	-0.209518	-0.660432	0.098475	-0.063132	-0.597695	0.122353	-0.154876	-0.600456	0.142975	-0.094543	-0.816030	0.123247	-0.218365	-0.952314	0.718431	-0.405099	-0.903051	0.723990	-0.387002	-0.955849	0.673986	-0.401937	-0.906930	0.680603	-0.388657	-0.909781	0.490535	-0.370791	-0.920330	0.481276	-0.261644	-1.033475	0.437994	-0.416721	-0.998931	0.400836	-0.399029	-1.074864	0.399851	-0.417431	-1.040300	0.366676	-0.402429	-1.232192	0.236315	-0.410498	-1.218449	0.228631	-0.324695	-1.245845	0.086448	-0.425851	-1.226077	0.096311	-0.308524	-1.189976	0.072315	-0.359526	-1.304972	0.270185	-0.367010	-0.951002	1.431010	-0.047239	-0.877878	1.439360	-0.364493	
30	0.1450	-0.906118	0.953871	-0.109145	-0.874154	0.979085	-0.331138	-1.073847	0.966609	-0.185270	-1.063517	0.973277	-0.275087	-0.897901	0.741486	-0.058637	-0.848583	0.775610	-0.052044	-0.863040	0.707229	-0.060564	-0.813243	0.741169	-0.053659	-0.712305	0.561070	-0.080515	-0.692772	0.570483	-0.185629	-0.771188	0.425645	-0.083210	-0.726884	0.426287	-0.079220	-0.768028	0.376099	-0.089775	-0.728421	0.376567	-0.085459	-0.734999	0.159677	-0.135500	-0.700540	0.182448	-0.207941	-0.618729	0.098569	-0.062036	-0.557084	0.126524	-0.154037	-0.560792	0.146963	-0.093619	-0.777085	0.116480	-0.216517	-0.930149	0.720348	-0.403685	-0.881037	0.726294	-0.385345	-0.933238	0.675850	-0.400760	-0.884434	0.682874	-0.387242	-0.885316	0.492493	-0.370451	-0.895460	0.482439	-0.260817	-1.009906	0.441918	-0.416252	-0.975989	0.403970	-0.398793	-1.052060	0.404674	-0.417033	-1.018064	0.370681	-0.402270	-1.212274	0.244330	-0.410642	-1.198639	0.235839	-0.324977	-1.231585	0.093043	-0.426029	-1.211152	0.101887	-0.308945	-1.176013	0.075099	-0.360154	-1.283304	0.281647	-0.367017	-0.933637	1.432777	-0.044692	-0.861137	1.441745	-0.361260	
31	0.1500	-0.886543	0.956076	-0.107137	-0.854578	0.981329	-0.329065	-1.054291	0.967601	-0.183329	-1.043926	0.974424	-0.273125	-0.878339	0.741992	-0.057439	-0.828765	0.775544	-0.051559	-0.843901	0.707354	-0.059757	-0.793885	0.740795	-0.053544	-0.694119	0.560615	-0.081337	-0.675469	0.569932	-0.186351	-0.748381	0.422053	-0.083196	-0.703869	0.424716	-0.079195	-0.742858	0.372267	-0.089574	-0.703073	0.374537	-0.085173	-0.699064	0.155662	-0.134035	-0.665655	0.180206	-0.206613	-0.578955	0.098828	-0.061205	-0.518468	0.130563	-0.153455	-0.523042	0.150797	-0.092950	-0.739653	0.110318	-0.214928	-0.907839	0.722150	-0.402262	-0.858889	0.728569	-0.383756	-0.910387	0.677610	-0.399559	-0.861716	0.685128	-0.385880	-0.860157	0.494535	-0.370067	-0.869818	0.483719	-0.259947	-0.985555	0.445782	-0.415614	-0.952203	0.407089	-0.398450	-1.028426	0.409400	-0.416458	-0.994946	0.374635	-0.401979	-1.191361	0.252159	-0.410523	-1.177784	0.242853	-0.325006	-1.215691	0.099768	-0.426238	-1.194594	0.107473	-0.309422	-1.160319	0.078080	-0.360904	-1.260744	0.292565	-0.366688	-0.916345	1.434285	-0.042160	-0.844535	1.443873	-0.358106	
32	0.1550	-0.867185	0.958085	-0.105208	-0.835219	0.983378	-0.327069	-1.034952	0.968404	-0.181465	-1.024552	0.975380	-0.271240	-0.859037	0.742015	-0.056201	-0.809147	0.774889	-0.051057	-0.825073	0.706949	-0.058904	-0.774780	0.739766	-0.053416	-0.676446	0.559567	-0.082214	-0.658708	0.568733	-0.187158	-0.726337	0.418290	-0.083299	-0.681695	0.422840	-0.079291	-0.718588	0.368354	-0.089522	-0.678703	0.372309	-0.085046	-0.664696	0.151984	-0.132823	-0.632327	0.178122	-0.205545	-0.541189	0.099169	-0.060648	-0.481902	0.134345	-0.153141	-0.487243	0.154361	-0.092549	-0.703840	0.104745	-0.213608	-0.885383	0.723820	-0.400830	-0.836608	0.730793	-0.382231	-0.887300	0.679248	-0.398335	-0.838784	0.687345	-0.384568	-0.834336	0.496649	-0.369631	-0.843442	0.485110	-0.259033	-0.960458	0.449561	-0.414803	-0.927603	0.410172	-0.397998	-1.003996	0.413997	-0.415704	-0.970974	0.378508	-0.401557	-1.169475	0.259732	-0.410144	-1.155901	0.249606	-0.324787	-1.198127	0.106540	-0.426483	-1.176378	0.112988	-0.309958	-1.142854	0.081226	-0.361774	-1.237347	0.302830	-0.366023	-0.899128	1.435505	-0.039639	-0.828057	1.445719	-0.355034	
33	0.1600	-0.848029	0.959866	-0.103352	-0.816061	0.985199	-0.325148	-1.015814	0.968984	-0.179675	-1.005380	0.976113	-0.269430	-0.839961	0.741553	-0.054924	-0.789707	0.773665	-0.050524	-0.806510	0.706025	-0.058008	-0.755891	0.738113	-0.053258	-0.659193	0.557972	-0.083134	-0.642395	0.566949	-0.188037	-0.704996	0.414393	-0.083509	-0.660290	0.420681	-0.079504	-0.695175	0.364385	-0.089610	-0.655259	0.369896	-0.085075	-0.631950	0.148610	-0.131877	-0.600599	0.176148	-0.204748	-0.505487	0.099512	-0.060372	-0.447418	0.137747	-0.153104	-0.453414	0.157544	-0.092428	-0.669736	0.099735	-0.212562	-0.862780	0.725337	-0.399390	-0.814193	0.732942	-0.380763	-0.863979	0.680750	-0.397088	-0.815639	0.689505	-0.383298	-0.807890	0.498827	-0.369138	-0.816371	0.486608	-0.258070	-0.934651	0.453236	-0.413819	-0.902219	0.413201	-0.397436	-0.978805	0.418436	-0.414773	-0.946174	0.382275	-0.401004	-1.146638	0.266977	-0.409512	-1.133004	0.256028	-0.324326	-1.178869	0.113271	-0.426766	-1.156487	0.118355	-0.310553	-1.123590	0.084498	-0.362761	-1.213165	0.312341	-0.365025	-0.881985	1.436409	-0.037125	-0.811688	1.447259	-0.352046	
34	0.1650	-0.829049	0.961389	-0.101564	-0.797080	0.986761	-0.323294	-0.996853	0.969309	-0.177952	-0.986384	0.976591	-0.267687	-0.821077	0.740614	-0.053613	-0.770419	0.771901	-0.049945	-0.788161	0.704601	-0.057071	-0.737178	0.735879	-0.053057	-0.642264	0.555886	-0.084088	-0.626429	0.564649	-0.188974	-0.684285	0.410397	-0.083818	-0.639573	0.418263	-0.079834	-0.672567	0.360387	-0.089831	-0.632679	0.367313	-0.085258	-0.600863	0.145502	-0.131201	-0.570496	0.174238	-0.204231	-0.471884	0.099777	-0.060384	-0.415027	0.140653	-0.153353	-0.421549	0.160240	-0.092600	-0.637412	0.095258	-0.211793	-0.840019	0.726686	-0.397940	-0.791638	0.734999	-0.379344	-0.840420	0.682102	-0.395816	-0.792280	0.691592	-0.382064	-0.780854	0.501062	-0.368580	-0.788646	0.488212	-0.257057	-0.908171	0.456791	-0.412664	-0.876081	0.416163	-0.396766	-0.952886	0.422691	-0.413667	-0.920575	0.385912	-0.400325	-1.122866	0.273825	-0.408642	-1.109107	0.262056	-0.323635	-1.157903	0.119870	-0.427087	-1.134913	0.123496	-0.311207	-1.102509	0.087852	-0.363859	-1.188239	0.321005	-0.363707	-0.864907	1.436974	-0.034612	-0.795408	1.448476	-0.349143	
35	0.1700	-0.810217	0.962627	-0.099834	-0.778246	0.988038	-0.321499	-0.978038	0.969352	-0.176288	-0.967536	0.976786	-0.266003	-0.802343	0.739210	-0.052271	-0.751257	0.769632	-0.049309	-0.769972	0.702707	-0.056100	-0.718599	0.733114	-0.052799	-0.625562	0.553367	-0.085065	-0.610713	0.561909	-0.189955	-0.664131	0.406341	-0.084216	-0.619459	0.415615	-0.080277	-0.650703	0.356383	-0.090175	-0.610892	0.364576	-0.085593	-0.571455	0.142623	-0.130801	-0.542032	0.172346	-0.203999	-0.440391	0.099890	-0.060690	-0.384721	0.142959	-0.153898	-0.391627	0.162355	-0.093079	-0.606922	0.091281	-0.211298	-0.817089	0.727853	-0.396478	-0.768934	0.736946	-0.377964	-0.816617	0.683294	-0.394519	-0.768704	0.693590	-0.380855	-0.753265	0.503347	-0.367950	-0.760312	0.489921	-0.255991	-0.881051	0.460210	-0.411345	-0.849221	0.419046	-0.395989	-0.926271	0.426739	-0.412395	-0.894204	0.389400	-0.399523	-1.098170	0.280212	-0.407549	-1.084218	0.267629	-0.322730	-1.135224	0.126252	-0.427448	-1.111656	0.128337	-0.311916	-1.079603	0.091244	-0.365058	-1.162602	0.328743	-0.362086	-0.847882	1.437179	-0.032093	-0.779191	1.449356	-0.346321	
36	0.1750	-0.791496	0.963555	-0.098151	-0.759524	0.989007	-0.319751	-0.959336	0.969088	-0.174669	-0.948800	0.976673	-0.264364	-0.783720	0.737364	-0.050903	-0.732190	0.766904	-0.048603	-0.751888	0.700375	-0.055099	-0.700112	0.729875	-0.052475	-0.608989	0.550478	-0.086057	-0.595144	0.558808	-0.190967	-0.644453	0.402261	-0.084693	-0.599858	0.412767	-0.080830	-0.629518	0.352400	-0.090629	-0.589824	0.361702	-0.086075	-0.543732	0.139934	-0.130675	-0.515204	0.170429	-0.204055	-0.411001	0.099783	-0.061291	-0.356477	0.144572	-0.154748	-0.363610	0.163802	-0.093874	-0.578300	0.087768	-0.211070	-0.793977	0.728829	-0.395001	-0.746069	0.738767	-0.376610	-0.792561	0.684319	-0.393193	-0.744904	0.695487	-0.379662	-0.725160	0.505681	-0.367241	-0.731412	0.491735	-0.254868	-0.853326	0.463481	-0.409866	-0.821669	0.421843	-0.395108	-0.898989	0.430559	-0.410966	-0.867085	0.392722	-0.398606	-1.072559	0.286076	-0.406253	-1.058346	0.272691	-0.321629	-1.110834	0.132330	-0.427845	-1.086723	0.132809	-0.312676	-1.054877	0.094627	-0.366348	-1.136276	0.335485	-0.360184	-0.830896	1.437009	-0.029563	-0.763013	1.449888	-0.343574	
37	0.1800	-0.772849	0.964155	-0.096499	-0.740875	0.989646	-0.318033	-0.940707	0.968493	-0.173082	-0.930136	0.976231	-0.262757	-0.765162	0.735102	-0.049515	-0.713188	0.763763	-0.047818	-0.733853	0.697646	-0.054076	-0.681672	0.726225	-0.052074	-0.592450	0.547285	-0.087054	-0.579628	0.555426	-0.191998	-0.625173	0.398193	-0.085239	-0.580678	0.409748	-0.081492	-0.608942	0.348461	-0.091181	-0.569396	0.358710	-0.086700	-0.517683	0.137401	-0.130821	-0.489997	0.168450	-0.204399	-0.383688	0.099400	-0.062190	-0.330253	0.145417	-0.155908	-0.337447	0.164513	-0.094996	-0.551566	0.084681	-0.211097	-0.770666	0.729604	-0.393506	-0.723031	0.740451	-0.375271	-0.768242	0.685172	-0.391836	-0.720873	0.697274	-0.378473	-0.696576	0.508062	-0.366445	-0.701993	0.493656	-0.253686	-0.825027	0.466596	-0.408239	-0.793453	0.424549	-0.394123	-0.871070	0.434134	-0.409390	-0.839244	0.395868	-0.397579	-1.046036	0.291359	-0.404776	-1.031493	0.277192	-0.320355	-1.084743	0.138025	-0.428275	-1.060125	0.136852	-0.313480	-1.028343	0.097954	-0.367712	-1.109272	0.341174	-0.358030	-0.813928	1.436451	-0.027013	-0.746845	1.450065	-0.340898	
38	0.1850	-0.754232	0.964409	-0.094862	-0.722257	0.989940	-0.316331	-0.922108	0.967551	-0.171511	-0.911504	0.975442	-0.261166	-0.746628	0.732458	-0.048112	-0.694219	0.760264	-0.046949	-0.715814	0.694563	-0.053039	-0.663238	0.722228	-0.051592	-0.575854	0.543851	-0.088049	-0.564069	0.551841	-0.193035	-0.606209	0.394172	-0.085842	-0.561832	0.406589	-0.082256	-0.588905	0.344590	-0.091821	-0.549527	0.355620	-0.087464	-0.493286	0.134992	-0.131231	-0.466387	0.166378	-0.205026	-0.358409	0.098693	-0.063383	-0.305997	0.145435	-0.157382	-0.313077	0.164434	-0.096450	-0.526720	0.081985	-0.211367	-0.747139	0.730176	-0.391987	-0.699805	0.741988	-0.373933	-0.743651	0.685851	-0.390442	-0.696602	0.698941	-0.377275	-0.667552	0.510489	-0.365553	-0.672103	0.495688	-0.252439	-0.796185	0.469546	-0.406473	-0.764605	0.427161	-0.393038	-0.842539	0.437448	-0.407680	-0.810704	0.398826	-0.396449	-1.018600	0.296010	-0.403144	-1.003659	0.281089	-0.318930	-1.056968	0.143263	-0.428733	-1.031881	0.140411	-0.314317	-1.000020	0.101180	-0.369133	-1.081591	0.345766	-0.355655	-0.796957	1.435498	-0.024436	-0.730658	1.449886	-0.338283	
39	0.1900	-0.735602	0.964307	-0.093223	-0.703625	0.989876	-0.314627	-0.903497	0.966249	-0.169938	-0.892858	0.974292	-0.259572	-0.728074	0.729469	-0.046699	-0.675251	0.756461	-0.045988	-0.697717	0.691173	-0.051994	-0.644769	0.717954	-0.051022	-0.559118	0.540239	-0.089033	-0.548382	0.548128	-0.194067	-0.587488	0.390230	-0.086490	-0.543235	0.403321	-0.083120	-0.569339	0.340810	-0.092533	-0.530141	0.352450	-0.088360	-0.470505	0.132678	-0.131897	-0.444336	0.164189	-0.205931	-0.335109	0.097628	-0.064864	-0.283648	0.144589	-0.159171	-0.290429	0.163530	-0.098238	-0.503747	0.079646	-0.211861	-0.723382	0.730543	-0.390440	-0.676378	0.743371	-0.372584	-0.718780	0.686356	-0.389008	-0.672086	0.700486	-0.376057	-0.638127	0.512965	-0.364558	-0.641791	0.497833	-0.251123	-0.766832	0.472325	-0.404578	-0.735154	0.429680	-0.391853	-0.813421	0.440489	-0.405850	-0.781489	0.401591	-0.395221	-0.990247	0.299985	-0.401380	-0.974842	0.284344	-0.317377	-1.027533	0.147979	-0.429211	-1.002014	0.143445	-0.315178	-0.969938	0.104262	-0.370592	-1.053223	0.349228	-0.353094	-0.779959	1.434148	-0.021826	-0.714421	1.449353	-0.335721	
40	0.1950	-0.716916	0.963840	-0.091565	-0.684938	0.989450	-0.312902	-0.884829	0.964576	-0.168345	-0.874156	0.972773	-0.257959	-0.709458	0.726175	-0.045282	-0.656254	0.752410	-0.044934	-0.679513	0.687526	-0.050949	-0.626226	0.713467	-0.050364	-0.542165	0.536507	-0.089999	-0.532487	0.544356	-0.195082	-0.568937	0.386396	-0.087173	-0.524810	0.399973	-0.084076	-0.550177	0.337141	-0.093305	-0.511163	0.349222	-0.089379	-0.449297	0.130437	-0.132806	-0.423803	0.161865	-0.207101	-0.313720	0.096185	-0.066623	-0.263132	0.142860	-0.161268	-0.269428	0.161784	-0.100358	-0.482619	0.077631	-0.212558	-0.699381	0.730706	-0.388858	-0.652738	0.744597	-0.371209	-0.693622	0.686691	-0.387526	-0.647320	0.701904	-0.374804	-0.608343	0.515492	-0.363449	-0.611108	0.500094	-0.249733	-0.736997	0.474927	-0.402567	-0.705132	0.432108	-0.390568	-0.783741	0.443246	-0.403912	-0.751623	0.404160	-0.393903	-0.960970	0.303245	-0.399512	-0.945039	0.286929	-0.315721	-0.996468	0.152118	-0.429700	-0.970551	0.145922	-0.316048	-0.938134	0.107160	-0.372066	-1.024152	0.351541	-0.350385	-0.762909	1.432404	-0.019175	-0.698106	1.448470	-0.333202	
41	0.2000	-0.698131	0.963008	-0.089868	-0.666152	0.988658	-0.311139	-0.866063	0.962531	-0.166714	-0.855355	0.970882	-0.256308	-0.690744	0.722618	-0.043866	-0.637197	0.748167	-0.043787	-0.661159	0.683672	-0.049909	-0.607572	0.708835	-0.049616	-0.524930	0.532708	-0.090939	-0.516314	0.540588	-0.196069	-0.550495	0.382698	-0.087878	-0.506486	0.396574	-0.085118	-0.531357	0.333602	-0.094125	-0.492528	0.345956	-0.090514	-0.429610	0.128254	-0.133941	-0.404736	0.159400	-0.208523	-0.294165	0.094356	-0.068647	-0.244372	0.140253	-0.163666	-0.249996	0.159199	-0.102801	-0.463291	0.075911	-0.213438	-0.675127	0.730672	-0.387233	-0.628878	0.745666	-0.369796	-0.668176	0.686863	-0.385991	-0.622302	0.703196	-0.373504	-0.578242	0.518072	-0.362219	-0.580110	0.502472	-0.248262	-0.706713	0.477348	-0.400452	-0.674571	0.434447	-0.389185	-0.753523	0.445711	-0.401882	-0.721132	0.406530	-0.392497	-0.930762	0.305759	-0.397563	-0.914249	0.288822	-0.313984	-0.963808	0.155636	-0.430188	-0.937526	0.147819	-0.316912	-0.904652	0.109841	-0.373533	-0.994355	0.352695	-0.347564	-0.745783	1.430274	-0.016480	-0.681686	1.447248	-0.330717	
42	0.2050	-0.679210	0.961813	-0.088115	-0.647228	0.987503	-0.309319	-0.847160	0.960114	-0.165028	-0.836417	0.968620	-0.254601	-0.671895	0.718844	-0.042453	-0.618055	0.743786	-0.042548	-0.642614	0.679658	-0.048880	-0.588776	0.704119	-0.048780	-0.507360	0.528891	-0.091847	-0.499805	0.536878	-0.197019	-0.532108	0.379159	-0.088596	-0.488208	0.393149	-0.086238	-0.512827	0.330211	-0.094978	-0.474175	0.342670	-0.091753	-0.411385	0.126119	-0.135284	-0.387080	0.156796	-0.210179	-0.276362	0.092149	-0.070917	-0.227286	0.136792	-0.166348	-0.232052	0.155797	-0.105551	-0.445711	0.074462	-0.214474	-0.650614	0.730449	-0.385560	-0.604794	0.746578	-0.368330	-0.642445	0.686880	-0.384394	-0.597035	0.704363	-0.372143	-0.547872	0.520707	-0.360857	-0.548855	0.504970	-0.246705	-0.676013	0.479586	-0.398245	-0.643508	0.436703	-0.387701	-0.722794	0.447876	-0.399771	-0.690044	0.408703	-0.391008	-0.899618	0.307507	-0.395559	-0.882472	0.290011	-0.312190	-0.929598	0.158499	-0.430664	-0.902979	0.149128	-0.317755	-0.869546	0.112277	-0.374966	-0.963804	0.352695	-0.344670	-0.728556	1.427772	-0.013735	-0.665136	1.445699	-0.328258	
43	0.2100	-0.660116	0.960265	-0.086289	-0.628134	0.985996	-0.307427	-0.828086	0.957333	-0.163270	-0.817308	0.965996	-0.252822	-0.652884	0.714897	-0.041047	-0.598802	0.739320	-0.041220	-0.623848	0.675533	-0.047865	-0.569813	0.699377	-0.047860	-0.489412	0.525098	-0.092717	-0.482912	0.533271	-0.197922	-0.513733	0.375799	-0.089314	-0.469928	0.389723	-0.087425	-0.494542	0.326983	-0.095851	-0.456056	0.339384	-0.093085	-0.394561	0.124028	-0.136814	-0.370775	0.154062	-0.212048	-0.260220	0.089582	-0.073409	-0.211788	0.132524	-0.169294	-0.215519	0.151622	-0.108587	-0.429810	0.073263	-0.215643	-0.625845	0.730048	-0.383831	-0.580486	0.747339	-0.366800	-0.616437	0.686753	-0.382728	-0.571530	0.705409	-0.370710	-0.517283	0.523399	-0.359355	-0.517405	0.507586	-0.245053	-0.644934	0.481636	-0.395957	-0.611985	0.438878	-0.386115	-0.691584	0.449738	-0.397595	-0.658393	0.410681	-0.389438	-0.867536	0.308473	-0.393521	-0.849713	0.290491	-0.310357	-0.893889	0.160688	-0.431113	-0.866958	0.149851	-0.318560	-0.832879	0.114446	-0.376340	-0.932474	0.351556	-0.341740	-0.711210	1.424916	-0.010937	-0.648436	1.443841	-0.325816	
44	0.2150	-0.640824	0.958378	-0.084376	-0.608840	0.984150	-0.305445	-0.808813	0.954201	-0.161425	-0.797999	0.963023	-0.250956	-0.633689	0.710820	-0.039651	-0.579420	0.734817	-0.039809	-0.604837	0.671342	-0.046866	-0.550662	0.694662	-0.046860	-0.471062	0.521362	-0.093541	-0.465603	0.529804	-0.198770	-0.495340	0.372634	-0.090023	-0.451616	0.386318	-0.088669	-0.476465	0.323933	-0.096732	-0.438132	0.336118	-0.094496	-0.379071	0.121984	-0.138508	-0.355757	0.151217	-0.214107	-0.245649	0.086688	-0.076097	-0.197791	0.127513	-0.172477	-0.200319	0.146731	-0.111883	-0.415515	0.072297	-0.216920	-0.600828	0.729485	-0.382039	-0.555962	0.747955	-0.365195	-0.590172	0.686496	-0.380984	-0.545801	0.706341	-0.369194	-0.486529	0.526148	-0.357704	-0.485826	0.510318	-0.243302	-0.613519	0.483496	-0.393599	-0.580047	0.440979	-0.384425	-0.659927	0.451293	-0.395364	-0.626217	0.412469	-0.387790	-0.834522	0.308654	-0.391471	-0.815986	0.290266	-0.308505	-0.856742	0.162194	-0.431522	-0.829520	0.150002	-0.319307	-0.794724	0.116336	-0.377631	-0.900341	0.349303	-0.338809	-0.693726	1.421729	-0.008086	-0.631571	1.441693	-0.323385	
45	0.2200	-0.621313	0.956170	-0.082362	-0.589328	0.981984	-0.303363	-0.789321	0.950737	-0.159479	-0.778472	0.959719	-0.248989	-0.614295	0.706658	-0.038264	-0.559898	0.730321	-0.038323	-0.585569	0.667128	-0.045885	-0.531312	0.690021	-0.045787	-0.452297	0.517712	-0.094314	-0.447860	0.526503	-0.199554	-0.476912	0.369676	-0.090713	-0.433253	0.382953	-0.089957	-0.458574	0.321070	-0.097610	-0.420380	0.332887	-0.095970	-0.364847	0.119996	-0.140341	-0.341962	0.148285	-0.216328	-0.232556	0.083508	-0.078951	-0.185208	0.121839	-0.175863	-0.186378	0.141201	-0.115402	-0.402742	0.071552	-0.218278	-0.575583	0.728774	-0.380176	-0.531240	0.748435	-0.363504	-0.563676	0.686122	-0.379157	-0.519872	0.707165	-0.367583	-0.455672	0.528953	-0.355897	-0.454191	0.513161	-0.241444	-0.581815	0.485163	-0.391182	-0.547747	0.443009	-0.382628	-0.627864	0.452539	-0.393089	-0.593562	0.414071	-0.386063	-0.800590	0.308053	-0.389427	-0.781312	0.289351	-0.306649	-0.818228	0.163023	-0.431876	-0.790732	0.149605	-0.319980	-0.755167	0.117938	-0.378812	-0.867388	0.345973	-0.335911	-0.676092	1.418242	-0.005182	-0.614532	1.439280	-0.320959	
46	0.2250	-0.601574	0.953666	-0.080237	-0.569586	0.979522	-0.301168	-0.769601	0.946965	-0.157423	-0.758715	0.956108	-0.246912	-0.594696	0.702450	-0.036888	-0.540228	0.725873	-0.036769	-0.566039	0.662928	-0.044921	-0.511758	0.685494	-0.044647	-0.433123	0.514166	-0.095030	-0.429678	0.523384	-0.200269	-0.458446	0.366933	-0.091375	-0.414838	0.379645	-0.091275	-0.440856	0.318404	-0.098472	-0.402785	0.329710	-0.097492	-0.351822	0.118077	-0.142287	-0.329325	0.145300	-0.218682	-0.220846	0.080095	-0.081934	-0.173952	0.115599	-0.179416	-0.173626	0.135118	-0.119107	-0.391401	0.071016	-0.219693	-0.550136	0.727936	-0.378238	-0.506345	0.748791	-0.361719	-0.536984	0.685648	-0.377238	-0.493778	0.707890	-0.365868	-0.424777	0.531811	-0.353927	-0.422577	0.516107	-0.239473	-0.549878	0.486636	-0.388715	-0.515148	0.444973	-0.380722	-0.595445	0.453477	-0.390783	-0.560484	0.415494	-0.384258	-0.765766	0.306687	-0.387405	-0.745728	0.287764	-0.304801	-0.778431	0.163190	-0.432161	-0.750674	0.148694	-0.320560	-0.714307	0.119256	-0.379860	-0.833610	0.341613	-0.333074	-0.658305	1.414486	-0.002228	-0.597317	1.436626	-0.318534	
47	0.2300	-0.581606	0.950896	-0.077993	-0.549617	0.976794	-0.298855	-0.749652	0.942915	-0.155250	-0.738730	0.952221	-0.244716	-0.574898	0.698236	-0.035521	-0.520414	0.721507	-0.035158	-0.546257	0.658778	-0.043970	-0.492007	0.681114	-0.043450	-0.413560	0.510740	-0.095683	-0.411073	0.520456	-0.200908	-0.439955	0.364412	-0.092001	-0.396385	0.376409	-0.092609	-0.423312	0.315942	-0.099307	-0.385348	0.326602	-0.099045	-0.339926	0.116243	-0.144318	-0.317778	0.142297	-0.221139	-0.210428	0.076504	-0.085011	-0.163937	0.108900	-0.183094	-0.161999	0.128585	-0.122951	-0.381400	0.070683	-0.221142	-0.524526	0.726990	-0.376218	-0.481311	0.749035	-0.359834	-0.510145	0.685092	-0.375221	-0.467561	0.708524	-0.364044	-0.393917	0.534719	-0.351792	-0.391069	0.519146	-0.237387	-0.517774	0.487911	-0.386209	-0.482321	0.446872	-0.378705	-0.562727	0.454110	-0.388452	-0.527049	0.416745	-0.382376	-0.730092	0.304577	-0.385417	-0.709284	0.285538	-0.302974	-0.737450	0.162725	-0.432361	-0.709444	0.147312	-0.321031	-0.672256	0.120298	-0.380753	-0.799017	0.336277	-0.330326	-0.640367	1.410499	0.000773	-0.579933	1.433762	-0.316110	
48	0.2350	-0.561421	0.947893	-0.075627	-0.529431	0.973834	-0.296418	-0.729488	0.938620	-0.152954	-0.718529	0.948091	-0.242399	-0.554916	0.694051	-0.034162	-0.500468	0.717254	-0.033499	-0.526243	0.654707	-0.043031	-0.472075	0.676908	-0.042203	-0.393646	0.507441	-0.096267	-0.392072	0.517720	-0.201465	-0.421462	0.362112	-0.092583	-0.377920	0.373256	-0.093943	-0.405953	0.313687	-0.100108	-0.368084	0.323576	-0.100610	-0.329093	0.114514	-0.146408	-0.307256	0.139317	-0.223668	-0.201211	0.072800	-0.088142	-0.155078	0.101858	-0.186851	-0.151433	0.121708	-0.126887	-0.372639	0.070548	-0.222602	-0.498803	0.725958	-0.374114	-0.456183	0.749179	-0.357845	-0.483215	0.684470	-0.373103	-0.441274	0.709078	-0.362104	-0.363174	0.537668	-0.349488	-0.359755	0.522265	-0.235181	-0.485575	0.488988	-0.383670	-0.449347	0.448710	-0.376576	-0.529780	0.454442	-0.386107	-0.493335	0.417830	-0.380415	-0.693626	0.301758	-0.383474	-0.672048	0.282708	-0.301174	-0.695400	0.161665	-0.432465	-0.667154	0.145509	-0.321376	-0.629146	0.121079	-0.381470	-0.763634	0.330030	-0.327688	-0.622288	1.406321	0.003812	-0.562396	1.430717	-0.313686	
49	0.2400	-0.541046	0.944693	-0.073138	-0.509054	0.970677	-0.293858	-0.709133	0.934120	-0.150536	-0.698136	0.943756	-0.239959	-0.534777	0.689928	-0.032809	-0.480412	0.713139	-0.031805	-0.506031	0.650743	-0.042098	-0.451991	0.672897	-0.040916	-0.373435	0.504270	-0.096780	-0.372721	0.515168	-0.201937	-0.403009	0.360030	-0.093115	-0.359487	0.370195	-0.095261	-0.388803	0.311639	-0.100863	-0.351017	0.320645	-0.102169	-0.319257	0.112910	-0.148528	-0.297693	0.136401	-0.226235	-0.193106	0.069045	-0.091288	-0.147292	0.094591	-0.190640	-0.141872	0.114601	-0.130863	-0.365020	0.070606	-0.224055	-0.473029	0.724862	-0.371924	-0.431019	0.749240	-0.355748	-0.456265	0.683801	-0.370881	-0.414982	0.709561	-0.360046	-0.332634	0.540650	-0.347017	-0.328733	0.525448	-0.232855	-0.453365	0.489866	-0.381108	-0.416317	0.450486	-0.374334	-0.496685	0.454480	-0.383754	-0.459431	0.418758	-0.378377	-0.656447	0.298271	-0.381585	-0.634108	0.279319	-0.299407	-0.652413	0.160058	-0.432460	-0.623935	0.143340	-0.321582	-0.585123	0.121621	-0.381994	-0.727511	0.322948	-0.325179	-0.604091	1.401996	0.006881	-0.544730	1.427525	-0.311264	
50	0.2450	-0.520518	0.941337	-0.070529	-0.488524	0.967364	-0.291178	-0.688625	0.929458	-0.147999	-0.677591	0.939260	-0.237400	-0.514522	0.685896	-0.031461	-0.460281	0.709182	-0.030086	-0.485667	0.646906	-0.041168	-0.431795	0.669094	-0.039598	-0.352997	0.501226	-0.097215	-0.353081	0.512788	-0.202321	-0.384646	0.358163	-0.093592	-0.341142	0.367235	-0.096548	-0.371898	0.309798	-0.101567	-0.334185	0.317819	-0.103703	-0.310354	0.111452	-0.150653	-0.289027	0.133591	-0.228810	-0.186027	0.065305	-0.094408	-0.140499	0.087223	-0.194414	-0.133261	0.107378	-0.134827	-0.358442	0.070853	-0.225481	-0.447276	0.723724	-0.369648	-0.405885	0.749230	-0.353546	-0.429375	0.683102	-0.368554	-0.388758	0.709985	-0.357870	-0.302391	0.543654	-0.344384	-0.298103	0.528675	-0.230412	-0.421240	0.490545	-0.378531	-0.383336	0.452200	-0.371983	-0.463537	0.454231	-0.381401	-0.425440	0.419536	-0.376263	-0.618653	0.294166	-0.379753	-0.595573	0.275424	-0.297677	-0.608642	0.157962	-0.432336	-0.579940	0.140867	-0.321638	-0.540357	0.121952	-0.382312	-0.690719	0.315110	-0.322813	-0.585806	1.397570	0.009970	-0.526971	1.424220	-0.308849	
51	0.2500	-0.499889	0.937867	-0.067809	-0.467893	0.963938	-0.288385	-0.668015	0.924678	-0.145349	-0.656944	0.934647	-0.234728	-0.494200	0.681980	-0.030115	-0.440120	0.705399	-0.028355	-0.465210	0.643215	-0.040235	-0.411538	0.665509	-0.038258	-0.332415	0.498302	-0.097570	-0.333228	0.510564	-0.202614	-0.366439	0.356499	-0.094009	-0.322951	0.364380	-0.097787	-0.355283	0.308158	-0.102213	-0.317635	0.315108	-0.105195	-0.302322	0.110159	-0.152756	-0.281194	0.130927	-0.231360	-0.179891	0.061640	-0.097465	-0.134621	0.079871	-0.198124	-0.125547	0.100152	-0.138728	-0.352806	0.071286	-0.226865	-0.421628	0.722567	-0.367289	-0.380860	0.749166	-0.351241	-0.402636	0.682391	-0.366126	-0.362688	0.710359	-0.355579	-0.272546	0.546664	-0.341594	-0.267972	0.531927	-0.227855	-0.389306	0.491027	-0.375947	-0.350517	0.453850	-0.369527	-0.430441	0.453709	-0.379054	-0.391480	0.420172	-0.374076	-0.580367	0.289503	-0.377983	-0.556573	0.271079	-0.295986	-0.564259	0.155438	-0.432085	-0.535343	0.138152	-0.321535	-0.495032	0.122102	-0.382414	-0.653355	0.306607	-0.320600	-0.567475	1.393088	0.013065	-0.509165	1.420837	-0.306447	
52	0.2550	-0.479222	0.934327	-0.064986	-0.447225	0.960440	-0.285492	-0.647369	0.919828	-0.142599	-0.636260	0.929964	-0.231956	-0.473877	0.678203	-0.028771	-0.419985	0.701801	-0.026624	-0.444732	0.639683	-0.039295	-0.391284	0.662145	-0.036906	-0.311785	0.495490	-0.097842	-0.313252	0.508476	-0.202817	-0.348460	0.355029	-0.094364	-0.304991	0.361634	-0.098963	-0.339010	0.306712	-0.102795	-0.301423	0.312518	-0.106627	-0.295100	0.109048	-0.154814	-0.274135	0.128447	-0.233857	-0.174619	0.058109	-0.100422	-0.129580	0.072649	-0.201724	-0.118682	0.093032	-0.142517	-0.348015	0.071898	-0.228195	-0.396179	0.721412	-0.364852	-0.356031	0.749061	-0.348841	-0.376148	0.681684	-0.363600	-0.336866	0.710693	-0.353180	-0.243206	0.549668	-0.338661	-0.238450	0.535180	-0.225192	-0.357677	0.491313	-0.373364	-0.317984	0.455433	-0.366973	-0.397517	0.452926	-0.376720	-0.357678	0.420674	-0.371820	-0.541733	0.284347	-0.376277	-0.517260	0.266348	-0.294333	-0.519457	0.152554	-0.431704	-0.490338	0.135259	-0.321267	-0.449355	0.122106	-0.382294	-0.615544	0.297533	-0.318546	-0.549152	1.388598	0.016153	-0.491367	1.417412	-0.304066	
53	0.2600	-0.458596	0.930760	-0.062078	-0.426598	0.956917	-0.282512	-0.626763	0.914956	-0.139762	-0.615617	0.925258	-0.229096	-0.453628	0.674584	-0.027426	-0.399945	0.698398	-0.024903	-0.424315	0.636320	-0.038344	-0.371109	0.659003	-0.035551	-0.291216	0.492780	-0.098031	-0.293254	0.506503	-0.202929	-0.330791	0.353737	-0.094655	-0.287347	0.358999	-0.100064	-0.323139	0.305452	-0.103311	-0.285611	0.310054	-0.107985	-0.288633	0.108132	-0.156805	-0.267791	0.126182	-0.236273	-0.170133	0.054763	-0.103245	-0.125304	0.065661	-0.205174	-0.112617	0.086120	-0.146146	-0.343972	0.072682	-0.229460	-0.371032	0.720279	-0.362345	-0.331495	0.748930	-0.346353	-0.350020	0.680996	-0.360986	-0.311394	0.710996	-0.350681	-0.214482	0.552646	-0.335599	-0.209649	0.538410	-0.222434	-0.326478	0.491409	-0.370791	-0.285872	0.456946	-0.364330	-0.364897	0.451900	-0.374405	-0.324178	0.421051	-0.369502	-0.502918	0.278770	-0.374635	-0.477809	0.261296	-0.292720	-0.474450	0.149382	-0.431189	-0.445141	0.132252	-0.320832	-0.403550	0.121998	-0.381950	-0.577436	0.287990	-0.316653	-0.530899	1.384147	0.019218	-0.473643	1.413981	-0.301715	
54	0.2650	-0.438100	0.927211	-0.059101	-0.406099	0.953410	-0.279464	-0.606286	0.910113	-0.136856	-0.595103	0.920579	-0.226168	-0.433537	0.671137	-0.026082	-0.380078	0.695193	-0.023205	-0.404053	0.633135	-0.037380	-0.351097	0.656079	-0.034201	-0.270824	0.490162	-0.098135	-0.273345	0.504622	-0.202953	-0.313519	0.352610	-0.094882	-0.270109	0.356474	-0.101077	-0.307734	0.304364	-0.103759	-0.270266	0.307719	-0.109254	-0.282863	0.107422	-0.158709	-0.262106	0.124159	-0.238583	-0.166360	0.051647	-0.105905	-0.121719	0.059002	-0.208433	-0.107304	0.079505	-0.149575	-0.340588	0.073629	-0.230651	-0.346297	0.719185	-0.359779	-0.307357	0.748786	-0.343792	-0.324368	0.680339	-0.358295	-0.286381	0.711275	-0.348095	-0.186490	0.555582	-0.332426	-0.181685	0.541592	-0.219596	-0.295841	0.491321	-0.368237	-0.254321	0.458384	-0.361612	-0.332722	0.450651	-0.372116	-0.291128	0.421312	-0.367131	-0.464109	0.272849	-0.373055	-0.438414	0.255994	-0.291145	-0.429468	0.145993	-0.430541	-0.399987	0.129193	-0.320232	-0.357860	0.121813	-0.381388	-0.539206	0.278084	-0.314920	-0.512790	1.379778	0.022242	-0.456066	1.410577	-0.299404	
55	0.2700	-0.417830	0.923720	-0.056077	-0.385828	0.949961	-0.276371	-0.586036	0.905344	-0.133901	-0.574817	0.915973	-0.223193	-0.413700	0.667875	-0.024740	-0.360471	0.692189	-0.021541	-0.384047	0.630132	-0.036400	-0.331343	0.653366	-0.032866	-0.250731	0.487625	-0.098157	-0.253646	0.502815	-0.202892	-0.296733	0.351629	-0.095045	-0.253367	0.354061	-0.101992	-0.292861	0.303436	-0.104137	-0.255455	0.305516	-0.110424	-0.277739	0.106921	-0.160510	-0.257027	0.122398	-0.240766	-0.163228	0.048795	-0.108378	-0.118757	0.052751	-0.211472	-0.102696	0.073267	-0.152769	-0.337776	0.074727	-0.231763	-0.322091	0.718147	-0.357167	-0.283726	0.748640	-0.341172	-0.299311	0.679726	-0.355541	-0.261942	0.711539	-0.345438	-0.159343	0.558456	-0.329166	-0.154669	0.544702	-0.216694	-0.265904	0.491058	-0.365711	-0.223478	0.459743	-0.358833	-0.301141	0.449200	-0.369861	-0.258689	0.421465	-0.364718	-0.425511	0.266665	-0.371538	-0.399285	0.250514	-0.289608	-0.384761	0.142459	-0.429765	-0.355129	0.126141	-0.319472	-0.312540	0.121587	-0.380614	-0.501053	0.267923	-0.313344	-0.494905	1.375534	0.025209	-0.438719	1.407234	-0.297145	
56	0.2750	-0.397894	0.920327	-0.053029	-0.365891	0.946610	-0.273254	-0.566119	0.900696	-0.130922	-0.554864	0.911486	-0.220192	-0.394217	0.664807	-0.023402	-0.341220	0.689386	-0.019919	-0.364404	0.627313	-0.035407	-0.311948	0.650857	-0.031553	-0.231064	0.485160	-0.098099	-0.234280	0.501061	-0.202751	-0.280525	0.350777	-0.095146	-0.237213	0.351759	-0.102801	-0.278589	0.302653	-0.104447	-0.241249	0.303445	-0.111484	-0.273208	0.106630	-0.162195	-0.252503	0.120912	-0.242805	-0.160669	0.046235	-0.110644	-0.116350	0.046972	-0.214262	-0.098744	0.067470	-0.155699	-0.335456	0.075962	-0.232791	-0.298533	0.717178	-0.354524	-0.260718	0.748502	-0.338511	-0.274972	0.679165	-0.352742	-0.238193	0.711792	-0.342726	-0.133158	0.561250	-0.325843	-0.128712	0.547713	-0.213750	-0.236808	0.490631	-0.363225	-0.193493	0.461017	-0.356012	-0.270310	0.447573	-0.367647	-0.227026	0.421519	-0.362275	-0.387347	0.260301	-0.370080	-0.360649	0.244927	-0.288107	-0.340591	0.138850	-0.428867	-0.310830	0.123148	-0.318560	-0.267857	0.121351	-0.379642	-0.463195	0.257620	-0.311918	-0.477332	1.371455	0.028100	-0.421687	1.403984	-0.294949	
57	0.2800	-0.378404	0.917069	-0.049983	-0.346399	0.943393	-0.270141	-0.546648	0.896212	-0.127943	-0.535358	0.907158	-0.217193	-0.375196	0.661939	-0.022072	-0.322427	0.686781	-0.018352	-0.345238	0.624679	-0.034400	-0.293018	0.648542	-0.030270	-0.211949	0.482762	-0.097964	-0.215373	0.499346	-0.202536	-0.264980	0.350038	-0.095190	-0.221736	0.349567	-0.103500	-0.264980	0.301998	-0.104691	-0.227711	0.301505	-0.112428	-0.269223	0.106542	-0.163751	-0.248486	0.119706	-0.244686	-0.158618	0.043982	-0.112690	-0.114434	0.041715	-0.216787	-0.095398	0.062167	-0.158344	-0.333554	0.077317	-0.233735	-0.275743	0.716289	-0.351870	-0.238447	0.748381	-0.335829	-0.251472	0.678664	-0.349917	-0.215251	0.712039	-0.339982	-0.108047	0.563944	-0.322486	-0.103918	0.550603	-0.210785	-0.208694	0.490054	-0.360789	-0.164513	0.462203	-0.353169	-0.240388	0.445796	-0.365483	-0.196303	0.421485	-0.359820	-0.349848	0.253839	-0.368682	-0.322739	0.239306	-0.286643	-0.297229	0.135233	-0.427859	-0.267366	0.120263	-0.317509	-0.224086	0.121134	-0.378489	-0.425865	0.247284	-0.310636	-0.460165	1.367574	0.030898	-0.405064	1.400854	-0.292828	
58	0.2850	-0.359473	0.913977	-0.046966	-0.327466	0.940340	-0.267059	-0.527735	0.891930	-0.124991	-0.516411	0.903027	-0.214220	-0.356745	0.659275	-0.020756	-0.304193	0.684372	-0.016846	-0.326661	0.622228	-0.033384	-0.274662	0.646412	-0.029025	-0.193509	0.480425	-0.097759	-0.197051	0.497657	-0.202254	-0.250182	0.349393	-0.095180	-0.207017	0.347484	-0.104087	-0.252095	0.301456	-0.104873	-0.214904	0.299694	-0.113254	-0.265735	0.106648	-0.165172	-0.244930	0.118779	-0.246399	-0.157013	0.042046	-0.114507	-0.112947	0.037013	-0.219032	-0.092611	0.057390	-0.160690	-0.332002	0.078772	-0.234595	-0.253839	0.715489	-0.349224	-0.217027	0.748284	-0.333147	-0.228930	0.678227	-0.347089	-0.193231	0.712285	-0.337229	-0.084116	0.566521	-0.319126	-0.080385	0.553351	-0.207825	-0.181699	0.489342	-0.358415	-0.136686	0.463296	-0.350329	-0.211532	0.443900	-0.363378	-0.166686	0.421371	-0.357369	-0.313254	0.247364	-0.367342	-0.285797	0.233719	-0.285217	-0.254950	0.131669	-0.426753	-0.225014	0.117526	-0.316336	-0.181501	0.120958	-0.377175	-0.389309	0.237025	-0.309488	-0.443501	1.363921	0.033585	-0.388942	1.397872	-0.290793	
59	0.2900	-0.341216	0.911079	-0.044005	-0.309208	0.937479	-0.264035	-0.509496	0.887885	-0.122092	-0.498139	0.899128	-0.211302	-0.338972	0.656817	-0.019460	-0.286625	0.682154	-0.015410	-0.308784	0.619959	-0.032365	-0.256986	0.644456	-0.027824	-0.175861	0.478149	-0.097490	-0.179435	0.495988	-0.201914	-0.236206	0.348828	-0.095122	-0.193132	0.345509	-0.104561	-0.239987	0.301010	-0.104996	-0.202880	0.298010	-0.113961	-0.262701	0.106932	-0.166454	-0.241793	0.118120	-0.247938	-0.155796	0.040424	-0.116093	-0.111830	0.032881	-0.220994	-0.090330	0.053160	-0.162733	-0.330740	0.080305	-0.235370	-0.232932	0.714782	-0.346608	-0.196568	0.748215	-0.330489	-0.207457	0.677858	-0.344282	-0.172240	0.712531	-0.334489	-0.061463	0.568964	-0.315794	-0.058199	0.555936	-0.204895	-0.155957	0.488512	-0.356117	-0.110149	0.464294	-0.347514	-0.183895	0.441915	-0.361341	-0.138335	0.421188	-0.354941	-0.277802	0.240955	-0.366059	-0.250059	0.228232	-0.283831	-0.214027	0.128213	-0.425566	-0.184049	0.114972	-0.315058	-0.140374	0.120844	-0.375727	-0.353774	0.226950	-0.308464	-0.427434	1.360521	0.036146	-0.373414	1.395058	-0.288855	
60	0.2950	-0.323744	0.908395	-0.041126	-0.291735	0.934832	-0.261096	-0.492040	0.884104	-0.119273	-0.480652	0.895487	-0.208464	-0.321982	0.654565	-0.018192	-0.269823	0.680121	-0.014051	-0.291716	0.617869	-0.031348	-0.240096	0.642664	-0.026675	-0.159113	0.475935	-0.097166	-0.162638	0.494335	-0.201525	-0.223117	0.348326	-0.095022	-0.180143	0.343644	-0.104927	-0.228701	0.300644	-0.105068	-0.191685	0.296449	-0.114550	-0.260076	0.107375	-0.167595	-0.239035	0.117714	-0.249302	-0.154909	0.039106	-0.117451	-0.111029	0.029320	-0.222675	-0.088505	0.049482	-0.164475	-0.329714	0.081893	-0.236065	-0.213127	0.714170	-0.344042	-0.177171	0.748177	-0.327879	-0.187156	0.677556	-0.341521	-0.152380	0.712777	-0.331790	-0.040175	0.571259	-0.312522	-0.037436	0.558344	-0.202023	-0.131589	0.487586	-0.353905	-0.085031	0.465193	-0.344749	-0.157621	0.439872	-0.359383	-0.111397	0.420946	-0.352556	-0.243728	0.234689	-0.364835	-0.215760	0.222908	-0.282488	-0.174726	0.124913	-0.424314	-0.144738	0.112627	-0.313698	-0.100964	0.120805	-0.374170	-0.319506	0.217158	-0.307555	-0.412060	1.357392	0.038567	-0.358569	1.392431	-0.287025	
61	0.3000	-0.307160	0.905942	-0.038355	-0.275149	0.932414	-0.258269	-0.475472	0.880610	-0.116559	-0.464055	0.892126	-0.205733	-0.305873	0.652515	-0.016959	-0.253883	0.678268	-0.012776	-0.275554	0.615954	-0.030342	-0.224088	0.641027	-0.025582	-0.143360	0.473787	-0.096796	-0.146762	0.492699	-0.201098	-0.210967	0.347876	-0.094886	-0.168101	0.341888	-0.105190	-0.218273	0.300345	-0.105093	-0.181353	0.295009	-0.115028	-0.257821	0.107954	-0.168597	-0.236619	0.117540	-0.250494	-0.154303	0.038077	-0.118590	-0.110491	0.026317	-0.224083	-0.087085	0.046347	-0.165925	-0.328877	0.083511	-0.236683	-0.194518	0.713654	-0.341550	-0.158927	0.748171	-0.325340	-0.168117	0.677321	-0.338830	-0.133739	0.713025	-0.329156	-0.020326	0.573394	-0.309343	-0.018156	0.560561	-0.199236	-0.108704	0.486583	-0.351792	-0.061445	0.465995	-0.342061	-0.132843	0.437804	-0.357512	-0.086010	0.420656	-0.350234	-0.211253	0.228636	-0.363669	-0.183116	0.217801	-0.281193	-0.137297	0.121810	-0.423019	-0.107329	0.110509	-0.312279	-0.063517	0.120848	-0.372535	-0.286741	0.207744	-0.306749	-0.397466	1.354547	0.040834	-0.344493	1.390006	-0.285310	
62	0.3050	-0.291559	0.903731	-0.035717	-0.259547	0.930235	-0.255577	-0.459886	0.877419	-0.113975	-0.448440	0.889059	-0.203132	-0.290733	0.650663	-0.015771	-0.238893	0.676587	-0.011588	-0.260387	0.614208	-0.029356	-0.209050	0.639535	-0.024552	-0.128682	0.471714	-0.096390	-0.131897	0.491085	-0.200643	-0.199795	0.347466	-0.094723	-0.157044	0.340242	-0.105359	-0.208726	0.300097	-0.105079	-0.171906	0.293686	-0.115400	-0.255896	0.108644	-0.169464	-0.234510	0.117570	-0.251517	-0.153927	0.037314	-0.119520	-0.110169	0.023846	-0.225233	-0.086019	0.043733	-0.167098	-0.328191	0.085136	-0.237228	-0.177183	0.713231	-0.339153	-0.141917	0.748196	-0.322895	-0.150417	0.677148	-0.336234	-0.116393	0.713273	-0.326612	-0.001974	0.575359	-0.306287	-0.000403	0.562578	-0.196558	-0.087395	0.485526	-0.349791	-0.039489	0.466700	-0.339474	-0.109676	0.435742	-0.355739	-0.062290	0.420329	-0.347997	-0.180579	0.222860	-0.362564	-0.152328	0.212961	-0.279951	-0.101970	0.118935	-0.421701	-0.072051	0.108629	-0.310826	-0.028250	0.120977	-0.370853	-0.255698	0.198790	-0.306038	-0.383733	1.351992	0.042937	-0.331261	1.387791	-0.283718	
63	0.3100	-0.277021	0.901765	-0.033233	-0.245008	0.928299	-0.253043	-0.445363	0.874540	-0.111540	-0.433891	0.886296	-0.200682	-0.276639	0.649003	-0.014637	-0.224927	0.675072	-0.010491	-0.246290	0.612628	-0.028399	-0.195057	0.638182	-0.023590	-0.115143	0.469724	-0.095958	-0.118117	0.489502	-0.200172	-0.189627	0.347089	-0.094538	-0.146994	0.338708	-0.105442	-0.200072	0.299891	-0.105033	-0.163356	0.292476	-0.115677	-0.254266	0.109420	-0.170202	-0.232678	0.117777	-0.252382	-0.153738	0.036789	-0.120258	-0.110019	0.021870	-0.226143	-0.085257	0.041609	-0.168015	-0.327623	0.086742	-0.237704	-0.161185	0.712895	-0.336872	-0.126202	0.748251	-0.320567	-0.134113	0.677032	-0.333758	-0.100400	0.713520	-0.324181	0.014840	0.577148	-0.303382	0.015796	0.564391	-0.194015	-0.067734	0.484438	-0.347911	-0.019236	0.467309	-0.337010	-0.088214	0.433717	-0.354073	-0.040334	0.419975	-0.345862	-0.151886	0.217414	-0.361523	-0.123568	0.208430	-0.278767	-0.068943	0.116310	-0.420381	-0.039102	0.106989	-0.309363	0.004646	0.121188	-0.369154	-0.226575	0.190371	-0.305411	-0.370932	1.349728	0.044869	-0.318938	1.385793	-0.282254	
64	0.3150	-0.263613	0.900043	-0.030920	-0.231599	0.926605	-0.250684	-0.431967	0.871976	-0.109274	-0.420471	0.883839	-0.198401	-0.263650	0.647528	-0.013564	-0.212046	0.673715	-0.009489	-0.233321	0.611207	-0.027481	-0.182169	0.636958	-0.022699	-0.102787	0.467828	-0.095511	-0.105477	0.487960	-0.199694	-0.180471	0.346737	-0.094340	-0.137957	0.337287	-0.105451	-0.192309	0.299715	-0.104962	-0.155699	0.291377	-0.115867	-0.252896	0.110252	-0.170821	-0.231094	0.118127	-0.253099	-0.153695	0.036472	-0.120823	-0.110003	0.020344	-0.226836	-0.084751	0.039933	-0.168702	-0.327146	0.088306	-0.238118	-0.146567	0.712639	-0.334725	-0.111828	0.748331	-0.318375	-0.119244	0.676969	-0.331422	-0.085801	0.713762	-0.321886	0.030096	0.578757	-0.300653	0.030435	0.566000	-0.191626	-0.049773	0.483340	-0.346163	-0.000740	0.467827	-0.334691	-0.068529	0.431757	-0.352522	-0.020213	0.419605	-0.343849	-0.125322	0.212345	-0.360548	-0.096980	0.204239	-0.277647	-0.038383	0.113952	-0.419080	-0.008643	0.105588	-0.307915	0.035017	0.121475	-0.367468	-0.199538	0.182546	-0.304860	-0.359119	1.347749	0.046624	-0.307578	1.384012	-0.280922	
65	0.3200	-0.251382	0.898559	-0.028794	-0.219367	0.925146	-0.248516	-0.419748	0.869722	-0.107189	-0.408230	0.881684	-0.196304	-0.251811	0.646230	-0.012561	-0.200296	0.672510	-0.008582	-0.221521	0.609939	-0.026611	-0.170428	0.635858	-0.021881	-0.091638	0.466038	-0.095061	-0.094013	0.486475	-0.199220	-0.172320	0.346406	-0.094135	-0.129925	0.335981	-0.105400	-0.185425	0.299563	-0.104873	-0.148920	0.290384	-0.115984	-0.251753	0.111115	-0.171329	-0.229731	0.118588	-0.253681	-0.153762	0.036329	-0.121235	-0.110085	0.019217	-0.227339	-0.084455	0.038659	-0.169186	-0.326739	0.089806	-0.238473	-0.133354	0.712456	-0.332727	-0.098821	0.748433	-0.316335	-0.105830	0.676949	-0.329244	-0.072616	0.713998	-0.319744	0.043793	0.580187	-0.298121	0.043525	0.567406	-0.189411	-0.033538	0.482255	-0.344554	0.015971	0.468259	-0.332535	-0.050668	0.429888	-0.351092	-0.001972	0.419228	-0.341972	-0.101002	0.207688	-0.359641	-0.072671	0.200412	-0.276597	-0.010415	0.111865	-0.417818	0.019203	0.104414	-0.306505	0.062751	0.121826	-0.365826	-0.174718	0.175362	-0.304378	-0.348337	1.346044	0.048201	-0.297217	1.382446	-0.279723	
66	0.3250	-0.240355	0.897301	-0.026864	-0.208340	0.923912	-0.246548	-0.408732	0.867771	-0.105298	-0.397194	0.879821	-0.194401	-0.241147	0.645098	-0.011635	-0.189702	0.671447	-0.007770	-0.210913	0.608818	-0.025797	-0.159858	0.634876	-0.021140	-0.081701	0.464366	-0.094616	-0.083741	0.485059	-0.198759	-0.165155	0.346094	-0.093929	-0.122874	0.334791	-0.105299	-0.179394	0.299427	-0.104771	-0.142992	0.289494	-0.116039	-0.250810	0.111983	-0.171739	-0.228567	0.119128	-0.254143	-0.153909	0.036328	-0.121516	-0.110236	0.018433	-0.227677	-0.084327	0.037735	-0.169497	-0.326387	0.091222	-0.238777	-0.121549	0.712335	-0.330893	-0.087188	0.748552	-0.314461	-0.093867	0.676966	-0.327240	-0.060846	0.714225	-0.317772	0.055950	0.581441	-0.295802	0.055097	0.568618	-0.187384	-0.019032	0.481203	-0.343091	0.030896	0.468612	-0.330556	-0.034648	0.428132	-0.349789	0.014373	0.418853	-0.340245	-0.079000	0.203467	-0.358806	-0.050710	0.196966	-0.275624	0.014877	0.110049	-0.416614	0.044359	0.103454	-0.305157	0.087777	0.122229	-0.364253	-0.152207	0.168852	-0.303957	-0.338609	1.344600	0.049600	-0.287879	1.381087	-0.278657	
67	0.3300	-0.230542	0.896255	-0.025137	-0.198526	0.922886	-0.244787	-0.398928	0.866106	-0.103604	-0.387373	0.878235	-0.192697	-0.231662	0.644123	-0.010790	-0.180272	0.670519	-0.007051	-0.201497	0.607835	-0.025046	-0.150464	0.634005	-0.020476	-0.072958	0.462822	-0.094187	-0.074656	0.483727	-0.198321	-0.158937	0.345799	-0.093729	-0.116765	0.333718	-0.105163	-0.174179	0.299304	-0.104664	-0.137876	0.288703	-0.116045	-0.250039	0.112833	-0.172061	-0.227578	0.119715	-0.254498	-0.154106	0.036437	-0.121689	-0.110430	0.017938	-0.227880	-0.084327	0.037109	-0.169664	-0.326079	0.092538	-0.239033	-0.111134	0.712268	-0.329232	-0.076912	0.748681	-0.312763	-0.083332	0.677012	-0.325422	-0.050469	0.714440	-0.315980	0.066608	0.582524	-0.293709	0.065203	0.569645	-0.185553	-0.006232	0.480201	-0.341776	0.044059	0.468892	-0.328764	-0.020459	0.426509	-0.348616	0.028836	0.418490	-0.338676	-0.059351	0.199696	-0.358045	-0.031123	0.193906	-0.274732	0.037459	0.108495	-0.415484	0.066794	0.102689	-0.303888	0.110073	0.122666	-0.362773	-0.132055	0.163032	-0.303590	-0.329945	1.343396	0.050826	-0.279569	1.379926	-0.277720	
68	0.3350	-0.221930	0.895402	-0.023614	-0.189912	0.922050	-0.243235	-0.390324	0.864710	-0.102111	-0.378753	0.876908	-0.191194	-0.223344	0.643291	-0.010032	-0.171993	0.669718	-0.006424	-0.193254	0.606985	-0.024364	-0.142230	0.633240	-0.019888	-0.065375	0.461415	-0.093782	-0.066734	0.482492	-0.197911	-0.153619	0.345524	-0.093539	-0.111548	0.332761	-0.105003	-0.169734	0.299191	-0.104556	-0.133525	0.288008	-0.116012	-0.249415	0.113645	-0.172308	-0.226746	0.120321	-0.254763	-0.154332	0.036624	-0.121774	-0.110646	0.017675	-0.227973	-0.084419	0.036726	-0.169719	-0.325805	0.093741	-0.239247	-0.102070	0.712242	-0.327749	-0.067958	0.748817	-0.311248	-0.074180	0.677079	-0.323797	-0.041445	0.714639	-0.314377	0.075827	0.583445	-0.291848	0.073910	0.570501	-0.183926	0.004911	0.479266	-0.340610	0.055513	0.469109	-0.327165	-0.008062	0.425033	-0.347574	0.041460	0.418146	-0.337274	-0.042046	0.196378	-0.357361	-0.013896	0.191229	-0.273925	0.057341	0.107190	-0.414442	0.086526	0.102097	-0.302716	0.129663	0.123122	-0.361404	-0.114267	0.157907	-0.303274	-0.322334	1.342411	0.051884	-0.272274	1.378949	-0.276908	
69	0.3400	-0.214484	0.894721	-0.022293	-0.182466	0.921385	-0.241887	-0.382885	0.863560	-0.100815	-0.371301	0.875817	-0.189890	-0.216158	0.642593	-0.009361	-0.164834	0.669033	-0.005884	-0.186149	0.606257	-0.023755	-0.135121	0.632576	-0.019376	-0.058898	0.460152	-0.093407	-0.059930	0.481366	-0.197537	-0.149141	0.345267	-0.093362	-0.107162	0.331919	-0.104831	-0.166002	0.299086	-0.104451	-0.129880	0.287404	-0.115953	-0.248916	0.114401	-0.172491	-0.226052	0.120920	-0.254954	-0.154568	0.036862	-0.121792	-0.110867	0.017591	-0.227983	-0.084573	0.036535	-0.169688	-0.325561	0.094821	-0.239424	-0.094299	0.712250	-0.326445	-0.060273	0.748952	-0.309916	-0.066348	0.677160	-0.322366	-0.033713	0.714822	-0.312966	0.083683	0.584216	-0.290219	0.081303	0.571200	-0.182502	0.014467	0.478409	-0.339593	0.065330	0.469270	-0.325763	0.002609	0.423714	-0.346663	0.052314	0.417825	-0.336038	-0.027038	0.193505	-0.356753	0.001026	0.188926	-0.273206	0.074584	0.106115	-0.413497	0.103619	0.101655	-0.301652	0.146616	0.123581	-0.360163	-0.098806	0.153464	-0.303002	-0.315748	1.341623	0.052783	-0.265966	1.378142	-0.276216	
70	0.3450	-0.208154	0.894192	-0.021166	-0.176135	0.920869	-0.240739	-0.376561	0.862630	-0.099710	-0.364965	0.874938	-0.188779	-0.210052	0.642014	-0.008777	-0.158745	0.668457	-0.005427	-0.180124	0.605643	-0.023221	-0.129086	0.632007	-0.018937	-0.053457	0.459038	-0.093067	-0.054183	0.480357	-0.197201	-0.145433	0.345033	-0.093203	-0.103537	0.331189	-0.104656	-0.162922	0.298988	-0.104353	-0.126879	0.286886	-0.115878	-0.248522	0.115088	-0.172622	-0.225480	0.121491	-0.255083	-0.154799	0.037125	-0.121763	-0.111081	0.017638	-0.227934	-0.084763	0.036488	-0.169599	-0.325345	0.095773	-0.239568	-0.087745	0.712281	-0.325320	-0.053784	0.749084	-0.308767	-0.059753	0.677247	-0.321130	-0.027196	0.714985	-0.311744	0.090271	0.584849	-0.288819	0.087479	0.571759	-0.181278	0.022531	0.477640	-0.338719	0.073609	0.469385	-0.324553	0.011643	0.422556	-0.345878	0.061495	0.417535	-0.334970	-0.014236	0.191062	-0.356221	0.013737	0.186978	-0.272575	0.089291	0.105248	-0.412658	0.118180	0.101340	-0.300706	0.161046	0.124026	-0.359060	-0.085591	0.149677	-0.302771	-0.310143	1.341005	0.053534	-0.260602	1.377486	-0.275634	
71	0.3500	-0.202870	0.893791	-0.020223	-0.170851	0.920479	-0.239778	-0.371283	0.861894	-0.098786	-0.359677	0.874245	-0.187849	-0.204958	0.641542	-0.008280	-0.153661	0.667979	-0.005046	-0.175109	0.605133	-0.022761	-0.124055	0.631526	-0.018566	-0.048972	0.458073	-0.092768	-0.049419	0.479471	-0.196907	-0.142421	0.344821	-0.093063	-0.100596	0.330567	-0.104487	-0.160427	0.298899	-0.104265	-0.124454	0.286449	-0.115794	-0.248216	0.115698	-0.172712	-0.225014	0.122018	-0.255165	-0.155014	0.037394	-0.121702	-0.111277	0.017771	-0.227846	-0.084968	0.036542	-0.169472	-0.325154	0.096594	-0.239684	-0.082317	0.712327	-0.324366	-0.048403	0.749207	-0.307793	-0.054301	0.677335	-0.320081	-0.021801	0.715129	-0.310707	0.095696	0.585358	-0.287638	0.092547	0.572197	-0.180245	0.029212	0.476966	-0.337983	0.080465	0.469463	-0.323530	0.019155	0.421561	-0.345215	0.069120	0.417277	-0.334063	-0.003517	0.189024	-0.355764	0.024368	0.185362	-0.272032	0.101605	0.104565	-0.411928	0.130359	0.101127	-0.299881	0.173104	0.124446	-0.358099	-0.074504	0.146512	-0.302578	-0.305460	1.340533	0.054151	-0.256122	1.376966	-0.275155	
72	0.3550	-0.198549	0.893496	-0.019451	-0.166530	0.920194	-0.238991	-0.366966	0.861326	-0.098029	-0.355353	0.873712	-0.187087	-0.200795	0.641165	-0.007864	-0.149502	0.667590	-0.004735	-0.171019	0.604717	-0.022374	-0.119947	0.631127	-0.018260	-0.045350	0.457255	-0.092509	-0.045549	0.478710	-0.196656	-0.140024	0.344634	-0.092942	-0.098260	0.330048	-0.104330	-0.158448	0.298818	-0.104188	-0.122535	0.286087	-0.115709	-0.247981	0.116224	-0.172769	-0.224641	0.122488	-0.255212	-0.155207	0.037652	-0.121624	-0.111450	0.017954	-0.227738	-0.085169	0.036660	-0.169329	-0.324987	0.097288	-0.239776	-0.077911	0.712381	-0.323576	-0.044031	0.749319	-0.306986	-0.049883	0.677420	-0.319210	-0.017426	0.715253	-0.309845	0.100075	0.585760	-0.286663	0.096623	0.572530	-0.179393	0.034637	0.476388	-0.337375	0.086028	0.469511	-0.322682	0.025274	0.420724	-0.344666	0.075326	0.417054	-0.333309	0.005276	0.187360	-0.355380	0.033078	0.184050	-0.271574	0.111707	0.104040	-0.411307	0.140337	0.100993	-0.299179	0.182976	0.124828	-0.357282	-0.065393	0.143920	-0.302417	-0.301627	1.340182	0.054646	-0.252457	1.376561	-0.274768	
